{"type":"FeatureCollection","features":[{"type":"Feature","properties":{"from":"Avenida YPFB","name":"MiniBus 8: Avenida YPFB → El Abra","network":"BO:CB:Cochabamba","on_demand":"yes","operator":"Sindicato mixto de transporte público 6 de mayo","public_transport:version":"2","ref":"8","route":"bus","to":"El Abra","type":"route","wheelchair":"no","id":10688740},"geometry":{"type":"LineString","coordinates":[[-66.13313760000001,-17.476018200000002],[-66.1335018,-17.475906600000002],[-66.1338508,-17.4757843],[-66.1341778,-17.4757153],[-66.13498630000001,-17.475715700000002],[-66.13557610000001,-17.475740100000003],[-66.1356602,-17.4757514],[-66.13630930000001,-17.475788],[-66.13638780000001,-17.4757925],[-66.13636790000001,-17.475739],[-66.1363024,-17.475689000000003],[-66.1361924,-17.4756578],[-66.13607850000001,-17.4756478],[-66.1360064,-17.4756378],[-66.13588990000001,-17.475596600000003],[-66.1357249,-17.475444300000003],[-66.13546070000001,-17.475329700000003],[-66.1353284,-17.475272200000003],[-66.1351058,-17.475163600000002],[-66.13488930000001,-17.475070600000002],[-66.1348978,-17.4750379],[-66.1349175,-17.4749932],[-66.1349198,-17.474957],[-66.13492160000001,-17.4748796],[-66.1349175,-17.4748424],[-66.1349016,-17.474810100000003],[-66.1348153,-17.4747683],[-66.1345574,-17.4745789],[-66.1343176,-17.4743499],[-66.133977,-17.4741232],[-66.1332919,-17.473785000000003],[-66.13320490000001,-17.4737407],[-66.13281620000001,-17.473602200000002],[-66.1327066,-17.4735747],[-66.1326516,-17.473561800000002],[-66.13242240000001,-17.473541500000003],[-66.1323115,-17.473525600000002],[-66.13211170000001,-17.473206700000002],[-66.1314354,-17.4738736],[-66.1313384,-17.473770100000003],[-66.13117190000001,-17.473460900000003],[-66.13112910000001,-17.4733585],[-66.1309626,-17.473026],[-66.13074370000001,-17.472624800000002],[-66.13053210000001,-17.472178800000002],[-66.1305423,-17.472072800000003],[-66.1305865,-17.4718063],[-66.1305748,-17.4713938],[-66.1305774,-17.4713166],[-66.1306313,-17.4710655],[-66.1302208,-17.4694472],[-66.1300417,-17.4689404],[-66.130004,-17.468841400000002],[-66.12983840000001,-17.468431000000002],[-66.1296166,-17.467957100000003],[-66.12947390000001,-17.4676975],[-66.12915310000001,-17.467057500000003],[-66.12906240000001,-17.466896300000002],[-66.12894250000001,-17.4666627],[-66.1288021,-17.466371000000002],[-66.1287679,-17.466316900000002],[-66.1287154,-17.466279200000002],[-66.12862940000001,-17.466246700000003],[-66.12841,-17.4662347],[-66.1288968,-17.464917600000003],[-66.128698,-17.464825700000002],[-66.1280127,-17.464661200000002],[-66.127868,-17.464588300000003],[-66.1279456,-17.464479400000002],[-66.12805990000001,-17.464196],[-66.128146,-17.4640264],[-66.1282166,-17.463931600000002],[-66.12833780000001,-17.4637758],[-66.12846590000001,-17.463684],[-66.1285453,-17.463652500000002],[-66.1286982,-17.4636168],[-66.1289215,-17.463594800000003],[-66.1295343,-17.463555900000003],[-66.1297219,-17.463506300000002],[-66.1298462,-17.463459800000003],[-66.12988530000001,-17.463445200000002],[-66.1299745,-17.4633819],[-66.13013520000001,-17.4632438],[-66.1303779,-17.462976400000002],[-66.13054670000001,-17.462803800000003],[-66.1306354,-17.4626954],[-66.1307003,-17.4626319],[-66.1308218,-17.4625214],[-66.1309373,-17.462426800000003],[-66.1310907,-17.4622925],[-66.13116570000001,-17.462208200000003],[-66.1312243,-17.462113300000002],[-66.13127820000001,-17.4619906],[-66.13132780000001,-17.4618405],[-66.1313674,-17.461753],[-66.13141660000001,-17.461676500000003],[-66.1315866,-17.461422300000002],[-66.13171530000001,-17.461204700000003],[-66.131928,-17.460763],[-66.132024,-17.460614900000003],[-66.1325197,-17.460111700000002],[-66.1325583,-17.4600292],[-66.13252290000001,-17.459903200000003],[-66.13224120000001,-17.459347400000002],[-66.1322104,-17.459220900000002],[-66.13222640000001,-17.4588532],[-66.13223880000001,-17.458660700000003],[-66.1322322,-17.458463000000002],[-66.1321966,-17.4582461],[-66.1321075,-17.457931600000002],[-66.13208180000001,-17.457837700000002],[-66.131972,-17.457626400000002],[-66.13188840000001,-17.457464400000003],[-66.13178300000001,-17.457079],[-66.1316951,-17.456654800000003],[-66.1316061,-17.455983],[-66.13149840000001,-17.455218900000002],[-66.1314777,-17.455135300000002],[-66.13145220000001,-17.455049900000002],[-66.13141350000001,-17.4549787],[-66.1313872,-17.4549412],[-66.1312676,-17.454780600000003],[-66.13121240000001,-17.454673500000002],[-66.1310751,-17.454458600000002],[-66.13057690000001,-17.453855200000003],[-66.12970370000001,-17.4526857],[-66.1296769,-17.4526527],[-66.129396,-17.452307100000002],[-66.129323,-17.452218100000003],[-66.1292949,-17.4521924],[-66.12925870000001,-17.4521546],[-66.1291422,-17.452034700000002],[-66.1291133,-17.452005900000003],[-66.12908440000001,-17.451977000000003],[-66.12865310000001,-17.452479200000003],[-66.1285156,-17.4523891],[-66.12848310000001,-17.4523678],[-66.1285742,-17.452265200000003],[-66.12878300000001,-17.452029800000002],[-66.1289235,-17.451867],[-66.12913970000001,-17.451620000000002],[-66.1291657,-17.451590200000002],[-66.1294345,-17.4513159],[-66.12968950000001,-17.4510541],[-66.12988080000001,-17.4508577],[-66.12998160000001,-17.4507572],[-66.1306673,-17.4500597],[-66.13072770000001,-17.4500025],[-66.1309258,-17.449815100000002],[-66.1311443,-17.449614800000003],[-66.1313635,-17.449430200000002],[-66.13193220000001,-17.448960500000002],[-66.13243440000001,-17.4485794],[-66.13302780000001,-17.4481623],[-66.13315390000001,-17.448073500000003],[-66.1336701,-17.4477489],[-66.1339081,-17.4475984],[-66.1340349,-17.4475349],[-66.1341388,-17.447470000000003],[-66.1342731,-17.4473629],[-66.13433640000001,-17.4473102],[-66.134454,-17.4472126],[-66.13453080000001,-17.447159600000003],[-66.13463560000001,-17.4470981],[-66.13476290000001,-17.447030100000003],[-66.13488070000001,-17.4469715],[-66.1352121,-17.4468129],[-66.1354716,-17.446696300000003],[-66.1359012,-17.4464788],[-66.13695460000001,-17.445887300000003],[-66.13725690000001,-17.4457182],[-66.1374399,-17.445615800000002],[-66.13883990000001,-17.4448353],[-66.13989760000001,-17.444245600000002],[-66.1401165,-17.4441092],[-66.14047040000001,-17.443862000000003],[-66.1407858,-17.443612],[-66.14082900000001,-17.443572900000003],[-66.14103510000001,-17.4433803],[-66.14224560000001,-17.442256200000003],[-66.1423104,-17.442200800000002],[-66.14236890000001,-17.4421295],[-66.1424013,-17.4420784],[-66.1424279,-17.442036400000003],[-66.14251490000001,-17.4419016],[-66.1425487,-17.441851900000003],[-66.14259030000001,-17.4418022],[-66.1427171,-17.441682],[-66.1427848,-17.441626300000003],[-66.1429796,-17.4414878],[-66.14330170000001,-17.441260500000002],[-66.1433971,-17.441185400000002],[-66.14347690000001,-17.441114900000002],[-66.14355660000001,-17.4410285],[-66.1435969,-17.4409782],[-66.14382040000001,-17.4406992],[-66.14399470000001,-17.440435100000002],[-66.14419330000001,-17.4401057],[-66.1442117,-17.440072200000003],[-66.14445710000001,-17.4396257],[-66.144834,-17.438950700000003],[-66.1448555,-17.438912300000002],[-66.14509550000001,-17.4385072],[-66.1451778,-17.4383541],[-66.1452495,-17.438213],[-66.14528460000001,-17.438131400000003],[-66.145324,-17.438039800000002],[-66.1453867,-17.437914000000003],[-66.14541120000001,-17.437866300000003],[-66.1454418,-17.4378068],[-66.1454977,-17.437707000000003],[-66.14569680000001,-17.4374639],[-66.14591820000001,-17.4372088],[-66.14611380000001,-17.4369489],[-66.1466853,-17.436179600000003],[-66.14733860000001,-17.4353002],[-66.1474728,-17.4351141],[-66.14793250000001,-17.4344888],[-66.1482129,-17.4341118],[-66.1485268,-17.4336898],[-66.1489382,-17.4331591],[-66.14925550000001,-17.4327246],[-66.14939190000001,-17.4325213],[-66.149747,-17.432055000000002],[-66.1500503,-17.4316567],[-66.1502384,-17.4313818],[-66.15037170000001,-17.431185300000003],[-66.1504225,-17.4311054],[-66.15052250000001,-17.4309346],[-66.15054930000001,-17.4308836],[-66.1507479,-17.4305056],[-66.15081190000001,-17.4303664],[-66.1509092,-17.430102400000003],[-66.1509693,-17.429924800000002],[-66.150999,-17.4298541],[-66.15102200000001,-17.4298055],[-66.1511069,-17.4296341],[-66.1512046,-17.429471600000003],[-66.1512951,-17.429341800000003],[-66.15135910000001,-17.4292678],[-66.1514234,-17.429199500000003],[-66.1515071,-17.429114000000002],[-66.1520629,-17.4286034],[-66.1524789,-17.428200500000003],[-66.1527178,-17.427944200000002],[-66.1529307,-17.4276804],[-66.1530846,-17.4274518],[-66.1532732,-17.4270934],[-66.1534092,-17.426773400000002],[-66.1535061,-17.426477100000003],[-66.1536583,-17.4258662],[-66.1537421,-17.4255007],[-66.15378410000001,-17.425112700000003],[-66.153788,-17.425082800000002],[-66.1537952,-17.4246383],[-66.1537825,-17.424189100000003],[-66.15375490000001,-17.4238131],[-66.1537423,-17.4236599],[-66.15374,-17.4236463],[-66.1536868,-17.4233294],[-66.15361530000001,-17.422936800000002],[-66.1535906,-17.422801200000002],[-66.15347030000001,-17.4222569],[-66.15345710000001,-17.422197],[-66.1534055,-17.4220523],[-66.15331730000001,-17.421904100000003],[-66.15325990000001,-17.421819600000003],[-66.15320480000001,-17.421748200000003],[-66.153108,-17.421653600000003],[-66.15308850000001,-17.421645400000003],[-66.1530706,-17.421633200000002],[-66.15305310000001,-17.4216146],[-66.1530292,-17.421584300000003],[-66.15301210000001,-17.4215488],[-66.15300470000001,-17.4215206],[-66.15300230000001,-17.4214819],[-66.153006,-17.421454100000002],[-66.15301410000001,-17.421427100000002],[-66.15302650000001,-17.421401600000003],[-66.15303990000001,-17.4213819],[-66.1530548,-17.421365100000003],[-66.1530582,-17.4212451],[-66.1530651,-17.4211661],[-66.1530566,-17.4210391],[-66.1530058,-17.420819700000003],[-66.15293630000001,-17.420663],[-66.15280650000001,-17.420377000000002],[-66.15261190000001,-17.4199819],[-66.1525969,-17.419952400000003],[-66.15247810000001,-17.419718800000002],[-66.1523142,-17.4194022],[-66.15218300000001,-17.419165600000003],[-66.15181340000001,-17.418523200000003],[-66.1517008,-17.4183133],[-66.1515933,-17.418084],[-66.1515593,-17.417976200000002],[-66.15153880000001,-17.4178989],[-66.1515294,-17.417838300000003],[-66.15152140000001,-17.4177646],[-66.1515169,-17.417669200000002],[-66.1515174,-17.4176253],[-66.15151900000001,-17.4174973],[-66.15153620000001,-17.4173158],[-66.1515451,-17.4171988],[-66.1515701,-17.417080700000003],[-66.1515696,-17.417045400000003],[-66.15157660000001,-17.417010700000002],[-66.151572,-17.4168489],[-66.15155630000001,-17.4165445],[-66.151454,-17.4156139],[-66.1514434,-17.4155291],[-66.1512807,-17.414014700000003],[-66.15126090000001,-17.413878200000003],[-66.151189,-17.413253100000002],[-66.1511181,-17.412696500000003],[-66.1510765,-17.412379400000003],[-66.15104070000001,-17.4119011],[-66.1510011,-17.411409300000003],[-66.1507869,-17.409366000000002],[-66.15076470000001,-17.4087703],[-66.1507358,-17.4084235],[-66.15071250000001,-17.407631700000003],[-66.1507746,-17.4049827],[-66.150771,-17.404971600000003],[-66.15077000000001,-17.4049601],[-66.15077190000001,-17.404948400000002],[-66.1507766,-17.4049374],[-66.1507837,-17.404927700000002],[-66.1508472,-17.4046287],[-66.150896,-17.404378100000002],[-66.1509295,-17.404109400000003],[-66.1509427,-17.403939700000002],[-66.15092440000001,-17.403489],[-66.1509204,-17.4033251],[-66.1508986,-17.402581700000002],[-66.15089210000001,-17.402390800000003],[-66.15088990000001,-17.4022599],[-66.15091410000001,-17.4021192],[-66.1509729,-17.4019459],[-66.1510198,-17.4018412],[-66.1511813,-17.401497300000003],[-66.1512002,-17.401454400000002],[-66.1512301,-17.4013183],[-66.1512356,-17.4011615],[-66.15122360000001,-17.4010129],[-66.15119960000001,-17.400908400000002],[-66.15115990000001,-17.400784],[-66.1511079,-17.4006717],[-66.15106730000001,-17.4005979],[-66.1509999,-17.400493200000003],[-66.1509233,-17.4003938],[-66.1508146,-17.400286400000002],[-66.15086930000001,-17.4002252],[-66.15089730000001,-17.400136600000003],[-66.1509151,-17.399965],[-66.1509855,-17.3992846],[-66.1510846,-17.398539600000003],[-66.1510902,-17.398456600000003],[-66.15115630000001,-17.397774700000003],[-66.1513099,-17.396614800000002],[-66.15150530000001,-17.395542600000002],[-66.15044230000001,-17.3953552],[-66.14962680000001,-17.3952107],[-66.1492527,-17.395144400000003],[-66.14921100000001,-17.395137000000002],[-66.149167,-17.395129200000003],[-66.1491829,-17.395060400000002],[-66.1492372,-17.394778300000002],[-66.1493039,-17.394431500000003],[-66.1493561,-17.3941416],[-66.1493544,-17.394092500000003],[-66.1493561,-17.394017700000003],[-66.1495434,-17.393104800000003],[-66.14955570000001,-17.393052200000003],[-66.1495696,-17.3929855],[-66.1497525,-17.3920777],[-66.1497628,-17.3920265],[-66.14977370000001,-17.391967400000002],[-66.1498584,-17.3915058],[-66.14993820000001,-17.391094000000002],[-66.14995180000001,-17.391033500000002],[-66.14996670000001,-17.3909479],[-66.14997810000001,-17.390874],[-66.15009660000001,-17.390268900000002],[-66.15018280000001,-17.3898291],[-66.1501946,-17.3897684],[-66.15014330000001,-17.389758200000003],[-66.1500862,-17.3897464],[-66.1500285,-17.3896792],[-66.1499919,-17.389626900000003],[-66.14985870000001,-17.3894366],[-66.1496274,-17.3891111],[-66.14944530000001,-17.3888366],[-66.1493179,-17.388644900000003],[-66.148589,-17.3875935],[-66.1484621,-17.3874105],[-66.14843490000001,-17.387371400000003],[-66.14833270000001,-17.387223900000002],[-66.14830710000001,-17.387187400000002],[-66.14793540000001,-17.386657500000002],[-66.14772880000001,-17.386363000000003],[-66.14756630000001,-17.386131300000002],[-66.1475078,-17.386042500000002],[-66.147457,-17.385965300000002],[-66.1474046,-17.385888700000002],[-66.1462893,-17.3842572],[-66.1462628,-17.3842184],[-66.14622080000001,-17.3841579],[-66.14619420000001,-17.384118800000003],[-66.145645,-17.3833109],[-66.1450688,-17.3824723],[-66.14499590000001,-17.3823672],[-66.1442653,-17.3813172],[-66.1442009,-17.3812213],[-66.14385630000001,-17.380725400000003],[-66.14314370000001,-17.3796697],[-66.1429952,-17.379450900000002],[-66.142953,-17.3793846],[-66.14288610000001,-17.379298600000002],[-66.14285310000001,-17.3792608],[-66.1428114,-17.3792329],[-66.14274680000001,-17.3792082],[-66.1424977,-17.3791209],[-66.142442,-17.379105300000003],[-66.1423972,-17.379096200000003],[-66.1423486,-17.3790869],[-66.1423139,-17.3790847],[-66.1423073,-17.379092800000002],[-66.1423,-17.3791003],[-66.14228750000001,-17.379110500000003],[-66.1422737,-17.3791189],[-66.14224390000001,-17.3791297],[-66.14221230000001,-17.379132600000002],[-66.1421811,-17.3791273],[-66.1421524,-17.3791143],[-66.14212850000001,-17.379095600000003],[-66.14211780000001,-17.379081300000003],[-66.14210940000001,-17.379066700000003],[-66.14210480000001,-17.379056000000002],[-66.142099,-17.379032600000002],[-66.1420987,-17.379009200000002],[-66.1421036,-17.3789863],[-66.1421134,-17.378964800000002],[-66.14212780000001,-17.3789459],[-66.142145,-17.3789294],[-66.14211610000001,-17.3788783],[-66.14216560000001,-17.3784026],[-66.14218740000001,-17.378126400000003],[-66.14222570000001,-17.377979500000002],[-66.1421823,-17.3778253],[-66.14212230000001,-17.3777316],[-66.1420903,-17.3776866],[-66.14204880000001,-17.377630500000002],[-66.14194090000001,-17.3775146],[-66.1418817,-17.377469700000002],[-66.14178960000001,-17.377409200000002],[-66.14170870000001,-17.3773783],[-66.14128330000001,-17.3772714],[-66.140656,-17.3771038],[-66.14012500000001,-17.3769673],[-66.13982080000001,-17.3768908],[-66.1395961,-17.376829700000002],[-66.13891140000001,-17.376623600000002],[-66.13860720000001,-17.3765156],[-66.13840710000001,-17.3764366],[-66.13813560000001,-17.376318400000002],[-66.1378744,-17.376198000000002],[-66.13754270000001,-17.3760194],[-66.1375201,-17.3760075],[-66.1371721,-17.375794600000003],[-66.13714350000001,-17.3757771],[-66.1365925,-17.3754096],[-66.13639280000001,-17.375275600000002],[-66.1361909,-17.3751518],[-66.1358472,-17.3749484],[-66.1356686,-17.3748663],[-66.13545060000001,-17.374784700000003],[-66.1352171,-17.3747197],[-66.13500690000001,-17.3746727],[-66.1349531,-17.3746639],[-66.1347777,-17.3746353],[-66.1345232,-17.3746121],[-66.1343324,-17.3746113],[-66.1336655,-17.374607800000003],[-66.1332637,-17.3746079],[-66.1331657,-17.3746079],[-66.1320171,-17.374608300000002],[-66.1319031,-17.3746101],[-66.1318712,-17.374610200000003],[-66.131338,-17.3746076],[-66.1310859,-17.3746058],[-66.1307829,-17.374607100000002],[-66.1305399,-17.374620200000003],[-66.13031570000001,-17.3746598],[-66.13010680000001,-17.374703],[-66.1299218,-17.3747584],[-66.12981950000001,-17.3747924],[-66.1296915,-17.374848200000002],[-66.12961220000001,-17.374899900000003],[-66.1295465,-17.374952500000003],[-66.129496,-17.3750064],[-66.12942120000001,-17.375093300000003],[-66.1294007,-17.375113600000002],[-66.1293625,-17.3751526],[-66.1293533,-17.3751627],[-66.129337,-17.3751804],[-66.1292966,-17.375214900000003],[-66.1292571,-17.3752399],[-66.1292169,-17.375255900000003],[-66.1291827,-17.375266800000002],[-66.12915360000001,-17.3752716],[-66.1291314,-17.3752742],[-66.12905900000001,-17.375282300000002],[-66.1290276,-17.3752871],[-66.1289665,-17.3752992],[-66.12889750000001,-17.375317900000002],[-66.12882610000001,-17.375349],[-66.12876630000001,-17.375380900000003],[-66.12865980000001,-17.3754436],[-66.1285253,-17.3755346],[-66.12831360000001,-17.3756847],[-66.1276448,-17.3761566],[-66.12754020000001,-17.3762313],[-66.12739780000001,-17.376333000000002],[-66.12716610000001,-17.3764985],[-66.1257156,-17.3774999],[-66.12484070000001,-17.3781216],[-66.124205,-17.3785528],[-66.1235178,-17.378986],[-66.12270240000001,-17.379518200000003],[-66.1225359,-17.3796241],[-66.12225400000001,-17.3798122],[-66.12187920000001,-17.3800537],[-66.1212818,-17.3804516],[-66.12120800000001,-17.3805008],[-66.12092630000001,-17.380703800000003],[-66.120891,-17.380738800000003],[-66.120766,-17.380862800000003],[-66.1206599,-17.3810073],[-66.1204943,-17.381222400000002],[-66.12047700000001,-17.3812493],[-66.12040440000001,-17.381327000000002],[-66.12034680000001,-17.381368000000002],[-66.12028190000001,-17.381404800000002],[-66.1201128,-17.381460800000003],[-66.12008390000001,-17.3814655],[-66.1199728,-17.381476300000003],[-66.11978400000001,-17.3814983],[-66.11958200000001,-17.38153],[-66.1194402,-17.381557400000002],[-66.1193164,-17.3815883],[-66.1192997,-17.3815937],[-66.1191876,-17.3816388],[-66.1189298,-17.381746200000002],[-66.11868390000001,-17.3818458],[-66.1186373,-17.3818622],[-66.1183007,-17.3819804],[-66.117861,-17.382119600000003],[-66.11725600000001,-17.3822712],[-66.1169263,-17.3823466],[-66.11659110000001,-17.382414200000003],[-66.116185,-17.382496000000003],[-66.1147937,-17.3827858],[-66.1138214,-17.382978],[-66.11273340000001,-17.3832115],[-66.1117093,-17.383429800000002],[-66.1105892,-17.383656600000002],[-66.1101277,-17.383746000000002],[-66.1097251,-17.383824],[-66.10970990000001,-17.383899000000003],[-66.10967260000001,-17.383956700000002],[-66.1096182,-17.384001400000002],[-66.109609,-17.3840849],[-66.109633,-17.3841864],[-66.10980620000001,-17.384918300000002],[-66.1099088,-17.3853176],[-66.11004510000001,-17.3858481],[-66.1100875,-17.3860129],[-66.110122,-17.386146],[-66.11016640000001,-17.386317400000003],[-66.11035050000001,-17.3869943],[-66.1105211,-17.3876233],[-66.1106834,-17.3882584],[-66.11085960000001,-17.3888907],[-66.1107953,-17.3890023],[-66.1110957,-17.3903363],[-66.1115053,-17.3919655],[-66.1115286,-17.3920616],[-66.11191170000001,-17.393553200000003],[-66.11195070000001,-17.393722],[-66.11210750000001,-17.394362100000002],[-66.11214650000001,-17.394521400000002],[-66.11217400000001,-17.3946337],[-66.11241890000001,-17.395633500000002],[-66.1124874,-17.395913500000002],[-66.11254650000001,-17.396154600000003],[-66.1125708,-17.396339],[-66.1126138,-17.3967005],[-66.112645,-17.396963300000003],[-66.1127208,-17.3976016],[-66.1127776,-17.3982765],[-66.1128013,-17.398573900000002],[-66.1128207,-17.398845100000003],[-66.1128243,-17.398955],[-66.1128204,-17.399054300000003],[-66.11264650000001,-17.399416900000002],[-66.112381,-17.4000106],[-66.1115714,-17.401720500000003],[-66.1115673,-17.401799800000003],[-66.1115053,-17.4018136],[-66.1112494,-17.4018707],[-66.1106972,-17.401966400000003],[-66.1098973,-17.4021228],[-66.10951580000001,-17.402185300000003],[-66.10908110000001,-17.4022609],[-66.108638,-17.402349100000002],[-66.1074057,-17.4026025],[-66.1072839,-17.402631200000002],[-66.106966,-17.4027114],[-66.1062028,-17.4028923],[-66.1048883,-17.403150500000002],[-66.10444220000001,-17.403196],[-66.1032531,-17.403401900000002],[-66.10280940000001,-17.4034628],[-66.10224860000001,-17.403502000000003],[-66.1015107,-17.4035353],[-66.1007541,-17.4035443],[-66.0997974,-17.4035519],[-66.0989771,-17.4035644],[-66.0985314,-17.405268500000002],[-66.098426,-17.4056859],[-66.0983449,-17.405984200000002],[-66.09824350000001,-17.406144],[-66.0981761,-17.4062193],[-66.0980542,-17.4062842],[-66.0979338,-17.406385200000003],[-66.0978293,-17.4065614],[-66.0976445,-17.4069234],[-66.09737200000001,-17.4074573],[-66.09710290000001,-17.407995000000003],[-66.0970491,-17.408090100000003],[-66.0969541,-17.408063100000003],[-66.0960848,-17.4079969],[-66.09573110000001,-17.407971],[-66.0949868,-17.4079163],[-66.0939001,-17.4078421],[-66.0938443,-17.4078377],[-66.0926634,-17.4077442],[-66.0919449,-17.407715600000003],[-66.0909627,-17.407631300000002],[-66.09032180000001,-17.4075896],[-66.08997360000001,-17.407558100000003],[-66.0899638,-17.407631300000002],[-66.0897491,-17.4082979],[-66.08965520000001,-17.4085766],[-66.0894265,-17.409272],[-66.0891708,-17.410072200000002],[-66.089031,-17.410517600000002],[-66.0889686,-17.410721300000002],[-66.0889193,-17.410863900000003],[-66.0888838,-17.4109841],[-66.08886650000001,-17.411042600000002],[-66.0887086,-17.4116386],[-66.0885452,-17.4120902],[-66.08846100000001,-17.412507],[-66.0883477,-17.4129122],[-66.08875370000001,-17.4130095],[-66.0885655,-17.4138698]],"nodes":[1627089925,3666302188,1627089751,1627089536,1627089618,3666302183,1627089638,13335057208,1627089853,3666302182,3666302181,3666302178,3666302176,3666302175,3666302172,3666302160,3666302157,3666302154,3666302148,1492625255,12169769073,3666302133,1492625275,3666302123,3666302120,3666302115,1492625487,3666302093,3666302077,1492625594,10003958505,3666302058,3666302055,1492625565,13335057218,1492625396,1492625503,1492625524,1492625258,10003963767,1492645668,10003963760,1492625230,1492625306,1492625241,1492625377,1492625457,1492625269,1492625426,1492625268,1492625453,1627102858,3640222849,1627102920,1492625507,1617348692,1627102613,1492625296,3640222634,3664008355,3640222624,3664008349,1492625465,1492625298,3664005118,1492625417,3663855514,3640222427,8946095642,1492625366,3640222406,1492625519,1492625455,3640222394,3663855434,1492625458,3640222384,3663855324,1492625580,1492625475,11638764754,3640222365,3663855304,1492625431,3640222326,3663855257,3663855251,3663855240,3663855231,3640222317,1492625251,1492625367,1492625334,3663855103,3663855101,1492625309,3663855089,3663855081,1492625302,1492625476,3640221470,3640221467,1492625399,1492625364,1492625477,3640221456,1492625574,11638797716,1492625300,11813155766,1492625479,3640221449,1492625591,1492625360,3647864237,1492625462,1492625511,3640221444,10062964720,1492625424,1492625335,2528681112,8946095473,6186043681,3620629135,1492625428,9036918646,9036918617,11813155695,10028389505,2528681042,10057812401,11898090496,7064894163,8462472609,9528470238,1600457628,9528470242,7064894162,627239867,12544889678,1499573861,6733961583,11898090501,8462486891,2528680937,497182734,11898090511,6185969459,6185969461,4414152689,497182739,2032685190,10028602215,2528680788,9036572241,2528680753,8462984274,2528680726,8462984273,10028486962,2528680660,2528680664,2528680635,8462984275,2528680609,6326510336,1499941832,2528680557,2528680511,6734000429,2528680496,2104228933,497182742,6185973499,2528680440,8462994668,10028610984,497182743,4402059971,8462994636,2778806620,8462994751,2778806617,3675745358,10030672001,1637668183,1637668139,3669248188,3675745356,2778806592,1637668079,10030745064,497182745,8462994722,3539625577,497182746,3951278856,8462994808,2778806580,10030867290,3017405857,1637648664,2778806571,3577187542,9188521934,3577187540,1637648641,9188521936,2778806551,3675745354,3574907097,2778806536,2045530066,10032549115,2778806531,3573684453,2778806526,3017405869,2045529859,8465159296,3573684257,2778806507,10040814048,2053282980,4414218814,4414218817,497182748,2045529783,10038420070,497182749,2778806498,2778806496,2778806486,9188620433,2778806481,648536528,646061387,646061391,3307473715,3307473697,2778806472,2778806447,3307473640,646061394,2778806438,646061399,2778806435,3307473550,2778806433,646061406,1638830107,10040814017,646061410,2778806425,2778806422,2778806420,10040814088,10040814089,646061414,10040977410,2045510866,10040986817,646061425,3315367976,3315367972,10040986823,3675745353,10040986829,10830574938,646061429,10040986826,3315367951,646061554,10040986835,3577938002,646061558,10040986836,3315367938,10040986831,2045510732,3675745351,646061079,646061081,3315367911,3315367906,2045510589,3315367878,8236485309,2045510724,4414240043,2045510959,3017372545,8236494244,646061085,3315367739,3315367731,3315367725,3315367723,3315367710,3675745347,646061086,646061088,3675745345,646061145,3315367671,646061153,646061175,3675745342,3675745340,646065252,646065256,3675745338,646065259,646065262,5610210872,3315366926,5610210854,5610210462,2768899163,5610210855,2768899137,2768899091,2768899088,2768899086,2768899085,2768899083,2768899082,2768899070,2768899068,12313146773,3325688394,7424209198,2768899058,2768899047,8192846541,2768899017,2768899015,12313146763,2768899012,2768899009,7197849281,2768899006,2768899001,2768899000,2768898998,2768898997,3322574459,2768898995,2768898994,8089836053,2768898991,3322574447,2768898988,8089836061,311358095,648548806,1727306395,310501007,310500994,310500614,310500687,9934878052,13410939033,8004756947,303217532,5018719458,2303485397,2303485390,9121465671,303217533,8398265924,3924761796,303215162,3924761795,8515866923,303217534,5309804691,1851061835,2866813904,698492413,303214820,2866811499,13041417514,9591270798,303217664,2470422220,2295135876,9400884786,9591270797,8568166668,2470422192,3201986226,315096054,1720012828,6179473251,6179485008,1720012825,6179473246,2160406974,11827181929,360137304,6179473097,6179473092,6179473100,9930862747,2361168091,1720012829,9930862750,2391341791,1720012832,10854297125,3676912942,1637465106,1637456494,2391341672,8379904318,1795293361,1795293283,8379904344,2391341654,1795293294,1795293399,2391341631,8379904365,9353076787,9353076786,9353076784,2391341617,8379904346,2391341633,2391341636,2391341635,6331635784,8379904364,2334193728,8379904363,5726456926,9353076793,9353076789,9353076792,9353076790,9976027044,2391341593,2391341542,8172711431,5726313467,9047064017,1795293265,1796486803,1796486801,8379904387,6331635776,6331635760,9007531389,6331635759,1795293288,1637465042,1044380039,598266512,8379213500,598266515,1044379398,6331635763,598266517,2334193653,598266519,8379424310,1044379348,7965587282,598266522,668478419,3264544472,1044379926,668478410,1009166397,497170540,1009166894,6331635755,12565837682,1044379711,497170541,497170542,9359800373,5545496248,12565837685,1496874669,3426201236,497170488,497170491,8162958966,1008238352,497170497,1008238961,497170498,497170499,8455639757,9012639193,7070768691,1008238336,4161989995,9364555686,8455639792,4161989993,11097229744,4161989999,11081389202,11081389193,11081389194,11081389192,11097229743,2509202585,11079490599,9364555673,8455639777,8455639778,1008238747,1008238546,497169774,4161990007,4161990008,1066149615,12952474323,9364555790,8455317285,1044379982,1066149629,8522771070,1066149618,8162958852,497169104,497169105,8162958913,1609200263,1609200307,497169107,8162958912,497169108,2398626801,6618250895,8162958922,1609199974,11081592002,6618250896,11081592003,2398626850,497169111,497169113,497169114,11081576330,11067998804,2398626863,4967266996,8067970035,2398626870,8067970039,497169115,2857544400,1609200320,9156300399,9156300411,1609200038,1609221058,1609221142,2320160111,1609365743,1609365842,12529903868,2508868829,2508868839,4715299771,2956787638,2956787644,12529903867,5027940177,5027940178,11079521793,1609296387,5027940180,1609296428,1609366218,1609365909,5027942690,5027942697,4620215205,1609366215,4059209929,2320160187,2320160208,1609365901,2424302494,1609366101,7863085758,2320160218,3429571522,3429571526,1609365798,13351462155,12446593131,3429571560,11078353455,4620215216,1609365830,12446462827,3429571615,4620215220,1609365878,10303763660,1609365855,10303763659,1609365960,4620215262,3429571677,3784920388,3562573632,3562573637,3562573659,3562573662,7243687025,1609366011,1609366159,1609365851,1609365725,1609366048,3424332297,1609365688,3424332298,10102436020,11083875834,11273306538,1610492809,7703821268,11273306530,1610493811,10827872016,1610493088,7703821269,1610493160,3424332368,1610493275,1610493820,11273306542,3424332386,3429571896,1610493293,3562573953,12087519149,1610493719,2028828282,8399666564,1610493156,2028828267,10102435970,2028828287,5378907570,2028828111,2028828175,8399666575,3562574057,3562574062,11073903782,2028828258,2028828148,2028828188,2028828110,2028828141,2028828122,2028828224]},"gtfs":{"agency_id":7,"route_id":10688740,"services":[{"service_id":"Mo-Su","startTime":"06:00","endTime":"22:00","trip_id":105}],"filteredStops":{"nodes":[1627089925,1627089536,3666302183,3666302181,3666302157,1492625487,1492625594,3666302055,1492625258,1492625230,1492625241,1492625268,1492625453,1627102920,1627102613,1492625465,3664005118,3640222427,1492625455,3663855324,1492625431,3640222317,3663855089,1492625476,1492625399,3640221456,11813155766,1492625360,1492625462,10062964720,3620629135,1492625428,7064894163,9528470242,6733961583,497182734,4414152689,2032685190,9036572241,2528680660,1499941832,2528680511,2104228933,497182742,8462994668,4402059971,3675745356,3539625577,2778806580,1637648664,3574907097,10032549115,2778806531,2778806526,2045529859,3573684257,2053282980,10038420070,2778806486,2778806472,3307473640,646061399,2778806433,1638830107,2778806422,10040977410,3315367976,3675745351,2045510589,4414240043,3017372545,3315367710,3675745342,3675745340,646065256,646065262,5610210854,5610210462,5610210855,2768899091,3325688394,2768899047,2768899009,2768898995,311358095,310501007,310500994,310500614,310500687,13410939033,9121465671,3924761796,8515866923,2866813904,9591270798,2470422192,1720012828,2160406974,6179473100,9930862747,2391341791,1720012832,3676912942,2391341672,2391341631,5726313467,6331635760,1044380039,598266515,6331635763,8379424310,668478419,1009166397,497170541,5545496248,1496874669,1008238352,8455639757,11079490599,1066149615,1044379982,1066149629,1066149618,8162958852,8162958913,497169107,6618250896,11067998804,497169115,1609200320,1609200038,1609221058,1609221142,2320160111,1609365743,1609365842,2508868839,5027940177,11079521793,1609366218,5027942690,1609366215,4059209929,2320160208,1609366101,2320160218,13351462155,3429571560,4620215216,1609365878,10303763660,4620215262,3784920388,3562573659,1609366011,1609366159,1609365725,3424332297,3424332298,10102436020,11273306538,11273306530,1610493160,1610493275,3424332386,1610493293,3562573953,1610493719,8399666564,2028828267,5378907570,2028828175,11073903782,2028828188,2028828122,2028828224],"coordinates":[[-66.13313760000001,-17.476018200000002],[-66.1341778,-17.4757153],[-66.13557610000001,-17.475740100000003],[-66.1363024,-17.475689000000003],[-66.13546070000001,-17.475329700000003],[-66.1348153,-17.4747683],[-66.133977,-17.4741232],[-66.13281620000001,-17.473602200000002],[-66.1314354,-17.4738736],[-66.1309626,-17.473026],[-66.13053210000001,-17.472178800000002],[-66.1306313,-17.4710655],[-66.1302208,-17.4694472],[-66.12983840000001,-17.468431000000002],[-66.12915310000001,-17.467057500000003],[-66.12862940000001,-17.466246700000003],[-66.1288968,-17.464917600000003],[-66.127868,-17.464588300000003],[-66.12833780000001,-17.4637758],[-66.1295343,-17.463555900000003],[-66.1303779,-17.462976400000002],[-66.1310907,-17.4622925],[-66.1315866,-17.461422300000002],[-66.132024,-17.460614900000003],[-66.13252290000001,-17.459903200000003],[-66.13222640000001,-17.4588532],[-66.1321075,-17.457931600000002],[-66.13178300000001,-17.457079],[-66.1316061,-17.455983],[-66.13145220000001,-17.455049900000002],[-66.13057690000001,-17.453855200000003],[-66.12970370000001,-17.4526857],[-66.12908440000001,-17.451977000000003],[-66.1285742,-17.452265200000003],[-66.1294345,-17.4513159],[-66.1306673,-17.4500597],[-66.1313635,-17.449430200000002],[-66.13243440000001,-17.4485794],[-66.1336701,-17.4477489],[-66.134454,-17.4472126],[-66.1354716,-17.446696300000003],[-66.13695460000001,-17.445887300000003],[-66.13883990000001,-17.4448353],[-66.13989760000001,-17.444245600000002],[-66.1407858,-17.443612],[-66.14224560000001,-17.442256200000003],[-66.1429796,-17.4414878],[-66.14382040000001,-17.4406992],[-66.14445710000001,-17.4396257],[-66.14509550000001,-17.4385072],[-66.14569680000001,-17.4374639],[-66.1466853,-17.436179600000003],[-66.14733860000001,-17.4353002],[-66.14793250000001,-17.4344888],[-66.1485268,-17.4336898],[-66.14925550000001,-17.4327246],[-66.1500503,-17.4316567],[-66.15054930000001,-17.4308836],[-66.1509693,-17.429924800000002],[-66.1515071,-17.429114000000002],[-66.1524789,-17.428200500000003],[-66.1530846,-17.4274518],[-66.1535061,-17.426477100000003],[-66.1537421,-17.4255007],[-66.1537825,-17.424189100000003],[-66.15361530000001,-17.422936800000002],[-66.1534055,-17.4220523],[-66.1530582,-17.4212451],[-66.15280650000001,-17.420377000000002],[-66.1523142,-17.4194022],[-66.15181340000001,-17.418523200000003],[-66.1515169,-17.417669200000002],[-66.15155630000001,-17.4165445],[-66.151454,-17.4156139],[-66.1512807,-17.414014700000003],[-66.1511181,-17.412696500000003],[-66.1510011,-17.411409300000003],[-66.1507869,-17.409366000000002],[-66.1507358,-17.4084235],[-66.1507746,-17.4049827],[-66.1509427,-17.403939700000002],[-66.1508986,-17.402581700000002],[-66.1511813,-17.401497300000003],[-66.15106730000001,-17.4005979],[-66.1509855,-17.3992846],[-66.15115630000001,-17.397774700000003],[-66.1513099,-17.396614800000002],[-66.15150530000001,-17.395542600000002],[-66.15044230000001,-17.3953552],[-66.1492527,-17.395144400000003],[-66.1493561,-17.3941416],[-66.1495434,-17.393104800000003],[-66.1497525,-17.3920777],[-66.14993820000001,-17.391094000000002],[-66.15018280000001,-17.3898291],[-66.1496274,-17.3891111],[-66.148589,-17.3875935],[-66.14793540000001,-17.386657500000002],[-66.1474046,-17.385888700000002],[-66.1462893,-17.3842572],[-66.145645,-17.3833109],[-66.1450688,-17.3824723],[-66.1442653,-17.3813172],[-66.14314370000001,-17.3796697],[-66.142442,-17.379105300000003],[-66.14216560000001,-17.3784026],[-66.14194090000001,-17.3775146],[-66.140656,-17.3771038],[-66.1395961,-17.376829700000002],[-66.13860720000001,-17.3765156],[-66.13754270000001,-17.3760194],[-66.1365925,-17.3754096],[-66.1356686,-17.3748663],[-66.1345232,-17.3746121],[-66.1332637,-17.3746079],[-66.1320171,-17.374608300000002],[-66.1307829,-17.374607100000002],[-66.12981950000001,-17.3747924],[-66.12905900000001,-17.375282300000002],[-66.1276448,-17.3761566],[-66.1257156,-17.3774999],[-66.12484070000001,-17.3781216],[-66.1235178,-17.378986],[-66.12270240000001,-17.379518200000003],[-66.12187920000001,-17.3800537],[-66.12092630000001,-17.380703800000003],[-66.12028190000001,-17.381404800000002],[-66.1193164,-17.3815883],[-66.1183007,-17.3819804],[-66.11725600000001,-17.3822712],[-66.116185,-17.382496000000003],[-66.1147937,-17.3827858],[-66.1138214,-17.382978],[-66.11273340000001,-17.3832115],[-66.1117093,-17.383429800000002],[-66.1105892,-17.383656600000002],[-66.10970990000001,-17.383899000000003],[-66.10980620000001,-17.384918300000002],[-66.11004510000001,-17.3858481],[-66.11035050000001,-17.3869943],[-66.1106834,-17.3882584],[-66.1110957,-17.3903363],[-66.1115053,-17.3919655],[-66.11191170000001,-17.393553200000003],[-66.11214650000001,-17.394521400000002],[-66.11241890000001,-17.395633500000002],[-66.1126138,-17.3967005],[-66.1127208,-17.3976016],[-66.1128013,-17.398573900000002],[-66.112381,-17.4000106],[-66.1115714,-17.401720500000003],[-66.1106972,-17.401966400000003],[-66.10951580000001,-17.402185300000003],[-66.1074057,-17.4026025],[-66.1062028,-17.4028923],[-66.1048883,-17.403150500000002],[-66.1032531,-17.403401900000002],[-66.10224860000001,-17.403502000000003],[-66.1007541,-17.4035443],[-66.0997974,-17.4035519],[-66.0985314,-17.405268500000002],[-66.09824350000001,-17.406144],[-66.0976445,-17.4069234],[-66.09710290000001,-17.407995000000003],[-66.0960848,-17.4079969],[-66.0949868,-17.4079163],[-66.0939001,-17.4078421],[-66.0926634,-17.4077442],[-66.0909627,-17.407631300000002],[-66.08997360000001,-17.407558100000003],[-66.08965520000001,-17.4085766],[-66.0891708,-17.410072200000002],[-66.0888838,-17.4109841],[-66.0885452,-17.4120902],[-66.08875370000001,-17.4130095],[-66.0885655,-17.4138698]]}}}]}