{"type":"FeatureCollection","features":[{"type":"Feature","properties":{"bicycle":"no","from":"Segunda Circunvalación","name":"MicroBus U: Segunda Circunvalación → Federico Jiménez","network":"BO:CB:Cochabamba","on_demand":"yes","operator":"Sindicato de Colectiveros y Microbuses Radio Urbano y Suburbano Ciudad de Cochabamba","operator:type":"consortium","public_transport:version":"2","ref":"U","roundtrip":"no","route":"bus","to":"Federico Jiménez","type":"route","wheelchair":"no","id":10712279},"geometry":{"type":"LineString","coordinates":[[-66.1163868,-17.3660724],[-66.1166714,-17.366563900000003],[-66.1167061,-17.3666313],[-66.117676,-17.366325],[-66.1182533,-17.3661174],[-66.11837360000001,-17.366078700000003],[-66.11846320000001,-17.366010900000003],[-66.11858640000001,-17.3659527],[-66.11870970000001,-17.3659469],[-66.1187436,-17.3660059],[-66.1187522,-17.3662071],[-66.1187699,-17.366292],[-66.1188314,-17.366422500000002],[-66.11899430000001,-17.3666948],[-66.1191009,-17.366796500000003],[-66.11928540000001,-17.3669638],[-66.1194353,-17.3669447],[-66.11961400000001,-17.366963700000003],[-66.11987180000001,-17.3668963],[-66.1206739,-17.3666619],[-66.1209156,-17.3671165],[-66.1211171,-17.3675669],[-66.12135,-17.368027100000003],[-66.12241990000001,-17.3677114],[-66.1224821,-17.3677072],[-66.1225069,-17.367786600000002],[-66.12262390000001,-17.368161100000002],[-66.1226566,-17.3682659],[-66.1226797,-17.3683319],[-66.12271580000001,-17.368880800000003],[-66.1227781,-17.3689487],[-66.1229373,-17.369068600000002],[-66.12304470000001,-17.369143400000002],[-66.1232154,-17.3692801],[-66.12325580000001,-17.369305100000002],[-66.1232847,-17.369330100000003],[-66.12361650000001,-17.3695719],[-66.123681,-17.3696178],[-66.1237552,-17.3696385],[-66.1252812,-17.369679],[-66.12539020000001,-17.3696787],[-66.1254016,-17.369582],[-66.12569040000001,-17.369133],[-66.1257432,-17.369069900000003],[-66.12609810000001,-17.368528400000002],[-66.1261113,-17.3684678],[-66.1261187,-17.368394300000002],[-66.1263203,-17.3678475],[-66.1269731,-17.3678597],[-66.12728750000001,-17.367788100000002],[-66.1276976,-17.3676961],[-66.12841850000001,-17.367528800000002],[-66.12855060000001,-17.368053500000002],[-66.12857220000001,-17.368139300000003],[-66.128703,-17.368658500000002],[-66.12937810000001,-17.3685037],[-66.1294417,-17.368479400000002],[-66.129534,-17.3684441],[-66.1297572,-17.3683933],[-66.1301287,-17.3683128],[-66.1314495,-17.3680078],[-66.1316742,-17.367956600000003],[-66.1323572,-17.3678011],[-66.13243270000001,-17.367783900000003],[-66.13247790000001,-17.3679096],[-66.13276660000001,-17.367738900000003],[-66.13383830000001,-17.367116900000003],[-66.13398520000001,-17.3670325],[-66.13409560000001,-17.367086],[-66.1341627,-17.3671186],[-66.13425960000001,-17.3671483],[-66.13432660000001,-17.367206300000003],[-66.13438500000001,-17.367288000000002],[-66.1344136,-17.3673833],[-66.1344079,-17.367501500000003],[-66.1343741,-17.3676359],[-66.13432060000001,-17.3677722],[-66.1342606,-17.367833800000003],[-66.13452640000001,-17.3682783],[-66.1345639,-17.368334400000002],[-66.13465760000001,-17.368281800000002],[-66.13519910000001,-17.367978200000003],[-66.1353357,-17.3679029],[-66.1355032,-17.3678104],[-66.13560100000001,-17.3677564],[-66.1356595,-17.3677159],[-66.13583700000001,-17.3676272],[-66.13586520000001,-17.3676685],[-66.13588610000001,-17.3676947],[-66.13639040000001,-17.3683273],[-66.13645070000001,-17.368420500000003],[-66.13646490000001,-17.368453300000002],[-66.13648900000001,-17.3685094],[-66.136735,-17.3693291],[-66.13678230000001,-17.3694829],[-66.13689930000001,-17.3698626],[-66.13695560000001,-17.370111100000003],[-66.13696940000001,-17.3701626],[-66.1370795,-17.3705725],[-66.1371091,-17.3706824],[-66.13717910000001,-17.370943],[-66.1372041,-17.3710363],[-66.13722,-17.3710932],[-66.13727080000001,-17.371300400000003],[-66.13730860000001,-17.3714662],[-66.13732270000001,-17.371528400000003],[-66.1373954,-17.371736900000002],[-66.1374577,-17.371894700000002],[-66.13750200000001,-17.371997200000003],[-66.1375582,-17.372080200000003],[-66.13760760000001,-17.3720457],[-66.1379483,-17.371812900000002],[-66.13800140000001,-17.3717767],[-66.13809060000001,-17.371725700000002],[-66.1381518,-17.3717015],[-66.1382875,-17.3716639],[-66.1384245,-17.3716407],[-66.13859710000001,-17.3716188],[-66.13913140000001,-17.371551200000003],[-66.1396222,-17.371485500000002],[-66.13995360000001,-17.371441100000002],[-66.1400557,-17.371417],[-66.1401469,-17.3713903],[-66.1402915,-17.3713313],[-66.1408183,-17.371032600000003],[-66.14092140000001,-17.3709735],[-66.141637,-17.370499600000002],[-66.14208090000001,-17.370198600000002],[-66.1422196,-17.3701016],[-66.1422769,-17.3701125],[-66.1423182,-17.3701285],[-66.1423408,-17.3701471],[-66.1423889,-17.370216900000003],[-66.14240810000001,-17.3702718],[-66.1424058,-17.3703074],[-66.1423694,-17.370484700000002],[-66.14235640000001,-17.370547900000002],[-66.1423443,-17.370692700000003],[-66.1423541,-17.370769600000003],[-66.142578,-17.371781300000002],[-66.1425818,-17.371799600000003],[-66.142587,-17.3718241],[-66.14260630000001,-17.3719131],[-66.1426357,-17.372050400000003],[-66.1427482,-17.372561100000002],[-66.1428951,-17.3731875],[-66.1429435,-17.3733058],[-66.142993,-17.3733776],[-66.143066,-17.3734399],[-66.1431441,-17.373479500000002],[-66.14320950000001,-17.3735363],[-66.14325810000001,-17.3736067],[-66.14328110000001,-17.3736636],[-66.143293,-17.3737236],[-66.14329350000001,-17.3737846],[-66.14328250000001,-17.373844700000003],[-66.1432451,-17.373929200000003],[-66.1431855,-17.374000900000002],[-66.14310780000001,-17.374054800000003],[-66.1430179,-17.3740869],[-66.1429705,-17.374129500000002],[-66.14293140000001,-17.374195800000003],[-66.1428264,-17.374870700000002],[-66.1428132,-17.3749632],[-66.1428008,-17.3750357],[-66.14275260000001,-17.3753405],[-66.14268390000001,-17.375774600000003],[-66.14267360000001,-17.3758395],[-66.14261900000001,-17.376235100000002],[-66.142601,-17.3763647],[-66.1425808,-17.376478600000002],[-66.14254940000001,-17.3767783],[-66.1425426,-17.376843100000002],[-66.14253810000001,-17.376884800000003],[-66.14252920000001,-17.376936500000003],[-66.1425277,-17.3769451],[-66.14252490000001,-17.3769601],[-66.1424276,-17.3773273],[-66.1424039,-17.377419200000002],[-66.14240880000001,-17.377441100000002],[-66.1424219,-17.377476],[-66.14243760000001,-17.3774945],[-66.1424518,-17.377522900000002],[-66.14246010000001,-17.3775508],[-66.14246320000001,-17.377579700000002],[-66.14246100000001,-17.377608600000002],[-66.1424521,-17.3776461],[-66.14243590000001,-17.377670400000003],[-66.14245980000001,-17.3777399],[-66.14245360000001,-17.377854900000003],[-66.14240140000001,-17.3784476],[-66.14237720000001,-17.3787495],[-66.1423857,-17.3787904],[-66.14241170000001,-17.378833],[-66.1424539,-17.3788802],[-66.14252710000001,-17.3789172],[-66.1427305,-17.378983400000003],[-66.1429971,-17.3790674],[-66.1430493,-17.3790829],[-66.14306780000001,-17.379109000000003],[-66.1430837,-17.3791368],[-66.1430966,-17.379165800000003],[-66.14310160000001,-17.3791891],[-66.1431024,-17.379212900000002],[-66.14309940000001,-17.379236600000002],[-66.14306760000001,-17.379372800000002],[-66.14306880000001,-17.3794137],[-66.14307760000001,-17.379442],[-66.14309370000001,-17.379472],[-66.14320280000001,-17.3796329],[-66.14410310000001,-17.3809425],[-66.14414070000001,-17.380997200000003],[-66.1442263,-17.3811247],[-66.1443213,-17.3812621],[-66.14433430000001,-17.3812809],[-66.1443962,-17.3813704],[-66.1450554,-17.382323900000003],[-66.1451665,-17.3824805],[-66.14526500000001,-17.382625200000003],[-66.14626410000001,-17.3840939],[-66.1462906,-17.384132800000003],[-66.1463324,-17.384194200000003],[-66.1463585,-17.3842326],[-66.147463,-17.385856],[-66.1475139,-17.3859308],[-66.1475669,-17.3860074],[-66.147678,-17.386168100000003],[-66.14771590000001,-17.386222800000002],[-66.148064,-17.3867233],[-66.14836460000001,-17.3871554],[-66.1484094,-17.3872198],[-66.14850120000001,-17.3873491],[-66.14851920000001,-17.3873745],[-66.14864270000001,-17.387550800000003],[-66.14884190000001,-17.387832500000002],[-66.14901,-17.388070000000003],[-66.14916980000001,-17.388299500000002],[-66.14933660000001,-17.3885389],[-66.1495508,-17.388829],[-66.149579,-17.388860700000002],[-66.1496122,-17.388879900000003],[-66.14966410000001,-17.388893600000003],[-66.1497336,-17.3889095],[-66.14989270000001,-17.388916400000003],[-66.1500084,-17.388916100000003],[-66.1500814,-17.3889065],[-66.15019450000001,-17.388880800000003],[-66.1503144,-17.388842500000003],[-66.1504324,-17.3888061],[-66.15052820000001,-17.3887821],[-66.1515473,-17.3889527],[-66.151604,-17.3889628],[-66.1516598,-17.3889736],[-66.1527614,-17.389192700000002],[-66.1534182,-17.389348700000003],[-66.1538354,-17.3894455],[-66.1540205,-17.389488500000002],[-66.15437100000001,-17.3895681],[-66.1549205,-17.3896929],[-66.15590440000001,-17.389855100000002],[-66.15597840000001,-17.389865200000003],[-66.1559742,-17.3898905],[-66.15597140000001,-17.389909000000003],[-66.15579980000001,-17.3909053],[-66.155613,-17.391912100000003],[-66.1556012,-17.3919776],[-66.1555632,-17.3920663],[-66.1555496,-17.392136500000003],[-66.1554947,-17.392419],[-66.15538670000001,-17.3929748],[-66.15538000000001,-17.3930094],[-66.1553734,-17.3930447],[-66.15527250000001,-17.393581400000002],[-66.15519330000001,-17.3940026],[-66.15518510000001,-17.394046200000002],[-66.15519040000001,-17.3941103],[-66.1551015,-17.394555200000003],[-66.155099,-17.394568900000003],[-66.155095,-17.394591000000002],[-66.1550466,-17.394856100000002],[-66.15501400000001,-17.3950347],[-66.1550064,-17.395067700000002],[-66.15483710000001,-17.3959195],[-66.1548104,-17.396052700000002],[-66.1547941,-17.3961338],[-66.1546703,-17.396757800000003],[-66.15457980000001,-17.3971915],[-66.15441750000001,-17.3980992],[-66.15438900000001,-17.3982226],[-66.1542283,-17.398992900000003],[-66.1542062,-17.399083700000002],[-66.1540449,-17.3999995],[-66.1539303,-17.400709300000003],[-66.1539197,-17.400836],[-66.1539544,-17.401400300000002],[-66.1540131,-17.4022708],[-66.1545042,-17.402242700000002],[-66.15496730000001,-17.402208100000003],[-66.15531650000001,-17.4021915],[-66.1552573,-17.401342600000003],[-66.15521820000001,-17.400649100000003],[-66.1551769,-17.4001495],[-66.155175,-17.400035000000003],[-66.15517940000001,-17.3999701],[-66.1551889,-17.399895500000003],[-66.1552224,-17.399698400000002],[-66.15528330000001,-17.399337600000003],[-66.15530360000001,-17.3992471],[-66.15534770000001,-17.399256700000002],[-66.156378,-17.399481],[-66.1564374,-17.399488700000003],[-66.1564991,-17.3994953],[-66.15675590000001,-17.399494800000003],[-66.15696360000001,-17.399463],[-66.1571541,-17.399440100000003],[-66.1575712,-17.3993743],[-66.1576356,-17.399365500000002],[-66.1577347,-17.399351900000003],[-66.15781600000001,-17.3993404],[-66.1578434,-17.3993362],[-66.15843930000001,-17.399245200000003],[-66.1584983,-17.3992362],[-66.15861500000001,-17.399227200000002],[-66.1587124,-17.399228800000003],[-66.158764,-17.399232100000003],[-66.1591739,-17.399257700000003],[-66.1592816,-17.3992705],[-66.1593653,-17.399274400000003],[-66.15999670000001,-17.399303200000002],[-66.16006630000001,-17.399313600000003],[-66.1601608,-17.399337300000003],[-66.1603302,-17.3993931],[-66.16043300000001,-17.399426700000003],[-66.16099530000001,-17.3995906],[-66.16109110000001,-17.399618500000003],[-66.1612278,-17.399656200000003],[-66.1615876,-17.3997555],[-66.1618371,-17.399843],[-66.1619824,-17.3999132],[-66.1621329,-17.4000056],[-66.1622471,-17.4000935],[-66.1623448,-17.4001555],[-66.16240540000001,-17.400183900000002],[-66.16247340000001,-17.4002151],[-66.1624927,-17.4002145],[-66.16253560000001,-17.4002269],[-66.16256510000001,-17.400242600000002],[-66.1625922,-17.4002656],[-66.16261200000001,-17.400292200000003],[-66.1626269,-17.4003151],[-66.16264140000001,-17.400348],[-66.1626447,-17.400380900000002],[-66.16264310000001,-17.400403200000003],[-66.16265200000001,-17.400485500000002],[-66.16267500000001,-17.4005797],[-66.16273530000001,-17.4007103],[-66.1627455,-17.400732400000003],[-66.16285380000001,-17.4010032],[-66.1628883,-17.4011713],[-66.1629118,-17.401448300000002],[-66.1629499,-17.402153300000002],[-66.1629973,-17.402712],[-66.1630252,-17.403078],[-66.1630664,-17.4033164],[-66.1631218,-17.4035341],[-66.16330740000001,-17.4040584],[-66.1634265,-17.4044768],[-66.16354580000001,-17.405057300000003],[-66.16373300000001,-17.4060603],[-66.1639313,-17.4070691],[-66.16395530000001,-17.407191],[-66.16397810000001,-17.407312100000002],[-66.16405130000001,-17.407652900000002],[-66.1641426,-17.4081183],[-66.1642985,-17.4089014],[-66.1643743,-17.409283900000002],[-66.16438810000001,-17.409353900000003],[-66.16441540000001,-17.4094978],[-66.1644232,-17.4095392],[-66.16443220000001,-17.409586700000002],[-66.16443980000001,-17.4096322],[-66.16454680000001,-17.4102333],[-66.1645601,-17.410276000000003],[-66.1645989,-17.4103871],[-66.16464520000001,-17.4104506],[-66.16466820000001,-17.4104932],[-66.1647774,-17.410659900000002],[-66.1648128,-17.410679400000003],[-66.1648392,-17.410698200000002],[-66.1648634,-17.410719500000003],[-66.1649015,-17.410764500000003],[-66.16492980000001,-17.4108157],[-66.1649474,-17.410871],[-66.16495160000001,-17.410910700000002],[-66.16495350000001,-17.410928600000002],[-66.1649481,-17.4109862],[-66.1649313,-17.411041800000003],[-66.16490370000001,-17.4110932],[-66.1648842,-17.4111192],[-66.1648619,-17.411143000000003],[-66.16481610000001,-17.411291900000002],[-66.1647944,-17.411379500000002],[-66.1647875,-17.4114319],[-66.16479120000001,-17.4115071],[-66.16489030000001,-17.412045300000003],[-66.1649285,-17.412231400000003],[-66.16495010000001,-17.4123565],[-66.1650589,-17.4129019],[-66.1650693,-17.4129538],[-66.1652481,-17.4139021],[-66.1652584,-17.4139559],[-66.1652698,-17.4140149],[-66.16545620000001,-17.414981700000002],[-66.1656397,-17.415924200000003],[-66.1656512,-17.415983100000002],[-66.1657823,-17.416661100000002],[-66.1658331,-17.4167978],[-66.1658809,-17.416938400000003],[-66.16597660000001,-17.4174255],[-66.16598490000001,-17.41747],[-66.16606820000001,-17.417919100000002],[-66.166111,-17.418203700000003],[-66.16622500000001,-17.418933900000003],[-66.1663613,-17.419664],[-66.1664877,-17.420365500000003],[-66.1666232,-17.421059900000003],[-66.1666912,-17.421408300000003],[-66.1667024,-17.4215346],[-66.1667019,-17.4216577],[-66.16663530000001,-17.4220438],[-66.1666218,-17.422131800000002],[-66.16661040000001,-17.4222062],[-66.16660610000001,-17.4222341],[-66.1665859,-17.4223803],[-66.1665116,-17.4229178],[-66.1664245,-17.422914300000002],[-66.1659583,-17.4229059],[-66.165879,-17.422904300000003],[-66.1654582,-17.4228966],[-66.16540640000001,-17.4238636],[-66.1653859,-17.424330700000002],[-66.16536350000001,-17.424803500000003],[-66.1653433,-17.425218800000003],[-66.16532550000001,-17.4255847],[-66.16530970000001,-17.4260334],[-66.16527880000001,-17.426705700000003],[-66.16524720000001,-17.427221600000003]],"nodes":[3017431091,9464505566,2319257611,2319257605,5891285294,2319257596,3292825012,10907003341,2319257589,3292825019,3292825036,2319257602,2319257608,2319257612,2319257620,2319257626,3292825169,2319257628,2319257625,2319257614,2319257630,2319257642,2319257650,3292825198,2319257646,11140372019,11140372020,2319257655,2319257658,2319257664,3289609561,3292825366,3292825370,1046717394,11140372100,8436201427,4608664775,1046716560,11140372091,1046716566,1046717703,11140372101,1046715648,4608664777,11595804988,1046716338,1046716458,1046716506,1046717115,1046715893,3289609503,1046715844,1046717011,1046716533,3289609558,8455869045,11595804978,3289609550,3017431073,3017431071,1046716307,1046715775,9979787529,1046717643,1046716702,2394199360,3218389486,3287025540,9979787543,1171504986,9979775707,1171504981,1171504967,1171504822,1171505023,1171504918,1171504645,807968247,3915681468,807968272,3915681469,1171505065,9979787640,1171504875,9979787660,1171505044,1171504960,8600950446,11573959026,10830547423,2394199383,11573959029,807968320,807968183,807968675,3218389492,807968458,13368859866,8600947297,4143854723,4143854739,807968012,4143854742,2317602334,807968375,8600947299,2317602343,2394199534,2394199544,601871100,5240568159,11081351795,601871107,8596958582,601871143,8596958583,601871150,11081351800,601871159,11081351804,8600950452,1785473265,601871181,1785473158,8253713324,601871191,601871206,602990175,602990176,9579636618,9579636316,9579636617,9192234377,9579636314,9579636315,9579636313,1785473495,601872709,601872740,2126671164,11026980048,9192234375,601872746,8616654972,2126672209,601872755,1785473290,8509264310,1785473441,1785473207,1785473612,1785473544,2126674116,2389107140,1785473427,2126674142,1785473511,1785473654,1785473340,1785473238,2126674180,2126674191,2590032472,698492585,2590032493,8373677220,8373671016,698492595,8373677218,599541212,8385091871,1637609887,8385091886,8385091900,1637609914,11081730875,8385091876,2389107312,2391341230,8385093441,1795293270,8385093440,1795293321,1795293349,1795293382,11081772340,11081772339,1795293377,1795293372,1795293269,1795293345,1795293437,1795293264,1795293299,1795293277,8385093431,1795293338,2391341613,1795293296,8379904343,11081763605,2391341643,8379904342,1795293405,2391341655,2391341667,1795293432,9890903488,1795293389,602989537,9890903489,8388301598,312425917,9584233890,3676912941,9584233886,10854297122,312425660,8390961546,9930862751,1807100710,2361168089,9930862749,6179473101,312425828,6179473096,11310743156,9031318855,9028209372,6179473247,9031318856,2141431944,6179473241,6179473238,9034180378,5353339454,11310645817,312425956,312425955,8568166653,2295135831,2327853066,2164166202,2295135834,312425953,2470422187,315032383,315032382,303217665,6199916313,3952902742,310501176,3952902744,310501177,7919097307,310501175,7919097336,10277111394,308300563,4094860495,310501174,7919097345,3719465037,308306725,2292218212,303218729,698492394,2292218219,10687188399,10687188393,310256406,10687188391,9884051885,10905861520,303217862,8964738169,4933190239,8677785869,315103268,8677779505,2681342488,310281529,7693322181,3719465042,310500546,8241410049,310500793,9905231737,310501002,1727306400,310503081,310503082,310503083,9916058948,310503084,323983784,702511962,5313058740,323982548,702511964,310503058,2765190391,8238772506,8238772507,310503057,12081159175,648548822,1727306404,3674274542,12081159193,1727306401,2398944652,2398944653,11679558744,7767900404,4929965568,1727306403,1865095006,10044108867,2398944637,10921117778,2398944625,9566992862,315111204,9593572452,323969382,9593572449,10921117799,676069596,8099810036,9593560545,323969927,2266470191,9598863723,315111364,9598863715,2266470205,315111363,315111362,702511945,702511949,2280518053,9944343024,7899367256,2280518105,2280518130,9343198409,2280518153,2280518186,9343198408,9944330613,7899367257,2280518214,2280518245,2280518266,8015423565,659970421,659970422,2713599551,2713599554,800044125,2713599647,659970423,7899367258,2713599695,707336834,659970424,800044342,800044232,800044172,707336828,8067883503,9153439114,8067883509,9153439110,6710415936,707336761,9008741133,698597059,707336758,10046445976,10046446002,3301399354,2605750290,497193577,9438358979,648571093,497191184,9436550542,497191185,1762868953,9436550541,9163935212,10583128390,497190362,497190364,9436550540,497190365,9436550539,648571098,1762869033,1762869035,9163917159,497191904,5560421339,702725403,3303584458,10583174366,1865108155,9195017630,1865108146,9195017632,1865108160,10720737515,1865108142,8670410268,1865108163,10720737512,10720737474,11079650185,3303503993,3303504015,2421564257,2421564263,2421564276,2781016327,1637667884,11079453311,9918322373,6792116043,11079453307,11896505881,6792116048,11896505885,1637667909,1637693308,3305176530,6792116015,3017385101,3017385102,3017389880,3017385103,3017389873,3017389875,3017385104,3305176914,3017385105]},"gtfs":{"agency_id":2,"route_id":10712279,"services":[{"service_id":"Mo-Su","startTime":"06:00","endTime":"22:00","trip_id":130}],"filteredStops":{"nodes":[3017431091,2319257605,10907003341,2319257612,2319257625,2319257630,2319257650,3292825198,2319257664,4608664775,1046716566,11595804988,1046717115,1046715844,3289609558,3017431073,1046716307,1046717643,3218389486,1171504918,3915681469,1171504875,10830547423,807968183,8600947297,807968375,11081351795,601871159,601871181,601871206,9579636314,2126671164,601872755,1785473654,2590032472,8373671016,1637609887,1795293377,1795293437,1795293405,9890903489,10854297122,9930862751,6179473101,9028209372,6179473238,11310645817,2295135834,3952902742,310501177,310501175,308300563,4094860495,308306725,2292218212,10687188393,10905861520,2681342488,7693322181,310500793,9905231737,1727306400,310503082,310503084,702511962,702511964,2765190391,1727306404,12081159193,4929965568,9566992862,676069596,9598863723,315111362,2280518245,2713599554,2713599647,707336834,800044342,800044232,800044172,8067883509,6710415936,10046446002,9436550540,5560421339,1865108155,9195017630,1865108160,10720737515,10720737512,3303503993,2421564257,2421564276,1637667884,11896505885,3305176530,3017385102,3017385103,3017385104,3017385105],"coordinates":[[-66.1163868,-17.3660724],[-66.117676,-17.366325],[-66.11858640000001,-17.3659527],[-66.11899430000001,-17.3666948],[-66.11987180000001,-17.3668963],[-66.1209156,-17.3671165],[-66.12135,-17.368027100000003],[-66.12241990000001,-17.3677114],[-66.12271580000001,-17.368880800000003],[-66.12361650000001,-17.3695719],[-66.1252812,-17.369679],[-66.12609810000001,-17.368528400000002],[-66.1269731,-17.3678597],[-66.12841850000001,-17.367528800000002],[-66.128703,-17.368658500000002],[-66.1297572,-17.3683933],[-66.1314495,-17.3680078],[-66.13243270000001,-17.367783900000003],[-66.13383830000001,-17.367116900000003],[-66.1343741,-17.3676359],[-66.13465760000001,-17.368281800000002],[-66.1355032,-17.3678104],[-66.13639040000001,-17.3683273],[-66.136735,-17.3693291],[-66.1370795,-17.3705725],[-66.13730860000001,-17.3714662],[-66.1379483,-17.371812900000002],[-66.13913140000001,-17.371551200000003],[-66.1401469,-17.3713903],[-66.141637,-17.370499600000002],[-66.14240810000001,-17.3702718],[-66.142578,-17.371781300000002],[-66.1428951,-17.3731875],[-66.1431855,-17.374000900000002],[-66.1428264,-17.374870700000002],[-66.14268390000001,-17.375774600000003],[-66.14254940000001,-17.3767783],[-66.14243590000001,-17.377670400000003],[-66.14237720000001,-17.3787495],[-66.1431024,-17.379212900000002],[-66.14410310000001,-17.3809425],[-66.1450554,-17.382323900000003],[-66.14626410000001,-17.3840939],[-66.147463,-17.385856],[-66.148064,-17.3867233],[-66.14864270000001,-17.387550800000003],[-66.14916980000001,-17.388299500000002],[-66.14989270000001,-17.388916400000003],[-66.1515473,-17.3889527],[-66.1527614,-17.389192700000002],[-66.1538354,-17.3894455],[-66.1549205,-17.3896929],[-66.15590440000001,-17.389855100000002],[-66.15579980000001,-17.3909053],[-66.155613,-17.391912100000003],[-66.15538670000001,-17.3929748],[-66.15519330000001,-17.3940026],[-66.15501400000001,-17.3950347],[-66.15483710000001,-17.3959195],[-66.15457980000001,-17.3971915],[-66.15441750000001,-17.3980992],[-66.1542283,-17.398992900000003],[-66.1540449,-17.3999995],[-66.1539544,-17.401400300000002],[-66.1545042,-17.402242700000002],[-66.1552573,-17.401342600000003],[-66.1551769,-17.4001495],[-66.15530360000001,-17.3992471],[-66.156378,-17.399481],[-66.1575712,-17.3993743],[-66.15861500000001,-17.399227200000002],[-66.15999670000001,-17.399303200000002],[-66.16099530000001,-17.3995906],[-66.1619824,-17.3999132],[-66.16265200000001,-17.400485500000002],[-66.1629118,-17.401448300000002],[-66.1629973,-17.402712],[-66.16330740000001,-17.4040584],[-66.16354580000001,-17.405057300000003],[-66.16373300000001,-17.4060603],[-66.1639313,-17.4070691],[-66.1641426,-17.4081183],[-66.1643743,-17.409283900000002],[-66.16454680000001,-17.4102333],[-66.1649313,-17.411041800000003],[-66.16489030000001,-17.412045300000003],[-66.1650693,-17.4129538],[-66.1652481,-17.4139021],[-66.16545620000001,-17.414981700000002],[-66.1656397,-17.415924200000003],[-66.1658809,-17.416938400000003],[-66.16606820000001,-17.417919100000002],[-66.16622500000001,-17.418933900000003],[-66.1664877,-17.420365500000003],[-66.1666912,-17.421408300000003],[-66.1665859,-17.4223803],[-66.1659583,-17.4229059],[-66.16540640000001,-17.4238636],[-66.16536350000001,-17.424803500000003],[-66.16530970000001,-17.4260334],[-66.16524720000001,-17.427221600000003]]}}}]}