{"type":"FeatureCollection","features":[{"type":"Feature","properties":{"from":"Calle Max Fernandez","name":"MiniBus 233: Calle Max Fernandez → Calle Jose M. Carrasco","network":"BO:CB:Cochabamba","on_demand":"yes","operator":"Sindicato mixto de autotransporte Sacaba","public_transport:version":"2","ref":"233","route":"bus","to":"Calle Manuel P. Laredo","type":"route","wheelchair":"no","id":11138084},"geometry":{"type":"LineString","coordinates":[[-66.1037125,-17.3692275],[-66.1036933,-17.3697422],[-66.1036771,-17.370153700000003],[-66.1036541,-17.370649500000003],[-66.1041512,-17.370591100000002],[-66.10420710000001,-17.3707008],[-66.1046065,-17.3705789],[-66.1050467,-17.3704085],[-66.10515480000001,-17.3705295],[-66.1052892,-17.370779000000002],[-66.10532950000001,-17.3709364],[-66.1054194,-17.3713225],[-66.1057504,-17.3727452],[-66.1060782,-17.374153000000003],[-66.1060899,-17.3742245],[-66.1062483,-17.374964000000002],[-66.1063232,-17.3752871],[-66.1065796,-17.3763836],[-66.10700250000001,-17.378139],[-66.107274,-17.379283800000003],[-66.10770790000001,-17.3810934],[-66.10799340000001,-17.382263100000003],[-66.1083892,-17.3840101],[-66.10887290000001,-17.383911],[-66.10913260000001,-17.3838559],[-66.1093003,-17.3838204],[-66.1097063,-17.383739100000003],[-66.1101186,-17.3836571],[-66.11055420000001,-17.3835704],[-66.1116279,-17.383347],[-66.1126926,-17.3831087],[-66.11373660000001,-17.382891800000003],[-66.11474120000001,-17.3826937],[-66.11609370000001,-17.3824299],[-66.1166355,-17.3823204],[-66.1167504,-17.3822972],[-66.1172233,-17.382195000000003],[-66.1178158,-17.3820392],[-66.11826740000001,-17.3819014],[-66.1185475,-17.381807000000002],[-66.1187728,-17.381719800000003],[-66.11928180000001,-17.381503600000002],[-66.11950370000001,-17.381410000000002],[-66.11999700000001,-17.381166800000003],[-66.12026010000001,-17.3810155],[-66.1208017,-17.380671500000002],[-66.1208417,-17.3806461],[-66.12168240000001,-17.3800861],[-66.12176980000001,-17.3800293],[-66.1218317,-17.379987800000002],[-66.1221658,-17.3797745],[-66.12243050000001,-17.3795986],[-66.1224694,-17.3795763],[-66.122742,-17.379389900000003],[-66.12360930000001,-17.378817400000003],[-66.12421330000001,-17.3784409],[-66.12471000000001,-17.3781074],[-66.12535980000001,-17.3776556],[-66.1257746,-17.377356000000002],[-66.12695810000001,-17.3765211],[-66.12702440000001,-17.376476],[-66.1271995,-17.3763545],[-66.1275504,-17.376112600000003],[-66.1279626,-17.3758313],[-66.1281352,-17.37571],[-66.1282882,-17.3756033],[-66.12881490000001,-17.3752302],[-66.1288741,-17.375188],[-66.12893100000001,-17.3751503],[-66.1289543,-17.3751348],[-66.12898410000001,-17.3751153],[-66.12898700000001,-17.375058600000003],[-66.1289921,-17.375002000000002],[-66.12898820000001,-17.3749174],[-66.12898270000001,-17.3748705],[-66.1289651,-17.3747618],[-66.12896330000001,-17.374751],[-66.1288784,-17.3742397],[-66.1288174,-17.3737855],[-66.1288109,-17.3737372],[-66.1287959,-17.373602100000003],[-66.12879240000001,-17.3735624],[-66.1287806,-17.373469],[-66.1288718,-17.373455900000003],[-66.1289804,-17.373427200000002],[-66.1290673,-17.3733898],[-66.1291753,-17.3733341],[-66.1293134,-17.3732714],[-66.12945570000001,-17.373222300000002],[-66.1295565,-17.3732012],[-66.129686,-17.3731739],[-66.1298501,-17.3731449],[-66.13031790000001,-17.3731127],[-66.1306023,-17.3730894],[-66.1307793,-17.373061],[-66.1309291,-17.3730212],[-66.1310179,-17.3729845],[-66.13148120000001,-17.3727838],[-66.13161930000001,-17.3727343],[-66.1318136,-17.372661200000003],[-66.13190850000001,-17.372646000000003],[-66.1329231,-17.372357100000002],[-66.13303040000001,-17.37233],[-66.13316590000001,-17.372312800000003],[-66.13329250000001,-17.3723089],[-66.13337720000001,-17.3723184],[-66.1335092,-17.3723479],[-66.13369150000001,-17.3723819],[-66.13412070000001,-17.3724619],[-66.13417390000001,-17.372471800000003],[-66.1342413,-17.3724859],[-66.1347484,-17.3725916],[-66.1350955,-17.3726555],[-66.13516150000001,-17.3726676],[-66.13521610000001,-17.3726819],[-66.1355236,-17.372736000000003],[-66.13569360000001,-17.372760600000003],[-66.1358009,-17.372762400000003],[-66.1358677,-17.372760300000003],[-66.13597130000001,-17.372756000000003],[-66.13607130000001,-17.372746300000003],[-66.13613020000001,-17.3727406],[-66.1362225,-17.372731700000003],[-66.1364442,-17.372705800000002],[-66.1365705,-17.372684500000002],[-66.13661850000001,-17.372672100000003],[-66.13668650000001,-17.372653800000002],[-66.1367319,-17.3726376],[-66.1367986,-17.3727325],[-66.1368269,-17.372781500000002],[-66.1368693,-17.3728583],[-66.13689480000001,-17.372917400000002],[-66.13690600000001,-17.3729586],[-66.1369073,-17.373002900000003],[-66.136881,-17.3732055],[-66.13684,-17.373471900000002],[-66.1368439,-17.373554400000003],[-66.13687420000001,-17.373674],[-66.1369629,-17.3739679],[-66.136975,-17.373977500000002],[-66.13702590000001,-17.373966900000003],[-66.13707670000001,-17.3739665],[-66.1371628,-17.3739898],[-66.13726190000001,-17.3740157],[-66.1373665,-17.3740291],[-66.1377544,-17.3740075],[-66.1379938,-17.3739923],[-66.13803100000001,-17.373989700000003],[-66.13806550000001,-17.373987300000003],[-66.13879820000001,-17.373941700000003],[-66.13884030000001,-17.373938900000002],[-66.13967260000001,-17.3738852],[-66.13977150000001,-17.3738792],[-66.1405964,-17.373829500000003],[-66.14160030000001,-17.373772000000002],[-66.1422624,-17.373734600000002],[-66.1423298,-17.373722200000003],[-66.1424276,-17.3736928],[-66.1424961,-17.3736651],[-66.1426187,-17.3736122],[-66.14265400000001,-17.3735557],[-66.1426742,-17.373532200000003],[-66.1427001,-17.3735067],[-66.1427463,-17.373472500000002],[-66.14279780000001,-17.373446100000002],[-66.1428532,-17.373428],[-66.14290650000001,-17.373419300000002],[-66.14296060000001,-17.373418400000002],[-66.1430141,-17.3734253],[-66.143066,-17.3734399],[-66.1431441,-17.373479500000002],[-66.14320950000001,-17.3735363],[-66.14325810000001,-17.3736067],[-66.14328110000001,-17.3736636],[-66.143293,-17.3737236],[-66.14329350000001,-17.3737846],[-66.14328250000001,-17.373844700000003],[-66.1432451,-17.373929200000003],[-66.1431855,-17.374000900000002],[-66.14310780000001,-17.374054800000003],[-66.1430179,-17.3740869],[-66.1429705,-17.374129500000002],[-66.14293140000001,-17.374195800000003],[-66.1428264,-17.374870700000002],[-66.1428132,-17.3749632],[-66.1428008,-17.3750357],[-66.14275260000001,-17.3753405],[-66.14268390000001,-17.375774600000003],[-66.14267360000001,-17.3758395],[-66.14261900000001,-17.376235100000002],[-66.142601,-17.3763647],[-66.1425808,-17.376478600000002],[-66.14254940000001,-17.3767783],[-66.1425426,-17.376843100000002],[-66.14253810000001,-17.376884800000003],[-66.14252920000001,-17.376936500000003],[-66.1425277,-17.3769451],[-66.14252490000001,-17.3769601],[-66.1424276,-17.3773273],[-66.1424039,-17.377419200000002],[-66.14240880000001,-17.377441100000002],[-66.1424219,-17.377476],[-66.14243760000001,-17.3774945],[-66.1424518,-17.377522900000002],[-66.14246010000001,-17.3775508],[-66.14246320000001,-17.377579700000002],[-66.14246100000001,-17.377608600000002],[-66.1424521,-17.3776461],[-66.14243590000001,-17.377670400000003],[-66.14245980000001,-17.3777399],[-66.14245360000001,-17.377854900000003],[-66.14240140000001,-17.3784476],[-66.14237720000001,-17.3787495],[-66.1423857,-17.3787904],[-66.14241170000001,-17.378833],[-66.1424539,-17.3788802],[-66.14252710000001,-17.3789172],[-66.1427305,-17.378983400000003],[-66.1429971,-17.3790674],[-66.1430493,-17.3790829],[-66.14306780000001,-17.379109000000003],[-66.1430837,-17.3791368],[-66.1430966,-17.379165800000003],[-66.14310160000001,-17.3791891],[-66.1431024,-17.379212900000002],[-66.14309940000001,-17.379236600000002],[-66.14306760000001,-17.379372800000002],[-66.14306880000001,-17.3794137],[-66.14307760000001,-17.379442],[-66.14309370000001,-17.379472],[-66.14320280000001,-17.3796329],[-66.14410310000001,-17.3809425],[-66.14414070000001,-17.380997200000003],[-66.1442263,-17.3811247],[-66.1443213,-17.3812621],[-66.14433430000001,-17.3812809],[-66.1443962,-17.3813704],[-66.1450554,-17.382323900000003],[-66.1451665,-17.3824805],[-66.14526500000001,-17.382625200000003],[-66.14626410000001,-17.3840939],[-66.1462906,-17.384132800000003],[-66.1463324,-17.384194200000003],[-66.1463585,-17.3842326],[-66.147463,-17.385856],[-66.1475139,-17.3859308],[-66.1475669,-17.3860074],[-66.147678,-17.386168100000003],[-66.14771590000001,-17.386222800000002],[-66.148064,-17.3867233],[-66.14836460000001,-17.3871554],[-66.1484094,-17.3872198],[-66.14850120000001,-17.3873491],[-66.14851920000001,-17.3873745],[-66.14864270000001,-17.387550800000003],[-66.14884190000001,-17.387832500000002],[-66.14901,-17.388070000000003],[-66.14916980000001,-17.388299500000002],[-66.14933660000001,-17.3885389],[-66.1493179,-17.388644900000003],[-66.149276,-17.3888535],[-66.1491994,-17.389254400000002],[-66.1491441,-17.389543900000003],[-66.1490107,-17.390230600000002],[-66.148919,-17.390703000000002],[-66.14890910000001,-17.3907458],[-66.14889430000001,-17.390824400000003],[-66.14888640000001,-17.3908667],[-66.1487038,-17.3917663],[-66.14869060000001,-17.3918339],[-66.148651,-17.391928200000002],[-66.14864180000001,-17.3919718],[-66.14858770000001,-17.3922279],[-66.1485432,-17.392443],[-66.1485231,-17.392540200000003],[-66.1484738,-17.392778800000002],[-66.1484626,-17.392832900000002],[-66.14793900000001,-17.3927435],[-66.14743340000001,-17.3926589],[-66.1473167,-17.3926404],[-66.1468937,-17.3925734],[-66.14683430000001,-17.3925626],[-66.14664900000001,-17.3925276],[-66.1458099,-17.3923619],[-66.1453273,-17.392282],[-66.1451071,-17.392245600000003],[-66.1448295,-17.3921996],[-66.1445767,-17.392158100000003],[-66.14440970000001,-17.392130700000003],[-66.14437070000001,-17.392124300000003],[-66.1442415,-17.392103000000002],[-66.1441346,-17.3920855],[-66.143713,-17.3920162],[-66.1436259,-17.3920019],[-66.1430857,-17.3919132],[-66.142807,-17.3918675],[-66.14274520000001,-17.3918573],[-66.1427214,-17.3919144],[-66.14234640000001,-17.3927549],[-66.1423273,-17.3927935],[-66.1419298,-17.393674700000002],[-66.14187790000001,-17.3937896],[-66.14189300000001,-17.393798800000003],[-66.14190550000001,-17.393811000000003],[-66.141917,-17.393830100000002],[-66.1419226,-17.3938534],[-66.14192050000001,-17.3938773],[-66.1419595,-17.3939217],[-66.1425597,-17.3946913],[-66.14292370000001,-17.3951433],[-66.1431094,-17.3953528],[-66.1432772,-17.3955556],[-66.1434016,-17.395681900000003],[-66.14379020000001,-17.3960495],[-66.1440656,-17.3962608],[-66.14431180000001,-17.396443400000003],[-66.14457460000001,-17.3966099],[-66.14482170000001,-17.396751400000003],[-66.1451356,-17.3969281],[-66.14539470000001,-17.397057200000003],[-66.14574250000001,-17.397234800000003],[-66.14678470000001,-17.3977645],[-66.14745690000001,-17.3981037],[-66.14767230000001,-17.3982059],[-66.1478288,-17.398264],[-66.1480011,-17.398308500000002],[-66.14815660000001,-17.398336200000003],[-66.14831550000001,-17.3983579],[-66.148511,-17.398367800000003],[-66.14855800000001,-17.398372600000002],[-66.14994870000001,-17.3984764],[-66.15058850000001,-17.398518000000003],[-66.1510902,-17.398456600000003],[-66.1519487,-17.3984139],[-66.15201040000001,-17.3984159],[-66.1520931,-17.3984305],[-66.15221910000001,-17.398466000000003],[-66.15236440000001,-17.398521000000002],[-66.1526616,-17.3986303],[-66.1527528,-17.398660500000002],[-66.15277370000001,-17.3986674],[-66.15310670000001,-17.3987465],[-66.15319450000001,-17.3987646],[-66.15417000000001,-17.39898],[-66.1542283,-17.398992900000003],[-66.15429560000001,-17.3990088],[-66.1552473,-17.3992338],[-66.15530360000001,-17.3992471],[-66.15534770000001,-17.399256700000002],[-66.156378,-17.399481],[-66.1564374,-17.399488700000003],[-66.1564991,-17.3994953],[-66.15675590000001,-17.399494800000003],[-66.15696360000001,-17.399463],[-66.1571541,-17.399440100000003],[-66.1575712,-17.3993743],[-66.1576356,-17.399365500000002],[-66.1576364,-17.399322],[-66.157638,-17.399311800000003],[-66.1576443,-17.3992052],[-66.1576879,-17.3989051],[-66.15657990000001,-17.398655100000003],[-66.1564374,-17.399488700000003],[-66.1564225,-17.399578100000003],[-66.1561989,-17.4007931],[-66.1567358,-17.4008781],[-66.15739280000001,-17.400973800000003],[-66.1574786,-17.400986300000003],[-66.1575885,-17.401002300000002],[-66.15757520000001,-17.401153700000002],[-66.157522,-17.4015753],[-66.1574818,-17.4020121],[-66.1574693,-17.4021498],[-66.1574602,-17.4022501],[-66.1574143,-17.4026402],[-66.15738040000001,-17.402927400000003],[-66.15730570000001,-17.403430800000002],[-66.1571981,-17.4039846],[-66.1571744,-17.4040293],[-66.15714940000001,-17.404081100000003],[-66.15697510000001,-17.4051438],[-66.156929,-17.4053964],[-66.15671490000001,-17.4065683],[-66.15667520000001,-17.4068311],[-66.1566081,-17.407373500000002],[-66.1565791,-17.4075962],[-66.1565643,-17.407672],[-66.15655220000001,-17.4077489],[-66.1563919,-17.408892],[-66.1564986,-17.4095365],[-66.1565315,-17.4097021],[-66.1565518,-17.4097727],[-66.1567026,-17.4099988],[-66.1568984,-17.410500000000003],[-66.15689490000001,-17.410525200000002],[-66.15687510000001,-17.4105506],[-66.1568561,-17.410599700000002],[-66.1569037,-17.410757800000003],[-66.15691740000001,-17.410825900000003],[-66.1569262,-17.4108774],[-66.1569326,-17.41091],[-66.15693540000001,-17.410928600000002],[-66.1569386,-17.4109476],[-66.1569456,-17.410963600000002],[-66.15695260000001,-17.4109796],[-66.1569673,-17.4110131],[-66.1569848,-17.4110404],[-66.15700220000001,-17.411067600000003],[-66.15704170000001,-17.4111222],[-66.1570794,-17.4111663],[-66.1571423,-17.41123],[-66.1573365,-17.411404700000002],[-66.15751920000001,-17.4115684],[-66.1576313,-17.411657700000003],[-66.1578284,-17.4117712],[-66.1580895,-17.411881100000002],[-66.15839860000001,-17.4119835],[-66.15857390000001,-17.412065300000002],[-66.15866000000001,-17.4120908],[-66.1594257,-17.4126993],[-66.15946260000001,-17.412717800000003],[-66.15949350000001,-17.412735100000003],[-66.15951240000001,-17.412740900000003],[-66.15954160000001,-17.412731100000002],[-66.1595808,-17.4127277],[-66.1596116,-17.412731800000003],[-66.159633,-17.412738500000003],[-66.159653,-17.4127483],[-66.1596712,-17.412760900000002],[-66.1596871,-17.412776],[-66.1597084,-17.412806800000002],[-66.15977290000001,-17.412933300000002],[-66.1598239,-17.412996800000002],[-66.1598721,-17.4130547],[-66.1607022,-17.4136959],[-66.16150850000001,-17.414331500000003],[-66.1616711,-17.414445800000003],[-66.1617887,-17.414507800000003],[-66.1619089,-17.4145602],[-66.1620436,-17.4145979],[-66.16217180000001,-17.4146234],[-66.1622021,-17.4146284],[-66.16239060000001,-17.414659800000003],[-66.16245930000001,-17.4146521],[-66.16252650000001,-17.4146533],[-66.16260580000001,-17.4146657],[-66.16268190000001,-17.414689900000003],[-66.16275320000001,-17.4147253],[-66.1628177,-17.4147709],[-66.16287390000001,-17.4148256],[-66.1629204,-17.414888100000002],[-66.1629465,-17.4149354],[-66.1629669,-17.4149852],[-66.1629815,-17.4150369],[-66.16299090000001,-17.4150996],[-66.16299240000001,-17.415140200000003],[-66.1629848,-17.4152205],[-66.16296340000001,-17.415298500000002],[-66.16292870000001,-17.415372],[-66.16288180000001,-17.415439000000003],[-66.1628239,-17.415497700000003],[-66.16275540000001,-17.4155474],[-66.1626818,-17.4155839],[-66.1626016,-17.415609],[-66.16252340000001,-17.4156207],[-66.1623206,-17.4157067],[-66.16216630000001,-17.4157663],[-66.162029,-17.415843300000002],[-66.16192070000001,-17.4159191],[-66.1618028,-17.416016300000003],[-66.1616767,-17.4161445],[-66.160809,-17.4171887],[-66.1605469,-17.4174966],[-66.1599958,-17.4181609],[-66.15982100000001,-17.418361],[-66.15973170000001,-17.418473000000002],[-66.15974410000001,-17.418531],[-66.1598348,-17.418993],[-66.15996510000001,-17.419711300000003],[-66.16004050000001,-17.420120100000002],[-66.16010580000001,-17.420442100000002],[-66.16011440000001,-17.4204845],[-66.16017760000001,-17.4208351],[-66.1602486,-17.4212141],[-66.16030310000001,-17.4213302],[-66.1603843,-17.4218735],[-66.16038560000001,-17.4219681],[-66.1603625,-17.4220639],[-66.1603015,-17.4221618],[-66.16022140000001,-17.4222627],[-66.16015730000001,-17.422375900000002],[-66.1601316,-17.422513600000002],[-66.1601248,-17.422727100000003]],"nodes":[1609296214,3472634206,1609295787,1609296056,2319580133,1609295893,2319580132,1609296000,3490208609,1609295892,1609295438,2319580139,1609296371,1609295699,1721481538,7495656477,1609296511,1609296005,1609296234,1609295914,1609295465,2319580293,1609295524,2956787636,11070202339,2508868828,2508868825,12529903869,1609295397,1609366183,1609295440,1609221020,1609221140,1609200185,9156300405,2450079042,7436412015,1609221063,497168741,9156300398,2398626869,1609200177,2398626833,2398626816,1609200081,8162958911,8162958910,7033772018,1609200049,8162958914,497169501,497169504,1485097031,1485097020,1485097014,9366321723,3877506232,1044379733,9366321725,8455317281,1009167683,8455317287,3290785083,11074088806,8162958964,1008238435,9012647241,497170001,9364555678,12952456793,1008238205,12952456794,2509202559,12952456773,2509202552,1485096848,12952456765,4172516985,9012647184,8455678729,8455678875,5734888010,8455678874,11071563641,601870928,2795698874,11081424006,11081424007,601870935,601870941,3287949025,601870952,601870961,601870970,2795698757,601870976,1044379829,8455678823,601870985,601870993,1724424381,601871004,601871013,4172517089,807968365,8455678822,1637609833,13370965887,13368859878,807968574,13368859877,807968474,13368859874,601871031,6835289598,1171505048,1171504684,3915681463,6835289600,601871050,11987099419,11073662405,8596958450,601871068,1171504996,8596958451,8596958448,2394199562,1171505011,8596958565,5605166007,8596958531,8596958532,5605166004,3300291781,7965603632,807968391,11987099449,1796486510,7965603616,11987099447,1796486554,2394199612,1796486560,1796486567,807968031,8509264286,8509264287,8509264250,807968085,9273627973,807968312,9973573068,807968090,807968685,8269304107,599541231,6331635775,1785473214,1785473202,8509264301,10830782197,1785473632,8509264302,1785473234,8616654975,2389107122,1785473260,8509264311,1785473441,1785473207,1785473612,1785473544,2126674116,2389107140,1785473427,2126674142,1785473511,1785473654,1785473340,1785473238,2126674180,2126674191,2590032472,698492585,2590032493,8373677220,8373671016,698492595,8373677218,599541212,8385091871,1637609887,8385091886,8385091900,1637609914,11081730875,8385091876,2389107312,2391341230,8385093441,1795293270,8385093440,1795293321,1795293349,1795293382,11081772340,11081772339,1795293377,1795293372,1795293269,1795293345,1795293437,1795293264,1795293299,1795293277,8385093431,1795293338,2391341613,1795293296,8379904343,11081763605,2391341643,8379904342,1795293405,2391341655,2391341667,1795293432,9890903488,1795293389,602989537,9890903489,8388301598,312425917,9584233890,3676912941,9584233886,10854297122,312425660,8390961546,9930862751,1807100710,2361168089,9930862749,6179473101,312425828,6179473096,11310743156,9031318855,9028209372,6179473247,9031318856,2141431944,6179473241,6179473238,9034180378,5353339454,11310645817,312425956,315096054,3201986227,11827172367,308306729,11827181890,2524491857,303214819,698492415,2524491860,2524491871,310256064,2892642950,11909190787,8686638951,8686638950,9852140997,3924761818,303215163,2296580941,3201986249,12153256567,8674788834,2089612819,360129540,3232582109,8978596850,3740735352,8978596851,8623738790,5096122271,303215031,2702743907,8661106030,303221553,3578038899,8620183423,8620183345,303221552,8620183347,8584400934,315134805,9886485075,2033335103,11072493727,2033335200,2033335257,11072493723,2033335311,2033335550,8619283530,8253508719,315031289,598789073,598789071,8253508706,315031292,315031293,315031294,8250070339,598789057,391727105,2033336773,702512026,315031513,315031514,315031515,315031516,315031517,8250061916,315031543,8004756950,1727306399,598789381,1727306395,2765190357,2765190359,9121680511,1727306396,8241198663,8238783261,8238783233,2765190377,8238783242,3269819960,12081159183,1727306400,12081159182,3674274541,1727306404,3674274542,12081159193,1727306401,2398944652,2398944653,11679558744,7767900404,4929965568,1727306403,10921117759,2398944628,10044108858,310262704,310501000,1727306401,310502881,310502882,323978402,4929965587,310262504,648543481,8637329085,2577975115,2577975131,9090462298,648542366,9652874528,702511644,2577975282,2577975307,9090462294,648542369,648542365,9131177339,323972806,2763553535,702511613,2763553554,2763553563,8226219195,319762950,9131083908,4477790775,702721240,2576698538,3218389503,9653012720,10046249656,2576698592,11069899703,10892572063,10046249670,7902420007,10046249667,4477791070,10046445902,2576698674,1527822562,10046445903,10046406799,10046249653,10046406800,7947239539,10046406798,702721236,2716726766,702721233,702721232,707336838,702721231,12100035080,702721228,3303558644,9438085274,9438085262,2716726787,9438085260,2716726788,9438085273,2716726791,9438085272,2716726793,2716726797,2716726806,702721154,9438085222,497189303,497188705,1762869395,9203487809,497188924,5540948696,497188933,10752482122,497187811,11086439377,11086439378,6351767103,497187812,497187813,9203537851,1762869440,10752482126,497187815,9203487806,497187816,11086439375,11086439376,497187819,497187820,9203487800,1762869479,9203487801,3017385100,9203487802,11114802785,497187800,9203537840,9203487799,497188639,9203487798,1762869495,497188549,1638809217,1865112155,1866239317,4898988812,1497947914,4898988816,1865124246,1865124261,7767883930,7767883937,7767883935,7767891607,1865124209,1638809230,1638807806,1638809234,1638809237,1638809250,1638809252,1638809256,1638809258,1865124212]},"gtfs":{"agency_id":17,"route_id":11138084,"services":[{"service_id":"Mo-Su","startTime":"06:00","endTime":"22:00","trip_id":225}],"filteredStops":{"nodes":[1609296214,1609295787,2319580133,1609296000,2319580139,1609296371,1609295699,1609296511,1609296005,1609296234,1609295914,1609295465,2319580293,1609295524,2508868825,1609366183,1609295440,1609221020,1609221140,1609200185,7436412015,497168741,1609200177,1609200081,7033772018,1485097031,1485097014,3877506232,9366321725,8455317281,11074088806,9012647241,4172516985,601870928,601870961,8455678823,601871004,13368859878,13368859874,11987099419,8596958531,1796486510,8509264286,807968312,807968685,1785473202,1785473427,2590032472,8373671016,1637609887,1795293377,1795293437,1795293405,9890903489,10854297122,9930862751,6179473101,9028209372,6179473238,11310645817,11827172367,11827181890,2524491871,3924761818,3201986249,3232582109,8978596851,303221553,303221552,8584400934,9886485075,8619283530,598789073,315031292,598789057,702512026,315031514,1727306399,1727306395,9121680511,8238783242,12081159183,3674274541,12081159193,4929965568,310501000,310502881,310502882,4929965587,2577975131,702511644,2577975307,648542365,323972806,2763553554,319762950,2576698538,10046249670,702721236,707336838,702721228,497189303,497188705,497187811,497187819,9203487799,1638809217,1866239317,1865124246,7767883930,1865124209,1638809250,1865124212],"coordinates":[[-66.1037125,-17.3692275],[-66.1036771,-17.370153700000003],[-66.1041512,-17.370591100000002],[-66.1050467,-17.3704085],[-66.1054194,-17.3713225],[-66.1057504,-17.3727452],[-66.1060782,-17.374153000000003],[-66.1063232,-17.3752871],[-66.1065796,-17.3763836],[-66.10700250000001,-17.378139],[-66.107274,-17.379283800000003],[-66.10770790000001,-17.3810934],[-66.10799340000001,-17.382263100000003],[-66.1083892,-17.3840101],[-66.1097063,-17.383739100000003],[-66.1116279,-17.383347],[-66.1126926,-17.3831087],[-66.11373660000001,-17.382891800000003],[-66.11474120000001,-17.3826937],[-66.11609370000001,-17.3824299],[-66.1172233,-17.382195000000003],[-66.11826740000001,-17.3819014],[-66.11928180000001,-17.381503600000002],[-66.12026010000001,-17.3810155],[-66.12168240000001,-17.3800861],[-66.1224694,-17.3795763],[-66.12360930000001,-17.378817400000003],[-66.12471000000001,-17.3781074],[-66.1257746,-17.377356000000002],[-66.12695810000001,-17.3765211],[-66.1279626,-17.3758313],[-66.12881490000001,-17.3752302],[-66.1288784,-17.3742397],[-66.1289804,-17.373427200000002],[-66.13031790000001,-17.3731127],[-66.13148120000001,-17.3727838],[-66.1329231,-17.372357100000002],[-66.13412070000001,-17.3724619],[-66.1350955,-17.3726555],[-66.13607130000001,-17.372746300000003],[-66.13689480000001,-17.372917400000002],[-66.1369629,-17.3739679],[-66.1379938,-17.3739923],[-66.13967260000001,-17.3738852],[-66.14160030000001,-17.373772000000002],[-66.1426187,-17.3736122],[-66.14329350000001,-17.3737846],[-66.1428264,-17.374870700000002],[-66.14268390000001,-17.375774600000003],[-66.14254940000001,-17.3767783],[-66.14243590000001,-17.377670400000003],[-66.14237720000001,-17.3787495],[-66.1431024,-17.379212900000002],[-66.14410310000001,-17.3809425],[-66.1450554,-17.382323900000003],[-66.14626410000001,-17.3840939],[-66.147463,-17.385856],[-66.148064,-17.3867233],[-66.14864270000001,-17.387550800000003],[-66.14916980000001,-17.388299500000002],[-66.1491994,-17.389254400000002],[-66.1490107,-17.390230600000002],[-66.1487038,-17.3917663],[-66.1484738,-17.392778800000002],[-66.14743340000001,-17.3926589],[-66.1458099,-17.3923619],[-66.1448295,-17.3921996],[-66.143713,-17.3920162],[-66.14274520000001,-17.3918573],[-66.14234640000001,-17.3927549],[-66.1419298,-17.393674700000002],[-66.1425597,-17.3946913],[-66.1432772,-17.3955556],[-66.1440656,-17.3962608],[-66.1451356,-17.3969281],[-66.14678470000001,-17.3977645],[-66.14767230000001,-17.3982059],[-66.14994870000001,-17.3984764],[-66.1510902,-17.398456600000003],[-66.1520931,-17.3984305],[-66.15310670000001,-17.3987465],[-66.15417000000001,-17.39898],[-66.1552473,-17.3992338],[-66.156378,-17.399481],[-66.1575712,-17.3993743],[-66.15657990000001,-17.398655100000003],[-66.1564225,-17.399578100000003],[-66.1561989,-17.4007931],[-66.15739280000001,-17.400973800000003],[-66.1574818,-17.4020121],[-66.15738040000001,-17.402927400000003],[-66.1571981,-17.4039846],[-66.15697510000001,-17.4051438],[-66.15671490000001,-17.4065683],[-66.1565791,-17.4075962],[-66.1563919,-17.408892],[-66.1567026,-17.4099988],[-66.1569262,-17.4108774],[-66.15751920000001,-17.4115684],[-66.15839860000001,-17.4119835],[-66.1594257,-17.4126993],[-66.1607022,-17.4136959],[-66.16150850000001,-17.414331500000003],[-66.16239060000001,-17.414659800000003],[-66.1629848,-17.4152205],[-66.16216630000001,-17.4157663],[-66.160809,-17.4171887],[-66.1599958,-17.4181609],[-66.1598348,-17.418993],[-66.16004050000001,-17.420120100000002],[-66.1602486,-17.4212141],[-66.1603015,-17.4221618],[-66.1601248,-17.422727100000003]]}}}]}