{"type":"FeatureCollection","features":[{"type":"Feature","properties":{"from":"Calle Serranía de Caíza","name":"MiniBus 45: Calle Serranía de Caíza → Torrentera Arocagua Mayu","network":"BO:CB:Cochabamba","on_demand":"yes","operator":"Sindicato de taxis y trufis 14 de septiembre","public_transport:version":"2","ref":"45","route":"bus","to":"Torrentera Arocagua Mayu","type":"route","wheelchair":"no","id":9400927},"geometry":{"type":"LineString","coordinates":[[-66.1498832,-17.4522531],[-66.1498456,-17.451004700000002],[-66.14984550000001,-17.450921100000002],[-66.1498322,-17.4503112],[-66.14983210000001,-17.4501253],[-66.14983210000001,-17.450055300000002],[-66.14976890000001,-17.450056200000002],[-66.1491373,-17.450064700000002],[-66.1485067,-17.450085],[-66.1484925,-17.4491431],[-66.1485016,-17.4474787],[-66.14850320000001,-17.446217200000003],[-66.14853160000001,-17.445262800000002],[-66.14915040000001,-17.445277800000003],[-66.1496305,-17.4452901],[-66.1497032,-17.4453175],[-66.14973690000001,-17.445353700000002],[-66.14974090000001,-17.4454236],[-66.1499216,-17.4454178],[-66.1499357,-17.4454561],[-66.15009060000001,-17.4458768],[-66.15149500000001,-17.4461106],[-66.1522609,-17.446262400000002],[-66.1524672,-17.446126600000003],[-66.1528377,-17.4462769],[-66.15328020000001,-17.4464659],[-66.1536382,-17.4466043],[-66.1537311,-17.446609000000002],[-66.1537981,-17.446615100000002],[-66.1538903,-17.446618700000002],[-66.154296,-17.4468266],[-66.15435760000001,-17.44688],[-66.1544578,-17.4469892],[-66.1546081,-17.447074800000003],[-66.1547429,-17.4471314],[-66.15488660000001,-17.447162000000002],[-66.15502450000001,-17.4471777],[-66.15524830000001,-17.4471661],[-66.155382,-17.447155700000003],[-66.15538090000001,-17.447126500000003],[-66.15537760000001,-17.4470071],[-66.15537780000001,-17.4469712],[-66.1553734,-17.4459507],[-66.1553722,-17.445906],[-66.1553276,-17.444809300000003],[-66.15526790000001,-17.443343600000002],[-66.1552738,-17.4429702],[-66.1552802,-17.442860800000002],[-66.15529310000001,-17.442758400000002],[-66.15533950000001,-17.442682400000002],[-66.1553466,-17.442606400000003],[-66.15532900000001,-17.4423622],[-66.1553291,-17.442305],[-66.15534070000001,-17.442234000000003],[-66.15538620000001,-17.4420901],[-66.15551190000001,-17.441858200000002],[-66.1555495,-17.441798400000003],[-66.1555757,-17.441749700000003],[-66.15558580000001,-17.4417222],[-66.15558870000001,-17.4416379],[-66.1556197,-17.4410957],[-66.1556393,-17.4405855],[-66.1556486,-17.4400465],[-66.1556887,-17.438995300000002],[-66.15568900000001,-17.4389855],[-66.1556903,-17.4389608],[-66.1557475,-17.437850500000003],[-66.1558064,-17.4367737],[-66.1552192,-17.436751500000003],[-66.154966,-17.436742000000002],[-66.154837,-17.436744700000002],[-66.15452180000001,-17.436730100000002],[-66.1544322,-17.436725900000003],[-66.1543709,-17.4366038],[-66.1542586,-17.436345300000003],[-66.15421830000001,-17.436222200000003],[-66.15419320000001,-17.436098],[-66.15418700000001,-17.435970400000002],[-66.15419580000001,-17.4358179],[-66.1543506,-17.434078200000002],[-66.15450050000001,-17.4324884],[-66.15461830000001,-17.4309087],[-66.15466090000001,-17.4301342],[-66.1546685,-17.4299232],[-66.15475570000001,-17.429122200000002],[-66.1547695,-17.4290227],[-66.1548487,-17.4268414],[-66.15488570000001,-17.4256561],[-66.1548906,-17.425590200000002],[-66.1557422,-17.4256119],[-66.1564093,-17.425651000000002],[-66.15724030000001,-17.425681700000002],[-66.15729490000001,-17.424491600000003],[-66.1573468,-17.423553700000003],[-66.15738130000001,-17.422870900000003],[-66.157358,-17.4227573],[-66.15739500000001,-17.4217924],[-66.1573968,-17.421744],[-66.157415,-17.421268700000002],[-66.15742660000001,-17.420942800000002],[-66.1574399,-17.4205262],[-66.1574408,-17.4204939],[-66.1574454,-17.420344200000002],[-66.1574461,-17.4203231],[-66.15744910000001,-17.420225100000003],[-66.1574669,-17.419824700000003],[-66.15746800000001,-17.4198008],[-66.1574726,-17.4196975],[-66.15747470000001,-17.419645600000003],[-66.15749890000001,-17.4190587],[-66.15745150000001,-17.418701600000002],[-66.15728130000001,-17.417648600000003],[-66.15712830000001,-17.4167263],[-66.1571127,-17.4166415],[-66.1571052,-17.4165892],[-66.15693250000001,-17.4157097],[-66.1569187,-17.4156285],[-66.1568994,-17.415553600000003],[-66.15673860000001,-17.4146025],[-66.15670440000001,-17.414347000000003],[-66.15662680000001,-17.4138696],[-66.1566217,-17.4138382],[-66.1564848,-17.413078000000002],[-66.1564805,-17.4130541],[-66.1563699,-17.412436300000003],[-66.1563141,-17.4122631],[-66.15627660000001,-17.4120983],[-66.15617130000001,-17.4117384],[-66.1560072,-17.411224500000003],[-66.1559541,-17.411042700000003],[-66.15597260000001,-17.410806700000002],[-66.15599390000001,-17.410651],[-66.15606650000001,-17.410112400000003],[-66.15619650000001,-17.409290400000003],[-66.15632450000001,-17.4083979],[-66.1563907,-17.407897100000003],[-66.1564025,-17.4077582],[-66.1564075,-17.4076741],[-66.1564172,-17.407578500000003],[-66.15641910000001,-17.4074706],[-66.15639270000001,-17.4073268],[-66.15618620000001,-17.406088800000003],[-66.1559678,-17.4049702],[-66.1557832,-17.4041135],[-66.1556489,-17.4034863],[-66.1555374,-17.402965700000003],[-66.15553720000001,-17.4029233],[-66.1555369,-17.402825800000002],[-66.1555132,-17.4027171],[-66.1554974,-17.402641900000003],[-66.15547640000001,-17.402548900000003],[-66.1554679,-17.4025025],[-66.15545250000001,-17.402434200000002],[-66.155439,-17.402374000000002],[-66.15543290000001,-17.402350600000002],[-66.15541990000001,-17.402300800000003],[-66.15531650000001,-17.4021915],[-66.15594820000001,-17.4021963],[-66.1566669,-17.4022092],[-66.15732700000001,-17.402232100000003],[-66.1573377,-17.4021346],[-66.15741440000001,-17.4015643],[-66.1574614,-17.401138300000003],[-66.1574786,-17.400986300000003],[-66.15748430000001,-17.4009417],[-66.1576275,-17.3996977],[-66.1576328,-17.3995669],[-66.1576362,-17.3994821],[-66.1576356,-17.399365500000002],[-66.1576364,-17.399322],[-66.157638,-17.399311800000003],[-66.1576443,-17.3992052],[-66.1576879,-17.3989051],[-66.15787160000001,-17.397843700000003],[-66.1578813,-17.397778600000002],[-66.15788930000001,-17.397730000000003],[-66.1580315,-17.396754700000002],[-66.1580388,-17.396700600000003],[-66.157998,-17.3966943],[-66.1569724,-17.3965257],[-66.15662730000001,-17.3964637],[-66.156456,-17.3964348],[-66.1558816,-17.396329700000003],[-66.1547941,-17.3961338],[-66.15373170000001,-17.3959471],[-66.1526171,-17.3957535],[-66.15150530000001,-17.395542600000002],[-66.15044230000001,-17.3953552],[-66.14962680000001,-17.3952107],[-66.1492527,-17.395144400000003],[-66.14921100000001,-17.395137000000002],[-66.149167,-17.395129200000003],[-66.1491829,-17.395060400000002],[-66.1492372,-17.394778300000002],[-66.1493039,-17.394431500000003],[-66.1493561,-17.3941416],[-66.1493544,-17.394092500000003],[-66.1493561,-17.394017700000003],[-66.1495434,-17.393104800000003],[-66.14955570000001,-17.393052200000003],[-66.1495696,-17.3929855],[-66.1497525,-17.3920777],[-66.1497628,-17.3920265],[-66.14977370000001,-17.391967400000002],[-66.1498584,-17.3915058],[-66.14993820000001,-17.391094000000002],[-66.14995180000001,-17.391033500000002],[-66.14996670000001,-17.3909479],[-66.14997810000001,-17.390874],[-66.15009660000001,-17.390268900000002],[-66.15018280000001,-17.3898291],[-66.1501946,-17.3897684],[-66.15025340000001,-17.389679],[-66.1502971,-17.3894661],[-66.1504185,-17.3888752],[-66.1504324,-17.3888061],[-66.1504479,-17.388726300000002],[-66.1505623,-17.388206200000003],[-66.1506379,-17.387748400000003],[-66.1506511,-17.387696700000003],[-66.15068430000001,-17.3875092],[-66.15071900000001,-17.387353700000002],[-66.1507318,-17.387296900000003],[-66.15088890000001,-17.3866008],[-66.1508979,-17.3865461],[-66.1509087,-17.386498600000003],[-66.15109310000001,-17.3855979],[-66.15110890000001,-17.385506600000003],[-66.15116540000001,-17.3852221],[-66.1511784,-17.3851568],[-66.1511861,-17.3851239],[-66.1512256,-17.3849194],[-66.15140410000001,-17.384021],[-66.1514094,-17.383994100000002],[-66.1514217,-17.3839322],[-66.1514374,-17.3838563],[-66.1516198,-17.382975300000002],[-66.1516399,-17.382874700000002],[-66.15165970000001,-17.3827433],[-66.1515937,-17.382728500000002],[-66.1515298,-17.3827068],[-66.15146890000001,-17.382678400000003],[-66.1513972,-17.382633400000003],[-66.15133300000001,-17.382579200000002],[-66.15127740000001,-17.382516900000002],[-66.15123150000001,-17.3824478],[-66.15120510000001,-17.3823717],[-66.1511821,-17.382277900000002],[-66.1511753,-17.3821817],[-66.1511847,-17.382085800000002],[-66.15120870000001,-17.3819921],[-66.1512426,-17.381916500000003],[-66.15128870000001,-17.3818471],[-66.1513456,-17.381785400000002],[-66.15141200000001,-17.381733],[-66.1514719,-17.3816993],[-66.15149600000001,-17.381685800000003],[-66.15159390000001,-17.3816542],[-66.15166280000001,-17.3816452],[-66.15170730000001,-17.3816394],[-66.15173970000001,-17.3816251],[-66.1517833,-17.381598],[-66.1518025,-17.3815591],[-66.1518475,-17.3811894],[-66.1518611,-17.381000500000003],[-66.1518774,-17.3809356],[-66.1517086,-17.380930900000003],[-66.1513132,-17.380906600000003],[-66.1512684,-17.3808754],[-66.15091220000001,-17.3808556],[-66.15082840000001,-17.3808504],[-66.15075130000001,-17.380847000000003],[-66.1506945,-17.380844300000003],[-66.1506502,-17.3808422],[-66.1506224,-17.380840900000003],[-66.14986970000001,-17.3808045],[-66.1498488,-17.380803500000003],[-66.1497803,-17.380800200000003],[-66.1496369,-17.3807951],[-66.1495718,-17.3807915],[-66.14954490000001,-17.38079],[-66.14945320000001,-17.380785000000003],[-66.14919920000001,-17.380771000000003],[-66.1490852,-17.3807647],[-66.1489406,-17.3807568],[-66.1484039,-17.3807273],[-66.1480441,-17.380692500000002],[-66.1478768,-17.380674600000003],[-66.1477717,-17.380657600000003],[-66.14749690000001,-17.3806133],[-66.14738510000001,-17.380592],[-66.1472794,-17.380571900000003],[-66.1471626,-17.380543000000003],[-66.1470341,-17.3805057],[-66.14664400000001,-17.380378200000003],[-66.14632730000001,-17.380269900000002],[-66.1460565,-17.380177500000002],[-66.1459655,-17.3801492],[-66.145831,-17.3801041],[-66.14533970000001,-17.3799394],[-66.1449379,-17.3798047],[-66.1448567,-17.379777400000002],[-66.1447885,-17.379754600000002],[-66.14466510000001,-17.3797132],[-66.14460050000001,-17.379691400000002],[-66.14450620000001,-17.379659500000002],[-66.14418660000001,-17.3795514],[-66.1437635,-17.3793961],[-66.1435843,-17.3793696],[-66.143172,-17.3792271],[-66.1430256,-17.379183400000002],[-66.1425195,-17.379064800000002],[-66.1424387,-17.379049100000003],[-66.1423869,-17.3790468],[-66.14232990000001,-17.3790519],[-66.1423199,-17.3790756],[-66.1423139,-17.3790847],[-66.1423073,-17.379092800000002],[-66.1423,-17.3791003],[-66.14228750000001,-17.379110500000003],[-66.1422737,-17.3791189],[-66.14224390000001,-17.3791297],[-66.14221230000001,-17.379132600000002],[-66.1421811,-17.3791273],[-66.1421524,-17.3791143],[-66.14212850000001,-17.379095600000003],[-66.14211780000001,-17.379081300000003],[-66.14210940000001,-17.379066700000003],[-66.14210480000001,-17.379056000000002],[-66.142099,-17.379032600000002],[-66.1420987,-17.379009200000002],[-66.1421036,-17.3789863],[-66.1421134,-17.378964800000002],[-66.14212780000001,-17.3789459],[-66.142145,-17.3789294],[-66.14211610000001,-17.3788783],[-66.14216560000001,-17.3784026],[-66.14218740000001,-17.378126400000003],[-66.14222570000001,-17.377979500000002],[-66.14223430000001,-17.3778571],[-66.14223030000001,-17.377773700000002],[-66.1422199,-17.3776949],[-66.1421909,-17.3776639],[-66.14217310000001,-17.3776255],[-66.14216710000001,-17.377586],[-66.14217070000001,-17.3775543],[-66.1421773,-17.377529600000003],[-66.14219340000001,-17.377495200000002],[-66.142222,-17.3774681],[-66.14225540000001,-17.3774507],[-66.14229470000001,-17.3774383],[-66.1423194,-17.3774203],[-66.14233460000001,-17.3774054],[-66.1423592,-17.3773105],[-66.14246,-17.376944400000003],[-66.1424636,-17.376928900000003],[-66.142464,-17.376924900000002],[-66.1424703,-17.3768683],[-66.1424748,-17.3768274],[-66.142481,-17.3767615],[-66.14251820000001,-17.376325],[-66.1425282,-17.376219600000002],[-66.1425928,-17.375760800000002],[-66.14265420000001,-17.3753253],[-66.1426953,-17.375031],[-66.14270520000001,-17.374962800000002],[-66.14271830000001,-17.3748676],[-66.142819,-17.374184500000002],[-66.1428047,-17.3741261],[-66.1427764,-17.374057200000003],[-66.14268050000001,-17.3739877],[-66.14263460000001,-17.373939500000002],[-66.1426047,-17.373879000000002],[-66.14259750000001,-17.3738446],[-66.1424952,-17.3738329],[-66.1424073,-17.373828800000002],[-66.14231380000001,-17.3738299],[-66.1416102,-17.373870800000002],[-66.14135470000001,-17.3738847],[-66.1406024,-17.373925800000002],[-66.14058030000001,-17.3739272],[-66.1397774,-17.3739795],[-66.1396797,-17.3739858],[-66.1388488,-17.3740376],[-66.1388077,-17.374040100000002],[-66.1385992,-17.3740531],[-66.1385662,-17.374055000000002],[-66.13843370000001,-17.374062600000002],[-66.13831370000001,-17.3740694],[-66.1381326,-17.3740798],[-66.13810310000001,-17.374081500000003],[-66.1380704,-17.374083300000002],[-66.13776130000001,-17.374101000000003],[-66.1374497,-17.3741239],[-66.137285,-17.3741516],[-66.1372099,-17.374173600000002],[-66.1371383,-17.3741975],[-66.1371065,-17.374207400000003],[-66.13703530000001,-17.374226500000002],[-66.1370292,-17.3742406],[-66.13702160000001,-17.3742507],[-66.13701040000001,-17.374265400000002],[-66.1369859,-17.374285200000003],[-66.1369614,-17.374297300000002],[-66.1369348,-17.374304300000002],[-66.1369073,-17.374305900000003],[-66.13688,-17.3743021],[-66.13685410000001,-17.374293100000003],[-66.1368307,-17.374279100000003],[-66.1368109,-17.374260800000002],[-66.13679540000001,-17.374239000000003],[-66.13678490000001,-17.374214600000002],[-66.13675640000001,-17.3741062],[-66.13675140000001,-17.374080300000003],[-66.13675210000001,-17.374054],[-66.1367585,-17.3740284],[-66.1367891,-17.3735156],[-66.1368302,-17.373104100000003],[-66.1368334,-17.3730179],[-66.13681910000001,-17.372951200000003],[-66.1367915,-17.372903200000003],[-66.1367573,-17.3728696],[-66.1367036,-17.3728297],[-66.1366337,-17.372782],[-66.1365427,-17.3727975],[-66.1361547,-17.372841700000002],[-66.13608350000001,-17.3728479],[-66.1359771,-17.372857200000002],[-66.13586020000001,-17.3728656],[-66.13578170000001,-17.3728684],[-66.1356853,-17.372860300000003],[-66.13549660000001,-17.3728322],[-66.1351908,-17.372780600000002],[-66.1351489,-17.372770300000003],[-66.13507530000001,-17.372756300000002],[-66.1347435,-17.3726933],[-66.134217,-17.372593400000003],[-66.1341675,-17.372584],[-66.1341027,-17.3725714],[-66.1337319,-17.3724992],[-66.1334855,-17.3724558],[-66.13338390000001,-17.372432500000002],[-66.1333491,-17.372427300000002],[-66.13319360000001,-17.372420100000003],[-66.13306530000001,-17.3724275],[-66.1326272,-17.3725546],[-66.1319916,-17.3727297],[-66.1318806,-17.3727555],[-66.1316408,-17.372834500000003],[-66.13114630000001,-17.3730495],[-66.1309399,-17.3731471],[-66.13084500000001,-17.373181900000002],[-66.13071880000001,-17.3732067],[-66.13054310000001,-17.3732203],[-66.1302763,-17.3732331],[-66.1300836,-17.373247900000003],[-66.12985490000001,-17.3732694],[-66.1298225,-17.373275600000003],[-66.1296782,-17.373303200000002],[-66.1294941,-17.373350600000002],[-66.1293598,-17.3733943],[-66.1292169,-17.3734493],[-66.12908060000001,-17.373502700000003],[-66.1289941,-17.373526100000003],[-66.12888410000001,-17.373551300000003],[-66.12879240000001,-17.3735624],[-66.1286912,-17.373569900000003],[-66.12775640000001,-17.3735584],[-66.12761880000001,-17.373554600000002],[-66.1271409,-17.3735386],[-66.12669580000001,-17.3735226],[-66.12623450000001,-17.373509100000003],[-66.12581660000001,-17.3734922],[-66.1253243,-17.373470400000002],[-66.1247261,-17.3734433],[-66.1244463,-17.3734314],[-66.12397170000001,-17.373418100000002],[-66.1239031,-17.3734159],[-66.12389040000001,-17.3735961],[-66.1238608,-17.3739676],[-66.123755,-17.3747505],[-66.12375130000001,-17.3747781],[-66.1237109,-17.3751742],[-66.1237098,-17.375185100000003],[-66.12364880000001,-17.3757029],[-66.12357320000001,-17.376405100000003],[-66.1231547,-17.376426900000002],[-66.1226678,-17.376443400000003],[-66.1220976,-17.3764626],[-66.1219387,-17.376468000000003],[-66.1219657,-17.3766044],[-66.12145290000001,-17.3766685],[-66.121295,-17.376692900000002],[-66.120823,-17.3768275],[-66.1207313,-17.376876300000003],[-66.1207201,-17.376893900000002],[-66.12070480000001,-17.376908500000003],[-66.12068620000001,-17.376919100000002],[-66.12066200000001,-17.3769257],[-66.1206368,-17.3769256],[-66.12061270000001,-17.376918800000002],[-66.1199026,-17.377147],[-66.11985010000001,-17.3770309],[-66.11902070000001,-17.376398400000003],[-66.11835690000001,-17.376624200000002],[-66.118313,-17.3766359],[-66.1174495,-17.376973600000003],[-66.1171058,-17.3771226],[-66.1170678,-17.377137700000002],[-66.1166781,-17.3772927],[-66.1163714,-17.3769636],[-66.11606300000001,-17.376632700000002],[-66.1164888,-17.376465600000003],[-66.1158741,-17.375806200000003],[-66.11528240000001,-17.3751706],[-66.11562020000001,-17.375040000000002],[-66.11562710000001,-17.3747997],[-66.11564290000001,-17.374395200000002],[-66.1156557,-17.3739889],[-66.11568630000001,-17.373561300000002],[-66.11571500000001,-17.3730738],[-66.1149213,-17.3730389],[-66.11436590000001,-17.373022900000002],[-66.11379500000001,-17.3730081],[-66.1134689,-17.372996800000003],[-66.11347070000001,-17.3728783],[-66.1134966,-17.3724318],[-66.1135569,-17.371392200000003],[-66.11358580000001,-17.370865400000003],[-66.11363530000001,-17.3703277],[-66.1136731,-17.3697941],[-66.1137132,-17.368595000000003],[-66.1137697,-17.3685131],[-66.11378950000001,-17.3684051],[-66.11384960000001,-17.3683586],[-66.1148599,-17.3679947],[-66.11497250000001,-17.3680507],[-66.11500360000001,-17.3680726],[-66.11516710000001,-17.368156000000003]],"nodes":[1617344998,1617348750,9119260688,9119260684,9586555667,1617344952,9119260685,1617345056,1617344990,1617345048,1617345008,1617344938,1617345052,1617345036,3657163710,1617345029,3657163711,1617345023,3657163713,11574745242,1626983288,9956191302,3657170732,3657170726,3657170737,3657170748,3657170752,3657170754,3657170755,3657170753,3657170761,3657170765,3657170774,3657170783,3657170789,3657170791,3657170793,3657170792,1617352185,11071526193,2022078143,3647863745,1617351953,3647863640,1617352024,1617351921,3647863399,6133714650,1617351930,13336382370,1617351960,1617352087,13159081859,3647863369,5314086255,13159081860,3311611301,13159082293,13159082294,1617352207,1617351987,3017390014,3017399359,6861747967,1617352057,6861747968,2053282904,1617352179,1617351899,1617351991,3308828420,1615155236,1615155227,1615155232,1615155244,3308828412,3308828410,1615155252,1617352145,2053282952,2053282943,1615155230,1638807972,1615155237,3307354376,1615155239,2149916008,3307354170,1615155248,1497953276,1615155226,1499573799,2022073886,1807087153,1497953241,1499573842,7768396089,1497953245,7768396075,1499573838,7768396132,13383715983,12519463525,12519463520,1497953244,13067849852,13067849842,4679599408,13067849850,3307231669,1499934219,1499934269,5433895293,1499934359,5433895295,5433999185,1499934373,5433999188,1499934251,3709607020,11727597289,319753997,497189945,11727597291,3709606820,3709606817,1499934277,1527822563,6563373032,1499934333,2763553621,2763553615,560101173,843386144,2763553572,8226219193,2636956076,2763553565,2763553549,2763553542,323974916,323976071,323975899,2636956053,8433844582,323975354,10246104212,5313058761,5313058758,5313058755,5313058752,5313058739,5313058749,5313058746,10246104211,323975356,323982548,2765190393,323982551,310262503,9090462299,9652874536,8637329086,310262504,9593572483,8099780503,2398944655,315111095,1727306403,10921117759,2398944628,10044108858,310262704,3674274538,310262706,3674274535,2398944607,310262707,2398944605,5964203052,4051759810,4051759813,310500545,310500546,308300467,310500613,310500614,310500687,9934878052,13410939033,8004756947,303217532,5018719458,2303485397,2303485390,9121465671,303217533,8398265924,3924761796,303215162,3924761795,8515866923,303217534,5309804691,1851061835,2866813904,698492413,303214820,2866811499,13041417514,9591270798,303217664,2470422219,13041417511,2470422186,303217665,2470422184,3783547283,2470422182,7517222306,310501189,2470422172,13041385796,2327853065,303217726,2327853062,2470422169,303217727,360562473,4106074780,2590640139,2590640132,4106074711,3921428755,303217729,9030077625,3921428756,2220379268,2220379261,10839957165,6179537716,2220379259,6179537717,2220379212,9068826346,2361168084,2441014290,2220379125,6179537718,9068826356,8355285956,9068826355,8355285957,2220379067,9068826368,11815830409,2220379033,6606671263,11081648808,6606671264,9068826353,9068826351,8355285965,9068826448,2220378980,312425272,8365941806,11911412594,11911412596,9884224451,4154782682,312425423,9514998338,9976167280,11526125552,11526125549,9976167278,312425273,668478533,11526125550,11526125551,9918656345,9918656347,10949120639,10949120641,4040921136,9287273662,3924633677,8389429338,312425283,9794053510,312425284,9030099130,9030099129,10725027604,8389429274,2442129608,312425664,8389429275,312425679,9584233881,9584233882,4965282164,312425919,8388301552,11526125528,5353082139,312425308,1795293366,1795293303,1795293295,1795293309,2391341619,8379904373,9353076788,9353076783,9353076786,9353076784,2391341617,8379904346,2391341633,2391341636,2391341635,6331635784,8379904364,2334193728,8379904363,5726456926,9353076793,9353076789,9353076792,9353076790,9976027044,2391341593,2391341542,8172711431,5726313467,9047064017,1795293265,11081772341,8379904390,1795293379,1795293373,1795293274,1795293317,8385093438,1795293364,1795293348,1795293368,8385093437,1795293310,9007531385,2391341224,2389107311,2466162853,602989599,11081730876,8385093445,8385091887,2389107301,391733772,8373677219,8373677217,8373677221,2590032490,698492587,2590032474,2126674187,2126674171,1785473496,8509264306,10830782194,10830782195,1785473517,2126674144,1785473607,599541230,1785473274,12096329275,1785473349,12096329260,9973573073,1796486551,9276752239,2520618594,698492664,9973573057,9973573056,9973573055,8509264252,8509264251,8509264023,2520618597,11987099430,1796486592,1796486602,9371548102,5605165996,7965603619,11987099445,11079121784,11987099446,11079121783,7965603620,11987099440,7965603621,7965603622,11987099441,2394199631,7965603623,7965603624,11987099442,11987099434,11079121781,11987099435,2394199611,3287025576,5605166012,5605167421,2394199565,5605166011,8596958449,5605166013,602990144,8596958447,602990147,11987099418,602990148,2394199566,8596958446,602990149,8596958433,6835289597,1171504754,13368859873,9366321575,13368859876,8596958571,13368859879,9366321572,1171504659,13299770220,602990150,602990151,602990152,602990153,3287025570,602990155,602990157,602990158,602990159,3287949026,2795698767,602990160,602990161,3287949028,602990163,13299770233,2795698873,1044379840,602990164,11081424005,602990165,1008238282,11071563642,5734888010,8455678873,1008238540,1489808324,1044378998,1044379796,1489808320,1044379444,1046715733,1489808318,1046717327,9015711403,1044378872,8455428835,1044378938,1044379031,1066149621,1044379136,1066149610,1066149630,1044379675,1066149622,10554088631,10554088610,1485096973,4794462885,6617622693,6617622692,10554043208,6617622701,8455228584,8455228585,6617622702,8455228586,8455228587,6617622699,6617622694,1485096988,1486246202,2805250608,1486246215,1486246224,1486246231,8455228553,1486246232,8455228551,1486246213,1486246206,1486246180,1486246104,1489808523,1489808505,1489808463,1489808405,1489808339,1486245879,1489808283,1493827240,1489808264,1721490845,1493827236,1493827217,1493827160,1493827106,1493827054,1493827011,1493826908,3292628177,2319491011,8430309909,2319491003,3017431094,5891284794,8439903482]},"gtfs":{"agency_id":9,"route_id":9400927,"services":[{"service_id":"Mo-Su","startTime":"06:00","endTime":"22:00","trip_id":51}],"filteredStops":{"nodes":[1617344998,1617348750,1617344952,1617344990,1617345048,1617345008,1617344938,1617345052,3657163710,9956191302,3657170726,3657170752,3657170774,1617352185,1617351953,1617352024,1617351921,1617352087,1617351987,3017399359,6861747967,2053282904,1617352179,3308828420,3308828412,2053282952,2053282943,1615155230,1615155237,1615155239,2149916008,3307354170,1615155226,2022073886,1807087153,7768396089,7768396132,3307231669,1499934269,5433895293,5433999185,1499934251,497189945,1499934277,6563373032,560101173,2763553572,2763553542,323976071,323975899,8433844582,5313058752,2765190393,310262503,8637329086,8099780503,3674274538,2398944607,5964203052,310500545,310500546,308300467,310500613,310500614,310500687,13410939033,9121465671,3924761796,8515866923,2866813904,9591270798,2470422186,2470422182,2327853065,2470422169,4106074711,3921428756,2220379125,6606671264,8365941806,312425423,312425273,4040921136,9794053510,8389429274,312425679,5353082139,1795293303,2391341633,9047064017,2389107311,391733772,8373677221,2126674187,1785473274,1785473349,9276752239,2520618597,11987099441,5605166012,11987099418,1171504754,13368859876,602990151,3287025570,602990159,602990163,11071563642,1008238540,1044379796,1046715733,9015711403,1044379031,1066149630,1066149622,10554088610,6617622692,6617622694,1486246202,1486246224,8455228551,1486246180,1489808523,1489808405,1486245879,1493827240,1493827236,1493827160,1493827054,1493826908,2319491003,8439903482],"coordinates":[[-66.1498832,-17.4522531],[-66.1498456,-17.451004700000002],[-66.14983210000001,-17.450055300000002],[-66.1485067,-17.450085],[-66.1484925,-17.4491431],[-66.1485016,-17.4474787],[-66.14850320000001,-17.446217200000003],[-66.14853160000001,-17.445262800000002],[-66.1496305,-17.4452901],[-66.15149500000001,-17.4461106],[-66.1524672,-17.446126600000003],[-66.1536382,-17.4466043],[-66.1544578,-17.4469892],[-66.155382,-17.447155700000003],[-66.1553734,-17.4459507],[-66.1553276,-17.444809300000003],[-66.15526790000001,-17.443343600000002],[-66.15532900000001,-17.4423622],[-66.1556197,-17.4410957],[-66.1556486,-17.4400465],[-66.1556887,-17.438995300000002],[-66.1557475,-17.437850500000003],[-66.1558064,-17.4367737],[-66.154837,-17.436744700000002],[-66.15421830000001,-17.436222200000003],[-66.1543506,-17.434078200000002],[-66.15450050000001,-17.4324884],[-66.15461830000001,-17.4309087],[-66.1546685,-17.4299232],[-66.1547695,-17.4290227],[-66.1548487,-17.4268414],[-66.15488570000001,-17.4256561],[-66.1564093,-17.425651000000002],[-66.15729490000001,-17.424491600000003],[-66.1573468,-17.423553700000003],[-66.15739500000001,-17.4217924],[-66.1574399,-17.4205262],[-66.15749890000001,-17.4190587],[-66.15728130000001,-17.417648600000003],[-66.15712830000001,-17.4167263],[-66.15693250000001,-17.4157097],[-66.15673860000001,-17.4146025],[-66.1564848,-17.413078000000002],[-66.15627660000001,-17.4120983],[-66.1560072,-17.411224500000003],[-66.15606650000001,-17.410112400000003],[-66.15632450000001,-17.4083979],[-66.15641910000001,-17.4074706],[-66.15618620000001,-17.406088800000003],[-66.1559678,-17.4049702],[-66.1556489,-17.4034863],[-66.15547640000001,-17.402548900000003],[-66.15594820000001,-17.4021963],[-66.15732700000001,-17.402232100000003],[-66.1574614,-17.401138300000003],[-66.1576275,-17.3996977],[-66.15787160000001,-17.397843700000003],[-66.1580315,-17.396754700000002],[-66.1569724,-17.3965257],[-66.1558816,-17.396329700000003],[-66.1547941,-17.3961338],[-66.15373170000001,-17.3959471],[-66.1526171,-17.3957535],[-66.15150530000001,-17.395542600000002],[-66.15044230000001,-17.3953552],[-66.1492527,-17.395144400000003],[-66.1493561,-17.3941416],[-66.1495434,-17.393104800000003],[-66.1497525,-17.3920777],[-66.14993820000001,-17.391094000000002],[-66.15018280000001,-17.3898291],[-66.1504185,-17.3888752],[-66.1506379,-17.387748400000003],[-66.15088890000001,-17.3866008],[-66.15109310000001,-17.3855979],[-66.15140410000001,-17.384021],[-66.1516198,-17.382975300000002],[-66.1511821,-17.382277900000002],[-66.15170730000001,-17.3816394],[-66.1517086,-17.380930900000003],[-66.15075130000001,-17.380847000000003],[-66.1497803,-17.380800200000003],[-66.1484039,-17.3807273],[-66.14738510000001,-17.380592],[-66.14632730000001,-17.380269900000002],[-66.14533970000001,-17.3799394],[-66.14418660000001,-17.3795514],[-66.143172,-17.3792271],[-66.1422737,-17.3791189],[-66.14218740000001,-17.378126400000003],[-66.1423592,-17.3773105],[-66.14251820000001,-17.376325],[-66.14265420000001,-17.3753253],[-66.142819,-17.374184500000002],[-66.1416102,-17.373870800000002],[-66.1406024,-17.373925800000002],[-66.1388488,-17.3740376],[-66.13776130000001,-17.374101000000003],[-66.13685410000001,-17.374293100000003],[-66.1368302,-17.373104100000003],[-66.13608350000001,-17.3728479],[-66.1351489,-17.372770300000003],[-66.134217,-17.372593400000003],[-66.13319360000001,-17.372420100000003],[-66.1319916,-17.3727297],[-66.1309399,-17.3731471],[-66.12985490000001,-17.3732694],[-66.12888410000001,-17.373551300000003],[-66.12775640000001,-17.3735584],[-66.12669580000001,-17.3735226],[-66.1253243,-17.373470400000002],[-66.12397170000001,-17.373418100000002],[-66.123755,-17.3747505],[-66.12364880000001,-17.3757029],[-66.1231547,-17.376426900000002],[-66.1220976,-17.3764626],[-66.121295,-17.376692900000002],[-66.1199026,-17.377147],[-66.11902070000001,-17.376398400000003],[-66.1174495,-17.376973600000003],[-66.1163714,-17.3769636],[-66.1158741,-17.375806200000003],[-66.11562020000001,-17.375040000000002],[-66.1156557,-17.3739889],[-66.11571500000001,-17.3730738],[-66.11436590000001,-17.373022900000002],[-66.11347070000001,-17.3728783],[-66.1135569,-17.371392200000003],[-66.11363530000001,-17.3703277],[-66.1137132,-17.368595000000003],[-66.1148599,-17.3679947],[-66.11516710000001,-17.368156000000003]]}}}]}