{"type":"FeatureCollection","features":[{"type":"Feature","properties":{"check_date":"29/12/2025","from":"Avenida Blanco Galindo","name":"MicroBus 203: Avenida Blanco Galindo → Avenida Circuito Bolivia","network":"BO:CB:Cochabamba","on_demand":"yes","operator":"Sindicato mixto transporte Urkupiña","public_transport:version":"2","ref":"203","route":"bus","to":"Avenida Circuito Bolivia","type":"route","wheelchair":"no","id":10407407},"geometry":{"type":"LineString","coordinates":[[-66.2298855,-17.3914048],[-66.2297415,-17.3914102],[-66.2291665,-17.3914316],[-66.228361,-17.3914642],[-66.2274295,-17.3915073],[-66.2266236,-17.3915445],[-66.226496,-17.3915467],[-66.2249193,-17.3916169],[-66.22209,-17.39174],[-66.2218668,-17.3917507],[-66.2215956,-17.3917638],[-66.2213351,-17.3917763],[-66.2194094,-17.3918519],[-66.2193472,-17.3918506],[-66.218927,-17.3918711],[-66.2182553,-17.3918972],[-66.2154179,-17.392026],[-66.2135165,-17.3921133],[-66.2125924,-17.3921466],[-66.2125225,-17.3921489],[-66.2113164,-17.3922033],[-66.2103878,-17.3922456],[-66.2103017,-17.3922496],[-66.208973,-17.3923041],[-66.2082952,-17.3923381],[-66.2082831,-17.3923387],[-66.2081903,-17.3923434],[-66.2080961,-17.3923466],[-66.2080101,-17.3923501],[-66.2077704,-17.3923599],[-66.2056284,-17.3924477],[-66.2047083,-17.3924891],[-66.2043092,-17.3925078],[-66.2036195,-17.3925345],[-66.2031084,-17.3925542],[-66.2004314,-17.3926766],[-66.2002307,-17.3926858],[-66.1998222,-17.3927046],[-66.1997525,-17.3927076],[-66.1996829,-17.3927105],[-66.1996077,-17.3927141],[-66.1994816,-17.3927193],[-66.1989358,-17.392742],[-66.1970994,-17.3928205],[-66.1969609,-17.3928267],[-66.1941713,-17.3929516],[-66.1939032,-17.3929632],[-66.1918596,-17.3930496],[-66.1892684,-17.3931683],[-66.1875821,-17.3932431],[-66.1864162,-17.3932944],[-66.1844616,-17.3933742],[-66.1841034,-17.3933915],[-66.1825146,-17.3934622],[-66.1818302,-17.393494],[-66.1810597,-17.3935298],[-66.1801494,-17.3935677],[-66.1795661,-17.3935933],[-66.1776738,-17.3936785],[-66.1772788,-17.3936967],[-66.1766698,-17.3937248],[-66.176607,-17.3937277],[-66.1764849,-17.393733],[-66.1763233,-17.3937399],[-66.1746071,-17.3938138],[-66.1740147,-17.3938393],[-66.1739096,-17.3938439],[-66.1724045,-17.3939064],[-66.172135,-17.3939606],[-66.171351,-17.3939959],[-66.1711564,-17.3940107],[-66.1708685,-17.3940485],[-66.1708359,-17.3940528],[-66.1707777,-17.3940604],[-66.1707491,-17.3940782],[-66.1707177,-17.394089],[-66.1706843,-17.3940986],[-66.1706577,-17.3941006],[-66.1706312,-17.3940991],[-66.170605,-17.3940943],[-66.1705706,-17.3940823],[-66.1705409,-17.3940657],[-66.1705148,-17.3940446],[-66.1704928,-17.3940194],[-66.1704757,-17.393991],[-66.170464,-17.3939602],[-66.1704581,-17.3939279],[-66.1704581,-17.3938952],[-66.170464,-17.3938629],[-66.1704756,-17.3938321],[-66.1704926,-17.3938036],[-66.1705146,-17.3937784],[-66.1705407,-17.3937572],[-66.1705703,-17.3937406],[-66.1706025,-17.3937291],[-66.1706024,-17.3936422],[-66.1705811,-17.3928583],[-66.1705672,-17.3921191],[-66.1705632,-17.3913993],[-66.1705588,-17.391238],[-66.1705447,-17.3906677],[-66.1705431,-17.3906076],[-66.1705323,-17.3901988],[-66.1705302,-17.3901167],[-66.1705286,-17.3900595],[-66.170527,-17.3900087],[-66.1705159,-17.3895788],[-66.1705146,-17.3895295],[-66.1705019,-17.3889821],[-66.1704984,-17.3888292],[-66.1704876,-17.3884025],[-66.170478,-17.388173],[-66.1704645,-17.3881095],[-66.1704535,-17.3880794],[-66.1704424,-17.3880493],[-66.1704133,-17.3879732],[-66.1703896,-17.3879546],[-66.1702572,-17.3878912],[-66.1701723,-17.3878584],[-66.1700943,-17.3878452],[-66.1693487,-17.3878048],[-66.1692772,-17.3877966],[-66.1691883,-17.3877821],[-66.1682071,-17.3876164],[-66.1680823,-17.3875713],[-66.1679525,-17.3875489],[-66.1674394,-17.3874603],[-66.167219,-17.3874223],[-66.1671308,-17.3874596],[-66.1670715,-17.3874493],[-66.1662595,-17.3873117],[-66.1661757,-17.3873006],[-66.1660497,-17.3872816],[-66.1660321,-17.387274],[-66.1659989,-17.3872553],[-66.1659927,-17.3872611],[-66.1659763,-17.3872748],[-66.1659506,-17.3872897],[-66.1659298,-17.3872977],[-66.1658642,-17.3873219],[-66.1657758,-17.3873527],[-66.1656491,-17.3873993],[-66.165632,-17.387406],[-66.1650761,-17.3876194],[-66.1649552,-17.3876187],[-66.1648866,-17.3876464],[-66.1645448,-17.3877859],[-66.164473,-17.3878152],[-66.1644142,-17.3878387],[-66.1643482,-17.3878702],[-66.1641805,-17.3879418],[-66.1641189,-17.3879706],[-66.1640618,-17.3880069],[-66.1640104,-17.3880503],[-66.1639593,-17.3881107],[-66.163939,-17.3881386],[-66.1639192,-17.3881775],[-66.1638986,-17.3882307],[-66.1638597,-17.3887036],[-66.1638402,-17.3888937],[-66.1638333,-17.3889613],[-66.1636526,-17.3891089],[-66.1627273,-17.3898647],[-66.162657,-17.3899221],[-66.1625217,-17.3898975],[-66.1624575,-17.3898862],[-66.1616765,-17.3897448],[-66.1616253,-17.3897356],[-66.1615783,-17.389727],[-66.1605624,-17.3895422],[-66.1604941,-17.3895298],[-66.1595645,-17.3893548],[-66.1595142,-17.3893446],[-66.1594248,-17.3893303],[-66.1593693,-17.3893219],[-66.1588287,-17.3892458],[-66.158371,-17.3891813],[-66.1576159,-17.3890606],[-66.1572782,-17.3890113],[-66.1562149,-17.3888373],[-66.1561573,-17.388816],[-66.1560704,-17.3887901],[-66.1554886,-17.3886972],[-66.1552071,-17.3886532],[-66.1551357,-17.3886467],[-66.1550609,-17.3886428],[-66.1540332,-17.3884258],[-66.1529838,-17.388202],[-66.1518364,-17.3879394],[-66.1517708,-17.3879252],[-66.1517243,-17.3879156],[-66.1508882,-17.3877441],[-66.1507655,-17.3877189],[-66.1507357,-17.3877142],[-66.1506511,-17.3876967],[-66.1506843,-17.3875092],[-66.1506035,-17.3874176],[-66.1504093,-17.387206],[-66.1500101,-17.3867708],[-66.1499139,-17.386666],[-66.1496418,-17.3863689],[-66.1495816,-17.3863014],[-66.1494067,-17.3861021],[-66.1493394,-17.3860288],[-66.1492455,-17.3859266],[-66.1489769,-17.3856343],[-66.1489251,-17.385578],[-66.1487971,-17.3854386],[-66.148747,-17.3853841],[-66.1483448,-17.3849464],[-66.1483056,-17.3849038],[-66.1477627,-17.3857801],[-66.1475769,-17.3858929],[-66.1475139,-17.3859308],[-66.1475669,-17.3860074],[-66.147678,-17.3861681],[-66.1477159,-17.3862228],[-66.148064,-17.3867233],[-66.1483646,-17.3871554],[-66.1484094,-17.3872198],[-66.1485012,-17.3873491],[-66.1485192,-17.3873745],[-66.1486427,-17.3875508],[-66.1488419,-17.3878325],[-66.14901,-17.38807],[-66.1491698,-17.3882995],[-66.1493366,-17.3885389],[-66.1493179,-17.3886449],[-66.149276,-17.3888535],[-66.1491994,-17.3892544],[-66.1491441,-17.3895439],[-66.1490107,-17.3902306],[-66.148919,-17.390703],[-66.1489091,-17.3907458],[-66.1488943,-17.3908244],[-66.1488864,-17.3908667],[-66.1487038,-17.3917663],[-66.1486906,-17.3918339],[-66.148651,-17.3919282],[-66.1486418,-17.3919718],[-66.1485877,-17.3922279],[-66.1485432,-17.392443],[-66.1485231,-17.3925402],[-66.1484738,-17.3927788],[-66.1484626,-17.3928329],[-66.147939,-17.3927435],[-66.1474334,-17.3926589],[-66.1473167,-17.3926404],[-66.1468937,-17.3925734],[-66.1468343,-17.3925626],[-66.146649,-17.3925276],[-66.1458099,-17.3923619],[-66.1453273,-17.392282],[-66.1451071,-17.3922456],[-66.1448295,-17.3921996],[-66.1445767,-17.3921581],[-66.1444097,-17.3921307],[-66.1443707,-17.3921243],[-66.1442415,-17.392103],[-66.1441346,-17.3920855],[-66.143713,-17.3920162],[-66.1436259,-17.3920019],[-66.1430857,-17.3919132],[-66.142807,-17.3918675],[-66.1427452,-17.3918573],[-66.1427214,-17.3919144],[-66.1423464,-17.3927549],[-66.1423273,-17.3927935],[-66.1419298,-17.3936747],[-66.1418779,-17.3937896],[-66.141893,-17.3937988],[-66.1419055,-17.393811],[-66.141917,-17.3938301],[-66.1419226,-17.3938534],[-66.1419205,-17.3938773],[-66.1419148,-17.3938924],[-66.141906,-17.3939061],[-66.141894,-17.3939181],[-66.1418729,-17.3939304],[-66.1418541,-17.3939354],[-66.1418341,-17.393936],[-66.1418082,-17.3939294],[-66.1417752,-17.3940245],[-66.1415059,-17.3945896],[-66.141484,-17.3946387],[-66.1414542,-17.3947032],[-66.1407681,-17.3962043],[-66.1407354,-17.3962758],[-66.1407077,-17.3963364],[-66.1399786,-17.3979321],[-66.1398933,-17.3981152],[-66.1396562,-17.3986281],[-66.1396259,-17.3986937],[-66.1405517,-17.3988298],[-66.1406343,-17.3988414],[-66.1407435,-17.3988568],[-66.1410698,-17.3989026],[-66.1411635,-17.3989158],[-66.1412178,-17.3989232],[-66.1419213,-17.3990187],[-66.1417116,-17.3999523]],"nodes":[2354386800,9786116631,8627399435,794074995,9008269168,794075099,794075049,794074991,794074975,4340534094,4478225459,794075151,3255507834,4158051956,4158051955,794075132,794075196,794075208,794074982,794075086,794074944,794075201,794075101,6845758237,8235936965,9374958479,2417368094,794081382,8235936959,8235936931,2417368107,2417368139,2417368154,6846214132,2417368183,1807038058,12650627925,2429829239,12650627934,1807038060,1807038065,8235455990,497195296,2339557956,2339557957,2160491572,6282770217,2160491570,2292218255,2635402936,6272592192,4398318268,6326490903,698597067,13438104010,560522669,689437127,800044225,800044066,9081523770,13438065392,2527263187,800044095,13438103967,9017927915,800044053,800043986,12300469255,315919272,13416534064,13416534065,13417065133,13436362625,13416534061,13416534042,13303075825,13416534071,13303071588,13416534056,13416534072,13303071581,13416534060,13303071568,13416534059,13416534037,13303071569,13303071570,13416534038,13303071571,13303071572,13303071573,13416534041,13303071574,13416534039,13416534069,2527263171,1724886100,1724886195,1724886197,3250373526,6175794743,9873615235,2160380412,9222357025,1724956661,6175794739,9873615237,8319877518,2161414362,7943494884,3295185745,1806931208,9873615129,9894977667,1718722308,3250373519,3250373514,5213287364,9873615123,5213287367,5213287382,9686979827,5213287369,9686979833,563279693,9892649520,2410715884,1637648616,5213287383,1637648615,1637648612,1637648610,9170720421,9170720373,5298532380,11079283499,12295702646,11079283501,2410715869,2410715875,9170720366,1636978100,12956643112,1636978109,851595003,11079349296,9163629265,9163629264,851594930,598178970,1636978125,1636978136,11079349295,2312521530,8143793593,2312521543,8143793612,1636978158,1636978181,851595264,310502291,2196986715,8143609292,310502258,310501179,10792253192,10792253167,310501181,10792253165,10792253169,310501182,2295541496,648546073,310263604,2295541492,10817208055,310501183,9339528752,310501184,2294524813,310501185,2294519106,8365550218,2294519093,308300562,2294524810,310501186,310501187,4341946253,310501188,4341946256,10949153965,9027225259,6199916317,7517222306,310501189,2470422175,9591533139,9028237630,5353106762,9028209381,9028209408,2590640153,9035366558,9028209409,9031318896,9031318885,9031318858,9035366541,10607422886,9031318898,312425830,6179473103,312425828,6179473096,11310743156,9031318855,9028209372,6179473247,9031318856,2141431944,6179473241,6179473238,9034180378,5353339454,11310645817,312425956,315096054,3201986227,11827172367,308306729,11827181890,2524491857,303214819,698492415,2524491860,2524491871,310256064,2892642950,11909190787,8686638951,8686638950,9852140997,3924761818,303215163,2296580941,3201986249,12153256567,8674788834,2089612819,360129540,3232582109,8978596850,3740735352,8978596851,8623738790,5096122271,303215031,2702743907,8661106030,303221553,3578038899,8620183423,8620183345,303221552,8620183347,8584400934,315134805,9886485075,2033335103,11072493727,2033335200,2033335257,11072493723,2033335311,11072493724,2033335400,2033335463,11072493713,11072493719,10597422696,9886485061,9886485059,8253508693,598787365,8253508695,8619110576,598789213,8619110577,8090197938,598788350,8250700095,391725774,702512056,9886703804,9886703801,9886703805,702512055,9886703803,702512054,8090151671]},"gtfs":{"agency_id":1,"route_id":6,"services":[{"service_id":"Mo-Su","startTime":"06:00","endTime":"22:00","trip_id":10407407}],"filteredStops":{"nodes":[2354386800,9786116631,8627399435,794074995,9008269168,794075099,794075049,794074991,794074975,4340534094,4478225459,794075151,3255507834,4158051956,4158051955,794075132,794075196,794075208,794074982,794075086,794074944,794075201,794075101,6845758237,8235936965,9374958479,2417368094,794081382,8235936959,8235936931,2417368107,2417368139,2417368154,6846214132,2417368183,1807038058,12650627925,2429829239,12650627934,1807038060,1807038065,8235455990,497195296,2339557956,2339557957,2160491572,6282770217,2160491570,2292218255,2635402936,6272592192,4398318268,6326490903,698597067,13438104010,560522669,689437127,800044225,800044066,9081523770,13438065392,2527263187,800044095,13438103967,9017927915,800044053,800043986,12300469255,315919272,13416534064,13416534065,13417065133,13436362625,13416534061,13416534042,13303075825,13416534071,13303071588,13416534056,13416534072,13303071581,13416534060,13303071568,13416534059,13416534037,13303071569,13303071570,13416534038,13303071571,13303071572,13303071573,13416534041,13303071574,13416534039,13416534069,2527263171,1724886100,1724886195,1724886197,3250373526,6175794743,9873615235,2160380412,9222357025,1724956661,6175794739,9873615237,8319877518,2161414362,7943494884,3295185745,1806931208,9873615129,9894977667,1718722308,3250373519,3250373514,5213287364,9873615123,5213287367,5213287382,9686979827,5213287369,9686979833,563279693,9892649520,2410715884,1637648616,5213287383,1637648615,1637648612,1637648610,9170720421,9170720373,5298532380,11079283499,12295702646,11079283501,2410715869,2410715875,9170720366,1636978100,12956643112,1636978109,851595003,11079349296,9163629265,9163629264,851594930,598178970,1636978125,1636978136,11079349295,2312521530,8143793593,2312521543,8143793612,1636978158,1636978181,851595264,310502291,2196986715,8143609292,310502258,310501179,10792253192,10792253167,310501181,10792253165,10792253169,310501182,2295541496,648546073,310263604,2295541492,10817208055,310501183,9339528752,310501184,2294524813,310501185,2294519106,8365550218,2294519093,308300562,2294524810,310501186,310501187,4341946253,310501188,4341946256,10949153965,9027225259,6199916317,7517222306,310501189,2470422175,9591533139,9028237630,5353106762,9028209381,9028209408,2590640153,9035366558,9028209409,9031318896,9031318885,9031318858,9035366541,10607422886,9031318898,312425830,6179473103,312425828,6179473096,11310743156,9031318855,9028209372,6179473247,9031318856,2141431944,6179473241,6179473238,9034180378,5353339454,11310645817,312425956,315096054,3201986227,11827172367,308306729,11827181890,2524491857,303214819,698492415,2524491860,2524491871,310256064,2892642950,11909190787,8686638951,8686638950,9852140997,3924761818,303215163,2296580941,3201986249,12153256567,8674788834,2089612819,360129540,3232582109,8978596850,3740735352,8978596851,8623738790,5096122271,303215031,2702743907,8661106030,303221553,3578038899,8620183423,8620183345,303221552,8620183347,8584400934,315134805,9886485075,2033335103,11072493727,2033335200,2033335257,11072493723,2033335311,11072493724,2033335400,2033335463,11072493713,11072493719,10597422696,9886485061,9886485059,8253508693,598787365,8253508695,8619110576,598789213,8619110577,8090197938,598788350,8250700095,391725774,702512056,9886703804,9886703801,9886703805,702512055,9886703803,702512054,8090151671],"coordinates":[[-66.2298855,-17.3914048],[-66.2297415,-17.3914102],[-66.2291665,-17.3914316],[-66.228361,-17.3914642],[-66.2274295,-17.3915073],[-66.2266236,-17.3915445],[-66.226496,-17.3915467],[-66.2249193,-17.3916169],[-66.22209,-17.39174],[-66.2218668,-17.3917507],[-66.2215956,-17.3917638],[-66.2213351,-17.3917763],[-66.2194094,-17.3918519],[-66.2193472,-17.3918506],[-66.218927,-17.3918711],[-66.2182553,-17.3918972],[-66.2154179,-17.392026],[-66.2135165,-17.3921133],[-66.2125924,-17.3921466],[-66.2125225,-17.3921489],[-66.2113164,-17.3922033],[-66.2103878,-17.3922456],[-66.2103017,-17.3922496],[-66.208973,-17.3923041],[-66.2082952,-17.3923381],[-66.2082831,-17.3923387],[-66.2081903,-17.3923434],[-66.2080961,-17.3923466],[-66.2080101,-17.3923501],[-66.2077704,-17.3923599],[-66.2056284,-17.3924477],[-66.2047083,-17.3924891],[-66.2043092,-17.3925078],[-66.2036195,-17.3925345],[-66.2031084,-17.3925542],[-66.2004314,-17.3926766],[-66.2002307,-17.3926858],[-66.1998222,-17.3927046],[-66.1997525,-17.3927076],[-66.1996829,-17.3927105],[-66.1996077,-17.3927141],[-66.1994816,-17.3927193],[-66.1989358,-17.392742],[-66.1970994,-17.3928205],[-66.1969609,-17.3928267],[-66.1941713,-17.3929516],[-66.1939032,-17.3929632],[-66.1918596,-17.3930496],[-66.1892684,-17.3931683],[-66.1875821,-17.3932431],[-66.1864162,-17.3932944],[-66.1844616,-17.3933742],[-66.1841034,-17.3933915],[-66.1825146,-17.3934622],[-66.1818302,-17.393494],[-66.1810597,-17.3935298],[-66.1801494,-17.3935677],[-66.1795661,-17.3935933],[-66.1776738,-17.3936785],[-66.1772788,-17.3936967],[-66.1766698,-17.3937248],[-66.176607,-17.3937277],[-66.1764849,-17.393733],[-66.1763233,-17.3937399],[-66.1746071,-17.3938138],[-66.1740147,-17.3938393],[-66.1739096,-17.3938439],[-66.1724045,-17.3939064],[-66.172135,-17.3939606],[-66.171351,-17.3939959],[-66.1711564,-17.3940107],[-66.1708685,-17.3940485],[-66.1708359,-17.3940528],[-66.1707777,-17.3940604],[-66.1707491,-17.3940782],[-66.1707177,-17.394089],[-66.1706843,-17.3940986],[-66.1706577,-17.3941006],[-66.1706312,-17.3940991],[-66.170605,-17.3940943],[-66.1705706,-17.3940823],[-66.1705409,-17.3940657],[-66.1705148,-17.3940446],[-66.1704928,-17.3940194],[-66.1704757,-17.393991],[-66.170464,-17.3939602],[-66.1704581,-17.3939279],[-66.1704581,-17.3938952],[-66.170464,-17.3938629],[-66.1704756,-17.3938321],[-66.1704926,-17.3938036],[-66.1705146,-17.3937784],[-66.1705407,-17.3937572],[-66.1705703,-17.3937406],[-66.1706025,-17.3937291],[-66.1706024,-17.3936422],[-66.1705811,-17.3928583],[-66.1705672,-17.3921191],[-66.1705632,-17.3913993],[-66.1705588,-17.391238],[-66.1705447,-17.3906677],[-66.1705431,-17.3906076],[-66.1705323,-17.3901988],[-66.1705302,-17.3901167],[-66.1705286,-17.3900595],[-66.170527,-17.3900087],[-66.1705159,-17.3895788],[-66.1705146,-17.3895295],[-66.1705019,-17.3889821],[-66.1704984,-17.3888292],[-66.1704876,-17.3884025],[-66.170478,-17.388173],[-66.1704645,-17.3881095],[-66.1704535,-17.3880794],[-66.1704424,-17.3880493],[-66.1704133,-17.3879732],[-66.1703896,-17.3879546],[-66.1702572,-17.3878912],[-66.1701723,-17.3878584],[-66.1700943,-17.3878452],[-66.1693487,-17.3878048],[-66.1692772,-17.3877966],[-66.1691883,-17.3877821],[-66.1682071,-17.3876164],[-66.1680823,-17.3875713],[-66.1679525,-17.3875489],[-66.1674394,-17.3874603],[-66.167219,-17.3874223],[-66.1671308,-17.3874596],[-66.1670715,-17.3874493],[-66.1662595,-17.3873117],[-66.1661757,-17.3873006],[-66.1660497,-17.3872816],[-66.1660321,-17.387274],[-66.1659989,-17.3872553],[-66.1659927,-17.3872611],[-66.1659763,-17.3872748],[-66.1659506,-17.3872897],[-66.1659298,-17.3872977],[-66.1658642,-17.3873219],[-66.1657758,-17.3873527],[-66.1656491,-17.3873993],[-66.165632,-17.387406],[-66.1650761,-17.3876194],[-66.1649552,-17.3876187],[-66.1648866,-17.3876464],[-66.1645448,-17.3877859],[-66.164473,-17.3878152],[-66.1644142,-17.3878387],[-66.1643482,-17.3878702],[-66.1641805,-17.3879418],[-66.1641189,-17.3879706],[-66.1640618,-17.3880069],[-66.1640104,-17.3880503],[-66.1639593,-17.3881107],[-66.163939,-17.3881386],[-66.1639192,-17.3881775],[-66.1638986,-17.3882307],[-66.1638597,-17.3887036],[-66.1638402,-17.3888937],[-66.1638333,-17.3889613],[-66.1636526,-17.3891089],[-66.1627273,-17.3898647],[-66.162657,-17.3899221],[-66.1625217,-17.3898975],[-66.1624575,-17.3898862],[-66.1616765,-17.3897448],[-66.1616253,-17.3897356],[-66.1615783,-17.389727],[-66.1605624,-17.3895422],[-66.1604941,-17.3895298],[-66.1595645,-17.3893548],[-66.1595142,-17.3893446],[-66.1594248,-17.3893303],[-66.1593693,-17.3893219],[-66.1588287,-17.3892458],[-66.158371,-17.3891813],[-66.1576159,-17.3890606],[-66.1572782,-17.3890113],[-66.1562149,-17.3888373],[-66.1561573,-17.388816],[-66.1560704,-17.3887901],[-66.1554886,-17.3886972],[-66.1552071,-17.3886532],[-66.1551357,-17.3886467],[-66.1550609,-17.3886428],[-66.1540332,-17.3884258],[-66.1529838,-17.388202],[-66.1518364,-17.3879394],[-66.1517708,-17.3879252],[-66.1517243,-17.3879156],[-66.1508882,-17.3877441],[-66.1507655,-17.3877189],[-66.1507357,-17.3877142],[-66.1506511,-17.3876967],[-66.1506843,-17.3875092],[-66.1506035,-17.3874176],[-66.1504093,-17.387206],[-66.1500101,-17.3867708],[-66.1499139,-17.386666],[-66.1496418,-17.3863689],[-66.1495816,-17.3863014],[-66.1494067,-17.3861021],[-66.1493394,-17.3860288],[-66.1492455,-17.3859266],[-66.1489769,-17.3856343],[-66.1489251,-17.385578],[-66.1487971,-17.3854386],[-66.148747,-17.3853841],[-66.1483448,-17.3849464],[-66.1483056,-17.3849038],[-66.1477627,-17.3857801],[-66.1475769,-17.3858929],[-66.1475139,-17.3859308],[-66.1475669,-17.3860074],[-66.147678,-17.3861681],[-66.1477159,-17.3862228],[-66.148064,-17.3867233],[-66.1483646,-17.3871554],[-66.1484094,-17.3872198],[-66.1485012,-17.3873491],[-66.1485192,-17.3873745],[-66.1486427,-17.3875508],[-66.1488419,-17.3878325],[-66.14901,-17.38807],[-66.1491698,-17.3882995],[-66.1493366,-17.3885389],[-66.1493179,-17.3886449],[-66.149276,-17.3888535],[-66.1491994,-17.3892544],[-66.1491441,-17.3895439],[-66.1490107,-17.3902306],[-66.148919,-17.390703],[-66.1489091,-17.3907458],[-66.1488943,-17.3908244],[-66.1488864,-17.3908667],[-66.1487038,-17.3917663],[-66.1486906,-17.3918339],[-66.148651,-17.3919282],[-66.1486418,-17.3919718],[-66.1485877,-17.3922279],[-66.1485432,-17.392443],[-66.1485231,-17.3925402],[-66.1484738,-17.3927788],[-66.1484626,-17.3928329],[-66.147939,-17.3927435],[-66.1474334,-17.3926589],[-66.1473167,-17.3926404],[-66.1468937,-17.3925734],[-66.1468343,-17.3925626],[-66.146649,-17.3925276],[-66.1458099,-17.3923619],[-66.1453273,-17.392282],[-66.1451071,-17.3922456],[-66.1448295,-17.3921996],[-66.1445767,-17.3921581],[-66.1444097,-17.3921307],[-66.1443707,-17.3921243],[-66.1442415,-17.392103],[-66.1441346,-17.3920855],[-66.143713,-17.3920162],[-66.1436259,-17.3920019],[-66.1430857,-17.3919132],[-66.142807,-17.3918675],[-66.1427452,-17.3918573],[-66.1427214,-17.3919144],[-66.1423464,-17.3927549],[-66.1423273,-17.3927935],[-66.1419298,-17.3936747],[-66.1418779,-17.3937896],[-66.141893,-17.3937988],[-66.1419055,-17.393811],[-66.141917,-17.3938301],[-66.1419226,-17.3938534],[-66.1419205,-17.3938773],[-66.1419148,-17.3938924],[-66.141906,-17.3939061],[-66.141894,-17.3939181],[-66.1418729,-17.3939304],[-66.1418541,-17.3939354],[-66.1418341,-17.393936],[-66.1418082,-17.3939294],[-66.1417752,-17.3940245],[-66.1415059,-17.3945896],[-66.141484,-17.3946387],[-66.1414542,-17.3947032],[-66.1407681,-17.3962043],[-66.1407354,-17.3962758],[-66.1407077,-17.3963364],[-66.1399786,-17.3979321],[-66.1398933,-17.3981152],[-66.1396562,-17.3986281],[-66.1396259,-17.3986937],[-66.1405517,-17.3988298],[-66.1406343,-17.3988414],[-66.1407435,-17.3988568],[-66.1410698,-17.3989026],[-66.1411635,-17.3989158],[-66.1412178,-17.3989232],[-66.1419213,-17.3990187],[-66.1417116,-17.3999523]]}}}]}