{"type":"FeatureCollection","features":[{"type":"Feature","properties":{"check_date":"46167","from":"Calle Achachairú","name":"MiniBus 211: Calle Achachairú → Avenida Blanco Galindo","network":"BO:CB:Cochabamba","on_demand":"yes","operator":"Sindicato mixto de trufibuses Vinto","public_transport:version":"2","ref":"211","route":"bus","to":"Avenida Blanco Galindo","type":"route","wheelchair":"no","id":10411266},"geometry":{"type":"LineString","coordinates":[[-66.1339901,-17.422280500000003],[-66.13399310000001,-17.422227200000002],[-66.1340121,-17.4221858],[-66.1340534,-17.4221329],[-66.1345948,-17.4215926],[-66.13527040000001,-17.4208877],[-66.1365076,-17.4196074],[-66.13721690000001,-17.4202653],[-66.1372329,-17.4202802],[-66.137522,-17.4205384],[-66.13876690000001,-17.4192672],[-66.1389721,-17.4190302],[-66.13903880000001,-17.418941],[-66.13909430000001,-17.418847200000002],[-66.1391292,-17.4187629],[-66.1394384,-17.4179123],[-66.1394985,-17.4176581],[-66.1394298,-17.4176164],[-66.13937290000001,-17.4175487],[-66.1391471,-17.416897300000002],[-66.14024210000001,-17.416488400000002],[-66.14026890000001,-17.4164798],[-66.1403221,-17.4164503],[-66.1403626,-17.416408800000003],[-66.14041900000001,-17.4163482],[-66.1404711,-17.4163031],[-66.14049080000001,-17.4162633],[-66.1404837,-17.4162235],[-66.14046040000001,-17.4161661],[-66.1406695,-17.416077400000002],[-66.14081900000001,-17.416004],[-66.14084770000001,-17.41599],[-66.1408926,-17.4159632],[-66.1409715,-17.4159384],[-66.1410963,-17.4158614],[-66.1411571,-17.4158204],[-66.14120940000001,-17.415777400000003],[-66.1413184,-17.415687600000002],[-66.1414637,-17.415557600000003],[-66.14162110000001,-17.415388],[-66.14181620000001,-17.415161],[-66.14196510000001,-17.4149342],[-66.14213240000001,-17.4146275],[-66.1422319,-17.4143516],[-66.14230110000001,-17.4141008],[-66.14235470000001,-17.413792800000003],[-66.1423669,-17.4136852],[-66.14238320000001,-17.4133356],[-66.142442,-17.4122956],[-66.1424875,-17.410792200000003],[-66.1425014,-17.4105589],[-66.1425131,-17.410420900000002],[-66.14252160000001,-17.4103269],[-66.14255560000001,-17.410092300000002],[-66.1426088,-17.409822000000002],[-66.1426969,-17.409533800000002],[-66.14280380000001,-17.4092482],[-66.14295340000001,-17.4089245],[-66.14313290000001,-17.408614800000002],[-66.14327440000001,-17.4084112],[-66.1436255,-17.407940800000002],[-66.1441016,-17.4073278],[-66.1446442,-17.4066392],[-66.1447121,-17.4065501],[-66.14485280000001,-17.4063549],[-66.14487150000001,-17.406329000000003],[-66.1449015,-17.4062875],[-66.14496310000001,-17.4061868],[-66.14501080000001,-17.406109],[-66.14529300000001,-17.4055715],[-66.14542180000001,-17.4053073],[-66.1454853,-17.405170000000002],[-66.14557470000001,-17.405032700000003],[-66.14565250000001,-17.4048461],[-66.1457908,-17.4045641],[-66.14591150000001,-17.404335800000002],[-66.1460246,-17.4041685],[-66.14625690000001,-17.403881300000002],[-66.14656020000001,-17.4035453],[-66.14673540000001,-17.4033443],[-66.1468116,-17.403175200000003],[-66.1468785,-17.403069700000003],[-66.14692380000001,-17.4029986],[-66.1469869,-17.4028497],[-66.14703700000001,-17.402718500000002],[-66.14706240000001,-17.402651900000002],[-66.1470936,-17.4025344],[-66.147125,-17.4023666],[-66.1471298,-17.4021304],[-66.147153,-17.4020486],[-66.14717180000001,-17.402008000000002],[-66.1471961,-17.401979100000002],[-66.1472339,-17.4019505],[-66.1472995,-17.401910700000002],[-66.1473653,-17.4018908],[-66.14741570000001,-17.4019018],[-66.14750570000001,-17.4018777],[-66.14756410000001,-17.401858],[-66.14763330000001,-17.4018178],[-66.1476868,-17.401763900000002],[-66.1477981,-17.401607100000003],[-66.1478917,-17.401321000000003],[-66.1479899,-17.400962500000002],[-66.14800340000001,-17.400894800000003],[-66.1480179,-17.4008307],[-66.1481961,-17.399952300000002],[-66.14821160000001,-17.399872900000002],[-66.14832290000001,-17.3993423],[-66.1483573,-17.399171600000003],[-66.14839450000001,-17.3989818],[-66.14849310000001,-17.398454700000002],[-66.148511,-17.398367800000003],[-66.14855800000001,-17.398372600000002],[-66.14994870000001,-17.3984764],[-66.15058850000001,-17.398518000000003],[-66.1510902,-17.398456600000003],[-66.1519487,-17.3984139],[-66.15201040000001,-17.3984159],[-66.1520931,-17.3984305],[-66.15221910000001,-17.398466000000003],[-66.15236440000001,-17.398521000000002],[-66.1526616,-17.3986303],[-66.1527528,-17.398660500000002],[-66.15277370000001,-17.3986674],[-66.15310670000001,-17.3987465],[-66.15319450000001,-17.3987646],[-66.15417000000001,-17.39898],[-66.1542283,-17.398992900000003],[-66.15429560000001,-17.3990088],[-66.1552473,-17.3992338],[-66.15530360000001,-17.3992471],[-66.15534770000001,-17.399256700000002],[-66.156378,-17.399481],[-66.1564374,-17.399488700000003],[-66.1564991,-17.3994953],[-66.15675590000001,-17.399494800000003],[-66.15696360000001,-17.399463],[-66.1571541,-17.399440100000003],[-66.1575712,-17.3993743],[-66.1576356,-17.399365500000002],[-66.1577347,-17.399351900000003],[-66.1578434,-17.3993362],[-66.15843930000001,-17.399245200000003],[-66.1584983,-17.3992362],[-66.15861500000001,-17.399227200000002],[-66.1587124,-17.399228800000003],[-66.158764,-17.399232100000003],[-66.1591739,-17.399257700000003],[-66.1592816,-17.3992705],[-66.1593653,-17.399274400000003],[-66.15999670000001,-17.399303200000002],[-66.16006630000001,-17.399313600000003],[-66.1601608,-17.399337300000003],[-66.1603302,-17.3993931],[-66.16043300000001,-17.399426700000003],[-66.16099530000001,-17.3995906],[-66.16109110000001,-17.399618500000003],[-66.1612278,-17.399656200000003],[-66.1615876,-17.3997555],[-66.1618371,-17.399843],[-66.1619824,-17.3999132],[-66.1621329,-17.4000056],[-66.1622471,-17.4000935],[-66.1623448,-17.4001555],[-66.16240540000001,-17.400183900000002],[-66.16247340000001,-17.4002151],[-66.1624927,-17.4002145],[-66.1625631,-17.400182500000003],[-66.16268050000001,-17.4001316],[-66.1627789,-17.4000729],[-66.16337340000001,-17.3996728],[-66.1639365,-17.399285900000002],[-66.16394740000001,-17.3992784],[-66.1640723,-17.399192600000003],[-66.1641639,-17.399127500000002],[-66.16422440000001,-17.3990848],[-66.1643956,-17.3989638],[-66.1644471,-17.3989273],[-66.1645215,-17.3988766],[-66.1652342,-17.3983884],[-66.166064,-17.397822700000003],[-66.1661993,-17.397730300000003],[-66.16636910000001,-17.3976131],[-66.16694620000001,-17.397214700000003],[-66.16705590000001,-17.397128600000002],[-66.16718750000001,-17.397026500000003],[-66.1671946,-17.3970056],[-66.1672161,-17.3969725],[-66.1672473,-17.396947200000003],[-66.1672851,-17.396932300000003],[-66.16732590000001,-17.396929200000002],[-66.1673657,-17.3969382],[-66.1673767,-17.3969431],[-66.16738720000001,-17.3969489],[-66.16744390000001,-17.396958700000003],[-66.1675081,-17.396966300000003],[-66.16754630000001,-17.396968700000002],[-66.16792430000001,-17.3969026],[-66.1680127,-17.3968744],[-66.16807030000001,-17.396830100000003],[-66.16829240000001,-17.396699100000003],[-66.1683421,-17.396679600000002],[-66.16875950000001,-17.3965664],[-66.1689623,-17.3965375],[-66.16914960000001,-17.3965204],[-66.1692283,-17.3965168],[-66.16928030000001,-17.3965144],[-66.16930690000001,-17.3965132],[-66.1694121,-17.396512100000002],[-66.17069810000001,-17.3964801],[-66.17071490000001,-17.3964797],[-66.1706929,-17.396024200000003],[-66.1706755,-17.395440200000003],[-66.1706741,-17.3953947],[-66.17067340000001,-17.3953531],[-66.17064830000001,-17.395228900000003],[-66.1706326,-17.3948074],[-66.1706309,-17.3947623],[-66.1706293,-17.3947195],[-66.1706106,-17.394227700000002],[-66.1706063,-17.3941133],[-66.17060500000001,-17.394094300000003],[-66.1705706,-17.3940823],[-66.1705409,-17.394065700000002],[-66.1705148,-17.3940446],[-66.1704928,-17.3940194],[-66.17047570000001,-17.393991],[-66.17046400000001,-17.393960200000002],[-66.1704581,-17.3939279],[-66.1704581,-17.393895200000003],[-66.17046400000001,-17.393862900000002],[-66.1704756,-17.3938321],[-66.1704926,-17.393803600000002],[-66.1705146,-17.393778400000002],[-66.1705407,-17.393757200000003],[-66.17057030000001,-17.3937406],[-66.1706025,-17.3937291],[-66.17062680000001,-17.3937242],[-66.1706515,-17.3937223],[-66.1706764,-17.3937233],[-66.1707008,-17.3937272],[-66.1707334,-17.393737400000003],[-66.170806,-17.393716700000002],[-66.170822,-17.3937126],[-66.17085700000001,-17.393704500000002],[-66.1709593,-17.393689400000003],[-66.1723743,-17.3936297],[-66.17240770000001,-17.3936281],[-66.173901,-17.3935555],[-66.17390370000001,-17.393598400000002],[-66.17391160000001,-17.393719800000003],[-66.17435850000001,-17.3937004],[-66.17445380000001,-17.3936962],[-66.17631180000001,-17.393615500000003],[-66.17640320000001,-17.393611500000002],[-66.17645250000001,-17.393609400000003],[-66.17657580000001,-17.393604],[-66.17680170000001,-17.3935944],[-66.1775114,-17.393564400000002],[-66.17858620000001,-17.3935123],[-66.17997820000001,-17.3934515],[-66.18095240000001,-17.3934044],[-66.18222940000001,-17.393354000000002],[-66.18279650000001,-17.3933316],[-66.18309880000001,-17.393242100000002],[-66.1837505,-17.393215400000003],[-66.1839858,-17.393205400000003],[-66.1840473,-17.3932027],[-66.18407520000001,-17.393162800000002],[-66.1840992,-17.3931383],[-66.18412640000001,-17.3931171],[-66.1841583,-17.393098600000002],[-66.18418340000001,-17.3930878],[-66.18420950000001,-17.3930796],[-66.1842364,-17.3930741],[-66.1842637,-17.393071300000003],[-66.18431530000001,-17.3930735],[-66.18436530000001,-17.393085300000003],[-66.18441200000001,-17.393106200000002],[-66.1844416,-17.3931258],[-66.18446820000001,-17.393149100000002],[-66.1844911,-17.393175600000003],[-66.1847563,-17.3931666],[-66.185423,-17.393142700000002],[-66.18576420000001,-17.3931305],[-66.1864116,-17.3931714],[-66.18663930000001,-17.3931593],[-66.1874124,-17.3931268],[-66.1888567,-17.393062800000003],[-66.18927430000001,-17.3930444],[-66.1911252,-17.3929577],[-66.1921353,-17.3929072],[-66.19389860000001,-17.392841200000003],[-66.19472350000001,-17.3928088],[-66.1969299,-17.392707700000003],[-66.19707530000001,-17.3927008],[-66.1987218,-17.392627],[-66.1989338,-17.392616500000003],[-66.19947400000001,-17.3925896],[-66.19953740000001,-17.392586400000003],[-66.1996008,-17.392583300000002],[-66.1996781,-17.392580000000002],[-66.19981580000001,-17.3925734],[-66.20019090000001,-17.3925553],[-66.2025337,-17.3924534],[-66.2032418,-17.3924227],[-66.203618,-17.3924063],[-66.2050914,-17.3923528],[-66.20721280000001,-17.392253800000002],[-66.2074111,-17.3922446],[-66.20800460000001,-17.3922214],[-66.2080481,-17.392219500000003],[-66.2080916,-17.3922175],[-66.20818460000001,-17.392214300000003],[-66.20828870000001,-17.392210400000003],[-66.2085114,-17.392202100000002],[-66.20897260000001,-17.3921819],[-66.20910780000001,-17.392176000000003],[-66.21032100000001,-17.392123],[-66.2103967,-17.392118],[-66.2111208,-17.3920862],[-66.21296430000001,-17.3920053],[-66.2135903,-17.3919779],[-66.2143132,-17.391946100000002],[-66.21541470000001,-17.391897800000002],[-66.2157354,-17.3918837],[-66.2158613,-17.3918782],[-66.21687560000001,-17.391833700000003],[-66.2182449,-17.3917806],[-66.218646,-17.391763],[-66.2193292,-17.391737000000003],[-66.2193982,-17.391733300000002],[-66.21979680000001,-17.3917176],[-66.2213267,-17.3916517],[-66.2215894,-17.3916389],[-66.2220752,-17.391613600000003],[-66.2233037,-17.3915541],[-66.2242367,-17.3915189],[-66.22459930000001,-17.3915051],[-66.2249474,-17.3914893],[-66.22586360000001,-17.3914462],[-66.2264962,-17.391416500000002],[-66.226663,-17.391409000000003],[-66.22742140000001,-17.391380400000003],[-66.22845140000001,-17.391331500000003],[-66.2287988,-17.3913116],[-66.22916620000001,-17.3912966],[-66.2297343,-17.391273100000003],[-66.2297673,-17.3912717],[-66.2298409,-17.3912687],[-66.23001210000001,-17.3912616],[-66.2305661,-17.3912386],[-66.23202520000001,-17.3911775],[-66.23242710000001,-17.3911635],[-66.23362490000001,-17.3911146],[-66.23459740000001,-17.391074900000003],[-66.2363591,-17.3910045],[-66.2365822,-17.390991800000002],[-66.237921,-17.3909427],[-66.2382125,-17.390907100000003],[-66.23832990000001,-17.390888],[-66.23850750000001,-17.390849900000003],[-66.238539,-17.390845000000002],[-66.23865520000001,-17.3908233],[-66.2386762,-17.390812800000003],[-66.2386987,-17.390805500000003],[-66.2387279,-17.3908011],[-66.23875740000001,-17.390801900000003],[-66.2387863,-17.390808],[-66.2389553,-17.3908324],[-66.2390359,-17.390851700000002],[-66.23918880000001,-17.3908644],[-66.2398993,-17.390842600000003],[-66.24091200000001,-17.3908188],[-66.2411366,-17.390814000000002],[-66.24209880000001,-17.390802200000003],[-66.2427852,-17.3907986],[-66.2435679,-17.390794900000003],[-66.24365250000001,-17.390786000000002],[-66.24371930000001,-17.3907743],[-66.2437568,-17.3907665],[-66.2439573,-17.3907244],[-66.2444481,-17.3907345],[-66.2444669,-17.3907364],[-66.2446218,-17.390762300000002],[-66.2447073,-17.3907855],[-66.2447511,-17.3907996],[-66.2448526,-17.390817600000002],[-66.244949,-17.390826],[-66.24615270000001,-17.390867200000002],[-66.24629010000001,-17.390875700000002],[-66.24800660000001,-17.3909571],[-66.24846360000001,-17.390979700000003],[-66.2490276,-17.391015600000003],[-66.24945770000001,-17.3910255],[-66.24961640000001,-17.391035600000002],[-66.24996320000001,-17.3910579],[-66.25024350000001,-17.391075500000003],[-66.25044340000001,-17.391088],[-66.25069140000001,-17.3910616],[-66.25080080000001,-17.3910637],[-66.25089670000001,-17.3910763],[-66.2509344,-17.391085500000003],[-66.2509776,-17.391096100000002],[-66.25121610000001,-17.3911541],[-66.2513818,-17.3911859],[-66.2514689,-17.3911951],[-66.2526672,-17.391312300000003],[-66.25279280000001,-17.3913246],[-66.2542188,-17.391462200000003],[-66.2567501,-17.391716000000002],[-66.2573333,-17.3917803],[-66.2577457,-17.391825700000002],[-66.2579393,-17.391844000000003],[-66.2582763,-17.391875900000002],[-66.25901440000001,-17.391939500000003],[-66.2594909,-17.3919806],[-66.25952000000001,-17.3919831],[-66.2595584,-17.3919864],[-66.25964280000001,-17.391990900000003],[-66.26010000000001,-17.3920415],[-66.2603304,-17.3920654],[-66.26080250000001,-17.392114300000003],[-66.26200770000001,-17.392239],[-66.2643025,-17.3924716],[-66.2649633,-17.392536800000002],[-66.2662909,-17.392664200000002],[-66.2675492,-17.3927929],[-66.2678247,-17.392819900000003],[-66.26809610000001,-17.392851800000003],[-66.2681726,-17.392859100000003],[-66.2682498,-17.3928669],[-66.2684282,-17.392885000000003],[-66.26878230000001,-17.392921],[-66.26926060000001,-17.392969500000003],[-66.2699511,-17.3930396],[-66.2701093,-17.3930492],[-66.2712023,-17.393158000000003],[-66.2722402,-17.3932523],[-66.2723895,-17.3932515],[-66.2725216,-17.393241500000002],[-66.2726698,-17.393238800000002],[-66.272689,-17.393225800000003],[-66.27271540000001,-17.393213000000003],[-66.27273810000001,-17.3932058],[-66.27276160000001,-17.3932016],[-66.2727854,-17.3932003],[-66.27280920000001,-17.393202000000002],[-66.2728326,-17.3932068],[-66.2728551,-17.3932144],[-66.27287630000001,-17.393224800000002],[-66.27289160000001,-17.393234500000002],[-66.27290570000001,-17.3932457],[-66.27315990000001,-17.3932739],[-66.273306,-17.3932901],[-66.27345840000001,-17.393307],[-66.2742772,-17.393387],[-66.2744122,-17.393401100000002],[-66.2749658,-17.393460700000002],[-66.27566250000001,-17.393531900000003],[-66.27617020000001,-17.3935795],[-66.276919,-17.3936497],[-66.27692900000001,-17.3936506],[-66.2770081,-17.393658300000002],[-66.27790560000001,-17.393745900000003],[-66.27801910000001,-17.393757700000002],[-66.2780498,-17.393761],[-66.27810050000001,-17.393757700000002],[-66.27814760000001,-17.393768100000003],[-66.2782028,-17.393773900000003],[-66.27831880000001,-17.3937856],[-66.2793687,-17.3938843],[-66.279509,-17.3938978],[-66.2805328,-17.393996],[-66.28064060000001,-17.394005500000002]],"nodes":[1610526993,10720369998,10720369999,10720369997,1610526995,2272229924,1610527062,13755642386,2272229882,2272229895,2272229835,8729961978,2674329261,2674329248,2674329210,2674329142,2674329093,2674329085,2674329073,2272229759,8729961929,2272229758,3337374146,8729961937,3337374142,11106108057,11106108058,560155904,8730157879,11106108059,11106108060,8730157880,11106108072,8729961891,8729961976,12777576106,12777576103,8741049845,653082758,11106108067,653082755,653082752,3328854766,653082749,653082747,3337266445,3328854762,9052272501,9052272502,9052272505,9052275602,9052272544,9052272475,9052275597,9052272471,9052272470,9052272469,9052272468,9052272467,9052272466,9052272465,9052272463,9052272462,2031079586,12777576110,12508280792,9052272487,12508280784,5434000150,12777576107,2031079518,2031079513,12777576108,2031079515,5227462564,3325466473,2674328752,843385352,324015376,8192377531,12777576115,8192368910,324015373,324015371,8192377560,324015370,598789673,324015368,5227527455,324015367,2031079468,8192368877,2031079460,2031079448,10830662561,8192368884,10677741931,2031079440,2031079436,2031079434,4941281629,8192368866,8542732655,308297682,8192368864,8542732656,308297683,598789383,2031313819,8089836066,648548704,315031543,8004756950,1727306399,598789381,1727306395,2765190357,2765190359,9121680511,1727306396,8241198663,8238783261,8238783233,2765190377,8238783242,3269819960,12081159183,1727306400,12081159182,3674274541,1727306404,3674274542,12081159193,1727306401,2398944652,2398944653,11679558744,7767900404,4929965568,1727306403,1865095006,2398944637,10921117778,2398944625,9566992862,315111204,9593572452,323969382,9593572449,10921117799,676069596,8099810036,9593560545,323969927,2266470191,9598863723,315111364,9598863715,2266470205,315111363,315111362,702511945,702511949,2280518053,9944343024,7899367256,2280518105,7899367255,2280518027,315111387,2483518901,9944330583,9025561515,2483518845,315112515,8015423524,8015423526,315112528,8015423527,2713599541,8667184644,323961416,8667184645,8015423583,315111481,2330755958,11070112181,2330755948,2330755943,2330755941,2330755942,11070112180,11069773600,2330755944,653091979,2330755946,2330755947,2330755940,653091989,2477244412,653093656,8272264729,653093658,12405192950,5156142116,8907982977,12405192960,653093660,8907982976,12405014008,2477244312,800043944,13432830728,800044124,12300469224,12300469223,13431520299,800044331,13431520298,660004649,13436362623,13416534072,13303071581,13416534060,13303071568,13416534059,13416534037,13303071569,13303071570,13416534038,13303071571,13303071572,13303071573,13416534041,13303071574,13416534039,13416534069,13416534040,13416534057,13416534034,13416534070,13303071587,13416534075,13416534076,13436362650,11081593218,563279519,13879263584,563279515,2527263173,2527263184,2527263182,9081435138,13438103968,13438065396,563279499,2339557951,9081523771,2354386743,560522668,563279456,689437115,13847108974,4398499281,6326480493,5868941113,13847108970,4398318253,13847108948,13847108950,4398318322,4398318252,13847108951,4398318251,13847108952,4398318325,4398318265,13847108953,5869420118,13847108954,13847108955,4398318263,5868941098,4398499270,6326495610,4398499272,2635402927,2354386761,560522361,2292218251,2292218247,2418530992,5581228588,2418530981,2137733242,2137733243,1807038051,12650627924,8235455989,12650627935,1807038048,2354386770,2429829237,6846214146,11084175485,11084175483,6846214133,2417368043,11084175482,8200481419,8235936958,13685730898,5579061862,3641784408,8235936964,8235936932,2418530966,6845809618,3255507856,2417367882,11084175478,3255507852,11084175476,3255507849,560084503,13760971210,560084507,3255507830,3255507821,13760954836,4158028115,13760954847,13760954837,794269983,4478225458,792630474,5605204668,2354386778,2354386781,794269932,11084175474,794269972,794269961,9008269167,5605232829,5605232823,8627399437,9786116630,9786116627,560084489,9786116634,8627399436,6282778240,794303535,10837430538,794303398,4586486623,794303570,4586487874,4586487873,8317038876,9008269189,8317038875,698491918,9355127775,7150288216,9355127774,792630390,698491877,9008269182,7933924058,698491863,792630233,785868153,6918618956,792630380,792630483,319773758,8630411872,10837513369,792630507,319773759,10837513367,319773760,8630411868,4586488214,8630411830,9008315709,319773761,4586488419,8316478466,7933924071,4317735512,3880715143,319773764,9008315784,9008315770,3880715144,7933924066,319773765,319773766,8310400080,8316478456,319773767,319773768,8310400066,319773138,10012571188,5870202500,3881280412,785868004,11084165269,4571961269,11031871495,5236806812,8316478290,12091174510,9262757165,8316478299,319772622,8316478289,8316478287,11084165260,785868517,4382907901,785868508,7931999285,11084165256,2138416891,5870202368,5870202367,3195120410,785869180,2360589703,13744093449,617337196,617337194,783869371,783870663,6179669345,3192787627,8048387329,8048387338,8048387339,2140912533,2140912536,9354911916,8048387327,9354911915,617337182,6917120250,8048387326,319771811,12706842541,12487415611,6917120244,783870340,8221419797,7527585416,783869019,8221419828,8221419837,783870788,8221419835,7527591099,7527591095,7527591091,783871023,7527591076,7527591094,7527591103,783871207,8221419844,6852610654,319771168]},"gtfs":{"agency_id":4,"route_id":8,"services":[{"service_id":"Mo-Su","startTime":"06:00","endTime":"22:00","trip_id":10411266}],"filteredStops":{"nodes":[1610526993,10720369998,10720369997,2272229924,1610527062,13755642386,2272229895,2272229835,2674329210,2674329073,2272229758,11106108057,11106108059,8729961891,8741049845,653082755,653082747,9052272502,9052272475,9052272469,9052272465,2031079586,12508280784,2031079513,3325466473,8192377531,324015373,598789673,2031079468,10830662561,2031079436,8192368866,8542732656,648548704,315031543,598789381,2765190357,1727306396,8238783233,3269819960,1727306400,1727306404,1727306401,2398944653,1727306403,1865095006,2398944625,315111204,9593572449,676069596,323969927,9598863723,2266470205,315111362,2280518053,7899367256,2280518027,9944330583,2483518845,8015423526,8015423527,323961416,8015423583,11070112181,2330755943,11070112180,2330755944,2330755947,653091989,8272264729,5156142116,12405192960,12405014008,800043944,12300469224,13431520299,660004649,13416534072,13303071568,13416534037,13416534038,13303071573,13303071574,13416534040,13416534034,13416534075,13436362650,13879263584,2527263173,9081435138,13438065396,9081523771,560522668,13847108974,5868941113,4398318253,4398318322,13847108951,4398318325,13847108953,13847108955,5868941098,4398499272,2354386761,2292218247,2418530981,2137733243,8235455989,1807038048,6846214146,11084175483,11084175482,8235936958,3641784408,8235936932,3255507856,11084175478,3255507849,560084507,3255507821,13760954847,794269983,5605204668,2354386781,794269972,9008269167,8627399437,9786116627,8627399436,10837430538,4586486623,4586487873,9008269189,9355127775,9355127774,9008269182,698491863,6918618956,792630483,10837513369,319773759,8630411868,9008315709,4586488419,4317735512,319773764,3880715144,319773765,8316478456,319773768,10012571188,3881280412,4571961269,8316478290,9262757165,8316478289,11084165260,785868508,11084165256,5870202367,785869180,617337196,783869371,3192787627,8048387338,2140912536,9354911915,6917120250,12706842541,6917120244,7527585416,8221419828,8221419835,7527591095,7527591076,7527591103,319771168],"coordinates":[[-66.1339901,-17.422280500000003],[-66.13399310000001,-17.422227200000002],[-66.1340534,-17.4221329],[-66.13527040000001,-17.4208877],[-66.1365076,-17.4196074],[-66.13721690000001,-17.4202653],[-66.137522,-17.4205384],[-66.13876690000001,-17.4192672],[-66.1391292,-17.4187629],[-66.13937290000001,-17.4175487],[-66.14026890000001,-17.4164798],[-66.1404711,-17.4163031],[-66.1406695,-17.416077400000002],[-66.1409715,-17.4159384],[-66.1413184,-17.415687600000002],[-66.14181620000001,-17.415161],[-66.14230110000001,-17.4141008],[-66.142442,-17.4122956],[-66.14252160000001,-17.4103269],[-66.14280380000001,-17.4092482],[-66.1436255,-17.407940800000002],[-66.1447121,-17.4065501],[-66.14496310000001,-17.4061868],[-66.1454853,-17.405170000000002],[-66.14591150000001,-17.404335800000002],[-66.14673540000001,-17.4033443],[-66.14692380000001,-17.4029986],[-66.1470936,-17.4025344],[-66.14717180000001,-17.402008000000002],[-66.1473653,-17.4018908],[-66.14763330000001,-17.4018178],[-66.1478917,-17.401321000000003],[-66.1481961,-17.399952300000002],[-66.14849310000001,-17.398454700000002],[-66.148511,-17.398367800000003],[-66.15058850000001,-17.398518000000003],[-66.1519487,-17.3984139],[-66.15221910000001,-17.398466000000003],[-66.1527528,-17.398660500000002],[-66.15319450000001,-17.3987646],[-66.1542283,-17.398992900000003],[-66.15530360000001,-17.3992471],[-66.1564374,-17.399488700000003],[-66.15675590000001,-17.399494800000003],[-66.1576356,-17.399365500000002],[-66.1577347,-17.399351900000003],[-66.1584983,-17.3992362],[-66.1587124,-17.399228800000003],[-66.1592816,-17.3992705],[-66.15999670000001,-17.399303200000002],[-66.1603302,-17.3993931],[-66.16099530000001,-17.3995906],[-66.1615876,-17.3997555],[-66.1619824,-17.3999132],[-66.1623448,-17.4001555],[-66.16247340000001,-17.4002151],[-66.16268050000001,-17.4001316],[-66.1639365,-17.399285900000002],[-66.1640723,-17.399192600000003],[-66.1643956,-17.3989638],[-66.1645215,-17.3988766],[-66.1661993,-17.397730300000003],[-66.16694620000001,-17.397214700000003],[-66.1671946,-17.3970056],[-66.1672473,-17.396947200000003],[-66.1673657,-17.3969382],[-66.16738720000001,-17.3969489],[-66.16754630000001,-17.396968700000002],[-66.1680127,-17.3968744],[-66.1683421,-17.396679600000002],[-66.16914960000001,-17.3965204],[-66.16928030000001,-17.3965144],[-66.17069810000001,-17.3964801],[-66.1706929,-17.396024200000003],[-66.17067340000001,-17.3953531],[-66.1706326,-17.3948074],[-66.1706106,-17.394227700000002],[-66.17060500000001,-17.394094300000003],[-66.1705148,-17.3940446],[-66.17047570000001,-17.393991],[-66.1704581,-17.393895200000003],[-66.1704926,-17.393803600000002],[-66.1705407,-17.393757200000003],[-66.17062680000001,-17.3937242],[-66.1706764,-17.3937233],[-66.170806,-17.393716700000002],[-66.17085700000001,-17.393704500000002],[-66.17240770000001,-17.3936281],[-66.17390370000001,-17.393598400000002],[-66.17445380000001,-17.3936962],[-66.17640320000001,-17.393611500000002],[-66.17680170000001,-17.3935944],[-66.17858620000001,-17.3935123],[-66.18222940000001,-17.393354000000002],[-66.1837505,-17.393215400000003],[-66.1840473,-17.3932027],[-66.18412640000001,-17.3931171],[-66.18418340000001,-17.3930878],[-66.1842637,-17.393071300000003],[-66.18436530000001,-17.393085300000003],[-66.18446820000001,-17.393149100000002],[-66.1847563,-17.3931666],[-66.1864116,-17.3931714],[-66.1874124,-17.3931268],[-66.1911252,-17.3929577],[-66.19472350000001,-17.3928088],[-66.19707530000001,-17.3927008],[-66.19947400000001,-17.3925896],[-66.1996008,-17.392583300000002],[-66.20019090000001,-17.3925553],[-66.2032418,-17.3924227],[-66.20721280000001,-17.392253800000002],[-66.20800460000001,-17.3922214],[-66.20818460000001,-17.392214300000003],[-66.2085114,-17.392202100000002],[-66.21032100000001,-17.392123],[-66.2111208,-17.3920862],[-66.2143132,-17.391946100000002],[-66.2158613,-17.3918782],[-66.2182449,-17.3917806],[-66.2193982,-17.391733300000002],[-66.2213267,-17.3916517],[-66.2233037,-17.3915541],[-66.22459930000001,-17.3915051],[-66.2264962,-17.391416500000002],[-66.22742140000001,-17.391380400000003],[-66.22916620000001,-17.3912966],[-66.2297673,-17.3912717],[-66.2305661,-17.3912386],[-66.23362490000001,-17.3911146],[-66.2363591,-17.3910045],[-66.2382125,-17.390907100000003],[-66.23850750000001,-17.390849900000003],[-66.2386762,-17.390812800000003],[-66.2387279,-17.3908011],[-66.2389553,-17.3908324],[-66.23918880000001,-17.3908644],[-66.2411366,-17.390814000000002],[-66.2427852,-17.3907986],[-66.24371930000001,-17.3907743],[-66.2439573,-17.3907244],[-66.2446218,-17.390762300000002],[-66.2448526,-17.390817600000002],[-66.24615270000001,-17.390867200000002],[-66.24846360000001,-17.390979700000003],[-66.24945770000001,-17.3910255],[-66.25024350000001,-17.391075500000003],[-66.25069140000001,-17.3910616],[-66.2509344,-17.391085500000003],[-66.25121610000001,-17.3911541],[-66.2526672,-17.391312300000003],[-66.2542188,-17.391462200000003],[-66.2577457,-17.391825700000002],[-66.25901440000001,-17.391939500000003],[-66.25952000000001,-17.3919831],[-66.26010000000001,-17.3920415],[-66.26080250000001,-17.392114300000003],[-66.2649633,-17.392536800000002],[-66.2675492,-17.3927929],[-66.2681726,-17.392859100000003],[-66.2684282,-17.392885000000003],[-66.2699511,-17.3930396],[-66.2712023,-17.393158000000003],[-66.2725216,-17.393241500000002],[-66.272689,-17.393225800000003],[-66.27276160000001,-17.3932016],[-66.2728326,-17.3932068],[-66.27287630000001,-17.393224800000002],[-66.27315990000001,-17.3932739],[-66.27345840000001,-17.393307],[-66.2749658,-17.393460700000002],[-66.27617020000001,-17.3935795],[-66.2770081,-17.393658300000002],[-66.27801910000001,-17.393757700000002],[-66.27814760000001,-17.393768100000003],[-66.27831880000001,-17.3937856],[-66.28064060000001,-17.394005500000002]]}}},{"type":"Feature","properties":{"bench":"no","bin":"no","bus":"yes","departures_board":"no","highway":"bus_stop","informal":"yes","kerb":"raised","level":"0","lit":"no","name":"Plaza Reforma Agraria","public_transport":"platform","shelter":"no","tactile_paving":"no","wheelchair":"no","id":8015423522},"geometry":{"type":"Point","coordinates":[-66.1643095,-17.398930500000002]}},{"type":"Feature","properties":{"bench":"no","bin":"no","bus":"yes","departures_board":"no","highway":"bus_stop","name":"Aroma y Oquendo","operator":"Gobierno Autónomo Municipal de Cochabamba","operator:type":"government","public_transport":"platform","shelter":"no","id":6546789718},"geometry":{"type":"Point","coordinates":[-66.1484034,-17.398620100000002]}},{"type":"Feature","properties":{"bench":"yes","bin":"no","bus":"yes","departures_board":"no","highway":"bus_stop","level":"0","lit":"no","name":"Automóvil Club Boliviano","operator":"Administradora Boliviana de Carreteras","operator:short":"ABC","operator:type":"public","public_transport":"platform","shelter":"yes","tactile_paving":"no","wheelchair":"no","id":5238905983},"geometry":{"type":"Point","coordinates":[-66.17446050000001,-17.393606400000003]}},{"type":"Feature","properties":{"bus":"yes","highway":"bus_stop","name":"Plaza Bolívar","public_transport":"platform","id":3255507885},"geometry":{"type":"Point","coordinates":[-66.2805659,-17.3943334]}},{"type":"Feature","properties":{"bench":"yes","bin":"no","bus":"yes","departures_board":"no","highway":"bus_stop","level":"0","lit":"no","loc_name":"KM 4","name":"Avenida Segunda","operator":"Administradora Boliviana de Carreteras","operator:short":"ABC","operator:type":"public","public_transport":"platform","shelter":"yes","tactile_paving":"no","wheelchair":"no","id":2418530979},"geometry":{"type":"Point","coordinates":[-66.19508040000001,-17.3927015]}},{"type":"Feature","properties":{"bus":"yes","departures_board":"no","highway":"bus_stop","name":"Parada 211","public_transport":"platform","shelter":"no","id":7057405586},"geometry":{"type":"Point","coordinates":[-66.1339356,-17.422226600000002]}}]}