{"type":"FeatureCollection","features":[{"type":"Feature","properties":{"check_date":"29/12/2025","from":"Avenida Blanco Galindo","name":"MiniBus 210: Avenida Blanco Galindo → Calle República de Nicaragua","network":"BO:CB:Cochabamba","on_demand":"yes","operator":"Sindicato Señor de Buen Viaje El Paso","public_transport:version":"2","ref":"210","route":"bus","to":"Calle República de Nicaragua","type":"route","wheelchair":"no","id":10413255},"geometry":{"type":"LineString","coordinates":[[-66.2507894,-17.3912641],[-66.25064590000001,-17.3912553],[-66.25044960000001,-17.391241100000002],[-66.24994980000001,-17.391207700000002],[-66.24902460000001,-17.391148],[-66.24892960000001,-17.3911412],[-66.2483832,-17.391103700000002],[-66.2478983,-17.3910798],[-66.2474718,-17.391058800000003],[-66.24669460000001,-17.3910205],[-66.2463515,-17.3910036],[-66.2462864,-17.391000400000003],[-66.246144,-17.390994300000003],[-66.24609570000001,-17.390992800000003],[-66.2459542,-17.3909884],[-66.2450017,-17.3909622],[-66.2449045,-17.390971200000003],[-66.24474570000001,-17.3910024],[-66.244702,-17.391009200000003],[-66.24461070000001,-17.391030400000002],[-66.2444712,-17.391049600000002],[-66.2443896,-17.3910486],[-66.2440073,-17.391043800000002],[-66.2439758,-17.391043200000002],[-66.2439215,-17.3910349],[-66.24373270000001,-17.390998600000003],[-66.24367640000001,-17.3909884],[-66.24355220000001,-17.3909664],[-66.24346390000001,-17.390956900000003],[-66.2433575,-17.3909534],[-66.2427821,-17.3909552],[-66.24211430000001,-17.3909528],[-66.24113820000001,-17.3909664],[-66.2409403,-17.390969400000003],[-66.2398934,-17.390992100000002],[-66.2393461,-17.391020700000002],[-66.2391427,-17.391038400000003],[-66.23896260000001,-17.391061500000003],[-66.2388277,-17.3910735],[-66.23878500000001,-17.3910956],[-66.23875550000001,-17.391099500000003],[-66.23872490000001,-17.3910999],[-66.2386949,-17.391094600000002],[-66.2385208,-17.391072100000002],[-66.23834480000001,-17.3910467],[-66.2381859,-17.3910491],[-66.23783080000001,-17.3910656],[-66.23636230000001,-17.391125600000002],[-66.23635920000001,-17.3911257],[-66.2338646,-17.3912258],[-66.2324387,-17.3912917],[-66.23202930000001,-17.391311],[-66.2319827,-17.391310100000002],[-66.23130280000001,-17.3913334],[-66.23093850000001,-17.3913516],[-66.23050210000001,-17.3913727],[-66.23003270000001,-17.391397100000002],[-66.23001740000001,-17.3913979],[-66.22988550000001,-17.3914048],[-66.2297415,-17.391410200000003],[-66.2291665,-17.3914316],[-66.228361,-17.3914642],[-66.2274295,-17.3915073],[-66.22662360000001,-17.391544500000002],[-66.22649600000001,-17.391546700000003],[-66.22491930000001,-17.391616900000002],[-66.22209000000001,-17.391740000000002],[-66.2218668,-17.391750700000003],[-66.2215956,-17.391763800000003],[-66.2213351,-17.3917763],[-66.2201605,-17.391822400000002],[-66.2194839,-17.39185],[-66.21940950000001,-17.391853],[-66.2190114,-17.3918693],[-66.218896,-17.3918743],[-66.2182131,-17.3919074],[-66.2154179,-17.392026100000002],[-66.2134978,-17.3921116],[-66.2125925,-17.3921494],[-66.21252270000001,-17.3921524],[-66.2103878,-17.392245600000003],[-66.2103017,-17.392249600000003],[-66.208973,-17.3923041],[-66.20829520000001,-17.3923381],[-66.20824280000001,-17.392340800000003],[-66.20819030000001,-17.3923434],[-66.2080961,-17.3923466],[-66.20801010000001,-17.3923501],[-66.2077704,-17.392359900000002],[-66.20563480000001,-17.3924477],[-66.20470830000001,-17.392489100000002],[-66.20430920000001,-17.3925078],[-66.2036195,-17.3925345],[-66.2031084,-17.392554200000003],[-66.2004314,-17.3926766],[-66.2002307,-17.392685800000002],[-66.1998222,-17.392704600000002],[-66.1997525,-17.3927076],[-66.1996829,-17.3927105],[-66.1996077,-17.392714100000003],[-66.19948160000001,-17.392719300000003],[-66.1989358,-17.392742000000002],[-66.1970994,-17.392820500000003],[-66.19696090000001,-17.3928267],[-66.19417130000001,-17.3929516],[-66.19390320000001,-17.3929632],[-66.1918596,-17.3930496],[-66.1892684,-17.393168300000003],[-66.1875821,-17.393243100000003],[-66.18641620000001,-17.393294400000002],[-66.1844616,-17.3933742],[-66.18410340000001,-17.3933915],[-66.1825146,-17.393462200000002],[-66.18183020000001,-17.393494],[-66.1810597,-17.393529800000003],[-66.1801494,-17.393567700000002],[-66.1795661,-17.393593300000003],[-66.17767380000001,-17.3936785],[-66.17727880000001,-17.393696700000003],[-66.1766698,-17.3937248],[-66.176607,-17.393727700000003],[-66.1764849,-17.393733],[-66.1763233,-17.3937399],[-66.1746071,-17.3938138],[-66.1740147,-17.3938393],[-66.1739096,-17.3938439],[-66.1724045,-17.393906400000002],[-66.17213500000001,-17.3939606],[-66.171351,-17.3939959],[-66.1711564,-17.394010700000003],[-66.17086850000001,-17.3940485],[-66.1708359,-17.3940528],[-66.1707777,-17.3940604],[-66.17074910000001,-17.394078200000003],[-66.17071770000001,-17.394089],[-66.1706843,-17.394098600000003],[-66.1706577,-17.3941006],[-66.1706312,-17.394099100000002],[-66.17060500000001,-17.394094300000003],[-66.1705706,-17.3940823],[-66.17053630000001,-17.3940981],[-66.1705029,-17.394110100000002],[-66.1703542,-17.394129900000003],[-66.1692179,-17.394172700000002],[-66.16885,-17.3941349],[-66.16874890000001,-17.3941394],[-66.1683519,-17.3941568],[-66.1680676,-17.3941641],[-66.1679544,-17.394168500000003],[-66.1678047,-17.3941549],[-66.1676034,-17.394136500000002],[-66.1674792,-17.394121900000002],[-66.167405,-17.3941166],[-66.1673762,-17.394114000000002],[-66.1669627,-17.3940655],[-66.1669372,-17.394063600000003],[-66.16669850000001,-17.3940382],[-66.1666089,-17.3940263],[-66.1665145,-17.394004600000002],[-66.16633800000001,-17.3939312],[-66.16627290000001,-17.3939109],[-66.16619200000001,-17.393893600000002],[-66.165909,-17.393848300000002],[-66.1649058,-17.393669600000003],[-66.1639803,-17.393500500000002],[-66.1639145,-17.3934885],[-66.16386080000001,-17.393479600000003],[-66.16214910000001,-17.393195700000003],[-66.16205310000001,-17.393179800000002],[-66.1619793,-17.3931673],[-66.16111430000001,-17.393020200000002],[-66.1610467,-17.393008700000003],[-66.1610381,-17.393062],[-66.16099200000001,-17.3933439],[-66.1608968,-17.3939491],[-66.16068340000001,-17.3950108],[-66.1604669,-17.3960638],[-66.1602697,-17.3970938],[-66.15915310000001,-17.3969062],[-66.1581831,-17.396722800000003],[-66.1581304,-17.3967147],[-66.1580388,-17.396700600000003],[-66.157998,-17.3966943],[-66.1569724,-17.3965257],[-66.15662730000001,-17.3964637],[-66.156456,-17.3964348],[-66.1558816,-17.396329700000003],[-66.1547941,-17.3961338],[-66.1546703,-17.396757800000003],[-66.15457980000001,-17.3971915],[-66.15441750000001,-17.3980992],[-66.15438900000001,-17.3982226],[-66.1542283,-17.398992900000003],[-66.1542062,-17.399083700000002],[-66.1541493,-17.3990703],[-66.1531927,-17.3988455],[-66.1531252,-17.398830500000003],[-66.15274790000001,-17.3987355],[-66.15272030000001,-17.3987266],[-66.15265930000001,-17.3987069],[-66.15221890000001,-17.3985461],[-66.15207910000001,-17.398505500000002],[-66.1519978,-17.3984954],[-66.15184160000001,-17.3984989],[-66.1510846,-17.398539600000003],[-66.15065700000001,-17.398596400000002],[-66.1504671,-17.398591200000002],[-66.1499407,-17.398552900000002],[-66.14849310000001,-17.398454700000002],[-66.148511,-17.398367800000003],[-66.1485231,-17.398308800000002],[-66.1486874,-17.3975094],[-66.1486986,-17.3974593],[-66.14871120000001,-17.3973963],[-66.1487809,-17.397047],[-66.14881580000001,-17.396872000000002],[-66.1488764,-17.396568300000002],[-66.1488961,-17.3964633],[-66.14881720000001,-17.3964487],[-66.1485507,-17.396401100000002],[-66.1485272,-17.3964307],[-66.1484841,-17.3964488],[-66.1482153,-17.3965046],[-66.1480336,-17.3965405],[-66.14798230000001,-17.3965505],[-66.14791910000001,-17.3965618],[-66.1464083,-17.3968598],[-66.1457798,-17.3969822],[-66.14539470000001,-17.397057200000003],[-66.14523340000001,-17.397087300000003],[-66.14490400000001,-17.3971553],[-66.1442361,-17.3972908],[-66.14356120000001,-17.397424],[-66.1427742,-17.3975803],[-66.1425646,-17.397620900000003],[-66.14221300000001,-17.397688900000002],[-66.1419213,-17.399018700000003],[-66.14171160000001,-17.399952300000002],[-66.14175350000001,-17.399958700000003],[-66.1419329,-17.399986100000003],[-66.14220800000001,-17.4000272]],"nodes":[8630411911,786662086,4571961312,9008315768,786662289,786662384,4317735514,7933924074,9008315506,9008315507,10572209945,8316478467,319773261,9008315534,9008315509,8316478468,319773262,9008315710,4586488215,10837513366,2594886774,11296265958,10837513370,4586488216,10837513371,10572209994,319773839,8630411836,319773840,8630411835,793568529,793568511,6918618955,793568540,793568550,7933924038,698491866,9008269186,698491852,698491857,9355127785,9355127784,698491894,9008269190,4586487875,8317038874,6836037176,793568534,9025874012,793568542,793568567,6282778241,793568556,5605232830,5605232828,8627399434,9786116626,9786116635,2354386800,9786116631,8627399435,794074995,9008269168,794075099,794075049,794074991,794074975,4340534094,4478225459,794075151,13760954833,3255507834,13760954848,13760954835,4158051955,794075132,794075196,794075208,794074982,794075086,794075201,794075101,6845758237,8235936965,13685730899,2417368094,794081382,8235936959,8235936931,2417368107,2417368139,2417368154,6846214132,2417368183,1807038058,12650627925,2429829239,12650627934,1807038060,1807038065,8235455990,497195296,2339557956,2339557957,2160491572,6282770217,2160491570,2292218255,2635402936,6272592192,4398318268,6326490903,698597067,13438104010,560522669,689437127,800044225,800044066,9081523770,13438065392,2527263187,800044095,13438103967,9017927915,800044053,800043986,12300469255,315919272,13416534064,13416534065,13417065133,13436362625,13416534061,13416534042,13303075825,13416534071,13303071588,13416534056,13416534072,13303071581,13416534049,660004651,13416534073,800044094,9081461993,6952929962,800044036,12088438231,315934179,9081829379,4732874466,2420519774,11079352071,315942232,648570956,11079352069,315935003,8147129096,3281516922,2330755899,3281516920,1636978219,698492313,698492316,10792253186,698492319,10792253182,10879431900,698492322,8565985150,2694171671,698492339,2694171672,310502623,310499276,310499297,310258959,5143443460,310500543,2398944606,648546085,310262707,2398944605,5964203052,4051759810,4051759813,310500545,310500546,8241410049,310500793,9905231737,310501002,1727306400,310503081,12081159184,648548911,8238783223,2765190381,8238783128,8238783125,648548895,2765190366,9121686926,2765190364,648548806,2303485417,648548748,648548725,648548704,315031543,8515841687,8515841685,308297685,8515841684,2892642981,2892642977,8398265984,315098242,5018719444,315099571,13410939018,12854465908,8515841693,8276822024,315098774,8276822022,676069599,391726835,391727105,1745102849,598789048,598787510,702512041,702512060,702512077,702512061,702512054,8090151671,11910834852,8090151707,8090151674]},"gtfs":{"agency_id":33,"route_id":78,"services":[{"service_id":"Mo-Su","startTime":"06:00","endTime":"22:00","trip_id":10413255}],"filteredStops":{"nodes":[8630411911,786662086,4571961312,9008315768,786662289,786662384,4317735514,7933924074,9008315506,9008315507,10572209945,8316478467,319773261,9008315534,9008315509,8316478468,319773262,9008315710,4586488215,10837513366,2594886774,11296265958,10837513370,4586488216,10837513371,10572209994,319773839,8630411836,319773840,8630411835,793568529,793568511,6918618955,793568540,793568550,7933924038,698491866,9008269186,698491852,698491857,9355127785,9355127784,698491894,9008269190,4586487875,8317038874,6836037176,793568534,9025874012,793568542,793568567,6282778241,793568556,5605232830,5605232828,8627399434,9786116626,9786116635,2354386800,9786116631,8627399435,794074995,9008269168,794075099,794075049,794074991,794074975,4340534094,4478225459,794075151,13760954833,3255507834,13760954848,13760954835,4158051955,794075132,794075196,794075208,794074982,794075086,794075201,794075101,6845758237,8235936965,13685730899,2417368094,794081382,8235936959,8235936931,2417368107,2417368139,2417368154,6846214132,2417368183,1807038058,12650627925,2429829239,12650627934,1807038060,1807038065,8235455990,497195296,2339557956,2339557957,2160491572,6282770217,2160491570,2292218255,2635402936,6272592192,4398318268,6326490903,698597067,13438104010,560522669,689437127,800044225,800044066,9081523770,13438065392,2527263187,800044095,13438103967,9017927915,800044053,800043986,12300469255,315919272,13416534064,13416534065,13417065133,13436362625,13416534061,13416534042,13303075825,13416534071,13303071588,13416534056,13416534072,13303071581,13416534049,660004651,13416534073,800044094,9081461993,6952929962,800044036,12088438231,315934179,9081829379,4732874466,2420519774,11079352071,315942232,648570956,11079352069,315935003,8147129096,3281516922,2330755899,3281516920,1636978219,698492313,698492316,10792253186,698492319,10792253182,10879431900,698492322,8565985150,2694171671,698492339,2694171672,310502623,310499276,310499297,310258959,5143443460,310500543,2398944606,648546085,310262707,2398944605,5964203052,4051759810,4051759813,310500545,310500546,8241410049,310500793,9905231737,310501002,1727306400,310503081,12081159184,648548911,8238783223,2765190381,8238783128,8238783125,648548895,2765190366,9121686926,2765190364,648548806,2303485417,648548748,648548725,648548704,315031543,8515841687,8515841685,308297685,8515841684,2892642981,2892642977,8398265984,315098242,5018719444,315099571,13410939018,12854465908,8515841693,8276822024,315098774,8276822022,676069599,391726835,391727105,1745102849,598789048,598787510,702512041,702512060,702512077,702512061,702512054,8090151671,11910834852,8090151707,8090151674],"coordinates":[[-66.2507894,-17.3912641],[-66.25064590000001,-17.3912553],[-66.25044960000001,-17.391241100000002],[-66.24994980000001,-17.391207700000002],[-66.24902460000001,-17.391148],[-66.24892960000001,-17.3911412],[-66.2483832,-17.391103700000002],[-66.2478983,-17.3910798],[-66.2474718,-17.391058800000003],[-66.24669460000001,-17.3910205],[-66.2463515,-17.3910036],[-66.2462864,-17.391000400000003],[-66.246144,-17.390994300000003],[-66.24609570000001,-17.390992800000003],[-66.2459542,-17.3909884],[-66.2450017,-17.3909622],[-66.2449045,-17.390971200000003],[-66.24474570000001,-17.3910024],[-66.244702,-17.391009200000003],[-66.24461070000001,-17.391030400000002],[-66.2444712,-17.391049600000002],[-66.2443896,-17.3910486],[-66.2440073,-17.391043800000002],[-66.2439758,-17.391043200000002],[-66.2439215,-17.3910349],[-66.24373270000001,-17.390998600000003],[-66.24367640000001,-17.3909884],[-66.24355220000001,-17.3909664],[-66.24346390000001,-17.390956900000003],[-66.2433575,-17.3909534],[-66.2427821,-17.3909552],[-66.24211430000001,-17.3909528],[-66.24113820000001,-17.3909664],[-66.2409403,-17.390969400000003],[-66.2398934,-17.390992100000002],[-66.2393461,-17.391020700000002],[-66.2391427,-17.391038400000003],[-66.23896260000001,-17.391061500000003],[-66.2388277,-17.3910735],[-66.23878500000001,-17.3910956],[-66.23875550000001,-17.391099500000003],[-66.23872490000001,-17.3910999],[-66.2386949,-17.391094600000002],[-66.2385208,-17.391072100000002],[-66.23834480000001,-17.3910467],[-66.2381859,-17.3910491],[-66.23783080000001,-17.3910656],[-66.23636230000001,-17.391125600000002],[-66.23635920000001,-17.3911257],[-66.2338646,-17.3912258],[-66.2324387,-17.3912917],[-66.23202930000001,-17.391311],[-66.2319827,-17.391310100000002],[-66.23130280000001,-17.3913334],[-66.23093850000001,-17.3913516],[-66.23050210000001,-17.3913727],[-66.23003270000001,-17.391397100000002],[-66.23001740000001,-17.3913979],[-66.22988550000001,-17.3914048],[-66.2297415,-17.391410200000003],[-66.2291665,-17.3914316],[-66.228361,-17.3914642],[-66.2274295,-17.3915073],[-66.22662360000001,-17.391544500000002],[-66.22649600000001,-17.391546700000003],[-66.22491930000001,-17.391616900000002],[-66.22209000000001,-17.391740000000002],[-66.2218668,-17.391750700000003],[-66.2215956,-17.391763800000003],[-66.2213351,-17.3917763],[-66.2201605,-17.391822400000002],[-66.2194839,-17.39185],[-66.21940950000001,-17.391853],[-66.2190114,-17.3918693],[-66.218896,-17.3918743],[-66.2182131,-17.3919074],[-66.2154179,-17.392026100000002],[-66.2134978,-17.3921116],[-66.2125925,-17.3921494],[-66.21252270000001,-17.3921524],[-66.2103878,-17.392245600000003],[-66.2103017,-17.392249600000003],[-66.208973,-17.3923041],[-66.20829520000001,-17.3923381],[-66.20824280000001,-17.392340800000003],[-66.20819030000001,-17.3923434],[-66.2080961,-17.3923466],[-66.20801010000001,-17.3923501],[-66.2077704,-17.392359900000002],[-66.20563480000001,-17.3924477],[-66.20470830000001,-17.392489100000002],[-66.20430920000001,-17.3925078],[-66.2036195,-17.3925345],[-66.2031084,-17.392554200000003],[-66.2004314,-17.3926766],[-66.2002307,-17.392685800000002],[-66.1998222,-17.392704600000002],[-66.1997525,-17.3927076],[-66.1996829,-17.3927105],[-66.1996077,-17.392714100000003],[-66.19948160000001,-17.392719300000003],[-66.1989358,-17.392742000000002],[-66.1970994,-17.392820500000003],[-66.19696090000001,-17.3928267],[-66.19417130000001,-17.3929516],[-66.19390320000001,-17.3929632],[-66.1918596,-17.3930496],[-66.1892684,-17.393168300000003],[-66.1875821,-17.393243100000003],[-66.18641620000001,-17.393294400000002],[-66.1844616,-17.3933742],[-66.18410340000001,-17.3933915],[-66.1825146,-17.393462200000002],[-66.18183020000001,-17.393494],[-66.1810597,-17.393529800000003],[-66.1801494,-17.393567700000002],[-66.1795661,-17.393593300000003],[-66.17767380000001,-17.3936785],[-66.17727880000001,-17.393696700000003],[-66.1766698,-17.3937248],[-66.176607,-17.393727700000003],[-66.1764849,-17.393733],[-66.1763233,-17.3937399],[-66.1746071,-17.3938138],[-66.1740147,-17.3938393],[-66.1739096,-17.3938439],[-66.1724045,-17.393906400000002],[-66.17213500000001,-17.3939606],[-66.171351,-17.3939959],[-66.1711564,-17.394010700000003],[-66.17086850000001,-17.3940485],[-66.1708359,-17.3940528],[-66.1707777,-17.3940604],[-66.17074910000001,-17.394078200000003],[-66.17071770000001,-17.394089],[-66.1706843,-17.394098600000003],[-66.1706577,-17.3941006],[-66.1706312,-17.394099100000002],[-66.17060500000001,-17.394094300000003],[-66.1705706,-17.3940823],[-66.17053630000001,-17.3940981],[-66.1705029,-17.394110100000002],[-66.1703542,-17.394129900000003],[-66.1692179,-17.394172700000002],[-66.16885,-17.3941349],[-66.16874890000001,-17.3941394],[-66.1683519,-17.3941568],[-66.1680676,-17.3941641],[-66.1679544,-17.394168500000003],[-66.1678047,-17.3941549],[-66.1676034,-17.394136500000002],[-66.1674792,-17.394121900000002],[-66.167405,-17.3941166],[-66.1673762,-17.394114000000002],[-66.1669627,-17.3940655],[-66.1669372,-17.394063600000003],[-66.16669850000001,-17.3940382],[-66.1666089,-17.3940263],[-66.1665145,-17.394004600000002],[-66.16633800000001,-17.3939312],[-66.16627290000001,-17.3939109],[-66.16619200000001,-17.393893600000002],[-66.165909,-17.393848300000002],[-66.1649058,-17.393669600000003],[-66.1639803,-17.393500500000002],[-66.1639145,-17.3934885],[-66.16386080000001,-17.393479600000003],[-66.16214910000001,-17.393195700000003],[-66.16205310000001,-17.393179800000002],[-66.1619793,-17.3931673],[-66.16111430000001,-17.393020200000002],[-66.1610467,-17.393008700000003],[-66.1610381,-17.393062],[-66.16099200000001,-17.3933439],[-66.1608968,-17.3939491],[-66.16068340000001,-17.3950108],[-66.1604669,-17.3960638],[-66.1602697,-17.3970938],[-66.15915310000001,-17.3969062],[-66.1581831,-17.396722800000003],[-66.1581304,-17.3967147],[-66.1580388,-17.396700600000003],[-66.157998,-17.3966943],[-66.1569724,-17.3965257],[-66.15662730000001,-17.3964637],[-66.156456,-17.3964348],[-66.1558816,-17.396329700000003],[-66.1547941,-17.3961338],[-66.1546703,-17.396757800000003],[-66.15457980000001,-17.3971915],[-66.15441750000001,-17.3980992],[-66.15438900000001,-17.3982226],[-66.1542283,-17.398992900000003],[-66.1542062,-17.399083700000002],[-66.1541493,-17.3990703],[-66.1531927,-17.3988455],[-66.1531252,-17.398830500000003],[-66.15274790000001,-17.3987355],[-66.15272030000001,-17.3987266],[-66.15265930000001,-17.3987069],[-66.15221890000001,-17.3985461],[-66.15207910000001,-17.398505500000002],[-66.1519978,-17.3984954],[-66.15184160000001,-17.3984989],[-66.1510846,-17.398539600000003],[-66.15065700000001,-17.398596400000002],[-66.1504671,-17.398591200000002],[-66.1499407,-17.398552900000002],[-66.14849310000001,-17.398454700000002],[-66.148511,-17.398367800000003],[-66.1485231,-17.398308800000002],[-66.1486874,-17.3975094],[-66.1486986,-17.3974593],[-66.14871120000001,-17.3973963],[-66.1487809,-17.397047],[-66.14881580000001,-17.396872000000002],[-66.1488764,-17.396568300000002],[-66.1488961,-17.3964633],[-66.14881720000001,-17.3964487],[-66.1485507,-17.396401100000002],[-66.1485272,-17.3964307],[-66.1484841,-17.3964488],[-66.1482153,-17.3965046],[-66.1480336,-17.3965405],[-66.14798230000001,-17.3965505],[-66.14791910000001,-17.3965618],[-66.1464083,-17.3968598],[-66.1457798,-17.3969822],[-66.14539470000001,-17.397057200000003],[-66.14523340000001,-17.397087300000003],[-66.14490400000001,-17.3971553],[-66.1442361,-17.3972908],[-66.14356120000001,-17.397424],[-66.1427742,-17.3975803],[-66.1425646,-17.397620900000003],[-66.14221300000001,-17.397688900000002],[-66.1419213,-17.399018700000003],[-66.14171160000001,-17.399952300000002],[-66.14175350000001,-17.399958700000003],[-66.1419329,-17.399986100000003],[-66.14220800000001,-17.4000272]]}}},{"type":"Feature","properties":{"bench":"yes","bus":"yes","departures_board":"no","highway":"bus_stop","name":"Cruce Piñami","public_transport":"platform","shelter":"yes","id":9008315796},"geometry":{"type":"Point","coordinates":[-66.2510855,-17.39138]}},{"type":"Feature","properties":{"bench":"no","bin":"no","bus":"yes","departures_board":"no","highway":"bus_stop","kerb":"raised","level":"0","lit":"no","name":"ELFEC","operator":"Gobierno Autónomo Municipal de Cochabamba","operator:short":"GAMC","operator:type":"government","public_transport":"platform","shelter":"no","tactile_paving":"no","wheelchair":"no","id":4630872815},"geometry":{"type":"Point","coordinates":[-66.16503150000001,-17.393718900000003]}},{"type":"Feature","properties":{"bench":"no","bin":"no","bus":"yes","departures_board":"no","highway":"bus_stop","lit":"no","name":"Plaza Guzmán Quitón","public_transport":"platform","shelter":"no","id":6546789752},"geometry":{"type":"Point","coordinates":[-66.1612192,-17.393077]}},{"type":"Feature","properties":{"bench":"no","bin":"no","bus":"yes","departures_board":"no","highway":"bus_stop","lit":"no","name":"Mariano Ricardo Terrazas","pole":"yes","public_transport":"platform","shelter":"no","id":8614087733},"geometry":{"type":"Point","coordinates":[-66.14880720000001,-17.396606000000002]}},{"type":"Feature","properties":{"bench":"no","bin":"no","bus":"yes","departures_board":"no","highway":"bus_stop","level":"0","lit":"no","name":"Automóvil Club Boliviano","operator":"Administradora Boliviana de Carreteras","operator:short":"ABC","operator:type":"public","pole":"yes","public_transport":"platform","shelter":"no","tactile_paving":"no","wheelchair":"no","id":3201987266},"geometry":{"type":"Point","coordinates":[-66.1745966,-17.3938969]}},{"type":"Feature","properties":{"addr:city":"Cochabamba","bench":"no","bin":"no","bus":"yes","departures_board":"no","highway":"bus_stop","level":"0","lit":"no","name":"Parada 210","public_transport":"platform","shelter":"no","tactile_paving":"no","wheelchair":"no","id":7204237207},"geometry":{"type":"Point","coordinates":[-66.1421514,-17.399982100000003]}},{"type":"Feature","properties":{"bench":"no","bin":"no","bus":"yes","departures_board":"no","highway":"bus_stop","level":"0","lit":"no","name":"Aroma","operator":"Gobierno Autónomo Municipal de Cochabamba","operator:short":"GAMC","operator:type":"government","pole":"yes","public_transport":"platform","shelter":"no","tactile_paving":"no","wheelchair":"no","id":6546789728},"geometry":{"type":"Point","coordinates":[-66.1542976,-17.398892500000002]}},{"type":"Feature","properties":{"bench":"no","bin":"no","bus":"yes","departures_board":"no","highway":"bus_stop","kerb":"raised","level":"0","lit":"no","name":"San Martín","operator":"Gobierno Autónomo Municipal de Cochabamba","operator:short":"GAMC","operator:type":"government","pole":"yes","public_transport":"platform","shelter":"no","tactile_paving":"no","wheelchair":"no","id":6546789727},"geometry":{"type":"Point","coordinates":[-66.1533675,-17.398950000000003]}}]}