{"type":"FeatureCollection","features":[{"type":"Feature","properties":{"from":"Santo Domingo","name":"MiniBus 46: Santo Domingo → Calle Antolín Salinas","network":"BO:CB:Cochabamba","on_demand":"yes","operator":"Sindicato de taxis y trufis 14 de septiembre","public_transport:version":"2","ref":"46","route":"bus","to":"Calle Antolín Salinas","type":"route","wheelchair":"no","id":10626424},"geometry":{"type":"LineString","coordinates":[[-66.2121374,-17.4486944],[-66.21144600000001,-17.4484467],[-66.2115397,-17.447955800000003],[-66.21162480000001,-17.447472],[-66.2117346,-17.4469782],[-66.2110222,-17.4467162],[-66.20999,-17.446344200000002],[-66.2098818,-17.4468438],[-66.20977620000001,-17.447331700000003],[-66.2096703,-17.447821],[-66.2096049,-17.4481229],[-66.20956620000001,-17.448305400000002],[-66.2094519,-17.448843800000002],[-66.20942360000001,-17.4489769],[-66.20867750000001,-17.4488233],[-66.20856730000001,-17.4494346],[-66.2084732,-17.449844000000002],[-66.20844740000001,-17.449940400000003],[-66.2082834,-17.450551700000002],[-66.2081713,-17.450969500000003],[-66.20812260000001,-17.451161900000002],[-66.20788660000001,-17.4520932],[-66.2078116,-17.452090300000002],[-66.20736020000001,-17.4520725],[-66.2070599,-17.452041],[-66.2066382,-17.451975700000002],[-66.20631130000001,-17.451933],[-66.2060419,-17.4519036],[-66.2057759,-17.451886000000002],[-66.2055412,-17.4518884],[-66.2054485,-17.451898800000002],[-66.2053298,-17.451912200000002],[-66.2051244,-17.451952300000002],[-66.2048929,-17.4520187],[-66.20456940000001,-17.452144200000003],[-66.20407680000001,-17.452344800000002],[-66.20397960000001,-17.452377400000003],[-66.2035992,-17.4524955],[-66.20335010000001,-17.4525858],[-66.20300180000001,-17.452712100000003],[-66.20278850000001,-17.452764000000002],[-66.20273010000001,-17.452692300000002],[-66.2026616,-17.452665600000003],[-66.2022766,-17.4523037],[-66.20161940000001,-17.4517032],[-66.2014783,-17.451582300000002],[-66.2013848,-17.451467700000002],[-66.20131330000001,-17.451362600000003],[-66.2012526,-17.4511708],[-66.2011849,-17.4508264],[-66.20113640000001,-17.4506018],[-66.20103560000001,-17.450312200000003],[-66.2003052,-17.4485919],[-66.19997640000001,-17.4478486],[-66.1998147,-17.447469],[-66.1997747,-17.447375100000002],[-66.1996682,-17.4471171],[-66.19943040000001,-17.446541200000002],[-66.19937800000001,-17.4464143],[-66.1990557,-17.4456339],[-66.1990229,-17.445554400000002],[-66.19898140000001,-17.4454539],[-66.19891670000001,-17.4452973],[-66.1988378,-17.4451062],[-66.198632,-17.444607700000002],[-66.1985976,-17.444524400000002],[-66.19825060000001,-17.4436605],[-66.198116,-17.443350900000002],[-66.19805880000001,-17.4431854],[-66.1975647,-17.4419843],[-66.1969545,-17.4405128],[-66.19690680000001,-17.440387400000002],[-66.1965313,-17.4394011],[-66.19636170000001,-17.438955800000002],[-66.1961823,-17.438481200000002],[-66.1960004,-17.4381798],[-66.1957368,-17.437794],[-66.1946642,-17.436170200000003],[-66.1941061,-17.4353121],[-66.1937824,-17.4348111],[-66.1936924,-17.4346718],[-66.1934258,-17.434267700000003],[-66.192711,-17.4332004],[-66.19266680000001,-17.433190500000002],[-66.19174960000001,-17.4330076],[-66.19071050000001,-17.432804200000003],[-66.19029130000001,-17.4327076],[-66.18891430000001,-17.4324243],[-66.18651790000001,-17.4319366],[-66.1856745,-17.431762900000003],[-66.18550130000001,-17.4317272],[-66.1852375,-17.4316864],[-66.185084,-17.4316818],[-66.1845854,-17.431735800000002],[-66.18448020000001,-17.4317472],[-66.18424970000001,-17.431734600000002],[-66.18411520000001,-17.431717600000002],[-66.183986,-17.431691100000002],[-66.18395240000001,-17.4316831],[-66.18370990000001,-17.4316177],[-66.183554,-17.431554600000002],[-66.183447,-17.431505],[-66.18332980000001,-17.431443700000003],[-66.1832083,-17.4313617],[-66.18302,-17.431297400000002],[-66.1823284,-17.4307613],[-66.18159610000001,-17.4301865],[-66.18116780000001,-17.429849400000002],[-66.1806062,-17.429411],[-66.1802172,-17.4291066],[-66.1795934,-17.4286184],[-66.1795769,-17.4286055],[-66.1795402,-17.428576900000003],[-66.17950350000001,-17.4285484],[-66.17942090000001,-17.4284858],[-66.1792714,-17.4283666],[-66.178464,-17.427734800000003],[-66.1779439,-17.4273379],[-66.17752080000001,-17.427006900000002],[-66.1774417,-17.426946200000003],[-66.17736260000001,-17.4268854],[-66.17708280000001,-17.4266644],[-66.1766697,-17.426341200000003],[-66.1754394,-17.4253466],[-66.17541480000001,-17.425326400000003],[-66.17533900000001,-17.425261000000003],[-66.1751873,-17.4251526],[-66.1751321,-17.425128400000002],[-66.17506560000001,-17.425113000000003],[-66.1750016,-17.4251267],[-66.17495070000001,-17.4251572],[-66.1748955,-17.4252016],[-66.17284790000001,-17.426967700000002],[-66.1719023,-17.427803200000003],[-66.1699317,-17.429487400000003],[-66.1694343,-17.429914200000002],[-66.16797670000001,-17.431178900000003],[-66.16676220000001,-17.4322298],[-66.16595050000001,-17.432932500000003],[-66.1655029,-17.4333108],[-66.16447520000001,-17.4342013],[-66.1643923,-17.4342697],[-66.16431510000001,-17.434307],[-66.1642367,-17.4343319],[-66.16407740000001,-17.4343189],[-66.163994,-17.434305600000002],[-66.1638513,-17.434275500000002],[-66.16281380000001,-17.43403],[-66.16268520000001,-17.4340136],[-66.1626006,-17.434009900000003],[-66.1623831,-17.434024800000003],[-66.1622797,-17.434029600000002],[-66.16218540000001,-17.4340042],[-66.1621222,-17.4339635],[-66.1620608,-17.4339057],[-66.16201450000001,-17.4338474],[-66.16199920000001,-17.4337908],[-66.162014,-17.433229],[-66.1614655,-17.433316100000003],[-66.16093500000001,-17.4334016],[-66.16083060000001,-17.433432900000003],[-66.16081340000001,-17.433382],[-66.16064990000001,-17.4328098],[-66.1605859,-17.432609600000003],[-66.160128,-17.430977000000002],[-66.1596591,-17.4293668],[-66.1592806,-17.428081600000002],[-66.1592069,-17.427828700000003],[-66.1591867,-17.427743900000003],[-66.159143,-17.427560000000003],[-66.15904160000001,-17.427626200000002],[-66.1588023,-17.4278383],[-66.1586738,-17.4279298],[-66.1585632,-17.4280094],[-66.15849560000001,-17.428029300000002],[-66.15841250000001,-17.428038500000003],[-66.1583488,-17.4280347],[-66.1582678,-17.428016000000003],[-66.1580443,-17.427960900000002],[-66.15785020000001,-17.427909200000002],[-66.157741,-17.427886400000002],[-66.157673,-17.4278775],[-66.15761590000001,-17.4278714],[-66.157498,-17.4278669],[-66.1574617,-17.4278689],[-66.1574247,-17.427870900000002],[-66.157359,-17.427878300000003],[-66.15715800000001,-17.4279183],[-66.15719990000001,-17.426922100000002],[-66.1572385,-17.4257424],[-66.15724030000001,-17.425681700000002],[-66.15729490000001,-17.424491600000003],[-66.1573468,-17.423553700000003],[-66.15738130000001,-17.422870900000003],[-66.157358,-17.4227573],[-66.15739500000001,-17.4217924],[-66.1573968,-17.421744],[-66.157415,-17.421268700000002],[-66.15742660000001,-17.420942800000002],[-66.1574399,-17.4205262],[-66.1574408,-17.4204939],[-66.1574454,-17.420344200000002],[-66.1574461,-17.4203231],[-66.15744910000001,-17.420225100000003],[-66.1574669,-17.419824700000003],[-66.15746800000001,-17.4198008],[-66.1574726,-17.4196975],[-66.15747470000001,-17.419645600000003],[-66.15749890000001,-17.4190587],[-66.15745150000001,-17.418701600000002],[-66.15728130000001,-17.417648600000003],[-66.15712830000001,-17.4167263],[-66.1571127,-17.4166415],[-66.1571052,-17.4165892],[-66.15693250000001,-17.4157097],[-66.1569187,-17.4156285],[-66.1568994,-17.415553600000003],[-66.15673860000001,-17.4146025],[-66.15670440000001,-17.414347000000003],[-66.15662680000001,-17.4138696],[-66.1566217,-17.4138382],[-66.1564848,-17.413078000000002],[-66.1564805,-17.4130541],[-66.1563699,-17.412436300000003],[-66.1563141,-17.4122631],[-66.15627660000001,-17.4120983],[-66.15617130000001,-17.4117384],[-66.1560072,-17.411224500000003],[-66.1559541,-17.411042700000003],[-66.15597260000001,-17.410806700000002],[-66.15599390000001,-17.410651],[-66.15606650000001,-17.410112400000003],[-66.15619650000001,-17.409290400000003],[-66.15632450000001,-17.4083979],[-66.1563907,-17.407897100000003],[-66.1564025,-17.4077582],[-66.1564075,-17.4076741],[-66.1564172,-17.407578500000003],[-66.15641910000001,-17.4074706],[-66.15645110000001,-17.4073074],[-66.15656840000001,-17.406874900000002],[-66.1566275,-17.406555100000002],[-66.15667470000001,-17.406292200000003],[-66.1568802,-17.4051487],[-66.15698090000001,-17.404591800000002],[-66.1570686,-17.4040687],[-66.15707730000001,-17.404014],[-66.1572388,-17.4029048],[-66.1567224,-17.402820900000002],[-66.1566172,-17.402825],[-66.1566179,-17.4027955],[-66.1566274,-17.4023681],[-66.1566287,-17.402312300000002],[-66.1566669,-17.4022092],[-66.1567358,-17.4008781],[-66.1567734,-17.399591700000002],[-66.15649140000001,-17.3995873],[-66.1564225,-17.399578100000003],[-66.1563588,-17.399573500000002],[-66.1553353,-17.399349100000002],[-66.15528330000001,-17.399337600000003],[-66.155229,-17.399324800000002],[-66.15427310000001,-17.399099500000002],[-66.1542062,-17.399083700000002],[-66.1541493,-17.3990703],[-66.1531927,-17.3988455],[-66.1531252,-17.398830500000003],[-66.15274790000001,-17.3987355],[-66.15272030000001,-17.3987266],[-66.15265930000001,-17.3987069],[-66.15221890000001,-17.3985461],[-66.15207910000001,-17.398505500000002],[-66.1519978,-17.3984954],[-66.15184160000001,-17.3984989],[-66.1510846,-17.398539600000003],[-66.15065700000001,-17.398596400000002],[-66.1504671,-17.398591200000002],[-66.1499407,-17.398552900000002],[-66.14849310000001,-17.398454700000002],[-66.148511,-17.398367800000003],[-66.1485231,-17.398308800000002],[-66.1486874,-17.3975094],[-66.1486986,-17.3974593],[-66.14871120000001,-17.3973963],[-66.1487809,-17.397047],[-66.14881580000001,-17.396872000000002],[-66.1488764,-17.396568300000002],[-66.1488961,-17.3964633],[-66.1489511,-17.3961794],[-66.1489617,-17.3961286],[-66.1490339,-17.395780900000002],[-66.14915570000001,-17.3951858],[-66.149167,-17.395129200000003],[-66.1491829,-17.395060400000002],[-66.1492372,-17.394778300000002],[-66.1493039,-17.394431500000003],[-66.1493561,-17.3941416],[-66.1493544,-17.394092500000003],[-66.1493561,-17.394017700000003],[-66.1495434,-17.393104800000003],[-66.14955570000001,-17.393052200000003],[-66.1495696,-17.3929855],[-66.1497525,-17.3920777],[-66.1497628,-17.3920265],[-66.14977370000001,-17.391967400000002],[-66.1498584,-17.3915058],[-66.14993820000001,-17.391094000000002],[-66.14995180000001,-17.391033500000002],[-66.14996670000001,-17.3909479],[-66.14997810000001,-17.390874],[-66.15009660000001,-17.390268900000002],[-66.15018280000001,-17.3898291],[-66.1501946,-17.3897684],[-66.15014330000001,-17.389758200000003],[-66.1500862,-17.3897464],[-66.1500285,-17.3896792],[-66.1499919,-17.389626900000003],[-66.14985870000001,-17.3894366],[-66.1496274,-17.3891111],[-66.14944530000001,-17.3888366],[-66.1493179,-17.388644900000003],[-66.148589,-17.3875935],[-66.1484621,-17.3874105],[-66.14843490000001,-17.387371400000003],[-66.14833270000001,-17.387223900000002],[-66.14830710000001,-17.387187400000002],[-66.14793540000001,-17.386657500000002],[-66.14772880000001,-17.386363000000003],[-66.14756630000001,-17.386131300000002],[-66.1475078,-17.386042500000002],[-66.147457,-17.385965300000002],[-66.1474046,-17.385888700000002],[-66.1462893,-17.3842572],[-66.1462628,-17.3842184],[-66.14622080000001,-17.3841579],[-66.14619420000001,-17.384118800000003],[-66.145645,-17.3833109],[-66.1450688,-17.3824723],[-66.14499590000001,-17.3823672],[-66.1442653,-17.3813172],[-66.1442009,-17.3812213],[-66.14385630000001,-17.380725400000003],[-66.14314370000001,-17.3796697],[-66.1429952,-17.379450900000002],[-66.142953,-17.3793846],[-66.14288610000001,-17.379298600000002],[-66.14285310000001,-17.3792608],[-66.1428114,-17.3792329],[-66.14274680000001,-17.3792082],[-66.1424977,-17.3791209],[-66.142442,-17.379105300000003],[-66.1423972,-17.379096200000003],[-66.1423486,-17.3790869],[-66.1423139,-17.3790847],[-66.1423073,-17.379092800000002],[-66.1423,-17.3791003],[-66.14228750000001,-17.379110500000003],[-66.1422737,-17.3791189],[-66.14224390000001,-17.3791297],[-66.14221230000001,-17.379132600000002],[-66.1421811,-17.3791273],[-66.1421524,-17.3791143],[-66.14212850000001,-17.379095600000003],[-66.14211780000001,-17.379081300000003],[-66.14210940000001,-17.379066700000003],[-66.14210480000001,-17.379056000000002],[-66.142099,-17.379032600000002],[-66.1420987,-17.379009200000002],[-66.1421036,-17.3789863],[-66.1421134,-17.378964800000002],[-66.14212780000001,-17.3789459],[-66.142145,-17.3789294],[-66.14211610000001,-17.3788783],[-66.14216560000001,-17.3784026],[-66.14218740000001,-17.378126400000003],[-66.14222570000001,-17.377979500000002],[-66.14223430000001,-17.3778571],[-66.14223030000001,-17.377773700000002],[-66.1422199,-17.3776949],[-66.1421909,-17.3776639],[-66.14217310000001,-17.3776255],[-66.14216710000001,-17.377586],[-66.14217070000001,-17.3775543],[-66.1421773,-17.377529600000003],[-66.14219340000001,-17.377495200000002],[-66.142222,-17.3774681],[-66.14225540000001,-17.3774507],[-66.14229470000001,-17.3774383],[-66.1423194,-17.3774203],[-66.14233460000001,-17.3774054],[-66.1423592,-17.3773105],[-66.14246,-17.376944400000003],[-66.1424636,-17.376928900000003],[-66.142464,-17.376924900000002],[-66.1424703,-17.3768683],[-66.1424748,-17.3768274],[-66.142481,-17.3767615],[-66.14251820000001,-17.376325],[-66.1425282,-17.376219600000002],[-66.1425928,-17.375760800000002],[-66.14265420000001,-17.3753253],[-66.1426953,-17.375031],[-66.14270520000001,-17.374962800000002],[-66.14271830000001,-17.3748676],[-66.142819,-17.374184500000002],[-66.1428047,-17.3741261],[-66.1427764,-17.374057200000003],[-66.14268050000001,-17.3739877],[-66.14263460000001,-17.373939500000002],[-66.1426047,-17.373879000000002],[-66.14259750000001,-17.3738446],[-66.1425861,-17.3737841],[-66.1425906,-17.3736961],[-66.1426187,-17.3736122],[-66.14265400000001,-17.3735557],[-66.1426742,-17.373532200000003],[-66.1427001,-17.3735067],[-66.14272790000001,-17.373355],[-66.14273220000001,-17.373298100000003],[-66.14273220000001,-17.373234200000002],[-66.14258290000001,-17.3725963],[-66.1424698,-17.372114500000002],[-66.14246370000001,-17.372088400000003],[-66.14243970000001,-17.371972900000003],[-66.1424198,-17.371879],[-66.1424119,-17.3718444],[-66.142142,-17.3705959],[-66.14212850000001,-17.3705432],[-66.14210940000001,-17.370423300000002],[-66.1421037,-17.3703697],[-66.14208090000001,-17.370198600000002],[-66.1422196,-17.3701016],[-66.14237890000001,-17.369989500000003],[-66.14287200000001,-17.369656000000003],[-66.143493,-17.369258400000003],[-66.1435921,-17.3692071],[-66.14370260000001,-17.369170200000003],[-66.1441731,-17.369045900000003],[-66.14428240000001,-17.369010600000003],[-66.1457798,-17.368433900000003],[-66.14683840000001,-17.3680255],[-66.14820730000001,-17.3674955],[-66.1486046,-17.3673417],[-66.1487481,-17.367273],[-66.1488516,-17.367217500000002],[-66.1490438,-17.3671247],[-66.1491479,-17.3670836],[-66.14923180000001,-17.367054500000002],[-66.14932080000001,-17.3670273],[-66.1495022,-17.366978800000002],[-66.1496505,-17.366962100000002],[-66.1504029,-17.366886500000003],[-66.1509312,-17.366841800000003],[-66.1510478,-17.366833],[-66.1515609,-17.3667944],[-66.15196920000001,-17.3667771],[-66.15204720000001,-17.3667714],[-66.15209,-17.366768500000003],[-66.15299470000001,-17.366689],[-66.15381040000001,-17.3666263],[-66.154347,-17.366581200000002],[-66.1546838,-17.366550500000002],[-66.1554203,-17.3664878],[-66.15556950000001,-17.3664817],[-66.1557343,-17.366487300000003],[-66.1562617,-17.3664296],[-66.1563661,-17.366418200000002],[-66.15646120000001,-17.366408500000002],[-66.1568409,-17.36636],[-66.15690330000001,-17.3663369],[-66.1569896,-17.366299],[-66.1570796,-17.3662518],[-66.15757810000001,-17.3659639],[-66.1577405,-17.365891100000002],[-66.1578815,-17.365832400000002],[-66.1579509,-17.3658147],[-66.15885080000001,-17.3656067],[-66.1600932,-17.3653787],[-66.1604705,-17.365310100000002],[-66.16088760000001,-17.365234200000003],[-66.16213060000001,-17.364983300000002],[-66.1622025,-17.364970500000002],[-66.1623189,-17.364940800000003],[-66.1627945,-17.364826200000003],[-66.1630957,-17.364727100000003],[-66.1635395,-17.364562300000003],[-66.1637858,-17.3644742],[-66.16399770000001,-17.3643979],[-66.1640296,-17.3643864],[-66.1640847,-17.3643666],[-66.1645031,-17.364216000000003],[-66.1645649,-17.364193800000002],[-66.1648201,-17.364099000000003],[-66.16504540000001,-17.3640194],[-66.1650771,-17.3640082],[-66.1659841,-17.3636744],[-66.1660404,-17.3636537],[-66.16685600000001,-17.363353200000002],[-66.16712530000001,-17.3632491],[-66.1676303,-17.363067100000002],[-66.16768040000001,-17.363049],[-66.1677598,-17.3630208],[-66.16836160000001,-17.362807],[-66.16844540000001,-17.362762200000002],[-66.1685666,-17.362659400000002],[-66.16868810000001,-17.362550900000002],[-66.1689327,-17.362332300000002],[-66.1689492,-17.362317800000003]],"nodes":[1629156559,1629156407,1629156610,1629156329,1629156490,1629156710,1629156703,1629156696,1629156626,1629156738,3690444441,1629156395,3690444479,3690444492,1629156690,3690444515,3690444639,9454048408,3690444691,9454048400,10826826562,3690444811,11109231552,3690444808,3690444805,1617619407,3690444796,3690444793,1617619630,3690444790,11109231581,3690444794,3690444797,3690444801,1617619677,3690444821,3690444822,3690444824,3690444926,1617619470,1617619667,3690444928,11109250840,3690444816,3690444774,3690444765,3690444759,3690444755,1617619627,3687313584,3687313583,3687313581,1617619584,1626959604,9470367828,1617619437,9470367826,9470343800,3690444275,9470343797,3690444264,12462397021,12462397025,12462397023,9454048415,1626959072,1626958811,9470367818,1617619479,3690444009,3686023209,3690443967,12462397032,8995043286,3686023194,3686023193,3690440613,2976928540,3686023136,11943965423,2976928539,1617619594,1617619516,1626959297,2976928027,12616586650,1626959210,11054281929,1626958487,13088482153,3684931901,780226870,3684931900,13055658876,3684931903,1626959127,10803337065,10803337069,3313353256,780226729,11943965404,11943965405,8766456978,3313353244,8995040994,8995042869,740520282,12458052679,8995040993,7965690216,12564375413,12564375411,13157256886,13149493546,8995040992,12564375409,3017405806,8766456985,12458052688,12564357766,12458052687,12458052684,3017405810,13157367544,13157367545,3017405803,13140654988,11054281987,8995040984,13140654987,740520290,13165567831,3783943811,3783943821,3017405773,3017405800,3017405761,5314054917,3017405760,3017397731,740520294,3313353375,3313353377,740520296,3313353378,3313353379,3017405737,740520299,13140654986,1637702802,3313353373,13140654984,8263292315,7072704938,7072704941,7072704942,7072704944,7072704945,10278969577,2149915995,2149916028,8995043198,4414201833,2149899998,2149899991,1499934350,5359565138,3307473564,3307473565,1499934256,3307354249,1638807933,3307354256,1638807940,3307354260,1638807942,1638807937,3307354258,1615155235,1638807932,1638807929,3307354252,6322278222,1638807928,10272505618,1638807931,3307354254,1499573815,2149915998,3307354186,1499573799,2022073886,1807087153,1497953241,1499573842,7768396089,1497953245,7768396075,1499573838,7768396132,13383715983,12519463525,12519463520,1497953244,13067849852,13067849842,4679599408,13067849850,3307231669,1499934219,1499934269,5433895293,1499934359,5433895295,5433999185,1499934373,5433999188,1499934251,3709607020,11727597289,319753997,497189945,11727597291,3709606820,3709606817,1499934277,1527822563,6563373032,1499934333,2763553621,2763553615,560101173,843386144,2763553572,8226219193,2636956076,2763553565,2763553549,2763553542,702511616,2763553534,2763553531,8637299570,843383240,4127346519,310262303,9090462295,310262502,2577975251,323978848,10246104209,10246104210,2765190400,323982551,323978402,648548697,2577975059,310502881,9916058950,3674274544,648548822,3674274543,12081159181,310503081,12081159184,648548911,8238783223,2765190381,8238783128,8238783125,648548895,2765190366,9121686926,2765190364,648548806,2303485417,648548748,648548725,648548704,315031543,8515841687,8515841685,308297685,8515841684,2892642981,2892642977,8398265984,315098242,303217531,9121465672,8515841707,5018719455,303217532,5018719458,2303485397,2303485390,9121465671,303217533,8398265924,3924761796,303215162,3924761795,8515866923,303217534,5309804691,1851061835,2866813904,698492413,303214820,2866811499,13041417514,9591270798,303217664,2470422220,2295135876,9400884786,9591270797,8568166668,2470422192,3201986226,315096054,1720012828,6179473251,6179485008,1720012825,6179473246,2160406974,11827181929,360137304,6179473097,6179473092,6179473100,9930862747,2361168091,1720012829,9930862750,2391341791,1720012832,10854297125,3676912942,1637465106,1637456494,2391341672,8379904318,1795293361,1795293283,8379904344,2391341654,1795293294,1795293399,2391341631,8379904365,9353076787,9353076786,9353076784,2391341617,8379904346,2391341633,2391341636,2391341635,6331635784,8379904364,2334193728,8379904363,5726456926,9353076793,9353076789,9353076792,9353076790,9976027044,2391341593,2391341542,8172711431,5726313467,9047064017,1795293265,11081772341,8379904390,1795293379,1795293373,1795293274,1795293317,8385093438,1795293364,1795293348,1795293368,8385093437,1795293310,9007531385,2391341224,2389107311,2466162853,602989599,11081730876,8385093445,8385091887,2389107301,391733772,8373677219,8373677217,8373677221,2590032490,698492587,2590032474,2126674187,2126674171,1785473496,8509264306,10830782194,10830782195,1785473517,9404086355,1785473267,1785473202,8509264301,10830782197,1785473632,1785473439,8509264375,601872810,8616654863,11026980047,8616654973,601872818,9192234376,2389107104,602990178,2590032444,9579636304,602990134,602990175,602990176,2317602326,601871217,601871222,9192221177,2126669872,601871229,9103450747,601871234,808079860,808079044,2126669437,2126669425,602990071,602990057,9824095688,8639390435,2126669377,601871264,2126669363,2126669353,601871273,9824105241,3272215586,7050309138,1579006617,7050309140,601871281,1579006489,2126669329,1579006537,9779782579,601871289,9065772017,4925510977,602990007,4925510972,601871293,3674250325,602989972,2126669307,2126669290,2126669284,601871320,2126669281,601871327,1579006531,2673712738,1579031384,2673712700,5541052596,601871347,2673712693,2673712686,601871357,10765280541,10765280543,10765280555,10765280556,10765459097,1950939523,1950932451,6150035686,10765280598,10765280636,1579031288,1391375697,9948803820,10765459058,1527822556,10765459060,9878269977,601871408,811023468,10765459047,9878269978,1862351151]},"gtfs":{"agency_id":10,"route_id":70,"services":[{"service_id":"Mo-Su","startTime":"06:00","endTime":"22:00","trip_id":10626424}],"filteredStops":{"nodes":[1629156559,1629156407,1629156610,1629156329,1629156490,1629156710,1629156703,1629156696,1629156626,1629156738,3690444441,1629156395,3690444479,3690444492,1629156690,3690444515,3690444639,9454048408,3690444691,9454048400,10826826562,3690444811,11109231552,3690444808,3690444805,1617619407,3690444796,3690444793,1617619630,3690444790,11109231581,3690444794,3690444797,3690444801,1617619677,3690444821,3690444822,3690444824,3690444926,1617619470,1617619667,3690444928,11109250840,3690444816,3690444774,3690444765,3690444759,3690444755,1617619627,3687313584,3687313583,3687313581,1617619584,1626959604,9470367828,1617619437,9470367826,9470343800,3690444275,9470343797,3690444264,12462397021,12462397025,12462397023,9454048415,1626959072,1626958811,9470367818,1617619479,3690444009,3686023209,3690443967,12462397032,8995043286,3686023194,3686023193,3690440613,2976928540,3686023136,11943965423,2976928539,1617619594,1617619516,1626959297,2976928027,12616586650,1626959210,11054281929,1626958487,13088482153,3684931901,780226870,3684931900,13055658876,3684931903,1626959127,10803337065,10803337069,3313353256,780226729,11943965404,11943965405,8766456978,3313353244,8995040994,8995042869,740520282,12458052679,8995040993,7965690216,12564375413,12564375411,13157256886,13149493546,8995040992,12564375409,3017405806,8766456985,12458052688,12564357766,12458052687,12458052684,3017405810,13157367544,13157367545,3017405803,13140654988,11054281987,8995040984,13140654987,740520290,13165567831,3783943811,3783943821,3017405773,3017405800,3017405761,5314054917,3017405760,3017397731,740520294,3313353375,3313353377,740520296,3313353378,3313353379,3017405737,740520299,13140654986,1637702802,3313353373,13140654984,8263292315,7072704938,7072704941,7072704942,7072704944,7072704945,10278969577,2149915995,2149916028,8995043198,4414201833,2149899998,2149899991,1499934350,5359565138,3307473564,3307473565,1499934256,3307354249,1638807933,3307354256,1638807940,3307354260,1638807942,1638807937,3307354258,1615155235,1638807932,1638807929,3307354252,6322278222,1638807928,10272505618,1638807931,3307354254,1499573815,2149915998,3307354186,1499573799,2022073886,1807087153,1497953241,1499573842,7768396089,1497953245,7768396075,1499573838,7768396132,13383715983,12519463525,12519463520,1497953244,13067849852,13067849842,4679599408,13067849850,3307231669,1499934219,1499934269,5433895293,1499934359,5433895295,5433999185,1499934373,5433999188,1499934251,3709607020,11727597289,319753997,497189945,11727597291,3709606820,3709606817,1499934277,1527822563,6563373032,1499934333,2763553621,2763553615,560101173,843386144,2763553572,8226219193,2636956076,2763553565,2763553549,2763553542,702511616,2763553534,2763553531,8637299570,843383240,4127346519,310262303,9090462295,310262502,2577975251,323978848,10246104209,10246104210,2765190400,323982551,323978402,648548697,2577975059,310502881,9916058950,3674274544,648548822,3674274543,12081159181,310503081,12081159184,648548911,8238783223,2765190381,8238783128,8238783125,648548895,2765190366,9121686926,2765190364,648548806,2303485417,648548748,648548725,648548704,315031543,8515841687,8515841685,308297685,8515841684,2892642981,2892642977,8398265984,315098242,303217531,9121465672,8515841707,5018719455,303217532,5018719458,2303485397,2303485390,9121465671,303217533,8398265924,3924761796,303215162,3924761795,8515866923,303217534,5309804691,1851061835,2866813904,698492413,303214820,2866811499,13041417514,9591270798,303217664,2470422220,2295135876,9400884786,9591270797,8568166668,2470422192,3201986226,315096054,1720012828,6179473251,6179485008,1720012825,6179473246,2160406974,11827181929,360137304,6179473097,6179473092,6179473100,9930862747,2361168091,1720012829,9930862750,2391341791,1720012832,10854297125,3676912942,1637465106,1637456494,2391341672,8379904318,1795293361,1795293283,8379904344,2391341654,1795293294,1795293399,2391341631,8379904365,9353076787,9353076786,9353076784,2391341617,8379904346,2391341633,2391341636,2391341635,6331635784,8379904364,2334193728,8379904363,5726456926,9353076793,9353076789,9353076792,9353076790,9976027044,2391341593,2391341542,8172711431,5726313467,9047064017,1795293265,11081772341,8379904390,1795293379,1795293373,1795293274,1795293317,8385093438,1795293364,1795293348,1795293368,8385093437,1795293310,9007531385,2391341224,2389107311,2466162853,602989599,11081730876,8385093445,8385091887,2389107301,391733772,8373677219,8373677217,8373677221,2590032490,698492587,2590032474,2126674187,2126674171,1785473496,8509264306,10830782194,10830782195,1785473517,9404086355,1785473267,1785473202,8509264301,10830782197,1785473632,1785473439,8509264375,601872810,8616654863,11026980047,8616654973,601872818,9192234376,2389107104,602990178,2590032444,9579636304,602990134,602990175,602990176,2317602326,601871217,601871222,9192221177,2126669872,601871229,9103450747,601871234,808079860,808079044,2126669437,2126669425,602990071,602990057,9824095688,8639390435,2126669377,601871264,2126669363,2126669353,601871273,9824105241,3272215586,7050309138,1579006617,7050309140,601871281,1579006489,2126669329,1579006537,9779782579,601871289,9065772017,4925510977,602990007,4925510972,601871293,3674250325,602989972,2126669307,2126669290,2126669284,601871320,2126669281,601871327,1579006531,2673712738,1579031384,2673712700,5541052596,601871347,2673712693,2673712686,601871357,10765280541,10765280543,10765280555,10765280556,10765459097,1950939523,1950932451,6150035686,10765280598,10765280636,1579031288,1391375697,9948803820,10765459058,1527822556,10765459060,9878269977,601871408,811023468,10765459047,9878269978,1862351151],"coordinates":[[-66.2121374,-17.4486944],[-66.21144600000001,-17.4484467],[-66.2115397,-17.447955800000003],[-66.21162480000001,-17.447472],[-66.2117346,-17.4469782],[-66.2110222,-17.4467162],[-66.20999,-17.446344200000002],[-66.2098818,-17.4468438],[-66.20977620000001,-17.447331700000003],[-66.2096703,-17.447821],[-66.2096049,-17.4481229],[-66.20956620000001,-17.448305400000002],[-66.2094519,-17.448843800000002],[-66.20942360000001,-17.4489769],[-66.20867750000001,-17.4488233],[-66.20856730000001,-17.4494346],[-66.2084732,-17.449844000000002],[-66.20844740000001,-17.449940400000003],[-66.2082834,-17.450551700000002],[-66.2081713,-17.450969500000003],[-66.20812260000001,-17.451161900000002],[-66.20788660000001,-17.4520932],[-66.2078116,-17.452090300000002],[-66.20736020000001,-17.4520725],[-66.2070599,-17.452041],[-66.2066382,-17.451975700000002],[-66.20631130000001,-17.451933],[-66.2060419,-17.4519036],[-66.2057759,-17.451886000000002],[-66.2055412,-17.4518884],[-66.2054485,-17.451898800000002],[-66.2053298,-17.451912200000002],[-66.2051244,-17.451952300000002],[-66.2048929,-17.4520187],[-66.20456940000001,-17.452144200000003],[-66.20407680000001,-17.452344800000002],[-66.20397960000001,-17.452377400000003],[-66.2035992,-17.4524955],[-66.20335010000001,-17.4525858],[-66.20300180000001,-17.452712100000003],[-66.20278850000001,-17.452764000000002],[-66.20273010000001,-17.452692300000002],[-66.2026616,-17.452665600000003],[-66.2022766,-17.4523037],[-66.20161940000001,-17.4517032],[-66.2014783,-17.451582300000002],[-66.2013848,-17.451467700000002],[-66.20131330000001,-17.451362600000003],[-66.2012526,-17.4511708],[-66.2011849,-17.4508264],[-66.20113640000001,-17.4506018],[-66.20103560000001,-17.450312200000003],[-66.2003052,-17.4485919],[-66.19997640000001,-17.4478486],[-66.1998147,-17.447469],[-66.1997747,-17.447375100000002],[-66.1996682,-17.4471171],[-66.19943040000001,-17.446541200000002],[-66.19937800000001,-17.4464143],[-66.1990557,-17.4456339],[-66.1990229,-17.445554400000002],[-66.19898140000001,-17.4454539],[-66.19891670000001,-17.4452973],[-66.1988378,-17.4451062],[-66.198632,-17.444607700000002],[-66.1985976,-17.444524400000002],[-66.19825060000001,-17.4436605],[-66.198116,-17.443350900000002],[-66.19805880000001,-17.4431854],[-66.1975647,-17.4419843],[-66.1969545,-17.4405128],[-66.19690680000001,-17.440387400000002],[-66.1965313,-17.4394011],[-66.19636170000001,-17.438955800000002],[-66.1961823,-17.438481200000002],[-66.1960004,-17.4381798],[-66.1957368,-17.437794],[-66.1946642,-17.436170200000003],[-66.1941061,-17.4353121],[-66.1937824,-17.4348111],[-66.1936924,-17.4346718],[-66.1934258,-17.434267700000003],[-66.192711,-17.4332004],[-66.19266680000001,-17.433190500000002],[-66.19174960000001,-17.4330076],[-66.19071050000001,-17.432804200000003],[-66.19029130000001,-17.4327076],[-66.18891430000001,-17.4324243],[-66.18651790000001,-17.4319366],[-66.1856745,-17.431762900000003],[-66.18550130000001,-17.4317272],[-66.1852375,-17.4316864],[-66.185084,-17.4316818],[-66.1845854,-17.431735800000002],[-66.18448020000001,-17.4317472],[-66.18424970000001,-17.431734600000002],[-66.18411520000001,-17.431717600000002],[-66.183986,-17.431691100000002],[-66.18395240000001,-17.4316831],[-66.18370990000001,-17.4316177],[-66.183554,-17.431554600000002],[-66.183447,-17.431505],[-66.18332980000001,-17.431443700000003],[-66.1832083,-17.4313617],[-66.18302,-17.431297400000002],[-66.1823284,-17.4307613],[-66.18159610000001,-17.4301865],[-66.18116780000001,-17.429849400000002],[-66.1806062,-17.429411],[-66.1802172,-17.4291066],[-66.1795934,-17.4286184],[-66.1795769,-17.4286055],[-66.1795402,-17.428576900000003],[-66.17950350000001,-17.4285484],[-66.17942090000001,-17.4284858],[-66.1792714,-17.4283666],[-66.178464,-17.427734800000003],[-66.1779439,-17.4273379],[-66.17752080000001,-17.427006900000002],[-66.1774417,-17.426946200000003],[-66.17736260000001,-17.4268854],[-66.17708280000001,-17.4266644],[-66.1766697,-17.426341200000003],[-66.1754394,-17.4253466],[-66.17541480000001,-17.425326400000003],[-66.17533900000001,-17.425261000000003],[-66.1751873,-17.4251526],[-66.1751321,-17.425128400000002],[-66.17506560000001,-17.425113000000003],[-66.1750016,-17.4251267],[-66.17495070000001,-17.4251572],[-66.1748955,-17.4252016],[-66.17284790000001,-17.426967700000002],[-66.1719023,-17.427803200000003],[-66.1699317,-17.429487400000003],[-66.1694343,-17.429914200000002],[-66.16797670000001,-17.431178900000003],[-66.16676220000001,-17.4322298],[-66.16595050000001,-17.432932500000003],[-66.1655029,-17.4333108],[-66.16447520000001,-17.4342013],[-66.1643923,-17.4342697],[-66.16431510000001,-17.434307],[-66.1642367,-17.4343319],[-66.16407740000001,-17.4343189],[-66.163994,-17.434305600000002],[-66.1638513,-17.434275500000002],[-66.16281380000001,-17.43403],[-66.16268520000001,-17.4340136],[-66.1626006,-17.434009900000003],[-66.1623831,-17.434024800000003],[-66.1622797,-17.434029600000002],[-66.16218540000001,-17.4340042],[-66.1621222,-17.4339635],[-66.1620608,-17.4339057],[-66.16201450000001,-17.4338474],[-66.16199920000001,-17.4337908],[-66.162014,-17.433229],[-66.1614655,-17.433316100000003],[-66.16093500000001,-17.4334016],[-66.16083060000001,-17.433432900000003],[-66.16081340000001,-17.433382],[-66.16064990000001,-17.4328098],[-66.1605859,-17.432609600000003],[-66.160128,-17.430977000000002],[-66.1596591,-17.4293668],[-66.1592806,-17.428081600000002],[-66.1592069,-17.427828700000003],[-66.1591867,-17.427743900000003],[-66.159143,-17.427560000000003],[-66.15904160000001,-17.427626200000002],[-66.1588023,-17.4278383],[-66.1586738,-17.4279298],[-66.1585632,-17.4280094],[-66.15849560000001,-17.428029300000002],[-66.15841250000001,-17.428038500000003],[-66.1583488,-17.4280347],[-66.1582678,-17.428016000000003],[-66.1580443,-17.427960900000002],[-66.15785020000001,-17.427909200000002],[-66.157741,-17.427886400000002],[-66.157673,-17.4278775],[-66.15761590000001,-17.4278714],[-66.157498,-17.4278669],[-66.1574617,-17.4278689],[-66.1574247,-17.427870900000002],[-66.157359,-17.427878300000003],[-66.15715800000001,-17.4279183],[-66.15719990000001,-17.426922100000002],[-66.1572385,-17.4257424],[-66.15724030000001,-17.425681700000002],[-66.15729490000001,-17.424491600000003],[-66.1573468,-17.423553700000003],[-66.15738130000001,-17.422870900000003],[-66.157358,-17.4227573],[-66.15739500000001,-17.4217924],[-66.1573968,-17.421744],[-66.157415,-17.421268700000002],[-66.15742660000001,-17.420942800000002],[-66.1574399,-17.4205262],[-66.1574408,-17.4204939],[-66.1574454,-17.420344200000002],[-66.1574461,-17.4203231],[-66.15744910000001,-17.420225100000003],[-66.1574669,-17.419824700000003],[-66.15746800000001,-17.4198008],[-66.1574726,-17.4196975],[-66.15747470000001,-17.419645600000003],[-66.15749890000001,-17.4190587],[-66.15745150000001,-17.418701600000002],[-66.15728130000001,-17.417648600000003],[-66.15712830000001,-17.4167263],[-66.1571127,-17.4166415],[-66.1571052,-17.4165892],[-66.15693250000001,-17.4157097],[-66.1569187,-17.4156285],[-66.1568994,-17.415553600000003],[-66.15673860000001,-17.4146025],[-66.15670440000001,-17.414347000000003],[-66.15662680000001,-17.4138696],[-66.1566217,-17.4138382],[-66.1564848,-17.413078000000002],[-66.1564805,-17.4130541],[-66.1563699,-17.412436300000003],[-66.1563141,-17.4122631],[-66.15627660000001,-17.4120983],[-66.15617130000001,-17.4117384],[-66.1560072,-17.411224500000003],[-66.1559541,-17.411042700000003],[-66.15597260000001,-17.410806700000002],[-66.15599390000001,-17.410651],[-66.15606650000001,-17.410112400000003],[-66.15619650000001,-17.409290400000003],[-66.15632450000001,-17.4083979],[-66.1563907,-17.407897100000003],[-66.1564025,-17.4077582],[-66.1564075,-17.4076741],[-66.1564172,-17.407578500000003],[-66.15641910000001,-17.4074706],[-66.15645110000001,-17.4073074],[-66.15656840000001,-17.406874900000002],[-66.1566275,-17.406555100000002],[-66.15667470000001,-17.406292200000003],[-66.1568802,-17.4051487],[-66.15698090000001,-17.404591800000002],[-66.1570686,-17.4040687],[-66.15707730000001,-17.404014],[-66.1572388,-17.4029048],[-66.1567224,-17.402820900000002],[-66.1566172,-17.402825],[-66.1566179,-17.4027955],[-66.1566274,-17.4023681],[-66.1566287,-17.402312300000002],[-66.1566669,-17.4022092],[-66.1567358,-17.4008781],[-66.1567734,-17.399591700000002],[-66.15649140000001,-17.3995873],[-66.1564225,-17.399578100000003],[-66.1563588,-17.399573500000002],[-66.1553353,-17.399349100000002],[-66.15528330000001,-17.399337600000003],[-66.155229,-17.399324800000002],[-66.15427310000001,-17.399099500000002],[-66.1542062,-17.399083700000002],[-66.1541493,-17.3990703],[-66.1531927,-17.3988455],[-66.1531252,-17.398830500000003],[-66.15274790000001,-17.3987355],[-66.15272030000001,-17.3987266],[-66.15265930000001,-17.3987069],[-66.15221890000001,-17.3985461],[-66.15207910000001,-17.398505500000002],[-66.1519978,-17.3984954],[-66.15184160000001,-17.3984989],[-66.1510846,-17.398539600000003],[-66.15065700000001,-17.398596400000002],[-66.1504671,-17.398591200000002],[-66.1499407,-17.398552900000002],[-66.14849310000001,-17.398454700000002],[-66.148511,-17.398367800000003],[-66.1485231,-17.398308800000002],[-66.1486874,-17.3975094],[-66.1486986,-17.3974593],[-66.14871120000001,-17.3973963],[-66.1487809,-17.397047],[-66.14881580000001,-17.396872000000002],[-66.1488764,-17.396568300000002],[-66.1488961,-17.3964633],[-66.1489511,-17.3961794],[-66.1489617,-17.3961286],[-66.1490339,-17.395780900000002],[-66.14915570000001,-17.3951858],[-66.149167,-17.395129200000003],[-66.1491829,-17.395060400000002],[-66.1492372,-17.394778300000002],[-66.1493039,-17.394431500000003],[-66.1493561,-17.3941416],[-66.1493544,-17.394092500000003],[-66.1493561,-17.394017700000003],[-66.1495434,-17.393104800000003],[-66.14955570000001,-17.393052200000003],[-66.1495696,-17.3929855],[-66.1497525,-17.3920777],[-66.1497628,-17.3920265],[-66.14977370000001,-17.391967400000002],[-66.1498584,-17.3915058],[-66.14993820000001,-17.391094000000002],[-66.14995180000001,-17.391033500000002],[-66.14996670000001,-17.3909479],[-66.14997810000001,-17.390874],[-66.15009660000001,-17.390268900000002],[-66.15018280000001,-17.3898291],[-66.1501946,-17.3897684],[-66.15014330000001,-17.389758200000003],[-66.1500862,-17.3897464],[-66.1500285,-17.3896792],[-66.1499919,-17.389626900000003],[-66.14985870000001,-17.3894366],[-66.1496274,-17.3891111],[-66.14944530000001,-17.3888366],[-66.1493179,-17.388644900000003],[-66.148589,-17.3875935],[-66.1484621,-17.3874105],[-66.14843490000001,-17.387371400000003],[-66.14833270000001,-17.387223900000002],[-66.14830710000001,-17.387187400000002],[-66.14793540000001,-17.386657500000002],[-66.14772880000001,-17.386363000000003],[-66.14756630000001,-17.386131300000002],[-66.1475078,-17.386042500000002],[-66.147457,-17.385965300000002],[-66.1474046,-17.385888700000002],[-66.1462893,-17.3842572],[-66.1462628,-17.3842184],[-66.14622080000001,-17.3841579],[-66.14619420000001,-17.384118800000003],[-66.145645,-17.3833109],[-66.1450688,-17.3824723],[-66.14499590000001,-17.3823672],[-66.1442653,-17.3813172],[-66.1442009,-17.3812213],[-66.14385630000001,-17.380725400000003],[-66.14314370000001,-17.3796697],[-66.1429952,-17.379450900000002],[-66.142953,-17.3793846],[-66.14288610000001,-17.379298600000002],[-66.14285310000001,-17.3792608],[-66.1428114,-17.3792329],[-66.14274680000001,-17.3792082],[-66.1424977,-17.3791209],[-66.142442,-17.379105300000003],[-66.1423972,-17.379096200000003],[-66.1423486,-17.3790869],[-66.1423139,-17.3790847],[-66.1423073,-17.379092800000002],[-66.1423,-17.3791003],[-66.14228750000001,-17.379110500000003],[-66.1422737,-17.3791189],[-66.14224390000001,-17.3791297],[-66.14221230000001,-17.379132600000002],[-66.1421811,-17.3791273],[-66.1421524,-17.3791143],[-66.14212850000001,-17.379095600000003],[-66.14211780000001,-17.379081300000003],[-66.14210940000001,-17.379066700000003],[-66.14210480000001,-17.379056000000002],[-66.142099,-17.379032600000002],[-66.1420987,-17.379009200000002],[-66.1421036,-17.3789863],[-66.1421134,-17.378964800000002],[-66.14212780000001,-17.3789459],[-66.142145,-17.3789294],[-66.14211610000001,-17.3788783],[-66.14216560000001,-17.3784026],[-66.14218740000001,-17.378126400000003],[-66.14222570000001,-17.377979500000002],[-66.14223430000001,-17.3778571],[-66.14223030000001,-17.377773700000002],[-66.1422199,-17.3776949],[-66.1421909,-17.3776639],[-66.14217310000001,-17.3776255],[-66.14216710000001,-17.377586],[-66.14217070000001,-17.3775543],[-66.1421773,-17.377529600000003],[-66.14219340000001,-17.377495200000002],[-66.142222,-17.3774681],[-66.14225540000001,-17.3774507],[-66.14229470000001,-17.3774383],[-66.1423194,-17.3774203],[-66.14233460000001,-17.3774054],[-66.1423592,-17.3773105],[-66.14246,-17.376944400000003],[-66.1424636,-17.376928900000003],[-66.142464,-17.376924900000002],[-66.1424703,-17.3768683],[-66.1424748,-17.3768274],[-66.142481,-17.3767615],[-66.14251820000001,-17.376325],[-66.1425282,-17.376219600000002],[-66.1425928,-17.375760800000002],[-66.14265420000001,-17.3753253],[-66.1426953,-17.375031],[-66.14270520000001,-17.374962800000002],[-66.14271830000001,-17.3748676],[-66.142819,-17.374184500000002],[-66.1428047,-17.3741261],[-66.1427764,-17.374057200000003],[-66.14268050000001,-17.3739877],[-66.14263460000001,-17.373939500000002],[-66.1426047,-17.373879000000002],[-66.14259750000001,-17.3738446],[-66.1425861,-17.3737841],[-66.1425906,-17.3736961],[-66.1426187,-17.3736122],[-66.14265400000001,-17.3735557],[-66.1426742,-17.373532200000003],[-66.1427001,-17.3735067],[-66.14272790000001,-17.373355],[-66.14273220000001,-17.373298100000003],[-66.14273220000001,-17.373234200000002],[-66.14258290000001,-17.3725963],[-66.1424698,-17.372114500000002],[-66.14246370000001,-17.372088400000003],[-66.14243970000001,-17.371972900000003],[-66.1424198,-17.371879],[-66.1424119,-17.3718444],[-66.142142,-17.3705959],[-66.14212850000001,-17.3705432],[-66.14210940000001,-17.370423300000002],[-66.1421037,-17.3703697],[-66.14208090000001,-17.370198600000002],[-66.1422196,-17.3701016],[-66.14237890000001,-17.369989500000003],[-66.14287200000001,-17.369656000000003],[-66.143493,-17.369258400000003],[-66.1435921,-17.3692071],[-66.14370260000001,-17.369170200000003],[-66.1441731,-17.369045900000003],[-66.14428240000001,-17.369010600000003],[-66.1457798,-17.368433900000003],[-66.14683840000001,-17.3680255],[-66.14820730000001,-17.3674955],[-66.1486046,-17.3673417],[-66.1487481,-17.367273],[-66.1488516,-17.367217500000002],[-66.1490438,-17.3671247],[-66.1491479,-17.3670836],[-66.14923180000001,-17.367054500000002],[-66.14932080000001,-17.3670273],[-66.1495022,-17.366978800000002],[-66.1496505,-17.366962100000002],[-66.1504029,-17.366886500000003],[-66.1509312,-17.366841800000003],[-66.1510478,-17.366833],[-66.1515609,-17.3667944],[-66.15196920000001,-17.3667771],[-66.15204720000001,-17.3667714],[-66.15209,-17.366768500000003],[-66.15299470000001,-17.366689],[-66.15381040000001,-17.3666263],[-66.154347,-17.366581200000002],[-66.1546838,-17.366550500000002],[-66.1554203,-17.3664878],[-66.15556950000001,-17.3664817],[-66.1557343,-17.366487300000003],[-66.1562617,-17.3664296],[-66.1563661,-17.366418200000002],[-66.15646120000001,-17.366408500000002],[-66.1568409,-17.36636],[-66.15690330000001,-17.3663369],[-66.1569896,-17.366299],[-66.1570796,-17.3662518],[-66.15757810000001,-17.3659639],[-66.1577405,-17.365891100000002],[-66.1578815,-17.365832400000002],[-66.1579509,-17.3658147],[-66.15885080000001,-17.3656067],[-66.1600932,-17.3653787],[-66.1604705,-17.365310100000002],[-66.16088760000001,-17.365234200000003],[-66.16213060000001,-17.364983300000002],[-66.1622025,-17.364970500000002],[-66.1623189,-17.364940800000003],[-66.1627945,-17.364826200000003],[-66.1630957,-17.364727100000003],[-66.1635395,-17.364562300000003],[-66.1637858,-17.3644742],[-66.16399770000001,-17.3643979],[-66.1640296,-17.3643864],[-66.1640847,-17.3643666],[-66.1645031,-17.364216000000003],[-66.1645649,-17.364193800000002],[-66.1648201,-17.364099000000003],[-66.16504540000001,-17.3640194],[-66.1650771,-17.3640082],[-66.1659841,-17.3636744],[-66.1660404,-17.3636537],[-66.16685600000001,-17.363353200000002],[-66.16712530000001,-17.3632491],[-66.1676303,-17.363067100000002],[-66.16768040000001,-17.363049],[-66.1677598,-17.3630208],[-66.16836160000001,-17.362807],[-66.16844540000001,-17.362762200000002],[-66.1685666,-17.362659400000002],[-66.16868810000001,-17.362550900000002],[-66.1689327,-17.362332300000002],[-66.1689492,-17.362317800000003]]}}},{"type":"Feature","properties":{"bench":"no","bus":"yes","departures_board":"no","highway":"bus_stop","name":"Parada 46","public_transport":"platform","shelter":"no","id":9139203897},"geometry":{"type":"Point","coordinates":[-66.2121575,-17.448697000000003]}},{"type":"Feature","properties":{"bench":"no","bin":"no","bus":"yes","departures_board":"no","highway":"bus_stop","lit":"no","name":"Mariano Ricardo Terrazas","pole":"yes","public_transport":"platform","shelter":"no","id":8614087733},"geometry":{"type":"Point","coordinates":[-66.14880720000001,-17.396606000000002]}},{"type":"Feature","properties":{"bench":"yes","bin":"no","bus":"yes","departures_board":"no","highway":"bus_stop","kerb":"raised","level":"0","lit":"no","name":"Jordán","operator":"Gobierno Autónomo Municipal de Cochabamba","pole":"yes","public_transport":"platform","shelter":"yes","tactile_paving":"no","wheelchair":"no","id":6546789737},"geometry":{"type":"Point","coordinates":[-66.1492786,-17.3942543]}},{"type":"Feature","properties":{"bench":"no","bin":"no","bus":"yes","departures_board":"no","highway":"bus_stop","kerb":"raised","level":"0","lit":"no","name":"Heroínas","operator":"Gobierno Autónomo Municipal de Cochabamba","operator:short":"GAMC","operator:type":"government","operator:wikidata":"Q124635344","pole":"yes","public_transport":"platform","shelter":"no","tactile_paving":"no","traffic_sign":"yes","wheelchair":"no","id":4868993435},"geometry":{"type":"Point","coordinates":[-66.1498749,-17.3911373]}},{"type":"Feature","properties":{"bench":"no","bin":"no","bus":"yes","departures_board":"no","highway":"bus_stop","lit":"no","name":"Colombia","operator":"Gobierno Autónomo Municipal de Cochabamba","pole":"yes","public_transport":"platform","shelter":"no","tactile_paving":"no","traffic_sign":"yes","id":6285093143},"geometry":{"type":"Point","coordinates":[-66.1501164,-17.389920200000002]}},{"type":"Feature","properties":{"bench":"no","bin":"no","bus":"yes","departures_board":"no","highway":"bus_stop","kerb":"raised","level":"0","lit":"no","name":"Ramón Rivero","operator":"Gobierno Autónomo Municipal de Cochabamba","pole":"yes","public_transport":"platform","shelter":"no","tactile_paving":"no","wheelchair":"no","id":5280985262},"geometry":{"type":"Point","coordinates":[-66.1431472,-17.379724000000003]}},{"type":"Feature","properties":{"bench":"yes","bin":"no","bus":"yes","departures_board":"no","highway":"bus_stop","lit":"no","name":"Piscina Victoria","operator":"Gobierno Autónomo Municipal de Cochabamba","public_transport":"platform","shelter":"yes","tactile_paving":"no","wheelchair":"no","id":8616284788},"geometry":{"type":"Point","coordinates":[-66.1426462,-17.375075900000002]}},{"type":"Feature","properties":{"bus":"yes","departures_board":"no","highway":"bus_stop","name":"Parada 46","public_transport":"platform","shelter":"no","id":9139203896},"geometry":{"type":"Point","coordinates":[-66.1688647,-17.362305000000003]}},{"type":"Feature","properties":{"bench":"no","bin":"no","bus":"yes","departures_board":"no","highway":"bus_stop","kerb":"raised","level":"0","lit":"no","name":"San Martín","operator":"Gobierno Autónomo Municipal de Cochabamba","operator:short":"GAMC","operator:type":"government","pole":"yes","public_transport":"platform","shelter":"no","tactile_paving":"no","wheelchair":"no","id":6546789727},"geometry":{"type":"Point","coordinates":[-66.1533675,-17.398950000000003]}}]}