{"type":"FeatureCollection","features":[{"type":"Feature","properties":{"check_date":"29/12/2025","from":"Maica Central","name":"Trufi P: Maica Central → Calle Gran Chaco","network":"BO:CB:Cochabamba","on_demand":"yes","operator":"Sindicato mixto de transporte Sebastian Pagador","public_transport:version":"2","ref":"P","route":"bus","to":"Calle Gran Chaco","type":"route","wheelchair":"no","id":10668749},"geometry":{"type":"LineString","coordinates":[[-66.2017046,-17.4240785],[-66.20169960000001,-17.4239341],[-66.2017021,-17.4238317],[-66.2017265,-17.423736100000003],[-66.2018566,-17.423398300000002],[-66.20198620000001,-17.423041],[-66.2020323,-17.422878500000003],[-66.2020495,-17.422794200000002],[-66.20205580000001,-17.4226059],[-66.2020445,-17.4222597],[-66.2020347,-17.422101],[-66.2020102,-17.4217422],[-66.20198180000001,-17.4213276],[-66.2019398,-17.4206469],[-66.20187870000001,-17.419623400000003],[-66.20182550000001,-17.418755100000002],[-66.20179320000001,-17.4181668],[-66.2017871,-17.4180543],[-66.2017453,-17.4171036],[-66.2017021,-17.416387],[-66.201662,-17.4157458],[-66.2013558,-17.4156501],[-66.20071060000001,-17.415454200000003],[-66.2004883,-17.4154115],[-66.2003229,-17.4153878],[-66.20003650000001,-17.415377300000003],[-66.19964370000001,-17.4153564],[-66.19958860000001,-17.4153303],[-66.1995347,-17.415276700000003],[-66.19931530000001,-17.4149622],[-66.1992479,-17.414923100000003],[-66.1990208,-17.4148181],[-66.19801120000001,-17.414450600000002],[-66.19685480000001,-17.4139653],[-66.19639000000001,-17.413768700000002],[-66.1959528,-17.413600900000002],[-66.19583560000001,-17.4135728],[-66.1957129,-17.413554400000002],[-66.19557010000001,-17.4135528],[-66.19506670000001,-17.4135771],[-66.1949507,-17.4135762],[-66.1948564,-17.4135679],[-66.1947382,-17.413524600000002],[-66.194575,-17.413452200000002],[-66.19438000000001,-17.413363],[-66.19389190000001,-17.4131751],[-66.1936934,-17.413089600000003],[-66.1936003,-17.413065600000003],[-66.19346850000001,-17.4129864],[-66.19307040000001,-17.412799200000002],[-66.1923806,-17.4124988],[-66.1922871,-17.412472],[-66.1921604,-17.412451500000003],[-66.1919154,-17.412438],[-66.19166560000001,-17.4124537],[-66.19112390000001,-17.412528000000002],[-66.1909845,-17.4125148],[-66.1907788,-17.4124643],[-66.1906431,-17.41243],[-66.1901078,-17.4123172],[-66.19002760000001,-17.4122886],[-66.1899703,-17.4122415],[-66.1929611,-17.409680400000003],[-66.1930433,-17.4096127],[-66.1930729,-17.4095884],[-66.1911079,-17.407304800000002],[-66.1909663,-17.40717],[-66.19086750000001,-17.407100800000002],[-66.1907316,-17.407037600000002],[-66.1905816,-17.4069906],[-66.1903968,-17.406954600000002],[-66.1902196,-17.406934600000003],[-66.1900875,-17.4059047],[-66.18999860000001,-17.4052244],[-66.1899082,-17.4045929],[-66.18982740000001,-17.4040271],[-66.1897654,-17.403567000000002],[-66.1897642,-17.4035538],[-66.1897539,-17.403434200000003],[-66.1897314,-17.4032856],[-66.1896189,-17.4024435],[-66.18957080000001,-17.4021784],[-66.1895301,-17.401592200000003],[-66.1894805,-17.401141300000003],[-66.18938170000001,-17.400615400000003],[-66.189366,-17.400476400000002],[-66.1893625,-17.400444800000002],[-66.1893563,-17.4004139],[-66.1893421,-17.4002929],[-66.1891465,-17.399009000000003],[-66.18831850000001,-17.399045800000003],[-66.1875019,-17.3991103],[-66.1864183,-17.3992158],[-66.18632790000001,-17.399186800000003],[-66.18632910000001,-17.399237000000003],[-66.18631300000001,-17.399285000000003],[-66.18628140000001,-17.3993253],[-66.18623760000001,-17.399353400000003],[-66.18618670000001,-17.399366200000003],[-66.1861341,-17.399362500000002],[-66.1860857,-17.3993423],[-66.18604690000001,-17.3993083],[-66.18602220000001,-17.399264900000002],[-66.1860104,-17.399216000000003],[-66.18588030000001,-17.3992295],[-66.18479900000001,-17.399324200000002],[-66.1840907,-17.399377700000002],[-66.1834324,-17.3994189],[-66.1829323,-17.399463400000002],[-66.1825519,-17.399512400000003],[-66.18257940000001,-17.399610300000003],[-66.18278210000001,-17.4003073],[-66.1828909,-17.400734500000002],[-66.18290540000001,-17.400787100000002],[-66.1829134,-17.4008162],[-66.1829501,-17.4009158],[-66.1830005,-17.4010268],[-66.18303010000001,-17.4010457],[-66.18306030000001,-17.4010779],[-66.18308,-17.401116700000003],[-66.1830877,-17.4011593],[-66.18308280000001,-17.4012022],[-66.1830656,-17.4012421],[-66.1830376,-17.4012759],[-66.18300090000001,-17.4013011],[-66.18295830000001,-17.4013156],[-66.18291310000001,-17.4013183],[-66.18289370000001,-17.4013157],[-66.1827188,-17.401493100000003],[-66.18265050000001,-17.4015714],[-66.1821111,-17.4022465],[-66.18146780000001,-17.4030831],[-66.1808032,-17.403948200000002],[-66.1806883,-17.4040672],[-66.1806402,-17.404120900000002],[-66.18051240000001,-17.404251400000003],[-66.18046070000001,-17.404300600000003],[-66.18023000000001,-17.404508900000003],[-66.179972,-17.404726],[-66.17978910000001,-17.4048611],[-66.17970100000001,-17.4049137],[-66.17934890000001,-17.40512],[-66.179326,-17.4051334],[-66.1792851,-17.4051574],[-66.1792272,-17.4051873],[-66.17811320000001,-17.4057625],[-66.1776255,-17.406004900000003],[-66.1773479,-17.406175],[-66.1770709,-17.406355400000002],[-66.17670670000001,-17.406634500000003],[-66.17664620000001,-17.4066808],[-66.17655450000001,-17.406753700000003],[-66.1764873,-17.4068116],[-66.1762154,-17.407046],[-66.1761345,-17.407137300000002],[-66.17569160000001,-17.4076883],[-66.1750887,-17.408481600000002],[-66.1747739,-17.4089075],[-66.1747661,-17.4089147],[-66.1747309,-17.408945000000003],[-66.1746949,-17.408973500000002],[-66.1745937,-17.4090519],[-66.1745425,-17.4090999],[-66.1745276,-17.4091138],[-66.1745154,-17.409125300000003],[-66.1741824,-17.4094772],[-66.1741662,-17.409494300000002],[-66.174126,-17.4095367],[-66.1740517,-17.409622600000002],[-66.17404730000001,-17.409685200000002],[-66.1739965,-17.4097481],[-66.17394920000001,-17.4098025],[-66.17390900000001,-17.4098487],[-66.173816,-17.409916900000002],[-66.17369980000001,-17.4099885],[-66.17362170000001,-17.410025800000003],[-66.1735582,-17.410051300000003],[-66.173449,-17.410084100000002],[-66.17335890000001,-17.410083],[-66.17326340000001,-17.4101049],[-66.1731312,-17.4101269],[-66.1730174,-17.410132700000002],[-66.17272240000001,-17.4101412],[-66.17182190000001,-17.4101424],[-66.1712318,-17.4101453],[-66.1711765,-17.410150100000003],[-66.17112320000001,-17.4101609],[-66.17099610000001,-17.410193500000002],[-66.17095690000001,-17.4102023],[-66.17090440000001,-17.4102102],[-66.17084170000001,-17.410216100000003],[-66.17081830000001,-17.410085900000002],[-66.1709288,-17.410057100000003],[-66.17099710000001,-17.410042500000003],[-66.1710999,-17.410038200000002],[-66.1715345,-17.410041600000003],[-66.17182070000001,-17.410040900000002],[-66.1722457,-17.4100399],[-66.1722474,-17.409866100000002],[-66.17189710000001,-17.409354],[-66.1717759,-17.4091768],[-66.17160510000001,-17.4089327],[-66.1715794,-17.4088959],[-66.17138480000001,-17.408617800000002],[-66.17102360000001,-17.4080842],[-66.1709565,-17.407988300000003],[-66.17090010000001,-17.407907700000003],[-66.1708443,-17.407834100000002],[-66.1708102,-17.4077823],[-66.1701548,-17.4067967],[-66.170106,-17.406710800000003],[-66.17008790000001,-17.406678900000003],[-66.17000150000001,-17.4065799],[-66.16997950000001,-17.406534800000003],[-66.16996590000001,-17.406501600000002],[-66.16990000000001,-17.4063266],[-66.16984090000001,-17.406123700000002],[-66.1697063,-17.405605700000002],[-66.16960180000001,-17.4051978],[-66.1695031,-17.4048374],[-66.1694863,-17.404788],[-66.1694207,-17.4045945],[-66.16934350000001,-17.4043724],[-66.1692951,-17.404214200000002],[-66.1691907,-17.404019700000003],[-66.1691631,-17.403954000000002],[-66.168773,-17.4030962],[-66.16858950000001,-17.4026235],[-66.1685087,-17.4023639],[-66.16845260000001,-17.4021884],[-66.16843770000001,-17.4021417],[-66.1676291,-17.402282300000003],[-66.1676602,-17.402477700000002],[-66.1677269,-17.402896100000003],[-66.1679347,-17.4042013],[-66.16794110000001,-17.404242800000002],[-66.16794900000001,-17.4042852],[-66.1680596,-17.404895600000003],[-66.1681363,-17.405237300000003],[-66.16822570000001,-17.4054027],[-66.16839420000001,-17.405714600000003],[-66.1686782,-17.4062291],[-66.1687167,-17.406298800000002],[-66.16864430000001,-17.406333],[-66.1681221,-17.406580100000003],[-66.16732900000001,-17.4069554],[-66.1670114,-17.406105500000002],[-66.1669834,-17.406006400000003],[-66.1669535,-17.4058634],[-66.1668066,-17.4051158],[-66.16674640000001,-17.4044588],[-66.1667154,-17.4038158],[-66.1665332,-17.403482],[-66.1664348,-17.4032865],[-66.16640360000001,-17.403225600000003],[-66.16618550000001,-17.4027914],[-66.16606610000001,-17.402554300000002],[-66.16564500000001,-17.4016822],[-66.16514910000001,-17.400665200000002],[-66.1650999,-17.4005644],[-66.16507920000001,-17.400516600000003],[-66.16505640000001,-17.4004669],[-66.1650256,-17.400399500000002],[-66.1648292,-17.3999698],[-66.1647645,-17.3998838],[-66.16462680000001,-17.399715200000003],[-66.1645634,-17.3996362],[-66.1644021,-17.399430900000002],[-66.1642896,-17.3992875],[-66.1642255,-17.399206000000003],[-66.1641639,-17.399127500000002],[-66.1641024,-17.3990492],[-66.1640766,-17.399016300000003],[-66.16389980000001,-17.3987912],[-66.16328990000001,-17.3980219],[-66.1629784,-17.397692000000003],[-66.16288320000001,-17.3976304],[-66.16285450000001,-17.3976106],[-66.1628053,-17.397576700000002],[-66.162717,-17.3975323],[-66.1626061,-17.397507700000002],[-66.16212250000001,-17.3974179],[-66.1619579,-17.397390100000003],[-66.16149610000001,-17.3973352],[-66.1614316,-17.397327500000003],[-66.1602697,-17.3970938],[-66.15915310000001,-17.3969062],[-66.1581831,-17.396722800000003],[-66.1581304,-17.3967147],[-66.1580388,-17.396700600000003],[-66.157998,-17.3966943],[-66.1569724,-17.3965257],[-66.15662730000001,-17.3964637],[-66.156456,-17.3964348],[-66.1558816,-17.396329700000003],[-66.1547941,-17.3961338],[-66.1546703,-17.396757800000003],[-66.15457980000001,-17.3971915],[-66.15441750000001,-17.3980992],[-66.15438900000001,-17.3982226],[-66.1542283,-17.398992900000003],[-66.1542062,-17.399083700000002],[-66.1540449,-17.3999995],[-66.1539303,-17.400709300000003],[-66.1539197,-17.400836],[-66.1539544,-17.401400300000002],[-66.1536294,-17.401411900000003],[-66.1532722,-17.4014247],[-66.15219610000001,-17.4014555],[-66.15129010000001,-17.4014743],[-66.1512002,-17.401454400000002],[-66.1512301,-17.4013183],[-66.1512356,-17.4011615],[-66.15122360000001,-17.4010129],[-66.15119960000001,-17.400908400000002],[-66.15115990000001,-17.400784],[-66.1511079,-17.4006717],[-66.15106730000001,-17.4005979],[-66.1509999,-17.400493200000003],[-66.1509233,-17.4003938],[-66.1508146,-17.400286400000002],[-66.15071800000001,-17.400208300000003],[-66.15059790000001,-17.4001282],[-66.1505042,-17.4000796],[-66.1503866,-17.4000312],[-66.1502731,-17.3999956],[-66.1501808,-17.3999807],[-66.15007990000001,-17.3999658],[-66.14984550000001,-17.3999622],[-66.1497827,-17.400028900000002],[-66.1497047,-17.4001275],[-66.1490538,-17.4008033],[-66.14898570000001,-17.400932200000003],[-66.14895750000001,-17.401046200000003],[-66.1489528,-17.4011432],[-66.14891990000001,-17.401287200000002],[-66.1488898,-17.401389100000003],[-66.1488399,-17.4015357],[-66.1487501,-17.4017537],[-66.14870260000001,-17.4018377],[-66.1486934,-17.401853900000003],[-66.1486247,-17.401979700000002],[-66.1485157,-17.402123800000002],[-66.14840170000001,-17.4022469],[-66.14829010000001,-17.402353100000003],[-66.14815320000001,-17.402464600000002],[-66.1479772,-17.402583500000002],[-66.14779320000001,-17.4027075],[-66.1476973,-17.4027543],[-66.1473024,-17.402947],[-66.14709060000001,-17.403044],[-66.14705230000001,-17.403077300000003],[-66.14688650000001,-17.4032334],[-66.14673540000001,-17.4033443],[-66.14656020000001,-17.4035453],[-66.14625690000001,-17.403881300000002],[-66.1460246,-17.4041685],[-66.14591150000001,-17.404335800000002],[-66.1457908,-17.4045641],[-66.14565250000001,-17.4048461],[-66.14557470000001,-17.405032700000003],[-66.1455511,-17.405179500000003],[-66.1454776,-17.4054015],[-66.1454593,-17.4054669],[-66.1454202,-17.405601500000003],[-66.14538850000001,-17.405745900000003],[-66.1453712,-17.405859200000002],[-66.1453613,-17.4060238],[-66.1453676,-17.4061437],[-66.1453688,-17.4061755],[-66.14537320000001,-17.4062835],[-66.1453779,-17.406306700000002],[-66.1453793,-17.406330200000003],[-66.1453766,-17.406359000000002],[-66.145369,-17.4063869],[-66.1453568,-17.4064134],[-66.1453403,-17.4064376],[-66.1453199,-17.406459],[-66.1452962,-17.4064769],[-66.1452697,-17.4064909],[-66.14524130000001,-17.406500700000002],[-66.1452115,-17.406506],[-66.14519630000001,-17.4065063],[-66.14518120000001,-17.4065066],[-66.1451512,-17.406502500000002],[-66.14507230000001,-17.4065163],[-66.14500480000001,-17.4064902],[-66.1449316,-17.406485],[-66.14486280000001,-17.4064918],[-66.14480010000001,-17.4065073],[-66.1447121,-17.4065501],[-66.1446442,-17.4066392],[-66.1441016,-17.4073278],[-66.1436255,-17.407940800000002],[-66.14327440000001,-17.4084112],[-66.14313290000001,-17.408614800000002],[-66.14295340000001,-17.4089245],[-66.14280380000001,-17.4092482],[-66.1426969,-17.409533800000002],[-66.1426088,-17.409822000000002],[-66.14255560000001,-17.410092300000002],[-66.14252160000001,-17.4103269],[-66.1425131,-17.410420900000002],[-66.1425014,-17.4105589],[-66.1424875,-17.410792200000003],[-66.142442,-17.4122956],[-66.14238320000001,-17.4133356],[-66.1423669,-17.4136852],[-66.14235470000001,-17.413792800000003],[-66.14230110000001,-17.4141008],[-66.1422319,-17.4143516],[-66.14213240000001,-17.4146275],[-66.14196510000001,-17.4149342],[-66.14181620000001,-17.415161],[-66.14162110000001,-17.415388],[-66.1414637,-17.415557600000003],[-66.1413184,-17.415687600000002],[-66.14120940000001,-17.415777400000003],[-66.1411571,-17.4158204],[-66.1410963,-17.4158614],[-66.1409715,-17.4159384],[-66.14087500000001,-17.4160405],[-66.1407149,-17.416120900000003],[-66.1404837,-17.4162235],[-66.1387009,-17.416934700000002],[-66.13824550000001,-17.417108000000002],[-66.13807940000001,-17.417174900000003],[-66.1377853,-17.417331700000002],[-66.1376006,-17.4174352],[-66.13715570000001,-17.417686600000003],[-66.1371117,-17.4177137],[-66.13706850000001,-17.4177402],[-66.1371005,-17.417767],[-66.1372431,-17.417886600000003],[-66.137758,-17.418353200000002],[-66.1382652,-17.418815600000002],[-66.13876690000001,-17.4192672],[-66.1392278,-17.4196838],[-66.1392703,-17.4197221],[-66.13936000000001,-17.4196315],[-66.1394624,-17.4195755],[-66.1394879,-17.419541300000002],[-66.139515,-17.4195141],[-66.1395526,-17.4194861],[-66.1395923,-17.4194651],[-66.13963480000001,-17.4194503],[-66.1396792,-17.4194418],[-66.1397245,-17.4194399],[-66.13976960000001,-17.419444700000003],[-66.1398175,-17.4194575],[-66.1398614,-17.419477200000003],[-66.13989790000001,-17.419500900000003],[-66.1399258,-17.419525],[-66.13995050000001,-17.4195525],[-66.13997830000001,-17.4195956],[-66.1399952,-17.419635300000003],[-66.14000560000001,-17.4196771],[-66.1400091,-17.4197139],[-66.1400059,-17.4197625],[-66.1399959,-17.419804300000003],[-66.1399794,-17.419844100000002],[-66.1399566,-17.4198811],[-66.13992970000001,-17.419913100000002],[-66.13989500000001,-17.419943],[-66.1398576,-17.419966600000002],[-66.1398169,-17.4199845],[-66.1397568,-17.419999100000002],[-66.1397276,-17.420001900000003],[-66.1396656,-17.419998000000003],[-66.13961450000001,-17.4199887],[-66.1395681,-17.4199707],[-66.13952210000001,-17.419938900000002],[-66.1394899,-17.4199027],[-66.13939690000001,-17.4198309],[-66.1393663,-17.4198179],[-66.13933150000001,-17.419813],[-66.13930400000001,-17.419814600000002],[-66.1392694,-17.4198258],[-66.1392586,-17.419832300000003],[-66.1392443,-17.419840800000003],[-66.13849400000001,-17.4206265],[-66.1380647,-17.421033400000002],[-66.1377763,-17.4213571],[-66.1371534,-17.4219799],[-66.13684210000001,-17.4223089],[-66.1363077,-17.422853200000002],[-66.1360951,-17.423068],[-66.13550790000001,-17.4236919],[-66.1354402,-17.423771100000003],[-66.13534630000001,-17.423763500000003],[-66.1346822,-17.4237323],[-66.1346396,-17.4237304],[-66.1345795,-17.4237277],[-66.13434050000001,-17.4239374],[-66.1337936,-17.424394000000003],[-66.1333793,-17.424748100000002],[-66.13265340000001,-17.4253681],[-66.13188020000001,-17.4260245],[-66.1313107,-17.426508100000003],[-66.13076860000001,-17.426964700000003],[-66.1306658,-17.4270646],[-66.1305574,-17.4271731],[-66.1304544,-17.4272899],[-66.1303924,-17.427363600000003],[-66.12979410000001,-17.4280826],[-66.1290965,-17.428901300000003],[-66.12894770000001,-17.4290947],[-66.12884500000001,-17.4292234],[-66.12872970000001,-17.4293961],[-66.1285311,-17.4297369],[-66.1280555,-17.430615300000003],[-66.1276017,-17.4314749],[-66.1269815,-17.432660600000002],[-66.1268328,-17.4329131],[-66.1266927,-17.4331381],[-66.1263639,-17.433668400000002],[-66.1260026,-17.434251200000002],[-66.12534980000001,-17.4352115],[-66.12528440000001,-17.4353461],[-66.12525910000001,-17.435458200000003],[-66.1252218,-17.4356237],[-66.1252225,-17.4357541],[-66.1252436,-17.435853400000003],[-66.12532510000001,-17.436108200000003],[-66.1253726,-17.4362381],[-66.12542420000001,-17.436469300000002],[-66.125635,-17.4374982],[-66.125544,-17.4375365],[-66.125442,-17.4375657],[-66.1252786,-17.4375983],[-66.1249033,-17.43765],[-66.1246809,-17.437670200000003],[-66.1245056,-17.437665900000002],[-66.1241145,-17.437625200000003],[-66.12308440000001,-17.4374483],[-66.12205030000001,-17.437287400000002],[-66.12104620000001,-17.4371301],[-66.11987540000001,-17.4369453],[-66.11975240000001,-17.4369365],[-66.11961810000001,-17.4369492],[-66.1194517,-17.4369532],[-66.1188939,-17.436971900000003],[-66.1184164,-17.436989200000003],[-66.1184302,-17.437633700000003],[-66.1184063,-17.4381075],[-66.1183323,-17.4388468],[-66.11832770000001,-17.439337100000003],[-66.118319,-17.4398236],[-66.11831000000001,-17.439888600000003],[-66.1182627,-17.440048],[-66.11656310000001,-17.440135],[-66.11658720000001,-17.440772000000003],[-66.1166113,-17.4412543],[-66.1166163,-17.441358700000002],[-66.11662790000001,-17.441586400000002],[-66.1166484,-17.4420405],[-66.11667630000001,-17.442573900000003],[-66.1166979,-17.442965100000002],[-66.1167235,-17.4437184],[-66.11673210000001,-17.443926],[-66.1167638,-17.4446614],[-66.1167965,-17.445222700000002],[-66.1168087,-17.4455193],[-66.11682640000001,-17.445851700000002],[-66.116839,-17.446035700000003],[-66.1168459,-17.4463656],[-66.11688670000001,-17.4474555],[-66.1169023,-17.4476772],[-66.1169112,-17.4479314],[-66.1169406,-17.4485737],[-66.11694630000001,-17.4486978],[-66.11697930000001,-17.449404],[-66.1170352,-17.449499000000003],[-66.1171027,-17.449564000000002],[-66.1174948,-17.449773500000003],[-66.11756150000001,-17.449806900000002],[-66.117506,-17.449906900000002],[-66.11729240000001,-17.4503218],[-66.1170537,-17.4507851],[-66.11693980000001,-17.450973700000002],[-66.1167607,-17.4513333],[-66.1167396,-17.4513864],[-66.1167338,-17.451576300000003],[-66.11666720000001,-17.452365500000003],[-66.1166226,-17.452851300000003],[-66.1165596,-17.453618900000002],[-66.11653410000001,-17.453826300000003],[-66.1164887,-17.4543001],[-66.1164524,-17.4545822],[-66.11635700000001,-17.4546007],[-66.11622460000001,-17.454687200000002],[-66.1159466,-17.4548428],[-66.1157165,-17.4549813],[-66.11540480000001,-17.455178500000002],[-66.11505310000001,-17.4556113],[-66.11512,-17.455672500000002],[-66.11517830000001,-17.455769500000002],[-66.1151956,-17.4560646],[-66.1151361,-17.456466600000002],[-66.11509760000001,-17.456530100000002],[-66.1149329,-17.457274100000003],[-66.1149183,-17.457360100000002],[-66.1147813,-17.4578317],[-66.11479600000001,-17.457871400000002],[-66.11463230000001,-17.458483400000002],[-66.11434100000001,-17.4597683],[-66.1142224,-17.4598841],[-66.1140388,-17.4600326],[-66.1137284,-17.4602696],[-66.11293900000001,-17.460645600000003]],"nodes":[1583410654,3684545231,1583410697,3684545217,3684545208,1583410859,3684545181,3684545171,3684545155,1583410879,1629156423,3684545081,1583410862,3684544839,1583410821,3684542895,3684542886,1583410589,3684542869,1583410762,1583410843,792692753,792692873,792692934,3679649496,3679649495,792693015,792692691,3679649494,3679649489,792692893,3684250833,1629156702,792692977,3684250748,3684250734,792692642,792692768,1629156665,3679649480,3679649479,3679649478,792692830,3684250722,792692946,3684250701,792692607,3684250692,792692712,3679649467,3679649464,3684250621,3679649461,3679649462,792692669,9236592946,792692793,3679649463,792692919,3679649460,3679649459,792692960,2421399594,10837785684,1629156424,9852037213,3263808264,792692632,792692756,792692877,9852042517,1583414257,1583414286,9852042566,2334094089,2334089741,3679646768,9213180211,2334089717,5117479589,9213180214,1583410635,3262573466,3679646735,1583414258,1583414242,10055284723,3262573449,2812624182,1583414271,2334089674,2045612107,12300697136,660012887,2900514510,11083808896,9436195752,6621225880,9436195751,6621225881,6621278887,12300697135,2900514513,2900514494,5735073074,800044117,800044182,9506951540,9856963666,800043957,7144349798,2334089729,2800230312,2800230315,2800230318,12849430782,2812625130,12849430777,2812625139,2812625153,2812625159,9436471466,2812625150,800044230,2812625164,9436471471,8984475619,2812625168,12498959411,12849430773,3264157144,1737902982,560522324,12874271856,800044099,560522323,12874271853,3024437976,800044235,8046390997,2812625386,12874271838,12874271877,800044236,12874271839,843534441,8046380061,2800230434,843534504,11821516119,560522318,843534550,11821516122,2800230442,844969886,844969877,844969843,12391372557,9024004096,12391328964,2780334086,560522304,12391372567,12538679970,648571009,560522299,12391328954,11083708225,2420519876,12391328991,7555583167,12391328998,5735037334,8543061751,7555583181,12391328940,12391328934,7555583168,1638041075,12391328926,12391328924,7555592269,560522312,9024034092,560522311,9920249706,1638041078,7555586484,7555586466,9920249705,1638041080,560522306,9373289476,8543055902,1638041071,707336684,9024034091,660004714,707336691,12391372538,707336699,843384122,2420519852,707336695,8067883393,13185347108,2420519843,2420519840,13185347128,1638040943,9025561178,9025561180,707336798,11989520749,10048384434,1638040929,707336795,11989520758,10048320883,8067883417,12614962679,10048320894,8268354197,9025542759,653095307,8067883422,653095309,1638040875,2265856684,11993192467,653095316,800044074,8188906009,8188906000,4318761106,800044025,4318761109,800043947,2713599890,9025561068,9025561232,13510062031,800044335,9025561259,800044176,707336784,9849379127,707336785,800043964,707336787,707336801,707336803,707336805,8188906219,8188905954,8188905952,800044166,800046789,9025561303,9025561290,800044248,12691436025,2483518962,800044112,2483518926,9025561322,800044018,2280517832,2280517784,800044085,315112515,8015423523,9025561519,315112908,310502134,8998571260,8998571261,8998571269,4070971076,2336818870,8998571252,315109958,9955760890,9955993237,310500541,5143443460,310500543,2398944606,648546085,310262707,2398944605,5964203052,4051759810,4051759813,310500545,310500546,8241410049,310500793,9905231737,310501002,1727306400,310503081,310503082,310503083,9916058948,310503084,3663487408,308300567,310503107,702511972,7197849281,2768899006,2768899001,2768899000,2768898998,2768898997,3322574459,2768898995,2768898994,8089836053,2768898991,8089836052,9121680489,2768898987,8089836054,2768898984,12313146720,2768898983,2768898982,659962343,3322574444,659962345,3322575565,3322575573,659962347,3322575610,9928262328,2236815648,659962348,9928262350,702512015,659962349,659962350,659962351,659962352,10677663187,843385840,659962353,10677663192,8192368871,598789683,324015374,12777576114,8192377531,324015376,843385352,2674328752,3325466473,5227462564,2031079515,12777576108,12777576113,6166733751,2031079516,2031079519,6166733752,6166733753,2031079525,2031079532,12777576109,5726438855,9352225513,2031079567,9352225512,9052272506,9352225511,2031079578,9352225510,2031079585,9352225509,3017385035,9352225508,12777576112,2031079582,653086779,2031079584,5434000151,9052272477,2031079579,9052272460,2031079586,9052272462,9052272463,9052272465,9052272466,9052272467,9052272468,9052272469,9052272470,9052272471,9052275597,9052272475,9052272544,9052275602,9052272505,9052272502,9052272501,3328854762,3337266445,653082747,653082749,3328854766,653082752,653082755,11106108067,653082758,8741049845,12777576103,12777576106,8729961976,8729961891,8729961890,8741049880,560155904,2031079659,560155905,2031079662,2031079665,8729961888,10833342504,560155906,13778989384,13778989385,1610527041,1610527016,2272229811,2272229835,10258381351,1610527049,13203351491,2674329297,8729961977,9378197653,3543082784,2674329292,3543082782,3337319094,3543082783,2674329294,9378197650,9378197651,3543082787,8729962050,9378197649,3335610436,3543082789,2674329318,3543082790,2674329337,3543082791,2674329354,3543082792,2674329375,3543083093,2674329392,2674329397,7149422538,3017315881,9378197652,10258381346,2674329381,10258381349,3337319110,3337319105,8729962073,8729962055,3337319106,8729961987,12524765850,3337319108,3337319132,3337319136,3337319139,3337319152,3337319160,3337319161,3337319162,9342320229,3337319163,3337374372,3337374370,13755642398,13755642394,13755642373,3337374379,3338058932,3338058933,3564555313,3362423097,3338058934,3338058936,3338058937,3564555338,3338058938,3338058939,3338058940,3338058941,3338058942,3338058944,3338058946,3338058947,3362423116,3338058951,3338058952,3338058955,3338058957,3338058958,3338058960,3338058962,3338058964,3338058966,3338058968,3338058970,3338058971,3338058973,3338058975,3365328391,1637667960,3365328395,3365328396,1637667968,1637667970,1637667971,2677410587,2677410584,2032749278,1637667957,3365328376,9368724319,2032749242,1600599642,1600599515,1600599827,1600599485,1600599483,1600623785,3017320704,3416910965,1600623772,1600623779,1600623780,1600623800,1600641399,1600641403,7154517490,1600623807,1600623788,1600599548,12290979272,1706129766,1706129767,1600599682,1600599687,3423729552,1600641450,3017320709,2677221078,1600641461,1600641445,10839040260,3423729691,8301906142,10839040259,10839040251,10839040266,10839040267,8038591671,2677221132,1600641409,2677221161,2677221171,1600636773,2677221183,1706129770,1600628524,2677221219,2677221227,1600628577,3477118007,3017320646,3017320645,1600628533,3477118033,3017320642,3017320636,3477118056,1600494852,1600494844,2677221265,3017320631,10839040274,2677221277,2677330209,2677330210,2677330218,1600494842,10839040213,2677330250,2677330257,7821369092]},"gtfs":{"agency_id":10,"route_id":75,"services":[{"service_id":"Mo-Su","startTime":"06:00","endTime":"22:00","trip_id":10668749}],"filteredStops":{"nodes":[1583410654,3684545231,1583410697,3684545217,3684545208,1583410859,3684545181,3684545171,3684545155,1583410879,1629156423,3684545081,1583410862,3684544839,1583410821,3684542895,3684542886,1583410589,3684542869,1583410762,1583410843,792692753,792692873,792692934,3679649496,3679649495,792693015,792692691,3679649494,3679649489,792692893,3684250833,1629156702,792692977,3684250748,3684250734,792692642,792692768,1629156665,3679649480,3679649479,3679649478,792692830,3684250722,792692946,3684250701,792692607,3684250692,792692712,3679649467,3679649464,3684250621,3679649461,3679649462,792692669,9236592946,792692793,3679649463,792692919,3679649460,3679649459,792692960,2421399594,10837785684,1629156424,9852037213,3263808264,792692632,792692756,792692877,9852042517,1583414257,1583414286,9852042566,2334094089,2334089741,3679646768,9213180211,2334089717,5117479589,9213180214,1583410635,3262573466,3679646735,1583414258,1583414242,10055284723,3262573449,2812624182,1583414271,2334089674,2045612107,12300697136,660012887,2900514510,11083808896,9436195752,6621225880,9436195751,6621225881,6621278887,12300697135,2900514513,2900514494,5735073074,800044117,800044182,9506951540,9856963666,800043957,7144349798,2334089729,2800230312,2800230315,2800230318,12849430782,2812625130,12849430777,2812625139,2812625153,2812625159,9436471466,2812625150,800044230,2812625164,9436471471,8984475619,2812625168,12498959411,12849430773,3264157144,1737902982,560522324,12874271856,800044099,560522323,12874271853,3024437976,800044235,8046390997,2812625386,12874271838,12874271877,800044236,12874271839,843534441,8046380061,2800230434,843534504,11821516119,560522318,843534550,11821516122,2800230442,844969886,844969877,844969843,12391372557,9024004096,12391328964,2780334086,560522304,12391372567,12538679970,648571009,560522299,12391328954,11083708225,2420519876,12391328991,7555583167,12391328998,5735037334,8543061751,7555583181,12391328940,12391328934,7555583168,1638041075,12391328926,12391328924,7555592269,560522312,9024034092,560522311,9920249706,1638041078,7555586484,7555586466,9920249705,1638041080,560522306,9373289476,8543055902,1638041071,707336684,9024034091,660004714,707336691,12391372538,707336699,843384122,2420519852,707336695,8067883393,13185347108,2420519843,2420519840,13185347128,1638040943,9025561178,9025561180,707336798,11989520749,10048384434,1638040929,707336795,11989520758,10048320883,8067883417,12614962679,10048320894,8268354197,9025542759,653095307,8067883422,653095309,1638040875,2265856684,11993192467,653095316,800044074,8188906009,8188906000,4318761106,800044025,4318761109,800043947,2713599890,9025561068,9025561232,13510062031,800044335,9025561259,800044176,707336784,9849379127,707336785,800043964,707336787,707336801,707336803,707336805,8188906219,8188905954,8188905952,800044166,800046789,9025561303,9025561290,800044248,12691436025,2483518962,800044112,2483518926,9025561322,800044018,2280517832,2280517784,800044085,315112515,8015423523,9025561519,315112908,310502134,8998571260,8998571261,8998571269,4070971076,2336818870,8998571252,315109958,9955760890,9955993237,310500541,5143443460,310500543,2398944606,648546085,310262707,2398944605,5964203052,4051759810,4051759813,310500545,310500546,8241410049,310500793,9905231737,310501002,1727306400,310503081,310503082,310503083,9916058948,310503084,3663487408,308300567,310503107,702511972,7197849281,2768899006,2768899001,2768899000,2768898998,2768898997,3322574459,2768898995,2768898994,8089836053,2768898991,8089836052,9121680489,2768898987,8089836054,2768898984,12313146720,2768898983,2768898982,659962343,3322574444,659962345,3322575565,3322575573,659962347,3322575610,9928262328,2236815648,659962348,9928262350,702512015,659962349,659962350,659962351,659962352,10677663187,843385840,659962353,10677663192,8192368871,598789683,324015374,12777576114,8192377531,324015376,843385352,2674328752,3325466473,5227462564,2031079515,12777576108,12777576113,6166733751,2031079516,2031079519,6166733752,6166733753,2031079525,2031079532,12777576109,5726438855,9352225513,2031079567,9352225512,9052272506,9352225511,2031079578,9352225510,2031079585,9352225509,3017385035,9352225508,12777576112,2031079582,653086779,2031079584,5434000151,9052272477,2031079579,9052272460,2031079586,9052272462,9052272463,9052272465,9052272466,9052272467,9052272468,9052272469,9052272470,9052272471,9052275597,9052272475,9052272544,9052275602,9052272505,9052272502,9052272501,3328854762,3337266445,653082747,653082749,3328854766,653082752,653082755,11106108067,653082758,8741049845,12777576103,12777576106,8729961976,8729961891,8729961890,8741049880,560155904,2031079659,560155905,2031079662,2031079665,8729961888,10833342504,560155906,13778989384,13778989385,1610527041,1610527016,2272229811,2272229835,10258381351,1610527049,13203351491,2674329297,8729961977,9378197653,3543082784,2674329292,3543082782,3337319094,3543082783,2674329294,9378197650,9378197651,3543082787,8729962050,9378197649,3335610436,3543082789,2674329318,3543082790,2674329337,3543082791,2674329354,3543082792,2674329375,3543083093,2674329392,2674329397,7149422538,3017315881,9378197652,10258381346,2674329381,10258381349,3337319110,3337319105,8729962073,8729962055,3337319106,8729961987,12524765850,3337319108,3337319132,3337319136,3337319139,3337319152,3337319160,3337319161,3337319162,9342320229,3337319163,3337374372,3337374370,13755642398,13755642394,13755642373,3337374379,3338058932,3338058933,3564555313,3362423097,3338058934,3338058936,3338058937,3564555338,3338058938,3338058939,3338058940,3338058941,3338058942,3338058944,3338058946,3338058947,3362423116,3338058951,3338058952,3338058955,3338058957,3338058958,3338058960,3338058962,3338058964,3338058966,3338058968,3338058970,3338058971,3338058973,3338058975,3365328391,1637667960,3365328395,3365328396,1637667968,1637667970,1637667971,2677410587,2677410584,2032749278,1637667957,3365328376,9368724319,2032749242,1600599642,1600599515,1600599827,1600599485,1600599483,1600623785,3017320704,3416910965,1600623772,1600623779,1600623780,1600623800,1600641399,1600641403,7154517490,1600623807,1600623788,1600599548,12290979272,1706129766,1706129767,1600599682,1600599687,3423729552,1600641450,3017320709,2677221078,1600641461,1600641445,10839040260,3423729691,8301906142,10839040259,10839040251,10839040266,10839040267,8038591671,2677221132,1600641409,2677221161,2677221171,1600636773,2677221183,1706129770,1600628524,2677221219,2677221227,1600628577,3477118007,3017320646,3017320645,1600628533,3477118033,3017320642,3017320636,3477118056,1600494852,1600494844,2677221265,3017320631,10839040274,2677221277,2677330209,2677330210,2677330218,1600494842,10839040213,2677330250,2677330257,7821369092],"coordinates":[[-66.2017046,-17.4240785],[-66.20169960000001,-17.4239341],[-66.2017021,-17.4238317],[-66.2017265,-17.423736100000003],[-66.2018566,-17.423398300000002],[-66.20198620000001,-17.423041],[-66.2020323,-17.422878500000003],[-66.2020495,-17.422794200000002],[-66.20205580000001,-17.4226059],[-66.2020445,-17.4222597],[-66.2020347,-17.422101],[-66.2020102,-17.4217422],[-66.20198180000001,-17.4213276],[-66.2019398,-17.4206469],[-66.20187870000001,-17.419623400000003],[-66.20182550000001,-17.418755100000002],[-66.20179320000001,-17.4181668],[-66.2017871,-17.4180543],[-66.2017453,-17.4171036],[-66.2017021,-17.416387],[-66.201662,-17.4157458],[-66.2013558,-17.4156501],[-66.20071060000001,-17.415454200000003],[-66.2004883,-17.4154115],[-66.2003229,-17.4153878],[-66.20003650000001,-17.415377300000003],[-66.19964370000001,-17.4153564],[-66.19958860000001,-17.4153303],[-66.1995347,-17.415276700000003],[-66.19931530000001,-17.4149622],[-66.1992479,-17.414923100000003],[-66.1990208,-17.4148181],[-66.19801120000001,-17.414450600000002],[-66.19685480000001,-17.4139653],[-66.19639000000001,-17.413768700000002],[-66.1959528,-17.413600900000002],[-66.19583560000001,-17.4135728],[-66.1957129,-17.413554400000002],[-66.19557010000001,-17.4135528],[-66.19506670000001,-17.4135771],[-66.1949507,-17.4135762],[-66.1948564,-17.4135679],[-66.1947382,-17.413524600000002],[-66.194575,-17.413452200000002],[-66.19438000000001,-17.413363],[-66.19389190000001,-17.4131751],[-66.1936934,-17.413089600000003],[-66.1936003,-17.413065600000003],[-66.19346850000001,-17.4129864],[-66.19307040000001,-17.412799200000002],[-66.1923806,-17.4124988],[-66.1922871,-17.412472],[-66.1921604,-17.412451500000003],[-66.1919154,-17.412438],[-66.19166560000001,-17.4124537],[-66.19112390000001,-17.412528000000002],[-66.1909845,-17.4125148],[-66.1907788,-17.4124643],[-66.1906431,-17.41243],[-66.1901078,-17.4123172],[-66.19002760000001,-17.4122886],[-66.1899703,-17.4122415],[-66.1929611,-17.409680400000003],[-66.1930433,-17.4096127],[-66.1930729,-17.4095884],[-66.1911079,-17.407304800000002],[-66.1909663,-17.40717],[-66.19086750000001,-17.407100800000002],[-66.1907316,-17.407037600000002],[-66.1905816,-17.4069906],[-66.1903968,-17.406954600000002],[-66.1902196,-17.406934600000003],[-66.1900875,-17.4059047],[-66.18999860000001,-17.4052244],[-66.1899082,-17.4045929],[-66.18982740000001,-17.4040271],[-66.1897654,-17.403567000000002],[-66.1897642,-17.4035538],[-66.1897539,-17.403434200000003],[-66.1897314,-17.4032856],[-66.1896189,-17.4024435],[-66.18957080000001,-17.4021784],[-66.1895301,-17.401592200000003],[-66.1894805,-17.401141300000003],[-66.18938170000001,-17.400615400000003],[-66.189366,-17.400476400000002],[-66.1893625,-17.400444800000002],[-66.1893563,-17.4004139],[-66.1893421,-17.4002929],[-66.1891465,-17.399009000000003],[-66.18831850000001,-17.399045800000003],[-66.1875019,-17.3991103],[-66.1864183,-17.3992158],[-66.18632790000001,-17.399186800000003],[-66.18632910000001,-17.399237000000003],[-66.18631300000001,-17.399285000000003],[-66.18628140000001,-17.3993253],[-66.18623760000001,-17.399353400000003],[-66.18618670000001,-17.399366200000003],[-66.1861341,-17.399362500000002],[-66.1860857,-17.3993423],[-66.18604690000001,-17.3993083],[-66.18602220000001,-17.399264900000002],[-66.1860104,-17.399216000000003],[-66.18588030000001,-17.3992295],[-66.18479900000001,-17.399324200000002],[-66.1840907,-17.399377700000002],[-66.1834324,-17.3994189],[-66.1829323,-17.399463400000002],[-66.1825519,-17.399512400000003],[-66.18257940000001,-17.399610300000003],[-66.18278210000001,-17.4003073],[-66.1828909,-17.400734500000002],[-66.18290540000001,-17.400787100000002],[-66.1829134,-17.4008162],[-66.1829501,-17.4009158],[-66.1830005,-17.4010268],[-66.18303010000001,-17.4010457],[-66.18306030000001,-17.4010779],[-66.18308,-17.401116700000003],[-66.1830877,-17.4011593],[-66.18308280000001,-17.4012022],[-66.1830656,-17.4012421],[-66.1830376,-17.4012759],[-66.18300090000001,-17.4013011],[-66.18295830000001,-17.4013156],[-66.18291310000001,-17.4013183],[-66.18289370000001,-17.4013157],[-66.1827188,-17.401493100000003],[-66.18265050000001,-17.4015714],[-66.1821111,-17.4022465],[-66.18146780000001,-17.4030831],[-66.1808032,-17.403948200000002],[-66.1806883,-17.4040672],[-66.1806402,-17.404120900000002],[-66.18051240000001,-17.404251400000003],[-66.18046070000001,-17.404300600000003],[-66.18023000000001,-17.404508900000003],[-66.179972,-17.404726],[-66.17978910000001,-17.4048611],[-66.17970100000001,-17.4049137],[-66.17934890000001,-17.40512],[-66.179326,-17.4051334],[-66.1792851,-17.4051574],[-66.1792272,-17.4051873],[-66.17811320000001,-17.4057625],[-66.1776255,-17.406004900000003],[-66.1773479,-17.406175],[-66.1770709,-17.406355400000002],[-66.17670670000001,-17.406634500000003],[-66.17664620000001,-17.4066808],[-66.17655450000001,-17.406753700000003],[-66.1764873,-17.4068116],[-66.1762154,-17.407046],[-66.1761345,-17.407137300000002],[-66.17569160000001,-17.4076883],[-66.1750887,-17.408481600000002],[-66.1747739,-17.4089075],[-66.1747661,-17.4089147],[-66.1747309,-17.408945000000003],[-66.1746949,-17.408973500000002],[-66.1745937,-17.4090519],[-66.1745425,-17.4090999],[-66.1745276,-17.4091138],[-66.1745154,-17.409125300000003],[-66.1741824,-17.4094772],[-66.1741662,-17.409494300000002],[-66.174126,-17.4095367],[-66.1740517,-17.409622600000002],[-66.17404730000001,-17.409685200000002],[-66.1739965,-17.4097481],[-66.17394920000001,-17.4098025],[-66.17390900000001,-17.4098487],[-66.173816,-17.409916900000002],[-66.17369980000001,-17.4099885],[-66.17362170000001,-17.410025800000003],[-66.1735582,-17.410051300000003],[-66.173449,-17.410084100000002],[-66.17335890000001,-17.410083],[-66.17326340000001,-17.4101049],[-66.1731312,-17.4101269],[-66.1730174,-17.410132700000002],[-66.17272240000001,-17.4101412],[-66.17182190000001,-17.4101424],[-66.1712318,-17.4101453],[-66.1711765,-17.410150100000003],[-66.17112320000001,-17.4101609],[-66.17099610000001,-17.410193500000002],[-66.17095690000001,-17.4102023],[-66.17090440000001,-17.4102102],[-66.17084170000001,-17.410216100000003],[-66.17081830000001,-17.410085900000002],[-66.1709288,-17.410057100000003],[-66.17099710000001,-17.410042500000003],[-66.1710999,-17.410038200000002],[-66.1715345,-17.410041600000003],[-66.17182070000001,-17.410040900000002],[-66.1722457,-17.4100399],[-66.1722474,-17.409866100000002],[-66.17189710000001,-17.409354],[-66.1717759,-17.4091768],[-66.17160510000001,-17.4089327],[-66.1715794,-17.4088959],[-66.17138480000001,-17.408617800000002],[-66.17102360000001,-17.4080842],[-66.1709565,-17.407988300000003],[-66.17090010000001,-17.407907700000003],[-66.1708443,-17.407834100000002],[-66.1708102,-17.4077823],[-66.1701548,-17.4067967],[-66.170106,-17.406710800000003],[-66.17008790000001,-17.406678900000003],[-66.17000150000001,-17.4065799],[-66.16997950000001,-17.406534800000003],[-66.16996590000001,-17.406501600000002],[-66.16990000000001,-17.4063266],[-66.16984090000001,-17.406123700000002],[-66.1697063,-17.405605700000002],[-66.16960180000001,-17.4051978],[-66.1695031,-17.4048374],[-66.1694863,-17.404788],[-66.1694207,-17.4045945],[-66.16934350000001,-17.4043724],[-66.1692951,-17.404214200000002],[-66.1691907,-17.404019700000003],[-66.1691631,-17.403954000000002],[-66.168773,-17.4030962],[-66.16858950000001,-17.4026235],[-66.1685087,-17.4023639],[-66.16845260000001,-17.4021884],[-66.16843770000001,-17.4021417],[-66.1676291,-17.402282300000003],[-66.1676602,-17.402477700000002],[-66.1677269,-17.402896100000003],[-66.1679347,-17.4042013],[-66.16794110000001,-17.404242800000002],[-66.16794900000001,-17.4042852],[-66.1680596,-17.404895600000003],[-66.1681363,-17.405237300000003],[-66.16822570000001,-17.4054027],[-66.16839420000001,-17.405714600000003],[-66.1686782,-17.4062291],[-66.1687167,-17.406298800000002],[-66.16864430000001,-17.406333],[-66.1681221,-17.406580100000003],[-66.16732900000001,-17.4069554],[-66.1670114,-17.406105500000002],[-66.1669834,-17.406006400000003],[-66.1669535,-17.4058634],[-66.1668066,-17.4051158],[-66.16674640000001,-17.4044588],[-66.1667154,-17.4038158],[-66.1665332,-17.403482],[-66.1664348,-17.4032865],[-66.16640360000001,-17.403225600000003],[-66.16618550000001,-17.4027914],[-66.16606610000001,-17.402554300000002],[-66.16564500000001,-17.4016822],[-66.16514910000001,-17.400665200000002],[-66.1650999,-17.4005644],[-66.16507920000001,-17.400516600000003],[-66.16505640000001,-17.4004669],[-66.1650256,-17.400399500000002],[-66.1648292,-17.3999698],[-66.1647645,-17.3998838],[-66.16462680000001,-17.399715200000003],[-66.1645634,-17.3996362],[-66.1644021,-17.399430900000002],[-66.1642896,-17.3992875],[-66.1642255,-17.399206000000003],[-66.1641639,-17.399127500000002],[-66.1641024,-17.3990492],[-66.1640766,-17.399016300000003],[-66.16389980000001,-17.3987912],[-66.16328990000001,-17.3980219],[-66.1629784,-17.397692000000003],[-66.16288320000001,-17.3976304],[-66.16285450000001,-17.3976106],[-66.1628053,-17.397576700000002],[-66.162717,-17.3975323],[-66.1626061,-17.397507700000002],[-66.16212250000001,-17.3974179],[-66.1619579,-17.397390100000003],[-66.16149610000001,-17.3973352],[-66.1614316,-17.397327500000003],[-66.1602697,-17.3970938],[-66.15915310000001,-17.3969062],[-66.1581831,-17.396722800000003],[-66.1581304,-17.3967147],[-66.1580388,-17.396700600000003],[-66.157998,-17.3966943],[-66.1569724,-17.3965257],[-66.15662730000001,-17.3964637],[-66.156456,-17.3964348],[-66.1558816,-17.396329700000003],[-66.1547941,-17.3961338],[-66.1546703,-17.396757800000003],[-66.15457980000001,-17.3971915],[-66.15441750000001,-17.3980992],[-66.15438900000001,-17.3982226],[-66.1542283,-17.398992900000003],[-66.1542062,-17.399083700000002],[-66.1540449,-17.3999995],[-66.1539303,-17.400709300000003],[-66.1539197,-17.400836],[-66.1539544,-17.401400300000002],[-66.1536294,-17.401411900000003],[-66.1532722,-17.4014247],[-66.15219610000001,-17.4014555],[-66.15129010000001,-17.4014743],[-66.1512002,-17.401454400000002],[-66.1512301,-17.4013183],[-66.1512356,-17.4011615],[-66.15122360000001,-17.4010129],[-66.15119960000001,-17.400908400000002],[-66.15115990000001,-17.400784],[-66.1511079,-17.4006717],[-66.15106730000001,-17.4005979],[-66.1509999,-17.400493200000003],[-66.1509233,-17.4003938],[-66.1508146,-17.400286400000002],[-66.15071800000001,-17.400208300000003],[-66.15059790000001,-17.4001282],[-66.1505042,-17.4000796],[-66.1503866,-17.4000312],[-66.1502731,-17.3999956],[-66.1501808,-17.3999807],[-66.15007990000001,-17.3999658],[-66.14984550000001,-17.3999622],[-66.1497827,-17.400028900000002],[-66.1497047,-17.4001275],[-66.1490538,-17.4008033],[-66.14898570000001,-17.400932200000003],[-66.14895750000001,-17.401046200000003],[-66.1489528,-17.4011432],[-66.14891990000001,-17.401287200000002],[-66.1488898,-17.401389100000003],[-66.1488399,-17.4015357],[-66.1487501,-17.4017537],[-66.14870260000001,-17.4018377],[-66.1486934,-17.401853900000003],[-66.1486247,-17.401979700000002],[-66.1485157,-17.402123800000002],[-66.14840170000001,-17.4022469],[-66.14829010000001,-17.402353100000003],[-66.14815320000001,-17.402464600000002],[-66.1479772,-17.402583500000002],[-66.14779320000001,-17.4027075],[-66.1476973,-17.4027543],[-66.1473024,-17.402947],[-66.14709060000001,-17.403044],[-66.14705230000001,-17.403077300000003],[-66.14688650000001,-17.4032334],[-66.14673540000001,-17.4033443],[-66.14656020000001,-17.4035453],[-66.14625690000001,-17.403881300000002],[-66.1460246,-17.4041685],[-66.14591150000001,-17.404335800000002],[-66.1457908,-17.4045641],[-66.14565250000001,-17.4048461],[-66.14557470000001,-17.405032700000003],[-66.1455511,-17.405179500000003],[-66.1454776,-17.4054015],[-66.1454593,-17.4054669],[-66.1454202,-17.405601500000003],[-66.14538850000001,-17.405745900000003],[-66.1453712,-17.405859200000002],[-66.1453613,-17.4060238],[-66.1453676,-17.4061437],[-66.1453688,-17.4061755],[-66.14537320000001,-17.4062835],[-66.1453779,-17.406306700000002],[-66.1453793,-17.406330200000003],[-66.1453766,-17.406359000000002],[-66.145369,-17.4063869],[-66.1453568,-17.4064134],[-66.1453403,-17.4064376],[-66.1453199,-17.406459],[-66.1452962,-17.4064769],[-66.1452697,-17.4064909],[-66.14524130000001,-17.406500700000002],[-66.1452115,-17.406506],[-66.14519630000001,-17.4065063],[-66.14518120000001,-17.4065066],[-66.1451512,-17.406502500000002],[-66.14507230000001,-17.4065163],[-66.14500480000001,-17.4064902],[-66.1449316,-17.406485],[-66.14486280000001,-17.4064918],[-66.14480010000001,-17.4065073],[-66.1447121,-17.4065501],[-66.1446442,-17.4066392],[-66.1441016,-17.4073278],[-66.1436255,-17.407940800000002],[-66.14327440000001,-17.4084112],[-66.14313290000001,-17.408614800000002],[-66.14295340000001,-17.4089245],[-66.14280380000001,-17.4092482],[-66.1426969,-17.409533800000002],[-66.1426088,-17.409822000000002],[-66.14255560000001,-17.410092300000002],[-66.14252160000001,-17.4103269],[-66.1425131,-17.410420900000002],[-66.1425014,-17.4105589],[-66.1424875,-17.410792200000003],[-66.142442,-17.4122956],[-66.14238320000001,-17.4133356],[-66.1423669,-17.4136852],[-66.14235470000001,-17.413792800000003],[-66.14230110000001,-17.4141008],[-66.1422319,-17.4143516],[-66.14213240000001,-17.4146275],[-66.14196510000001,-17.4149342],[-66.14181620000001,-17.415161],[-66.14162110000001,-17.415388],[-66.1414637,-17.415557600000003],[-66.1413184,-17.415687600000002],[-66.14120940000001,-17.415777400000003],[-66.1411571,-17.4158204],[-66.1410963,-17.4158614],[-66.1409715,-17.4159384],[-66.14087500000001,-17.4160405],[-66.1407149,-17.416120900000003],[-66.1404837,-17.4162235],[-66.1387009,-17.416934700000002],[-66.13824550000001,-17.417108000000002],[-66.13807940000001,-17.417174900000003],[-66.1377853,-17.417331700000002],[-66.1376006,-17.4174352],[-66.13715570000001,-17.417686600000003],[-66.1371117,-17.4177137],[-66.13706850000001,-17.4177402],[-66.1371005,-17.417767],[-66.1372431,-17.417886600000003],[-66.137758,-17.418353200000002],[-66.1382652,-17.418815600000002],[-66.13876690000001,-17.4192672],[-66.1392278,-17.4196838],[-66.1392703,-17.4197221],[-66.13936000000001,-17.4196315],[-66.1394624,-17.4195755],[-66.1394879,-17.419541300000002],[-66.139515,-17.4195141],[-66.1395526,-17.4194861],[-66.1395923,-17.4194651],[-66.13963480000001,-17.4194503],[-66.1396792,-17.4194418],[-66.1397245,-17.4194399],[-66.13976960000001,-17.419444700000003],[-66.1398175,-17.4194575],[-66.1398614,-17.419477200000003],[-66.13989790000001,-17.419500900000003],[-66.1399258,-17.419525],[-66.13995050000001,-17.4195525],[-66.13997830000001,-17.4195956],[-66.1399952,-17.419635300000003],[-66.14000560000001,-17.4196771],[-66.1400091,-17.4197139],[-66.1400059,-17.4197625],[-66.1399959,-17.419804300000003],[-66.1399794,-17.419844100000002],[-66.1399566,-17.4198811],[-66.13992970000001,-17.419913100000002],[-66.13989500000001,-17.419943],[-66.1398576,-17.419966600000002],[-66.1398169,-17.4199845],[-66.1397568,-17.419999100000002],[-66.1397276,-17.420001900000003],[-66.1396656,-17.419998000000003],[-66.13961450000001,-17.4199887],[-66.1395681,-17.4199707],[-66.13952210000001,-17.419938900000002],[-66.1394899,-17.4199027],[-66.13939690000001,-17.4198309],[-66.1393663,-17.4198179],[-66.13933150000001,-17.419813],[-66.13930400000001,-17.419814600000002],[-66.1392694,-17.4198258],[-66.1392586,-17.419832300000003],[-66.1392443,-17.419840800000003],[-66.13849400000001,-17.4206265],[-66.1380647,-17.421033400000002],[-66.1377763,-17.4213571],[-66.1371534,-17.4219799],[-66.13684210000001,-17.4223089],[-66.1363077,-17.422853200000002],[-66.1360951,-17.423068],[-66.13550790000001,-17.4236919],[-66.1354402,-17.423771100000003],[-66.13534630000001,-17.423763500000003],[-66.1346822,-17.4237323],[-66.1346396,-17.4237304],[-66.1345795,-17.4237277],[-66.13434050000001,-17.4239374],[-66.1337936,-17.424394000000003],[-66.1333793,-17.424748100000002],[-66.13265340000001,-17.4253681],[-66.13188020000001,-17.4260245],[-66.1313107,-17.426508100000003],[-66.13076860000001,-17.426964700000003],[-66.1306658,-17.4270646],[-66.1305574,-17.4271731],[-66.1304544,-17.4272899],[-66.1303924,-17.427363600000003],[-66.12979410000001,-17.4280826],[-66.1290965,-17.428901300000003],[-66.12894770000001,-17.4290947],[-66.12884500000001,-17.4292234],[-66.12872970000001,-17.4293961],[-66.1285311,-17.4297369],[-66.1280555,-17.430615300000003],[-66.1276017,-17.4314749],[-66.1269815,-17.432660600000002],[-66.1268328,-17.4329131],[-66.1266927,-17.4331381],[-66.1263639,-17.433668400000002],[-66.1260026,-17.434251200000002],[-66.12534980000001,-17.4352115],[-66.12528440000001,-17.4353461],[-66.12525910000001,-17.435458200000003],[-66.1252218,-17.4356237],[-66.1252225,-17.4357541],[-66.1252436,-17.435853400000003],[-66.12532510000001,-17.436108200000003],[-66.1253726,-17.4362381],[-66.12542420000001,-17.436469300000002],[-66.125635,-17.4374982],[-66.125544,-17.4375365],[-66.125442,-17.4375657],[-66.1252786,-17.4375983],[-66.1249033,-17.43765],[-66.1246809,-17.437670200000003],[-66.1245056,-17.437665900000002],[-66.1241145,-17.437625200000003],[-66.12308440000001,-17.4374483],[-66.12205030000001,-17.437287400000002],[-66.12104620000001,-17.4371301],[-66.11987540000001,-17.4369453],[-66.11975240000001,-17.4369365],[-66.11961810000001,-17.4369492],[-66.1194517,-17.4369532],[-66.1188939,-17.436971900000003],[-66.1184164,-17.436989200000003],[-66.1184302,-17.437633700000003],[-66.1184063,-17.4381075],[-66.1183323,-17.4388468],[-66.11832770000001,-17.439337100000003],[-66.118319,-17.4398236],[-66.11831000000001,-17.439888600000003],[-66.1182627,-17.440048],[-66.11656310000001,-17.440135],[-66.11658720000001,-17.440772000000003],[-66.1166113,-17.4412543],[-66.1166163,-17.441358700000002],[-66.11662790000001,-17.441586400000002],[-66.1166484,-17.4420405],[-66.11667630000001,-17.442573900000003],[-66.1166979,-17.442965100000002],[-66.1167235,-17.4437184],[-66.11673210000001,-17.443926],[-66.1167638,-17.4446614],[-66.1167965,-17.445222700000002],[-66.1168087,-17.4455193],[-66.11682640000001,-17.445851700000002],[-66.116839,-17.446035700000003],[-66.1168459,-17.4463656],[-66.11688670000001,-17.4474555],[-66.1169023,-17.4476772],[-66.1169112,-17.4479314],[-66.1169406,-17.4485737],[-66.11694630000001,-17.4486978],[-66.11697930000001,-17.449404],[-66.1170352,-17.449499000000003],[-66.1171027,-17.449564000000002],[-66.1174948,-17.449773500000003],[-66.11756150000001,-17.449806900000002],[-66.117506,-17.449906900000002],[-66.11729240000001,-17.4503218],[-66.1170537,-17.4507851],[-66.11693980000001,-17.450973700000002],[-66.1167607,-17.4513333],[-66.1167396,-17.4513864],[-66.1167338,-17.451576300000003],[-66.11666720000001,-17.452365500000003],[-66.1166226,-17.452851300000003],[-66.1165596,-17.453618900000002],[-66.11653410000001,-17.453826300000003],[-66.1164887,-17.4543001],[-66.1164524,-17.4545822],[-66.11635700000001,-17.4546007],[-66.11622460000001,-17.454687200000002],[-66.1159466,-17.4548428],[-66.1157165,-17.4549813],[-66.11540480000001,-17.455178500000002],[-66.11505310000001,-17.4556113],[-66.11512,-17.455672500000002],[-66.11517830000001,-17.455769500000002],[-66.1151956,-17.4560646],[-66.1151361,-17.456466600000002],[-66.11509760000001,-17.456530100000002],[-66.1149329,-17.457274100000003],[-66.1149183,-17.457360100000002],[-66.1147813,-17.4578317],[-66.11479600000001,-17.457871400000002],[-66.11463230000001,-17.458483400000002],[-66.11434100000001,-17.4597683],[-66.1142224,-17.4598841],[-66.1140388,-17.4600326],[-66.1137284,-17.4602696],[-66.11293900000001,-17.460645600000003]]}}},{"type":"Feature","properties":{"bus":"yes","highway":"bus_stop","name":"Parada P","public_transport":"platform","id":9102220662},"geometry":{"type":"Point","coordinates":[-66.2017867,-17.4240312]}},{"type":"Feature","properties":{"bench":"no","bin":"no","bus":"yes","departures_board":"no","highway":"bus_stop","kerb":"raised","level":"0","lit":"no","name":"Paso a Desnivel Aeropuerto","operator":"Gobierno Autónomo Municipal de Cochabamba","operator:type":"government","public_transport":"platform","shelter":"no","tactile_paving":"no","wheelchair":"no","id":7555586465},"geometry":{"type":"Point","coordinates":[-66.1740297,-17.409782200000002]}},{"type":"Feature","properties":{"addr:city":"Cochabamba","bench":"no","bus":"yes","covered":"no","departures_board":"no","highway":"bus_stop","name":"Parada P","public_transport":"platform","shelter":"no","id":2677330274},"geometry":{"type":"Point","coordinates":[-66.11295000000001,-17.460607000000003]}},{"type":"Feature","properties":{"bench":"no","bin":"no","bus":"yes","departures_board":"no","highway":"bus_stop","level":"0","lit":"no","name":"Aroma","operator":"Gobierno Autónomo Municipal de Cochabamba","operator:short":"GAMC","operator:type":"government","pole":"yes","public_transport":"platform","shelter":"no","tactile_paving":"no","wheelchair":"no","id":6546789728},"geometry":{"type":"Point","coordinates":[-66.1542976,-17.398892500000002]}},{"type":"Feature","properties":{"bench":"no","bin":"no","bus":"yes","departures_board":"no","highway":"bus_stop","level":"0","lit":"no","name":"16 de Julio","public_transport":"platform","shelter":"no","tactile_paving":"no","wheelchair":"no","id":6546789715},"geometry":{"type":"Point","coordinates":[-66.14989340000001,-17.4000069]}}]}