{"type":"FeatureCollection","features":[{"type":"Feature","properties":{"check_date":"29/12/2025","from":"Loma Pampa","name":"MicroBus X10: Loma Pampa → Avenida Sexta","network":"BO:CB:Cochabamba","on_demand":"yes","operator":"Sindicato de colectiveros y microbuses radio urbano y suburbano ciudad de Cochabamba","public_transport:version":"2","ref":"X10","route":"bus","to":"Avenida Sexta","type":"route","wheelchair":"no","id":10667060},"geometry":{"type":"LineString","coordinates":[[-66.0982548,-17.471729900000003],[-66.0992183,-17.4718105],[-66.0999548,-17.4718614],[-66.1005245,-17.4718488],[-66.1012252,-17.4717948],[-66.1013806,-17.471883100000003],[-66.10160850000001,-17.4720294],[-66.10186610000001,-17.4721806],[-66.10235320000001,-17.472415100000003],[-66.102511,-17.4725392],[-66.1026193,-17.472647100000003],[-66.1028028,-17.472807000000003],[-66.10300880000001,-17.4729864],[-66.10327210000001,-17.473215900000003],[-66.1033221,-17.473282400000002],[-66.1033695,-17.4733486],[-66.10344880000001,-17.4734042],[-66.1035461,-17.473447],[-66.10372000000001,-17.473540500000002],[-66.103775,-17.4735811],[-66.1038135,-17.4736179],[-66.10389830000001,-17.473767300000002],[-66.104214,-17.474334900000002],[-66.1042553,-17.4744193],[-66.10439880000001,-17.4747419],[-66.104472,-17.4749082],[-66.1045351,-17.474995600000003],[-66.1047455,-17.4752131],[-66.1047975,-17.475266100000002],[-66.1051731,-17.4756696],[-66.1052769,-17.475754900000002],[-66.10539960000001,-17.4757876],[-66.10620940000001,-17.4759181],[-66.1064489,-17.475905],[-66.1067689,-17.4759141],[-66.1071412,-17.4759686],[-66.1074069,-17.4759831],[-66.10778730000001,-17.4759618],[-66.10800850000001,-17.4759625],[-66.10822870000001,-17.475975000000002],[-66.1085305,-17.4760387],[-66.10898590000001,-17.476140700000002],[-66.10910080000001,-17.476161700000002],[-66.1093254,-17.4761546],[-66.1095519,-17.4761317],[-66.10967430000001,-17.476087300000003],[-66.10996890000001,-17.475954700000003],[-66.11009800000001,-17.4759341],[-66.11019440000001,-17.4759253],[-66.1103551,-17.4759105],[-66.11049650000001,-17.4759117],[-66.11070070000001,-17.475945900000003],[-66.11101470000001,-17.476065400000003],[-66.1111571,-17.4761238],[-66.11122610000001,-17.476178800000003],[-66.111271,-17.476253800000002],[-66.1113406,-17.4764702],[-66.11139060000001,-17.4765647],[-66.1114582,-17.4766391],[-66.11152320000001,-17.476683700000002],[-66.11158850000001,-17.476709600000003],[-66.1116583,-17.476722300000002],[-66.11166370000001,-17.4767006],[-66.1116721,-17.4766799],[-66.1116863,-17.476655700000002],[-66.1117045,-17.476634],[-66.11172610000001,-17.4766154],[-66.1117507,-17.4766003],[-66.11177740000001,-17.476589200000003],[-66.1118057,-17.4765824],[-66.1118593,-17.476581600000003],[-66.11193420000001,-17.476382800000003],[-66.1120645,-17.4761056],[-66.11216610000001,-17.4758645],[-66.1122455,-17.4755866],[-66.11229540000001,-17.475330000000003],[-66.11230110000001,-17.475166100000003],[-66.1123012,-17.4741569],[-66.11230330000001,-17.4738988],[-66.11232410000001,-17.473753100000003],[-66.11237910000001,-17.4735538],[-66.1125574,-17.473042000000003],[-66.1125988,-17.4728828],[-66.11263050000001,-17.472703600000003],[-66.1126462,-17.472431500000003],[-66.11266470000001,-17.471742600000002],[-66.1126692,-17.4715874],[-66.11269320000001,-17.4714296],[-66.11272770000001,-17.471260500000003],[-66.1128357,-17.471023000000002],[-66.11296420000001,-17.4708264],[-66.11313480000001,-17.4706447],[-66.11325860000001,-17.470535700000003],[-66.113454,-17.4703945],[-66.113892,-17.4700737],[-66.11407460000001,-17.469950200000003],[-66.1143296,-17.4697421],[-66.1145759,-17.469497800000003],[-66.11481590000001,-17.4691867],[-66.1149469,-17.468965800000003],[-66.11502060000001,-17.4688415],[-66.1151993,-17.4685123],[-66.1157932,-17.4674285],[-66.1159416,-17.467171500000003],[-66.1160359,-17.4670251],[-66.1162185,-17.466803900000002],[-66.1163997,-17.466639200000003],[-66.11651210000001,-17.4665612],[-66.1166245,-17.4665004],[-66.11687780000001,-17.4663785],[-66.117084,-17.466321100000002],[-66.1172452,-17.466279500000002],[-66.11758920000001,-17.466225],[-66.11795210000001,-17.466174600000002],[-66.1181956,-17.466125100000003],[-66.11842060000001,-17.466065200000003],[-66.1186684,-17.4659812],[-66.11896340000001,-17.4658468],[-66.119218,-17.4656942],[-66.1194255,-17.4655452],[-66.11956350000001,-17.465419100000002],[-66.1196237,-17.4653718],[-66.1197681,-17.465227900000002],[-66.11991830000001,-17.465055200000002],[-66.120062,-17.4648633],[-66.12017800000001,-17.464652800000003],[-66.1202744,-17.4644717],[-66.12036540000001,-17.4642811],[-66.1204562,-17.464082],[-66.12057220000001,-17.463827700000003],[-66.1206796,-17.463592300000002],[-66.1207911,-17.4633298],[-66.12092630000001,-17.4630493],[-66.1209693,-17.4629602],[-66.1212033,-17.4625804],[-66.1213503,-17.462354100000002],[-66.12138750000001,-17.462306400000003],[-66.12150190000001,-17.462159600000003],[-66.12158640000001,-17.4620596],[-66.12161710000001,-17.4620232],[-66.12167620000001,-17.461958600000003],[-66.1216986,-17.461934000000003],[-66.1217211,-17.461909400000003],[-66.12193420000001,-17.461676100000002],[-66.1219791,-17.461627],[-66.1221211,-17.461471500000002],[-66.122487,-17.4610741],[-66.12254440000001,-17.4610117],[-66.1227595,-17.4607864],[-66.12300090000001,-17.4604842],[-66.1231746,-17.4602353],[-66.1233454,-17.4599574],[-66.1235446,-17.459606400000002],[-66.12366,-17.459407900000002],[-66.1238264,-17.4591211],[-66.1239055,-17.458984800000003],[-66.12392700000001,-17.458947700000003],[-66.123993,-17.458824500000002],[-66.1240252,-17.4587641],[-66.12417740000001,-17.4584988],[-66.1242052,-17.458447800000002],[-66.124262,-17.4583438],[-66.1243891,-17.458101600000003],[-66.125476,-17.456208200000003],[-66.12574240000001,-17.4557794],[-66.1259268,-17.4555262],[-66.1260434,-17.4553663],[-66.1261599,-17.4552063],[-66.1266509,-17.454613400000003],[-66.12718020000001,-17.453983],[-66.1279622,-17.453075300000002],[-66.1281496,-17.452814500000002],[-66.1284488,-17.452408400000003],[-66.12848310000001,-17.4523678],[-66.1285742,-17.452265200000003],[-66.12878300000001,-17.452029800000002],[-66.1289235,-17.451867],[-66.12913970000001,-17.451620000000002],[-66.1291657,-17.451590200000002],[-66.1294345,-17.4513159],[-66.12968950000001,-17.4510541],[-66.12988080000001,-17.4508577],[-66.12998160000001,-17.4507572],[-66.1306673,-17.4500597],[-66.13072770000001,-17.4500025],[-66.1309258,-17.449815100000002],[-66.1311443,-17.449614800000003],[-66.1313635,-17.449430200000002],[-66.13193220000001,-17.448960500000002],[-66.13243440000001,-17.4485794],[-66.13302780000001,-17.4481623],[-66.13315390000001,-17.448073500000003],[-66.1336701,-17.4477489],[-66.1339081,-17.4475984],[-66.1340349,-17.4475349],[-66.1341388,-17.447470000000003],[-66.1342731,-17.4473629],[-66.13433640000001,-17.4473102],[-66.134454,-17.4472126],[-66.13453080000001,-17.447159600000003],[-66.13463560000001,-17.4470981],[-66.13476290000001,-17.447030100000003],[-66.13488070000001,-17.4469715],[-66.1352121,-17.4468129],[-66.1354716,-17.446696300000003],[-66.1359012,-17.4464788],[-66.13695460000001,-17.445887300000003],[-66.13725690000001,-17.4457182],[-66.1374399,-17.445615800000002],[-66.13883990000001,-17.4448353],[-66.13989760000001,-17.444245600000002],[-66.1401165,-17.4441092],[-66.14047040000001,-17.443862000000003],[-66.1407858,-17.443612],[-66.14082900000001,-17.443572900000003],[-66.14103510000001,-17.4433803],[-66.14224560000001,-17.442256200000003],[-66.1423104,-17.442200800000002],[-66.14236890000001,-17.4421295],[-66.1424013,-17.4420784],[-66.1424279,-17.442036400000003],[-66.14251490000001,-17.4419016],[-66.1425487,-17.441851900000003],[-66.14259030000001,-17.4418022],[-66.1427171,-17.441682],[-66.1427848,-17.441626300000003],[-66.1429796,-17.4414878],[-66.14330170000001,-17.441260500000002],[-66.1433971,-17.441185400000002],[-66.14347690000001,-17.441114900000002],[-66.14355660000001,-17.4410285],[-66.1435969,-17.4409782],[-66.14382040000001,-17.4406992],[-66.14399470000001,-17.440435100000002],[-66.14419330000001,-17.4401057],[-66.1442117,-17.440072200000003],[-66.14445710000001,-17.4396257],[-66.144834,-17.438950700000003],[-66.1448555,-17.438912300000002],[-66.14509550000001,-17.4385072],[-66.1451778,-17.4383541],[-66.1452495,-17.438213],[-66.14528460000001,-17.438131400000003],[-66.145324,-17.438039800000002],[-66.1453867,-17.437914000000003],[-66.14541120000001,-17.437866300000003],[-66.1454418,-17.4378068],[-66.1454977,-17.437707000000003],[-66.14569680000001,-17.4374639],[-66.14591820000001,-17.4372088],[-66.14611380000001,-17.4369489],[-66.1466853,-17.436179600000003],[-66.14733860000001,-17.4353002],[-66.1474728,-17.4351141],[-66.14793250000001,-17.4344888],[-66.1482129,-17.4341118],[-66.1485268,-17.4336898],[-66.1489382,-17.4331591],[-66.14925550000001,-17.4327246],[-66.14939190000001,-17.4325213],[-66.149747,-17.432055000000002],[-66.1500503,-17.4316567],[-66.1502384,-17.4313818],[-66.15037170000001,-17.431185300000003],[-66.1504225,-17.4311054],[-66.15052250000001,-17.4309346],[-66.15054930000001,-17.4308836],[-66.1507479,-17.4305056],[-66.15081190000001,-17.4303664],[-66.1509092,-17.430102400000003],[-66.1509693,-17.429924800000002],[-66.150999,-17.4298541],[-66.15102200000001,-17.4298055],[-66.1511069,-17.4296341],[-66.1512046,-17.429471600000003],[-66.1512951,-17.429341800000003],[-66.15135910000001,-17.4292678],[-66.1514234,-17.429199500000003],[-66.1515071,-17.429114000000002],[-66.1520629,-17.4286034],[-66.1524789,-17.428200500000003],[-66.1527178,-17.427944200000002],[-66.1529307,-17.4276804],[-66.1530846,-17.4274518],[-66.1532732,-17.4270934],[-66.1534092,-17.426773400000002],[-66.1535061,-17.426477100000003],[-66.1536583,-17.4258662],[-66.1537421,-17.4255007],[-66.15378410000001,-17.425112700000003],[-66.153788,-17.425082800000002],[-66.15378910000001,-17.4250127],[-66.1537952,-17.4246383],[-66.1537825,-17.424189100000003],[-66.15375490000001,-17.4238131],[-66.1537423,-17.4236599],[-66.15374,-17.4236463],[-66.1536868,-17.4233294],[-66.15361530000001,-17.422936800000002],[-66.1535906,-17.422801200000002],[-66.15347030000001,-17.4222569],[-66.15345710000001,-17.422197],[-66.1534055,-17.4220523],[-66.15331730000001,-17.421904100000003],[-66.15325990000001,-17.421819600000003],[-66.15320480000001,-17.421748200000003],[-66.153108,-17.421653600000003],[-66.15308850000001,-17.421645400000003],[-66.1530706,-17.421633200000002],[-66.15305310000001,-17.4216146],[-66.1530292,-17.421584300000003],[-66.15301210000001,-17.4215488],[-66.15300470000001,-17.4215206],[-66.15300230000001,-17.4214819],[-66.153006,-17.421454100000002],[-66.15301410000001,-17.421427100000002],[-66.15302650000001,-17.421401600000003],[-66.15303990000001,-17.4213819],[-66.1530548,-17.421365100000003],[-66.1530582,-17.4212451],[-66.1530651,-17.4211661],[-66.1530566,-17.4210391],[-66.1530058,-17.420819700000003],[-66.15293630000001,-17.420663],[-66.15280650000001,-17.420377000000002],[-66.15261190000001,-17.4199819],[-66.1525969,-17.419952400000003],[-66.15247810000001,-17.419718800000002],[-66.1523142,-17.4194022],[-66.15218300000001,-17.419165600000003],[-66.15181340000001,-17.418523200000003],[-66.1517008,-17.4183133],[-66.1515933,-17.418084],[-66.1515593,-17.417976200000002],[-66.15153880000001,-17.4178989],[-66.1515294,-17.417838300000003],[-66.15152140000001,-17.4177646],[-66.1515169,-17.417669200000002],[-66.1515174,-17.4176253],[-66.15151900000001,-17.4174973],[-66.15153620000001,-17.4173158],[-66.1515451,-17.4171988],[-66.1515701,-17.417080700000003],[-66.1515696,-17.417045400000003],[-66.15157660000001,-17.417010700000002],[-66.1515921,-17.4169759],[-66.151615,-17.416945100000003],[-66.15164440000001,-17.4169197],[-66.15167890000001,-17.416901000000003],[-66.15171670000001,-17.4168898],[-66.15181050000001,-17.4168418],[-66.1518939,-17.4167913],[-66.15196060000001,-17.4167248],[-66.1520277,-17.416647400000002],[-66.15288980000001,-17.4155516],[-66.15303750000001,-17.415364500000003],[-66.1531339,-17.415198],[-66.1532202,-17.415029],[-66.15328720000001,-17.4148891],[-66.15337190000001,-17.414694800000003],[-66.153436,-17.4145295],[-66.15350140000001,-17.414284900000002],[-66.1535365,-17.4141511],[-66.1535482,-17.4139188],[-66.15354950000001,-17.4136573],[-66.15354450000001,-17.4131541],[-66.15353200000001,-17.4127672],[-66.15350620000001,-17.412521100000003],[-66.15348440000001,-17.4124233],[-66.1534379,-17.4123275],[-66.1533739,-17.4122349],[-66.1532664,-17.412123700000002],[-66.152996,-17.4119476],[-66.15200150000001,-17.411300100000002],[-66.1514052,-17.4109111],[-66.1512278,-17.410788500000002],[-66.1509735,-17.410597900000003],[-66.150846,-17.410498],[-66.1508721,-17.410433400000002],[-66.1509236,-17.410392],[-66.15097580000001,-17.4103801],[-66.1510319,-17.4103847],[-66.1517886,-17.410890300000002],[-66.15266770000001,-17.4114626],[-66.15326920000001,-17.4118284],[-66.1533627,-17.41188],[-66.15339850000001,-17.411893000000003],[-66.15344520000001,-17.411901200000003],[-66.1535029,-17.4119093],[-66.1534726,-17.4104835],[-66.1534922,-17.410274400000002],[-66.153473,-17.409858500000002],[-66.1534302,-17.408289],[-66.15340370000001,-17.407548600000002],[-66.1533921,-17.4070536],[-66.1533606,-17.4061008],[-66.15333480000001,-17.4052833],[-66.15332400000001,-17.4048628],[-66.1533227,-17.4048012],[-66.1532959,-17.403607500000003],[-66.1532969,-17.403542400000003],[-66.15329340000001,-17.4032094],[-66.1533194,-17.4031272],[-66.1533196,-17.4030749],[-66.1533203,-17.4029579],[-66.15332000000001,-17.402878100000002],[-66.15331970000001,-17.4028096],[-66.1533193,-17.402737000000002],[-66.1533222,-17.4026581],[-66.1533227,-17.402572300000003],[-66.15332550000001,-17.402501200000003],[-66.1533234,-17.4024287],[-66.15332380000001,-17.4023639],[-66.1533031,-17.4023036],[-66.1532722,-17.4014247],[-66.15325,-17.4007249],[-66.15322660000001,-17.3999032],[-66.1531973,-17.3991016],[-66.15319210000001,-17.398998000000002],[-66.1531927,-17.3988455],[-66.15319450000001,-17.3987646],[-66.15319960000001,-17.398702200000002],[-66.15325340000001,-17.3984238],[-66.15332190000001,-17.398064100000003],[-66.1535317,-17.397006],[-66.15373170000001,-17.3959471],[-66.1539142,-17.394938200000002],[-66.15392250000001,-17.394892300000002],[-66.15393060000001,-17.394848300000003],[-66.15400100000001,-17.3944662],[-66.15401100000001,-17.3944121],[-66.15410510000001,-17.3938959],[-66.1541124,-17.3938613],[-66.1541225,-17.3938175],[-66.15431310000001,-17.392865500000003],[-66.1543214,-17.3928243],[-66.1543276,-17.392791300000003],[-66.1544925,-17.3919251],[-66.15450050000001,-17.3918758],[-66.1545177,-17.3917873],[-66.1545971,-17.3918012],[-66.1550581,-17.3918822],[-66.155297,-17.391924200000002],[-66.15553580000001,-17.3919661],[-66.1556012,-17.3919776],[-66.15566120000001,-17.3919889],[-66.1566289,-17.3921703],[-66.15667280000001,-17.3921785],[-66.156727,-17.392187500000002],[-66.1573168,-17.3922886],[-66.1577055,-17.3923552],[-66.157753,-17.3923634],[-66.1577984,-17.3923713],[-66.15796230000001,-17.392399700000002],[-66.1585898,-17.3925084],[-66.1587059,-17.3925285],[-66.1587863,-17.3925424],[-66.158879,-17.3925589],[-66.1589397,-17.3925698],[-66.1598762,-17.3927236],[-66.1599202,-17.3927307],[-66.1599716,-17.3927397],[-66.1610041,-17.392913500000002],[-66.1610608,-17.3929264],[-66.1611287,-17.392944],[-66.1613786,-17.392987700000003],[-66.1615323,-17.393014500000003],[-66.1619926,-17.393095000000002],[-66.1620628,-17.3931073],[-66.1621604,-17.393123600000003],[-66.16279990000001,-17.3932302],[-66.16387610000001,-17.393409600000002],[-66.16392780000001,-17.393418200000003],[-66.16399150000001,-17.393430000000002],[-66.16492090000001,-17.3936022],[-66.1659169,-17.393779300000002],[-66.1661485,-17.39382],[-66.1661971,-17.3938251],[-66.1664389,-17.3938288],[-66.16661040000001,-17.3938412],[-66.1667802,-17.393886700000003],[-66.16693740000001,-17.3939373],[-66.1673519,-17.3939756],[-66.16737610000001,-17.393974200000002],[-66.167449,-17.393973900000002],[-66.1675661,-17.393955400000003],[-66.1677971,-17.393916100000002],[-66.16782760000001,-17.3939109],[-66.16786,-17.3939053],[-66.16799400000001,-17.3938847],[-66.1680638,-17.393877900000003],[-66.1683952,-17.393863900000003],[-66.16860340000001,-17.3938542],[-66.1686861,-17.3938503],[-66.1687744,-17.393846200000002],[-66.169044,-17.3938336],[-66.169397,-17.3937798],[-66.17022320000001,-17.3937475],[-66.17046400000001,-17.393742800000002],[-66.17053440000001,-17.393741400000003],[-66.17057030000001,-17.3937406],[-66.1706025,-17.3937291],[-66.17062680000001,-17.3937242],[-66.1706515,-17.3937223],[-66.1706764,-17.3937233],[-66.1707008,-17.3937272],[-66.1707334,-17.393737400000003],[-66.170806,-17.393716700000002],[-66.170822,-17.3937126],[-66.17085700000001,-17.393704500000002],[-66.1709593,-17.393689400000003],[-66.1723743,-17.3936297],[-66.173901,-17.3935555],[-66.17390370000001,-17.393598400000002],[-66.17391160000001,-17.393719800000003],[-66.17435850000001,-17.3937004],[-66.17445380000001,-17.3936962],[-66.17631180000001,-17.393615500000003],[-66.17640320000001,-17.393611500000002],[-66.17645250000001,-17.393609400000003],[-66.17657580000001,-17.393604],[-66.17680170000001,-17.3935944],[-66.1775114,-17.393564400000002],[-66.17858620000001,-17.3935123],[-66.17997820000001,-17.3934515],[-66.18095240000001,-17.3934044],[-66.1825074,-17.393342200000003],[-66.18309880000001,-17.393242100000002],[-66.1837505,-17.393215400000003],[-66.1839496,-17.3932085],[-66.18401610000001,-17.3931961],[-66.184075,-17.393165600000003],[-66.1840878,-17.3931502],[-66.18411920000001,-17.3931238],[-66.18415900000001,-17.3931],[-66.1842099,-17.393081000000002],[-66.18426380000001,-17.3930726],[-66.18431840000001,-17.393075000000003],[-66.18435720000001,-17.393083],[-66.18441170000001,-17.3931067],[-66.18444810000001,-17.393131200000003],[-66.1845143,-17.393158300000003],[-66.1845797,-17.3931706],[-66.1847563,-17.3931666],[-66.185423,-17.393142700000002],[-66.18576420000001,-17.3931305],[-66.1864116,-17.3931714],[-66.18663930000001,-17.3931593],[-66.1874124,-17.3931268],[-66.1888567,-17.393062800000003],[-66.18927430000001,-17.3930444],[-66.1911252,-17.3929577],[-66.1921353,-17.3929072],[-66.19389860000001,-17.392841200000003],[-66.19472350000001,-17.3928088],[-66.1969299,-17.392707700000003],[-66.19707530000001,-17.3927008],[-66.1987218,-17.392627],[-66.1989338,-17.392616500000003],[-66.19947400000001,-17.3925896],[-66.19953740000001,-17.392586400000003],[-66.1996008,-17.392583300000002],[-66.1996781,-17.392580000000002],[-66.19981580000001,-17.3925734],[-66.20019090000001,-17.3925553],[-66.2025337,-17.3924534],[-66.2032418,-17.3924227],[-66.203618,-17.3924063],[-66.2050914,-17.3923528],[-66.20721280000001,-17.392253800000002],[-66.2074111,-17.3922446],[-66.20800460000001,-17.3922214],[-66.2080481,-17.392219500000003],[-66.2080916,-17.3922175],[-66.2080901,-17.392053500000003],[-66.2080253,-17.390823],[-66.20716230000001,-17.390809200000003],[-66.20632330000001,-17.390806100000002],[-66.2062903,-17.3898741],[-66.20568890000001,-17.389896800000002],[-66.20562790000001,-17.389899200000002],[-66.20498350000001,-17.3899341],[-66.20465750000001,-17.389949],[-66.2044379,-17.389959100000002],[-66.20433480000001,-17.3899629],[-66.2037787,-17.389991700000003],[-66.2036879,-17.389997700000002],[-66.20367540000001,-17.389803200000003],[-66.20376680000001,-17.3898045],[-66.2037628,-17.389742100000003],[-66.20374620000001,-17.3893941],[-66.2038136,-17.389360200000002],[-66.20384800000001,-17.389332900000003],[-66.2038677,-17.3893038],[-66.2038813,-17.3892376],[-66.2038761,-17.389141900000002],[-66.2038363,-17.388409000000003],[-66.2038304,-17.3881775],[-66.2037684,-17.3869015],[-66.2037392,-17.3864422],[-66.2029167,-17.3864933],[-66.2028379,-17.3855672],[-66.20275120000001,-17.384675100000003],[-66.20275880000001,-17.384562900000002],[-66.2029286,-17.3845174],[-66.2030924,-17.384498200000003],[-66.2036077,-17.384478],[-66.20400310000001,-17.3844664],[-66.2044376,-17.3844527],[-66.2045052,-17.384452200000002],[-66.20457490000001,-17.3844518],[-66.20529160000001,-17.3844274],[-66.20584330000001,-17.3844497],[-66.20595820000001,-17.3844499],[-66.20606000000001,-17.384450100000002],[-66.20621960000001,-17.384452600000003],[-66.2078156,-17.3843596],[-66.2078793,-17.384368100000003]],"nodes":[2032843909,3625642979,2032843493,2032843460,2032843505,2032843710,8726674428,2032843871,2032843738,2032843629,3036288160,3625715188,3627925192,3625723594,3625723596,2032843482,3036288162,2032843747,3625723603,2032843700,2032843875,3036288176,2032843649,3036288148,2032843476,3625723636,2032843852,2032843861,3036288118,3625723656,2032843860,2032843905,2032843755,3625723820,2032843473,2032843498,2032843815,2032843776,2032843623,3625723830,2032843537,3625723855,2032843849,2032843765,3625723852,2032843794,2032843790,2032843898,12468188691,3625723817,3625723822,2032843600,2032843799,3625723854,2032843638,9905423424,3625723868,2032843801,2032843704,7940871907,7940871915,7940871916,9905423458,7940871892,9905423455,7940871894,9905423456,7940871895,9905423457,7940871906,2032843842,3624216934,319754482,7157110098,3622574411,3622574406,7157110097,319754475,3622574398,7157110099,3622574393,3622574391,12624011743,3622574387,3622574385,3622574383,12624011742,3622574380,3017298918,12624011741,319754451,3622574367,3622574359,319754377,6787670129,12624011740,3622574348,319754372,648527598,7940871670,3016887839,3016887864,3622574169,549671996,3620629452,7157110103,319754367,10841267447,7940871644,627239860,2677330417,6787670102,7940871650,3620629423,319754270,5862416687,7157110102,319754262,3620629408,2677330405,10008015701,3620629404,319754252,3620629400,2677330392,2677330386,3620629393,319754243,8484163746,10008015704,3640222391,10008002012,10008002014,3620629274,2677330333,7940871664,11898053462,319754224,11898053461,7940871966,11832632016,11898090475,3017320608,6186229525,10008015629,2677330302,11898053464,2677330289,6326519624,2677330253,9528460866,9528460867,319754215,3534069519,11898053444,11898053446,7555124987,9528460879,7555124956,497182714,9528460882,3620629178,9528460896,497182719,2677221250,11898090486,11898090488,497182724,4003626576,497182730,3534069496,9528470228,2686184589,1600457628,9528470242,7064894162,627239867,12544889678,1499573861,6733961583,11898090501,8462486891,2528680937,497182734,11898090511,6185969459,6185969461,4414152689,497182739,2032685190,10028602215,2528680788,9036572241,2528680753,8462984274,2528680726,8462984273,10028486962,2528680660,2528680664,2528680635,8462984275,2528680609,6326510336,1499941832,2528680557,2528680511,6734000429,2528680496,2104228933,497182742,6185973499,2528680440,8462994668,10028610984,497182743,4402059971,8462994636,2778806620,8462994751,2778806617,3675745358,10030672001,1637668183,1637668139,3669248188,3675745356,2778806592,1637668079,10030745064,497182745,8462994722,3539625577,497182746,3951278856,8462994808,2778806580,10030867290,3017405857,1637648664,2778806571,3577187542,9188521934,3577187540,1637648641,9188521936,2778806551,3675745354,3574907097,2778806536,2045530066,10032549115,2778806531,3573684453,2778806526,3017405869,2045529859,8465159296,3573684257,2778806507,10040814048,2053282980,4414218814,4414218817,497182748,2045529783,10038420070,497182749,2778806498,2778806496,2778806486,9188620433,2778806481,648536528,646061387,646061391,3307473715,3307473697,2778806472,2778806447,3307473640,646061394,2778806438,646061399,2778806435,3307473550,2778806433,646061406,1638830107,10040814017,646061410,13416155728,2778806425,2778806422,2778806420,10040814088,10040814089,646061414,10040977410,2045510866,10040986817,646061425,3315367976,3315367972,10040986823,3675745353,10040986829,10830574938,646061429,10040986826,3315367951,646061554,10040986835,3577938002,646061558,10040986836,3315367938,10040986831,2045510732,3675745351,646061079,646061081,3315367911,3315367906,2045510589,3315367878,8236485309,2045510724,4414240043,2045510959,3017372545,8236494244,646061085,3315367739,3315367731,3315367725,3315367723,3315367710,3675745347,646061086,646061088,3675745345,646061145,3315367671,646061153,3315367666,702511586,3315367459,646061155,3315367455,3315367447,3315367434,3315367429,648538850,8226236120,648538851,3017372524,648538853,648538855,3315367365,3315367364,648538857,648538859,5610210473,6338367056,5610210474,5610210475,6338367057,5610210477,5610210478,5610210479,698491840,9139129399,3017385039,8208217907,5610210863,8208217912,5610210874,6235286624,6235286622,6235286623,5610210828,8996505329,5610210465,5610210830,5610210833,9435142305,5610210835,5610210483,5610210485,5610210512,702511599,843383892,702511670,702511660,702511697,8236165731,2765190485,702511759,6129316876,6129316829,6471478536,5313058809,5313058790,6471287448,6471287453,6471287450,5313058818,5313058738,5313058812,5313058814,5313058816,6471287464,308300568,308300567,308300566,308300474,308300473,8238783213,648548911,3269819960,9941529680,8238783256,308300470,308300469,308300467,10711496712,308300466,10711496714,8964752740,315103283,10711496716,303217863,10711496720,8964738192,308300565,8964738194,2292218213,698492397,303218728,2292218208,9567473057,10884624348,4503778522,303218729,2292218216,2295541574,303218730,2295541575,8609183214,2295541589,308297343,2295541594,11043280710,9704099835,2295541614,308297344,648546083,2295541617,2694171662,308297345,2694171663,2694171668,308297346,2694171669,9155792279,9155792272,8565985149,308297347,10879431901,10792253179,13131123327,308297348,10792253185,308297349,308297350,9515033287,315114806,315936458,315936460,2330755896,315936461,11079352070,7353579718,2420519732,4732874465,9081829378,497205202,8320364713,12088438232,2420519599,563279534,9081461994,6952929961,12678181847,563279527,13280092695,13303071583,13416534074,13436362626,13416534039,13416534069,13416534040,13416534057,13416534034,13416534070,13303071587,13416534075,13416534076,13436362650,11081593218,563279519,563279515,2527263173,2527263184,2527263182,9081435138,13438103968,13438065396,563279499,2339557951,9081523771,2354386743,560522668,563279456,689437115,4398499281,6326480493,5868941113,4398499276,9058185001,4398318253,4398318322,9058185004,4398318252,4398318251,4398318325,4398318324,4398318265,5869420118,4398318263,8474493071,4398499273,5868941098,4398499270,6326495610,4398499272,2635402927,2354386761,560522361,2292218251,2292218247,2418530992,5581228588,2418530981,2137733242,2137733243,1807038051,12650627924,8235455989,12650627935,1807038048,2354386770,2429829237,6846214146,11084175485,11084175483,6846214133,2417368043,11084175482,8200481419,8235936958,13685730898,5579061862,2417367878,560084548,560084549,560084553,560084559,8995432780,560084560,560084561,8995432793,560084566,560084562,6846214183,2417367870,6846214184,560084557,2417367869,560084564,2417367867,5393880302,2417367864,560084565,560084568,560084571,560084572,560084573,560084569,560084591,560084613,2357131269,560084612,3259852031,560084615,560084614,560437415,5371387024,560084576,5371387022,560084581,5371385520,560437411,5371385519,8995432796,8995432808,560084579]},"gtfs":{"agency_id":3,"route_id":84,"services":[{"service_id":"Mo-Su","startTime":"06:00","endTime":"22:00","trip_id":10667060}],"filteredStops":{"nodes":[2032843909,3625642979,2032843493,2032843460,2032843505,2032843710,8726674428,2032843871,2032843738,2032843629,3036288160,3625715188,3627925192,3625723594,3625723596,2032843482,3036288162,2032843747,3625723603,2032843700,2032843875,3036288176,2032843649,3036288148,2032843476,3625723636,2032843852,2032843861,3036288118,3625723656,2032843860,2032843905,2032843755,3625723820,2032843473,2032843498,2032843815,2032843776,2032843623,3625723830,2032843537,3625723855,2032843849,2032843765,3625723852,2032843794,2032843790,2032843898,12468188691,3625723817,3625723822,2032843600,2032843799,3625723854,2032843638,9905423424,3625723868,2032843801,2032843704,7940871907,7940871915,7940871916,9905423458,7940871892,9905423455,7940871894,9905423456,7940871895,9905423457,7940871906,2032843842,3624216934,319754482,7157110098,3622574411,3622574406,7157110097,319754475,3622574398,7157110099,3622574393,3622574391,12624011743,3622574387,3622574385,3622574383,12624011742,3622574380,3017298918,12624011741,319754451,3622574367,3622574359,319754377,6787670129,12624011740,3622574348,319754372,648527598,7940871670,3016887839,3016887864,3622574169,549671996,3620629452,7157110103,319754367,10841267447,7940871644,627239860,2677330417,6787670102,7940871650,3620629423,319754270,5862416687,7157110102,319754262,3620629408,2677330405,10008015701,3620629404,319754252,3620629400,2677330392,2677330386,3620629393,319754243,8484163746,10008015704,3640222391,10008002012,10008002014,3620629274,2677330333,7940871664,11898053462,319754224,11898053461,7940871966,11832632016,11898090475,3017320608,6186229525,10008015629,2677330302,11898053464,2677330289,6326519624,2677330253,9528460866,9528460867,319754215,3534069519,11898053444,11898053446,7555124987,9528460879,7555124956,497182714,9528460882,3620629178,9528460896,497182719,2677221250,11898090486,11898090488,497182724,4003626576,497182730,3534069496,9528470228,2686184589,1600457628,9528470242,7064894162,627239867,12544889678,1499573861,6733961583,11898090501,8462486891,2528680937,497182734,11898090511,6185969459,6185969461,4414152689,497182739,2032685190,10028602215,2528680788,9036572241,2528680753,8462984274,2528680726,8462984273,10028486962,2528680660,2528680664,2528680635,8462984275,2528680609,6326510336,1499941832,2528680557,2528680511,6734000429,2528680496,2104228933,497182742,6185973499,2528680440,8462994668,10028610984,497182743,4402059971,8462994636,2778806620,8462994751,2778806617,3675745358,10030672001,1637668183,1637668139,3669248188,3675745356,2778806592,1637668079,10030745064,497182745,8462994722,3539625577,497182746,3951278856,8462994808,2778806580,10030867290,3017405857,1637648664,2778806571,3577187542,9188521934,3577187540,1637648641,9188521936,2778806551,3675745354,3574907097,2778806536,2045530066,10032549115,2778806531,3573684453,2778806526,3017405869,2045529859,8465159296,3573684257,2778806507,10040814048,2053282980,4414218814,4414218817,497182748,2045529783,10038420070,497182749,2778806498,2778806496,2778806486,9188620433,2778806481,648536528,646061387,646061391,3307473715,3307473697,2778806472,2778806447,3307473640,646061394,2778806438,646061399,2778806435,3307473550,2778806433,646061406,1638830107,10040814017,646061410,13416155728,2778806425,2778806422,2778806420,10040814088,10040814089,646061414,10040977410,2045510866,10040986817,646061425,3315367976,3315367972,10040986823,3675745353,10040986829,10830574938,646061429,10040986826,3315367951,646061554,10040986835,3577938002,646061558,10040986836,3315367938,10040986831,2045510732,3675745351,646061079,646061081,3315367911,3315367906,2045510589,3315367878,8236485309,2045510724,4414240043,2045510959,3017372545,8236494244,646061085,3315367739,3315367731,3315367725,3315367723,3315367710,3675745347,646061086,646061088,3675745345,646061145,3315367671,646061153,3315367666,702511586,3315367459,646061155,3315367455,3315367447,3315367434,3315367429,648538850,8226236120,648538851,3017372524,648538853,648538855,3315367365,3315367364,648538857,648538859,5610210473,6338367056,5610210474,5610210475,6338367057,5610210477,5610210478,5610210479,698491840,9139129399,3017385039,8208217907,5610210863,8208217912,5610210874,6235286624,6235286622,6235286623,5610210828,8996505329,5610210465,5610210830,5610210833,9435142305,5610210835,5610210483,5610210485,5610210512,702511599,843383892,702511670,702511660,702511697,8236165731,2765190485,702511759,6129316876,6129316829,6471478536,5313058809,5313058790,6471287448,6471287453,6471287450,5313058818,5313058738,5313058812,5313058814,5313058816,6471287464,308300568,308300567,308300566,308300474,308300473,8238783213,648548911,3269819960,9941529680,8238783256,308300470,308300469,308300467,10711496712,308300466,10711496714,8964752740,315103283,10711496716,303217863,10711496720,8964738192,308300565,8964738194,2292218213,698492397,303218728,2292218208,9567473057,10884624348,4503778522,303218729,2292218216,2295541574,303218730,2295541575,8609183214,2295541589,308297343,2295541594,11043280710,9704099835,2295541614,308297344,648546083,2295541617,2694171662,308297345,2694171663,2694171668,308297346,2694171669,9155792279,9155792272,8565985149,308297347,10879431901,10792253179,13131123327,308297348,10792253185,308297349,308297350,9515033287,315114806,315936458,315936460,2330755896,315936461,11079352070,7353579718,2420519732,4732874465,9081829378,497205202,8320364713,12088438232,2420519599,563279534,9081461994,6952929961,12678181847,563279527,13280092695,13303071583,13416534074,13436362626,13416534039,13416534069,13416534040,13416534057,13416534034,13416534070,13303071587,13416534075,13416534076,13436362650,11081593218,563279519,563279515,2527263173,2527263184,2527263182,9081435138,13438103968,13438065396,563279499,2339557951,9081523771,2354386743,560522668,563279456,689437115,4398499281,6326480493,5868941113,4398499276,9058185001,4398318253,4398318322,9058185004,4398318252,4398318251,4398318325,4398318324,4398318265,5869420118,4398318263,8474493071,4398499273,5868941098,4398499270,6326495610,4398499272,2635402927,2354386761,560522361,2292218251,2292218247,2418530992,5581228588,2418530981,2137733242,2137733243,1807038051,12650627924,8235455989,12650627935,1807038048,2354386770,2429829237,6846214146,11084175485,11084175483,6846214133,2417368043,11084175482,8200481419,8235936958,13685730898,5579061862,2417367878,560084548,560084549,560084553,560084559,8995432780,560084560,560084561,8995432793,560084566,560084562,6846214183,2417367870,6846214184,560084557,2417367869,560084564,2417367867,5393880302,2417367864,560084565,560084568,560084571,560084572,560084573,560084569,560084591,560084613,2357131269,560084612,3259852031,560084615,560084614,560437415,5371387024,560084576,5371387022,560084581,5371385520,560437411,5371385519,8995432796,8995432808,560084579],"coordinates":[[-66.0982548,-17.471729900000003],[-66.0992183,-17.4718105],[-66.0999548,-17.4718614],[-66.1005245,-17.4718488],[-66.1012252,-17.4717948],[-66.1013806,-17.471883100000003],[-66.10160850000001,-17.4720294],[-66.10186610000001,-17.4721806],[-66.10235320000001,-17.472415100000003],[-66.102511,-17.4725392],[-66.1026193,-17.472647100000003],[-66.1028028,-17.472807000000003],[-66.10300880000001,-17.4729864],[-66.10327210000001,-17.473215900000003],[-66.1033221,-17.473282400000002],[-66.1033695,-17.4733486],[-66.10344880000001,-17.4734042],[-66.1035461,-17.473447],[-66.10372000000001,-17.473540500000002],[-66.103775,-17.4735811],[-66.1038135,-17.4736179],[-66.10389830000001,-17.473767300000002],[-66.104214,-17.474334900000002],[-66.1042553,-17.4744193],[-66.10439880000001,-17.4747419],[-66.104472,-17.4749082],[-66.1045351,-17.474995600000003],[-66.1047455,-17.4752131],[-66.1047975,-17.475266100000002],[-66.1051731,-17.4756696],[-66.1052769,-17.475754900000002],[-66.10539960000001,-17.4757876],[-66.10620940000001,-17.4759181],[-66.1064489,-17.475905],[-66.1067689,-17.4759141],[-66.1071412,-17.4759686],[-66.1074069,-17.4759831],[-66.10778730000001,-17.4759618],[-66.10800850000001,-17.4759625],[-66.10822870000001,-17.475975000000002],[-66.1085305,-17.4760387],[-66.10898590000001,-17.476140700000002],[-66.10910080000001,-17.476161700000002],[-66.1093254,-17.4761546],[-66.1095519,-17.4761317],[-66.10967430000001,-17.476087300000003],[-66.10996890000001,-17.475954700000003],[-66.11009800000001,-17.4759341],[-66.11019440000001,-17.4759253],[-66.1103551,-17.4759105],[-66.11049650000001,-17.4759117],[-66.11070070000001,-17.475945900000003],[-66.11101470000001,-17.476065400000003],[-66.1111571,-17.4761238],[-66.11122610000001,-17.476178800000003],[-66.111271,-17.476253800000002],[-66.1113406,-17.4764702],[-66.11139060000001,-17.4765647],[-66.1114582,-17.4766391],[-66.11152320000001,-17.476683700000002],[-66.11158850000001,-17.476709600000003],[-66.1116583,-17.476722300000002],[-66.11166370000001,-17.4767006],[-66.1116721,-17.4766799],[-66.1116863,-17.476655700000002],[-66.1117045,-17.476634],[-66.11172610000001,-17.4766154],[-66.1117507,-17.4766003],[-66.11177740000001,-17.476589200000003],[-66.1118057,-17.4765824],[-66.1118593,-17.476581600000003],[-66.11193420000001,-17.476382800000003],[-66.1120645,-17.4761056],[-66.11216610000001,-17.4758645],[-66.1122455,-17.4755866],[-66.11229540000001,-17.475330000000003],[-66.11230110000001,-17.475166100000003],[-66.1123012,-17.4741569],[-66.11230330000001,-17.4738988],[-66.11232410000001,-17.473753100000003],[-66.11237910000001,-17.4735538],[-66.1125574,-17.473042000000003],[-66.1125988,-17.4728828],[-66.11263050000001,-17.472703600000003],[-66.1126462,-17.472431500000003],[-66.11266470000001,-17.471742600000002],[-66.1126692,-17.4715874],[-66.11269320000001,-17.4714296],[-66.11272770000001,-17.471260500000003],[-66.1128357,-17.471023000000002],[-66.11296420000001,-17.4708264],[-66.11313480000001,-17.4706447],[-66.11325860000001,-17.470535700000003],[-66.113454,-17.4703945],[-66.113892,-17.4700737],[-66.11407460000001,-17.469950200000003],[-66.1143296,-17.4697421],[-66.1145759,-17.469497800000003],[-66.11481590000001,-17.4691867],[-66.1149469,-17.468965800000003],[-66.11502060000001,-17.4688415],[-66.1151993,-17.4685123],[-66.1157932,-17.4674285],[-66.1159416,-17.467171500000003],[-66.1160359,-17.4670251],[-66.1162185,-17.466803900000002],[-66.1163997,-17.466639200000003],[-66.11651210000001,-17.4665612],[-66.1166245,-17.4665004],[-66.11687780000001,-17.4663785],[-66.117084,-17.466321100000002],[-66.1172452,-17.466279500000002],[-66.11758920000001,-17.466225],[-66.11795210000001,-17.466174600000002],[-66.1181956,-17.466125100000003],[-66.11842060000001,-17.466065200000003],[-66.1186684,-17.4659812],[-66.11896340000001,-17.4658468],[-66.119218,-17.4656942],[-66.1194255,-17.4655452],[-66.11956350000001,-17.465419100000002],[-66.1196237,-17.4653718],[-66.1197681,-17.465227900000002],[-66.11991830000001,-17.465055200000002],[-66.120062,-17.4648633],[-66.12017800000001,-17.464652800000003],[-66.1202744,-17.4644717],[-66.12036540000001,-17.4642811],[-66.1204562,-17.464082],[-66.12057220000001,-17.463827700000003],[-66.1206796,-17.463592300000002],[-66.1207911,-17.4633298],[-66.12092630000001,-17.4630493],[-66.1209693,-17.4629602],[-66.1212033,-17.4625804],[-66.1213503,-17.462354100000002],[-66.12138750000001,-17.462306400000003],[-66.12150190000001,-17.462159600000003],[-66.12158640000001,-17.4620596],[-66.12161710000001,-17.4620232],[-66.12167620000001,-17.461958600000003],[-66.1216986,-17.461934000000003],[-66.1217211,-17.461909400000003],[-66.12193420000001,-17.461676100000002],[-66.1219791,-17.461627],[-66.1221211,-17.461471500000002],[-66.122487,-17.4610741],[-66.12254440000001,-17.4610117],[-66.1227595,-17.4607864],[-66.12300090000001,-17.4604842],[-66.1231746,-17.4602353],[-66.1233454,-17.4599574],[-66.1235446,-17.459606400000002],[-66.12366,-17.459407900000002],[-66.1238264,-17.4591211],[-66.1239055,-17.458984800000003],[-66.12392700000001,-17.458947700000003],[-66.123993,-17.458824500000002],[-66.1240252,-17.4587641],[-66.12417740000001,-17.4584988],[-66.1242052,-17.458447800000002],[-66.124262,-17.4583438],[-66.1243891,-17.458101600000003],[-66.125476,-17.456208200000003],[-66.12574240000001,-17.4557794],[-66.1259268,-17.4555262],[-66.1260434,-17.4553663],[-66.1261599,-17.4552063],[-66.1266509,-17.454613400000003],[-66.12718020000001,-17.453983],[-66.1279622,-17.453075300000002],[-66.1281496,-17.452814500000002],[-66.1284488,-17.452408400000003],[-66.12848310000001,-17.4523678],[-66.1285742,-17.452265200000003],[-66.12878300000001,-17.452029800000002],[-66.1289235,-17.451867],[-66.12913970000001,-17.451620000000002],[-66.1291657,-17.451590200000002],[-66.1294345,-17.4513159],[-66.12968950000001,-17.4510541],[-66.12988080000001,-17.4508577],[-66.12998160000001,-17.4507572],[-66.1306673,-17.4500597],[-66.13072770000001,-17.4500025],[-66.1309258,-17.449815100000002],[-66.1311443,-17.449614800000003],[-66.1313635,-17.449430200000002],[-66.13193220000001,-17.448960500000002],[-66.13243440000001,-17.4485794],[-66.13302780000001,-17.4481623],[-66.13315390000001,-17.448073500000003],[-66.1336701,-17.4477489],[-66.1339081,-17.4475984],[-66.1340349,-17.4475349],[-66.1341388,-17.447470000000003],[-66.1342731,-17.4473629],[-66.13433640000001,-17.4473102],[-66.134454,-17.4472126],[-66.13453080000001,-17.447159600000003],[-66.13463560000001,-17.4470981],[-66.13476290000001,-17.447030100000003],[-66.13488070000001,-17.4469715],[-66.1352121,-17.4468129],[-66.1354716,-17.446696300000003],[-66.1359012,-17.4464788],[-66.13695460000001,-17.445887300000003],[-66.13725690000001,-17.4457182],[-66.1374399,-17.445615800000002],[-66.13883990000001,-17.4448353],[-66.13989760000001,-17.444245600000002],[-66.1401165,-17.4441092],[-66.14047040000001,-17.443862000000003],[-66.1407858,-17.443612],[-66.14082900000001,-17.443572900000003],[-66.14103510000001,-17.4433803],[-66.14224560000001,-17.442256200000003],[-66.1423104,-17.442200800000002],[-66.14236890000001,-17.4421295],[-66.1424013,-17.4420784],[-66.1424279,-17.442036400000003],[-66.14251490000001,-17.4419016],[-66.1425487,-17.441851900000003],[-66.14259030000001,-17.4418022],[-66.1427171,-17.441682],[-66.1427848,-17.441626300000003],[-66.1429796,-17.4414878],[-66.14330170000001,-17.441260500000002],[-66.1433971,-17.441185400000002],[-66.14347690000001,-17.441114900000002],[-66.14355660000001,-17.4410285],[-66.1435969,-17.4409782],[-66.14382040000001,-17.4406992],[-66.14399470000001,-17.440435100000002],[-66.14419330000001,-17.4401057],[-66.1442117,-17.440072200000003],[-66.14445710000001,-17.4396257],[-66.144834,-17.438950700000003],[-66.1448555,-17.438912300000002],[-66.14509550000001,-17.4385072],[-66.1451778,-17.4383541],[-66.1452495,-17.438213],[-66.14528460000001,-17.438131400000003],[-66.145324,-17.438039800000002],[-66.1453867,-17.437914000000003],[-66.14541120000001,-17.437866300000003],[-66.1454418,-17.4378068],[-66.1454977,-17.437707000000003],[-66.14569680000001,-17.4374639],[-66.14591820000001,-17.4372088],[-66.14611380000001,-17.4369489],[-66.1466853,-17.436179600000003],[-66.14733860000001,-17.4353002],[-66.1474728,-17.4351141],[-66.14793250000001,-17.4344888],[-66.1482129,-17.4341118],[-66.1485268,-17.4336898],[-66.1489382,-17.4331591],[-66.14925550000001,-17.4327246],[-66.14939190000001,-17.4325213],[-66.149747,-17.432055000000002],[-66.1500503,-17.4316567],[-66.1502384,-17.4313818],[-66.15037170000001,-17.431185300000003],[-66.1504225,-17.4311054],[-66.15052250000001,-17.4309346],[-66.15054930000001,-17.4308836],[-66.1507479,-17.4305056],[-66.15081190000001,-17.4303664],[-66.1509092,-17.430102400000003],[-66.1509693,-17.429924800000002],[-66.150999,-17.4298541],[-66.15102200000001,-17.4298055],[-66.1511069,-17.4296341],[-66.1512046,-17.429471600000003],[-66.1512951,-17.429341800000003],[-66.15135910000001,-17.4292678],[-66.1514234,-17.429199500000003],[-66.1515071,-17.429114000000002],[-66.1520629,-17.4286034],[-66.1524789,-17.428200500000003],[-66.1527178,-17.427944200000002],[-66.1529307,-17.4276804],[-66.1530846,-17.4274518],[-66.1532732,-17.4270934],[-66.1534092,-17.426773400000002],[-66.1535061,-17.426477100000003],[-66.1536583,-17.4258662],[-66.1537421,-17.4255007],[-66.15378410000001,-17.425112700000003],[-66.153788,-17.425082800000002],[-66.15378910000001,-17.4250127],[-66.1537952,-17.4246383],[-66.1537825,-17.424189100000003],[-66.15375490000001,-17.4238131],[-66.1537423,-17.4236599],[-66.15374,-17.4236463],[-66.1536868,-17.4233294],[-66.15361530000001,-17.422936800000002],[-66.1535906,-17.422801200000002],[-66.15347030000001,-17.4222569],[-66.15345710000001,-17.422197],[-66.1534055,-17.4220523],[-66.15331730000001,-17.421904100000003],[-66.15325990000001,-17.421819600000003],[-66.15320480000001,-17.421748200000003],[-66.153108,-17.421653600000003],[-66.15308850000001,-17.421645400000003],[-66.1530706,-17.421633200000002],[-66.15305310000001,-17.4216146],[-66.1530292,-17.421584300000003],[-66.15301210000001,-17.4215488],[-66.15300470000001,-17.4215206],[-66.15300230000001,-17.4214819],[-66.153006,-17.421454100000002],[-66.15301410000001,-17.421427100000002],[-66.15302650000001,-17.421401600000003],[-66.15303990000001,-17.4213819],[-66.1530548,-17.421365100000003],[-66.1530582,-17.4212451],[-66.1530651,-17.4211661],[-66.1530566,-17.4210391],[-66.1530058,-17.420819700000003],[-66.15293630000001,-17.420663],[-66.15280650000001,-17.420377000000002],[-66.15261190000001,-17.4199819],[-66.1525969,-17.419952400000003],[-66.15247810000001,-17.419718800000002],[-66.1523142,-17.4194022],[-66.15218300000001,-17.419165600000003],[-66.15181340000001,-17.418523200000003],[-66.1517008,-17.4183133],[-66.1515933,-17.418084],[-66.1515593,-17.417976200000002],[-66.15153880000001,-17.4178989],[-66.1515294,-17.417838300000003],[-66.15152140000001,-17.4177646],[-66.1515169,-17.417669200000002],[-66.1515174,-17.4176253],[-66.15151900000001,-17.4174973],[-66.15153620000001,-17.4173158],[-66.1515451,-17.4171988],[-66.1515701,-17.417080700000003],[-66.1515696,-17.417045400000003],[-66.15157660000001,-17.417010700000002],[-66.1515921,-17.4169759],[-66.151615,-17.416945100000003],[-66.15164440000001,-17.4169197],[-66.15167890000001,-17.416901000000003],[-66.15171670000001,-17.4168898],[-66.15181050000001,-17.4168418],[-66.1518939,-17.4167913],[-66.15196060000001,-17.4167248],[-66.1520277,-17.416647400000002],[-66.15288980000001,-17.4155516],[-66.15303750000001,-17.415364500000003],[-66.1531339,-17.415198],[-66.1532202,-17.415029],[-66.15328720000001,-17.4148891],[-66.15337190000001,-17.414694800000003],[-66.153436,-17.4145295],[-66.15350140000001,-17.414284900000002],[-66.1535365,-17.4141511],[-66.1535482,-17.4139188],[-66.15354950000001,-17.4136573],[-66.15354450000001,-17.4131541],[-66.15353200000001,-17.4127672],[-66.15350620000001,-17.412521100000003],[-66.15348440000001,-17.4124233],[-66.1534379,-17.4123275],[-66.1533739,-17.4122349],[-66.1532664,-17.412123700000002],[-66.152996,-17.4119476],[-66.15200150000001,-17.411300100000002],[-66.1514052,-17.4109111],[-66.1512278,-17.410788500000002],[-66.1509735,-17.410597900000003],[-66.150846,-17.410498],[-66.1508721,-17.410433400000002],[-66.1509236,-17.410392],[-66.15097580000001,-17.4103801],[-66.1510319,-17.4103847],[-66.1517886,-17.410890300000002],[-66.15266770000001,-17.4114626],[-66.15326920000001,-17.4118284],[-66.1533627,-17.41188],[-66.15339850000001,-17.411893000000003],[-66.15344520000001,-17.411901200000003],[-66.1535029,-17.4119093],[-66.1534726,-17.4104835],[-66.1534922,-17.410274400000002],[-66.153473,-17.409858500000002],[-66.1534302,-17.408289],[-66.15340370000001,-17.407548600000002],[-66.1533921,-17.4070536],[-66.1533606,-17.4061008],[-66.15333480000001,-17.4052833],[-66.15332400000001,-17.4048628],[-66.1533227,-17.4048012],[-66.1532959,-17.403607500000003],[-66.1532969,-17.403542400000003],[-66.15329340000001,-17.4032094],[-66.1533194,-17.4031272],[-66.1533196,-17.4030749],[-66.1533203,-17.4029579],[-66.15332000000001,-17.402878100000002],[-66.15331970000001,-17.4028096],[-66.1533193,-17.402737000000002],[-66.1533222,-17.4026581],[-66.1533227,-17.402572300000003],[-66.15332550000001,-17.402501200000003],[-66.1533234,-17.4024287],[-66.15332380000001,-17.4023639],[-66.1533031,-17.4023036],[-66.1532722,-17.4014247],[-66.15325,-17.4007249],[-66.15322660000001,-17.3999032],[-66.1531973,-17.3991016],[-66.15319210000001,-17.398998000000002],[-66.1531927,-17.3988455],[-66.15319450000001,-17.3987646],[-66.15319960000001,-17.398702200000002],[-66.15325340000001,-17.3984238],[-66.15332190000001,-17.398064100000003],[-66.1535317,-17.397006],[-66.15373170000001,-17.3959471],[-66.1539142,-17.394938200000002],[-66.15392250000001,-17.394892300000002],[-66.15393060000001,-17.394848300000003],[-66.15400100000001,-17.3944662],[-66.15401100000001,-17.3944121],[-66.15410510000001,-17.3938959],[-66.1541124,-17.3938613],[-66.1541225,-17.3938175],[-66.15431310000001,-17.392865500000003],[-66.1543214,-17.3928243],[-66.1543276,-17.392791300000003],[-66.1544925,-17.3919251],[-66.15450050000001,-17.3918758],[-66.1545177,-17.3917873],[-66.1545971,-17.3918012],[-66.1550581,-17.3918822],[-66.155297,-17.391924200000002],[-66.15553580000001,-17.3919661],[-66.1556012,-17.3919776],[-66.15566120000001,-17.3919889],[-66.1566289,-17.3921703],[-66.15667280000001,-17.3921785],[-66.156727,-17.392187500000002],[-66.1573168,-17.3922886],[-66.1577055,-17.3923552],[-66.157753,-17.3923634],[-66.1577984,-17.3923713],[-66.15796230000001,-17.392399700000002],[-66.1585898,-17.3925084],[-66.1587059,-17.3925285],[-66.1587863,-17.3925424],[-66.158879,-17.3925589],[-66.1589397,-17.3925698],[-66.1598762,-17.3927236],[-66.1599202,-17.3927307],[-66.1599716,-17.3927397],[-66.1610041,-17.392913500000002],[-66.1610608,-17.3929264],[-66.1611287,-17.392944],[-66.1613786,-17.392987700000003],[-66.1615323,-17.393014500000003],[-66.1619926,-17.393095000000002],[-66.1620628,-17.3931073],[-66.1621604,-17.393123600000003],[-66.16279990000001,-17.3932302],[-66.16387610000001,-17.393409600000002],[-66.16392780000001,-17.393418200000003],[-66.16399150000001,-17.393430000000002],[-66.16492090000001,-17.3936022],[-66.1659169,-17.393779300000002],[-66.1661485,-17.39382],[-66.1661971,-17.3938251],[-66.1664389,-17.3938288],[-66.16661040000001,-17.3938412],[-66.1667802,-17.393886700000003],[-66.16693740000001,-17.3939373],[-66.1673519,-17.3939756],[-66.16737610000001,-17.393974200000002],[-66.167449,-17.393973900000002],[-66.1675661,-17.393955400000003],[-66.1677971,-17.393916100000002],[-66.16782760000001,-17.3939109],[-66.16786,-17.3939053],[-66.16799400000001,-17.3938847],[-66.1680638,-17.393877900000003],[-66.1683952,-17.393863900000003],[-66.16860340000001,-17.3938542],[-66.1686861,-17.3938503],[-66.1687744,-17.393846200000002],[-66.169044,-17.3938336],[-66.169397,-17.3937798],[-66.17022320000001,-17.3937475],[-66.17046400000001,-17.393742800000002],[-66.17053440000001,-17.393741400000003],[-66.17057030000001,-17.3937406],[-66.1706025,-17.3937291],[-66.17062680000001,-17.3937242],[-66.1706515,-17.3937223],[-66.1706764,-17.3937233],[-66.1707008,-17.3937272],[-66.1707334,-17.393737400000003],[-66.170806,-17.393716700000002],[-66.170822,-17.3937126],[-66.17085700000001,-17.393704500000002],[-66.1709593,-17.393689400000003],[-66.1723743,-17.3936297],[-66.173901,-17.3935555],[-66.17390370000001,-17.393598400000002],[-66.17391160000001,-17.393719800000003],[-66.17435850000001,-17.3937004],[-66.17445380000001,-17.3936962],[-66.17631180000001,-17.393615500000003],[-66.17640320000001,-17.393611500000002],[-66.17645250000001,-17.393609400000003],[-66.17657580000001,-17.393604],[-66.17680170000001,-17.3935944],[-66.1775114,-17.393564400000002],[-66.17858620000001,-17.3935123],[-66.17997820000001,-17.3934515],[-66.18095240000001,-17.3934044],[-66.1825074,-17.393342200000003],[-66.18309880000001,-17.393242100000002],[-66.1837505,-17.393215400000003],[-66.1839496,-17.3932085],[-66.18401610000001,-17.3931961],[-66.184075,-17.393165600000003],[-66.1840878,-17.3931502],[-66.18411920000001,-17.3931238],[-66.18415900000001,-17.3931],[-66.1842099,-17.393081000000002],[-66.18426380000001,-17.3930726],[-66.18431840000001,-17.393075000000003],[-66.18435720000001,-17.393083],[-66.18441170000001,-17.3931067],[-66.18444810000001,-17.393131200000003],[-66.1845143,-17.393158300000003],[-66.1845797,-17.3931706],[-66.1847563,-17.3931666],[-66.185423,-17.393142700000002],[-66.18576420000001,-17.3931305],[-66.1864116,-17.3931714],[-66.18663930000001,-17.3931593],[-66.1874124,-17.3931268],[-66.1888567,-17.393062800000003],[-66.18927430000001,-17.3930444],[-66.1911252,-17.3929577],[-66.1921353,-17.3929072],[-66.19389860000001,-17.392841200000003],[-66.19472350000001,-17.3928088],[-66.1969299,-17.392707700000003],[-66.19707530000001,-17.3927008],[-66.1987218,-17.392627],[-66.1989338,-17.392616500000003],[-66.19947400000001,-17.3925896],[-66.19953740000001,-17.392586400000003],[-66.1996008,-17.392583300000002],[-66.1996781,-17.392580000000002],[-66.19981580000001,-17.3925734],[-66.20019090000001,-17.3925553],[-66.2025337,-17.3924534],[-66.2032418,-17.3924227],[-66.203618,-17.3924063],[-66.2050914,-17.3923528],[-66.20721280000001,-17.392253800000002],[-66.2074111,-17.3922446],[-66.20800460000001,-17.3922214],[-66.2080481,-17.392219500000003],[-66.2080916,-17.3922175],[-66.2080901,-17.392053500000003],[-66.2080253,-17.390823],[-66.20716230000001,-17.390809200000003],[-66.20632330000001,-17.390806100000002],[-66.2062903,-17.3898741],[-66.20568890000001,-17.389896800000002],[-66.20562790000001,-17.389899200000002],[-66.20498350000001,-17.3899341],[-66.20465750000001,-17.389949],[-66.2044379,-17.389959100000002],[-66.20433480000001,-17.3899629],[-66.2037787,-17.389991700000003],[-66.2036879,-17.389997700000002],[-66.20367540000001,-17.389803200000003],[-66.20376680000001,-17.3898045],[-66.2037628,-17.389742100000003],[-66.20374620000001,-17.3893941],[-66.2038136,-17.389360200000002],[-66.20384800000001,-17.389332900000003],[-66.2038677,-17.3893038],[-66.2038813,-17.3892376],[-66.2038761,-17.389141900000002],[-66.2038363,-17.388409000000003],[-66.2038304,-17.3881775],[-66.2037684,-17.3869015],[-66.2037392,-17.3864422],[-66.2029167,-17.3864933],[-66.2028379,-17.3855672],[-66.20275120000001,-17.384675100000003],[-66.20275880000001,-17.384562900000002],[-66.2029286,-17.3845174],[-66.2030924,-17.384498200000003],[-66.2036077,-17.384478],[-66.20400310000001,-17.3844664],[-66.2044376,-17.3844527],[-66.2045052,-17.384452200000002],[-66.20457490000001,-17.3844518],[-66.20529160000001,-17.3844274],[-66.20584330000001,-17.3844497],[-66.20595820000001,-17.3844499],[-66.20606000000001,-17.384450100000002],[-66.20621960000001,-17.384452600000003],[-66.2078156,-17.3843596],[-66.2078793,-17.384368100000003]]}}},{"type":"Feature","properties":{"bench":"no","bin":"no","bus":"yes","departures_board":"no","highway":"bus_stop","level":"0","lit":"no","name":"Parada X","public_transport":"platform","shelter":"no","tactile_paving":"no","wheelchair":"no","id":9112012963},"geometry":{"type":"Point","coordinates":[-66.09829900000001,-17.4717042]}},{"type":"Feature","properties":{"bench":"no","bin":"no","bus":"yes","departures_board":"no","highway":"bus_stop","kerb":"raised","level":"0","lit":"no","name":"Austria","operator":"Administradora Boliviana de Carreteras","operator:short":"ABC","operator:type":"public","public_transport":"platform","shelter":"no","tactile_paving":"no","wheelchair":"no","id":6733961584},"geometry":{"type":"Point","coordinates":[-66.12931520000001,-17.4513098]}},{"type":"Feature","properties":{"bus":"yes","departures_board":"no","highway":"bus_stop","name":"La Libertad","public_transport":"platform","shelter":"no","id":6185973504},"geometry":{"type":"Point","coordinates":[-66.1337929,-17.4475936]}},{"type":"Feature","properties":{"bench":"no","bin":"no","bus":"yes","departures_board":"no","highway":"bus_stop","kerb":"raised","level":"0","lit":"no","name":"Montevideo","public_transport":"platform","shelter":"no","tactile_paving":"no","wheelchair":"no","id":7904043766},"geometry":{"type":"Point","coordinates":[-66.1392545,-17.4445255]}},{"type":"Feature","properties":{"bench":"no","bin":"no","bus":"yes","departures_board":"no","highway":"bus_stop","kerb":"raised","level":"0","lit":"no","name":"Baptista","operator":"Gobierno Autónomo Municipal de Cochabamba","pole":"yes","public_transport":"platform","shelter":"no","tactile_paving":"no","wheelchair":"no","id":6546789754},"geometry":{"type":"Point","coordinates":[-66.15767260000001,-17.392301900000003]}},{"type":"Feature","properties":{"bench":"yes","bin":"no","bus":"yes","departures_board":"no","highway":"bus_stop","kerb":"raised","level":"0","lit":"no","name":"ELFEC","operator":"Gobierno Autónomo Municipal de Cochabamba","operator:short":"GAMC","operator:type":"government","public_transport":"platform","shelter":"yes","tactile_paving":"no","wheelchair":"no","id":3281516918},"geometry":{"type":"Point","coordinates":[-66.16611830000001,-17.393781500000003]}},{"type":"Feature","properties":{"bench":"yes","bin":"no","bus":"yes","departures_board":"no","highway":"bus_stop","level":"0","lit":"no","name":"Club Tenis Municipal","operator":"Administradora Boliviana de Carreteras","operator:short":"ABC","operator:type":"public","public_transport":"platform","shelter":"yes","tactile_paving":"no","wheelchair":"no","id":3232582115},"geometry":{"type":"Point","coordinates":[-66.16859980000001,-17.3937788]}},{"type":"Feature","properties":{"bench":"yes","bin":"no","bus":"yes","departures_board":"no","highway":"bus_stop","level":"0","lit":"no","name":"Automóvil Club Boliviano","operator":"Administradora Boliviana de Carreteras","operator:short":"ABC","operator:type":"public","public_transport":"platform","shelter":"yes","tactile_paving":"no","wheelchair":"no","id":5238905983},"geometry":{"type":"Point","coordinates":[-66.17446050000001,-17.393606400000003]}},{"type":"Feature","properties":{"bus":"yes","highway":"bus_stop","name":"Parada X","public_transport":"platform","shelter":"no","id":9112012961},"geometry":{"type":"Point","coordinates":[-66.20784,-17.3843368]}},{"type":"Feature","properties":{"bench":"no","bin":"no","bus":"yes","departures_board":"no","highway":"bus_stop","level":"0","lit":"no","name":"Japón","public_transport":"platform","shelter":"no","tactile_paving":"no","wheelchair":"no","id":11832632023},"geometry":{"type":"Point","coordinates":[-66.1217709,-17.461759400000002]}},{"type":"Feature","properties":{"bench":"yes","bin":"no","bus":"yes","departures_board":"no","highway":"bus_stop","level":"0","lit":"no","loc_name":"KM 4","name":"Avenida Segunda","operator":"Administradora Boliviana de Carreteras","operator:short":"ABC","operator:type":"public","public_transport":"platform","shelter":"yes","tactile_paving":"no","wheelchair":"no","id":2418530979},"geometry":{"type":"Point","coordinates":[-66.19508040000001,-17.3927015]}},{"type":"Feature","properties":{"bench":"no","bin":"no","bus":"yes","departures_board":"no","highway":"bus_stop","level":"0","lit":"yes","name":"Avenida Sexta","operator":"Administradora Boliviana de Carreteras","operator:short":"ABC","operator:type":"public","pole":"yes","public_transport":"platform","shelter":"no","tactile_paving":"no","wheelchair":"no","id":8235910070},"geometry":{"type":"Point","coordinates":[-66.2078302,-17.3921183]}}]}