{"type":"FeatureCollection","features":[{"type":"Feature","properties":{"check_date":"29/12/2025","from":"Avenida YPFB","name":"MiniBus 8: Avenida YPFB → El Abra","network":"BO:CB:Cochabamba","on_demand":"yes","operator":"Sindicato mixto de transporte público 6 de mayo","public_transport:version":"2","ref":"8","route":"bus","to":"El Abra","type":"route","wheelchair":"no","id":10688740},"geometry":{"type":"LineString","coordinates":[[-66.1331376,-17.4760182],[-66.1335018,-17.4759066],[-66.1338508,-17.4757843],[-66.1341778,-17.4757153],[-66.1349863,-17.4757157],[-66.1355761,-17.4757401],[-66.1356602,-17.4757514],[-66.1363093,-17.475788],[-66.1363878,-17.4757925],[-66.1363679,-17.475739],[-66.1363024,-17.475689],[-66.1361924,-17.4756578],[-66.1360785,-17.4756478],[-66.1360064,-17.4756378],[-66.1358899,-17.4755966],[-66.1357249,-17.4754443],[-66.1354607,-17.4753297],[-66.1353284,-17.4752722],[-66.1351058,-17.4751636],[-66.1348893,-17.4750706],[-66.1348978,-17.4750379],[-66.1349175,-17.4749932],[-66.1349198,-17.474957],[-66.1349216,-17.4748796],[-66.1349175,-17.4748424],[-66.1349016,-17.4748101],[-66.1348153,-17.4747683],[-66.1345574,-17.4745789],[-66.1343176,-17.4743499],[-66.133977,-17.4741232],[-66.1332919,-17.473785],[-66.1332049,-17.4737407],[-66.1328162,-17.4736022],[-66.1327066,-17.4735747],[-66.1326516,-17.4735618],[-66.1324224,-17.4735415],[-66.1323115,-17.4735256],[-66.1321117,-17.4732067],[-66.1314354,-17.4738736],[-66.1313384,-17.4737701],[-66.1311719,-17.4734609],[-66.1311291,-17.4733585],[-66.1309626,-17.473026],[-66.1307437,-17.4726248],[-66.1305321,-17.4721788],[-66.1305423,-17.4720728],[-66.1305865,-17.4718063],[-66.1305748,-17.4713938],[-66.1305774,-17.4713166],[-66.1306313,-17.4710655],[-66.1302208,-17.4694472],[-66.1300417,-17.4689404],[-66.130004,-17.4688414],[-66.1298384,-17.468431],[-66.1296166,-17.4679571],[-66.1294739,-17.4676975],[-66.1291531,-17.4670575],[-66.1290624,-17.4668963],[-66.1289425,-17.4666627],[-66.1288021,-17.466371],[-66.1287679,-17.4663169],[-66.1287154,-17.4662792],[-66.1286294,-17.4662467],[-66.12841,-17.4662347],[-66.1288968,-17.4649176],[-66.128698,-17.4648257],[-66.1280127,-17.4646612],[-66.127868,-17.4645883],[-66.1279456,-17.4644794],[-66.1280599,-17.464196],[-66.128146,-17.4640264],[-66.1282166,-17.4639316],[-66.1283378,-17.4637758],[-66.1284659,-17.463684],[-66.1285453,-17.4636525],[-66.1286982,-17.4636168],[-66.1289215,-17.4635948],[-66.1295343,-17.4635559],[-66.1297219,-17.4635063],[-66.1298462,-17.4634598],[-66.1298853,-17.4634452],[-66.1299745,-17.4633819],[-66.1301352,-17.4632438],[-66.1303779,-17.4629764],[-66.1305467,-17.4628038],[-66.1306354,-17.4626954],[-66.1307003,-17.4626319],[-66.1308218,-17.4625214],[-66.1309373,-17.4624268],[-66.1310907,-17.4622925],[-66.1311657,-17.4622082],[-66.1312243,-17.4621133],[-66.1312782,-17.4619906],[-66.1313278,-17.4618405],[-66.1313674,-17.461753],[-66.1314166,-17.4616765],[-66.1315866,-17.4614223],[-66.1317153,-17.4612047],[-66.131928,-17.460763],[-66.132024,-17.4606149],[-66.1325197,-17.4601117],[-66.1325583,-17.4600292],[-66.1325229,-17.4599032],[-66.1322412,-17.4593474],[-66.1322104,-17.4592209],[-66.1322264,-17.4588532],[-66.1322388,-17.4586607],[-66.1322322,-17.458463],[-66.1321966,-17.4582461],[-66.1321075,-17.4579316],[-66.1320818,-17.4578377],[-66.131972,-17.4576264],[-66.1318884,-17.4574644],[-66.131783,-17.457079],[-66.1316951,-17.4566548],[-66.1316061,-17.455983],[-66.1314984,-17.4552189],[-66.1314777,-17.4551353],[-66.1314522,-17.4550499],[-66.1314135,-17.4549787],[-66.1313872,-17.4549412],[-66.1312676,-17.4547806],[-66.1312124,-17.4546735],[-66.1310751,-17.4544586],[-66.1305769,-17.4538552],[-66.1297037,-17.4526857],[-66.1296769,-17.4526527],[-66.129396,-17.4523071],[-66.129323,-17.4522181],[-66.1292949,-17.4521924],[-66.1292587,-17.4521546],[-66.1291422,-17.4520347],[-66.1291133,-17.4520059],[-66.1290844,-17.451977],[-66.1286531,-17.4524792],[-66.1285156,-17.4523891],[-66.1284831,-17.4523678],[-66.1285742,-17.4522652],[-66.128783,-17.4520298],[-66.1289235,-17.451867],[-66.1291397,-17.45162],[-66.1291657,-17.4515902],[-66.1294345,-17.4513159],[-66.1296895,-17.4510541],[-66.1298808,-17.4508577],[-66.1299816,-17.4507572],[-66.1306673,-17.4500597],[-66.1307277,-17.4500025],[-66.1309258,-17.4498151],[-66.1311443,-17.4496148],[-66.1313635,-17.4494302],[-66.1319322,-17.4489605],[-66.1324344,-17.4485794],[-66.1330278,-17.4481623],[-66.1331539,-17.4480735],[-66.1336701,-17.4477489],[-66.1339081,-17.4475984],[-66.1340349,-17.4475349],[-66.1341388,-17.44747],[-66.1342731,-17.4473629],[-66.1343364,-17.4473102],[-66.134454,-17.4472126],[-66.1345308,-17.4471596],[-66.1346356,-17.4470981],[-66.1347629,-17.4470301],[-66.1348807,-17.4469715],[-66.1352121,-17.4468129],[-66.1354716,-17.4466963],[-66.1359012,-17.4464788],[-66.1369546,-17.4458873],[-66.1372569,-17.4457182],[-66.1374399,-17.4456158],[-66.1388399,-17.4448353],[-66.1398976,-17.4442456],[-66.1401165,-17.4441092],[-66.1404704,-17.443862],[-66.1407858,-17.443612],[-66.140829,-17.4435729],[-66.1410351,-17.4433803],[-66.1422456,-17.4422562],[-66.1423104,-17.4422008],[-66.1423689,-17.4421295],[-66.1424013,-17.4420784],[-66.1424279,-17.4420364],[-66.1425149,-17.4419016],[-66.1425487,-17.4418519],[-66.1425903,-17.4418022],[-66.1427171,-17.441682],[-66.1427848,-17.4416263],[-66.1429796,-17.4414878],[-66.1433017,-17.4412605],[-66.1433971,-17.4411854],[-66.1434769,-17.4411149],[-66.1435566,-17.4410285],[-66.1435969,-17.4409782],[-66.1438204,-17.4406992],[-66.1439947,-17.4404351],[-66.1441933,-17.4401057],[-66.1442117,-17.4400722],[-66.1444571,-17.4396257],[-66.144834,-17.4389507],[-66.1448555,-17.4389123],[-66.1450955,-17.4385072],[-66.1451778,-17.4383541],[-66.1452495,-17.438213],[-66.1452846,-17.4381314],[-66.145324,-17.4380398],[-66.1453867,-17.437914],[-66.1454112,-17.4378663],[-66.1454418,-17.4378068],[-66.1454977,-17.437707],[-66.1456968,-17.4374639],[-66.1459182,-17.4372088],[-66.1461138,-17.4369489],[-66.1466853,-17.4361796],[-66.1473386,-17.4353002],[-66.1474728,-17.4351141],[-66.1479325,-17.4344888],[-66.1482129,-17.4341118],[-66.1485268,-17.4336898],[-66.1489382,-17.4331591],[-66.1492555,-17.4327246],[-66.1493919,-17.4325213],[-66.149747,-17.432055],[-66.1500503,-17.4316567],[-66.1502384,-17.4313818],[-66.1503717,-17.4311853],[-66.1504225,-17.4311054],[-66.1505225,-17.4309346],[-66.1505493,-17.4308836],[-66.1507479,-17.4305056],[-66.1508119,-17.4303664],[-66.1509092,-17.4301024],[-66.1509693,-17.4299248],[-66.150999,-17.4298541],[-66.151022,-17.4298055],[-66.1511069,-17.4296341],[-66.1512046,-17.4294716],[-66.1512951,-17.4293418],[-66.1513591,-17.4292678],[-66.1514234,-17.4291995],[-66.1515071,-17.429114],[-66.1520629,-17.4286034],[-66.1524789,-17.4282005],[-66.1527178,-17.4279442],[-66.1529307,-17.4276804],[-66.1530846,-17.4274518],[-66.1532732,-17.4270934],[-66.1534092,-17.4267734],[-66.1535061,-17.4264771],[-66.1536583,-17.4258662],[-66.1537421,-17.4255007],[-66.1537841,-17.4251127],[-66.153788,-17.4250828],[-66.1537891,-17.4250127],[-66.1537952,-17.4246383],[-66.1537825,-17.4241891],[-66.1537549,-17.4238131],[-66.1537423,-17.4236599],[-66.15374,-17.4236463],[-66.1536868,-17.4233294],[-66.1536153,-17.4229368],[-66.1535906,-17.4228012],[-66.1534703,-17.4222569],[-66.1534571,-17.422197],[-66.1534055,-17.4220523],[-66.1533173,-17.4219041],[-66.1532599,-17.4218196],[-66.1532048,-17.4217482],[-66.153108,-17.4216536],[-66.1530885,-17.4216454],[-66.1530706,-17.4216332],[-66.1530531,-17.4216146],[-66.1530292,-17.4215843],[-66.1530121,-17.4215488],[-66.1530047,-17.4215206],[-66.1530023,-17.4214819],[-66.153006,-17.4214541],[-66.1530141,-17.4214271],[-66.1530265,-17.4214016],[-66.1530399,-17.4213819],[-66.1530548,-17.4213651],[-66.1530582,-17.4212451],[-66.1530651,-17.4211661],[-66.1530566,-17.4210391],[-66.1530058,-17.4208197],[-66.1529363,-17.420663],[-66.1528065,-17.420377],[-66.1526119,-17.4199819],[-66.1525969,-17.4199524],[-66.1524781,-17.4197188],[-66.1523142,-17.4194022],[-66.152183,-17.4191656],[-66.1518134,-17.4185232],[-66.1517008,-17.4183133],[-66.1515933,-17.418084],[-66.1515593,-17.4179762],[-66.1515388,-17.4178989],[-66.1515294,-17.4178383],[-66.1515214,-17.4177646],[-66.1515169,-17.4176692],[-66.1515174,-17.4176253],[-66.151519,-17.4174973],[-66.1515362,-17.4173158],[-66.1515451,-17.4171988],[-66.1515701,-17.4170807],[-66.1515696,-17.4170454],[-66.1515766,-17.4170107],[-66.151572,-17.4168489],[-66.1515563,-17.4165445],[-66.151454,-17.4156139],[-66.1514434,-17.4155291],[-66.1512807,-17.4140147],[-66.1512609,-17.4138782],[-66.151189,-17.4132531],[-66.1511181,-17.4126965],[-66.1510765,-17.4123794],[-66.1510407,-17.4119011],[-66.1510011,-17.4114093],[-66.1507869,-17.409366],[-66.1507647,-17.4087703],[-66.1507358,-17.4084235],[-66.1507125,-17.4076317],[-66.1507746,-17.4049827],[-66.150771,-17.4049716],[-66.15077,-17.4049601],[-66.1507719,-17.4049484],[-66.1507766,-17.4049374],[-66.1507837,-17.4049277],[-66.1508472,-17.4046287],[-66.150896,-17.4043781],[-66.1509295,-17.4041094],[-66.1509427,-17.4039397],[-66.1509244,-17.403489],[-66.1509204,-17.4033251],[-66.1508986,-17.4025817],[-66.1508921,-17.4023908],[-66.1508899,-17.4022599],[-66.1509141,-17.4021192],[-66.1509729,-17.4019459],[-66.1510198,-17.4018412],[-66.1511813,-17.4014973],[-66.1512002,-17.4014544],[-66.1512301,-17.4013183],[-66.1512356,-17.4011615],[-66.1512236,-17.4010129],[-66.1511996,-17.4009084],[-66.1511599,-17.400784],[-66.1511079,-17.4006717],[-66.1510673,-17.4005979],[-66.1509999,-17.4004932],[-66.1509233,-17.4003938],[-66.1508146,-17.4002864],[-66.1508693,-17.4002252],[-66.1508973,-17.4001366],[-66.1509151,-17.399965],[-66.1509855,-17.3992846],[-66.1510846,-17.3985396],[-66.1510902,-17.3984566],[-66.1511563,-17.3977747],[-66.1513099,-17.3966148],[-66.1515053,-17.3955426],[-66.1504423,-17.3953552],[-66.1496268,-17.3952107],[-66.1492527,-17.3951444],[-66.149211,-17.395137],[-66.149167,-17.3951292],[-66.1491829,-17.3950604],[-66.1492372,-17.3947783],[-66.1493039,-17.3944315],[-66.1493561,-17.3941416],[-66.1493544,-17.3940925],[-66.1493561,-17.3940177],[-66.1495434,-17.3931048],[-66.1495557,-17.3930522],[-66.1495696,-17.3929855],[-66.1497525,-17.3920777],[-66.1497628,-17.3920265],[-66.1497737,-17.3919674],[-66.1498584,-17.3915058],[-66.1499382,-17.391094],[-66.1499518,-17.3910335],[-66.1499667,-17.3909479],[-66.1499781,-17.390874],[-66.1500966,-17.3902689],[-66.1501828,-17.3898291],[-66.1501946,-17.3897684],[-66.1501433,-17.3897582],[-66.1500862,-17.3897464],[-66.1500285,-17.3896792],[-66.1499919,-17.3896269],[-66.1498587,-17.3894366],[-66.1496274,-17.3891111],[-66.1494453,-17.3888366],[-66.1493179,-17.3886449],[-66.148589,-17.3875935],[-66.1484621,-17.3874105],[-66.1484349,-17.3873714],[-66.1483327,-17.3872239],[-66.1483071,-17.3871874],[-66.1479354,-17.3866575],[-66.1477288,-17.386363],[-66.1475663,-17.3861313],[-66.1475078,-17.3860425],[-66.147457,-17.3859653],[-66.1474046,-17.3858887],[-66.1462893,-17.3842572],[-66.1462628,-17.3842184],[-66.1462208,-17.3841579],[-66.1461942,-17.3841188],[-66.145645,-17.3833109],[-66.1450688,-17.3824723],[-66.1449959,-17.3823672],[-66.1442653,-17.3813172],[-66.1442009,-17.3812213],[-66.1438563,-17.3807254],[-66.1431437,-17.3796697],[-66.1429952,-17.3794509],[-66.142953,-17.3793846],[-66.1428861,-17.3792986],[-66.1428531,-17.3792608],[-66.1428114,-17.3792329],[-66.1427468,-17.3792082],[-66.1424977,-17.3791209],[-66.142442,-17.3791053],[-66.1423972,-17.3790962],[-66.1423486,-17.3790869],[-66.1423139,-17.3790847],[-66.1423073,-17.3790928],[-66.1423,-17.3791003],[-66.1422875,-17.3791105],[-66.1422737,-17.3791189],[-66.1422439,-17.3791297],[-66.1422123,-17.3791326],[-66.1421811,-17.3791273],[-66.1421524,-17.3791143],[-66.1421285,-17.3790956],[-66.1421178,-17.3790813],[-66.1421094,-17.3790667],[-66.1421048,-17.379056],[-66.142099,-17.3790326],[-66.1420987,-17.3790092],[-66.1421036,-17.3789863],[-66.1421134,-17.3789648],[-66.1421278,-17.3789459],[-66.142145,-17.3789294],[-66.1421161,-17.3788783],[-66.1421656,-17.3784026],[-66.1421874,-17.3781264],[-66.1422257,-17.3779795],[-66.1421823,-17.3778253],[-66.1421223,-17.3777316],[-66.1420903,-17.3776866],[-66.1420488,-17.3776305],[-66.1419409,-17.3775146],[-66.1418817,-17.3774697],[-66.1417896,-17.3774092],[-66.1417087,-17.3773783],[-66.1412833,-17.3772714],[-66.140656,-17.3771038],[-66.140125,-17.3769673],[-66.1398208,-17.3768908],[-66.1395961,-17.3768297],[-66.1389114,-17.3766236],[-66.1386072,-17.3765156],[-66.1384071,-17.3764366],[-66.1381356,-17.3763184],[-66.1378744,-17.376198],[-66.1375427,-17.3760194],[-66.1375201,-17.3760075],[-66.1371721,-17.3757946],[-66.1371435,-17.3757771],[-66.1365925,-17.3754096],[-66.1363928,-17.3752756],[-66.1361909,-17.3751518],[-66.1358472,-17.3749484],[-66.1356686,-17.3748663],[-66.1354506,-17.3747847],[-66.1352171,-17.3747197],[-66.1350069,-17.3746727],[-66.1349531,-17.3746639],[-66.1347777,-17.3746353],[-66.1345232,-17.3746121],[-66.1343324,-17.3746113],[-66.1336655,-17.3746078],[-66.1332637,-17.3746079],[-66.1331657,-17.3746079],[-66.1320171,-17.3746083],[-66.1319031,-17.3746101],[-66.1318712,-17.3746102],[-66.131338,-17.3746076],[-66.1310859,-17.3746058],[-66.1307829,-17.3746071],[-66.1305399,-17.3746202],[-66.1303157,-17.3746598],[-66.1301068,-17.374703],[-66.1299218,-17.3747584],[-66.1298195,-17.3747924],[-66.1296915,-17.3748482],[-66.1296122,-17.3748999],[-66.1295465,-17.3749525],[-66.129496,-17.3750064],[-66.1294212,-17.3750933],[-66.1294007,-17.3751136],[-66.1293625,-17.3751526],[-66.1293533,-17.3751627],[-66.129337,-17.3751804],[-66.1292966,-17.3752149],[-66.1292571,-17.3752399],[-66.1292169,-17.3752559],[-66.1291827,-17.3752668],[-66.1291536,-17.3752716],[-66.1291314,-17.3752742],[-66.129059,-17.3752823],[-66.1290276,-17.3752871],[-66.1289665,-17.3752992],[-66.1288975,-17.3753179],[-66.1288261,-17.375349],[-66.1287663,-17.3753809],[-66.1286598,-17.3754436],[-66.1285253,-17.3755346],[-66.1283136,-17.3756847],[-66.1276448,-17.3761566],[-66.1275402,-17.3762313],[-66.1273978,-17.376333],[-66.1271661,-17.3764985],[-66.1257156,-17.3774999],[-66.1248407,-17.3781216],[-66.124205,-17.3785528],[-66.1235178,-17.378986],[-66.1227024,-17.3795182],[-66.1225359,-17.3796241],[-66.122254,-17.3798122],[-66.1218792,-17.3800537],[-66.1212818,-17.3804516],[-66.121208,-17.3805008],[-66.1209263,-17.3807038],[-66.120891,-17.3807388],[-66.120766,-17.3808628],[-66.1206599,-17.3810073],[-66.1204943,-17.3812224],[-66.120477,-17.3812493],[-66.1204044,-17.381327],[-66.1203468,-17.381368],[-66.1202819,-17.3814048],[-66.1201128,-17.3814608],[-66.1200839,-17.3814655],[-66.1199728,-17.3814763],[-66.119784,-17.3814983],[-66.119582,-17.38153],[-66.1194402,-17.3815574],[-66.1193164,-17.3815883],[-66.1192997,-17.3815937],[-66.1191876,-17.3816388],[-66.1189298,-17.3817462],[-66.1186839,-17.3818458],[-66.1186373,-17.3818622],[-66.1183007,-17.3819804],[-66.117861,-17.3821196],[-66.117256,-17.3822712],[-66.1169263,-17.3823466],[-66.1165911,-17.3824142],[-66.116185,-17.382496],[-66.1147937,-17.3827858],[-66.1138214,-17.382978],[-66.1127334,-17.3832115],[-66.1117093,-17.3834298],[-66.1105892,-17.3836566],[-66.1101277,-17.383746],[-66.1097251,-17.383824],[-66.1097099,-17.383899],[-66.1096726,-17.3839567],[-66.1096182,-17.3840014],[-66.109609,-17.3840849],[-66.109633,-17.3841864],[-66.1098062,-17.3849183],[-66.1099088,-17.3853176],[-66.1100451,-17.3858481],[-66.1100875,-17.3860129],[-66.110122,-17.386146],[-66.1101664,-17.3863174],[-66.1103505,-17.3869943],[-66.1105211,-17.3876233],[-66.1106834,-17.3882584],[-66.1108596,-17.3888907],[-66.1107953,-17.3890023],[-66.1110957,-17.3903363],[-66.1115053,-17.3919655],[-66.1115286,-17.3920616],[-66.1119117,-17.3935532],[-66.1119507,-17.393722],[-66.1121075,-17.3943621],[-66.1121465,-17.3945214],[-66.112174,-17.3946337],[-66.1124189,-17.3956335],[-66.1124874,-17.3959135],[-66.1125465,-17.3961546],[-66.1125708,-17.396339],[-66.1126138,-17.3967005],[-66.112645,-17.3969633],[-66.1127208,-17.3976016],[-66.1127776,-17.3982765],[-66.1128013,-17.3985739],[-66.1128207,-17.3988451],[-66.1128243,-17.398955],[-66.1128204,-17.3990543],[-66.1126465,-17.3994169],[-66.112381,-17.4000106],[-66.1115714,-17.4017205],[-66.1115673,-17.4017998],[-66.1115053,-17.4018136],[-66.1112494,-17.4018707],[-66.1106972,-17.4019664],[-66.1098973,-17.4021228],[-66.1095158,-17.4021853],[-66.1090811,-17.4022609],[-66.108638,-17.4023491],[-66.1074057,-17.4026025],[-66.1072839,-17.4026312],[-66.106966,-17.4027114],[-66.1062028,-17.4028923],[-66.1048883,-17.4031505],[-66.1044422,-17.403196],[-66.1032531,-17.4034019],[-66.1028094,-17.4034628],[-66.1022486,-17.403502],[-66.1015107,-17.4035353],[-66.1007541,-17.4035443],[-66.0997974,-17.4035519],[-66.0989771,-17.4035644],[-66.0985314,-17.4052685],[-66.098426,-17.4056859],[-66.0983449,-17.4059842],[-66.0982435,-17.406144],[-66.0981761,-17.4062193],[-66.0980542,-17.4062842],[-66.0979338,-17.4063852],[-66.0978293,-17.4065614],[-66.0976445,-17.4069234],[-66.097372,-17.4074573],[-66.0971029,-17.407995],[-66.0970491,-17.4080901],[-66.0969541,-17.4080631],[-66.0960848,-17.4079969],[-66.0957311,-17.407971],[-66.0949868,-17.4079163],[-66.0939001,-17.4078421],[-66.0938443,-17.4078377],[-66.0926634,-17.4077442],[-66.0919449,-17.4077156],[-66.0909627,-17.4076313],[-66.0903218,-17.4075896],[-66.0899736,-17.4075581],[-66.0899638,-17.4076313],[-66.0897491,-17.4082979],[-66.0896552,-17.4085766],[-66.0894265,-17.409272],[-66.0891708,-17.4100722],[-66.089031,-17.4105176],[-66.0889686,-17.4107213],[-66.0889193,-17.4108639],[-66.0888838,-17.4109841],[-66.0888665,-17.4110426],[-66.0887086,-17.4116386],[-66.0885452,-17.4120902],[-66.088461,-17.412507],[-66.0883477,-17.4129122],[-66.0887537,-17.4130095],[-66.0885655,-17.4138698]],"nodes":[1627089925,3666302188,1627089751,1627089536,1627089618,3666302183,1627089638,13335057208,1627089853,3666302182,3666302181,3666302178,3666302176,3666302175,3666302172,3666302160,3666302157,3666302154,3666302148,1492625255,12169769073,3666302133,1492625275,3666302123,3666302120,3666302115,1492625487,3666302093,3666302077,1492625594,10003958505,3666302058,3666302055,1492625565,13335057218,1492625396,1492625503,1492625524,1492625258,10003963767,1492645668,10003963760,1492625230,1492625306,1492625241,1492625377,1492625457,1492625269,1492625426,1492625268,1492625453,1627102858,3640222849,1627102920,1492625507,1617348692,1627102613,1492625296,3640222634,3664008355,3640222624,3664008349,1492625465,1492625298,3664005118,1492625417,3663855514,3640222427,8946095642,1492625366,3640222406,1492625519,1492625455,3640222394,3663855434,1492625458,3640222384,3663855324,1492625580,1492625475,11638764754,3640222365,3663855304,1492625431,3640222326,3663855257,3663855251,3663855240,3663855231,3640222317,1492625251,1492625367,1492625334,3663855103,3663855101,1492625309,3663855089,3663855081,1492625302,1492625476,3640221470,3640221467,1492625399,1492625364,1492625477,3640221456,1492625574,11638797716,1492625300,11813155766,1492625479,3640221449,1492625591,1492625360,3647864237,1492625462,1492625511,3640221444,10062964720,1492625424,1492625335,2528681112,8946095473,6186043681,3620629135,1492625428,9036918646,9036918617,11813155695,10028389505,2528681042,10057812401,11898090496,7064894163,8462472609,9528470238,1600457628,9528470242,7064894162,627239867,12544889678,1499573861,6733961583,11898090501,8462486891,2528680937,497182734,11898090511,6185969459,6185969461,4414152689,497182739,2032685190,10028602215,2528680788,9036572241,2528680753,8462984274,2528680726,8462984273,10028486962,2528680660,2528680664,2528680635,8462984275,2528680609,6326510336,1499941832,2528680557,2528680511,6734000429,2528680496,2104228933,497182742,6185973499,2528680440,8462994668,10028610984,497182743,4402059971,8462994636,2778806620,8462994751,2778806617,3675745358,10030672001,1637668183,1637668139,3669248188,3675745356,2778806592,1637668079,10030745064,497182745,8462994722,3539625577,497182746,3951278856,8462994808,2778806580,10030867290,3017405857,1637648664,2778806571,3577187542,9188521934,3577187540,1637648641,9188521936,2778806551,3675745354,3574907097,2778806536,2045530066,10032549115,2778806531,3573684453,2778806526,3017405869,2045529859,8465159296,3573684257,2778806507,10040814048,2053282980,4414218814,4414218817,497182748,2045529783,10038420070,497182749,2778806498,2778806496,2778806486,9188620433,2778806481,648536528,646061387,646061391,3307473715,3307473697,2778806472,2778806447,3307473640,646061394,2778806438,646061399,2778806435,3307473550,2778806433,646061406,1638830107,10040814017,646061410,13416155728,2778806425,2778806422,2778806420,10040814088,10040814089,646061414,10040977410,2045510866,10040986817,646061425,3315367976,3315367972,10040986823,3675745353,10040986829,10830574938,646061429,10040986826,3315367951,646061554,10040986835,3577938002,646061558,10040986836,3315367938,10040986831,2045510732,3675745351,646061079,646061081,3315367911,3315367906,2045510589,3315367878,8236485309,2045510724,4414240043,2045510959,3017372545,8236494244,646061085,3315367739,3315367731,3315367725,3315367723,3315367710,3675745347,646061086,646061088,3675745345,646061145,3315367671,646061153,646061175,3675745342,3675745340,646065252,646065256,3675745338,646065259,646065262,5610210872,3315366926,5610210854,5610210462,2768899163,5610210855,2768899137,2768899091,2768899088,2768899086,2768899085,2768899083,2768899082,2768899070,2768899068,12313146773,3325688394,7424209198,2768899058,2768899047,8192846541,2768899017,2768899015,12313146763,2768899012,2768899009,7197849281,2768899006,2768899001,2768899000,2768898998,2768898997,3322574459,2768898995,2768898994,8089836053,2768898991,3322574447,2768898988,8089836061,311358095,648548806,1727306395,310501007,310500994,310500614,310500687,9934878052,13410939033,8004756947,303217532,5018719458,2303485397,2303485390,9121465671,303217533,8398265924,3924761796,303215162,3924761795,8515866923,303217534,5309804691,1851061835,2866813904,698492413,303214820,2866811499,13041417514,9591270798,303217664,2470422220,2295135876,9400884786,9591270797,8568166668,2470422192,3201986226,315096054,1720012828,6179473251,6179485008,1720012825,6179473246,2160406974,11827181929,360137304,6179473097,6179473092,6179473100,9930862747,2361168091,1720012829,9930862750,2391341791,1720012832,10854297125,3676912942,1637465106,1637456494,2391341672,8379904318,1795293361,1795293283,8379904344,2391341654,1795293294,1795293399,2391341631,8379904365,9353076787,9353076786,9353076784,2391341617,8379904346,2391341633,2391341636,2391341635,6331635784,8379904364,2334193728,8379904363,5726456926,9353076793,9353076789,9353076792,9353076790,9976027044,2391341593,2391341542,8172711431,5726313467,9047064017,1795293265,1796486803,1796486801,8379904387,6331635776,6331635760,9007531389,6331635759,1795293288,1637465042,1044380039,598266512,8379213500,598266515,1044379398,6331635763,598266517,2334193653,598266519,8379424310,1044379348,7965587282,598266522,668478419,3264544472,1044379926,668478410,1009166397,497170540,1009166894,6331635755,12565837682,1044379711,497170541,497170542,9359800373,5545496248,12565837685,1496874669,3426201236,497170488,497170491,8162958966,1008238352,497170497,1008238961,497170498,497170499,8455639757,9012639193,7070768691,1008238336,4161989995,9364555686,8455639792,4161989993,11097229744,4161989999,11081389202,11081389193,11081389194,11081389192,11097229743,2509202585,11079490599,9364555673,8455639777,8455639778,1008238747,1008238546,497169774,4161990007,4161990008,1066149615,12952474323,9364555790,8455317285,1044379982,1066149629,8522771070,1066149618,8162958852,497169104,497169105,8162958913,1609200263,1609200307,497169107,8162958912,497169108,2398626801,6618250895,8162958922,1609199974,11081592002,6618250896,11081592003,2398626850,497169111,497169113,497169114,11081576330,11067998804,2398626863,4967266996,8067970035,2398626870,8067970039,497169115,2857544400,1609200320,9156300399,9156300411,1609200038,1609221058,1609221142,2320160111,1609365743,1609365842,12529903868,2508868829,2508868839,4715299771,2956787638,2956787644,12529903867,5027940177,5027940178,11079521793,1609296387,5027940180,1609296428,1609366218,1609365909,5027942690,5027942697,4620215205,1609366215,4059209929,2320160187,2320160208,1609365901,2424302494,1609366101,7863085758,2320160218,3429571522,3429571526,1609365798,13351462155,12446593131,3429571560,11078353455,4620215216,1609365830,12446462827,3429571615,4620215220,1609365878,10303763660,1609365855,10303763659,1609365960,4620215262,3429571677,3784920388,3562573632,3562573637,3562573659,3562573662,7243687025,1609366011,1609366159,1609365851,1609365725,1609366048,3424332297,1609365688,3424332298,10102436020,11083875834,11273306538,1610492809,7703821268,11273306530,1610493811,10827872016,1610493088,7703821269,1610493160,3424332368,1610493275,1610493820,11273306542,3424332386,3429571896,1610493293,3562573953,12087519149,1610493719,2028828282,8399666564,1610493156,2028828267,10102435970,2028828287,5378907570,2028828111,2028828175,8399666575,3562574057,3562574062,11073903782,2028828258,2028828148,2028828188,2028828110,2028828141,2028828122,2028828224]},"gtfs":{"agency_id":7,"route_id":83,"services":[{"service_id":"Mo-Su","startTime":"06:00","endTime":"22:00","trip_id":10688740}],"filteredStops":{"nodes":[1627089925,3666302188,1627089751,1627089536,1627089618,3666302183,1627089638,13335057208,1627089853,3666302182,3666302181,3666302178,3666302176,3666302175,3666302172,3666302160,3666302157,3666302154,3666302148,1492625255,12169769073,3666302133,1492625275,3666302123,3666302120,3666302115,1492625487,3666302093,3666302077,1492625594,10003958505,3666302058,3666302055,1492625565,13335057218,1492625396,1492625503,1492625524,1492625258,10003963767,1492645668,10003963760,1492625230,1492625306,1492625241,1492625377,1492625457,1492625269,1492625426,1492625268,1492625453,1627102858,3640222849,1627102920,1492625507,1617348692,1627102613,1492625296,3640222634,3664008355,3640222624,3664008349,1492625465,1492625298,3664005118,1492625417,3663855514,3640222427,8946095642,1492625366,3640222406,1492625519,1492625455,3640222394,3663855434,1492625458,3640222384,3663855324,1492625580,1492625475,11638764754,3640222365,3663855304,1492625431,3640222326,3663855257,3663855251,3663855240,3663855231,3640222317,1492625251,1492625367,1492625334,3663855103,3663855101,1492625309,3663855089,3663855081,1492625302,1492625476,3640221470,3640221467,1492625399,1492625364,1492625477,3640221456,1492625574,11638797716,1492625300,11813155766,1492625479,3640221449,1492625591,1492625360,3647864237,1492625462,1492625511,3640221444,10062964720,1492625424,1492625335,2528681112,8946095473,6186043681,3620629135,1492625428,9036918646,9036918617,11813155695,10028389505,2528681042,10057812401,11898090496,7064894163,8462472609,9528470238,1600457628,9528470242,7064894162,627239867,12544889678,1499573861,6733961583,11898090501,8462486891,2528680937,497182734,11898090511,6185969459,6185969461,4414152689,497182739,2032685190,10028602215,2528680788,9036572241,2528680753,8462984274,2528680726,8462984273,10028486962,2528680660,2528680664,2528680635,8462984275,2528680609,6326510336,1499941832,2528680557,2528680511,6734000429,2528680496,2104228933,497182742,6185973499,2528680440,8462994668,10028610984,497182743,4402059971,8462994636,2778806620,8462994751,2778806617,3675745358,10030672001,1637668183,1637668139,3669248188,3675745356,2778806592,1637668079,10030745064,497182745,8462994722,3539625577,497182746,3951278856,8462994808,2778806580,10030867290,3017405857,1637648664,2778806571,3577187542,9188521934,3577187540,1637648641,9188521936,2778806551,3675745354,3574907097,2778806536,2045530066,10032549115,2778806531,3573684453,2778806526,3017405869,2045529859,8465159296,3573684257,2778806507,10040814048,2053282980,4414218814,4414218817,497182748,2045529783,10038420070,497182749,2778806498,2778806496,2778806486,9188620433,2778806481,648536528,646061387,646061391,3307473715,3307473697,2778806472,2778806447,3307473640,646061394,2778806438,646061399,2778806435,3307473550,2778806433,646061406,1638830107,10040814017,646061410,13416155728,2778806425,2778806422,2778806420,10040814088,10040814089,646061414,10040977410,2045510866,10040986817,646061425,3315367976,3315367972,10040986823,3675745353,10040986829,10830574938,646061429,10040986826,3315367951,646061554,10040986835,3577938002,646061558,10040986836,3315367938,10040986831,2045510732,3675745351,646061079,646061081,3315367911,3315367906,2045510589,3315367878,8236485309,2045510724,4414240043,2045510959,3017372545,8236494244,646061085,3315367739,3315367731,3315367725,3315367723,3315367710,3675745347,646061086,646061088,3675745345,646061145,3315367671,646061153,646061175,3675745342,3675745340,646065252,646065256,3675745338,646065259,646065262,5610210872,3315366926,5610210854,5610210462,2768899163,5610210855,2768899137,2768899091,2768899088,2768899086,2768899085,2768899083,2768899082,2768899070,2768899068,12313146773,3325688394,7424209198,2768899058,2768899047,8192846541,2768899017,2768899015,12313146763,2768899012,2768899009,7197849281,2768899006,2768899001,2768899000,2768898998,2768898997,3322574459,2768898995,2768898994,8089836053,2768898991,3322574447,2768898988,8089836061,311358095,648548806,1727306395,310501007,310500994,310500614,310500687,9934878052,13410939033,8004756947,303217532,5018719458,2303485397,2303485390,9121465671,303217533,8398265924,3924761796,303215162,3924761795,8515866923,303217534,5309804691,1851061835,2866813904,698492413,303214820,2866811499,13041417514,9591270798,303217664,2470422220,2295135876,9400884786,9591270797,8568166668,2470422192,3201986226,315096054,1720012828,6179473251,6179485008,1720012825,6179473246,2160406974,11827181929,360137304,6179473097,6179473092,6179473100,9930862747,2361168091,1720012829,9930862750,2391341791,1720012832,10854297125,3676912942,1637465106,1637456494,2391341672,8379904318,1795293361,1795293283,8379904344,2391341654,1795293294,1795293399,2391341631,8379904365,9353076787,9353076786,9353076784,2391341617,8379904346,2391341633,2391341636,2391341635,6331635784,8379904364,2334193728,8379904363,5726456926,9353076793,9353076789,9353076792,9353076790,9976027044,2391341593,2391341542,8172711431,5726313467,9047064017,1795293265,1796486803,1796486801,8379904387,6331635776,6331635760,9007531389,6331635759,1795293288,1637465042,1044380039,598266512,8379213500,598266515,1044379398,6331635763,598266517,2334193653,598266519,8379424310,1044379348,7965587282,598266522,668478419,3264544472,1044379926,668478410,1009166397,497170540,1009166894,6331635755,12565837682,1044379711,497170541,497170542,9359800373,5545496248,12565837685,1496874669,3426201236,497170488,497170491,8162958966,1008238352,497170497,1008238961,497170498,497170499,8455639757,9012639193,7070768691,1008238336,4161989995,9364555686,8455639792,4161989993,11097229744,4161989999,11081389202,11081389193,11081389194,11081389192,11097229743,2509202585,11079490599,9364555673,8455639777,8455639778,1008238747,1008238546,497169774,4161990007,4161990008,1066149615,12952474323,9364555790,8455317285,1044379982,1066149629,8522771070,1066149618,8162958852,497169104,497169105,8162958913,1609200263,1609200307,497169107,8162958912,497169108,2398626801,6618250895,8162958922,1609199974,11081592002,6618250896,11081592003,2398626850,497169111,497169113,497169114,11081576330,11067998804,2398626863,4967266996,8067970035,2398626870,8067970039,497169115,2857544400,1609200320,9156300399,9156300411,1609200038,1609221058,1609221142,2320160111,1609365743,1609365842,12529903868,2508868829,2508868839,4715299771,2956787638,2956787644,12529903867,5027940177,5027940178,11079521793,1609296387,5027940180,1609296428,1609366218,1609365909,5027942690,5027942697,4620215205,1609366215,4059209929,2320160187,2320160208,1609365901,2424302494,1609366101,7863085758,2320160218,3429571522,3429571526,1609365798,13351462155,12446593131,3429571560,11078353455,4620215216,1609365830,12446462827,3429571615,4620215220,1609365878,10303763660,1609365855,10303763659,1609365960,4620215262,3429571677,3784920388,3562573632,3562573637,3562573659,3562573662,7243687025,1609366011,1609366159,1609365851,1609365725,1609366048,3424332297,1609365688,3424332298,10102436020,11083875834,11273306538,1610492809,7703821268,11273306530,1610493811,10827872016,1610493088,7703821269,1610493160,3424332368,1610493275,1610493820,11273306542,3424332386,3429571896,1610493293,3562573953,12087519149,1610493719,2028828282,8399666564,1610493156,2028828267,10102435970,2028828287,5378907570,2028828111,2028828175,8399666575,3562574057,3562574062,11073903782,2028828258,2028828148,2028828188,2028828110,2028828141,2028828122,2028828224],"coordinates":[[-66.1331376,-17.4760182],[-66.1335018,-17.4759066],[-66.1338508,-17.4757843],[-66.1341778,-17.4757153],[-66.1349863,-17.4757157],[-66.1355761,-17.4757401],[-66.1356602,-17.4757514],[-66.1363093,-17.475788],[-66.1363878,-17.4757925],[-66.1363679,-17.475739],[-66.1363024,-17.475689],[-66.1361924,-17.4756578],[-66.1360785,-17.4756478],[-66.1360064,-17.4756378],[-66.1358899,-17.4755966],[-66.1357249,-17.4754443],[-66.1354607,-17.4753297],[-66.1353284,-17.4752722],[-66.1351058,-17.4751636],[-66.1348893,-17.4750706],[-66.1348978,-17.4750379],[-66.1349175,-17.4749932],[-66.1349198,-17.474957],[-66.1349216,-17.4748796],[-66.1349175,-17.4748424],[-66.1349016,-17.4748101],[-66.1348153,-17.4747683],[-66.1345574,-17.4745789],[-66.1343176,-17.4743499],[-66.133977,-17.4741232],[-66.1332919,-17.473785],[-66.1332049,-17.4737407],[-66.1328162,-17.4736022],[-66.1327066,-17.4735747],[-66.1326516,-17.4735618],[-66.1324224,-17.4735415],[-66.1323115,-17.4735256],[-66.1321117,-17.4732067],[-66.1314354,-17.4738736],[-66.1313384,-17.4737701],[-66.1311719,-17.4734609],[-66.1311291,-17.4733585],[-66.1309626,-17.473026],[-66.1307437,-17.4726248],[-66.1305321,-17.4721788],[-66.1305423,-17.4720728],[-66.1305865,-17.4718063],[-66.1305748,-17.4713938],[-66.1305774,-17.4713166],[-66.1306313,-17.4710655],[-66.1302208,-17.4694472],[-66.1300417,-17.4689404],[-66.130004,-17.4688414],[-66.1298384,-17.468431],[-66.1296166,-17.4679571],[-66.1294739,-17.4676975],[-66.1291531,-17.4670575],[-66.1290624,-17.4668963],[-66.1289425,-17.4666627],[-66.1288021,-17.466371],[-66.1287679,-17.4663169],[-66.1287154,-17.4662792],[-66.1286294,-17.4662467],[-66.12841,-17.4662347],[-66.1288968,-17.4649176],[-66.128698,-17.4648257],[-66.1280127,-17.4646612],[-66.127868,-17.4645883],[-66.1279456,-17.4644794],[-66.1280599,-17.464196],[-66.128146,-17.4640264],[-66.1282166,-17.4639316],[-66.1283378,-17.4637758],[-66.1284659,-17.463684],[-66.1285453,-17.4636525],[-66.1286982,-17.4636168],[-66.1289215,-17.4635948],[-66.1295343,-17.4635559],[-66.1297219,-17.4635063],[-66.1298462,-17.4634598],[-66.1298853,-17.4634452],[-66.1299745,-17.4633819],[-66.1301352,-17.4632438],[-66.1303779,-17.4629764],[-66.1305467,-17.4628038],[-66.1306354,-17.4626954],[-66.1307003,-17.4626319],[-66.1308218,-17.4625214],[-66.1309373,-17.4624268],[-66.1310907,-17.4622925],[-66.1311657,-17.4622082],[-66.1312243,-17.4621133],[-66.1312782,-17.4619906],[-66.1313278,-17.4618405],[-66.1313674,-17.461753],[-66.1314166,-17.4616765],[-66.1315866,-17.4614223],[-66.1317153,-17.4612047],[-66.131928,-17.460763],[-66.132024,-17.4606149],[-66.1325197,-17.4601117],[-66.1325583,-17.4600292],[-66.1325229,-17.4599032],[-66.1322412,-17.4593474],[-66.1322104,-17.4592209],[-66.1322264,-17.4588532],[-66.1322388,-17.4586607],[-66.1322322,-17.458463],[-66.1321966,-17.4582461],[-66.1321075,-17.4579316],[-66.1320818,-17.4578377],[-66.131972,-17.4576264],[-66.1318884,-17.4574644],[-66.131783,-17.457079],[-66.1316951,-17.4566548],[-66.1316061,-17.455983],[-66.1314984,-17.4552189],[-66.1314777,-17.4551353],[-66.1314522,-17.4550499],[-66.1314135,-17.4549787],[-66.1313872,-17.4549412],[-66.1312676,-17.4547806],[-66.1312124,-17.4546735],[-66.1310751,-17.4544586],[-66.1305769,-17.4538552],[-66.1297037,-17.4526857],[-66.1296769,-17.4526527],[-66.129396,-17.4523071],[-66.129323,-17.4522181],[-66.1292949,-17.4521924],[-66.1292587,-17.4521546],[-66.1291422,-17.4520347],[-66.1291133,-17.4520059],[-66.1290844,-17.451977],[-66.1286531,-17.4524792],[-66.1285156,-17.4523891],[-66.1284831,-17.4523678],[-66.1285742,-17.4522652],[-66.128783,-17.4520298],[-66.1289235,-17.451867],[-66.1291397,-17.45162],[-66.1291657,-17.4515902],[-66.1294345,-17.4513159],[-66.1296895,-17.4510541],[-66.1298808,-17.4508577],[-66.1299816,-17.4507572],[-66.1306673,-17.4500597],[-66.1307277,-17.4500025],[-66.1309258,-17.4498151],[-66.1311443,-17.4496148],[-66.1313635,-17.4494302],[-66.1319322,-17.4489605],[-66.1324344,-17.4485794],[-66.1330278,-17.4481623],[-66.1331539,-17.4480735],[-66.1336701,-17.4477489],[-66.1339081,-17.4475984],[-66.1340349,-17.4475349],[-66.1341388,-17.44747],[-66.1342731,-17.4473629],[-66.1343364,-17.4473102],[-66.134454,-17.4472126],[-66.1345308,-17.4471596],[-66.1346356,-17.4470981],[-66.1347629,-17.4470301],[-66.1348807,-17.4469715],[-66.1352121,-17.4468129],[-66.1354716,-17.4466963],[-66.1359012,-17.4464788],[-66.1369546,-17.4458873],[-66.1372569,-17.4457182],[-66.1374399,-17.4456158],[-66.1388399,-17.4448353],[-66.1398976,-17.4442456],[-66.1401165,-17.4441092],[-66.1404704,-17.443862],[-66.1407858,-17.443612],[-66.140829,-17.4435729],[-66.1410351,-17.4433803],[-66.1422456,-17.4422562],[-66.1423104,-17.4422008],[-66.1423689,-17.4421295],[-66.1424013,-17.4420784],[-66.1424279,-17.4420364],[-66.1425149,-17.4419016],[-66.1425487,-17.4418519],[-66.1425903,-17.4418022],[-66.1427171,-17.441682],[-66.1427848,-17.4416263],[-66.1429796,-17.4414878],[-66.1433017,-17.4412605],[-66.1433971,-17.4411854],[-66.1434769,-17.4411149],[-66.1435566,-17.4410285],[-66.1435969,-17.4409782],[-66.1438204,-17.4406992],[-66.1439947,-17.4404351],[-66.1441933,-17.4401057],[-66.1442117,-17.4400722],[-66.1444571,-17.4396257],[-66.144834,-17.4389507],[-66.1448555,-17.4389123],[-66.1450955,-17.4385072],[-66.1451778,-17.4383541],[-66.1452495,-17.438213],[-66.1452846,-17.4381314],[-66.145324,-17.4380398],[-66.1453867,-17.437914],[-66.1454112,-17.4378663],[-66.1454418,-17.4378068],[-66.1454977,-17.437707],[-66.1456968,-17.4374639],[-66.1459182,-17.4372088],[-66.1461138,-17.4369489],[-66.1466853,-17.4361796],[-66.1473386,-17.4353002],[-66.1474728,-17.4351141],[-66.1479325,-17.4344888],[-66.1482129,-17.4341118],[-66.1485268,-17.4336898],[-66.1489382,-17.4331591],[-66.1492555,-17.4327246],[-66.1493919,-17.4325213],[-66.149747,-17.432055],[-66.1500503,-17.4316567],[-66.1502384,-17.4313818],[-66.1503717,-17.4311853],[-66.1504225,-17.4311054],[-66.1505225,-17.4309346],[-66.1505493,-17.4308836],[-66.1507479,-17.4305056],[-66.1508119,-17.4303664],[-66.1509092,-17.4301024],[-66.1509693,-17.4299248],[-66.150999,-17.4298541],[-66.151022,-17.4298055],[-66.1511069,-17.4296341],[-66.1512046,-17.4294716],[-66.1512951,-17.4293418],[-66.1513591,-17.4292678],[-66.1514234,-17.4291995],[-66.1515071,-17.429114],[-66.1520629,-17.4286034],[-66.1524789,-17.4282005],[-66.1527178,-17.4279442],[-66.1529307,-17.4276804],[-66.1530846,-17.4274518],[-66.1532732,-17.4270934],[-66.1534092,-17.4267734],[-66.1535061,-17.4264771],[-66.1536583,-17.4258662],[-66.1537421,-17.4255007],[-66.1537841,-17.4251127],[-66.153788,-17.4250828],[-66.1537891,-17.4250127],[-66.1537952,-17.4246383],[-66.1537825,-17.4241891],[-66.1537549,-17.4238131],[-66.1537423,-17.4236599],[-66.15374,-17.4236463],[-66.1536868,-17.4233294],[-66.1536153,-17.4229368],[-66.1535906,-17.4228012],[-66.1534703,-17.4222569],[-66.1534571,-17.422197],[-66.1534055,-17.4220523],[-66.1533173,-17.4219041],[-66.1532599,-17.4218196],[-66.1532048,-17.4217482],[-66.153108,-17.4216536],[-66.1530885,-17.4216454],[-66.1530706,-17.4216332],[-66.1530531,-17.4216146],[-66.1530292,-17.4215843],[-66.1530121,-17.4215488],[-66.1530047,-17.4215206],[-66.1530023,-17.4214819],[-66.153006,-17.4214541],[-66.1530141,-17.4214271],[-66.1530265,-17.4214016],[-66.1530399,-17.4213819],[-66.1530548,-17.4213651],[-66.1530582,-17.4212451],[-66.1530651,-17.4211661],[-66.1530566,-17.4210391],[-66.1530058,-17.4208197],[-66.1529363,-17.420663],[-66.1528065,-17.420377],[-66.1526119,-17.4199819],[-66.1525969,-17.4199524],[-66.1524781,-17.4197188],[-66.1523142,-17.4194022],[-66.152183,-17.4191656],[-66.1518134,-17.4185232],[-66.1517008,-17.4183133],[-66.1515933,-17.418084],[-66.1515593,-17.4179762],[-66.1515388,-17.4178989],[-66.1515294,-17.4178383],[-66.1515214,-17.4177646],[-66.1515169,-17.4176692],[-66.1515174,-17.4176253],[-66.151519,-17.4174973],[-66.1515362,-17.4173158],[-66.1515451,-17.4171988],[-66.1515701,-17.4170807],[-66.1515696,-17.4170454],[-66.1515766,-17.4170107],[-66.151572,-17.4168489],[-66.1515563,-17.4165445],[-66.151454,-17.4156139],[-66.1514434,-17.4155291],[-66.1512807,-17.4140147],[-66.1512609,-17.4138782],[-66.151189,-17.4132531],[-66.1511181,-17.4126965],[-66.1510765,-17.4123794],[-66.1510407,-17.4119011],[-66.1510011,-17.4114093],[-66.1507869,-17.409366],[-66.1507647,-17.4087703],[-66.1507358,-17.4084235],[-66.1507125,-17.4076317],[-66.1507746,-17.4049827],[-66.150771,-17.4049716],[-66.15077,-17.4049601],[-66.1507719,-17.4049484],[-66.1507766,-17.4049374],[-66.1507837,-17.4049277],[-66.1508472,-17.4046287],[-66.150896,-17.4043781],[-66.1509295,-17.4041094],[-66.1509427,-17.4039397],[-66.1509244,-17.403489],[-66.1509204,-17.4033251],[-66.1508986,-17.4025817],[-66.1508921,-17.4023908],[-66.1508899,-17.4022599],[-66.1509141,-17.4021192],[-66.1509729,-17.4019459],[-66.1510198,-17.4018412],[-66.1511813,-17.4014973],[-66.1512002,-17.4014544],[-66.1512301,-17.4013183],[-66.1512356,-17.4011615],[-66.1512236,-17.4010129],[-66.1511996,-17.4009084],[-66.1511599,-17.400784],[-66.1511079,-17.4006717],[-66.1510673,-17.4005979],[-66.1509999,-17.4004932],[-66.1509233,-17.4003938],[-66.1508146,-17.4002864],[-66.1508693,-17.4002252],[-66.1508973,-17.4001366],[-66.1509151,-17.399965],[-66.1509855,-17.3992846],[-66.1510846,-17.3985396],[-66.1510902,-17.3984566],[-66.1511563,-17.3977747],[-66.1513099,-17.3966148],[-66.1515053,-17.3955426],[-66.1504423,-17.3953552],[-66.1496268,-17.3952107],[-66.1492527,-17.3951444],[-66.149211,-17.395137],[-66.149167,-17.3951292],[-66.1491829,-17.3950604],[-66.1492372,-17.3947783],[-66.1493039,-17.3944315],[-66.1493561,-17.3941416],[-66.1493544,-17.3940925],[-66.1493561,-17.3940177],[-66.1495434,-17.3931048],[-66.1495557,-17.3930522],[-66.1495696,-17.3929855],[-66.1497525,-17.3920777],[-66.1497628,-17.3920265],[-66.1497737,-17.3919674],[-66.1498584,-17.3915058],[-66.1499382,-17.391094],[-66.1499518,-17.3910335],[-66.1499667,-17.3909479],[-66.1499781,-17.390874],[-66.1500966,-17.3902689],[-66.1501828,-17.3898291],[-66.1501946,-17.3897684],[-66.1501433,-17.3897582],[-66.1500862,-17.3897464],[-66.1500285,-17.3896792],[-66.1499919,-17.3896269],[-66.1498587,-17.3894366],[-66.1496274,-17.3891111],[-66.1494453,-17.3888366],[-66.1493179,-17.3886449],[-66.148589,-17.3875935],[-66.1484621,-17.3874105],[-66.1484349,-17.3873714],[-66.1483327,-17.3872239],[-66.1483071,-17.3871874],[-66.1479354,-17.3866575],[-66.1477288,-17.386363],[-66.1475663,-17.3861313],[-66.1475078,-17.3860425],[-66.147457,-17.3859653],[-66.1474046,-17.3858887],[-66.1462893,-17.3842572],[-66.1462628,-17.3842184],[-66.1462208,-17.3841579],[-66.1461942,-17.3841188],[-66.145645,-17.3833109],[-66.1450688,-17.3824723],[-66.1449959,-17.3823672],[-66.1442653,-17.3813172],[-66.1442009,-17.3812213],[-66.1438563,-17.3807254],[-66.1431437,-17.3796697],[-66.1429952,-17.3794509],[-66.142953,-17.3793846],[-66.1428861,-17.3792986],[-66.1428531,-17.3792608],[-66.1428114,-17.3792329],[-66.1427468,-17.3792082],[-66.1424977,-17.3791209],[-66.142442,-17.3791053],[-66.1423972,-17.3790962],[-66.1423486,-17.3790869],[-66.1423139,-17.3790847],[-66.1423073,-17.3790928],[-66.1423,-17.3791003],[-66.1422875,-17.3791105],[-66.1422737,-17.3791189],[-66.1422439,-17.3791297],[-66.1422123,-17.3791326],[-66.1421811,-17.3791273],[-66.1421524,-17.3791143],[-66.1421285,-17.3790956],[-66.1421178,-17.3790813],[-66.1421094,-17.3790667],[-66.1421048,-17.379056],[-66.142099,-17.3790326],[-66.1420987,-17.3790092],[-66.1421036,-17.3789863],[-66.1421134,-17.3789648],[-66.1421278,-17.3789459],[-66.142145,-17.3789294],[-66.1421161,-17.3788783],[-66.1421656,-17.3784026],[-66.1421874,-17.3781264],[-66.1422257,-17.3779795],[-66.1421823,-17.3778253],[-66.1421223,-17.3777316],[-66.1420903,-17.3776866],[-66.1420488,-17.3776305],[-66.1419409,-17.3775146],[-66.1418817,-17.3774697],[-66.1417896,-17.3774092],[-66.1417087,-17.3773783],[-66.1412833,-17.3772714],[-66.140656,-17.3771038],[-66.140125,-17.3769673],[-66.1398208,-17.3768908],[-66.1395961,-17.3768297],[-66.1389114,-17.3766236],[-66.1386072,-17.3765156],[-66.1384071,-17.3764366],[-66.1381356,-17.3763184],[-66.1378744,-17.376198],[-66.1375427,-17.3760194],[-66.1375201,-17.3760075],[-66.1371721,-17.3757946],[-66.1371435,-17.3757771],[-66.1365925,-17.3754096],[-66.1363928,-17.3752756],[-66.1361909,-17.3751518],[-66.1358472,-17.3749484],[-66.1356686,-17.3748663],[-66.1354506,-17.3747847],[-66.1352171,-17.3747197],[-66.1350069,-17.3746727],[-66.1349531,-17.3746639],[-66.1347777,-17.3746353],[-66.1345232,-17.3746121],[-66.1343324,-17.3746113],[-66.1336655,-17.3746078],[-66.1332637,-17.3746079],[-66.1331657,-17.3746079],[-66.1320171,-17.3746083],[-66.1319031,-17.3746101],[-66.1318712,-17.3746102],[-66.131338,-17.3746076],[-66.1310859,-17.3746058],[-66.1307829,-17.3746071],[-66.1305399,-17.3746202],[-66.1303157,-17.3746598],[-66.1301068,-17.374703],[-66.1299218,-17.3747584],[-66.1298195,-17.3747924],[-66.1296915,-17.3748482],[-66.1296122,-17.3748999],[-66.1295465,-17.3749525],[-66.129496,-17.3750064],[-66.1294212,-17.3750933],[-66.1294007,-17.3751136],[-66.1293625,-17.3751526],[-66.1293533,-17.3751627],[-66.129337,-17.3751804],[-66.1292966,-17.3752149],[-66.1292571,-17.3752399],[-66.1292169,-17.3752559],[-66.1291827,-17.3752668],[-66.1291536,-17.3752716],[-66.1291314,-17.3752742],[-66.129059,-17.3752823],[-66.1290276,-17.3752871],[-66.1289665,-17.3752992],[-66.1288975,-17.3753179],[-66.1288261,-17.375349],[-66.1287663,-17.3753809],[-66.1286598,-17.3754436],[-66.1285253,-17.3755346],[-66.1283136,-17.3756847],[-66.1276448,-17.3761566],[-66.1275402,-17.3762313],[-66.1273978,-17.376333],[-66.1271661,-17.3764985],[-66.1257156,-17.3774999],[-66.1248407,-17.3781216],[-66.124205,-17.3785528],[-66.1235178,-17.378986],[-66.1227024,-17.3795182],[-66.1225359,-17.3796241],[-66.122254,-17.3798122],[-66.1218792,-17.3800537],[-66.1212818,-17.3804516],[-66.121208,-17.3805008],[-66.1209263,-17.3807038],[-66.120891,-17.3807388],[-66.120766,-17.3808628],[-66.1206599,-17.3810073],[-66.1204943,-17.3812224],[-66.120477,-17.3812493],[-66.1204044,-17.381327],[-66.1203468,-17.381368],[-66.1202819,-17.3814048],[-66.1201128,-17.3814608],[-66.1200839,-17.3814655],[-66.1199728,-17.3814763],[-66.119784,-17.3814983],[-66.119582,-17.38153],[-66.1194402,-17.3815574],[-66.1193164,-17.3815883],[-66.1192997,-17.3815937],[-66.1191876,-17.3816388],[-66.1189298,-17.3817462],[-66.1186839,-17.3818458],[-66.1186373,-17.3818622],[-66.1183007,-17.3819804],[-66.117861,-17.3821196],[-66.117256,-17.3822712],[-66.1169263,-17.3823466],[-66.1165911,-17.3824142],[-66.116185,-17.382496],[-66.1147937,-17.3827858],[-66.1138214,-17.382978],[-66.1127334,-17.3832115],[-66.1117093,-17.3834298],[-66.1105892,-17.3836566],[-66.1101277,-17.383746],[-66.1097251,-17.383824],[-66.1097099,-17.383899],[-66.1096726,-17.3839567],[-66.1096182,-17.3840014],[-66.109609,-17.3840849],[-66.109633,-17.3841864],[-66.1098062,-17.3849183],[-66.1099088,-17.3853176],[-66.1100451,-17.3858481],[-66.1100875,-17.3860129],[-66.110122,-17.386146],[-66.1101664,-17.3863174],[-66.1103505,-17.3869943],[-66.1105211,-17.3876233],[-66.1106834,-17.3882584],[-66.1108596,-17.3888907],[-66.1107953,-17.3890023],[-66.1110957,-17.3903363],[-66.1115053,-17.3919655],[-66.1115286,-17.3920616],[-66.1119117,-17.3935532],[-66.1119507,-17.393722],[-66.1121075,-17.3943621],[-66.1121465,-17.3945214],[-66.112174,-17.3946337],[-66.1124189,-17.3956335],[-66.1124874,-17.3959135],[-66.1125465,-17.3961546],[-66.1125708,-17.396339],[-66.1126138,-17.3967005],[-66.112645,-17.3969633],[-66.1127208,-17.3976016],[-66.1127776,-17.3982765],[-66.1128013,-17.3985739],[-66.1128207,-17.3988451],[-66.1128243,-17.398955],[-66.1128204,-17.3990543],[-66.1126465,-17.3994169],[-66.112381,-17.4000106],[-66.1115714,-17.4017205],[-66.1115673,-17.4017998],[-66.1115053,-17.4018136],[-66.1112494,-17.4018707],[-66.1106972,-17.4019664],[-66.1098973,-17.4021228],[-66.1095158,-17.4021853],[-66.1090811,-17.4022609],[-66.108638,-17.4023491],[-66.1074057,-17.4026025],[-66.1072839,-17.4026312],[-66.106966,-17.4027114],[-66.1062028,-17.4028923],[-66.1048883,-17.4031505],[-66.1044422,-17.403196],[-66.1032531,-17.4034019],[-66.1028094,-17.4034628],[-66.1022486,-17.403502],[-66.1015107,-17.4035353],[-66.1007541,-17.4035443],[-66.0997974,-17.4035519],[-66.0989771,-17.4035644],[-66.0985314,-17.4052685],[-66.098426,-17.4056859],[-66.0983449,-17.4059842],[-66.0982435,-17.406144],[-66.0981761,-17.4062193],[-66.0980542,-17.4062842],[-66.0979338,-17.4063852],[-66.0978293,-17.4065614],[-66.0976445,-17.4069234],[-66.097372,-17.4074573],[-66.0971029,-17.407995],[-66.0970491,-17.4080901],[-66.0969541,-17.4080631],[-66.0960848,-17.4079969],[-66.0957311,-17.407971],[-66.0949868,-17.4079163],[-66.0939001,-17.4078421],[-66.0938443,-17.4078377],[-66.0926634,-17.4077442],[-66.0919449,-17.4077156],[-66.0909627,-17.4076313],[-66.0903218,-17.4075896],[-66.0899736,-17.4075581],[-66.0899638,-17.4076313],[-66.0897491,-17.4082979],[-66.0896552,-17.4085766],[-66.0894265,-17.409272],[-66.0891708,-17.4100722],[-66.089031,-17.4105176],[-66.0889686,-17.4107213],[-66.0889193,-17.4108639],[-66.0888838,-17.4109841],[-66.0888665,-17.4110426],[-66.0887086,-17.4116386],[-66.0885452,-17.4120902],[-66.088461,-17.412507],[-66.0883477,-17.4129122],[-66.0887537,-17.4130095],[-66.0885655,-17.4138698]]}}}]}