{"type":"FeatureCollection","features":[{"type":"Feature","properties":{"check_date":"29/12/2025","from":"Calle Alfredo Guillén","name":"Trufi 103: Calle Alfredo Guillén → Villa America","network":"BO:CB:Cochabamba","on_demand":"yes","operator":"Sindicato mixto de transporte Bolivia","public_transport:version":"2","ref":"103","route":"bus","to":"Villa America","type":"route","wheelchair":"no","id":10692844},"geometry":{"type":"LineString","coordinates":[[-66.15478780000001,-17.3517048],[-66.15615050000001,-17.351967300000002],[-66.1562418,-17.351970700000003],[-66.15635280000001,-17.3519797],[-66.1570389,-17.352304800000002],[-66.1572797,-17.3524193],[-66.15768650000001,-17.3526071],[-66.1577723,-17.352625900000003],[-66.1578839,-17.352699100000002],[-66.15810760000001,-17.352842000000003],[-66.1581644,-17.3529403],[-66.1581027,-17.3530136],[-66.1583391,-17.3532222],[-66.15879550000001,-17.3535775],[-66.15882260000001,-17.353578300000002],[-66.158879,-17.353576500000003],[-66.1589393,-17.3537177],[-66.1589775,-17.3538071],[-66.1591374,-17.3541741],[-66.1593562,-17.3546848],[-66.1597564,-17.3555791],[-66.1588803,-17.356004700000003],[-66.1588208,-17.356033800000002],[-66.15884360000001,-17.3560872],[-66.1591976,-17.3568836],[-66.1592172,-17.356929500000003],[-66.159233,-17.356967500000003],[-66.15956560000001,-17.3578009],[-66.15958450000001,-17.357846300000002],[-66.1595999,-17.357892900000003],[-66.1598074,-17.358518],[-66.1599621,-17.358945300000002],[-66.1599771,-17.3589865],[-66.1601272,-17.3594018],[-66.16035480000001,-17.3600315],[-66.16067740000001,-17.3609626],[-66.16102140000001,-17.3618908],[-66.16134190000001,-17.362777],[-66.16182330000001,-17.3640735],[-66.1618584,-17.364166800000003],[-66.1620243,-17.3645959],[-66.16216460000001,-17.3649059],[-66.1622025,-17.364970500000002],[-66.1622224,-17.365014000000002],[-66.1622432,-17.3650677],[-66.16227310000001,-17.3651437],[-66.16249900000001,-17.3657207],[-66.16254590000001,-17.365827600000003],[-66.1626791,-17.3660405],[-66.1629925,-17.3664452],[-66.16302950000001,-17.366503700000003],[-66.16304980000001,-17.366538600000002],[-66.1630602,-17.3665565],[-66.1630829,-17.3666081],[-66.1630945,-17.3666357],[-66.16311420000001,-17.3666823],[-66.1631263,-17.3667108],[-66.1631455,-17.3667562],[-66.1631825,-17.366849900000002],[-66.16319560000001,-17.366883100000003],[-66.16364490000001,-17.368076000000002],[-66.1636807,-17.3681424],[-66.1637067,-17.368174],[-66.16373750000001,-17.3682079],[-66.16378950000001,-17.368173600000002],[-66.1638415,-17.368158400000002],[-66.1638805,-17.368155400000003],[-66.1639423,-17.368175200000003],[-66.16398480000001,-17.3682015],[-66.1639978,-17.3682157],[-66.16402280000001,-17.3682486],[-66.16404370000001,-17.368284000000003],[-66.164057,-17.3683599],[-66.1640552,-17.368423800000002],[-66.16405280000001,-17.3684526],[-66.16403910000001,-17.3685209],[-66.16401450000001,-17.3685864],[-66.1639797,-17.368647600000003],[-66.1639354,-17.3687028],[-66.16388260000001,-17.3687505],[-66.1638262,-17.368815700000003],[-66.16379690000001,-17.368860700000003],[-66.1637566,-17.368920900000003],[-66.16373390000001,-17.368975000000002],[-66.1635894,-17.3694995],[-66.1633104,-17.3704268],[-66.1632793,-17.3705342],[-66.16306060000001,-17.3712905],[-66.1629707,-17.371601300000002],[-66.1629631,-17.371627500000002],[-66.1628606,-17.371981700000003],[-66.1627881,-17.372232500000003],[-66.16274150000001,-17.3723846],[-66.16272430000001,-17.372448600000002],[-66.16269750000001,-17.372548400000003],[-66.16267380000001,-17.3726282],[-66.1626655,-17.372657],[-66.16264690000001,-17.372714700000003],[-66.16248470000001,-17.373272200000002],[-66.1623417,-17.373760800000003],[-66.1619469,-17.3751099],[-66.1619132,-17.375219700000002],[-66.1618519,-17.375428900000003],[-66.1618315,-17.3754986],[-66.1615816,-17.376351300000003],[-66.16157550000001,-17.3763721],[-66.1615553,-17.3764448],[-66.1615333,-17.376519400000003],[-66.1613573,-17.377116700000002],[-66.16110040000001,-17.377993200000002],[-66.1610869,-17.378041200000002],[-66.1610775,-17.3780745],[-66.1610462,-17.3781873],[-66.1610272,-17.3782558],[-66.16095920000001,-17.3784883],[-66.16094240000001,-17.3785457],[-66.16081120000001,-17.378994300000002],[-66.1607831,-17.3790903],[-66.1607443,-17.379223200000002],[-66.16042150000001,-17.380326800000002],[-66.16039520000001,-17.380427100000002],[-66.1603946,-17.380447],[-66.1603903,-17.380538400000002],[-66.16040260000001,-17.3806234],[-66.16042920000001,-17.380705300000002],[-66.16044600000001,-17.380753300000002],[-66.1604502,-17.3808037],[-66.1604418,-17.380853600000002],[-66.16042110000001,-17.3809001],[-66.1603894,-17.380940600000002],[-66.16034830000001,-17.381026300000002],[-66.1603242,-17.3810949],[-66.16030110000001,-17.381163100000002],[-66.1602836,-17.3812089],[-66.16026480000001,-17.381271400000003],[-66.1602553,-17.381306000000002],[-66.16014910000001,-17.381663200000002],[-66.1601392,-17.381699],[-66.16011800000001,-17.3817783],[-66.16010680000001,-17.3818443],[-66.1600997,-17.381917100000003],[-66.1601024,-17.3820084],[-66.16012400000001,-17.3821361],[-66.1601469,-17.382213200000002],[-66.1602407,-17.382286800000003],[-66.1603594,-17.3823444],[-66.1604688,-17.3823833],[-66.1606562,-17.3825128],[-66.16071070000001,-17.382560700000003],[-66.16076100000001,-17.3826192],[-66.16077870000001,-17.382656400000002],[-66.1607888,-17.3826961],[-66.1607912,-17.3827369],[-66.1607791,-17.3827992],[-66.1607072,-17.3831619],[-66.1606419,-17.3834911],[-66.1605961,-17.383725600000002],[-66.16054530000001,-17.383991],[-66.16053260000001,-17.384057300000002],[-66.1605109,-17.384180500000003],[-66.16048190000001,-17.384330600000002],[-66.16047440000001,-17.3843724],[-66.1603513,-17.3850553],[-66.16025570000001,-17.385585600000002],[-66.16016730000001,-17.3860756],[-66.1601591,-17.3861214],[-66.16014820000001,-17.386177],[-66.1600475,-17.386694400000003],[-66.1599305,-17.387295400000003],[-66.1599197,-17.3873512],[-66.1597423,-17.3882142],[-66.15973050000001,-17.3882738],[-66.15970510000001,-17.388406],[-66.15964380000001,-17.3887192],[-66.15959020000001,-17.3889782],[-66.1595262,-17.3892878],[-66.1595142,-17.3893446],[-66.159503,-17.3893996],[-66.15944420000001,-17.3897264],[-66.1593876,-17.3900413],[-66.1593227,-17.390402100000003],[-66.15931300000001,-17.390457100000003],[-66.1593022,-17.390508],[-66.159237,-17.390786600000002],[-66.15910980000001,-17.391411400000003],[-66.1590985,-17.3914702],[-66.15908800000001,-17.3915156],[-66.15895520000001,-17.3921765],[-66.15888890000001,-17.392506200000003],[-66.158879,-17.3925589],[-66.1588624,-17.3926465],[-66.15885030000001,-17.3927102],[-66.15869380000001,-17.393513900000002],[-66.1586779,-17.3935864],[-66.15866940000001,-17.393629800000003],[-66.15848510000001,-17.3945425],[-66.15846850000001,-17.3946244],[-66.1584596,-17.3946726],[-66.1582846,-17.3956252],[-66.1582776,-17.3956693],[-66.1582695,-17.3957154],[-66.1582518,-17.3958179],[-66.1581359,-17.3966716],[-66.1581304,-17.3967147],[-66.1581237,-17.396767800000003],[-66.15796920000001,-17.397736300000002],[-66.157959,-17.397794],[-66.1579492,-17.3978569],[-66.15777820000001,-17.3989265],[-66.1577422,-17.399144900000003],[-66.157736,-17.399296900000003],[-66.1577347,-17.399351900000003],[-66.1577288,-17.3994867],[-66.1577242,-17.3995661],[-66.1577104,-17.3998063],[-66.1576735,-17.400164800000002],[-66.15759510000001,-17.4009518],[-66.1575885,-17.401002300000002],[-66.15757520000001,-17.401153700000002],[-66.157522,-17.4015753],[-66.1574818,-17.4020121],[-66.1574693,-17.4021498],[-66.1574602,-17.4022501],[-66.1574143,-17.4026402],[-66.15738040000001,-17.402927400000003],[-66.15730570000001,-17.403430800000002],[-66.1571981,-17.4039846],[-66.1571744,-17.4040293],[-66.15714940000001,-17.404081100000003],[-66.15697510000001,-17.4051438],[-66.156929,-17.4053964],[-66.15671490000001,-17.4065683],[-66.15667520000001,-17.4068311],[-66.1566081,-17.407373500000002],[-66.1565791,-17.4075962],[-66.1565643,-17.407672],[-66.15655220000001,-17.4077489],[-66.1563919,-17.408892],[-66.1562995,-17.4093093],[-66.1562526,-17.409537],[-66.1561494,-17.4101159],[-66.15610310000001,-17.410408800000003],[-66.1560788,-17.4106525],[-66.15603870000001,-17.411008600000002],[-66.1563064,-17.411838900000003],[-66.15636760000001,-17.412081200000003],[-66.1564244,-17.4124108],[-66.1564184,-17.4125091],[-66.1564168,-17.4125769],[-66.15643220000001,-17.412667300000003],[-66.15647890000001,-17.4129417],[-66.1565082,-17.413103200000002],[-66.1566016,-17.4136172],[-66.15664120000001,-17.4138349],[-66.1567186,-17.4142572],[-66.15675490000001,-17.414352100000002],[-66.1567981,-17.4145858],[-66.15684270000001,-17.414698],[-66.1569922,-17.4155388],[-66.15700910000001,-17.415626900000003],[-66.1570227,-17.415709600000003],[-66.15719700000001,-17.4165706],[-66.157207,-17.4166281],[-66.1572232,-17.416710700000003],[-66.1573721,-17.4176234],[-66.15754650000001,-17.4187052],[-66.1576093,-17.4191214],[-66.157644,-17.4193561],[-66.15768030000001,-17.419601],[-66.1576838,-17.419624900000002],[-66.15769390000001,-17.4196932],[-66.1577032,-17.4197518],[-66.1577297,-17.4199188],[-66.15777030000001,-17.420174600000003],[-66.15777890000001,-17.4202297],[-66.15781700000001,-17.420468300000003],[-66.15782060000001,-17.420491000000002],[-66.1578264,-17.420528],[-66.15788470000001,-17.4209201],[-66.15792160000001,-17.4211652],[-66.1580254,-17.421770900000002],[-66.1580356,-17.421839300000002],[-66.15816570000001,-17.422669600000003],[-66.15818300000001,-17.4227871],[-66.1582975,-17.4235739],[-66.1584775,-17.4245309],[-66.15872780000001,-17.4257287],[-66.15874480000001,-17.425796400000003],[-66.1590776,-17.4269849],[-66.15922520000001,-17.4275176],[-66.1593308,-17.427875500000003],[-66.15947,-17.428345500000002],[-66.15974840000001,-17.429348500000003],[-66.15977240000001,-17.4294201],[-66.16023120000001,-17.4309823],[-66.1602842,-17.4311843],[-66.1606818,-17.432574900000002],[-66.16093500000001,-17.4334016],[-66.16119780000001,-17.434336000000002],[-66.16130430000001,-17.434691],[-66.1614638,-17.435257800000002],[-66.16164690000001,-17.4359086],[-66.1621276,-17.4375533],[-66.16237720000001,-17.438537800000002],[-66.1624967,-17.4391593],[-66.162509,-17.439231000000003],[-66.162514,-17.4392564],[-66.16252560000001,-17.439332800000003],[-66.16255890000001,-17.439532900000003],[-66.16259140000001,-17.439742600000002],[-66.162632,-17.439958200000003],[-66.16265720000001,-17.440086700000002],[-66.1628069,-17.440788100000002],[-66.162857,-17.440984500000003],[-66.1629144,-17.441141700000003],[-66.1634197,-17.4423163],[-66.1635294,-17.442591200000003],[-66.1636148,-17.4428661],[-66.1636835,-17.443163700000003],[-66.16374300000001,-17.443476200000003],[-66.1638516,-17.4438302],[-66.1639603,-17.444157],[-66.1641999,-17.444916000000003],[-66.1645422,-17.445993100000003],[-66.1645853,-17.4461312],[-66.16480630000001,-17.4468542],[-66.1649778,-17.447323800000003],[-66.1650357,-17.4474823],[-66.1650505,-17.4475473],[-66.1650712,-17.4476383],[-66.16511600000001,-17.4479766],[-66.1652598,-17.448702200000003],[-66.1654498,-17.4494395],[-66.16567110000001,-17.450206],[-66.16586480000001,-17.450846000000002],[-66.1660904,-17.4516332],[-66.1662155,-17.451952600000002],[-66.1662513,-17.4520492],[-66.16634350000001,-17.452348200000003],[-66.1665531,-17.453135800000002],[-66.1666086,-17.4533503],[-66.1667201,-17.453735100000003],[-66.16705230000001,-17.454726400000002],[-66.1670847,-17.4548232],[-66.16709230000001,-17.4548546],[-66.1671135,-17.454954700000002],[-66.16727920000001,-17.4557387],[-66.16740870000001,-17.4563612],[-66.167568,-17.4571273],[-66.1677161,-17.4578832],[-66.1677844,-17.458247500000002],[-66.1679761,-17.459016000000002],[-66.16804300000001,-17.4593077],[-66.16825080000001,-17.460091000000002],[-66.1684189,-17.460724600000002],[-66.16849400000001,-17.461030500000003],[-66.1686404,-17.461626900000002],[-66.16873770000001,-17.462031300000003],[-66.16881430000001,-17.462533200000003],[-66.1688348,-17.462703700000002],[-66.168873,-17.463198700000003],[-66.1688838,-17.463326100000003],[-66.16877190000001,-17.463351300000003],[-66.16784390000001,-17.4635779],[-66.1670931,-17.463738900000003],[-66.16657790000001,-17.463849200000002],[-66.16613690000001,-17.4639455],[-66.16595530000001,-17.463966900000003],[-66.1653984,-17.4638968],[-66.1652777,-17.463882100000003],[-66.1650307,-17.463849500000002],[-66.16465290000001,-17.463799700000003],[-66.1643099,-17.463857800000003],[-66.16414080000001,-17.4638621],[-66.16397810000001,-17.463849200000002],[-66.16339780000001,-17.463712800000003],[-66.1633963,-17.4638081],[-66.16334110000001,-17.4649438],[-66.163347,-17.4651585],[-66.1633673,-17.465350500000003],[-66.1631713,-17.4652414],[-66.1630308,-17.4651661],[-66.16272640000001,-17.464904],[-66.1621834,-17.464493],[-66.16211290000001,-17.464489],[-66.16198630000001,-17.4644467],[-66.1617757,-17.464225900000002],[-66.1616182,-17.464565],[-66.16157940000001,-17.464680400000002],[-66.16158010000001,-17.464756400000002],[-66.1616788,-17.4651524],[-66.1617138,-17.465441900000002],[-66.1617288,-17.4655668],[-66.1617662,-17.4658784],[-66.16178350000001,-17.4661095],[-66.1618011,-17.466344300000003],[-66.1618432,-17.4666685],[-66.1618799,-17.466904300000003],[-66.1619754,-17.467304900000002],[-66.1620627,-17.467433800000002],[-66.1621183,-17.467529000000003],[-66.16216,-17.467636600000002],[-66.1622028,-17.4681479],[-66.16227950000001,-17.4689081],[-66.16236830000001,-17.469704],[-66.1623093,-17.469710000000003],[-66.1623266,-17.4698208],[-66.16237450000001,-17.470127],[-66.16231880000001,-17.4707167],[-66.1625812,-17.470738400000002],[-66.1629522,-17.470769200000003],[-66.1628534,-17.471019400000003],[-66.16281120000001,-17.471094800000003],[-66.16274,-17.471555400000003],[-66.1626837,-17.471897900000002],[-66.1626471,-17.4720616],[-66.16246220000001,-17.4725098],[-66.1623905,-17.4726529],[-66.1621207,-17.4730405]],"nodes":[3994470960,11642474467,1579006660,1579006896,11643032918,1579006635,2317708929,11642474497,9364325664,1579006978,1579031261,1579031044,9364325665,13525254252,9364347660,11081999162,3277874177,851595111,2886225385,914201922,1579006851,13525254242,1579006875,13525254244,13525254238,1579031299,13525254240,13525254237,1579006748,13525254236,1579030977,1579031557,3274047694,11815971844,1579031563,851595174,1579006684,1391388107,4845081445,1579006642,10765274896,2673712696,5541052596,3274047823,811023241,6150032771,2673712744,811023356,811023161,9996973965,9996973952,9996973955,10974815028,811023237,6195661133,602989793,6195661134,811023435,9996973957,9996993761,4866970781,9003433573,2331302078,2331302081,12663240703,9003433498,2331302079,9003433497,3275133610,9655323868,9655177096,2331302104,7436801323,4261955416,11071382475,7436801327,9003433500,2331302139,2331302155,2331302169,4728105068,1726098719,598151876,9021398260,4728105055,2331302188,9655267009,13778580822,12509888237,5560268904,12509911134,9731395675,2287827715,598151867,599541188,2287827757,10705908990,2287827775,9731395623,11941128474,2538203114,2287827791,8587411318,2370240939,11997866376,9797631610,689437336,11997826500,2296580487,2296580493,598151865,13735210081,13735210080,2296580502,12409937736,11079100480,11079057399,11079105205,11079057401,598151864,9309922472,2296580751,2296580762,2296580773,2296580797,2296580808,8356437270,2296580827,2296580841,2296580860,2745674359,8356393909,2296580889,8356393896,8356393898,315120853,1636934221,8362746232,2296580913,8362746230,315121330,2312198087,315121318,315123534,2312198179,10859658789,2312198223,8267964002,315121700,8947866352,315121702,315121796,315121797,315119090,11865529284,9141410770,11865529279,648546082,2312198372,648546071,2312198397,2312198398,11069694907,3297079265,11105974898,648546070,11105974894,9339528758,3674260522,648546074,2312198411,648546081,2312198415,10817208095,10817208099,2295541485,648546073,2295541502,10817239511,10817239515,2295541560,648546072,2295541566,7916079535,2295541568,648546076,2295541572,10800524287,2295541612,648546083,698492383,2295541625,3635441114,648546080,3674274533,9567256917,648546079,9567256919,2331302373,648546084,2331302377,9294229520,2398944604,648546085,2398944608,3674274536,648546086,3674274539,648546087,9566992861,2398944626,1865095006,648548910,2398944656,2577975072,4449488611,2577975100,648543481,8637329085,2577975115,2577975131,9090462298,648542366,9652874528,702511644,2577975282,2577975307,9090462294,648542369,648542365,9131177339,323972806,2763553535,702511613,2763553554,2763553563,8226219195,319762950,1637437071,9131083914,2763553594,9131083870,319762952,319762953,648534611,560101168,3709606816,13764586809,13674975944,13764586839,497187494,13764586827,13764586828,3709607014,13764586811,13674975943,3709607018,1497947893,5433999187,497187505,5433999186,5433895294,740519915,5433895292,1497947915,1497947892,740519920,13067849843,13067849853,13067849851,4679599413,12589580114,13383715977,740519921,7768396127,12519463522,7768396129,13383715982,740519924,7768396074,740519927,12519463515,1866314088,8290039272,3306658847,2022073889,1638831970,3307354192,2149915992,740519935,3306545241,3017389923,1637693348,740519939,3306545385,2149916023,2149916029,2149915995,740519942,8263291564,11104322422,5093673535,3017399341,3017390029,13157367722,13157367746,5093673553,13149511516,12456224843,3311611275,3311611281,3677945705,3311611299,10566746270,1496873837,1626959170,12647051488,8262483497,1807317102,8262483496,12647051487,8256587110,1496874003,11069724704,8256587111,11058061007,3647863721,1496873915,13456965440,3677947756,11496491518,8261043752,8261043751,8261043750,3679282420,8261043747,8261043746,8261043745,8261043743,8261043742,8256587038,8256587039,13456965416,8267521656,8261043630,13456965419,8261043610,13456965405,8261043592,8261043591,13456965413,12421401486,8261043584,12421401488,3679283205,12421401503,8261043583,8261043582,8261043581,8261043580,8261043537,8261043538,1496873926,8261012403,1628726278,3668007544,3668007547,8261012401,3668007548,3658069775,11124478092,3668007541,8261012405,8261012406,8261012407,1627089915,1627089597,3668007562,1627089914,1627089492,3668007595,3668007586,3668007576,8261043589,13378630846,8261043590,3658019541,3667916525,3658019556,3667916534,3667916535,9490884492,3667916539,3667916542,9490884496,3667916544,3667916547,9490888548,3667916549,3667916551,3667916552,3667916553,3667916555,3667916558,1627089304,3667916561,9494623855,3667916563,3667916579,3667916581,1627089643,3667885571,1627089450,1627089469,3667885577,1627089639,1627089380,1627089527,1627089387]},"gtfs":{"agency_id":14,"route_id":91,"services":[{"service_id":"Mo-Su","startTime":"06:00","endTime":"22:00","trip_id":10692844}],"filteredStops":{"nodes":[3994470960,11642474467,1579006660,1579006896,11643032918,1579006635,2317708929,11642474497,9364325664,1579006978,1579031261,1579031044,9364325665,13525254252,9364347660,11081999162,3277874177,851595111,2886225385,914201922,1579006851,13525254242,1579006875,13525254244,13525254238,1579031299,13525254240,13525254237,1579006748,13525254236,1579030977,1579031557,3274047694,11815971844,1579031563,851595174,1579006684,1391388107,4845081445,1579006642,10765274896,2673712696,5541052596,3274047823,811023241,6150032771,2673712744,811023356,811023161,9996973965,9996973952,9996973955,10974815028,811023237,6195661133,602989793,6195661134,811023435,9996973957,9996993761,4866970781,9003433573,2331302078,2331302081,12663240703,9003433498,2331302079,9003433497,3275133610,9655323868,9655177096,2331302104,7436801323,4261955416,11071382475,7436801327,9003433500,2331302139,2331302155,2331302169,4728105068,1726098719,598151876,9021398260,4728105055,2331302188,9655267009,13778580822,12509888237,5560268904,12509911134,9731395675,2287827715,598151867,599541188,2287827757,10705908990,2287827775,9731395623,11941128474,2538203114,2287827791,8587411318,2370240939,11997866376,9797631610,689437336,11997826500,2296580487,2296580493,598151865,13735210081,13735210080,2296580502,12409937736,11079100480,11079057399,11079105205,11079057401,598151864,9309922472,2296580751,2296580762,2296580773,2296580797,2296580808,8356437270,2296580827,2296580841,2296580860,2745674359,8356393909,2296580889,8356393896,8356393898,315120853,1636934221,8362746232,2296580913,8362746230,315121330,2312198087,315121318,315123534,2312198179,10859658789,2312198223,8267964002,315121700,8947866352,315121702,315121796,315121797,315119090,11865529284,9141410770,11865529279,648546082,2312198372,648546071,2312198397,2312198398,11069694907,3297079265,11105974898,648546070,11105974894,9339528758,3674260522,648546074,2312198411,648546081,2312198415,10817208095,10817208099,2295541485,648546073,2295541502,10817239511,10817239515,2295541560,648546072,2295541566,7916079535,2295541568,648546076,2295541572,10800524287,2295541612,648546083,698492383,2295541625,3635441114,648546080,3674274533,9567256917,648546079,9567256919,2331302373,648546084,2331302377,9294229520,2398944604,648546085,2398944608,3674274536,648546086,3674274539,648546087,9566992861,2398944626,1865095006,648548910,2398944656,2577975072,4449488611,2577975100,648543481,8637329085,2577975115,2577975131,9090462298,648542366,9652874528,702511644,2577975282,2577975307,9090462294,648542369,648542365,9131177339,323972806,2763553535,702511613,2763553554,2763553563,8226219195,319762950,1637437071,9131083914,2763553594,9131083870,319762952,319762953,648534611,560101168,3709606816,13764586809,13674975944,13764586839,497187494,13764586827,13764586828,3709607014,13764586811,13674975943,3709607018,1497947893,5433999187,497187505,5433999186,5433895294,740519915,5433895292,1497947915,1497947892,740519920,13067849843,13067849853,13067849851,4679599413,12589580114,13383715977,740519921,7768396127,12519463522,7768396129,13383715982,740519924,7768396074,740519927,12519463515,1866314088,8290039272,3306658847,2022073889,1638831970,3307354192,2149915992,740519935,3306545241,3017389923,1637693348,740519939,3306545385,2149916023,2149916029,2149915995,740519942,8263291564,11104322422,5093673535,3017399341,3017390029,13157367722,13157367746,5093673553,13149511516,12456224843,3311611275,3311611281,3677945705,3311611299,10566746270,1496873837,1626959170,12647051488,8262483497,1807317102,8262483496,12647051487,8256587110,1496874003,11069724704,8256587111,11058061007,3647863721,1496873915,13456965440,3677947756,11496491518,8261043752,8261043751,8261043750,3679282420,8261043747,8261043746,8261043745,8261043743,8261043742,8256587038,8256587039,13456965416,8267521656,8261043630,13456965419,8261043610,13456965405,8261043592,8261043591,13456965413,12421401486,8261043584,12421401488,3679283205,12421401503,8261043583,8261043582,8261043581,8261043580,8261043537,8261043538,1496873926,8261012403,1628726278,3668007544,3668007547,8261012401,3668007548,3658069775,11124478092,3668007541,8261012405,8261012406,8261012407,1627089915,1627089597,3668007562,1627089914,1627089492,3668007595,3668007586,3668007576,8261043589,13378630846,8261043590,3658019541,3667916525,3658019556,3667916534,3667916535,9490884492,3667916539,3667916542,9490884496,3667916544,3667916547,9490888548,3667916549,3667916551,3667916552,3667916553,3667916555,3667916558,1627089304,3667916561,9494623855,3667916563,3667916579,3667916581,1627089643,3667885571,1627089450,1627089469,3667885577,1627089639,1627089380,1627089527,1627089387],"coordinates":[[-66.15478780000001,-17.3517048],[-66.15615050000001,-17.351967300000002],[-66.1562418,-17.351970700000003],[-66.15635280000001,-17.3519797],[-66.1570389,-17.352304800000002],[-66.1572797,-17.3524193],[-66.15768650000001,-17.3526071],[-66.1577723,-17.352625900000003],[-66.1578839,-17.352699100000002],[-66.15810760000001,-17.352842000000003],[-66.1581644,-17.3529403],[-66.1581027,-17.3530136],[-66.1583391,-17.3532222],[-66.15879550000001,-17.3535775],[-66.15882260000001,-17.353578300000002],[-66.158879,-17.353576500000003],[-66.1589393,-17.3537177],[-66.1589775,-17.3538071],[-66.1591374,-17.3541741],[-66.1593562,-17.3546848],[-66.1597564,-17.3555791],[-66.1588803,-17.356004700000003],[-66.1588208,-17.356033800000002],[-66.15884360000001,-17.3560872],[-66.1591976,-17.3568836],[-66.1592172,-17.356929500000003],[-66.159233,-17.356967500000003],[-66.15956560000001,-17.3578009],[-66.15958450000001,-17.357846300000002],[-66.1595999,-17.357892900000003],[-66.1598074,-17.358518],[-66.1599621,-17.358945300000002],[-66.1599771,-17.3589865],[-66.1601272,-17.3594018],[-66.16035480000001,-17.3600315],[-66.16067740000001,-17.3609626],[-66.16102140000001,-17.3618908],[-66.16134190000001,-17.362777],[-66.16182330000001,-17.3640735],[-66.1618584,-17.364166800000003],[-66.1620243,-17.3645959],[-66.16216460000001,-17.3649059],[-66.1622025,-17.364970500000002],[-66.1622224,-17.365014000000002],[-66.1622432,-17.3650677],[-66.16227310000001,-17.3651437],[-66.16249900000001,-17.3657207],[-66.16254590000001,-17.365827600000003],[-66.1626791,-17.3660405],[-66.1629925,-17.3664452],[-66.16302950000001,-17.366503700000003],[-66.16304980000001,-17.366538600000002],[-66.1630602,-17.3665565],[-66.1630829,-17.3666081],[-66.1630945,-17.3666357],[-66.16311420000001,-17.3666823],[-66.1631263,-17.3667108],[-66.1631455,-17.3667562],[-66.1631825,-17.366849900000002],[-66.16319560000001,-17.366883100000003],[-66.16364490000001,-17.368076000000002],[-66.1636807,-17.3681424],[-66.1637067,-17.368174],[-66.16373750000001,-17.3682079],[-66.16378950000001,-17.368173600000002],[-66.1638415,-17.368158400000002],[-66.1638805,-17.368155400000003],[-66.1639423,-17.368175200000003],[-66.16398480000001,-17.3682015],[-66.1639978,-17.3682157],[-66.16402280000001,-17.3682486],[-66.16404370000001,-17.368284000000003],[-66.164057,-17.3683599],[-66.1640552,-17.368423800000002],[-66.16405280000001,-17.3684526],[-66.16403910000001,-17.3685209],[-66.16401450000001,-17.3685864],[-66.1639797,-17.368647600000003],[-66.1639354,-17.3687028],[-66.16388260000001,-17.3687505],[-66.1638262,-17.368815700000003],[-66.16379690000001,-17.368860700000003],[-66.1637566,-17.368920900000003],[-66.16373390000001,-17.368975000000002],[-66.1635894,-17.3694995],[-66.1633104,-17.3704268],[-66.1632793,-17.3705342],[-66.16306060000001,-17.3712905],[-66.1629707,-17.371601300000002],[-66.1629631,-17.371627500000002],[-66.1628606,-17.371981700000003],[-66.1627881,-17.372232500000003],[-66.16274150000001,-17.3723846],[-66.16272430000001,-17.372448600000002],[-66.16269750000001,-17.372548400000003],[-66.16267380000001,-17.3726282],[-66.1626655,-17.372657],[-66.16264690000001,-17.372714700000003],[-66.16248470000001,-17.373272200000002],[-66.1623417,-17.373760800000003],[-66.1619469,-17.3751099],[-66.1619132,-17.375219700000002],[-66.1618519,-17.375428900000003],[-66.1618315,-17.3754986],[-66.1615816,-17.376351300000003],[-66.16157550000001,-17.3763721],[-66.1615553,-17.3764448],[-66.1615333,-17.376519400000003],[-66.1613573,-17.377116700000002],[-66.16110040000001,-17.377993200000002],[-66.1610869,-17.378041200000002],[-66.1610775,-17.3780745],[-66.1610462,-17.3781873],[-66.1610272,-17.3782558],[-66.16095920000001,-17.3784883],[-66.16094240000001,-17.3785457],[-66.16081120000001,-17.378994300000002],[-66.1607831,-17.3790903],[-66.1607443,-17.379223200000002],[-66.16042150000001,-17.380326800000002],[-66.16039520000001,-17.380427100000002],[-66.1603946,-17.380447],[-66.1603903,-17.380538400000002],[-66.16040260000001,-17.3806234],[-66.16042920000001,-17.380705300000002],[-66.16044600000001,-17.380753300000002],[-66.1604502,-17.3808037],[-66.1604418,-17.380853600000002],[-66.16042110000001,-17.3809001],[-66.1603894,-17.380940600000002],[-66.16034830000001,-17.381026300000002],[-66.1603242,-17.3810949],[-66.16030110000001,-17.381163100000002],[-66.1602836,-17.3812089],[-66.16026480000001,-17.381271400000003],[-66.1602553,-17.381306000000002],[-66.16014910000001,-17.381663200000002],[-66.1601392,-17.381699],[-66.16011800000001,-17.3817783],[-66.16010680000001,-17.3818443],[-66.1600997,-17.381917100000003],[-66.1601024,-17.3820084],[-66.16012400000001,-17.3821361],[-66.1601469,-17.382213200000002],[-66.1602407,-17.382286800000003],[-66.1603594,-17.3823444],[-66.1604688,-17.3823833],[-66.1606562,-17.3825128],[-66.16071070000001,-17.382560700000003],[-66.16076100000001,-17.3826192],[-66.16077870000001,-17.382656400000002],[-66.1607888,-17.3826961],[-66.1607912,-17.3827369],[-66.1607791,-17.3827992],[-66.1607072,-17.3831619],[-66.1606419,-17.3834911],[-66.1605961,-17.383725600000002],[-66.16054530000001,-17.383991],[-66.16053260000001,-17.384057300000002],[-66.1605109,-17.384180500000003],[-66.16048190000001,-17.384330600000002],[-66.16047440000001,-17.3843724],[-66.1603513,-17.3850553],[-66.16025570000001,-17.385585600000002],[-66.16016730000001,-17.3860756],[-66.1601591,-17.3861214],[-66.16014820000001,-17.386177],[-66.1600475,-17.386694400000003],[-66.1599305,-17.387295400000003],[-66.1599197,-17.3873512],[-66.1597423,-17.3882142],[-66.15973050000001,-17.3882738],[-66.15970510000001,-17.388406],[-66.15964380000001,-17.3887192],[-66.15959020000001,-17.3889782],[-66.1595262,-17.3892878],[-66.1595142,-17.3893446],[-66.159503,-17.3893996],[-66.15944420000001,-17.3897264],[-66.1593876,-17.3900413],[-66.1593227,-17.390402100000003],[-66.15931300000001,-17.390457100000003],[-66.1593022,-17.390508],[-66.159237,-17.390786600000002],[-66.15910980000001,-17.391411400000003],[-66.1590985,-17.3914702],[-66.15908800000001,-17.3915156],[-66.15895520000001,-17.3921765],[-66.15888890000001,-17.392506200000003],[-66.158879,-17.3925589],[-66.1588624,-17.3926465],[-66.15885030000001,-17.3927102],[-66.15869380000001,-17.393513900000002],[-66.1586779,-17.3935864],[-66.15866940000001,-17.393629800000003],[-66.15848510000001,-17.3945425],[-66.15846850000001,-17.3946244],[-66.1584596,-17.3946726],[-66.1582846,-17.3956252],[-66.1582776,-17.3956693],[-66.1582695,-17.3957154],[-66.1582518,-17.3958179],[-66.1581359,-17.3966716],[-66.1581304,-17.3967147],[-66.1581237,-17.396767800000003],[-66.15796920000001,-17.397736300000002],[-66.157959,-17.397794],[-66.1579492,-17.3978569],[-66.15777820000001,-17.3989265],[-66.1577422,-17.399144900000003],[-66.157736,-17.399296900000003],[-66.1577347,-17.399351900000003],[-66.1577288,-17.3994867],[-66.1577242,-17.3995661],[-66.1577104,-17.3998063],[-66.1576735,-17.400164800000002],[-66.15759510000001,-17.4009518],[-66.1575885,-17.401002300000002],[-66.15757520000001,-17.401153700000002],[-66.157522,-17.4015753],[-66.1574818,-17.4020121],[-66.1574693,-17.4021498],[-66.1574602,-17.4022501],[-66.1574143,-17.4026402],[-66.15738040000001,-17.402927400000003],[-66.15730570000001,-17.403430800000002],[-66.1571981,-17.4039846],[-66.1571744,-17.4040293],[-66.15714940000001,-17.404081100000003],[-66.15697510000001,-17.4051438],[-66.156929,-17.4053964],[-66.15671490000001,-17.4065683],[-66.15667520000001,-17.4068311],[-66.1566081,-17.407373500000002],[-66.1565791,-17.4075962],[-66.1565643,-17.407672],[-66.15655220000001,-17.4077489],[-66.1563919,-17.408892],[-66.1562995,-17.4093093],[-66.1562526,-17.409537],[-66.1561494,-17.4101159],[-66.15610310000001,-17.410408800000003],[-66.1560788,-17.4106525],[-66.15603870000001,-17.411008600000002],[-66.1563064,-17.411838900000003],[-66.15636760000001,-17.412081200000003],[-66.1564244,-17.4124108],[-66.1564184,-17.4125091],[-66.1564168,-17.4125769],[-66.15643220000001,-17.412667300000003],[-66.15647890000001,-17.4129417],[-66.1565082,-17.413103200000002],[-66.1566016,-17.4136172],[-66.15664120000001,-17.4138349],[-66.1567186,-17.4142572],[-66.15675490000001,-17.414352100000002],[-66.1567981,-17.4145858],[-66.15684270000001,-17.414698],[-66.1569922,-17.4155388],[-66.15700910000001,-17.415626900000003],[-66.1570227,-17.415709600000003],[-66.15719700000001,-17.4165706],[-66.157207,-17.4166281],[-66.1572232,-17.416710700000003],[-66.1573721,-17.4176234],[-66.15754650000001,-17.4187052],[-66.1576093,-17.4191214],[-66.157644,-17.4193561],[-66.15768030000001,-17.419601],[-66.1576838,-17.419624900000002],[-66.15769390000001,-17.4196932],[-66.1577032,-17.4197518],[-66.1577297,-17.4199188],[-66.15777030000001,-17.420174600000003],[-66.15777890000001,-17.4202297],[-66.15781700000001,-17.420468300000003],[-66.15782060000001,-17.420491000000002],[-66.1578264,-17.420528],[-66.15788470000001,-17.4209201],[-66.15792160000001,-17.4211652],[-66.1580254,-17.421770900000002],[-66.1580356,-17.421839300000002],[-66.15816570000001,-17.422669600000003],[-66.15818300000001,-17.4227871],[-66.1582975,-17.4235739],[-66.1584775,-17.4245309],[-66.15872780000001,-17.4257287],[-66.15874480000001,-17.425796400000003],[-66.1590776,-17.4269849],[-66.15922520000001,-17.4275176],[-66.1593308,-17.427875500000003],[-66.15947,-17.428345500000002],[-66.15974840000001,-17.429348500000003],[-66.15977240000001,-17.4294201],[-66.16023120000001,-17.4309823],[-66.1602842,-17.4311843],[-66.1606818,-17.432574900000002],[-66.16093500000001,-17.4334016],[-66.16119780000001,-17.434336000000002],[-66.16130430000001,-17.434691],[-66.1614638,-17.435257800000002],[-66.16164690000001,-17.4359086],[-66.1621276,-17.4375533],[-66.16237720000001,-17.438537800000002],[-66.1624967,-17.4391593],[-66.162509,-17.439231000000003],[-66.162514,-17.4392564],[-66.16252560000001,-17.439332800000003],[-66.16255890000001,-17.439532900000003],[-66.16259140000001,-17.439742600000002],[-66.162632,-17.439958200000003],[-66.16265720000001,-17.440086700000002],[-66.1628069,-17.440788100000002],[-66.162857,-17.440984500000003],[-66.1629144,-17.441141700000003],[-66.1634197,-17.4423163],[-66.1635294,-17.442591200000003],[-66.1636148,-17.4428661],[-66.1636835,-17.443163700000003],[-66.16374300000001,-17.443476200000003],[-66.1638516,-17.4438302],[-66.1639603,-17.444157],[-66.1641999,-17.444916000000003],[-66.1645422,-17.445993100000003],[-66.1645853,-17.4461312],[-66.16480630000001,-17.4468542],[-66.1649778,-17.447323800000003],[-66.1650357,-17.4474823],[-66.1650505,-17.4475473],[-66.1650712,-17.4476383],[-66.16511600000001,-17.4479766],[-66.1652598,-17.448702200000003],[-66.1654498,-17.4494395],[-66.16567110000001,-17.450206],[-66.16586480000001,-17.450846000000002],[-66.1660904,-17.4516332],[-66.1662155,-17.451952600000002],[-66.1662513,-17.4520492],[-66.16634350000001,-17.452348200000003],[-66.1665531,-17.453135800000002],[-66.1666086,-17.4533503],[-66.1667201,-17.453735100000003],[-66.16705230000001,-17.454726400000002],[-66.1670847,-17.4548232],[-66.16709230000001,-17.4548546],[-66.1671135,-17.454954700000002],[-66.16727920000001,-17.4557387],[-66.16740870000001,-17.4563612],[-66.167568,-17.4571273],[-66.1677161,-17.4578832],[-66.1677844,-17.458247500000002],[-66.1679761,-17.459016000000002],[-66.16804300000001,-17.4593077],[-66.16825080000001,-17.460091000000002],[-66.1684189,-17.460724600000002],[-66.16849400000001,-17.461030500000003],[-66.1686404,-17.461626900000002],[-66.16873770000001,-17.462031300000003],[-66.16881430000001,-17.462533200000003],[-66.1688348,-17.462703700000002],[-66.168873,-17.463198700000003],[-66.1688838,-17.463326100000003],[-66.16877190000001,-17.463351300000003],[-66.16784390000001,-17.4635779],[-66.1670931,-17.463738900000003],[-66.16657790000001,-17.463849200000002],[-66.16613690000001,-17.4639455],[-66.16595530000001,-17.463966900000003],[-66.1653984,-17.4638968],[-66.1652777,-17.463882100000003],[-66.1650307,-17.463849500000002],[-66.16465290000001,-17.463799700000003],[-66.1643099,-17.463857800000003],[-66.16414080000001,-17.4638621],[-66.16397810000001,-17.463849200000002],[-66.16339780000001,-17.463712800000003],[-66.1633963,-17.4638081],[-66.16334110000001,-17.4649438],[-66.163347,-17.4651585],[-66.1633673,-17.465350500000003],[-66.1631713,-17.4652414],[-66.1630308,-17.4651661],[-66.16272640000001,-17.464904],[-66.1621834,-17.464493],[-66.16211290000001,-17.464489],[-66.16198630000001,-17.4644467],[-66.1617757,-17.464225900000002],[-66.1616182,-17.464565],[-66.16157940000001,-17.464680400000002],[-66.16158010000001,-17.464756400000002],[-66.1616788,-17.4651524],[-66.1617138,-17.465441900000002],[-66.1617288,-17.4655668],[-66.1617662,-17.4658784],[-66.16178350000001,-17.4661095],[-66.1618011,-17.466344300000003],[-66.1618432,-17.4666685],[-66.1618799,-17.466904300000003],[-66.1619754,-17.467304900000002],[-66.1620627,-17.467433800000002],[-66.1621183,-17.467529000000003],[-66.16216,-17.467636600000002],[-66.1622028,-17.4681479],[-66.16227950000001,-17.4689081],[-66.16236830000001,-17.469704],[-66.1623093,-17.469710000000003],[-66.1623266,-17.4698208],[-66.16237450000001,-17.470127],[-66.16231880000001,-17.4707167],[-66.1625812,-17.470738400000002],[-66.1629522,-17.470769200000003],[-66.1628534,-17.471019400000003],[-66.16281120000001,-17.471094800000003],[-66.16274,-17.471555400000003],[-66.1626837,-17.471897900000002],[-66.1626471,-17.4720616],[-66.16246220000001,-17.4725098],[-66.1623905,-17.4726529],[-66.1621207,-17.4730405]]}}},{"type":"Feature","properties":{"bench":"no","bin":"no","bus":"yes","departures_board":"no","highway":"bus_stop","informal":"yes","kerb":"raised","lit":"no","name":"Plaza Luis Felipe Guzmán Achá","public_transport":"platform","shelter":"no","tactile_paving":"no","wheelchair":"no","id":9655323871},"geometry":{"type":"Point","coordinates":[-66.16369490000001,-17.3680154]}},{"type":"Feature","properties":{"bench":"yes","bin":"no","bus":"yes","departures_board":"no","highway":"bus_stop","kerb":"raised","level":"0","lit":"no","name":"América","operator":"Gobierno Autónomo Municipal de Cochabamba","public_transport":"platform","shelter":"yes","tactile_paving":"no","wheelchair":"no","id":4929965584},"geometry":{"type":"Point","coordinates":[-66.16284560000001,-17.372253100000002]}},{"type":"Feature","properties":{"bench":"yes","bin":"no","bus":"yes","departures_board":"no","highway":"bus_stop","level":"0","lit":"no","name":"Teófilo Vargas","public_transport":"platform","shelter":"yes","tactile_paving":"no","id":2370240952},"geometry":{"type":"Point","coordinates":[-66.16205000000001,-17.3749141]}},{"type":"Feature","properties":{"bench":"yes","bin":"no","bus":"yes","departures_board":"no","highway":"bus_stop","kerb":"raised","level":"0","lit":"no","name":"Juan de la Rosa","operator":"Gobierno Autónomo Municipal de Cochabamba","public_transport":"platform","shelter":"yes","tactile_paving":"no","wheelchair":"no","id":8591667681},"geometry":{"type":"Point","coordinates":[-66.1611938,-17.3778538]}},{"type":"Feature","properties":{"bench":"no","bin":"no","bus":"yes","departures_board":"no","highway":"bus_stop","lit":"no","name":"La Paz","public_transport":"platform","shelter":"no","id":4227442132},"geometry":{"type":"Point","coordinates":[-66.1602172,-17.3859812]}},{"type":"Feature","properties":{"bench":"no","bin":"no","bus":"yes","departures_board":"no","highway":"bus_stop","kerb":"raised","lit":"no","name":"México","operator":"Gobierno Autónomo Municipal de Cochabamba","pole":"yes","public_transport":"platform","shelter":"no","tactile_paving":"no","wheelchair":"no","id":6546789757},"geometry":{"type":"Point","coordinates":[-66.1597763,-17.388160600000003]}},{"type":"Feature","properties":{"bench":"yes","bin":"no","bus":"yes","departures_board":"no","highway":"bus_stop","kerb":"raised","level":"0","lit":"no","name":"Ecuador","operator":"Gobierno Autónomo Municipal de Cochabamba","operator:type":"government","public_transport":"platform","shelter":"yes","tactile_paving":"no","wheelchair":"no","id":3201986240},"geometry":{"type":"Point","coordinates":[-66.15937650000001,-17.390360700000002]}},{"type":"Feature","properties":{"amenity":"bus_station","bus":"yes","highway":"bus_stop","name":"Parada Trufi 103","public_transport":"platform","id":9150327852},"geometry":{"type":"Point","coordinates":[-66.16204370000001,-17.4730564]}},{"type":"Feature","properties":{"bench":"no","bin":"no","bus":"yes","departures_board":"no","highway":"bus_stop","level":"0","lit":"no","name":"Parada 103","public_transport":"platform","shelter":"no","tactile_paving":"no","wheelchair":"no","id":11643033084},"geometry":{"type":"Point","coordinates":[-66.15490770000001,-17.3516625]}},{"type":"Feature","properties":{"bench":"no","bin":"no","bus":"yes","departures_board":"no","highway":"bus_stop","level":"0","lit":"no","name":"Teniente Antonio Arévalo","operator":"Gobierno Autónomo Municipal de Cochabamba","pole":"yes","public_transport":"platform","shelter":"no","tactile_paving":"no","wheelchair":"no","id":11865529276},"geometry":{"type":"Point","coordinates":[-66.1605945,-17.3839992]}},{"type":"Feature","properties":{"bench":"yes","bin":"no","bus":"yes","departures_board":"no","highway":"bus_stop","level":"0","lit":"no","name":"Obispo Anaya","operator":"Gobierno Autónomo Municipal de Cochabamba","public_transport":"platform","shelter":"yes","tactile_paving":"no","wheelchair":"no","id":2384907360},"geometry":{"type":"Point","coordinates":[-66.1616316,-17.3763349]}}]}