{"type":"FeatureCollection","features":[{"type":"Feature","properties":{"check_date":"2024-06-06","from":"Raúl Rivero Torrez","name":"MiniBus Z14: Raúl Rivero Torrez → Azurimarca","network":"BO:CB:Cochabamba","on_demand":"yes","opening_hours":"Mo-Su 09:00-17:15","operator":"Sindicato Mixto de Transporte Público 6 de Mayo","operator:type":"association","public_transport:version":"2","ref":"Z14","roundtrip":"no","route":"bus","source":"osm notes","to":"Azurimarca","type":"route","wheelchair":"no","id":10691728},"geometry":{"type":"LineString","coordinates":[[-66.13856390000001,-17.3774923],[-66.13861580000001,-17.3775343],[-66.13864120000001,-17.3775549],[-66.1386813,-17.377587400000003],[-66.1387196,-17.377586200000003],[-66.13875630000001,-17.3775894],[-66.13879510000001,-17.3776036],[-66.13886430000001,-17.3775908],[-66.13891380000001,-17.377586800000003],[-66.1389618,-17.3775985],[-66.13919960000001,-17.3777057],[-66.1395925,-17.3778827],[-66.13960870000001,-17.3778897],[-66.139733,-17.377950900000002],[-66.13981740000001,-17.377990200000003],[-66.139848,-17.378004],[-66.14128570000001,-17.3786552],[-66.14133580000001,-17.3786761],[-66.1413655,-17.3786884],[-66.14185330000001,-17.3788896],[-66.1419364,-17.3789091],[-66.14212780000001,-17.3789459],[-66.142145,-17.3789294],[-66.1421712,-17.3789155],[-66.1422015,-17.378907700000003],[-66.142233,-17.378907700000003],[-66.14226330000001,-17.3789157],[-66.1422914,-17.378931],[-66.14231210000001,-17.378952400000003],[-66.1423273,-17.3789786],[-66.1423347,-17.3790076],[-66.14233390000001,-17.3790374],[-66.14232990000001,-17.3790519],[-66.1423199,-17.3790756],[-66.1423139,-17.3790847],[-66.1423073,-17.379092800000002],[-66.1423,-17.3791003],[-66.1423039,-17.3791268],[-66.14230300000001,-17.379169800000003],[-66.1422761,-17.3793873],[-66.1422129,-17.379830100000003],[-66.1421887,-17.3799943],[-66.14214100000001,-17.380106700000002],[-66.1421085,-17.3803468],[-66.1420921,-17.380467300000003],[-66.1420368,-17.3809286],[-66.14206820000001,-17.381035],[-66.14211470000001,-17.381133400000003],[-66.14212900000001,-17.381155600000003],[-66.1421821,-17.381239400000002],[-66.1422567,-17.3813321],[-66.14276910000001,-17.3816926],[-66.14280620000001,-17.3817208],[-66.1428932,-17.381785200000003],[-66.1429681,-17.381834700000002],[-66.1429887,-17.3818482],[-66.1435292,-17.3822049],[-66.14362720000001,-17.3822557],[-66.14372130000001,-17.382292000000003],[-66.1439599,-17.382360300000002],[-66.1441482,-17.3823884],[-66.1442102,-17.3823946],[-66.1450688,-17.3824723],[-66.1451665,-17.3824805],[-66.14526500000001,-17.382625200000003],[-66.14626410000001,-17.3840939],[-66.1462906,-17.384132800000003],[-66.1463324,-17.384194200000003],[-66.1463585,-17.3842326],[-66.147463,-17.385856],[-66.1475139,-17.3859308],[-66.1475669,-17.3860074],[-66.147678,-17.386168100000003],[-66.14771590000001,-17.386222800000002],[-66.148064,-17.3867233],[-66.14836460000001,-17.3871554],[-66.1484094,-17.3872198],[-66.14850120000001,-17.3873491],[-66.14851920000001,-17.3873745],[-66.14864270000001,-17.387550800000003],[-66.14884190000001,-17.387832500000002],[-66.14901,-17.388070000000003],[-66.14916980000001,-17.388299500000002],[-66.14933660000001,-17.3885389],[-66.1493179,-17.388644900000003],[-66.149276,-17.3888535],[-66.1491994,-17.389254400000002],[-66.1491441,-17.389543900000003],[-66.1490107,-17.390230600000002],[-66.148919,-17.390703000000002],[-66.14890910000001,-17.3907458],[-66.14889430000001,-17.390824400000003],[-66.14888640000001,-17.3908667],[-66.1487038,-17.3917663],[-66.14869060000001,-17.3918339],[-66.1491355,-17.3919138],[-66.14925000000001,-17.3919344],[-66.1495076,-17.3919807],[-66.1497628,-17.3920265],[-66.14981970000001,-17.392033],[-66.1504108,-17.392135200000002],[-66.15097300000001,-17.3922345],[-66.15102800000001,-17.3922446],[-66.15108040000001,-17.3922537],[-66.152094,-17.3924306],[-66.15248410000001,-17.392498800000002],[-66.15319790000001,-17.3926236],[-66.15300040000001,-17.3936642],[-66.15296120000001,-17.3938747],[-66.1528081,-17.3946979],[-66.1526171,-17.3957535],[-66.1524397,-17.396804000000003],[-66.1522494,-17.397787800000003],[-66.1522434,-17.3978983],[-66.15224880000001,-17.398145200000002],[-66.15222840000001,-17.398381500000003],[-66.15221910000001,-17.398466000000003],[-66.15221890000001,-17.3985461],[-66.15219090000001,-17.3987987],[-66.1521652,-17.3991575],[-66.15215950000001,-17.3992571],[-66.15214870000001,-17.3993274],[-66.152152,-17.399909500000003],[-66.15219610000001,-17.4014555],[-66.1522352,-17.4023897],[-66.1526695,-17.4023164],[-66.1533031,-17.4023036],[-66.1539503,-17.402274700000003],[-66.1540131,-17.4022708],[-66.1545042,-17.402242700000002],[-66.15496730000001,-17.402208100000003],[-66.15531650000001,-17.4021915],[-66.1552573,-17.401342600000003],[-66.15521820000001,-17.400649100000003],[-66.1551769,-17.4001495],[-66.155175,-17.400035000000003],[-66.15517940000001,-17.3999701],[-66.1551889,-17.399895500000003],[-66.1552224,-17.399698400000002],[-66.15528330000001,-17.399337600000003],[-66.15530360000001,-17.3992471],[-66.15534770000001,-17.399256700000002],[-66.156378,-17.399481],[-66.1564374,-17.399488700000003],[-66.1564991,-17.3994953],[-66.15675590000001,-17.399494800000003],[-66.15696360000001,-17.399463],[-66.1571541,-17.399440100000003],[-66.1575712,-17.3993743],[-66.1576356,-17.399365500000002],[-66.1577347,-17.399351900000003],[-66.15781600000001,-17.3993404],[-66.1578434,-17.3993362],[-66.15843930000001,-17.399245200000003],[-66.1584983,-17.3992362],[-66.15861500000001,-17.399227200000002],[-66.1587124,-17.399228800000003],[-66.158764,-17.399232100000003],[-66.1591739,-17.399257700000003],[-66.1592816,-17.3992705],[-66.1593653,-17.399274400000003],[-66.15999670000001,-17.399303200000002],[-66.16006630000001,-17.399313600000003],[-66.1601608,-17.399337300000003],[-66.1603302,-17.3993931],[-66.16043300000001,-17.399426700000003],[-66.16099530000001,-17.3995906],[-66.16109110000001,-17.399618500000003],[-66.1612278,-17.399656200000003],[-66.1615876,-17.3997555],[-66.1618371,-17.399843],[-66.1619824,-17.3999132],[-66.1621329,-17.4000056],[-66.1622471,-17.4000935],[-66.1623448,-17.4001555],[-66.16240540000001,-17.400183900000002],[-66.16247340000001,-17.4002151],[-66.1624927,-17.4002145],[-66.16253560000001,-17.4002269],[-66.16256510000001,-17.400242600000002],[-66.1625922,-17.4002656],[-66.16261200000001,-17.400292200000003],[-66.1626269,-17.4003151],[-66.16264140000001,-17.400348],[-66.1626447,-17.400380900000002],[-66.16264310000001,-17.400403200000003],[-66.16265200000001,-17.400485500000002],[-66.16267500000001,-17.4005797],[-66.16273530000001,-17.4007103],[-66.1627455,-17.400732400000003],[-66.16285380000001,-17.4010032],[-66.1628883,-17.4011713],[-66.1629118,-17.401448300000002],[-66.1629499,-17.402153300000002],[-66.1629973,-17.402712],[-66.1630252,-17.403078],[-66.1630664,-17.4033164],[-66.1631218,-17.4035341],[-66.16330740000001,-17.4040584],[-66.1634265,-17.4044768],[-66.16354580000001,-17.405057300000003],[-66.16373300000001,-17.4060603],[-66.1639313,-17.4070691],[-66.16395530000001,-17.407191],[-66.16397810000001,-17.407312100000002],[-66.16405130000001,-17.407652900000002],[-66.1641426,-17.4081183],[-66.1642985,-17.4089014],[-66.1643743,-17.409283900000002],[-66.16438810000001,-17.409353900000003],[-66.16441540000001,-17.4094978],[-66.1644232,-17.4095392],[-66.16443220000001,-17.409586700000002],[-66.16443980000001,-17.4096322],[-66.16454680000001,-17.4102333],[-66.1645601,-17.410276000000003],[-66.1645989,-17.4103871],[-66.16464520000001,-17.4104506],[-66.16466820000001,-17.4104932],[-66.1647774,-17.410659900000002],[-66.1648128,-17.410679400000003],[-66.1648392,-17.410698200000002],[-66.1648634,-17.410719500000003],[-66.1649015,-17.410764500000003],[-66.16492980000001,-17.4108157],[-66.1649474,-17.410871],[-66.16495160000001,-17.410910700000002],[-66.16495350000001,-17.410928600000002],[-66.1649481,-17.4109862],[-66.1649313,-17.411041800000003],[-66.16490370000001,-17.4110932],[-66.1648842,-17.4111192],[-66.1648619,-17.411143000000003],[-66.16481610000001,-17.411291900000002],[-66.1647944,-17.411379500000002],[-66.1647875,-17.4114319],[-66.16479120000001,-17.4115071],[-66.16489030000001,-17.412045300000003],[-66.1649285,-17.412231400000003],[-66.16495010000001,-17.4123565],[-66.1650589,-17.4129019],[-66.1650693,-17.4129538],[-66.1652481,-17.4139021],[-66.1652584,-17.4139559],[-66.1652698,-17.4140149],[-66.16545620000001,-17.414981700000002],[-66.1656397,-17.415924200000003],[-66.1656512,-17.415983100000002],[-66.1657823,-17.416661100000002],[-66.1658331,-17.4167978],[-66.1658809,-17.416938400000003],[-66.16597660000001,-17.4174255],[-66.16598490000001,-17.41747],[-66.16606820000001,-17.417919100000002],[-66.166111,-17.418203700000003],[-66.16622500000001,-17.418933900000003],[-66.1663613,-17.419664],[-66.1664877,-17.420365500000003],[-66.1666232,-17.421059900000003],[-66.1666912,-17.421408300000003],[-66.1667024,-17.4215346],[-66.1667019,-17.4216577],[-66.16663530000001,-17.4220438],[-66.1666218,-17.422131800000002],[-66.16661040000001,-17.4222062],[-66.16660610000001,-17.4222341],[-66.1665859,-17.4223803],[-66.1665116,-17.4229178],[-66.1663391,-17.4248435],[-66.1662349,-17.426072700000002],[-66.1661923,-17.426565500000002],[-66.1661796,-17.426662500000003],[-66.16611080000001,-17.4267602],[-66.1654153,-17.427385400000002],[-66.16469620000001,-17.428002600000003],[-66.16458010000001,-17.428102300000003],[-66.16377510000001,-17.428802800000003],[-66.16361730000001,-17.428932600000003],[-66.1625554,-17.4298438],[-66.16251720000001,-17.4298815],[-66.1624259,-17.4299527],[-66.16235160000001,-17.430029100000002],[-66.1622969,-17.430091200000003],[-66.16225510000001,-17.4301406],[-66.1622164,-17.4302756],[-66.16216650000001,-17.431267100000003],[-66.16211630000001,-17.4325329],[-66.1621046,-17.433230400000003],[-66.16208970000001,-17.4337883],[-66.1621339,-17.433873400000003],[-66.1621889,-17.4339239],[-66.1622696,-17.4339543],[-66.16235950000001,-17.433951500000003],[-66.1626028,-17.4339358],[-66.16269940000001,-17.4339389],[-66.1628223,-17.4339547],[-66.1630954,-17.434016900000003],[-66.1635937,-17.434141200000003],[-66.16404250000001,-17.434238],[-66.16414230000001,-17.434246700000003],[-66.16419760000001,-17.434247300000003],[-66.16422100000001,-17.434242400000002],[-66.16426030000001,-17.4342341],[-66.1643334,-17.4341969],[-66.1643975,-17.4341554],[-66.16486660000001,-17.433760300000003],[-66.165907,-17.4328606],[-66.16631860000001,-17.432513500000002],[-66.1669019,-17.4320129],[-66.1672971,-17.4316713],[-66.1676989,-17.431317800000002],[-66.16833910000001,-17.430764500000002],[-66.16938090000001,-17.4298554],[-66.16988070000001,-17.4294279],[-66.1718673,-17.4277172],[-66.1728022,-17.4269043],[-66.1748427,-17.4251468],[-66.1749228,-17.425077],[-66.1749994,-17.4250444],[-66.17509100000001,-17.425032400000003],[-66.1751591,-17.4250486],[-66.17523,-17.425075500000002],[-66.17531410000001,-17.425120600000003],[-66.1754061,-17.425183],[-66.1765366,-17.4261091],[-66.17672250000001,-17.426250300000003],[-66.17715310000001,-17.426590700000002],[-66.17741380000001,-17.4268088],[-66.1775034,-17.426877700000002],[-66.1779983,-17.427258600000002],[-66.1785188,-17.4276604],[-66.1793057,-17.428267100000003],[-66.1793378,-17.4282918],[-66.1794998,-17.428416700000003],[-66.1795443,-17.4284511],[-66.1795816,-17.4284798],[-66.17964520000001,-17.4285289],[-66.1806854,-17.429330800000002],[-66.18123650000001,-17.4297754],[-66.1816613,-17.4301098],[-66.1823962,-17.4306896],[-66.1830778,-17.4312213],[-66.1832083,-17.4313617],[-66.18332980000001,-17.431443700000003],[-66.183447,-17.431505],[-66.183554,-17.431554600000002],[-66.18370990000001,-17.4316177],[-66.18395240000001,-17.4316831],[-66.183986,-17.431691100000002],[-66.18411520000001,-17.431717600000002],[-66.18424970000001,-17.431734600000002],[-66.18448020000001,-17.4317472],[-66.1845854,-17.431735800000002],[-66.185084,-17.4316818],[-66.1852375,-17.4316864],[-66.18550130000001,-17.4317272],[-66.1856745,-17.431762900000003],[-66.18651790000001,-17.4319366],[-66.18891430000001,-17.4324243],[-66.19029130000001,-17.4327076],[-66.19071050000001,-17.432804200000003],[-66.19174960000001,-17.4330076],[-66.19266680000001,-17.433190500000002],[-66.192711,-17.4332004],[-66.1934258,-17.434267700000003],[-66.1936924,-17.4346718],[-66.1937824,-17.4348111],[-66.1941061,-17.4353121],[-66.1946642,-17.436170200000003],[-66.1957368,-17.437794],[-66.1960004,-17.4381798],[-66.1961823,-17.438481200000002],[-66.19636170000001,-17.438955800000002],[-66.1965313,-17.4394011],[-66.19690680000001,-17.440387400000002],[-66.1969545,-17.4405128],[-66.1975647,-17.4419843],[-66.19805880000001,-17.4431854],[-66.198116,-17.443350900000002],[-66.19825060000001,-17.4436605],[-66.1985976,-17.444524400000002],[-66.198632,-17.444607700000002],[-66.1988378,-17.4451062],[-66.19891670000001,-17.4452973],[-66.19898140000001,-17.4454539],[-66.1990229,-17.445554400000002],[-66.1990557,-17.4456339],[-66.19937800000001,-17.4464143],[-66.19943040000001,-17.446541200000002],[-66.1996682,-17.4471171],[-66.1997747,-17.447375100000002],[-66.1998147,-17.447469],[-66.19997640000001,-17.4478486],[-66.2003052,-17.4485919],[-66.20103560000001,-17.450312200000003],[-66.20113640000001,-17.4506018],[-66.2011849,-17.4508264],[-66.2012526,-17.4511708],[-66.20131330000001,-17.451362600000003],[-66.2013848,-17.451467700000002],[-66.2014783,-17.451582300000002],[-66.20161940000001,-17.4517032],[-66.2022766,-17.4523037],[-66.2026616,-17.452665600000003],[-66.20273010000001,-17.452692300000002],[-66.20278850000001,-17.452764000000002],[-66.2030866,-17.453135900000003],[-66.2031616,-17.453204300000003],[-66.20327870000001,-17.453281200000003],[-66.20332210000001,-17.4532968],[-66.2033854,-17.453319500000003],[-66.2035565,-17.453370200000002],[-66.2037791,-17.453424300000002],[-66.2039795,-17.453490400000003],[-66.20438410000001,-17.4536842],[-66.20466640000001,-17.453802800000002],[-66.20496820000001,-17.453920200000002],[-66.20523250000001,-17.454021400000002],[-66.20530140000001,-17.454064000000002],[-66.2053497,-17.454112300000002],[-66.20538110000001,-17.4541624],[-66.2054518,-17.4543083],[-66.2055103,-17.454429],[-66.20569420000001,-17.4547725],[-66.2061996,-17.4554948],[-66.20668880000001,-17.456275400000003],[-66.2068917,-17.456632600000002],[-66.2076641,-17.4578686],[-66.2077354,-17.4579452],[-66.20782910000001,-17.4580057],[-66.20834900000001,-17.4582634],[-66.2085756,-17.4583534],[-66.2086357,-17.458377300000002],[-66.2088983,-17.458477900000002],[-66.2093612,-17.4585928],[-66.20999020000001,-17.458737000000003],[-66.2104686,-17.458802000000002],[-66.21131550000001,-17.458871000000002],[-66.2118684,-17.4589006],[-66.21227130000001,-17.4589222],[-66.2125855,-17.458945200000002],[-66.2127519,-17.458988100000003],[-66.21369440000001,-17.4595227],[-66.2142766,-17.4598185],[-66.21480770000001,-17.4600593],[-66.21486700000001,-17.4601073],[-66.2149495,-17.4601852],[-66.21520380000001,-17.4605208],[-66.2152882,-17.460612700000002],[-66.21538100000001,-17.4606679],[-66.21580230000001,-17.460847],[-66.21601980000001,-17.4609059],[-66.2160868,-17.4609273],[-66.2161478,-17.4609664],[-66.2162426,-17.461092200000003],[-66.2163151,-17.461148],[-66.21638890000001,-17.461174200000002],[-66.2193835,-17.461095800000002],[-66.2193361,-17.4611726],[-66.21954090000001,-17.4612747],[-66.219729,-17.461347800000002],[-66.2203418,-17.461594],[-66.2203994,-17.4616283],[-66.22045630000001,-17.461674000000002],[-66.2207535,-17.4619746],[-66.22093070000001,-17.4621448],[-66.2212492,-17.462365100000003],[-66.22134340000001,-17.4624412],[-66.22165460000001,-17.4627316],[-66.22183770000001,-17.462932700000003],[-66.2219853,-17.463045700000002],[-66.222142,-17.463119300000002],[-66.2228929,-17.4634362],[-66.22309080000001,-17.4634916],[-66.22350220000001,-17.463556200000003],[-66.22407770000001,-17.4636515],[-66.2241434,-17.463675000000002],[-66.22421,-17.463704],[-66.2243411,-17.4637698],[-66.2244261,-17.463791],[-66.2245027,-17.4637992],[-66.2245693,-17.4637941],[-66.22464360000001,-17.463796100000003],[-66.22474310000001,-17.4638156],[-66.2248445,-17.4638488],[-66.22491160000001,-17.463887800000002],[-66.224967,-17.463949000000003],[-66.22503680000001,-17.464046900000003],[-66.2250853,-17.464110400000003],[-66.22515920000001,-17.464165],[-66.2252265,-17.4641881],[-66.2252991,-17.464186400000003],[-66.2253512,-17.464167900000003],[-66.225401,-17.4641309],[-66.22556680000001,-17.4638658],[-66.2256785,-17.463855300000002],[-66.2276501,-17.464353000000003],[-66.227934,-17.464381200000002],[-66.22845070000001,-17.4646769],[-66.2285841,-17.4647517],[-66.22885810000001,-17.4649387],[-66.2290512,-17.465048200000002],[-66.22917070000001,-17.465105],[-66.2292939,-17.465148000000003],[-66.2294042,-17.465186000000003],[-66.2294564,-17.465218800000002],[-66.2295096,-17.465271],[-66.2296999,-17.4654962],[-66.22977,-17.4655647],[-66.22996210000001,-17.465693400000003],[-66.23022420000001,-17.465869],[-66.23051330000001,-17.4660286],[-66.2309882,-17.4663408],[-66.2312412,-17.466467700000003],[-66.2313613,-17.466555500000002],[-66.2316406,-17.466767700000002],[-66.2317872,-17.466928300000003],[-66.2319198,-17.467005],[-66.2319827,-17.4670299],[-66.2320754,-17.4670546],[-66.2321256,-17.4670822],[-66.2321823,-17.467104000000003],[-66.2322168,-17.467148],[-66.23223440000001,-17.467201600000003],[-66.232247,-17.467252000000002],[-66.23232800000001,-17.467719900000002],[-66.23236990000001,-17.468036700000003],[-66.2324042,-17.4683734],[-66.23242780000001,-17.468604900000003],[-66.23242280000001,-17.468775800000003],[-66.23240700000001,-17.468995800000002],[-66.23241030000001,-17.4690587],[-66.23242160000001,-17.469172500000003],[-66.23251350000001,-17.469486900000003]],"nodes":[10897713181,10897713191,10897713190,602989588,10220781640,1796486792,7965138175,1044379737,3264544551,3264544552,10897713158,8379213499,9976027072,668478460,9546245458,10897713156,8172711433,10897713118,10897713121,8379904359,2391341536,2391341593,2391341542,2334193716,2391341543,6331635783,2391341545,6331635782,2391341567,6331635781,2391341584,2391341597,9353076788,9353076783,9353076786,9353076784,2391341617,8379904374,2391341642,8377112402,1637609991,2391341677,668478462,9047064133,9047064135,602989556,668478523,2391341735,12062691267,1796486896,312425454,5224206193,2590032660,360124944,10897781660,10897781663,312425456,8390961537,668478464,312425458,312425459,9030077759,1720012832,312425660,8390961546,9930862751,1807100710,2361168089,9930862749,6179473101,312425828,6179473096,11310743156,9031318855,9028209372,6179473247,9031318856,2141431944,6179473241,6179473238,9034180378,5353339454,11310645817,312425956,315096054,3201986227,11827172367,308306729,11827181890,2524491857,303214819,698492415,2524491860,2524491871,310256064,9602314646,9602314660,9602314663,303217534,6199916295,8515866936,2630687701,310256065,8515866938,310256285,10015492617,310256286,303217864,9863185783,310281532,310500613,310500796,2765190335,310501003,8238783225,8238783240,1727306396,648548895,8238783131,8238783133,310503106,9941529677,843386643,310503107,323983970,6129316868,308300568,5313058805,323983784,702511962,5313058740,323982548,702511964,310503058,2765190391,8238772506,8238772507,310503057,12081159175,648548822,1727306404,3674274542,12081159193,1727306401,2398944652,2398944653,11679558744,7767900404,4929965568,1727306403,1865095006,10044108867,2398944637,10921117778,2398944625,9566992862,315111204,9593572452,323969382,9593572449,10921117799,676069596,8099810036,9593560545,323969927,2266470191,9598863723,315111364,9598863715,2266470205,315111363,315111362,702511945,702511949,2280518053,9944343024,7899367256,2280518105,2280518130,9343198409,2280518153,2280518186,9343198408,9944330613,7899367257,2280518214,2280518245,2280518266,8015423565,659970421,659970422,2713599551,2713599554,800044125,2713599647,659970423,7899367258,2713599695,707336834,659970424,800044342,800044232,800044172,707336828,8067883503,9153439114,8067883509,9153439110,6710415936,707336761,9008741133,698597059,707336758,10046445976,10046446002,3301399354,2605750290,497193577,9438358979,648571093,497191184,9436550542,497191185,1762868953,9436550541,9163935212,10583128390,497190362,497190364,9436550540,497190365,9436550539,648571098,1762869033,1762869035,9163917159,497191904,5560421339,702725403,3303584458,10583174366,1865108155,9195017630,1865108146,9195017632,1865108160,10720737515,1865108142,8670410268,1865108163,10720737512,10720737474,11079650185,3303503993,3303504015,2421564257,2421564263,2421564276,2781016327,1637667884,11079453311,9918322373,6792116043,11079453307,11896505881,6792116048,11896505885,1637667909,1638809327,1638809359,1637667914,1637667917,1637667921,4900858374,11900582348,3306545242,9943750024,3306545366,9943952313,1637667924,1637667932,1637667936,9943952315,3306545380,3306545383,2149915989,2149916014,2149916001,8263292333,8263292331,8263292330,8263292329,13140654991,13140654992,13140654993,13140654994,13140654995,13140654996,13140654997,13140654998,13140688729,13165567827,13140654999,13140688728,13140655000,13140688701,13140688702,13140688703,13140688704,13140688705,13140688706,13140688707,13140688708,13140688709,13140688712,13140688713,13165567830,13140688715,13140688717,13165567828,8263292336,13140654989,13140654990,8995042829,8766456961,8766456962,12458052685,12458052686,12564357767,8766456984,8766456967,12564375412,12564375406,13157256887,8995040989,13149493545,12564375410,8766456971,12458052678,8766456974,8995042868,11943965403,3313353244,8766456978,11943965405,11943965404,780226729,3313353256,10803337069,10803337065,1626959127,3684931903,13055658876,3684931900,780226870,3684931901,13088482153,1626958487,11054281929,1626959210,12616586650,2976928027,1626959297,1617619516,1617619594,2976928539,11943965423,3686023136,2976928540,3690440613,3686023193,3686023194,8995043286,12462397032,3690443967,3686023209,3690444009,1617619479,9470367818,1626958811,1626959072,9454048415,12462397023,12462397025,12462397021,3690444264,9470343797,3690444275,9470343800,9470367826,1617619437,9470367828,1626959604,1617619584,3687313581,3687313583,3687313584,1617619627,3690444755,3690444759,3690444765,3690444774,3690444816,11109250840,3690444928,1617619667,3690560831,3690560841,3690560850,11109250866,3690560855,1617619449,3690560867,1617619519,3690560891,3690560902,3690560910,3690560924,3690560928,1617619551,3690560941,10826782688,3690560985,1617619537,3690561082,3690561103,3690561153,1617619500,3690561280,3690561283,3690561307,6988433063,3690561316,1617619723,1617619425,3690561329,1617619730,9039090946,3690561337,1617619736,1617619624,3690561347,1617619540,3690561373,1617619699,3690561376,3690561377,1617619430,1617619576,3690561380,3690561384,1617619581,3690561387,1617619685,3690561397,3690561398,1617619658,1617351963,3690561399,3741479977,1617619709,3741479981,3741479982,1617619498,3741479988,1617619510,3741479993,3741479994,1617619689,3741480004,1617619697,3741480010,3741480017,1617619681,3741480020,3741494026,3741494029,3741494032,1617619411,3741494033,3741494036,3741494034,3741494035,1617619427,1617619748,3741494040,3741494043,1617619488,3741494044,1617619701,3741494047,3741494046,3741494045,1617619451,3741494038,1617619515,3741494050,3741494052,3741494059,3741494067,1617619496,3741494081,3741494083,3741494084,3741494087,3741494089,3741494093,1617619670,3741494112,3741494132,3741494133,1617619494,3741494139,3741494145,3741494152,3741494159,1617619468,3741494177,1625954715,3741494186,3741494189,3741494190,1625953218,3741494200,1625954285,3741494236,1625953950,3741494301,3741494321,1625954102,3741494357,1625954307,3741494363,3741494382]},"gtfs":{"agency_id":39,"route_id":10691728,"services":[{"service_id":"Mo-Su","startTime":"09:00","endTime":"17:15","trip_id":108}],"filteredStops":{"nodes":[10897713181,10897713191,10897713190,602989588,10220781640,1796486792,7965138175,1044379737,3264544551,3264544552,10897713158,8379213499,9976027072,668478460,9546245458,10897713156,8172711433,10897713118,10897713121,8379904359,2391341536,2391341593,2391341542,2334193716,2391341543,6331635783,2391341545,6331635782,2391341567,6331635781,2391341584,2391341597,9353076788,9353076783,9353076786,9353076784,2391341617,8379904374,2391341642,8377112402,1637609991,2391341677,668478462,9047064133,9047064135,602989556,668478523,2391341735,12062691267,1796486896,312425454,5224206193,2590032660,360124944,10897781660,10897781663,312425456,8390961537,668478464,312425458,312425459,9030077759,1720012832,312425660,8390961546,9930862751,1807100710,2361168089,9930862749,6179473101,312425828,6179473096,11310743156,9031318855,9028209372,6179473247,9031318856,2141431944,6179473241,6179473238,9034180378,5353339454,11310645817,312425956,315096054,3201986227,11827172367,308306729,11827181890,2524491857,303214819,698492415,2524491860,2524491871,310256064,9602314646,9602314660,9602314663,303217534,6199916295,8515866936,2630687701,310256065,8515866938,310256285,10015492617,310256286,303217864,9863185783,310281532,310500613,310500796,2765190335,310501003,8238783225,8238783240,1727306396,648548895,8238783131,8238783133,310503106,9941529677,843386643,310503107,323983970,6129316868,308300568,5313058805,323983784,702511962,5313058740,323982548,702511964,310503058,2765190391,8238772506,8238772507,310503057,12081159175,648548822,1727306404,3674274542,12081159193,1727306401,2398944652,2398944653,11679558744,7767900404,4929965568,1727306403,1865095006,10044108867,2398944637,10921117778,2398944625,9566992862,315111204,9593572452,323969382,9593572449,10921117799,676069596,8099810036,9593560545,323969927,2266470191,9598863723,315111364,9598863715,2266470205,315111363,315111362,702511945,702511949,2280518053,9944343024,7899367256,2280518105,2280518130,9343198409,2280518153,2280518186,9343198408,9944330613,7899367257,2280518214,2280518245,2280518266,8015423565,659970421,659970422,2713599551,2713599554,800044125,2713599647,659970423,7899367258,2713599695,707336834,659970424,800044342,800044232,800044172,707336828,8067883503,9153439114,8067883509,9153439110,6710415936,707336761,9008741133,698597059,707336758,10046445976,10046446002,3301399354,2605750290,497193577,9438358979,648571093,497191184,9436550542,497191185,1762868953,9436550541,9163935212,10583128390,497190362,497190364,9436550540,497190365,9436550539,648571098,1762869033,1762869035,9163917159,497191904,5560421339,702725403,3303584458,10583174366,1865108155,9195017630,1865108146,9195017632,1865108160,10720737515,1865108142,8670410268,1865108163,10720737512,10720737474,11079650185,3303503993,3303504015,2421564257,2421564263,2421564276,2781016327,1637667884,11079453311,9918322373,6792116043,11079453307,11896505881,6792116048,11896505885,1637667909,1638809327,1638809359,1637667914,1637667917,1637667921,4900858374,11900582348,3306545242,9943750024,3306545366,9943952313,1637667924,1637667932,1637667936,9943952315,3306545380,3306545383,2149915989,2149916014,2149916001,8263292333,8263292331,8263292330,8263292329,13140654991,13140654992,13140654993,13140654994,13140654995,13140654996,13140654997,13140654998,13140688729,13165567827,13140654999,13140688728,13140655000,13140688701,13140688702,13140688703,13140688704,13140688705,13140688706,13140688707,13140688708,13140688709,13140688712,13140688713,13165567830,13140688715,13140688717,13165567828,8263292336,13140654989,13140654990,8995042829,8766456961,8766456962,12458052685,12458052686,12564357767,8766456984,8766456967,12564375412,12564375406,13157256887,8995040989,13149493545,12564375410,8766456971,12458052678,8766456974,8995042868,11943965403,3313353244,8766456978,11943965405,11943965404,780226729,3313353256,10803337069,10803337065,1626959127,3684931903,13055658876,3684931900,780226870,3684931901,13088482153,1626958487,11054281929,1626959210,12616586650,2976928027,1626959297,1617619516,1617619594,2976928539,11943965423,3686023136,2976928540,3690440613,3686023193,3686023194,8995043286,12462397032,3690443967,3686023209,3690444009,1617619479,9470367818,1626958811,1626959072,9454048415,12462397023,12462397025,12462397021,3690444264,9470343797,3690444275,9470343800,9470367826,1617619437,9470367828,1626959604,1617619584,3687313581,3687313583,3687313584,1617619627,3690444755,3690444759,3690444765,3690444774,3690444816,11109250840,3690444928,1617619667,3690560831,3690560841,3690560850,11109250866,3690560855,1617619449,3690560867,1617619519,3690560891,3690560902,3690560910,3690560924,3690560928,1617619551,3690560941,10826782688,3690560985,1617619537,3690561082,3690561103,3690561153,1617619500,3690561280,3690561283,3690561307,6988433063,3690561316,1617619723,1617619425,3690561329,1617619730,9039090946,3690561337,1617619736,1617619624,3690561347,1617619540,3690561373,1617619699,3690561376,3690561377,1617619430,1617619576,3690561380,3690561384,1617619581,3690561387,1617619685,3690561397,3690561398,1617619658,1617351963,3690561399,3741479977,1617619709,3741479981,3741479982,1617619498,3741479988,1617619510,3741479993,3741479994,1617619689,3741480004,1617619697,3741480010,3741480017,1617619681,3741480020,3741494026,3741494029,3741494032,1617619411,3741494033,3741494036,3741494034,3741494035,1617619427,1617619748,3741494040,3741494043,1617619488,3741494044,1617619701,3741494047,3741494046,3741494045,1617619451,3741494038,1617619515,3741494050,3741494052,3741494059,3741494067,1617619496,3741494081,3741494083,3741494084,3741494087,3741494089,3741494093,1617619670,3741494112,3741494132,3741494133,1617619494,3741494139,3741494145,3741494152,3741494159,1617619468,3741494177,1625954715,3741494186,3741494189,3741494190,1625953218,3741494200,1625954285,3741494236,1625953950,3741494301,3741494321,1625954102,3741494357,1625954307,3741494363,3741494382],"coordinates":[[-66.13856390000001,-17.3774923],[-66.13861580000001,-17.3775343],[-66.13864120000001,-17.3775549],[-66.1386813,-17.377587400000003],[-66.1387196,-17.377586200000003],[-66.13875630000001,-17.3775894],[-66.13879510000001,-17.3776036],[-66.13886430000001,-17.3775908],[-66.13891380000001,-17.377586800000003],[-66.1389618,-17.3775985],[-66.13919960000001,-17.3777057],[-66.1395925,-17.3778827],[-66.13960870000001,-17.3778897],[-66.139733,-17.377950900000002],[-66.13981740000001,-17.377990200000003],[-66.139848,-17.378004],[-66.14128570000001,-17.3786552],[-66.14133580000001,-17.3786761],[-66.1413655,-17.3786884],[-66.14185330000001,-17.3788896],[-66.1419364,-17.3789091],[-66.14212780000001,-17.3789459],[-66.142145,-17.3789294],[-66.1421712,-17.3789155],[-66.1422015,-17.378907700000003],[-66.142233,-17.378907700000003],[-66.14226330000001,-17.3789157],[-66.1422914,-17.378931],[-66.14231210000001,-17.378952400000003],[-66.1423273,-17.3789786],[-66.1423347,-17.3790076],[-66.14233390000001,-17.3790374],[-66.14232990000001,-17.3790519],[-66.1423199,-17.3790756],[-66.1423139,-17.3790847],[-66.1423073,-17.379092800000002],[-66.1423,-17.3791003],[-66.1423039,-17.3791268],[-66.14230300000001,-17.379169800000003],[-66.1422761,-17.3793873],[-66.1422129,-17.379830100000003],[-66.1421887,-17.3799943],[-66.14214100000001,-17.380106700000002],[-66.1421085,-17.3803468],[-66.1420921,-17.380467300000003],[-66.1420368,-17.3809286],[-66.14206820000001,-17.381035],[-66.14211470000001,-17.381133400000003],[-66.14212900000001,-17.381155600000003],[-66.1421821,-17.381239400000002],[-66.1422567,-17.3813321],[-66.14276910000001,-17.3816926],[-66.14280620000001,-17.3817208],[-66.1428932,-17.381785200000003],[-66.1429681,-17.381834700000002],[-66.1429887,-17.3818482],[-66.1435292,-17.3822049],[-66.14362720000001,-17.3822557],[-66.14372130000001,-17.382292000000003],[-66.1439599,-17.382360300000002],[-66.1441482,-17.3823884],[-66.1442102,-17.3823946],[-66.1450688,-17.3824723],[-66.1451665,-17.3824805],[-66.14526500000001,-17.382625200000003],[-66.14626410000001,-17.3840939],[-66.1462906,-17.384132800000003],[-66.1463324,-17.384194200000003],[-66.1463585,-17.3842326],[-66.147463,-17.385856],[-66.1475139,-17.3859308],[-66.1475669,-17.3860074],[-66.147678,-17.386168100000003],[-66.14771590000001,-17.386222800000002],[-66.148064,-17.3867233],[-66.14836460000001,-17.3871554],[-66.1484094,-17.3872198],[-66.14850120000001,-17.3873491],[-66.14851920000001,-17.3873745],[-66.14864270000001,-17.387550800000003],[-66.14884190000001,-17.387832500000002],[-66.14901,-17.388070000000003],[-66.14916980000001,-17.388299500000002],[-66.14933660000001,-17.3885389],[-66.1493179,-17.388644900000003],[-66.149276,-17.3888535],[-66.1491994,-17.389254400000002],[-66.1491441,-17.389543900000003],[-66.1490107,-17.390230600000002],[-66.148919,-17.390703000000002],[-66.14890910000001,-17.3907458],[-66.14889430000001,-17.390824400000003],[-66.14888640000001,-17.3908667],[-66.1487038,-17.3917663],[-66.14869060000001,-17.3918339],[-66.1491355,-17.3919138],[-66.14925000000001,-17.3919344],[-66.1495076,-17.3919807],[-66.1497628,-17.3920265],[-66.14981970000001,-17.392033],[-66.1504108,-17.392135200000002],[-66.15097300000001,-17.3922345],[-66.15102800000001,-17.3922446],[-66.15108040000001,-17.3922537],[-66.152094,-17.3924306],[-66.15248410000001,-17.392498800000002],[-66.15319790000001,-17.3926236],[-66.15300040000001,-17.3936642],[-66.15296120000001,-17.3938747],[-66.1528081,-17.3946979],[-66.1526171,-17.3957535],[-66.1524397,-17.396804000000003],[-66.1522494,-17.397787800000003],[-66.1522434,-17.3978983],[-66.15224880000001,-17.398145200000002],[-66.15222840000001,-17.398381500000003],[-66.15221910000001,-17.398466000000003],[-66.15221890000001,-17.3985461],[-66.15219090000001,-17.3987987],[-66.1521652,-17.3991575],[-66.15215950000001,-17.3992571],[-66.15214870000001,-17.3993274],[-66.152152,-17.399909500000003],[-66.15219610000001,-17.4014555],[-66.1522352,-17.4023897],[-66.1526695,-17.4023164],[-66.1533031,-17.4023036],[-66.1539503,-17.402274700000003],[-66.1540131,-17.4022708],[-66.1545042,-17.402242700000002],[-66.15496730000001,-17.402208100000003],[-66.15531650000001,-17.4021915],[-66.1552573,-17.401342600000003],[-66.15521820000001,-17.400649100000003],[-66.1551769,-17.4001495],[-66.155175,-17.400035000000003],[-66.15517940000001,-17.3999701],[-66.1551889,-17.399895500000003],[-66.1552224,-17.399698400000002],[-66.15528330000001,-17.399337600000003],[-66.15530360000001,-17.3992471],[-66.15534770000001,-17.399256700000002],[-66.156378,-17.399481],[-66.1564374,-17.399488700000003],[-66.1564991,-17.3994953],[-66.15675590000001,-17.399494800000003],[-66.15696360000001,-17.399463],[-66.1571541,-17.399440100000003],[-66.1575712,-17.3993743],[-66.1576356,-17.399365500000002],[-66.1577347,-17.399351900000003],[-66.15781600000001,-17.3993404],[-66.1578434,-17.3993362],[-66.15843930000001,-17.399245200000003],[-66.1584983,-17.3992362],[-66.15861500000001,-17.399227200000002],[-66.1587124,-17.399228800000003],[-66.158764,-17.399232100000003],[-66.1591739,-17.399257700000003],[-66.1592816,-17.3992705],[-66.1593653,-17.399274400000003],[-66.15999670000001,-17.399303200000002],[-66.16006630000001,-17.399313600000003],[-66.1601608,-17.399337300000003],[-66.1603302,-17.3993931],[-66.16043300000001,-17.399426700000003],[-66.16099530000001,-17.3995906],[-66.16109110000001,-17.399618500000003],[-66.1612278,-17.399656200000003],[-66.1615876,-17.3997555],[-66.1618371,-17.399843],[-66.1619824,-17.3999132],[-66.1621329,-17.4000056],[-66.1622471,-17.4000935],[-66.1623448,-17.4001555],[-66.16240540000001,-17.400183900000002],[-66.16247340000001,-17.4002151],[-66.1624927,-17.4002145],[-66.16253560000001,-17.4002269],[-66.16256510000001,-17.400242600000002],[-66.1625922,-17.4002656],[-66.16261200000001,-17.400292200000003],[-66.1626269,-17.4003151],[-66.16264140000001,-17.400348],[-66.1626447,-17.400380900000002],[-66.16264310000001,-17.400403200000003],[-66.16265200000001,-17.400485500000002],[-66.16267500000001,-17.4005797],[-66.16273530000001,-17.4007103],[-66.1627455,-17.400732400000003],[-66.16285380000001,-17.4010032],[-66.1628883,-17.4011713],[-66.1629118,-17.401448300000002],[-66.1629499,-17.402153300000002],[-66.1629973,-17.402712],[-66.1630252,-17.403078],[-66.1630664,-17.4033164],[-66.1631218,-17.4035341],[-66.16330740000001,-17.4040584],[-66.1634265,-17.4044768],[-66.16354580000001,-17.405057300000003],[-66.16373300000001,-17.4060603],[-66.1639313,-17.4070691],[-66.16395530000001,-17.407191],[-66.16397810000001,-17.407312100000002],[-66.16405130000001,-17.407652900000002],[-66.1641426,-17.4081183],[-66.1642985,-17.4089014],[-66.1643743,-17.409283900000002],[-66.16438810000001,-17.409353900000003],[-66.16441540000001,-17.4094978],[-66.1644232,-17.4095392],[-66.16443220000001,-17.409586700000002],[-66.16443980000001,-17.4096322],[-66.16454680000001,-17.4102333],[-66.1645601,-17.410276000000003],[-66.1645989,-17.4103871],[-66.16464520000001,-17.4104506],[-66.16466820000001,-17.4104932],[-66.1647774,-17.410659900000002],[-66.1648128,-17.410679400000003],[-66.1648392,-17.410698200000002],[-66.1648634,-17.410719500000003],[-66.1649015,-17.410764500000003],[-66.16492980000001,-17.4108157],[-66.1649474,-17.410871],[-66.16495160000001,-17.410910700000002],[-66.16495350000001,-17.410928600000002],[-66.1649481,-17.4109862],[-66.1649313,-17.411041800000003],[-66.16490370000001,-17.4110932],[-66.1648842,-17.4111192],[-66.1648619,-17.411143000000003],[-66.16481610000001,-17.411291900000002],[-66.1647944,-17.411379500000002],[-66.1647875,-17.4114319],[-66.16479120000001,-17.4115071],[-66.16489030000001,-17.412045300000003],[-66.1649285,-17.412231400000003],[-66.16495010000001,-17.4123565],[-66.1650589,-17.4129019],[-66.1650693,-17.4129538],[-66.1652481,-17.4139021],[-66.1652584,-17.4139559],[-66.1652698,-17.4140149],[-66.16545620000001,-17.414981700000002],[-66.1656397,-17.415924200000003],[-66.1656512,-17.415983100000002],[-66.1657823,-17.416661100000002],[-66.1658331,-17.4167978],[-66.1658809,-17.416938400000003],[-66.16597660000001,-17.4174255],[-66.16598490000001,-17.41747],[-66.16606820000001,-17.417919100000002],[-66.166111,-17.418203700000003],[-66.16622500000001,-17.418933900000003],[-66.1663613,-17.419664],[-66.1664877,-17.420365500000003],[-66.1666232,-17.421059900000003],[-66.1666912,-17.421408300000003],[-66.1667024,-17.4215346],[-66.1667019,-17.4216577],[-66.16663530000001,-17.4220438],[-66.1666218,-17.422131800000002],[-66.16661040000001,-17.4222062],[-66.16660610000001,-17.4222341],[-66.1665859,-17.4223803],[-66.1665116,-17.4229178],[-66.1663391,-17.4248435],[-66.1662349,-17.426072700000002],[-66.1661923,-17.426565500000002],[-66.1661796,-17.426662500000003],[-66.16611080000001,-17.4267602],[-66.1654153,-17.427385400000002],[-66.16469620000001,-17.428002600000003],[-66.16458010000001,-17.428102300000003],[-66.16377510000001,-17.428802800000003],[-66.16361730000001,-17.428932600000003],[-66.1625554,-17.4298438],[-66.16251720000001,-17.4298815],[-66.1624259,-17.4299527],[-66.16235160000001,-17.430029100000002],[-66.1622969,-17.430091200000003],[-66.16225510000001,-17.4301406],[-66.1622164,-17.4302756],[-66.16216650000001,-17.431267100000003],[-66.16211630000001,-17.4325329],[-66.1621046,-17.433230400000003],[-66.16208970000001,-17.4337883],[-66.1621339,-17.433873400000003],[-66.1621889,-17.4339239],[-66.1622696,-17.4339543],[-66.16235950000001,-17.433951500000003],[-66.1626028,-17.4339358],[-66.16269940000001,-17.4339389],[-66.1628223,-17.4339547],[-66.1630954,-17.434016900000003],[-66.1635937,-17.434141200000003],[-66.16404250000001,-17.434238],[-66.16414230000001,-17.434246700000003],[-66.16419760000001,-17.434247300000003],[-66.16422100000001,-17.434242400000002],[-66.16426030000001,-17.4342341],[-66.1643334,-17.4341969],[-66.1643975,-17.4341554],[-66.16486660000001,-17.433760300000003],[-66.165907,-17.4328606],[-66.16631860000001,-17.432513500000002],[-66.1669019,-17.4320129],[-66.1672971,-17.4316713],[-66.1676989,-17.431317800000002],[-66.16833910000001,-17.430764500000002],[-66.16938090000001,-17.4298554],[-66.16988070000001,-17.4294279],[-66.1718673,-17.4277172],[-66.1728022,-17.4269043],[-66.1748427,-17.4251468],[-66.1749228,-17.425077],[-66.1749994,-17.4250444],[-66.17509100000001,-17.425032400000003],[-66.1751591,-17.4250486],[-66.17523,-17.425075500000002],[-66.17531410000001,-17.425120600000003],[-66.1754061,-17.425183],[-66.1765366,-17.4261091],[-66.17672250000001,-17.426250300000003],[-66.17715310000001,-17.426590700000002],[-66.17741380000001,-17.4268088],[-66.1775034,-17.426877700000002],[-66.1779983,-17.427258600000002],[-66.1785188,-17.4276604],[-66.1793057,-17.428267100000003],[-66.1793378,-17.4282918],[-66.1794998,-17.428416700000003],[-66.1795443,-17.4284511],[-66.1795816,-17.4284798],[-66.17964520000001,-17.4285289],[-66.1806854,-17.429330800000002],[-66.18123650000001,-17.4297754],[-66.1816613,-17.4301098],[-66.1823962,-17.4306896],[-66.1830778,-17.4312213],[-66.1832083,-17.4313617],[-66.18332980000001,-17.431443700000003],[-66.183447,-17.431505],[-66.183554,-17.431554600000002],[-66.18370990000001,-17.4316177],[-66.18395240000001,-17.4316831],[-66.183986,-17.431691100000002],[-66.18411520000001,-17.431717600000002],[-66.18424970000001,-17.431734600000002],[-66.18448020000001,-17.4317472],[-66.1845854,-17.431735800000002],[-66.185084,-17.4316818],[-66.1852375,-17.4316864],[-66.18550130000001,-17.4317272],[-66.1856745,-17.431762900000003],[-66.18651790000001,-17.4319366],[-66.18891430000001,-17.4324243],[-66.19029130000001,-17.4327076],[-66.19071050000001,-17.432804200000003],[-66.19174960000001,-17.4330076],[-66.19266680000001,-17.433190500000002],[-66.192711,-17.4332004],[-66.1934258,-17.434267700000003],[-66.1936924,-17.4346718],[-66.1937824,-17.4348111],[-66.1941061,-17.4353121],[-66.1946642,-17.436170200000003],[-66.1957368,-17.437794],[-66.1960004,-17.4381798],[-66.1961823,-17.438481200000002],[-66.19636170000001,-17.438955800000002],[-66.1965313,-17.4394011],[-66.19690680000001,-17.440387400000002],[-66.1969545,-17.4405128],[-66.1975647,-17.4419843],[-66.19805880000001,-17.4431854],[-66.198116,-17.443350900000002],[-66.19825060000001,-17.4436605],[-66.1985976,-17.444524400000002],[-66.198632,-17.444607700000002],[-66.1988378,-17.4451062],[-66.19891670000001,-17.4452973],[-66.19898140000001,-17.4454539],[-66.1990229,-17.445554400000002],[-66.1990557,-17.4456339],[-66.19937800000001,-17.4464143],[-66.19943040000001,-17.446541200000002],[-66.1996682,-17.4471171],[-66.1997747,-17.447375100000002],[-66.1998147,-17.447469],[-66.19997640000001,-17.4478486],[-66.2003052,-17.4485919],[-66.20103560000001,-17.450312200000003],[-66.20113640000001,-17.4506018],[-66.2011849,-17.4508264],[-66.2012526,-17.4511708],[-66.20131330000001,-17.451362600000003],[-66.2013848,-17.451467700000002],[-66.2014783,-17.451582300000002],[-66.20161940000001,-17.4517032],[-66.2022766,-17.4523037],[-66.2026616,-17.452665600000003],[-66.20273010000001,-17.452692300000002],[-66.20278850000001,-17.452764000000002],[-66.2030866,-17.453135900000003],[-66.2031616,-17.453204300000003],[-66.20327870000001,-17.453281200000003],[-66.20332210000001,-17.4532968],[-66.2033854,-17.453319500000003],[-66.2035565,-17.453370200000002],[-66.2037791,-17.453424300000002],[-66.2039795,-17.453490400000003],[-66.20438410000001,-17.4536842],[-66.20466640000001,-17.453802800000002],[-66.20496820000001,-17.453920200000002],[-66.20523250000001,-17.454021400000002],[-66.20530140000001,-17.454064000000002],[-66.2053497,-17.454112300000002],[-66.20538110000001,-17.4541624],[-66.2054518,-17.4543083],[-66.2055103,-17.454429],[-66.20569420000001,-17.4547725],[-66.2061996,-17.4554948],[-66.20668880000001,-17.456275400000003],[-66.2068917,-17.456632600000002],[-66.2076641,-17.4578686],[-66.2077354,-17.4579452],[-66.20782910000001,-17.4580057],[-66.20834900000001,-17.4582634],[-66.2085756,-17.4583534],[-66.2086357,-17.458377300000002],[-66.2088983,-17.458477900000002],[-66.2093612,-17.4585928],[-66.20999020000001,-17.458737000000003],[-66.2104686,-17.458802000000002],[-66.21131550000001,-17.458871000000002],[-66.2118684,-17.4589006],[-66.21227130000001,-17.4589222],[-66.2125855,-17.458945200000002],[-66.2127519,-17.458988100000003],[-66.21369440000001,-17.4595227],[-66.2142766,-17.4598185],[-66.21480770000001,-17.4600593],[-66.21486700000001,-17.4601073],[-66.2149495,-17.4601852],[-66.21520380000001,-17.4605208],[-66.2152882,-17.460612700000002],[-66.21538100000001,-17.4606679],[-66.21580230000001,-17.460847],[-66.21601980000001,-17.4609059],[-66.2160868,-17.4609273],[-66.2161478,-17.4609664],[-66.2162426,-17.461092200000003],[-66.2163151,-17.461148],[-66.21638890000001,-17.461174200000002],[-66.2193835,-17.461095800000002],[-66.2193361,-17.4611726],[-66.21954090000001,-17.4612747],[-66.219729,-17.461347800000002],[-66.2203418,-17.461594],[-66.2203994,-17.4616283],[-66.22045630000001,-17.461674000000002],[-66.2207535,-17.4619746],[-66.22093070000001,-17.4621448],[-66.2212492,-17.462365100000003],[-66.22134340000001,-17.4624412],[-66.22165460000001,-17.4627316],[-66.22183770000001,-17.462932700000003],[-66.2219853,-17.463045700000002],[-66.222142,-17.463119300000002],[-66.2228929,-17.4634362],[-66.22309080000001,-17.4634916],[-66.22350220000001,-17.463556200000003],[-66.22407770000001,-17.4636515],[-66.2241434,-17.463675000000002],[-66.22421,-17.463704],[-66.2243411,-17.4637698],[-66.2244261,-17.463791],[-66.2245027,-17.4637992],[-66.2245693,-17.4637941],[-66.22464360000001,-17.463796100000003],[-66.22474310000001,-17.4638156],[-66.2248445,-17.4638488],[-66.22491160000001,-17.463887800000002],[-66.224967,-17.463949000000003],[-66.22503680000001,-17.464046900000003],[-66.2250853,-17.464110400000003],[-66.22515920000001,-17.464165],[-66.2252265,-17.4641881],[-66.2252991,-17.464186400000003],[-66.2253512,-17.464167900000003],[-66.225401,-17.4641309],[-66.22556680000001,-17.4638658],[-66.2256785,-17.463855300000002],[-66.2276501,-17.464353000000003],[-66.227934,-17.464381200000002],[-66.22845070000001,-17.4646769],[-66.2285841,-17.4647517],[-66.22885810000001,-17.4649387],[-66.2290512,-17.465048200000002],[-66.22917070000001,-17.465105],[-66.2292939,-17.465148000000003],[-66.2294042,-17.465186000000003],[-66.2294564,-17.465218800000002],[-66.2295096,-17.465271],[-66.2296999,-17.4654962],[-66.22977,-17.4655647],[-66.22996210000001,-17.465693400000003],[-66.23022420000001,-17.465869],[-66.23051330000001,-17.4660286],[-66.2309882,-17.4663408],[-66.2312412,-17.466467700000003],[-66.2313613,-17.466555500000002],[-66.2316406,-17.466767700000002],[-66.2317872,-17.466928300000003],[-66.2319198,-17.467005],[-66.2319827,-17.4670299],[-66.2320754,-17.4670546],[-66.2321256,-17.4670822],[-66.2321823,-17.467104000000003],[-66.2322168,-17.467148],[-66.23223440000001,-17.467201600000003],[-66.232247,-17.467252000000002],[-66.23232800000001,-17.467719900000002],[-66.23236990000001,-17.468036700000003],[-66.2324042,-17.4683734],[-66.23242780000001,-17.468604900000003],[-66.23242280000001,-17.468775800000003],[-66.23240700000001,-17.468995800000002],[-66.23241030000001,-17.4690587],[-66.23242160000001,-17.469172500000003],[-66.23251350000001,-17.469486900000003]]}}}]}