{"type":"FeatureCollection","features":[{"type":"Feature","properties":{"check_date":"29/12/2025","from":"Maica Sud","name":"Trufi 107: Maica Sud → Calle Lalliy Pacha","network":"BO:CB:Cochabamba","on_demand":"yes","operator":"Sindicato mixto de transporte Bolivia","public_transport:version":"2","ref":"107","route":"bus","to":"Calle Lalliy Pacha","type":"route","wheelchair":"no","id":10693249},"geometry":{"type":"LineString","coordinates":[[-66.2169515,-17.4217208],[-66.2169749,-17.4216228],[-66.21698,-17.4215175],[-66.2169834,-17.4213422],[-66.2169664,-17.4211462],[-66.2168881,-17.4205703],[-66.2168422,-17.4201091],[-66.2167847,-17.4196761],[-66.2167461,-17.4195512],[-66.2166165,-17.4192869],[-66.2165707,-17.4191737],[-66.2165568,-17.419065],[-66.2164178,-17.4174538],[-66.2163761,-17.4168822],[-66.2161303,-17.4138982],[-66.2161201,-17.4135288],[-66.2160775,-17.4131968],[-66.2160278,-17.4128101],[-66.2159611,-17.4124491],[-66.2159022,-17.4120169],[-66.2158402,-17.411882],[-66.2157592,-17.4114292],[-66.2156097,-17.4102952],[-66.2155057,-17.4095187],[-66.2155003,-17.4094832],[-66.2153846,-17.4084701],[-66.2152913,-17.4076524],[-66.2151901,-17.4068189],[-66.2151596,-17.4066628],[-66.2151206,-17.4065762],[-66.2150607,-17.4064945],[-66.215036,-17.4064348],[-66.2150195,-17.4063947],[-66.2150041,-17.4062966],[-66.2150056,-17.4061943],[-66.215029,-17.4060779],[-66.2150347,-17.4058606],[-66.2150325,-17.405841],[-66.2149729,-17.405305],[-66.2149315,-17.4049136],[-66.2148991,-17.4045497],[-66.2148733,-17.4042607],[-66.2148225,-17.4038248],[-66.2147619,-17.4034379],[-66.2147307,-17.4031752],[-66.2147952,-17.4031372],[-66.2148655,-17.4030791],[-66.2149106,-17.403049],[-66.214852,-17.4025158],[-66.2148328,-17.402219],[-66.2147747,-17.4020703],[-66.2146902,-17.4018606],[-66.2146834,-17.4016928],[-66.2146426,-17.4013929],[-66.214606,-17.4011414],[-66.2145872,-17.4009545],[-66.2145331,-17.4004528],[-66.2145157,-17.4002344],[-66.2144767,-17.3998324],[-66.2144704,-17.3997596],[-66.214471,-17.3996774],[-66.2143215,-17.3984457],[-66.2142139,-17.3972131],[-66.2141313,-17.3972251],[-66.2123031,-17.3972488],[-66.2115833,-17.397234],[-66.2103788,-17.3972133],[-66.2103082,-17.3972121],[-66.2096946,-17.3971973],[-66.2087363,-17.3971794],[-66.2084767,-17.3971746],[-66.2083584,-17.3971724],[-66.2083158,-17.3971716],[-66.2081237,-17.3971681],[-66.206822,-17.3971505],[-66.2063729,-17.3971487],[-66.2057765,-17.3971379],[-66.2055926,-17.3971346],[-66.205052,-17.3971214],[-66.2047796,-17.3971304],[-66.2046935,-17.3971343],[-66.2033451,-17.3971818],[-66.2027384,-17.3972284],[-66.2018555,-17.3972925],[-66.2016035,-17.3973176],[-66.2011164,-17.3973569],[-66.2010382,-17.3973538],[-66.2008557,-17.3973468],[-66.2001474,-17.3973196],[-66.2000804,-17.3973145],[-66.1999852,-17.3973098],[-66.1999042,-17.3973058],[-66.1996491,-17.3972932],[-66.19908,-17.3972651],[-66.1980512,-17.3972186],[-66.1978889,-17.3972109],[-66.1977168,-17.3972067],[-66.1975612,-17.3971954],[-66.1958205,-17.3971007],[-66.1953513,-17.397076],[-66.195129,-17.3970649],[-66.1945241,-17.3970335],[-66.194301,-17.397022],[-66.1938721,-17.3969991],[-66.1937972,-17.3969951],[-66.1937257,-17.3969913],[-66.192052,-17.3968934],[-66.1911876,-17.3968473],[-66.1900783,-17.396812],[-66.1897731,-17.3967905],[-66.1893857,-17.3967617],[-66.1892415,-17.3967473],[-66.188784,-17.3966961],[-66.1882123,-17.3966321],[-66.1881821,-17.396628],[-66.1875498,-17.3965417],[-66.1869628,-17.3964589],[-66.1858481,-17.3963077],[-66.1855658,-17.396272],[-66.1854928,-17.3962694],[-66.1854348,-17.3962746],[-66.1853359,-17.3962572],[-66.1853247,-17.3962839],[-66.1853089,-17.3963085],[-66.1852888,-17.39633],[-66.1852634,-17.3963491],[-66.1852348,-17.3963635],[-66.1852039,-17.3963725],[-66.1851717,-17.396376],[-66.1851395,-17.3963738],[-66.1851082,-17.396366],[-66.1850789,-17.3963528],[-66.1850527,-17.3963348],[-66.1850304,-17.3963124],[-66.1850197,-17.396298],[-66.1849732,-17.3962799],[-66.1849335,-17.396266],[-66.1848979,-17.3962603],[-66.1848675,-17.3962588],[-66.18395,-17.3962709],[-66.1832749,-17.3962843],[-66.1825493,-17.3963006],[-66.1818646,-17.3963149],[-66.1816686,-17.3963214],[-66.1815163,-17.3963255],[-66.1806602,-17.3963423],[-66.1798232,-17.3963653],[-66.1792001,-17.3963623],[-66.1787224,-17.3963667],[-66.1786059,-17.3963678],[-66.177774,-17.3963807],[-66.1773143,-17.3963879],[-66.1769392,-17.3963968],[-66.1761704,-17.3964151],[-66.1754486,-17.3964379],[-66.1752845,-17.3964416],[-66.1752125,-17.3964434],[-66.1742258,-17.3964683],[-66.1741251,-17.3964705],[-66.1740213,-17.3964728],[-66.1739456,-17.3964745],[-66.1722827,-17.3965182],[-66.1710753,-17.3965487],[-66.1709624,-17.3965515],[-66.1707935,-17.3965547],[-66.1707185,-17.3965565],[-66.1694539,-17.3965857],[-66.1694009,-17.3965908],[-66.1693113,-17.3965935],[-66.169263,-17.396595],[-66.1692271,-17.3965988],[-66.1690612,-17.3966211],[-66.1689566,-17.3966435],[-66.1683989,-17.396829],[-66.1683743,-17.3968372],[-66.1683498,-17.3968453],[-66.168031,-17.3969524],[-66.1679379,-17.3969704],[-66.1675604,-17.3970391],[-66.1675188,-17.3970513],[-66.1674707,-17.3970785],[-66.1674355,-17.3971125],[-66.1674244,-17.3971252],[-66.1673975,-17.3971528],[-66.1673632,-17.3971715],[-66.1673245,-17.3971797],[-66.1672931,-17.3971781],[-66.1672592,-17.3971677],[-66.1672296,-17.3971492],[-66.1672062,-17.3971238],[-66.1671908,-17.3970934],[-66.1671844,-17.3970602],[-66.1671875,-17.3970265],[-66.1671946,-17.3970056],[-66.1671562,-17.3969173],[-66.1671509,-17.3968706],[-66.1671314,-17.3967095],[-66.1660011,-17.3967574],[-66.165798,-17.3967652],[-66.1657738,-17.3967661],[-66.1657257,-17.3967691],[-66.1657278,-17.3967957],[-66.1657217,-17.3968218],[-66.165708,-17.396845],[-66.1656878,-17.3968635],[-66.1656628,-17.3968757],[-66.1656352,-17.3968804],[-66.1656074,-17.3968773],[-66.1655816,-17.3968666],[-66.1655602,-17.3968493],[-66.165545,-17.3968267],[-66.1654923,-17.3968207],[-66.1654217,-17.3968254],[-66.1653627,-17.3968374],[-66.1653152,-17.3968494],[-66.1650485,-17.3969357],[-66.1650411,-17.3969379],[-66.1646556,-17.3971053],[-66.1645356,-17.3971521],[-66.1643392,-17.3972287],[-66.1630533,-17.3972831],[-66.1629893,-17.3972967],[-66.1629471,-17.3973119],[-66.1628754,-17.3973604],[-66.1628672,-17.3974147],[-66.1628442,-17.3974654],[-66.1628163,-17.3975057],[-66.1627769,-17.3975221],[-66.162717,-17.3975323],[-66.1626061,-17.3975077],[-66.1621225,-17.3974179],[-66.1619579,-17.3973901],[-66.1614961,-17.3973352],[-66.1614316,-17.3973275],[-66.1602321,-17.397104],[-66.1591531,-17.3969062],[-66.1581831,-17.3967228],[-66.1581304,-17.3967147],[-66.1580388,-17.3967006],[-66.157998,-17.3966943],[-66.1569724,-17.3965257],[-66.1566273,-17.3964637],[-66.156456,-17.3964348],[-66.1558816,-17.3963297],[-66.1547941,-17.3961338],[-66.1537317,-17.3959471],[-66.1526171,-17.3957535],[-66.1515053,-17.3955426],[-66.1504423,-17.3953552],[-66.1503862,-17.3956441],[-66.1502362,-17.3964175],[-66.1500348,-17.3975665],[-66.150021,-17.3976385],[-66.1500136,-17.3976877],[-66.1499487,-17.3984764],[-66.1499407,-17.3985529],[-66.1499065,-17.3990035],[-66.1498494,-17.3998668],[-66.1498455,-17.3999622],[-66.1497827,-17.4000289],[-66.1498026,-17.400102],[-66.1498239,-17.4001805],[-66.1499017,-17.4004668],[-66.1498937,-17.4005316],[-66.1498609,-17.4005847],[-66.149775,-17.4006681],[-66.1494422,-17.4009714],[-66.1493706,-17.4010595],[-66.149319,-17.4011365],[-66.149269,-17.4012475],[-66.1492708,-17.4013042],[-66.1493754,-17.4017517],[-66.1493766,-17.4018376],[-66.1493899,-17.4018833],[-66.1494074,-17.4019461],[-66.1494072,-17.4019767],[-66.1494001,-17.4020081],[-66.1493665,-17.4020731],[-66.149365,-17.4021126],[-66.1493916,-17.4021463],[-66.1494415,-17.4020872],[-66.1495007,-17.4019987],[-66.1495634,-17.4018758],[-66.1496062,-17.4017305],[-66.1496651,-17.4014827],[-66.1496972,-17.4013956],[-66.1497453,-17.4013201],[-66.1497967,-17.401271],[-66.1498751,-17.4012271],[-66.1499571,-17.401217],[-66.1499793,-17.4012193],[-66.1500309,-17.4012248],[-66.1500922,-17.4012466],[-66.1501424,-17.4012804],[-66.1501737,-17.4013168],[-66.1502239,-17.4013965],[-66.1502407,-17.4014466],[-66.1502508,-17.4015292],[-66.1502487,-17.4015792],[-66.1502416,-17.4016655],[-66.1502242,-17.4017332],[-66.1502032,-17.4018011],[-66.1500983,-17.4020873],[-66.1500631,-17.4021549],[-66.1500269,-17.4022327],[-66.1499912,-17.4022929],[-66.1499624,-17.4023414],[-66.1500946,-17.4023836],[-66.1501721,-17.4024063],[-66.1502232,-17.4031543],[-66.1502396,-17.403362],[-66.1503467,-17.4037109],[-66.1503679,-17.4038321],[-66.1503796,-17.4039576],[-66.150363,-17.4040704],[-66.1503278,-17.4041742],[-66.1502746,-17.4042764],[-66.1502065,-17.4043824],[-66.1500244,-17.4046123],[-66.1498555,-17.4048116],[-66.1497603,-17.4049346],[-66.1496881,-17.4050582],[-66.1496246,-17.4051833],[-66.1495222,-17.4054052],[-66.1494569,-17.4056694],[-66.149431,-17.405788],[-66.1493043,-17.4063261],[-66.1492014,-17.4065143],[-66.1491325,-17.4066385],[-66.1490653,-17.4067247],[-66.1489794,-17.4067834],[-66.148886,-17.4068302],[-66.1483453,-17.4070265],[-66.1481191,-17.4070965],[-66.1476849,-17.4071905],[-66.1473722,-17.4072562],[-66.1472099,-17.4072808],[-66.1469856,-17.4072715],[-66.1468068,-17.407257],[-66.1466713,-17.4072353],[-66.1466011,-17.4072282],[-66.1465601,-17.4072553],[-66.1462097,-17.4075038],[-66.1461734,-17.4075318],[-66.1460731,-17.4075939],[-66.145955,-17.4077424],[-66.1458864,-17.4078808],[-66.145769,-17.4081552],[-66.1456534,-17.408494],[-66.1454992,-17.4091009],[-66.145428,-17.4094546],[-66.1453749,-17.4098043],[-66.1453524,-17.4101266],[-66.1453594,-17.4104444],[-66.1453575,-17.4105868],[-66.1453885,-17.4110529],[-66.1454231,-17.4116968],[-66.1454296,-17.4120595],[-66.1454174,-17.412209],[-66.1453436,-17.4123829],[-66.1453121,-17.4124859],[-66.1450697,-17.4130672],[-66.144743,-17.4138518],[-66.1446709,-17.4139932],[-66.1445441,-17.4141951],[-66.1444832,-17.4143109],[-66.144451,-17.4144022],[-66.1444251,-17.4144924],[-66.1443854,-17.4145789],[-66.1443107,-17.4146862],[-66.1442396,-17.4147732],[-66.1441336,-17.4148574],[-66.1442211,-17.414886],[-66.1449217,-17.415094],[-66.1457363,-17.4153329],[-66.1464982,-17.4155601]],"nodes":[793456949,3684545065,793456871,793456750,3684544882,793457064,793456980,793456901,793456779,793456717,3684542903,3684542901,3684542874,793457012,793456758,3684250728,3684250702,793457072,3684250620,3684250523,793457048,3680769882,793456962,11384915989,3680769855,11384915987,3680769693,793456755,3680769669,793457068,3680769663,11384915981,3680769661,793456989,3680769652,793456907,11384915980,3680769640,3680769630,9228500641,9228500640,3680769507,9228500642,3680769496,793456783,5777558894,5777557050,793456720,3680769485,793456936,3680769467,3680769460,3680769454,793456862,3680769437,793456741,9231343595,793456859,9228500690,793527926,793457053,3271430745,794089186,9228500704,1583410746,1583410644,11070097928,794081352,3017415623,1583410695,8070807762,8070807758,8070807763,8070807761,794081357,2334089630,7965033073,1583410656,3861902737,617198669,2334089631,617198670,3259852173,617198671,2334089635,617198672,9213354490,9213358436,4012877375,10060304146,809705207,809705387,13064340376,2334089638,3257516684,809705424,809705305,617198674,809705439,2045612097,809705603,617198675,5354935126,5354970833,2045612109,5354970837,809705281,809705258,1583414283,617198676,617198677,3262573338,10117836333,1583414266,10117836329,809705619,809705462,5354970860,617198678,9336206520,2900514462,9336206534,9336206533,9336206535,2900514473,9336206529,2900514475,9336206530,2900514477,9336206532,2900514472,9336206531,9336206538,6617483715,6617483714,9336206542,8564652539,9336200216,6326480503,800044276,660012894,698597066,6621278941,560522652,560522655,800044267,800044334,800044091,6621278923,800044193,800044122,6859008031,800044203,800044029,800044078,800044341,9017927788,6859008011,800044073,800044111,6859008013,10249972618,13564674442,2477244323,2477244324,8272264748,8907982975,660004676,13564674445,8907982978,653093684,653093688,2477244369,12405192958,13428010720,653093690,653093693,2330755945,2477244486,2330755962,653093695,11069773601,2330755975,2330755977,2330755979,2330755981,2330755980,2330755978,2330755976,3281516928,2330755970,2330755964,2330755958,11070112181,1637490505,315114234,8667184619,9155796757,12396713878,12396713877,315109037,12396713858,12396713867,12396713859,12396713860,12396713861,2477244428,12396713868,12396713862,12396713863,2477244414,6085987268,310257770,12396713875,12396713874,310256930,12396713856,4870639667,8998571288,2477244524,2892759656,8998571259,315110150,6250530383,8998571270,315109654,8998571263,8998571262,2336818870,8998571252,315109958,9955760890,9955993237,310500541,5143443460,310500543,2398944606,648546085,310262707,2398944605,5964203052,4051759810,4051759813,310500545,310500546,308300467,310500613,310500614,310500687,8398265856,310500993,9121686991,310501008,9121686993,1727306399,648548725,311361483,323985741,2768898982,659962343,12313136868,12313136867,3322574455,3322574457,2236815538,8089836050,2236815592,2236815597,3322575583,702511997,3322575607,702511999,702511981,3322575658,2236815706,3322575763,3322575767,9928232795,3322575773,702511983,2236815741,3322575764,702511985,9928232794,9928232793,702512005,2236815607,3322575606,2236815601,2236815599,8192846569,3322575591,3322575604,2236815606,3322575618,2236815617,702511973,3322575639,3322575641,3322575648,3322575651,2236815694,702511967,3322575780,3322575789,8192846546,2236815836,6129312138,702511825,2240937264,702511819,2240937272,2240937279,2240937283,702511798,702511800,2768899067,2240937287,702511801,2240937407,3325688403,2240937450,702511807,702511750,3325688411,702511751,702511734,3325688412,2240937695,702511736,702511733,2240937809,2240937847,3325688413,3325688414,10613798715,702511857,702511869,702511870,702511876,1746267155,2240937886,9413017845,2240986996,1746267148,3649948832,3649948839,1746267172,9416346642,3017384600,3329410940,3329410941,3017384602,3017384627,1746267150,1746267167,1746267161,1746267162,5554872842,3329495423,1746267166,3017384619,1746267163,2545423151,3331947137,3331947143,3331947151,12398185266,12398185267,1746267151,1746267171,2032952279,12398185279,2032952295,2032951833,8945406895]},"gtfs":{"agency_id":13,"route_id":30,"services":[{"service_id":"Mo-Su","startTime":"06:00","endTime":"22:00","trip_id":10693249}],"filteredStops":{"nodes":[793456949,3684545065,793456871,793456750,3684544882,793457064,793456980,793456901,793456779,793456717,3684542903,3684542901,3684542874,793457012,793456758,3684250728,3684250702,793457072,3684250620,3684250523,793457048,3680769882,793456962,11384915989,3680769855,11384915987,3680769693,793456755,3680769669,793457068,3680769663,11384915981,3680769661,793456989,3680769652,793456907,11384915980,3680769640,3680769630,9228500641,9228500640,3680769507,9228500642,3680769496,793456783,5777558894,5777557050,793456720,3680769485,793456936,3680769467,3680769460,3680769454,793456862,3680769437,793456741,9231343595,793456859,9228500690,793527926,793457053,3271430745,794089186,9228500704,1583410746,1583410644,11070097928,794081352,3017415623,1583410695,8070807762,8070807758,8070807763,8070807761,794081357,2334089630,7965033073,1583410656,3861902737,617198669,2334089631,617198670,3259852173,617198671,2334089635,617198672,9213354490,9213358436,4012877375,10060304146,809705207,809705387,13064340376,2334089638,3257516684,809705424,809705305,617198674,809705439,2045612097,809705603,617198675,5354935126,5354970833,2045612109,5354970837,809705281,809705258,1583414283,617198676,617198677,3262573338,10117836333,1583414266,10117836329,809705619,809705462,5354970860,617198678,9336206520,2900514462,9336206534,9336206533,9336206535,2900514473,9336206529,2900514475,9336206530,2900514477,9336206532,2900514472,9336206531,9336206538,6617483715,6617483714,9336206542,8564652539,9336200216,6326480503,800044276,660012894,698597066,6621278941,560522652,560522655,800044267,800044334,800044091,6621278923,800044193,800044122,6859008031,800044203,800044029,800044078,800044341,9017927788,6859008011,800044073,800044111,6859008013,10249972618,13564674442,2477244323,2477244324,8272264748,8907982975,660004676,13564674445,8907982978,653093684,653093688,2477244369,12405192958,13428010720,653093690,653093693,2330755945,2477244486,2330755962,653093695,11069773601,2330755975,2330755977,2330755979,2330755981,2330755980,2330755978,2330755976,3281516928,2330755970,2330755964,2330755958,11070112181,1637490505,315114234,8667184619,9155796757,12396713878,12396713877,315109037,12396713858,12396713867,12396713859,12396713860,12396713861,2477244428,12396713868,12396713862,12396713863,2477244414,6085987268,310257770,12396713875,12396713874,310256930,12396713856,4870639667,8998571288,2477244524,2892759656,8998571259,315110150,6250530383,8998571270,315109654,8998571263,8998571262,2336818870,8998571252,315109958,9955760890,9955993237,310500541,5143443460,310500543,2398944606,648546085,310262707,2398944605,5964203052,4051759810,4051759813,310500545,310500546,308300467,310500613,310500614,310500687,8398265856,310500993,9121686991,310501008,9121686993,1727306399,648548725,311361483,323985741,2768898982,659962343,12313136868,12313136867,3322574455,3322574457,2236815538,8089836050,2236815592,2236815597,3322575583,702511997,3322575607,702511999,702511981,3322575658,2236815706,3322575763,3322575767,9928232795,3322575773,702511983,2236815741,3322575764,702511985,9928232794,9928232793,702512005,2236815607,3322575606,2236815601,2236815599,8192846569,3322575591,3322575604,2236815606,3322575618,2236815617,702511973,3322575639,3322575641,3322575648,3322575651,2236815694,702511967,3322575780,3322575789,8192846546,2236815836,6129312138,702511825,2240937264,702511819,2240937272,2240937279,2240937283,702511798,702511800,2768899067,2240937287,702511801,2240937407,3325688403,2240937450,702511807,702511750,3325688411,702511751,702511734,3325688412,2240937695,702511736,702511733,2240937809,2240937847,3325688413,3325688414,10613798715,702511857,702511869,702511870,702511876,1746267155,2240937886,9413017845,2240986996,1746267148,3649948832,3649948839,1746267172,9416346642,3017384600,3329410940,3329410941,3017384602,3017384627,1746267150,1746267167,1746267161,1746267162,5554872842,3329495423,1746267166,3017384619,1746267163,2545423151,3331947137,3331947143,3331947151,12398185266,12398185267,1746267151,1746267171,2032952279,12398185279,2032952295,2032951833,8945406895],"coordinates":[[-66.2169515,-17.4217208],[-66.2169749,-17.4216228],[-66.21698,-17.4215175],[-66.2169834,-17.4213422],[-66.2169664,-17.4211462],[-66.2168881,-17.4205703],[-66.2168422,-17.4201091],[-66.2167847,-17.4196761],[-66.2167461,-17.4195512],[-66.2166165,-17.4192869],[-66.2165707,-17.4191737],[-66.2165568,-17.419065],[-66.2164178,-17.4174538],[-66.2163761,-17.4168822],[-66.2161303,-17.4138982],[-66.2161201,-17.4135288],[-66.2160775,-17.4131968],[-66.2160278,-17.4128101],[-66.2159611,-17.4124491],[-66.2159022,-17.4120169],[-66.2158402,-17.411882],[-66.2157592,-17.4114292],[-66.2156097,-17.4102952],[-66.2155057,-17.4095187],[-66.2155003,-17.4094832],[-66.2153846,-17.4084701],[-66.2152913,-17.4076524],[-66.2151901,-17.4068189],[-66.2151596,-17.4066628],[-66.2151206,-17.4065762],[-66.2150607,-17.4064945],[-66.215036,-17.4064348],[-66.2150195,-17.4063947],[-66.2150041,-17.4062966],[-66.2150056,-17.4061943],[-66.215029,-17.4060779],[-66.2150347,-17.4058606],[-66.2150325,-17.405841],[-66.2149729,-17.405305],[-66.2149315,-17.4049136],[-66.2148991,-17.4045497],[-66.2148733,-17.4042607],[-66.2148225,-17.4038248],[-66.2147619,-17.4034379],[-66.2147307,-17.4031752],[-66.2147952,-17.4031372],[-66.2148655,-17.4030791],[-66.2149106,-17.403049],[-66.214852,-17.4025158],[-66.2148328,-17.402219],[-66.2147747,-17.4020703],[-66.2146902,-17.4018606],[-66.2146834,-17.4016928],[-66.2146426,-17.4013929],[-66.214606,-17.4011414],[-66.2145872,-17.4009545],[-66.2145331,-17.4004528],[-66.2145157,-17.4002344],[-66.2144767,-17.3998324],[-66.2144704,-17.3997596],[-66.214471,-17.3996774],[-66.2143215,-17.3984457],[-66.2142139,-17.3972131],[-66.2141313,-17.3972251],[-66.2123031,-17.3972488],[-66.2115833,-17.397234],[-66.2103788,-17.3972133],[-66.2103082,-17.3972121],[-66.2096946,-17.3971973],[-66.2087363,-17.3971794],[-66.2084767,-17.3971746],[-66.2083584,-17.3971724],[-66.2083158,-17.3971716],[-66.2081237,-17.3971681],[-66.206822,-17.3971505],[-66.2063729,-17.3971487],[-66.2057765,-17.3971379],[-66.2055926,-17.3971346],[-66.205052,-17.3971214],[-66.2047796,-17.3971304],[-66.2046935,-17.3971343],[-66.2033451,-17.3971818],[-66.2027384,-17.3972284],[-66.2018555,-17.3972925],[-66.2016035,-17.3973176],[-66.2011164,-17.3973569],[-66.2010382,-17.3973538],[-66.2008557,-17.3973468],[-66.2001474,-17.3973196],[-66.2000804,-17.3973145],[-66.1999852,-17.3973098],[-66.1999042,-17.3973058],[-66.1996491,-17.3972932],[-66.19908,-17.3972651],[-66.1980512,-17.3972186],[-66.1978889,-17.3972109],[-66.1977168,-17.3972067],[-66.1975612,-17.3971954],[-66.1958205,-17.3971007],[-66.1953513,-17.397076],[-66.195129,-17.3970649],[-66.1945241,-17.3970335],[-66.194301,-17.397022],[-66.1938721,-17.3969991],[-66.1937972,-17.3969951],[-66.1937257,-17.3969913],[-66.192052,-17.3968934],[-66.1911876,-17.3968473],[-66.1900783,-17.396812],[-66.1897731,-17.3967905],[-66.1893857,-17.3967617],[-66.1892415,-17.3967473],[-66.188784,-17.3966961],[-66.1882123,-17.3966321],[-66.1881821,-17.396628],[-66.1875498,-17.3965417],[-66.1869628,-17.3964589],[-66.1858481,-17.3963077],[-66.1855658,-17.396272],[-66.1854928,-17.3962694],[-66.1854348,-17.3962746],[-66.1853359,-17.3962572],[-66.1853247,-17.3962839],[-66.1853089,-17.3963085],[-66.1852888,-17.39633],[-66.1852634,-17.3963491],[-66.1852348,-17.3963635],[-66.1852039,-17.3963725],[-66.1851717,-17.396376],[-66.1851395,-17.3963738],[-66.1851082,-17.396366],[-66.1850789,-17.3963528],[-66.1850527,-17.3963348],[-66.1850304,-17.3963124],[-66.1850197,-17.396298],[-66.1849732,-17.3962799],[-66.1849335,-17.396266],[-66.1848979,-17.3962603],[-66.1848675,-17.3962588],[-66.18395,-17.3962709],[-66.1832749,-17.3962843],[-66.1825493,-17.3963006],[-66.1818646,-17.3963149],[-66.1816686,-17.3963214],[-66.1815163,-17.3963255],[-66.1806602,-17.3963423],[-66.1798232,-17.3963653],[-66.1792001,-17.3963623],[-66.1787224,-17.3963667],[-66.1786059,-17.3963678],[-66.177774,-17.3963807],[-66.1773143,-17.3963879],[-66.1769392,-17.3963968],[-66.1761704,-17.3964151],[-66.1754486,-17.3964379],[-66.1752845,-17.3964416],[-66.1752125,-17.3964434],[-66.1742258,-17.3964683],[-66.1741251,-17.3964705],[-66.1740213,-17.3964728],[-66.1739456,-17.3964745],[-66.1722827,-17.3965182],[-66.1710753,-17.3965487],[-66.1709624,-17.3965515],[-66.1707935,-17.3965547],[-66.1707185,-17.3965565],[-66.1694539,-17.3965857],[-66.1694009,-17.3965908],[-66.1693113,-17.3965935],[-66.169263,-17.396595],[-66.1692271,-17.3965988],[-66.1690612,-17.3966211],[-66.1689566,-17.3966435],[-66.1683989,-17.396829],[-66.1683743,-17.3968372],[-66.1683498,-17.3968453],[-66.168031,-17.3969524],[-66.1679379,-17.3969704],[-66.1675604,-17.3970391],[-66.1675188,-17.3970513],[-66.1674707,-17.3970785],[-66.1674355,-17.3971125],[-66.1674244,-17.3971252],[-66.1673975,-17.3971528],[-66.1673632,-17.3971715],[-66.1673245,-17.3971797],[-66.1672931,-17.3971781],[-66.1672592,-17.3971677],[-66.1672296,-17.3971492],[-66.1672062,-17.3971238],[-66.1671908,-17.3970934],[-66.1671844,-17.3970602],[-66.1671875,-17.3970265],[-66.1671946,-17.3970056],[-66.1671562,-17.3969173],[-66.1671509,-17.3968706],[-66.1671314,-17.3967095],[-66.1660011,-17.3967574],[-66.165798,-17.3967652],[-66.1657738,-17.3967661],[-66.1657257,-17.3967691],[-66.1657278,-17.3967957],[-66.1657217,-17.3968218],[-66.165708,-17.396845],[-66.1656878,-17.3968635],[-66.1656628,-17.3968757],[-66.1656352,-17.3968804],[-66.1656074,-17.3968773],[-66.1655816,-17.3968666],[-66.1655602,-17.3968493],[-66.165545,-17.3968267],[-66.1654923,-17.3968207],[-66.1654217,-17.3968254],[-66.1653627,-17.3968374],[-66.1653152,-17.3968494],[-66.1650485,-17.3969357],[-66.1650411,-17.3969379],[-66.1646556,-17.3971053],[-66.1645356,-17.3971521],[-66.1643392,-17.3972287],[-66.1630533,-17.3972831],[-66.1629893,-17.3972967],[-66.1629471,-17.3973119],[-66.1628754,-17.3973604],[-66.1628672,-17.3974147],[-66.1628442,-17.3974654],[-66.1628163,-17.3975057],[-66.1627769,-17.3975221],[-66.162717,-17.3975323],[-66.1626061,-17.3975077],[-66.1621225,-17.3974179],[-66.1619579,-17.3973901],[-66.1614961,-17.3973352],[-66.1614316,-17.3973275],[-66.1602321,-17.397104],[-66.1591531,-17.3969062],[-66.1581831,-17.3967228],[-66.1581304,-17.3967147],[-66.1580388,-17.3967006],[-66.157998,-17.3966943],[-66.1569724,-17.3965257],[-66.1566273,-17.3964637],[-66.156456,-17.3964348],[-66.1558816,-17.3963297],[-66.1547941,-17.3961338],[-66.1537317,-17.3959471],[-66.1526171,-17.3957535],[-66.1515053,-17.3955426],[-66.1504423,-17.3953552],[-66.1503862,-17.3956441],[-66.1502362,-17.3964175],[-66.1500348,-17.3975665],[-66.150021,-17.3976385],[-66.1500136,-17.3976877],[-66.1499487,-17.3984764],[-66.1499407,-17.3985529],[-66.1499065,-17.3990035],[-66.1498494,-17.3998668],[-66.1498455,-17.3999622],[-66.1497827,-17.4000289],[-66.1498026,-17.400102],[-66.1498239,-17.4001805],[-66.1499017,-17.4004668],[-66.1498937,-17.4005316],[-66.1498609,-17.4005847],[-66.149775,-17.4006681],[-66.1494422,-17.4009714],[-66.1493706,-17.4010595],[-66.149319,-17.4011365],[-66.149269,-17.4012475],[-66.1492708,-17.4013042],[-66.1493754,-17.4017517],[-66.1493766,-17.4018376],[-66.1493899,-17.4018833],[-66.1494074,-17.4019461],[-66.1494072,-17.4019767],[-66.1494001,-17.4020081],[-66.1493665,-17.4020731],[-66.149365,-17.4021126],[-66.1493916,-17.4021463],[-66.1494415,-17.4020872],[-66.1495007,-17.4019987],[-66.1495634,-17.4018758],[-66.1496062,-17.4017305],[-66.1496651,-17.4014827],[-66.1496972,-17.4013956],[-66.1497453,-17.4013201],[-66.1497967,-17.401271],[-66.1498751,-17.4012271],[-66.1499571,-17.401217],[-66.1499793,-17.4012193],[-66.1500309,-17.4012248],[-66.1500922,-17.4012466],[-66.1501424,-17.4012804],[-66.1501737,-17.4013168],[-66.1502239,-17.4013965],[-66.1502407,-17.4014466],[-66.1502508,-17.4015292],[-66.1502487,-17.4015792],[-66.1502416,-17.4016655],[-66.1502242,-17.4017332],[-66.1502032,-17.4018011],[-66.1500983,-17.4020873],[-66.1500631,-17.4021549],[-66.1500269,-17.4022327],[-66.1499912,-17.4022929],[-66.1499624,-17.4023414],[-66.1500946,-17.4023836],[-66.1501721,-17.4024063],[-66.1502232,-17.4031543],[-66.1502396,-17.403362],[-66.1503467,-17.4037109],[-66.1503679,-17.4038321],[-66.1503796,-17.4039576],[-66.150363,-17.4040704],[-66.1503278,-17.4041742],[-66.1502746,-17.4042764],[-66.1502065,-17.4043824],[-66.1500244,-17.4046123],[-66.1498555,-17.4048116],[-66.1497603,-17.4049346],[-66.1496881,-17.4050582],[-66.1496246,-17.4051833],[-66.1495222,-17.4054052],[-66.1494569,-17.4056694],[-66.149431,-17.405788],[-66.1493043,-17.4063261],[-66.1492014,-17.4065143],[-66.1491325,-17.4066385],[-66.1490653,-17.4067247],[-66.1489794,-17.4067834],[-66.148886,-17.4068302],[-66.1483453,-17.4070265],[-66.1481191,-17.4070965],[-66.1476849,-17.4071905],[-66.1473722,-17.4072562],[-66.1472099,-17.4072808],[-66.1469856,-17.4072715],[-66.1468068,-17.407257],[-66.1466713,-17.4072353],[-66.1466011,-17.4072282],[-66.1465601,-17.4072553],[-66.1462097,-17.4075038],[-66.1461734,-17.4075318],[-66.1460731,-17.4075939],[-66.145955,-17.4077424],[-66.1458864,-17.4078808],[-66.145769,-17.4081552],[-66.1456534,-17.408494],[-66.1454992,-17.4091009],[-66.145428,-17.4094546],[-66.1453749,-17.4098043],[-66.1453524,-17.4101266],[-66.1453594,-17.4104444],[-66.1453575,-17.4105868],[-66.1453885,-17.4110529],[-66.1454231,-17.4116968],[-66.1454296,-17.4120595],[-66.1454174,-17.412209],[-66.1453436,-17.4123829],[-66.1453121,-17.4124859],[-66.1450697,-17.4130672],[-66.144743,-17.4138518],[-66.1446709,-17.4139932],[-66.1445441,-17.4141951],[-66.1444832,-17.4143109],[-66.144451,-17.4144022],[-66.1444251,-17.4144924],[-66.1443854,-17.4145789],[-66.1443107,-17.4146862],[-66.1442396,-17.4147732],[-66.1441336,-17.4148574],[-66.1442211,-17.414886],[-66.1449217,-17.415094],[-66.1457363,-17.4153329],[-66.1464982,-17.4155601]]}}},{"type":"Feature","properties":{"amenity":"bus_station","bus":"yes","highway":"bus_stop","name":"Parada Trufi 107","public_transport":"platform","id":9150327847},"geometry":{"type":"Point","coordinates":[-66.2168808,-17.4216409]}},{"type":"Feature","properties":{"bus":"yes","departures_board":"no","highway":"bus_stop","name":"Parada Trufi 107","public_transport":"platform","shelter":"no","id":2032951809},"geometry":{"type":"Point","coordinates":[-66.1465078,-17.4155264]}}]}