{"type":"FeatureCollection","features":[{"type":"Feature","properties":{"check_date":"46167","description":"Verde","from":"Morro","name":"MiniBus N: Morro → Arco","network":"BO:CB:Cochabamba","on_demand":"yes","operator":"Sindicato mixto de autotransporte Sacaba","public_transport:version":"2","ref":"N","route":"bus","to":"Arco","type":"route","wheelchair":"no","id":10708849},"geometry":{"type":"LineString","coordinates":[[-66.1511285,-17.4212171],[-66.1518171,-17.4208821],[-66.1525361,-17.4205191],[-66.15280650000001,-17.420377000000002],[-66.15261190000001,-17.4199819],[-66.1525969,-17.419952400000003],[-66.15247810000001,-17.419718800000002],[-66.1523142,-17.4194022],[-66.15218300000001,-17.419165600000003],[-66.15181340000001,-17.418523200000003],[-66.1517008,-17.4183133],[-66.1515933,-17.418084],[-66.1515593,-17.417976200000002],[-66.15153880000001,-17.4178989],[-66.1515294,-17.417838300000003],[-66.15152140000001,-17.4177646],[-66.1515169,-17.417669200000002],[-66.1515174,-17.4176253],[-66.15151900000001,-17.4174973],[-66.15153620000001,-17.4173158],[-66.1515451,-17.4171988],[-66.1515701,-17.417080700000003],[-66.1515696,-17.417045400000003],[-66.15157660000001,-17.417010700000002],[-66.151572,-17.4168489],[-66.15155630000001,-17.4165445],[-66.151454,-17.4156139],[-66.1514434,-17.4155291],[-66.1512807,-17.414014700000003],[-66.15126090000001,-17.413878200000003],[-66.151189,-17.413253100000002],[-66.1511181,-17.412696500000003],[-66.1510765,-17.412379400000003],[-66.15104070000001,-17.4119011],[-66.1510011,-17.411409300000003],[-66.1507869,-17.409366000000002],[-66.15076470000001,-17.4087703],[-66.1507358,-17.4084235],[-66.15071250000001,-17.407631700000003],[-66.1507746,-17.4049827],[-66.150771,-17.404971600000003],[-66.15077000000001,-17.4049601],[-66.15077190000001,-17.404948400000002],[-66.1507766,-17.4049374],[-66.1507837,-17.404927700000002],[-66.1508472,-17.4046287],[-66.150896,-17.404378100000002],[-66.1509295,-17.404109400000003],[-66.1509427,-17.403939700000002],[-66.15092440000001,-17.403489],[-66.1509204,-17.4033251],[-66.1508986,-17.402581700000002],[-66.15089210000001,-17.402390800000003],[-66.15088990000001,-17.4022599],[-66.15091410000001,-17.4021192],[-66.1509729,-17.4019459],[-66.1510198,-17.4018412],[-66.1511813,-17.401497300000003],[-66.1512002,-17.401454400000002],[-66.1512301,-17.4013183],[-66.1512356,-17.4011615],[-66.15122360000001,-17.4010129],[-66.15119960000001,-17.400908400000002],[-66.15115990000001,-17.400784],[-66.1511079,-17.4006717],[-66.15106730000001,-17.4005979],[-66.1509999,-17.400493200000003],[-66.1509233,-17.4003938],[-66.1508146,-17.400286400000002],[-66.15086930000001,-17.4002252],[-66.15089730000001,-17.400136600000003],[-66.1509151,-17.399965],[-66.1509855,-17.3992846],[-66.1510846,-17.398539600000003],[-66.1510902,-17.398456600000003],[-66.15115630000001,-17.397774700000003],[-66.15007030000001,-17.397644500000002],[-66.15002100000001,-17.397638500000003],[-66.14996830000001,-17.3976317],[-66.1487409,-17.3974656],[-66.1486986,-17.3974593],[-66.14871120000001,-17.3973963],[-66.1487809,-17.397047],[-66.14881580000001,-17.396872000000002],[-66.1488764,-17.396568300000002],[-66.1488961,-17.3964633],[-66.1489511,-17.3961794],[-66.1489617,-17.3961286],[-66.1490339,-17.395780900000002],[-66.14915570000001,-17.3951858],[-66.149167,-17.395129200000003],[-66.1491829,-17.395060400000002],[-66.1492372,-17.394778300000002],[-66.1493039,-17.394431500000003],[-66.1493561,-17.3941416],[-66.1493544,-17.394092500000003],[-66.1493561,-17.394017700000003],[-66.1495434,-17.393104800000003],[-66.14955570000001,-17.393052200000003],[-66.1495696,-17.3929855],[-66.1497525,-17.3920777],[-66.1497628,-17.3920265],[-66.14977370000001,-17.391967400000002],[-66.1498584,-17.3915058],[-66.14993820000001,-17.391094000000002],[-66.14995180000001,-17.391033500000002],[-66.14996670000001,-17.3909479],[-66.14997810000001,-17.390874],[-66.15009660000001,-17.390268900000002],[-66.15018280000001,-17.3898291],[-66.1501946,-17.3897684],[-66.15014330000001,-17.389758200000003],[-66.1500862,-17.3897464],[-66.1500285,-17.3896792],[-66.1499919,-17.389626900000003],[-66.14985870000001,-17.3894366],[-66.1496274,-17.3891111],[-66.1493179,-17.388644900000003],[-66.148589,-17.3875935],[-66.1484621,-17.3874105],[-66.14843490000001,-17.387371400000003],[-66.14833270000001,-17.387223900000002],[-66.14830710000001,-17.387187400000002],[-66.14793540000001,-17.386657500000002],[-66.14772880000001,-17.386363000000003],[-66.1475078,-17.386042500000002],[-66.147457,-17.385965300000002],[-66.1474046,-17.385888700000002],[-66.1462893,-17.3842572],[-66.1462628,-17.3842184],[-66.14622080000001,-17.3841579],[-66.14619420000001,-17.384118800000003],[-66.145645,-17.3833109],[-66.1450688,-17.3824723],[-66.14499590000001,-17.3823672],[-66.1442653,-17.3813172],[-66.1442009,-17.3812213],[-66.14385630000001,-17.380725400000003],[-66.14314370000001,-17.3796697],[-66.1429952,-17.379450900000002],[-66.142953,-17.3793846],[-66.14288610000001,-17.379298600000002],[-66.14285310000001,-17.3792608],[-66.1428114,-17.3792329],[-66.14274680000001,-17.3792082],[-66.1424977,-17.3791209],[-66.142442,-17.379105300000003],[-66.1423972,-17.379096200000003],[-66.1423486,-17.3790869],[-66.1423139,-17.3790847],[-66.1423073,-17.379092800000002],[-66.1423,-17.3791003],[-66.14228750000001,-17.379110500000003],[-66.1422737,-17.3791189],[-66.14224390000001,-17.3791297],[-66.14221230000001,-17.379132600000002],[-66.1421811,-17.3791273],[-66.1421524,-17.3791143],[-66.14212850000001,-17.379095600000003],[-66.14211780000001,-17.379081300000003],[-66.14210940000001,-17.379066700000003],[-66.14210480000001,-17.379056000000002],[-66.142099,-17.379032600000002],[-66.1420987,-17.379009200000002],[-66.1421036,-17.3789863],[-66.1421134,-17.378964800000002],[-66.14212780000001,-17.3789459],[-66.142145,-17.3789294],[-66.14211610000001,-17.3788783],[-66.14216560000001,-17.3784026],[-66.14218740000001,-17.378126400000003],[-66.14222570000001,-17.377979500000002],[-66.1421823,-17.3778253],[-66.14212230000001,-17.3777316],[-66.1420903,-17.3776866],[-66.14204880000001,-17.377630500000002],[-66.14194090000001,-17.3775146],[-66.1418817,-17.377469700000002],[-66.14178960000001,-17.377409200000002],[-66.14170870000001,-17.3773783],[-66.14128330000001,-17.3772714],[-66.140656,-17.3771038],[-66.14012500000001,-17.3769673],[-66.13982080000001,-17.3768908],[-66.1395961,-17.376829700000002],[-66.13891140000001,-17.376623600000002],[-66.13860720000001,-17.3765156],[-66.13840710000001,-17.3764366],[-66.13813560000001,-17.376318400000002],[-66.1378744,-17.376198000000002],[-66.13754270000001,-17.3760194],[-66.1375201,-17.3760075],[-66.1371721,-17.375794600000003],[-66.13714350000001,-17.3757771],[-66.1365925,-17.3754096],[-66.13639280000001,-17.375275600000002],[-66.1361909,-17.3751518],[-66.1358472,-17.3749484],[-66.1356686,-17.3748663],[-66.13545060000001,-17.374784700000003],[-66.1352171,-17.3747197],[-66.13500690000001,-17.3746727],[-66.1349531,-17.3746639],[-66.1347777,-17.3746353],[-66.1345232,-17.3746121],[-66.1343324,-17.3746113],[-66.1336655,-17.374607800000003],[-66.1332637,-17.3746079],[-66.1331657,-17.3746079],[-66.1320171,-17.374608300000002],[-66.1319031,-17.3746101],[-66.1318712,-17.374610200000003],[-66.131338,-17.3746076],[-66.1310859,-17.3746058],[-66.1307829,-17.374607100000002],[-66.1305399,-17.374620200000003],[-66.13031570000001,-17.3746598],[-66.13010680000001,-17.374703],[-66.1299218,-17.3747584],[-66.12981950000001,-17.3747924],[-66.1296915,-17.374848200000002],[-66.12961220000001,-17.374899900000003],[-66.1295465,-17.374952500000003],[-66.129496,-17.3750064],[-66.12942120000001,-17.375093300000003],[-66.1294007,-17.375113600000002],[-66.1293424,-17.3751411],[-66.1293339,-17.3751606],[-66.1293129,-17.375192600000002],[-66.1292851,-17.3752195],[-66.1292688,-17.3752314],[-66.1292521,-17.375240100000003],[-66.129215,-17.3752536],[-66.1291758,-17.3752591],[-66.12915600000001,-17.375258900000002],[-66.1291363,-17.3752566],[-66.12905900000001,-17.375282300000002],[-66.1290276,-17.3752871],[-66.1289665,-17.3752992],[-66.12889750000001,-17.375317900000002],[-66.12882610000001,-17.375349],[-66.12876630000001,-17.375380900000003],[-66.12865980000001,-17.3754436],[-66.1285253,-17.3755346],[-66.12831360000001,-17.3756847],[-66.12754020000001,-17.3762313],[-66.12716010000001,-17.3764928],[-66.12570360000001,-17.3775094],[-66.124802,-17.3781266],[-66.1241835,-17.378549500000002],[-66.12349490000001,-17.3790024],[-66.1226821,-17.379529100000003],[-66.1225359,-17.3796241],[-66.12225400000001,-17.3798122],[-66.1221337,-17.379889700000003],[-66.12187920000001,-17.3800537],[-66.1212818,-17.3804516],[-66.12120800000001,-17.3805008],[-66.12092630000001,-17.380703800000003],[-66.120891,-17.380738800000003],[-66.120766,-17.380862800000003],[-66.1206599,-17.3810073],[-66.1204943,-17.381222400000002],[-66.12047700000001,-17.3812493],[-66.12040440000001,-17.381327000000002],[-66.12034680000001,-17.381368000000002],[-66.12028190000001,-17.381404800000002],[-66.1201128,-17.381460800000003],[-66.12008390000001,-17.3814655],[-66.1199728,-17.381476300000003],[-66.11978400000001,-17.3814983],[-66.11958200000001,-17.38153],[-66.1194402,-17.381557400000002],[-66.1193164,-17.3815883],[-66.1192997,-17.3815937],[-66.1191876,-17.3816388],[-66.1189298,-17.381746200000002],[-66.11868390000001,-17.3818458],[-66.1186373,-17.3818622],[-66.1183007,-17.3819804],[-66.117861,-17.382119600000003],[-66.11725600000001,-17.3822712],[-66.1169263,-17.3823466],[-66.11659110000001,-17.382414200000003],[-66.11615280000001,-17.382501100000002],[-66.11478960000001,-17.3827819],[-66.1138129,-17.382972600000002],[-66.1127304,-17.3831983],[-66.11168520000001,-17.383416200000003],[-66.1105866,-17.3836453],[-66.1101266,-17.383741200000003],[-66.10971950000001,-17.3838261],[-66.1097158,-17.383862500000003],[-66.10970490000001,-17.3838975],[-66.10966950000001,-17.3839526],[-66.1096349,-17.383982500000002],[-66.10959410000001,-17.384004100000002],[-66.109633,-17.3841864],[-66.10980620000001,-17.384918300000002],[-66.1099088,-17.3853176],[-66.11004510000001,-17.3858481],[-66.1100875,-17.3860129],[-66.110122,-17.386146],[-66.11016640000001,-17.386317400000003],[-66.11035050000001,-17.3869943],[-66.1105211,-17.3876233],[-66.1106834,-17.3882584],[-66.11085960000001,-17.3888907],[-66.11087900000001,-17.388982000000002],[-66.11080150000001,-17.3890017],[-66.1110957,-17.3903363],[-66.1115053,-17.3919655],[-66.1115286,-17.3920616],[-66.11191170000001,-17.393553200000003],[-66.11195070000001,-17.393722],[-66.11210750000001,-17.394362100000002],[-66.11214650000001,-17.394521400000002],[-66.11217400000001,-17.3946337],[-66.11241890000001,-17.395633500000002],[-66.1124874,-17.395913500000002],[-66.11254650000001,-17.396154600000003],[-66.1125708,-17.396339],[-66.1126138,-17.3967005],[-66.112645,-17.396963300000003],[-66.1127208,-17.3976016],[-66.1127776,-17.3982765],[-66.1128013,-17.398573900000002],[-66.1128207,-17.398845100000003],[-66.1128243,-17.398955],[-66.1128204,-17.399054300000003],[-66.11264650000001,-17.399416900000002],[-66.112381,-17.4000106],[-66.1115714,-17.401720500000003],[-66.1115673,-17.401799800000003],[-66.11248780000001,-17.4016594],[-66.11298710000001,-17.401584000000003],[-66.1135876,-17.401524100000003],[-66.11422180000001,-17.4014749],[-66.1145319,-17.401447400000002],[-66.11458640000001,-17.4014433],[-66.11552520000001,-17.401372600000002],[-66.1155507,-17.401478400000002],[-66.11553230000001,-17.401599700000002],[-66.11545290000001,-17.401907],[-66.1153877,-17.402159700000002],[-66.1153386,-17.402934100000003],[-66.1153163,-17.403011900000003],[-66.1149511,-17.4032716],[-66.1148014,-17.403372100000002],[-66.11419790000001,-17.4038365],[-66.1136443,-17.404296300000002],[-66.11351210000001,-17.404410600000002],[-66.11416580000001,-17.405635800000002],[-66.1144658,-17.4062187],[-66.1146853,-17.406645],[-66.1149122,-17.4070858],[-66.1140998,-17.4074214],[-66.11346370000001,-17.4076284],[-66.11258690000001,-17.407909200000002],[-66.11157770000001,-17.4082206],[-66.11089600000001,-17.408436700000003],[-66.1106079,-17.408528],[-66.1097708,-17.4088096],[-66.1097381,-17.4097329],[-66.10974440000001,-17.4098429],[-66.1089762,-17.409640600000003],[-66.1078282,-17.4093383],[-66.1073367,-17.409208900000003],[-66.1070938,-17.4091449],[-66.10626660000001,-17.4089883],[-66.1047892,-17.408715400000002],[-66.10376210000001,-17.408529700000003],[-66.10361040000001,-17.408522100000003],[-66.1032761,-17.4085055],[-66.10262270000001,-17.408473100000002],[-66.10159970000001,-17.4084222],[-66.10085880000001,-17.4083733],[-66.09937400000001,-17.4082751],[-66.0986701,-17.4082286],[-66.09767040000001,-17.408162500000003],[-66.0970491,-17.408090100000003],[-66.0969367,-17.4080818],[-66.09608300000001,-17.4080188],[-66.0957293,-17.4079927],[-66.0949851,-17.407937800000003],[-66.09390020000001,-17.4078577],[-66.093843,-17.4078535],[-66.09266170000001,-17.407766300000002],[-66.09194500000001,-17.407713400000002],[-66.090962,-17.407640800000003],[-66.0898415,-17.407558100000003],[-66.0890136,-17.4075118],[-66.0883055,-17.407479300000002],[-66.08820200000001,-17.407474500000003],[-66.08738430000001,-17.4074457],[-66.086279,-17.4073634],[-66.0861442,-17.4073169],[-66.08583940000001,-17.4072566],[-66.0855475,-17.407155300000003],[-66.08517710000001,-17.407003800000002],[-66.0850564,-17.4069538],[-66.08496720000001,-17.4069168],[-66.0846087,-17.4067039],[-66.0843298,-17.406516900000003],[-66.08397450000001,-17.4062403],[-66.0835406,-17.405957400000002],[-66.0831187,-17.405656800000003],[-66.0824166,-17.405119000000003],[-66.08210980000001,-17.404960900000003],[-66.08196910000001,-17.4048753],[-66.08151050000001,-17.404518900000003],[-66.08120840000001,-17.4042807],[-66.0812358,-17.4041442],[-66.0805345,-17.4040396],[-66.07996340000001,-17.4039545],[-66.0788821,-17.403752700000002],[-66.078524,-17.4037037],[-66.077448,-17.4034665],[-66.07673600000001,-17.403277300000003],[-66.07621780000001,-17.4031461],[-66.0751491,-17.4028852],[-66.0750062,-17.4028515],[-66.0749698,-17.402843],[-66.0746428,-17.4027476],[-66.0742936,-17.4026457],[-66.07381330000001,-17.4025426],[-66.07373720000001,-17.4025272],[-66.0734118,-17.4024615],[-66.0733438,-17.4024602],[-66.0732593,-17.402464100000003],[-66.0730173,-17.402509600000002],[-66.07287450000001,-17.4025618],[-66.0726272,-17.402666500000002],[-66.0722372,-17.402774500000003],[-66.07178730000001,-17.402777500000003],[-66.0716556,-17.402696000000002],[-66.0715632,-17.4026268],[-66.07150390000001,-17.4024718],[-66.0714379,-17.402346400000003],[-66.0713719,-17.4022772],[-66.0710784,-17.4020836],[-66.07096870000001,-17.4020778],[-66.07071930000001,-17.4020189],[-66.0703256,-17.401933500000002],[-66.0695331,-17.4018674],[-66.0690469,-17.4018273],[-66.0687779,-17.4018051],[-66.0682783,-17.401762100000003],[-66.0677022,-17.4017044],[-66.06715510000001,-17.4016705],[-66.0669324,-17.401660200000002],[-66.06642670000001,-17.4016346],[-66.06621480000001,-17.401626500000003],[-66.0659274,-17.401615500000002],[-66.06498400000001,-17.4015543],[-66.0647646,-17.401529800000002],[-66.0640171,-17.4014761],[-66.0632755,-17.401429500000003],[-66.0622984,-17.4013934],[-66.06211490000001,-17.4013856],[-66.0618117,-17.4013841],[-66.06134460000001,-17.401369900000002],[-66.0608332,-17.401350200000003],[-66.06061940000001,-17.4013409],[-66.06041610000001,-17.401392400000002],[-66.0601627,-17.401374500000003],[-66.0596783,-17.401324300000002],[-66.05870800000001,-17.4012697],[-66.0580987,-17.401287800000002],[-66.0579623,-17.401221200000002],[-66.0576053,-17.4012201],[-66.0570809,-17.401251600000002],[-66.0567728,-17.4012776],[-66.05672530000001,-17.401283600000003],[-66.0565866,-17.4012837],[-66.0562141,-17.4012841],[-66.05536860000001,-17.401290000000003],[-66.05487550000001,-17.4012968],[-66.05460710000001,-17.401317600000002],[-66.0541366,-17.401378],[-66.05356130000001,-17.4014795],[-66.0534262,-17.4015144],[-66.05335760000001,-17.401537100000002],[-66.0520795,-17.4019793],[-66.0513109,-17.4022593],[-66.0508018,-17.402449500000003],[-66.05057670000001,-17.402544900000002],[-66.05015060000001,-17.4026819],[-66.0499858,-17.4027232],[-66.04965340000001,-17.4027363],[-66.04970560000001,-17.4034583],[-66.0487744,-17.4036517],[-66.0481759,-17.4037663],[-66.0480375,-17.403793500000003],[-66.0467905,-17.4040387],[-66.04632360000001,-17.404168000000002],[-66.04539790000001,-17.404435600000003],[-66.04465230000001,-17.404639600000003],[-66.0443875,-17.404712],[-66.04382310000001,-17.4048784],[-66.04319570000001,-17.405057300000003],[-66.04226320000001,-17.4052946],[-66.04181360000001,-17.4054147],[-66.04127910000001,-17.405586300000003],[-66.04070300000001,-17.4057418],[-66.0403891,-17.405010800000003],[-66.0400601,-17.404349],[-66.04002720000001,-17.404229],[-66.0397952,-17.403774700000003],[-66.0397593,-17.4037103],[-66.03973810000001,-17.403683700000002],[-66.0393616,-17.402984500000002],[-66.03895700000001,-17.4021931],[-66.0388808,-17.4021592],[-66.03852970000001,-17.4015115],[-66.03802320000001,-17.400521100000002],[-66.03800670000001,-17.400524700000002],[-66.0379707,-17.4005206],[-66.0379279,-17.400501400000003],[-66.0379118,-17.400474000000003],[-66.03786190000001,-17.4003775],[-66.037852,-17.4003282],[-66.03787000000001,-17.400277900000003],[-66.0373584,-17.399288400000003],[-66.0372464,-17.399080700000003],[-66.03720530000001,-17.399004400000003],[-66.03672660000001,-17.3981101],[-66.0362169,-17.397157800000002],[-66.03628570000001,-17.3971385]],"nodes":[9138966817,2045510625,4423048263,2045510589,3315367878,8236485309,2045510724,4414240043,2045510959,3017372545,8236494244,646061085,3315367739,3315367731,3315367725,3315367723,3315367710,3675745347,646061086,646061088,3675745345,646061145,3315367671,646061153,646061175,3675745342,3675745340,646065252,646065256,3675745338,646065259,646065262,5610210872,3315366926,5610210854,5610210462,2768899163,5610210855,2768899137,2768899091,2768899088,2768899086,2768899085,2768899083,2768899082,2768899070,2768899068,12313146773,3325688394,7424209198,2768899058,2768899047,8192846541,2768899017,2768899015,12313146763,2768899012,2768899009,7197849281,2768899006,2768899001,2768899000,2768898998,2768898997,3322574459,2768898995,2768898994,8089836053,2768898991,3322574447,2768898988,8089836061,311358095,648548806,1727306395,310501007,9121686992,310501008,9121686994,8004756949,308297685,8515841684,2892642981,2892642977,8398265984,315098242,303217531,9121465672,8515841707,5018719455,303217532,5018719458,2303485397,2303485390,9121465671,303217533,8398265924,3924761796,303215162,3924761795,8515866923,303217534,5309804691,1851061835,2866813904,698492413,303214820,2866811499,13041417514,9591270798,303217664,2470422220,2295135876,9400884786,9591270797,8568166668,2470422192,315096054,1720012828,6179473251,6179485008,1720012825,6179473246,2160406974,11827181929,6179473097,6179473092,6179473100,9930862747,2361168091,1720012829,9930862750,2391341791,1720012832,10854297125,3676912942,1637465106,1637456494,2391341672,8379904318,1795293361,1795293283,8379904344,2391341654,1795293294,1795293399,2391341631,8379904365,9353076787,9353076786,9353076784,2391341617,8379904346,2391341633,2391341636,2391341635,6331635784,8379904364,2334193728,8379904363,5726456926,9353076793,9353076789,9353076792,9353076790,9976027044,2391341593,2391341542,8172711431,5726313467,9047064017,1795293265,1796486803,1796486801,8379904387,6331635776,6331635760,9007531389,6331635759,1795293288,1637465042,1044380039,598266512,8379213500,598266515,1044379398,6331635763,598266517,2334193653,598266519,8379424310,1044379348,7965587282,598266522,668478419,3264544472,1044379926,668478410,1009166397,497170540,1009166894,6331635755,12565837682,1044379711,497170541,497170542,9359800373,5545496248,12565837685,1496874669,3426201236,497170488,497170491,8162958966,1008238352,497170497,1008238961,497170498,497170499,8455639757,9012639193,7070768691,1008238336,4161989995,9364555686,8455639792,4161989993,11097229744,4161989999,11081389202,13546392754,11081389193,11081389194,11081389192,13546392749,2509202585,11079490599,9364555673,8455639777,8455639778,1008238747,1008238546,497169774,4161990007,4161990008,1066149615,8455317285,1044379982,1066149629,8522771070,1066149618,8162958852,497169104,497169105,13546392775,8162958913,1609200263,1609200307,497169107,8162958912,497169108,2398626801,6618250895,8162958922,1609199974,11081592002,6618250896,11081592003,2398626850,497169111,497169113,497169114,11081576330,11067998804,2398626863,4967266996,8067970035,2398626870,8067970039,497169115,2857544400,1609200320,9156300399,9156300411,1609200038,1609221058,1609221142,2320160111,1609365743,1609365842,12529903868,2508868829,13535744061,2508868839,4715299771,13535744062,497168559,12529903867,5027940177,5027940178,11079521793,1609296387,5027940180,1609296428,1609366218,1609365909,5027942690,5027942697,13579827104,4620215205,1609366215,4059209929,2320160187,2320160208,1609365901,2424302494,1609366101,7863085758,2320160218,3429571522,3429571526,1609365798,13351462155,12446593131,3429571560,11078353455,4620215216,1609365830,12446462827,3429571615,4620215220,1609365878,10303763660,1609365855,1609366192,3784920387,1609365715,3429571665,7243693317,10303763684,1610493431,2449097324,1610493770,13061345704,1610493589,1610493775,2448368714,2449097332,3429571700,7873895660,7499502655,1610492845,7243687036,13061293097,13061293095,2448368757,2449097526,2448368759,2448368760,2449097532,7555360492,6132756649,2449097543,1610492644,7555355074,7555355075,7555355076,7555355077,13061293082,7555355078,13534500869,7555355079,7555355080,7555355081,10827872015,7555355082,7555355083,7555355084,7555360485,7555360486,1610493820,11273306542,3424332386,3429571896,1610493293,3562573953,12087519149,1610493719,2028828282,8399666564,2028828267,1610492796,10102435969,3562573937,1610493207,1610492659,3424332359,10102435947,1610492722,2028828153,5378907569,1610492906,3424332340,3562573903,2028828296,3562573888,3562573865,3562573837,1610493339,4251839313,3562573801,1610493383,1610493204,13895587376,1609200016,3562573739,3562573730,2028803077,8400307153,3562573692,3562573683,3562573682,1609366189,9155887640,3956108856,3957238345,8483935487,1609365669,10827611953,10827611954,3562573656,3562573652,3562573666,3562573671,3562573672,3562573667,3562573663,3562573646,3562573639,3562573634,3562573623,1609365722,1609366265,3957175129,3957175101,12174217041,1544966402,3957175121,1544966324,3957175077,3957175073,3957175071,13520805481,3957175102,3956136756,3956136692,3956124168,1544966225,3956123705,4067009926,4067009930,3956123687,7352860673,1544966203,11073879919,3956123678,1544966122,3956123668,1544966091,10825281777,1544966032,1544966112,10825281776,4670281694,11448730711,1544966123,1544966128,2320095722,1544966138,1544966260,8304826300,1544966272,1544966279,4279518434,1544966556,6133430461,1544966667,1544966836,4279518436,1544966847,1544967158,1544967242,1544967308,12512863079,1544967360,2320095736,1544967494,1544967566,4279518484,1544967670,1544967745,1544967824,1544967937,1544967982,1544968025,1544967716,1544967488,3943965736,3943965737,4265533947,1544967267,1544966991,1544966538,1544966515,1544966265,4308310795,6133430606,6133430607,6133430609,1544965877,6133430589,6133430610,4308310794,5168428639,11067831115,4279518333,11067831113,4210163618,7435255091]},"gtfs":{"agency_id":18,"route_id":97,"services":[{"service_id":"Mo-Su","startTime":"06:00","endTime":"22:00","trip_id":10708849}],"filteredStops":{"nodes":[9138966817,2045510589,2045510724,8236494244,3315367731,3315367710,646061088,646061153,3675745340,646065259,646065262,5610210854,2768899163,2768899091,2768899086,2768899082,2768899068,7424209198,8192846541,2768899015,2768899009,2768899006,2768898998,3322574459,2768898991,3322574447,2768898988,311358095,648548806,1727306395,310501007,8004756949,2892642981,303217531,303217532,9121465671,3924761796,303217534,698492413,13041417514,2295135876,2470422192,6179473251,2160406974,6179473100,9930862750,10854297125,2391341672,8379904344,1795293399,9353076786,2391341633,8379904364,5726456926,9353076790,8172711431,1795293265,6331635776,1795293288,598266512,6331635763,8379424310,668478419,668478410,6331635755,497170542,12565837685,497170491,1008238961,8455639757,4161989995,11097229744,11081389193,13546392749,8455639777,497169774,1066149615,8522771070,497169105,1609200307,497169108,1609199974,2398626850,497169114,4967266996,497169115,9156300399,1609221142,12529903868,4715299771,12529903867,1609296387,1609365909,13579827104,2320160187,1609366101,3429571526,12446593131,1609365830,1609365878,1609366192,7243693317,1610493770,1610493775,7873895660,13061293097,2448368759,7555360492,7555355074,13061293082,7555355079,7555355082,7555360486,3429571896,12087519149,2028828267,1610493207,10102435947,1610492906,3562573888,1610493339,1610493204,3562573730,3562573683,9155887640,1609365669,3562573652,3562573672,3562573639,1609366265,12174217041,3957175077,3957175102,1544966225,4067009930,11073879919,1544966091,1544966112,1544966123,1544966260,4279518434,1544966667,1544967158,1544967360,1544967566,1544967824,1544967716,3943965737,1544966538,6133430606,6133430589,5168428639,7435255091],"coordinates":[[-66.1511285,-17.4212171],[-66.15280650000001,-17.420377000000002],[-66.15247810000001,-17.419718800000002],[-66.1517008,-17.4183133],[-66.15153880000001,-17.4178989],[-66.1515169,-17.417669200000002],[-66.15153620000001,-17.4173158],[-66.15157660000001,-17.417010700000002],[-66.151454,-17.4156139],[-66.151189,-17.413253100000002],[-66.1511181,-17.412696500000003],[-66.1510011,-17.411409300000003],[-66.15076470000001,-17.4087703],[-66.1507746,-17.4049827],[-66.15077000000001,-17.4049601],[-66.1507837,-17.404927700000002],[-66.150896,-17.404378100000002],[-66.15092440000001,-17.403489],[-66.15089210000001,-17.402390800000003],[-66.15091410000001,-17.4021192],[-66.1511813,-17.401497300000003],[-66.1512301,-17.4013183],[-66.15119960000001,-17.400908400000002],[-66.1511079,-17.4006717],[-66.1508146,-17.400286400000002],[-66.15086930000001,-17.4002252],[-66.15089730000001,-17.400136600000003],[-66.1509855,-17.3992846],[-66.1510846,-17.398539600000003],[-66.1510902,-17.398456600000003],[-66.15115630000001,-17.397774700000003],[-66.1487409,-17.3974656],[-66.1487809,-17.397047],[-66.1489511,-17.3961794],[-66.149167,-17.395129200000003],[-66.1493561,-17.3941416],[-66.1495434,-17.393104800000003],[-66.1497628,-17.3920265],[-66.14995180000001,-17.391033500000002],[-66.15009660000001,-17.390268900000002],[-66.1500862,-17.3897464],[-66.1496274,-17.3891111],[-66.1484621,-17.3874105],[-66.14793540000001,-17.386657500000002],[-66.1474046,-17.385888700000002],[-66.14619420000001,-17.384118800000003],[-66.14499590000001,-17.3823672],[-66.14314370000001,-17.3796697],[-66.14285310000001,-17.3792608],[-66.1424977,-17.3791209],[-66.1423139,-17.3790847],[-66.1422737,-17.3791189],[-66.1421524,-17.3791143],[-66.14210940000001,-17.379066700000003],[-66.1421036,-17.3789863],[-66.14211610000001,-17.3788783],[-66.14222570000001,-17.377979500000002],[-66.14204880000001,-17.377630500000002],[-66.14170870000001,-17.3773783],[-66.14012500000001,-17.3769673],[-66.13860720000001,-17.3765156],[-66.13754270000001,-17.3760194],[-66.1365925,-17.3754096],[-66.1358472,-17.3749484],[-66.13500690000001,-17.3746727],[-66.1343324,-17.3746113],[-66.1331657,-17.3746079],[-66.131338,-17.3746076],[-66.13031570000001,-17.3746598],[-66.12981950000001,-17.3747924],[-66.129496,-17.3750064],[-66.1293339,-17.3751606],[-66.1292521,-17.375240100000003],[-66.12915600000001,-17.375258900000002],[-66.1289665,-17.3752992],[-66.12865980000001,-17.3754436],[-66.12754020000001,-17.3762313],[-66.1241835,-17.378549500000002],[-66.12225400000001,-17.3798122],[-66.12120800000001,-17.3805008],[-66.120766,-17.380862800000003],[-66.12040440000001,-17.381327000000002],[-66.12008390000001,-17.3814655],[-66.11958200000001,-17.38153],[-66.1191876,-17.3816388],[-66.1183007,-17.3819804],[-66.1169263,-17.3823466],[-66.1138129,-17.382972600000002],[-66.1101266,-17.383741200000003],[-66.10966950000001,-17.3839526],[-66.109633,-17.3841864],[-66.1100875,-17.3860129],[-66.1105211,-17.3876233],[-66.11087900000001,-17.388982000000002],[-66.1115286,-17.3920616],[-66.11214650000001,-17.394521400000002],[-66.11254650000001,-17.396154600000003],[-66.112645,-17.396963300000003],[-66.1128207,-17.398845100000003],[-66.112381,-17.4000106],[-66.11248780000001,-17.4016594],[-66.1145319,-17.401447400000002],[-66.11553230000001,-17.401599700000002],[-66.1153386,-17.402934100000003],[-66.11419790000001,-17.4038365],[-66.1144658,-17.4062187],[-66.11346370000001,-17.4076284],[-66.11089600000001,-17.408436700000003],[-66.10974440000001,-17.4098429],[-66.1070938,-17.4091449],[-66.10376210000001,-17.408529700000003],[-66.10159970000001,-17.4084222],[-66.09767040000001,-17.408162500000003],[-66.0957293,-17.4079927],[-66.093843,-17.4078535],[-66.0898415,-17.407558100000003],[-66.08738430000001,-17.4074457],[-66.08583940000001,-17.4072566],[-66.08496720000001,-17.4069168],[-66.0835406,-17.405957400000002],[-66.08210980000001,-17.404960900000003],[-66.0812358,-17.4041442],[-66.078524,-17.4037037],[-66.0751491,-17.4028852],[-66.0746428,-17.4027476],[-66.0734118,-17.4024615],[-66.07287450000001,-17.4025618],[-66.07178730000001,-17.402777500000003],[-66.0714379,-17.402346400000003],[-66.07071930000001,-17.4020189],[-66.0690469,-17.4018273],[-66.06715510000001,-17.4016705],[-66.0659274,-17.401615500000002],[-66.0632755,-17.401429500000003],[-66.0618117,-17.4013841],[-66.06041610000001,-17.401392400000002],[-66.0580987,-17.401287800000002],[-66.0570809,-17.401251600000002],[-66.0562141,-17.4012841],[-66.0541366,-17.401378],[-66.0520795,-17.4019793],[-66.05057670000001,-17.402544900000002],[-66.04970560000001,-17.4034583],[-66.0467905,-17.4040387],[-66.04465230000001,-17.404639600000003],[-66.04226320000001,-17.4052946],[-66.0403891,-17.405010800000003],[-66.0397952,-17.403774700000003],[-66.03895700000001,-17.4021931],[-66.03800670000001,-17.400524700000002],[-66.03786190000001,-17.4003775],[-66.0373584,-17.399288400000003],[-66.03628570000001,-17.3971385]]}}},{"type":"Feature","properties":{"bus":"yes","highway":"bus_stop","name":"Parada N","public_transport":"platform","id":9101635143},"geometry":{"type":"Point","coordinates":[-66.1496587,-17.423971700000003]}},{"type":"Feature","properties":{"bench":"no","bin":"no","bus":"yes","departures_board":"no","highway":"bus_stop","lit":"no","name":"Oquendo y Armando Méndez","pole":"yes","public_transport":"platform","shelter":"no","id":8614087733},"geometry":{"type":"Point","coordinates":[-66.14880720000001,-17.396606000000002]}},{"type":"Feature","properties":{"bench":"yes","bin":"no","bus":"yes","departures_board":"no","highway":"bus_stop","kerb":"raised","level":"0","lit":"no","name":"Oquendo y Jordán","operator":"Gobierno Autónomo Municipal de Cochabamba","pole":"yes","public_transport":"platform","shelter":"yes","tactile_paving":"no","wheelchair":"no","id":6546789737},"geometry":{"type":"Point","coordinates":[-66.1492786,-17.3942543]}},{"type":"Feature","properties":{"bench":"no","bin":"no","bus":"yes","departures_board":"no","highway":"bus_stop","kerb":"raised","level":"0","lit":"no","name":"Heroínas y Oquendo","operator":"Gobierno Autónomo Municipal de Cochabamba","operator:short":"GAMC","operator:type":"government","operator:wikidata":"Q124635344","pole":"yes","public_transport":"platform","shelter":"no","tactile_paving":"no","traffic_sign":"yes","wheelchair":"no","id":4868993435},"geometry":{"type":"Point","coordinates":[-66.1498749,-17.3911373]}},{"type":"Feature","properties":{"bench":"no","bin":"no","bus":"yes","departures_board":"no","highway":"bus_stop","lit":"no","name":"Oquendo y Colombia","operator":"Gobierno Autónomo Municipal de Cochabamba","pole":"yes","public_transport":"platform","shelter":"no","tactile_paving":"no","traffic_sign":"yes","id":6285093143},"geometry":{"type":"Point","coordinates":[-66.1501164,-17.389920200000002]}},{"type":"Feature","properties":{"bench":"no","bin":"no","bus":"yes","departures_board":"no","highway":"bus_stop","kerb":"raised","level":"0","lit":"no","name":"Aniceto Arce y Ramón Rivero","operator":"Gobierno Autónomo Municipal de Cochabamba","pole":"yes","public_transport":"platform","shelter":"no","tactile_paving":"no","wheelchair":"no","id":5280985262},"geometry":{"type":"Point","coordinates":[-66.1431472,-17.379724000000003]}},{"type":"Feature","properties":{"bus":"yes","departures_board":"no","highway":"bus_stop","name":"Puente Hernando Siles","public_transport":"platform","shelter":"no","id":5379550427},"geometry":{"type":"Point","coordinates":[-66.1333615,-17.3746906]}},{"type":"Feature","properties":{"bench":"yes","bus":"yes","departures_board":"no","highway":"bus_stop","name":"Servicio de Caminos","public_transport":"platform","shelter":"yes","id":8455639763},"geometry":{"type":"Point","coordinates":[-66.1295975,-17.375014800000002]}}]}