{"type":"FeatureCollection","features":[{"type":"Feature","properties":{"check_date":"29/12/2025","from":"Calle Lisandro Quiroga","name":"MiniBus 36: Calle Lisandro Quiroga → Calle T'ikallajta","network":"BO:CB:Cochabamba","on_demand":"yes","operator":"Sindicato mixto de transporte público 6 de mayo","public_transport:version":"2","ref":"36","route":"bus","to":"Calle T'ikallajta","type":"route","wheelchair":"no","id":10716534},"geometry":{"type":"LineString","coordinates":[[-66.1624756,-17.4271195],[-66.1622893,-17.4271075],[-66.1623014,-17.4268572],[-66.1623558,-17.4259032],[-66.1623588,-17.4258449],[-66.1624136,-17.4246929],[-66.161906,-17.4246661],[-66.1619392,-17.4238052],[-66.161964,-17.4237067],[-66.1619803,-17.4236106],[-66.1619876,-17.4227793],[-66.1620297,-17.4223308],[-66.1619719,-17.4222361],[-66.1616579,-17.4217595],[-66.1615291,-17.4214535],[-66.1614886,-17.4210585],[-66.1614406,-17.4203342],[-66.1613724,-17.4196074],[-66.1613164,-17.4188853],[-66.1612691,-17.418171],[-66.161192,-17.4174338],[-66.160809,-17.4171887],[-66.1607782,-17.4171686],[-66.1607541,-17.4171527],[-66.1616303,-17.4161124],[-66.1617621,-17.415942],[-66.1618409,-17.4158054],[-66.1618948,-17.4156745],[-66.1619293,-17.4155612],[-66.1619455,-17.4154748],[-66.1619546,-17.4154263],[-66.1619881,-17.415246],[-66.1619791,-17.4151976],[-66.1618973,-17.4149838],[-66.1618323,-17.4148304],[-66.1617563,-17.4146787],[-66.1616823,-17.4145765],[-66.1615955,-17.4144804],[-66.1614895,-17.4143953],[-66.161244,-17.4142059],[-66.1610928,-17.4140892],[-66.1609482,-17.4139775],[-66.1606325,-17.41372],[-66.1597972,-17.4130808],[-66.1597529,-17.4130573],[-66.1597139,-17.4130428],[-66.1596098,-17.4130042],[-66.1595691,-17.4130072],[-66.1594438,-17.4130666],[-66.1588006,-17.4132539],[-66.1587703,-17.4132627],[-66.1587125,-17.4132767],[-66.1586016,-17.4133033],[-66.1585485,-17.4133166],[-66.1580371,-17.4133866],[-66.1576174,-17.4134432],[-66.1573529,-17.4134749],[-66.1568717,-17.4135363],[-66.1567795,-17.4135392],[-66.156677,-17.4135223],[-66.1564599,-17.4134745],[-66.1562041,-17.4134241],[-66.1559132,-17.4133788],[-66.1557916,-17.4133586],[-66.1557552,-17.4133531],[-66.1556071,-17.4133243],[-66.1555752,-17.413315],[-66.1555265,-17.4133009],[-66.1554401,-17.4132586],[-66.1553389,-17.4132028],[-66.1550519,-17.4130447],[-66.1550281,-17.4130325],[-66.1548024,-17.4129164],[-66.1546499,-17.4128352],[-66.1539535,-17.4124837],[-66.1537674,-17.4123862],[-66.1536436,-17.4122825],[-66.1535673,-17.4121917],[-66.1535467,-17.4121411],[-66.1535373,-17.4121042],[-66.1535104,-17.411993],[-66.1535029,-17.4119093],[-66.1534726,-17.4104835],[-66.1534922,-17.4102744],[-66.153473,-17.4098585],[-66.1534302,-17.408289],[-66.1534037,-17.4075486],[-66.1533921,-17.4070536],[-66.1533606,-17.4061008],[-66.1533348,-17.4052833],[-66.153324,-17.4048628],[-66.1533227,-17.4048012],[-66.1532959,-17.4036075],[-66.1532969,-17.4035424],[-66.1532934,-17.4032094],[-66.1533194,-17.4031272],[-66.1533196,-17.4030749],[-66.1533203,-17.4029579],[-66.15332,-17.4028781],[-66.1533197,-17.4028096],[-66.1533193,-17.402737],[-66.1533222,-17.4026581],[-66.1533227,-17.4025723],[-66.1533255,-17.4025012],[-66.1533234,-17.4024287],[-66.1533238,-17.4023639],[-66.1533031,-17.4023036],[-66.1532722,-17.4014247],[-66.15325,-17.4007249],[-66.1532266,-17.3999032],[-66.1531973,-17.3991016],[-66.1531921,-17.398998],[-66.1531927,-17.3988455],[-66.1531945,-17.3987646],[-66.15417,-17.39898],[-66.1542283,-17.3989929],[-66.1542956,-17.3990088],[-66.1552473,-17.3992338],[-66.1553036,-17.3992471],[-66.1553477,-17.3992567],[-66.156378,-17.399481],[-66.1564374,-17.3994887],[-66.1564991,-17.3994953],[-66.1567559,-17.3994948],[-66.1569636,-17.399463],[-66.1571541,-17.3994401],[-66.1575712,-17.3993743],[-66.1576356,-17.3993655],[-66.157638,-17.3993118],[-66.1576443,-17.3992052],[-66.1576879,-17.3989051],[-66.1578716,-17.3978437],[-66.1578813,-17.3977786],[-66.1578893,-17.39773],[-66.1580315,-17.3967547],[-66.1580388,-17.3967006],[-66.1580448,-17.3966561],[-66.1581681,-17.3958044],[-66.1581878,-17.3956991],[-66.1581946,-17.3956551],[-66.1582007,-17.3956153],[-66.1583705,-17.3946561],[-66.1583789,-17.3946085],[-66.1583955,-17.3945259],[-66.1585778,-17.3936167],[-66.1585844,-17.3935676],[-66.1585979,-17.3934997],[-66.1587574,-17.3926949],[-66.1587699,-17.3926319],[-66.1587863,-17.3925424],[-66.1587963,-17.3924909],[-66.1590109,-17.3915018],[-66.1590212,-17.3914589],[-66.15903,-17.3913971],[-66.1590921,-17.3910664],[-66.1591597,-17.3907499],[-66.159212,-17.3904938],[-66.1592215,-17.3904435],[-66.1592319,-17.3903878],[-66.1592972,-17.390026],[-66.1593538,-17.3897118],[-66.1593767,-17.389585],[-66.1594141,-17.3893848],[-66.1594248,-17.3893303],[-66.1594381,-17.3892731],[-66.1595045,-17.3889593],[-66.1595438,-17.3887739],[-66.1595597,-17.3887023],[-66.1596289,-17.388391],[-66.1596533,-17.3882855],[-66.159665,-17.3882378],[-66.1596699,-17.3882185],[-66.1598506,-17.3873411],[-66.1598618,-17.3872827],[-66.1599769,-17.3866825],[-66.1600755,-17.386168],[-66.1600869,-17.3861089],[-66.1600949,-17.3860628],[-66.1601659,-17.3856534],[-66.16018,-17.3855719],[-66.1602426,-17.3852112],[-66.1602719,-17.3850427],[-66.1603,-17.3848807],[-66.1603909,-17.3843568],[-66.1603977,-17.3843175],[-66.1604492,-17.3840424],[-66.160463,-17.3839763],[-66.1605182,-17.3836826],[-66.1606066,-17.3832271],[-66.160622,-17.3831615],[-66.1607113,-17.382727],[-66.1607725,-17.3823996],[-66.1607845,-17.3823264],[-66.1607744,-17.3822598],[-66.1607473,-17.3821879],[-66.160705,-17.3821268],[-66.1606319,-17.3820712],[-66.1605166,-17.3820253],[-66.1604059,-17.3819879],[-66.1602108,-17.3818713],[-66.1598161,-17.3817462],[-66.1595741,-17.3817104],[-66.1595066,-17.3816896],[-66.1594402,-17.3816764],[-66.1593712,-17.3816811],[-66.1593201,-17.3816954],[-66.1592694,-17.3817299],[-66.1592392,-17.3817763],[-66.1592254,-17.3818243],[-66.1592311,-17.38188],[-66.1592517,-17.3819246],[-66.1592884,-17.3819735],[-66.1593421,-17.3820105],[-66.1594022,-17.3820269],[-66.159427,-17.3820278],[-66.1594817,-17.3820223],[-66.1596272,-17.3819706],[-66.1597232,-17.3819275],[-66.1598062,-17.3818803],[-66.1598638,-17.3818466],[-66.159926,-17.3817855],[-66.1599741,-17.3817115],[-66.159998,-17.3816544],[-66.1600073,-17.3816254],[-66.1601037,-17.3812656],[-66.1601133,-17.3812309],[-66.1601178,-17.3811615],[-66.1601128,-17.3811056],[-66.1601035,-17.3810518],[-66.1600813,-17.3809733],[-66.1600548,-17.3809214],[-66.1600361,-17.3808931],[-66.1600223,-17.3808623],[-66.1600111,-17.3808052],[-66.1600168,-17.3807474],[-66.1600388,-17.3806932],[-66.1600756,-17.380647],[-66.1601112,-17.3806216],[-66.1601655,-17.3805937],[-66.1601869,-17.3805898],[-66.1602277,-17.3805422],[-66.1602599,-17.3804889],[-66.1602876,-17.3804147],[-66.1608144,-17.3785742],[-66.1609201,-17.3782283],[-66.1609406,-17.3781611],[-66.1609747,-17.3780494],[-66.1609998,-17.3779672],[-66.1610576,-17.3777775],[-66.1612505,-17.3771007],[-66.1614243,-17.3764909],[-66.1614492,-17.3764034],[-66.1614576,-17.3763741],[-66.1614659,-17.3763447],[-66.1616016,-17.3758853],[-66.161744,-17.375403],[-66.1617754,-17.3753027],[-66.1618738,-17.3749718],[-66.162376,-17.3732441],[-66.1625097,-17.372788],[-66.1625567,-17.3726271],[-66.1625774,-17.372555],[-66.1626071,-17.3724567],[-66.1626292,-17.3723835],[-66.1626343,-17.3723663],[-66.1627158,-17.3720927],[-66.1627454,-17.3719933],[-66.1628553,-17.3716246],[-66.1628621,-17.3716016],[-66.1628915,-17.3714879],[-66.1631781,-17.3705052],[-66.1632094,-17.3704008],[-66.1633356,-17.3699664],[-66.1633689,-17.3698518],[-66.1636433,-17.3689071],[-66.1636559,-17.3688388],[-66.1636518,-17.3687697],[-66.1636417,-17.3687147],[-66.1636207,-17.3686586],[-66.1636078,-17.3686001],[-66.1636028,-17.3685113],[-66.1636151,-17.3684233],[-66.1636442,-17.3683389],[-66.1636896,-17.3682614],[-66.1637375,-17.3682079],[-66.1637895,-17.3681736],[-66.1638415,-17.3681584],[-66.1638805,-17.3681554],[-66.1639936,-17.3681212],[-66.1640942,-17.3680622],[-66.164177,-17.3679938],[-66.1642023,-17.3679729],[-66.1651125,-17.3673184],[-66.1658235,-17.3667957],[-66.1660401,-17.3666463],[-66.1660671,-17.3666268],[-66.1663293,-17.3664487],[-66.166434,-17.3663637],[-66.1665827,-17.3662605],[-66.1668428,-17.366107],[-66.1669031,-17.3660714],[-66.1669827,-17.3660252],[-66.1673397,-17.3658179],[-66.1674509,-17.365765],[-66.1675011,-17.3657417],[-66.1675682,-17.365717],[-66.167662,-17.3656881],[-66.1677365,-17.3656771],[-66.1678243,-17.3656696],[-66.1679043,-17.3656692],[-66.1679304,-17.365669],[-66.1682856,-17.365691],[-66.1686444,-17.3657132],[-66.168659,-17.3657141],[-66.1687637,-17.3657241],[-66.1689348,-17.365752],[-66.1690859,-17.3657939],[-66.1693702,-17.3658885],[-66.1694386,-17.3659131],[-66.169609,-17.3659644],[-66.1697528,-17.3659925],[-66.169909,-17.3660121],[-66.1700616,-17.3660213],[-66.1701729,-17.3660215],[-66.1703002,-17.3660114],[-66.1704414,-17.3659877],[-66.1705773,-17.365955],[-66.1709223,-17.3658631],[-66.1710792,-17.3658148],[-66.1711219,-17.365802],[-66.1712786,-17.3657653],[-66.1713719,-17.3657523],[-66.1715675,-17.36574],[-66.1715761,-17.3657397],[-66.171789,-17.3657317],[-66.1718551,-17.3657274],[-66.1732356,-17.3656363],[-66.1733184,-17.3656328],[-66.1735725,-17.3656113],[-66.1747878,-17.3655403],[-66.1748689,-17.3655254],[-66.1749569,-17.3654992],[-66.1751362,-17.3654422],[-66.175967,-17.3651891],[-66.175859,-17.3648412],[-66.1758156,-17.3646947],[-66.1758137,-17.3646547],[-66.1758233,-17.3646201],[-66.1762064,-17.3639992],[-66.1762304,-17.3639604],[-66.1764795,-17.3635627],[-66.1768399,-17.3630021],[-66.1771597,-17.3624704],[-66.1769981,-17.3623796],[-66.1763915,-17.3620389],[-66.1756183,-17.361585],[-66.1748352,-17.3611429],[-66.174545,-17.3609725],[-66.1744704,-17.3609334],[-66.174361,-17.3608625],[-66.1742935,-17.3608001],[-66.1742465,-17.3607274],[-66.1740554,-17.3603439],[-66.1736682,-17.3595636],[-66.1725032,-17.3601139],[-66.1724057,-17.3601599],[-66.1722483,-17.3596429],[-66.1722067,-17.3595263],[-66.1721754,-17.3594661],[-66.1721035,-17.3593714],[-66.1720646,-17.3593207],[-66.1719952,-17.3592436],[-66.1722036,-17.3591403],[-66.1722477,-17.3591173],[-66.1732131,-17.3586686],[-66.1729013,-17.3580553],[-66.1727467,-17.3577367],[-66.1725406,-17.3573526],[-66.1722904,-17.356859],[-66.1720554,-17.3564013],[-66.1718169,-17.3559746],[-66.1716232,-17.3556355],[-66.1712909,-17.3551239],[-66.1708364,-17.3553776],[-66.1704599,-17.3555919],[-66.1702199,-17.3557171],[-66.1700102,-17.3553148],[-66.1699798,-17.3552506],[-66.1697803,-17.3548246],[-66.1695537,-17.3543497],[-66.1694812,-17.3542158],[-66.1693348,-17.3539039],[-66.1690981,-17.3534289],[-66.1689418,-17.3531153],[-66.1688893,-17.3530101],[-66.1686528,-17.3525357],[-66.1684467,-17.3521221],[-66.1683236,-17.3518946],[-66.16803,-17.3513205],[-66.1677748,-17.3508002],[-66.1677559,-17.3507191],[-66.1687118,-17.3507768],[-66.1687783,-17.3507798],[-66.1690628,-17.3507655],[-66.1692099,-17.3507309],[-66.1693572,-17.350678],[-66.1696343,-17.3505544],[-66.1699453,-17.3503908],[-66.1703568,-17.350123],[-66.1707928,-17.3498114],[-66.1713614,-17.3494157],[-66.1707023,-17.348527],[-66.1699983,-17.3475988],[-66.1699797,-17.3475743],[-66.169618,-17.347097],[-66.1691099,-17.346404],[-66.1685318,-17.3467809],[-66.1681151,-17.3470824],[-66.1678005,-17.3472904],[-66.167705,-17.3471488],[-66.1676132,-17.3471925],[-66.1675077,-17.3471817],[-66.1674196,-17.347183],[-66.1668037,-17.3475116],[-66.166467,-17.3469567],[-66.166344,-17.3467589],[-66.1661588,-17.3464235],[-66.1661554,-17.3464178],[-66.1659818,-17.3461133],[-66.1658375,-17.3458746],[-66.1658272,-17.3458575],[-66.1657242,-17.3456832],[-66.165615,-17.3454989],[-66.1655706,-17.3454179],[-66.1655218,-17.3453414]],"nodes":[3017389908,1638809408,1638809387,3307354197,1638809338,1638809325,1638809323,8290039277,1638809297,1638809287,2022073882,1638809254,1638809251,1638807801,1638809225,1865124216,1865124258,1865124219,1865124287,1865124218,1638809222,1638809217,3305037819,3305037818,3305037802,497188710,3305037801,497188712,3305037799,9203537855,1762869449,11114874874,497187806,497188701,1762869439,497188704,3304759247,3304759237,3304759233,9203537627,13448698827,3304759228,3304759225,9438085223,3304759217,2716726816,2716726813,10830635450,1762869310,12100007983,2716726817,1497947919,2149916022,497187093,9435146973,1497947903,6558443842,2766300884,9131107981,3709607004,3709607002,5433895286,3709606976,11270427063,4770480910,3709606994,11722101401,5433895288,3709606955,9435142311,3017385048,9599936947,9599936935,5610210467,5610210466,5610210481,9139129393,5610210486,9131108111,9131108110,5610210482,5610210483,5610210485,5610210512,702511599,843383892,702511670,702511660,702511697,8236165731,2765190485,702511759,6129316876,6129316829,6471478536,5313058809,5313058790,6471287448,6471287453,6471287450,5313058818,5313058738,5313058812,5313058814,5313058816,6471287464,308300568,308300567,308300566,308300474,308300473,8238783213,648548911,3269819960,12081159183,1727306400,12081159182,3674274541,1727306404,3674274542,12081159193,1727306401,2398944652,2398944653,11679558744,7767900404,4929965568,1727306403,2398944628,10044108858,310262704,3674274538,310262706,3674274535,2398944607,310262707,2398944603,9294229521,2331302376,310262958,2331302372,9567239716,310262960,9567239715,3674274532,310262961,3674274530,2295541623,698492385,308297344,2295541608,2295541571,308304266,2295541567,10770094639,10770094652,2295541565,310263603,2295541559,10817239518,10817239514,10817208073,2295541499,310263604,2295541482,10817208102,9339527214,10817208098,9566992879,310263795,310263856,9566992878,310263858,3674260521,9339528759,11105974895,3232582105,11105974897,11917330433,8527430219,11917330449,11069694906,9141014768,310263912,2312198396,310272906,2312198368,8147707646,2312198325,2312198317,315119721,315119722,315119841,315119842,2312198127,315119843,2312198097,315119844,2312198065,315119406,315119846,315119847,315119874,315119848,315123406,315119849,315123408,315119850,315123410,315119851,315123409,315119852,315123475,315119853,4666566356,315119854,315123146,315122907,2312198016,315125530,2296580912,8362746231,8362746233,1636934218,315122913,8356393897,2296580888,9898424957,2296580875,2745674358,2296580843,8356437267,2296580828,2296580810,8356437268,2296580800,2296580788,9813506406,2296580780,6806428790,9813506405,2296580759,391739972,9309922476,2296580498,10744627742,1722458959,2296580492,566526651,8267964015,11997826503,11082324527,11997866377,9797631613,8587381077,8587411319,1727306394,2896380345,9731395626,9731395681,2287827759,599541187,391739983,2287827716,10705908995,12509888271,12509888269,12509888236,9021398248,1859310257,2163957001,6534497616,12509911116,12509911124,391740307,598151868,2673712838,2331302157,2331302147,2331302132,9655177097,2331302125,2331302112,2331302102,2331302081,12663240703,9003433498,2331302079,2331302076,811023196,11079440647,3674260514,811023276,9875778079,4929965581,9482805153,811023452,9875778087,9875778123,9875778125,845125561,9875778105,3275133581,9482805149,9875772997,391740546,3275133571,9482805150,391740547,9875773004,3275133569,9948774393,9875778020,9482805141,391740550,3275133577,391740920,391740921,9845867332,2851923700,9482805078,391740923,2851923902,9768692258,391740925,9768692257,2851923901,9713079597,11076326290,391740945,2331301977,8570204297,10774545011,391740927,811023211,10774545006,2331301965,845125648,811023436,1849463007,1849463006,391740928,391740948,851594708,851594835,851594813,3276962165,1849463002,9042159675,811023209,851595306,851594730,851595021,2317755876,851595430,851595284,851594720,3276961937,2869785487,2318771994,3276961933,851594778,851595088,851594721,851595002,851595359,8577142297,3709437884,3260875585,8577142298,3709437878,3709437876,8577144587,3959051140,1579041441,1860890511,1579041332,2138955266,2020099089,2138955272,1579040708,2318865904,2020099087,2138955250,2548560973,914202128,1753419956,2138962701,1860872515,2138962711,1753419942,1860872501,3278649346,914202129,1753419977,3278649332,1860872472,914202063,914202125,1862351167,914202130,3278552136,5147755683,914202010,5147755682,3278552125,3278552114,1860872480,1753419926,1753419931,3278552067,2317720991,914202133,8914765911,8914765909,2317720982,8112565535,2317720989,2588501785,11930153974,11930153973,11930153972,1860872520,3278552000,2317720988,1860872456,2317720981,8112565537,3278551941,11930143166,2317720978,9179542427,5147913641,2317720974,1579040891]},"gtfs":{"agency_id":7,"route_id":97,"services":[{"service_id":"Mo-Su","startTime":"06:00","endTime":"22:00","trip_id":10716534}],"filteredStops":{"nodes":[3017389908,1638809408,1638809387,3307354197,1638809338,1638809325,1638809323,8290039277,1638809297,1638809287,2022073882,1638809254,1638809251,1638807801,1638809225,1865124216,1865124258,1865124219,1865124287,1865124218,1638809222,1638809217,3305037819,3305037818,3305037802,497188710,3305037801,497188712,3305037799,9203537855,1762869449,11114874874,497187806,497188701,1762869439,497188704,3304759247,3304759237,3304759233,9203537627,13448698827,3304759228,3304759225,9438085223,3304759217,2716726816,2716726813,10830635450,1762869310,12100007983,2716726817,1497947919,2149916022,497187093,9435146973,1497947903,6558443842,2766300884,9131107981,3709607004,3709607002,5433895286,3709606976,11270427063,4770480910,3709606994,11722101401,5433895288,3709606955,9435142311,3017385048,9599936947,9599936935,5610210467,5610210466,5610210481,9139129393,5610210486,9131108111,9131108110,5610210482,5610210483,5610210485,5610210512,702511599,843383892,702511670,702511660,702511697,8236165731,2765190485,702511759,6129316876,6129316829,6471478536,5313058809,5313058790,6471287448,6471287453,6471287450,5313058818,5313058738,5313058812,5313058814,5313058816,6471287464,308300568,308300567,308300566,308300474,308300473,8238783213,648548911,3269819960,12081159183,1727306400,12081159182,3674274541,1727306404,3674274542,12081159193,1727306401,2398944652,2398944653,11679558744,7767900404,4929965568,1727306403,2398944628,10044108858,310262704,3674274538,310262706,3674274535,2398944607,310262707,2398944603,9294229521,2331302376,310262958,2331302372,9567239716,310262960,9567239715,3674274532,310262961,3674274530,2295541623,698492385,308297344,2295541608,2295541571,308304266,2295541567,10770094639,10770094652,2295541565,310263603,2295541559,10817239518,10817239514,10817208073,2295541499,310263604,2295541482,10817208102,9339527214,10817208098,9566992879,310263795,310263856,9566992878,310263858,3674260521,9339528759,11105974895,3232582105,11105974897,11917330433,8527430219,11917330449,11069694906,9141014768,310263912,2312198396,310272906,2312198368,8147707646,2312198325,2312198317,315119721,315119722,315119841,315119842,2312198127,315119843,2312198097,315119844,2312198065,315119406,315119846,315119847,315119874,315119848,315123406,315119849,315123408,315119850,315123410,315119851,315123409,315119852,315123475,315119853,4666566356,315119854,315123146,315122907,2312198016,315125530,2296580912,8362746231,8362746233,1636934218,315122913,8356393897,2296580888,9898424957,2296580875,2745674358,2296580843,8356437267,2296580828,2296580810,8356437268,2296580800,2296580788,9813506406,2296580780,6806428790,9813506405,2296580759,391739972,9309922476,2296580498,10744627742,1722458959,2296580492,566526651,8267964015,11997826503,11082324527,11997866377,9797631613,8587381077,8587411319,1727306394,2896380345,9731395626,9731395681,2287827759,599541187,391739983,2287827716,10705908995,12509888271,12509888269,12509888236,9021398248,1859310257,2163957001,6534497616,12509911116,12509911124,391740307,598151868,2673712838,2331302157,2331302147,2331302132,9655177097,2331302125,2331302112,2331302102,2331302081,12663240703,9003433498,2331302079,2331302076,811023196,11079440647,3674260514,811023276,9875778079,4929965581,9482805153,811023452,9875778087,9875778123,9875778125,845125561,9875778105,3275133581,9482805149,9875772997,391740546,3275133571,9482805150,391740547,9875773004,3275133569,9948774393,9875778020,9482805141,391740550,3275133577,391740920,391740921,9845867332,2851923700,9482805078,391740923,2851923902,9768692258,391740925,9768692257,2851923901,9713079597,11076326290,391740945,2331301977,8570204297,10774545011,391740927,811023211,10774545006,2331301965,845125648,811023436,1849463007,1849463006,391740928,391740948,851594708,851594835,851594813,3276962165,1849463002,9042159675,811023209,851595306,851594730,851595021,2317755876,851595430,851595284,851594720,3276961937,2869785487,2318771994,3276961933,851594778,851595088,851594721,851595002,851595359,8577142297,3709437884,3260875585,8577142298,3709437878,3709437876,8577144587,3959051140,1579041441,1860890511,1579041332,2138955266,2020099089,2138955272,1579040708,2318865904,2020099087,2138955250,2548560973,914202128,1753419956,2138962701,1860872515,2138962711,1753419942,1860872501,3278649346,914202129,1753419977,3278649332,1860872472,914202063,914202125,1862351167,914202130,3278552136,5147755683,914202010,5147755682,3278552125,3278552114,1860872480,1753419926,1753419931,3278552067,2317720991,914202133,8914765911,8914765909,2317720982,8112565535,2317720989,2588501785,11930153974,11930153973,11930153972,1860872520,3278552000,2317720988,1860872456,2317720981,8112565537,3278551941,11930143166,2317720978,9179542427,5147913641,2317720974,1579040891],"coordinates":[[-66.1624756,-17.4271195],[-66.1622893,-17.4271075],[-66.1623014,-17.4268572],[-66.1623558,-17.4259032],[-66.1623588,-17.4258449],[-66.1624136,-17.4246929],[-66.161906,-17.4246661],[-66.1619392,-17.4238052],[-66.161964,-17.4237067],[-66.1619803,-17.4236106],[-66.1619876,-17.4227793],[-66.1620297,-17.4223308],[-66.1619719,-17.4222361],[-66.1616579,-17.4217595],[-66.1615291,-17.4214535],[-66.1614886,-17.4210585],[-66.1614406,-17.4203342],[-66.1613724,-17.4196074],[-66.1613164,-17.4188853],[-66.1612691,-17.418171],[-66.161192,-17.4174338],[-66.160809,-17.4171887],[-66.1607782,-17.4171686],[-66.1607541,-17.4171527],[-66.1616303,-17.4161124],[-66.1617621,-17.415942],[-66.1618409,-17.4158054],[-66.1618948,-17.4156745],[-66.1619293,-17.4155612],[-66.1619455,-17.4154748],[-66.1619546,-17.4154263],[-66.1619881,-17.415246],[-66.1619791,-17.4151976],[-66.1618973,-17.4149838],[-66.1618323,-17.4148304],[-66.1617563,-17.4146787],[-66.1616823,-17.4145765],[-66.1615955,-17.4144804],[-66.1614895,-17.4143953],[-66.161244,-17.4142059],[-66.1610928,-17.4140892],[-66.1609482,-17.4139775],[-66.1606325,-17.41372],[-66.1597972,-17.4130808],[-66.1597529,-17.4130573],[-66.1597139,-17.4130428],[-66.1596098,-17.4130042],[-66.1595691,-17.4130072],[-66.1594438,-17.4130666],[-66.1588006,-17.4132539],[-66.1587703,-17.4132627],[-66.1587125,-17.4132767],[-66.1586016,-17.4133033],[-66.1585485,-17.4133166],[-66.1580371,-17.4133866],[-66.1576174,-17.4134432],[-66.1573529,-17.4134749],[-66.1568717,-17.4135363],[-66.1567795,-17.4135392],[-66.156677,-17.4135223],[-66.1564599,-17.4134745],[-66.1562041,-17.4134241],[-66.1559132,-17.4133788],[-66.1557916,-17.4133586],[-66.1557552,-17.4133531],[-66.1556071,-17.4133243],[-66.1555752,-17.413315],[-66.1555265,-17.4133009],[-66.1554401,-17.4132586],[-66.1553389,-17.4132028],[-66.1550519,-17.4130447],[-66.1550281,-17.4130325],[-66.1548024,-17.4129164],[-66.1546499,-17.4128352],[-66.1539535,-17.4124837],[-66.1537674,-17.4123862],[-66.1536436,-17.4122825],[-66.1535673,-17.4121917],[-66.1535467,-17.4121411],[-66.1535373,-17.4121042],[-66.1535104,-17.411993],[-66.1535029,-17.4119093],[-66.1534726,-17.4104835],[-66.1534922,-17.4102744],[-66.153473,-17.4098585],[-66.1534302,-17.408289],[-66.1534037,-17.4075486],[-66.1533921,-17.4070536],[-66.1533606,-17.4061008],[-66.1533348,-17.4052833],[-66.153324,-17.4048628],[-66.1533227,-17.4048012],[-66.1532959,-17.4036075],[-66.1532969,-17.4035424],[-66.1532934,-17.4032094],[-66.1533194,-17.4031272],[-66.1533196,-17.4030749],[-66.1533203,-17.4029579],[-66.15332,-17.4028781],[-66.1533197,-17.4028096],[-66.1533193,-17.402737],[-66.1533222,-17.4026581],[-66.1533227,-17.4025723],[-66.1533255,-17.4025012],[-66.1533234,-17.4024287],[-66.1533238,-17.4023639],[-66.1533031,-17.4023036],[-66.1532722,-17.4014247],[-66.15325,-17.4007249],[-66.1532266,-17.3999032],[-66.1531973,-17.3991016],[-66.1531921,-17.398998],[-66.1531927,-17.3988455],[-66.1531945,-17.3987646],[-66.15417,-17.39898],[-66.1542283,-17.3989929],[-66.1542956,-17.3990088],[-66.1552473,-17.3992338],[-66.1553036,-17.3992471],[-66.1553477,-17.3992567],[-66.156378,-17.399481],[-66.1564374,-17.3994887],[-66.1564991,-17.3994953],[-66.1567559,-17.3994948],[-66.1569636,-17.399463],[-66.1571541,-17.3994401],[-66.1575712,-17.3993743],[-66.1576356,-17.3993655],[-66.157638,-17.3993118],[-66.1576443,-17.3992052],[-66.1576879,-17.3989051],[-66.1578716,-17.3978437],[-66.1578813,-17.3977786],[-66.1578893,-17.39773],[-66.1580315,-17.3967547],[-66.1580388,-17.3967006],[-66.1580448,-17.3966561],[-66.1581681,-17.3958044],[-66.1581878,-17.3956991],[-66.1581946,-17.3956551],[-66.1582007,-17.3956153],[-66.1583705,-17.3946561],[-66.1583789,-17.3946085],[-66.1583955,-17.3945259],[-66.1585778,-17.3936167],[-66.1585844,-17.3935676],[-66.1585979,-17.3934997],[-66.1587574,-17.3926949],[-66.1587699,-17.3926319],[-66.1587863,-17.3925424],[-66.1587963,-17.3924909],[-66.1590109,-17.3915018],[-66.1590212,-17.3914589],[-66.15903,-17.3913971],[-66.1590921,-17.3910664],[-66.1591597,-17.3907499],[-66.159212,-17.3904938],[-66.1592215,-17.3904435],[-66.1592319,-17.3903878],[-66.1592972,-17.390026],[-66.1593538,-17.3897118],[-66.1593767,-17.389585],[-66.1594141,-17.3893848],[-66.1594248,-17.3893303],[-66.1594381,-17.3892731],[-66.1595045,-17.3889593],[-66.1595438,-17.3887739],[-66.1595597,-17.3887023],[-66.1596289,-17.388391],[-66.1596533,-17.3882855],[-66.159665,-17.3882378],[-66.1596699,-17.3882185],[-66.1598506,-17.3873411],[-66.1598618,-17.3872827],[-66.1599769,-17.3866825],[-66.1600755,-17.386168],[-66.1600869,-17.3861089],[-66.1600949,-17.3860628],[-66.1601659,-17.3856534],[-66.16018,-17.3855719],[-66.1602426,-17.3852112],[-66.1602719,-17.3850427],[-66.1603,-17.3848807],[-66.1603909,-17.3843568],[-66.1603977,-17.3843175],[-66.1604492,-17.3840424],[-66.160463,-17.3839763],[-66.1605182,-17.3836826],[-66.1606066,-17.3832271],[-66.160622,-17.3831615],[-66.1607113,-17.382727],[-66.1607725,-17.3823996],[-66.1607845,-17.3823264],[-66.1607744,-17.3822598],[-66.1607473,-17.3821879],[-66.160705,-17.3821268],[-66.1606319,-17.3820712],[-66.1605166,-17.3820253],[-66.1604059,-17.3819879],[-66.1602108,-17.3818713],[-66.1598161,-17.3817462],[-66.1595741,-17.3817104],[-66.1595066,-17.3816896],[-66.1594402,-17.3816764],[-66.1593712,-17.3816811],[-66.1593201,-17.3816954],[-66.1592694,-17.3817299],[-66.1592392,-17.3817763],[-66.1592254,-17.3818243],[-66.1592311,-17.38188],[-66.1592517,-17.3819246],[-66.1592884,-17.3819735],[-66.1593421,-17.3820105],[-66.1594022,-17.3820269],[-66.159427,-17.3820278],[-66.1594817,-17.3820223],[-66.1596272,-17.3819706],[-66.1597232,-17.3819275],[-66.1598062,-17.3818803],[-66.1598638,-17.3818466],[-66.159926,-17.3817855],[-66.1599741,-17.3817115],[-66.159998,-17.3816544],[-66.1600073,-17.3816254],[-66.1601037,-17.3812656],[-66.1601133,-17.3812309],[-66.1601178,-17.3811615],[-66.1601128,-17.3811056],[-66.1601035,-17.3810518],[-66.1600813,-17.3809733],[-66.1600548,-17.3809214],[-66.1600361,-17.3808931],[-66.1600223,-17.3808623],[-66.1600111,-17.3808052],[-66.1600168,-17.3807474],[-66.1600388,-17.3806932],[-66.1600756,-17.380647],[-66.1601112,-17.3806216],[-66.1601655,-17.3805937],[-66.1601869,-17.3805898],[-66.1602277,-17.3805422],[-66.1602599,-17.3804889],[-66.1602876,-17.3804147],[-66.1608144,-17.3785742],[-66.1609201,-17.3782283],[-66.1609406,-17.3781611],[-66.1609747,-17.3780494],[-66.1609998,-17.3779672],[-66.1610576,-17.3777775],[-66.1612505,-17.3771007],[-66.1614243,-17.3764909],[-66.1614492,-17.3764034],[-66.1614576,-17.3763741],[-66.1614659,-17.3763447],[-66.1616016,-17.3758853],[-66.161744,-17.375403],[-66.1617754,-17.3753027],[-66.1618738,-17.3749718],[-66.162376,-17.3732441],[-66.1625097,-17.372788],[-66.1625567,-17.3726271],[-66.1625774,-17.372555],[-66.1626071,-17.3724567],[-66.1626292,-17.3723835],[-66.1626343,-17.3723663],[-66.1627158,-17.3720927],[-66.1627454,-17.3719933],[-66.1628553,-17.3716246],[-66.1628621,-17.3716016],[-66.1628915,-17.3714879],[-66.1631781,-17.3705052],[-66.1632094,-17.3704008],[-66.1633356,-17.3699664],[-66.1633689,-17.3698518],[-66.1636433,-17.3689071],[-66.1636559,-17.3688388],[-66.1636518,-17.3687697],[-66.1636417,-17.3687147],[-66.1636207,-17.3686586],[-66.1636078,-17.3686001],[-66.1636028,-17.3685113],[-66.1636151,-17.3684233],[-66.1636442,-17.3683389],[-66.1636896,-17.3682614],[-66.1637375,-17.3682079],[-66.1637895,-17.3681736],[-66.1638415,-17.3681584],[-66.1638805,-17.3681554],[-66.1639936,-17.3681212],[-66.1640942,-17.3680622],[-66.164177,-17.3679938],[-66.1642023,-17.3679729],[-66.1651125,-17.3673184],[-66.1658235,-17.3667957],[-66.1660401,-17.3666463],[-66.1660671,-17.3666268],[-66.1663293,-17.3664487],[-66.166434,-17.3663637],[-66.1665827,-17.3662605],[-66.1668428,-17.366107],[-66.1669031,-17.3660714],[-66.1669827,-17.3660252],[-66.1673397,-17.3658179],[-66.1674509,-17.365765],[-66.1675011,-17.3657417],[-66.1675682,-17.365717],[-66.167662,-17.3656881],[-66.1677365,-17.3656771],[-66.1678243,-17.3656696],[-66.1679043,-17.3656692],[-66.1679304,-17.365669],[-66.1682856,-17.365691],[-66.1686444,-17.3657132],[-66.168659,-17.3657141],[-66.1687637,-17.3657241],[-66.1689348,-17.365752],[-66.1690859,-17.3657939],[-66.1693702,-17.3658885],[-66.1694386,-17.3659131],[-66.169609,-17.3659644],[-66.1697528,-17.3659925],[-66.169909,-17.3660121],[-66.1700616,-17.3660213],[-66.1701729,-17.3660215],[-66.1703002,-17.3660114],[-66.1704414,-17.3659877],[-66.1705773,-17.365955],[-66.1709223,-17.3658631],[-66.1710792,-17.3658148],[-66.1711219,-17.365802],[-66.1712786,-17.3657653],[-66.1713719,-17.3657523],[-66.1715675,-17.36574],[-66.1715761,-17.3657397],[-66.171789,-17.3657317],[-66.1718551,-17.3657274],[-66.1732356,-17.3656363],[-66.1733184,-17.3656328],[-66.1735725,-17.3656113],[-66.1747878,-17.3655403],[-66.1748689,-17.3655254],[-66.1749569,-17.3654992],[-66.1751362,-17.3654422],[-66.175967,-17.3651891],[-66.175859,-17.3648412],[-66.1758156,-17.3646947],[-66.1758137,-17.3646547],[-66.1758233,-17.3646201],[-66.1762064,-17.3639992],[-66.1762304,-17.3639604],[-66.1764795,-17.3635627],[-66.1768399,-17.3630021],[-66.1771597,-17.3624704],[-66.1769981,-17.3623796],[-66.1763915,-17.3620389],[-66.1756183,-17.361585],[-66.1748352,-17.3611429],[-66.174545,-17.3609725],[-66.1744704,-17.3609334],[-66.174361,-17.3608625],[-66.1742935,-17.3608001],[-66.1742465,-17.3607274],[-66.1740554,-17.3603439],[-66.1736682,-17.3595636],[-66.1725032,-17.3601139],[-66.1724057,-17.3601599],[-66.1722483,-17.3596429],[-66.1722067,-17.3595263],[-66.1721754,-17.3594661],[-66.1721035,-17.3593714],[-66.1720646,-17.3593207],[-66.1719952,-17.3592436],[-66.1722036,-17.3591403],[-66.1722477,-17.3591173],[-66.1732131,-17.3586686],[-66.1729013,-17.3580553],[-66.1727467,-17.3577367],[-66.1725406,-17.3573526],[-66.1722904,-17.356859],[-66.1720554,-17.3564013],[-66.1718169,-17.3559746],[-66.1716232,-17.3556355],[-66.1712909,-17.3551239],[-66.1708364,-17.3553776],[-66.1704599,-17.3555919],[-66.1702199,-17.3557171],[-66.1700102,-17.3553148],[-66.1699798,-17.3552506],[-66.1697803,-17.3548246],[-66.1695537,-17.3543497],[-66.1694812,-17.3542158],[-66.1693348,-17.3539039],[-66.1690981,-17.3534289],[-66.1689418,-17.3531153],[-66.1688893,-17.3530101],[-66.1686528,-17.3525357],[-66.1684467,-17.3521221],[-66.1683236,-17.3518946],[-66.16803,-17.3513205],[-66.1677748,-17.3508002],[-66.1677559,-17.3507191],[-66.1687118,-17.3507768],[-66.1687783,-17.3507798],[-66.1690628,-17.3507655],[-66.1692099,-17.3507309],[-66.1693572,-17.350678],[-66.1696343,-17.3505544],[-66.1699453,-17.3503908],[-66.1703568,-17.350123],[-66.1707928,-17.3498114],[-66.1713614,-17.3494157],[-66.1707023,-17.348527],[-66.1699983,-17.3475988],[-66.1699797,-17.3475743],[-66.169618,-17.347097],[-66.1691099,-17.346404],[-66.1685318,-17.3467809],[-66.1681151,-17.3470824],[-66.1678005,-17.3472904],[-66.167705,-17.3471488],[-66.1676132,-17.3471925],[-66.1675077,-17.3471817],[-66.1674196,-17.347183],[-66.1668037,-17.3475116],[-66.166467,-17.3469567],[-66.166344,-17.3467589],[-66.1661588,-17.3464235],[-66.1661554,-17.3464178],[-66.1659818,-17.3461133],[-66.1658375,-17.3458746],[-66.1658272,-17.3458575],[-66.1657242,-17.3456832],[-66.165615,-17.3454989],[-66.1655706,-17.3454179],[-66.1655218,-17.3453414]]}}}]}