{"type":"FeatureCollection","features":[{"type":"Feature","properties":{"check_date":"29/12/2025","from":"Calle Alipio Valencia Vega","name":"Trufi 109: Calle Alipio Valencia Vega → 14 de Abril","network":"BO:CB:Cochabamba","on_demand":"yes","operator":"Asociación de taxis y trufis Cosmos","public_transport:version":"2","ref":"109","route":"bus","to":"14 de Abril","type":"route","wheelchair":"no","id":10718967},"geometry":{"type":"LineString","coordinates":[[-66.157571,-17.3504052],[-66.1576225,-17.3505265],[-66.1577189,-17.3507534],[-66.1579294,-17.3513049],[-66.1582294,-17.3520508],[-66.158552,-17.3528367],[-66.1586776,-17.3531227],[-66.1587346,-17.3532526],[-66.1587807,-17.3533576],[-66.1588125,-17.3534274],[-66.1588614,-17.3535348],[-66.1588882,-17.3536028],[-66.1589351,-17.3537193],[-66.1589775,-17.3538071],[-66.1590489,-17.3539561],[-66.1591374,-17.3541741],[-66.1593562,-17.3546848],[-66.1597564,-17.3555791],[-66.1599,-17.355908],[-66.1604551,-17.3555967],[-66.1608214,-17.3554008],[-66.1610369,-17.3559092],[-66.1611653,-17.3562234],[-66.1613092,-17.3565691],[-66.1616877,-17.3574769],[-66.1620724,-17.358423],[-66.1624971,-17.3582636],[-66.1627597,-17.3581651],[-66.1629972,-17.3580839],[-66.1636164,-17.3578563],[-66.1639978,-17.3577096],[-66.1644249,-17.3575469],[-66.1644706,-17.3575294],[-66.1647663,-17.3574163],[-66.1650332,-17.3573138],[-66.1652974,-17.357213],[-66.1653997,-17.357487],[-66.1654714,-17.3577121],[-66.1656111,-17.3581043],[-66.1656415,-17.3581799],[-66.1656549,-17.3582154],[-66.166005,-17.3590574],[-66.1660197,-17.359097],[-66.166386,-17.3599568],[-66.1667576,-17.3608489],[-66.1670389,-17.3614993],[-66.1676602,-17.3630002],[-66.1676804,-17.363049],[-66.1677235,-17.3631489],[-66.1677409,-17.3631909],[-66.1682754,-17.364484],[-66.1683455,-17.3646449],[-66.1683998,-17.3647697],[-66.1684146,-17.3648023],[-66.1684421,-17.364867],[-66.1684812,-17.36497],[-66.1684997,-17.365019],[-66.1685433,-17.3651191],[-66.1687591,-17.3656067],[-66.1687623,-17.3656354],[-66.1687637,-17.3657241],[-66.1689348,-17.365752],[-66.1690859,-17.3657939],[-66.1693702,-17.3658885],[-66.1693403,-17.3659874],[-66.1690477,-17.3658885],[-66.1688934,-17.3658519],[-66.1687179,-17.3658213],[-66.1686355,-17.3658171],[-66.1685651,-17.3658135],[-66.1682722,-17.3657976],[-66.1679002,-17.3657773],[-66.1678124,-17.3657801],[-66.167736,-17.3657875],[-66.16768,-17.365801],[-66.1676156,-17.3658199],[-66.1675492,-17.3658444],[-66.167449,-17.3658858],[-66.1672959,-17.3659658],[-66.1670355,-17.3661164],[-66.1669496,-17.366166],[-66.1668968,-17.3661974],[-66.1666857,-17.366323],[-66.1665063,-17.3664424],[-66.1661295,-17.3667085],[-66.1661032,-17.3667279],[-66.1658913,-17.366882],[-66.1658373,-17.3669237],[-66.1651421,-17.3674257],[-66.1642493,-17.3680575],[-66.1641573,-17.3681314],[-66.1640875,-17.3681998],[-66.1640592,-17.3682405],[-66.1640437,-17.368284],[-66.164057,-17.3683599],[-66.1640552,-17.3684238],[-66.1640528,-17.3684526],[-66.1640391,-17.3685209],[-66.1640145,-17.3685864],[-66.1639797,-17.3686476],[-66.1639354,-17.3687028],[-66.1638826,-17.3687505],[-66.1638262,-17.3688157],[-66.1637969,-17.3688607],[-66.1637566,-17.3689209],[-66.1637339,-17.368975],[-66.1635894,-17.3694995],[-66.1633104,-17.3704268],[-66.1632793,-17.3705342],[-66.1629707,-17.3716013],[-66.1629631,-17.3716275],[-66.1628606,-17.3719817],[-66.1627881,-17.3722325],[-66.1627415,-17.3723846],[-66.1627243,-17.3724486],[-66.1626975,-17.3725484],[-66.1626738,-17.3726282],[-66.1626655,-17.372657],[-66.1626469,-17.3727147],[-66.1624847,-17.3732722],[-66.1623417,-17.3737608],[-66.1619469,-17.3751099],[-66.1619132,-17.3752197],[-66.1618519,-17.3754289],[-66.1618315,-17.3754986],[-66.1615816,-17.3763513],[-66.1615755,-17.3763721],[-66.1615553,-17.3764448],[-66.1615333,-17.3765194],[-66.1613573,-17.3771167],[-66.1611004,-17.3779932],[-66.1610775,-17.3780745],[-66.1610462,-17.3781873],[-66.1610272,-17.3782558],[-66.1609592,-17.3784883],[-66.1609424,-17.3785457],[-66.1608112,-17.3789943],[-66.1607831,-17.3790903],[-66.1607443,-17.3792232],[-66.1604215,-17.3803268],[-66.1603952,-17.3804271],[-66.1603946,-17.380447],[-66.1603903,-17.3805384],[-66.1604026,-17.3806234],[-66.1604292,-17.3807053],[-66.160446,-17.3807533],[-66.1604502,-17.3808037],[-66.1604418,-17.3808536],[-66.1604211,-17.3809001],[-66.1603894,-17.3809406],[-66.1603483,-17.3810263],[-66.1603242,-17.3810949],[-66.1603011,-17.3811631],[-66.1602836,-17.3812089],[-66.1602648,-17.3812714],[-66.1602553,-17.381306],[-66.1601491,-17.3816632],[-66.1601392,-17.381699],[-66.160118,-17.3817783],[-66.1601068,-17.3818443],[-66.1600997,-17.3819171],[-66.1601024,-17.3820084],[-66.160124,-17.3821361],[-66.1601469,-17.3822132],[-66.1601468,-17.3822926],[-66.1601403,-17.382329],[-66.1601337,-17.3823653],[-66.1601052,-17.3824327],[-66.1600491,-17.3824933],[-66.1599485,-17.3825638],[-66.1598111,-17.3826671],[-66.1597435,-17.3827412],[-66.1596513,-17.3828653],[-66.1596135,-17.3829447],[-66.1595022,-17.3830911],[-66.1593386,-17.3833062],[-66.1593007,-17.383356],[-66.1591066,-17.3836114],[-66.1589959,-17.383757],[-66.1588865,-17.3839009],[-66.1588472,-17.3839526],[-66.1588041,-17.3840085],[-66.1587884,-17.3840289],[-66.1586145,-17.3842548],[-66.1584148,-17.384514],[-66.1583937,-17.3845414],[-66.1583738,-17.3845669],[-66.1582879,-17.3846768],[-66.1580811,-17.3849472],[-66.1579708,-17.3850718],[-66.1579598,-17.3850858],[-66.1579524,-17.3853974],[-66.1580032,-17.3854217],[-66.1588951,-17.3858898],[-66.1589327,-17.3859078],[-66.1589792,-17.3859203],[-66.1597242,-17.3860455],[-66.160041,-17.3861009],[-66.1600869,-17.3861089],[-66.1601591,-17.3861214],[-66.1601482,-17.386177],[-66.1600475,-17.3866944],[-66.1599305,-17.3872954],[-66.1599197,-17.3873512],[-66.1597423,-17.3882142],[-66.1597305,-17.3882738],[-66.1597051,-17.388406],[-66.1596438,-17.3887192],[-66.1595902,-17.3889782],[-66.1595262,-17.3892878],[-66.1595142,-17.3893446],[-66.159503,-17.3893996],[-66.1594442,-17.3897264],[-66.1593876,-17.3900413],[-66.1593227,-17.3904021],[-66.159313,-17.3904571],[-66.1593022,-17.390508],[-66.159237,-17.3907866],[-66.1591098,-17.3914114],[-66.1590985,-17.3914702],[-66.159088,-17.3915156],[-66.1589552,-17.3921765],[-66.1588889,-17.3925062],[-66.158879,-17.3925589],[-66.1588624,-17.3926465],[-66.1588503,-17.3927102],[-66.1586938,-17.3935139],[-66.1586779,-17.3935864],[-66.1586694,-17.3936298],[-66.1584851,-17.3945425],[-66.1584685,-17.3946244],[-66.1584596,-17.3946726],[-66.1582846,-17.3956252],[-66.1582776,-17.3956693],[-66.1582695,-17.3957154],[-66.1582518,-17.3958179],[-66.1581359,-17.3966716],[-66.1581304,-17.3967147],[-66.1581237,-17.3967678],[-66.1579692,-17.3977363],[-66.157959,-17.397794],[-66.1579492,-17.3978569],[-66.1577782,-17.3989265],[-66.1576879,-17.3989051],[-66.1565799,-17.3986551],[-66.1562257,-17.3985773],[-66.1554698,-17.39841],[-66.154389,-17.3982226],[-66.1533219,-17.3980641],[-66.1528365,-17.3979895],[-66.1527486,-17.397976],[-66.1523493,-17.3979146],[-66.1522434,-17.3978983],[-66.1511563,-17.3977747],[-66.1500703,-17.3976445],[-66.150021,-17.3976385],[-66.1500136,-17.3976877],[-66.1499487,-17.3984764],[-66.1499407,-17.3985529],[-66.1499065,-17.3990035],[-66.1498494,-17.3998668],[-66.1498455,-17.3999622],[-66.1497827,-17.4000289],[-66.1498026,-17.400102],[-66.1498239,-17.4001805],[-66.1499017,-17.4004668],[-66.1498937,-17.4005316],[-66.1498609,-17.4005847],[-66.149775,-17.4006681],[-66.1494422,-17.4009714],[-66.1493706,-17.4010595],[-66.149319,-17.4011365],[-66.149269,-17.4012475],[-66.1492708,-17.4013042],[-66.1493754,-17.4017517],[-66.1493766,-17.4018376],[-66.1493899,-17.4018833],[-66.1494074,-17.4019461],[-66.1494072,-17.4019767],[-66.1494001,-17.4020081],[-66.1493665,-17.4020731],[-66.149365,-17.4021126],[-66.1493916,-17.4021463],[-66.1494415,-17.4020872],[-66.1495007,-17.4019987],[-66.1495634,-17.4018758],[-66.1496062,-17.4017305],[-66.1496651,-17.4014827],[-66.1496972,-17.4013956],[-66.1497453,-17.4013201],[-66.1497967,-17.401271],[-66.1498751,-17.4012271],[-66.1499571,-17.401217],[-66.1499793,-17.4012193],[-66.1500309,-17.4012248],[-66.1500922,-17.4012466],[-66.1501424,-17.4012804],[-66.1501737,-17.4013168],[-66.1502239,-17.4013965],[-66.1502407,-17.4014466],[-66.1502508,-17.4015292],[-66.1502487,-17.4015792],[-66.1502416,-17.4016655],[-66.1502242,-17.4017332],[-66.1502032,-17.4018011],[-66.1500983,-17.4020873],[-66.1500631,-17.4021549],[-66.1500269,-17.4022327],[-66.1499912,-17.4022929],[-66.1499624,-17.4023414],[-66.1500946,-17.4023836],[-66.1501721,-17.4024063],[-66.1502232,-17.4031543],[-66.1502396,-17.403362],[-66.1503467,-17.4037109],[-66.1503679,-17.4038321],[-66.1503796,-17.4039576],[-66.150363,-17.4040704],[-66.1503278,-17.4041742],[-66.1502746,-17.4042764],[-66.1502065,-17.4043824],[-66.1500244,-17.4046123],[-66.1504894,-17.4049148],[-66.1505845,-17.4049529],[-66.1506665,-17.4049659],[-66.15077,-17.4049601],[-66.1507719,-17.4049484],[-66.1507766,-17.4049374],[-66.1507837,-17.4049277],[-66.1507946,-17.4049188],[-66.1508076,-17.404913],[-66.1508217,-17.4049107],[-66.1508359,-17.4049121],[-66.1508493,-17.4049169],[-66.150857,-17.4049218],[-66.1508636,-17.4049278],[-66.1508695,-17.4049354],[-66.1508738,-17.4049439],[-66.1508769,-17.4049564],[-66.1508767,-17.4049692],[-66.1508731,-17.4049816],[-66.1508664,-17.4049928],[-66.150857,-17.405002],[-66.1508595,-17.405027],[-66.1508603,-17.4050958],[-66.1508022,-17.4076298],[-66.1508067,-17.4084116],[-66.1507991,-17.4087701],[-66.1508148,-17.4093633],[-66.1510285,-17.4114067],[-66.1510873,-17.4118997],[-66.1511538,-17.4123642],[-66.1511946,-17.4126857],[-66.1512648,-17.4132136],[-66.1513371,-17.4138784],[-66.1513709,-17.4140012],[-66.1515422,-17.4154689],[-66.1515476,-17.4155332],[-66.1516367,-17.4163726],[-66.1516634,-17.4165411],[-66.1516744,-17.4166098],[-66.1516945,-17.4166741],[-66.1517309,-17.416735],[-66.1517674,-17.4167894],[-66.1518105,-17.4168418],[-66.1518807,-17.4169377],[-66.1519028,-17.4169632],[-66.1519195,-17.4169922],[-66.15193,-17.4170237],[-66.1519342,-17.4170566],[-66.1519276,-17.4171072],[-66.151906,-17.4171539],[-66.1518712,-17.4172508],[-66.1518586,-17.4172879],[-66.1518292,-17.4174036],[-66.1518057,-17.4175262],[-66.1518,-17.4176977],[-66.1518083,-17.4179208],[-66.1518491,-17.4181743],[-66.1518959,-17.4183445],[-66.1519944,-17.4185447],[-66.1523077,-17.4190842],[-66.1524139,-17.4192688],[-66.1527079,-17.4198248],[-66.1528768,-17.4201687],[-66.153126,-17.4207496],[-66.1533093,-17.421245],[-66.1533668,-17.4214168],[-66.1533796,-17.4214552],[-66.1534399,-17.4216339],[-66.1535235,-17.4218879],[-66.1536098,-17.4222261],[-66.1536372,-17.4223372],[-66.153713,-17.4226951],[-66.1537519,-17.4229168],[-66.1537741,-17.4230437],[-66.1538258,-17.4234032],[-66.1538376,-17.4235541],[-66.1538425,-17.4236404],[-66.153859,-17.4239285],[-66.153884,-17.4242503],[-66.153898,-17.4246525],[-66.1538754,-17.425012],[-66.1538705,-17.4250889],[-66.1538582,-17.4253224],[-66.1538354,-17.4255217],[-66.1537437,-17.4258741],[-66.1535289,-17.4266501],[-66.1534788,-17.4267999],[-66.1534116,-17.4269633],[-66.1532987,-17.4272023],[-66.1531874,-17.4273926],[-66.1530866,-17.4275744],[-66.1529395,-17.4277881],[-66.1527384,-17.4280326],[-66.1524617,-17.4283122],[-66.1516869,-17.4290518],[-66.1515746,-17.4291674],[-66.1514885,-17.4292733],[-66.1514322,-17.4293622],[-66.1514129,-17.4293926],[-66.1513437,-17.4295368],[-66.1512217,-17.4298546],[-66.1511546,-17.4300071],[-66.1511109,-17.4300099],[-66.151071,-17.4300096],[-66.1510429,-17.4299978],[-66.1510168,-17.4299827],[-66.1509967,-17.4299616],[-66.1509693,-17.4299248],[-66.1509445,-17.4298217],[-66.1501012,-17.4292903],[-66.1500648,-17.4293052],[-66.1500428,-17.4293307],[-66.1496365,-17.4290544],[-66.14924,-17.4287768],[-66.148938,-17.428554],[-66.1486892,-17.4283683],[-66.1483032,-17.4280878],[-66.1482574,-17.4280545],[-66.1481008,-17.4279603],[-66.1480506,-17.4279414],[-66.1479908,-17.427919],[-66.1478861,-17.427895],[-66.1477998,-17.4278854],[-66.1476442,-17.4278904],[-66.1475092,-17.4279189],[-66.1474219,-17.427926],[-66.1473243,-17.4279237],[-66.1472331,-17.4278975],[-66.1471512,-17.4278865],[-66.1470237,-17.4278756],[-66.1469518,-17.4278655],[-66.1468203,-17.4278315],[-66.1467187,-17.4278013],[-66.1466081,-17.4277788],[-66.146545,-17.4277833],[-66.1464828,-17.4278179],[-66.1464343,-17.427856],[-66.1464046,-17.4278936],[-66.1463896,-17.4279588],[-66.1463631,-17.4280771],[-66.1463652,-17.428152],[-66.1464129,-17.4282917],[-66.1463997,-17.4285449],[-66.1463924,-17.4287213],[-66.1464123,-17.4290017],[-66.1464582,-17.4294331],[-66.1464634,-17.4295017],[-66.1465091,-17.429674],[-66.1465466,-17.4298531],[-66.1465362,-17.4299251],[-66.1464984,-17.4299913],[-66.1462717,-17.4303002],[-66.1461178,-17.4305224],[-66.1460189,-17.4306476],[-66.1457023,-17.4304268],[-66.1455313,-17.4303298],[-66.1450407,-17.431142],[-66.1449657,-17.4312603],[-66.1449506,-17.4313131],[-66.144961,-17.4313709],[-66.1449831,-17.4314004],[-66.1450301,-17.4314208],[-66.1451007,-17.431436],[-66.1451563,-17.4314502],[-66.145258,-17.4314837],[-66.1453722,-17.4315504],[-66.1454811,-17.4316058],[-66.1456788,-17.4317141],[-66.1457279,-17.431758],[-66.1457432,-17.4318012],[-66.1457388,-17.4318627],[-66.1455955,-17.4323037],[-66.1453986,-17.4328442],[-66.1454027,-17.432897],[-66.1454196,-17.4329405],[-66.1454788,-17.4330186],[-66.1455416,-17.4331582],[-66.1456076,-17.4332739],[-66.1456504,-17.4333934],[-66.14567,-17.4335315],[-66.145711,-17.4336407],[-66.1457247,-17.4337316],[-66.1457464,-17.4338195],[-66.1457694,-17.4339667],[-66.1457688,-17.4340927],[-66.1457632,-17.4342127],[-66.1457477,-17.4343197],[-66.1457217,-17.4344358],[-66.1456998,-17.434507],[-66.1456384,-17.4346139],[-66.1455838,-17.4347568],[-66.14551,-17.4349353],[-66.145475,-17.4350047],[-66.1454262,-17.4350659],[-66.1453162,-17.4352279],[-66.1451897,-17.435387],[-66.1450422,-17.435544],[-66.144988,-17.4356017],[-66.1446715,-17.4358914],[-66.1440991,-17.4362831],[-66.1439741,-17.4363665],[-66.1438887,-17.4364196],[-66.1436998,-17.4365421],[-66.1435299,-17.4366153],[-66.1433246,-17.4367501],[-66.1429282,-17.4369618],[-66.1426966,-17.4370909],[-66.1424114,-17.4372637],[-66.142309,-17.4371843],[-66.1421632,-17.4371099],[-66.1419873,-17.4370419],[-66.1418495,-17.4369691]],"nodes":[7037326619,1579006658,3277948631,1579031569,1579006959,1579006592,11642465656,11642465655,4010507120,1579031126,4010507119,11081999162,3277874177,851595111,6150165663,2886225385,914201922,1579006851,914202008,1579031003,1579031043,1579031497,11625084288,1579031210,1807087119,1579031050,2318865937,1950932432,1579031519,1579031095,1579031425,1391383490,1391383500,9008789861,9008789858,1579031315,2318865932,1579031559,2318865935,3274047675,1391366818,2318865941,1579006661,1579006904,1391388101,1391366821,10765459059,1527822556,811023199,10765459062,811023230,9482805039,10774545061,811023413,1643888252,12205944955,811023445,4449464691,9482805144,9768692259,391740550,3275133577,391740920,391740921,851595381,7304392739,851595065,3275133584,9875778017,851594888,9948774394,2851923697,851595095,9482805148,9875772987,851594793,3275133586,9768692260,9768692261,9875778108,851594812,9875778128,9875778124,2331301984,9482805154,4929965582,9875778078,851594894,851595276,3674260515,2331302074,2331302094,9655177095,2331302104,7436801323,4261955416,11071382475,7436801327,9003433500,2331302139,2331302155,2331302169,4728105068,1726098719,598151876,9021398260,4728105055,2331302188,9655267009,12509888237,5560268904,12509911134,9731395675,2287827715,598151867,599541188,2287827757,10705908990,2287827775,9731395623,11941128474,2538203114,2287827791,8587411318,2370240939,11997866376,9797631610,689437336,11997826500,2296580487,2296580493,598151865,8423552836,2296580502,12409937736,11079100480,11079057399,11079105205,11079057401,598151864,9309922472,2296580751,2296580762,2296580773,2296580797,2296580808,8356437270,2296580827,2296580841,2296580860,2745674359,8356393909,2296580889,8356393896,8356393898,315120853,1636934221,8362746232,2296580913,8362746230,315121330,2312198087,315121318,315123534,315121319,10859658790,315123540,315121320,315121321,315121322,315121324,315121326,315032954,315122225,2312198310,8498956719,315120406,2312198349,12410976762,2312198364,843382865,2686119186,9141014729,9141014739,8147646008,12361931195,12361931196,2316430803,1718842329,2316430856,10839957166,310501319,2316430912,310501316,310501307,2317965880,9163576006,11105974896,3232582105,648546070,11105974894,9339528758,3674260522,648546074,2312198411,648546081,2312198415,10817208095,10817208099,2295541485,648546073,2295541502,10817239511,10817239515,2295541560,648546072,2295541566,7916079535,2295541568,648546076,2295541572,10800524287,2295541612,648546083,698492383,2295541625,3635441114,648546080,3674274533,9567256917,648546079,9567256919,2331302373,648546084,2331302377,9294229520,2398944604,648546085,2398944608,3674274536,648546086,3674274539,648546087,310262704,310501000,10003317744,310501001,310501002,308300470,8238783234,8238783263,8238783237,310501003,310501007,9121686992,310501008,9121686993,1727306399,648548725,311361483,323985741,2768898982,659962343,12313136868,12313136867,3322574455,3322574457,2236815538,8089836050,2236815592,2236815597,3322575583,702511997,3322575607,702511999,702511981,3322575658,2236815706,3322575763,3322575767,9928232795,3322575773,702511983,2236815741,3322575764,702511985,9928232794,9928232793,702512005,2236815607,3322575606,2236815601,2236815599,8192846569,3322575591,3322575604,2236815606,3322575618,2236815617,702511973,3322575639,3322575641,3322575648,3322575651,2236815694,702511967,3322575780,3322575789,8192846546,2236815836,6129312138,702511825,2240937264,702511819,2240937272,2240937279,2240937283,702511798,702511800,2768899067,2240937287,702511801,2240937421,702511793,10830662562,2768899086,2768899085,2768899083,2768899082,2768899080,2768899077,2768899076,2768899078,2768899081,8208190712,2768899084,9343198168,9343198169,9343198167,9343198163,9343198164,9343198165,2768899087,8208190715,8208190714,659960380,5610210856,659960379,659960354,3315366893,5610210853,5610210870,646065231,2545423147,3675745337,646065234,3017372526,3675745339,646061102,3315367417,8236159656,3315367423,646061104,3675745343,3315367447,3315367661,646061115,3315367669,9153399870,646061117,702511571,646061119,3675745346,3315367694,646061192,646061196,3017385067,646061199,3315367744,646061203,646061207,3017385080,646061209,3315367875,646061211,646061214,3675745350,646061217,646061453,3675745352,3315367967,10040986819,646061462,646061466,10040977407,2778806417,2778806418,3315367999,10040814091,646061470,3315368009,2778806424,646061474,9189235735,646061482,2778806428,1638830109,3307473548,10038471648,3307473553,2778806436,3307473558,646061488,2778806439,2778806440,646061493,2778806469,646061497,2778806475,10038420084,646061502,2778806477,2778806482,648538234,9188620425,2778806492,3307473813,2778806489,9188620420,2778806486,10038420082,3573684083,3573684085,2053282989,2053282895,2053282995,2053282914,2053282916,3017409590,2053282915,2053282948,3573683364,3573683360,2053283012,3573683350,2053282965,3573683359,3573683361,2053282946,3573683355,3573683351,2053282972,3573683347,2053282968,3573683339,2053282919,3573683337,3573683341,2053282893,3573683352,2053282950,3573683374,2045510668,2045510741,2045510494,2045510562,2045510540,3017405921,2045510819,2045510538,2045510602,3573684119,2045510643,2045510497,2045510506,3017405918,3573684136,3017405915,9345236547,3573684182,3573684188,3573684197,3573684202,3573684208,3573684209,3017405914,3573684211,3573684216,3017405913,3573684221,3573684225,3017405912,2045530112,2045529855,2045529825,3573684265,2045529888,3017405911,2045530041,2045529924,3573684286,3573684292,2045529762,3573684401,3573684407,3573684410,3573684417,3573684422,2045529997,3573684426,3573684427,3017405897,2045529916,3017405903,3573684449,3573684450,2045530056,3574906929,3574906933,3574906934,2045529926,2045529777,3574906955,3574906961,2045529932,2045529930,2045529938,2045530017,2045529896,3017405882,3573369198,3573369194,3017405883,3017405886]},"gtfs":{"agency_id":14,"route_id":31,"services":[{"service_id":"Mo-Su","startTime":"06:00","endTime":"22:00","trip_id":10718967}],"filteredStops":{"nodes":[7037326619,1579006658,3277948631,1579031569,1579006959,1579006592,11642465656,11642465655,4010507120,1579031126,4010507119,11081999162,3277874177,851595111,6150165663,2886225385,914201922,1579006851,914202008,1579031003,1579031043,1579031497,11625084288,1579031210,1807087119,1579031050,2318865937,1950932432,1579031519,1579031095,1579031425,1391383490,1391383500,9008789861,9008789858,1579031315,2318865932,1579031559,2318865935,3274047675,1391366818,2318865941,1579006661,1579006904,1391388101,1391366821,10765459059,1527822556,811023199,10765459062,811023230,9482805039,10774545061,811023413,1643888252,12205944955,811023445,4449464691,9482805144,9768692259,391740550,3275133577,391740920,391740921,851595381,7304392739,851595065,3275133584,9875778017,851594888,9948774394,2851923697,851595095,9482805148,9875772987,851594793,3275133586,9768692260,9768692261,9875778108,851594812,9875778128,9875778124,2331301984,9482805154,4929965582,9875778078,851594894,851595276,3674260515,2331302074,2331302094,9655177095,2331302104,7436801323,4261955416,11071382475,7436801327,9003433500,2331302139,2331302155,2331302169,4728105068,1726098719,598151876,9021398260,4728105055,2331302188,9655267009,12509888237,5560268904,12509911134,9731395675,2287827715,598151867,599541188,2287827757,10705908990,2287827775,9731395623,11941128474,2538203114,2287827791,8587411318,2370240939,11997866376,9797631610,689437336,11997826500,2296580487,2296580493,598151865,8423552836,2296580502,12409937736,11079100480,11079057399,11079105205,11079057401,598151864,9309922472,2296580751,2296580762,2296580773,2296580797,2296580808,8356437270,2296580827,2296580841,2296580860,2745674359,8356393909,2296580889,8356393896,8356393898,315120853,1636934221,8362746232,2296580913,8362746230,315121330,2312198087,315121318,315123534,315121319,10859658790,315123540,315121320,315121321,315121322,315121324,315121326,315032954,315122225,2312198310,8498956719,315120406,2312198349,12410976762,2312198364,843382865,2686119186,9141014729,9141014739,8147646008,12361931195,12361931196,2316430803,1718842329,2316430856,10839957166,310501319,2316430912,310501316,310501307,2317965880,9163576006,11105974896,3232582105,648546070,11105974894,9339528758,3674260522,648546074,2312198411,648546081,2312198415,10817208095,10817208099,2295541485,648546073,2295541502,10817239511,10817239515,2295541560,648546072,2295541566,7916079535,2295541568,648546076,2295541572,10800524287,2295541612,648546083,698492383,2295541625,3635441114,648546080,3674274533,9567256917,648546079,9567256919,2331302373,648546084,2331302377,9294229520,2398944604,648546085,2398944608,3674274536,648546086,3674274539,648546087,310262704,310501000,10003317744,310501001,310501002,308300470,8238783234,8238783263,8238783237,310501003,310501007,9121686992,310501008,9121686993,1727306399,648548725,311361483,323985741,2768898982,659962343,12313136868,12313136867,3322574455,3322574457,2236815538,8089836050,2236815592,2236815597,3322575583,702511997,3322575607,702511999,702511981,3322575658,2236815706,3322575763,3322575767,9928232795,3322575773,702511983,2236815741,3322575764,702511985,9928232794,9928232793,702512005,2236815607,3322575606,2236815601,2236815599,8192846569,3322575591,3322575604,2236815606,3322575618,2236815617,702511973,3322575639,3322575641,3322575648,3322575651,2236815694,702511967,3322575780,3322575789,8192846546,2236815836,6129312138,702511825,2240937264,702511819,2240937272,2240937279,2240937283,702511798,702511800,2768899067,2240937287,702511801,2240937421,702511793,10830662562,2768899086,2768899085,2768899083,2768899082,2768899080,2768899077,2768899076,2768899078,2768899081,8208190712,2768899084,9343198168,9343198169,9343198167,9343198163,9343198164,9343198165,2768899087,8208190715,8208190714,659960380,5610210856,659960379,659960354,3315366893,5610210853,5610210870,646065231,2545423147,3675745337,646065234,3017372526,3675745339,646061102,3315367417,8236159656,3315367423,646061104,3675745343,3315367447,3315367661,646061115,3315367669,9153399870,646061117,702511571,646061119,3675745346,3315367694,646061192,646061196,3017385067,646061199,3315367744,646061203,646061207,3017385080,646061209,3315367875,646061211,646061214,3675745350,646061217,646061453,3675745352,3315367967,10040986819,646061462,646061466,10040977407,2778806417,2778806418,3315367999,10040814091,646061470,3315368009,2778806424,646061474,9189235735,646061482,2778806428,1638830109,3307473548,10038471648,3307473553,2778806436,3307473558,646061488,2778806439,2778806440,646061493,2778806469,646061497,2778806475,10038420084,646061502,2778806477,2778806482,648538234,9188620425,2778806492,3307473813,2778806489,9188620420,2778806486,10038420082,3573684083,3573684085,2053282989,2053282895,2053282995,2053282914,2053282916,3017409590,2053282915,2053282948,3573683364,3573683360,2053283012,3573683350,2053282965,3573683359,3573683361,2053282946,3573683355,3573683351,2053282972,3573683347,2053282968,3573683339,2053282919,3573683337,3573683341,2053282893,3573683352,2053282950,3573683374,2045510668,2045510741,2045510494,2045510562,2045510540,3017405921,2045510819,2045510538,2045510602,3573684119,2045510643,2045510497,2045510506,3017405918,3573684136,3017405915,9345236547,3573684182,3573684188,3573684197,3573684202,3573684208,3573684209,3017405914,3573684211,3573684216,3017405913,3573684221,3573684225,3017405912,2045530112,2045529855,2045529825,3573684265,2045529888,3017405911,2045530041,2045529924,3573684286,3573684292,2045529762,3573684401,3573684407,3573684410,3573684417,3573684422,2045529997,3573684426,3573684427,3017405897,2045529916,3017405903,3573684449,3573684450,2045530056,3574906929,3574906933,3574906934,2045529926,2045529777,3574906955,3574906961,2045529932,2045529930,2045529938,2045530017,2045529896,3017405882,3573369198,3573369194,3017405883,3017405886],"coordinates":[[-66.157571,-17.3504052],[-66.1576225,-17.3505265],[-66.1577189,-17.3507534],[-66.1579294,-17.3513049],[-66.1582294,-17.3520508],[-66.158552,-17.3528367],[-66.1586776,-17.3531227],[-66.1587346,-17.3532526],[-66.1587807,-17.3533576],[-66.1588125,-17.3534274],[-66.1588614,-17.3535348],[-66.1588882,-17.3536028],[-66.1589351,-17.3537193],[-66.1589775,-17.3538071],[-66.1590489,-17.3539561],[-66.1591374,-17.3541741],[-66.1593562,-17.3546848],[-66.1597564,-17.3555791],[-66.1599,-17.355908],[-66.1604551,-17.3555967],[-66.1608214,-17.3554008],[-66.1610369,-17.3559092],[-66.1611653,-17.3562234],[-66.1613092,-17.3565691],[-66.1616877,-17.3574769],[-66.1620724,-17.358423],[-66.1624971,-17.3582636],[-66.1627597,-17.3581651],[-66.1629972,-17.3580839],[-66.1636164,-17.3578563],[-66.1639978,-17.3577096],[-66.1644249,-17.3575469],[-66.1644706,-17.3575294],[-66.1647663,-17.3574163],[-66.1650332,-17.3573138],[-66.1652974,-17.357213],[-66.1653997,-17.357487],[-66.1654714,-17.3577121],[-66.1656111,-17.3581043],[-66.1656415,-17.3581799],[-66.1656549,-17.3582154],[-66.166005,-17.3590574],[-66.1660197,-17.359097],[-66.166386,-17.3599568],[-66.1667576,-17.3608489],[-66.1670389,-17.3614993],[-66.1676602,-17.3630002],[-66.1676804,-17.363049],[-66.1677235,-17.3631489],[-66.1677409,-17.3631909],[-66.1682754,-17.364484],[-66.1683455,-17.3646449],[-66.1683998,-17.3647697],[-66.1684146,-17.3648023],[-66.1684421,-17.364867],[-66.1684812,-17.36497],[-66.1684997,-17.365019],[-66.1685433,-17.3651191],[-66.1687591,-17.3656067],[-66.1687623,-17.3656354],[-66.1687637,-17.3657241],[-66.1689348,-17.365752],[-66.1690859,-17.3657939],[-66.1693702,-17.3658885],[-66.1693403,-17.3659874],[-66.1690477,-17.3658885],[-66.1688934,-17.3658519],[-66.1687179,-17.3658213],[-66.1686355,-17.3658171],[-66.1685651,-17.3658135],[-66.1682722,-17.3657976],[-66.1679002,-17.3657773],[-66.1678124,-17.3657801],[-66.167736,-17.3657875],[-66.16768,-17.365801],[-66.1676156,-17.3658199],[-66.1675492,-17.3658444],[-66.167449,-17.3658858],[-66.1672959,-17.3659658],[-66.1670355,-17.3661164],[-66.1669496,-17.366166],[-66.1668968,-17.3661974],[-66.1666857,-17.366323],[-66.1665063,-17.3664424],[-66.1661295,-17.3667085],[-66.1661032,-17.3667279],[-66.1658913,-17.366882],[-66.1658373,-17.3669237],[-66.1651421,-17.3674257],[-66.1642493,-17.3680575],[-66.1641573,-17.3681314],[-66.1640875,-17.3681998],[-66.1640592,-17.3682405],[-66.1640437,-17.368284],[-66.164057,-17.3683599],[-66.1640552,-17.3684238],[-66.1640528,-17.3684526],[-66.1640391,-17.3685209],[-66.1640145,-17.3685864],[-66.1639797,-17.3686476],[-66.1639354,-17.3687028],[-66.1638826,-17.3687505],[-66.1638262,-17.3688157],[-66.1637969,-17.3688607],[-66.1637566,-17.3689209],[-66.1637339,-17.368975],[-66.1635894,-17.3694995],[-66.1633104,-17.3704268],[-66.1632793,-17.3705342],[-66.1629707,-17.3716013],[-66.1629631,-17.3716275],[-66.1628606,-17.3719817],[-66.1627881,-17.3722325],[-66.1627415,-17.3723846],[-66.1627243,-17.3724486],[-66.1626975,-17.3725484],[-66.1626738,-17.3726282],[-66.1626655,-17.372657],[-66.1626469,-17.3727147],[-66.1624847,-17.3732722],[-66.1623417,-17.3737608],[-66.1619469,-17.3751099],[-66.1619132,-17.3752197],[-66.1618519,-17.3754289],[-66.1618315,-17.3754986],[-66.1615816,-17.3763513],[-66.1615755,-17.3763721],[-66.1615553,-17.3764448],[-66.1615333,-17.3765194],[-66.1613573,-17.3771167],[-66.1611004,-17.3779932],[-66.1610775,-17.3780745],[-66.1610462,-17.3781873],[-66.1610272,-17.3782558],[-66.1609592,-17.3784883],[-66.1609424,-17.3785457],[-66.1608112,-17.3789943],[-66.1607831,-17.3790903],[-66.1607443,-17.3792232],[-66.1604215,-17.3803268],[-66.1603952,-17.3804271],[-66.1603946,-17.380447],[-66.1603903,-17.3805384],[-66.1604026,-17.3806234],[-66.1604292,-17.3807053],[-66.160446,-17.3807533],[-66.1604502,-17.3808037],[-66.1604418,-17.3808536],[-66.1604211,-17.3809001],[-66.1603894,-17.3809406],[-66.1603483,-17.3810263],[-66.1603242,-17.3810949],[-66.1603011,-17.3811631],[-66.1602836,-17.3812089],[-66.1602648,-17.3812714],[-66.1602553,-17.381306],[-66.1601491,-17.3816632],[-66.1601392,-17.381699],[-66.160118,-17.3817783],[-66.1601068,-17.3818443],[-66.1600997,-17.3819171],[-66.1601024,-17.3820084],[-66.160124,-17.3821361],[-66.1601469,-17.3822132],[-66.1601468,-17.3822926],[-66.1601403,-17.382329],[-66.1601337,-17.3823653],[-66.1601052,-17.3824327],[-66.1600491,-17.3824933],[-66.1599485,-17.3825638],[-66.1598111,-17.3826671],[-66.1597435,-17.3827412],[-66.1596513,-17.3828653],[-66.1596135,-17.3829447],[-66.1595022,-17.3830911],[-66.1593386,-17.3833062],[-66.1593007,-17.383356],[-66.1591066,-17.3836114],[-66.1589959,-17.383757],[-66.1588865,-17.3839009],[-66.1588472,-17.3839526],[-66.1588041,-17.3840085],[-66.1587884,-17.3840289],[-66.1586145,-17.3842548],[-66.1584148,-17.384514],[-66.1583937,-17.3845414],[-66.1583738,-17.3845669],[-66.1582879,-17.3846768],[-66.1580811,-17.3849472],[-66.1579708,-17.3850718],[-66.1579598,-17.3850858],[-66.1579524,-17.3853974],[-66.1580032,-17.3854217],[-66.1588951,-17.3858898],[-66.1589327,-17.3859078],[-66.1589792,-17.3859203],[-66.1597242,-17.3860455],[-66.160041,-17.3861009],[-66.1600869,-17.3861089],[-66.1601591,-17.3861214],[-66.1601482,-17.386177],[-66.1600475,-17.3866944],[-66.1599305,-17.3872954],[-66.1599197,-17.3873512],[-66.1597423,-17.3882142],[-66.1597305,-17.3882738],[-66.1597051,-17.388406],[-66.1596438,-17.3887192],[-66.1595902,-17.3889782],[-66.1595262,-17.3892878],[-66.1595142,-17.3893446],[-66.159503,-17.3893996],[-66.1594442,-17.3897264],[-66.1593876,-17.3900413],[-66.1593227,-17.3904021],[-66.159313,-17.3904571],[-66.1593022,-17.390508],[-66.159237,-17.3907866],[-66.1591098,-17.3914114],[-66.1590985,-17.3914702],[-66.159088,-17.3915156],[-66.1589552,-17.3921765],[-66.1588889,-17.3925062],[-66.158879,-17.3925589],[-66.1588624,-17.3926465],[-66.1588503,-17.3927102],[-66.1586938,-17.3935139],[-66.1586779,-17.3935864],[-66.1586694,-17.3936298],[-66.1584851,-17.3945425],[-66.1584685,-17.3946244],[-66.1584596,-17.3946726],[-66.1582846,-17.3956252],[-66.1582776,-17.3956693],[-66.1582695,-17.3957154],[-66.1582518,-17.3958179],[-66.1581359,-17.3966716],[-66.1581304,-17.3967147],[-66.1581237,-17.3967678],[-66.1579692,-17.3977363],[-66.157959,-17.397794],[-66.1579492,-17.3978569],[-66.1577782,-17.3989265],[-66.1576879,-17.3989051],[-66.1565799,-17.3986551],[-66.1562257,-17.3985773],[-66.1554698,-17.39841],[-66.154389,-17.3982226],[-66.1533219,-17.3980641],[-66.1528365,-17.3979895],[-66.1527486,-17.397976],[-66.1523493,-17.3979146],[-66.1522434,-17.3978983],[-66.1511563,-17.3977747],[-66.1500703,-17.3976445],[-66.150021,-17.3976385],[-66.1500136,-17.3976877],[-66.1499487,-17.3984764],[-66.1499407,-17.3985529],[-66.1499065,-17.3990035],[-66.1498494,-17.3998668],[-66.1498455,-17.3999622],[-66.1497827,-17.4000289],[-66.1498026,-17.400102],[-66.1498239,-17.4001805],[-66.1499017,-17.4004668],[-66.1498937,-17.4005316],[-66.1498609,-17.4005847],[-66.149775,-17.4006681],[-66.1494422,-17.4009714],[-66.1493706,-17.4010595],[-66.149319,-17.4011365],[-66.149269,-17.4012475],[-66.1492708,-17.4013042],[-66.1493754,-17.4017517],[-66.1493766,-17.4018376],[-66.1493899,-17.4018833],[-66.1494074,-17.4019461],[-66.1494072,-17.4019767],[-66.1494001,-17.4020081],[-66.1493665,-17.4020731],[-66.149365,-17.4021126],[-66.1493916,-17.4021463],[-66.1494415,-17.4020872],[-66.1495007,-17.4019987],[-66.1495634,-17.4018758],[-66.1496062,-17.4017305],[-66.1496651,-17.4014827],[-66.1496972,-17.4013956],[-66.1497453,-17.4013201],[-66.1497967,-17.401271],[-66.1498751,-17.4012271],[-66.1499571,-17.401217],[-66.1499793,-17.4012193],[-66.1500309,-17.4012248],[-66.1500922,-17.4012466],[-66.1501424,-17.4012804],[-66.1501737,-17.4013168],[-66.1502239,-17.4013965],[-66.1502407,-17.4014466],[-66.1502508,-17.4015292],[-66.1502487,-17.4015792],[-66.1502416,-17.4016655],[-66.1502242,-17.4017332],[-66.1502032,-17.4018011],[-66.1500983,-17.4020873],[-66.1500631,-17.4021549],[-66.1500269,-17.4022327],[-66.1499912,-17.4022929],[-66.1499624,-17.4023414],[-66.1500946,-17.4023836],[-66.1501721,-17.4024063],[-66.1502232,-17.4031543],[-66.1502396,-17.403362],[-66.1503467,-17.4037109],[-66.1503679,-17.4038321],[-66.1503796,-17.4039576],[-66.150363,-17.4040704],[-66.1503278,-17.4041742],[-66.1502746,-17.4042764],[-66.1502065,-17.4043824],[-66.1500244,-17.4046123],[-66.1504894,-17.4049148],[-66.1505845,-17.4049529],[-66.1506665,-17.4049659],[-66.15077,-17.4049601],[-66.1507719,-17.4049484],[-66.1507766,-17.4049374],[-66.1507837,-17.4049277],[-66.1507946,-17.4049188],[-66.1508076,-17.404913],[-66.1508217,-17.4049107],[-66.1508359,-17.4049121],[-66.1508493,-17.4049169],[-66.150857,-17.4049218],[-66.1508636,-17.4049278],[-66.1508695,-17.4049354],[-66.1508738,-17.4049439],[-66.1508769,-17.4049564],[-66.1508767,-17.4049692],[-66.1508731,-17.4049816],[-66.1508664,-17.4049928],[-66.150857,-17.405002],[-66.1508595,-17.405027],[-66.1508603,-17.4050958],[-66.1508022,-17.4076298],[-66.1508067,-17.4084116],[-66.1507991,-17.4087701],[-66.1508148,-17.4093633],[-66.1510285,-17.4114067],[-66.1510873,-17.4118997],[-66.1511538,-17.4123642],[-66.1511946,-17.4126857],[-66.1512648,-17.4132136],[-66.1513371,-17.4138784],[-66.1513709,-17.4140012],[-66.1515422,-17.4154689],[-66.1515476,-17.4155332],[-66.1516367,-17.4163726],[-66.1516634,-17.4165411],[-66.1516744,-17.4166098],[-66.1516945,-17.4166741],[-66.1517309,-17.416735],[-66.1517674,-17.4167894],[-66.1518105,-17.4168418],[-66.1518807,-17.4169377],[-66.1519028,-17.4169632],[-66.1519195,-17.4169922],[-66.15193,-17.4170237],[-66.1519342,-17.4170566],[-66.1519276,-17.4171072],[-66.151906,-17.4171539],[-66.1518712,-17.4172508],[-66.1518586,-17.4172879],[-66.1518292,-17.4174036],[-66.1518057,-17.4175262],[-66.1518,-17.4176977],[-66.1518083,-17.4179208],[-66.1518491,-17.4181743],[-66.1518959,-17.4183445],[-66.1519944,-17.4185447],[-66.1523077,-17.4190842],[-66.1524139,-17.4192688],[-66.1527079,-17.4198248],[-66.1528768,-17.4201687],[-66.153126,-17.4207496],[-66.1533093,-17.421245],[-66.1533668,-17.4214168],[-66.1533796,-17.4214552],[-66.1534399,-17.4216339],[-66.1535235,-17.4218879],[-66.1536098,-17.4222261],[-66.1536372,-17.4223372],[-66.153713,-17.4226951],[-66.1537519,-17.4229168],[-66.1537741,-17.4230437],[-66.1538258,-17.4234032],[-66.1538376,-17.4235541],[-66.1538425,-17.4236404],[-66.153859,-17.4239285],[-66.153884,-17.4242503],[-66.153898,-17.4246525],[-66.1538754,-17.425012],[-66.1538705,-17.4250889],[-66.1538582,-17.4253224],[-66.1538354,-17.4255217],[-66.1537437,-17.4258741],[-66.1535289,-17.4266501],[-66.1534788,-17.4267999],[-66.1534116,-17.4269633],[-66.1532987,-17.4272023],[-66.1531874,-17.4273926],[-66.1530866,-17.4275744],[-66.1529395,-17.4277881],[-66.1527384,-17.4280326],[-66.1524617,-17.4283122],[-66.1516869,-17.4290518],[-66.1515746,-17.4291674],[-66.1514885,-17.4292733],[-66.1514322,-17.4293622],[-66.1514129,-17.4293926],[-66.1513437,-17.4295368],[-66.1512217,-17.4298546],[-66.1511546,-17.4300071],[-66.1511109,-17.4300099],[-66.151071,-17.4300096],[-66.1510429,-17.4299978],[-66.1510168,-17.4299827],[-66.1509967,-17.4299616],[-66.1509693,-17.4299248],[-66.1509445,-17.4298217],[-66.1501012,-17.4292903],[-66.1500648,-17.4293052],[-66.1500428,-17.4293307],[-66.1496365,-17.4290544],[-66.14924,-17.4287768],[-66.148938,-17.428554],[-66.1486892,-17.4283683],[-66.1483032,-17.4280878],[-66.1482574,-17.4280545],[-66.1481008,-17.4279603],[-66.1480506,-17.4279414],[-66.1479908,-17.427919],[-66.1478861,-17.427895],[-66.1477998,-17.4278854],[-66.1476442,-17.4278904],[-66.1475092,-17.4279189],[-66.1474219,-17.427926],[-66.1473243,-17.4279237],[-66.1472331,-17.4278975],[-66.1471512,-17.4278865],[-66.1470237,-17.4278756],[-66.1469518,-17.4278655],[-66.1468203,-17.4278315],[-66.1467187,-17.4278013],[-66.1466081,-17.4277788],[-66.146545,-17.4277833],[-66.1464828,-17.4278179],[-66.1464343,-17.427856],[-66.1464046,-17.4278936],[-66.1463896,-17.4279588],[-66.1463631,-17.4280771],[-66.1463652,-17.428152],[-66.1464129,-17.4282917],[-66.1463997,-17.4285449],[-66.1463924,-17.4287213],[-66.1464123,-17.4290017],[-66.1464582,-17.4294331],[-66.1464634,-17.4295017],[-66.1465091,-17.429674],[-66.1465466,-17.4298531],[-66.1465362,-17.4299251],[-66.1464984,-17.4299913],[-66.1462717,-17.4303002],[-66.1461178,-17.4305224],[-66.1460189,-17.4306476],[-66.1457023,-17.4304268],[-66.1455313,-17.4303298],[-66.1450407,-17.431142],[-66.1449657,-17.4312603],[-66.1449506,-17.4313131],[-66.144961,-17.4313709],[-66.1449831,-17.4314004],[-66.1450301,-17.4314208],[-66.1451007,-17.431436],[-66.1451563,-17.4314502],[-66.145258,-17.4314837],[-66.1453722,-17.4315504],[-66.1454811,-17.4316058],[-66.1456788,-17.4317141],[-66.1457279,-17.431758],[-66.1457432,-17.4318012],[-66.1457388,-17.4318627],[-66.1455955,-17.4323037],[-66.1453986,-17.4328442],[-66.1454027,-17.432897],[-66.1454196,-17.4329405],[-66.1454788,-17.4330186],[-66.1455416,-17.4331582],[-66.1456076,-17.4332739],[-66.1456504,-17.4333934],[-66.14567,-17.4335315],[-66.145711,-17.4336407],[-66.1457247,-17.4337316],[-66.1457464,-17.4338195],[-66.1457694,-17.4339667],[-66.1457688,-17.4340927],[-66.1457632,-17.4342127],[-66.1457477,-17.4343197],[-66.1457217,-17.4344358],[-66.1456998,-17.434507],[-66.1456384,-17.4346139],[-66.1455838,-17.4347568],[-66.14551,-17.4349353],[-66.145475,-17.4350047],[-66.1454262,-17.4350659],[-66.1453162,-17.4352279],[-66.1451897,-17.435387],[-66.1450422,-17.435544],[-66.144988,-17.4356017],[-66.1446715,-17.4358914],[-66.1440991,-17.4362831],[-66.1439741,-17.4363665],[-66.1438887,-17.4364196],[-66.1436998,-17.4365421],[-66.1435299,-17.4366153],[-66.1433246,-17.4367501],[-66.1429282,-17.4369618],[-66.1426966,-17.4370909],[-66.1424114,-17.4372637],[-66.142309,-17.4371843],[-66.1421632,-17.4371099],[-66.1419873,-17.4370419],[-66.1418495,-17.4369691]]}}}]}