{"type":"FeatureCollection","features":[{"type":"Feature","properties":{"check_date":"46167","from":"K’asawasa","name":"MiniBus 17: K’asawasa → Calle Calama","network":"BO:CB:Cochabamba","on_demand":"yes","operator":"Sindicato mixto de transportistas Tiquipaya","public_transport:version":"2","ref":"17","route":"bus","to":"Calle Calama","type":"route","wheelchair":"no","id":10712656},"geometry":{"type":"LineString","coordinates":[[-66.1531465,-17.4853758],[-66.1530681,-17.4852637],[-66.15297360000001,-17.485127000000002],[-66.15282300000001,-17.4849581],[-66.15241870000001,-17.484546],[-66.1519758,-17.484240300000003],[-66.1517549,-17.4840886],[-66.15147370000001,-17.4839422],[-66.1509027,-17.4836376],[-66.15055620000001,-17.483458000000002],[-66.1503935,-17.4833833],[-66.1502519,-17.4832813],[-66.1502052,-17.483232400000002],[-66.15019310000001,-17.4831778],[-66.1502037,-17.4831246],[-66.1502535,-17.483078300000003],[-66.1505743,-17.4829623],[-66.150783,-17.482860900000002],[-66.1509678,-17.4827766],[-66.1513012,-17.482641],[-66.15158670000001,-17.4825154],[-66.15167860000001,-17.4824895],[-66.1517433,-17.482460800000002],[-66.151784,-17.482423400000002],[-66.1518126,-17.4823789],[-66.1518217,-17.482322800000002],[-66.15179760000001,-17.4822725],[-66.15175090000001,-17.4822294],[-66.15157760000001,-17.4821619],[-66.1514904,-17.482145000000003],[-66.1513669,-17.4820925],[-66.1511574,-17.4820329],[-66.15076810000001,-17.481934300000002],[-66.1503169,-17.4818296],[-66.1501065,-17.481765600000003],[-66.1500972,-17.481067600000003],[-66.1499077,-17.4810805],[-66.1498344,-17.4810799],[-66.14979000000001,-17.481073900000002],[-66.14974480000001,-17.4810765],[-66.1496942,-17.4810471],[-66.14966460000001,-17.481006200000003],[-66.1496371,-17.480940200000003],[-66.14957740000001,-17.4807536],[-66.1495713,-17.4805819],[-66.1495527,-17.4792811],[-66.14973400000001,-17.479342000000003],[-66.1501439,-17.479520100000002],[-66.15063900000001,-17.479745400000002],[-66.150771,-17.479807100000002],[-66.150981,-17.4799052],[-66.151042,-17.4799301],[-66.15108620000001,-17.4799468],[-66.1511449,-17.4799669],[-66.1512045,-17.4799864],[-66.1512934,-17.4800168],[-66.151685,-17.480159],[-66.1519427,-17.4802524],[-66.1522814,-17.480339400000002],[-66.15262680000001,-17.4791919],[-66.1525479,-17.479103900000002],[-66.1524617,-17.479007900000003],[-66.1520261,-17.4785602],[-66.1518575,-17.4784167],[-66.15166830000001,-17.4782845],[-66.15151800000001,-17.4782107],[-66.1513237,-17.478145700000002],[-66.1507904,-17.477956600000002],[-66.1503115,-17.4777977],[-66.15010910000001,-17.4777491],[-66.1497581,-17.477678100000002],[-66.1486541,-17.477461400000003],[-66.1487501,-17.477325200000003],[-66.1488982,-17.476846100000003],[-66.1490072,-17.476533500000002],[-66.14907670000001,-17.476334],[-66.14925210000001,-17.4758484],[-66.14940680000001,-17.475431500000003],[-66.14942640000001,-17.475360900000002],[-66.14944220000001,-17.4753188],[-66.14954610000001,-17.475141],[-66.14937330000001,-17.474988300000003],[-66.1492506,-17.4747814],[-66.1491611,-17.474670000000003],[-66.1491208,-17.474619800000003],[-66.14881360000001,-17.4742189],[-66.1487132,-17.474113000000003],[-66.14865160000001,-17.474074],[-66.14827260000001,-17.473964600000002],[-66.1478689,-17.4738435],[-66.1477222,-17.473785900000003],[-66.14745190000001,-17.473683400000002],[-66.14720530000001,-17.4736057],[-66.14685010000001,-17.4735161],[-66.1466814,-17.4734723],[-66.1460759,-17.4733291],[-66.1453848,-17.473190300000002],[-66.14518930000001,-17.4730776],[-66.14479990000001,-17.472769200000002],[-66.14452410000001,-17.4726278],[-66.1442815,-17.4725275],[-66.1441982,-17.472491],[-66.1439373,-17.472197400000002],[-66.1436726,-17.472152400000002],[-66.1435438,-17.4721195],[-66.1433789,-17.4720772],[-66.14320160000001,-17.4720081],[-66.14309990000001,-17.4719684],[-66.1428941,-17.471738600000002],[-66.1428247,-17.4716275],[-66.1427008,-17.471343700000002],[-66.14267210000001,-17.4711624],[-66.14276070000001,-17.471141600000003],[-66.14286700000001,-17.4711342],[-66.14295650000001,-17.4711369],[-66.143113,-17.471147100000003],[-66.1432461,-17.471140700000003],[-66.14328800000001,-17.4711447],[-66.1434641,-17.4711579],[-66.14354420000001,-17.4711323],[-66.14361330000001,-17.4710995],[-66.1441552,-17.470855800000002],[-66.14422970000001,-17.470822700000003],[-66.1446631,-17.470629900000002],[-66.1447888,-17.470574000000003],[-66.1451916,-17.470394900000002],[-66.1452806,-17.4703589],[-66.1453036,-17.4702382],[-66.1453633,-17.469926],[-66.1454341,-17.469555300000003],[-66.1454542,-17.469450300000002],[-66.1454657,-17.4693897],[-66.1455693,-17.4688476],[-66.1456234,-17.4685644],[-66.1456752,-17.468293300000003],[-66.1457812,-17.467738200000003],[-66.1458848,-17.4671963],[-66.14598930000001,-17.4666503],[-66.1459947,-17.4666219],[-66.14609060000001,-17.4661209],[-66.1461261,-17.465933300000003],[-66.1462693,-17.4651834],[-66.1463543,-17.4647386],[-66.1463636,-17.4646897],[-66.1464078,-17.4644586],[-66.1464095,-17.4644169],[-66.1463592,-17.464300100000003],[-66.14617960000001,-17.4641699],[-66.1460965,-17.4640838],[-66.14585120000001,-17.4638788],[-66.14577010000001,-17.4638248],[-66.1456634,-17.463767800000003],[-66.14557980000001,-17.4636168],[-66.1449894,-17.462469300000002],[-66.14491070000001,-17.4623305],[-66.1448706,-17.46226],[-66.14467490000001,-17.461899300000002],[-66.14460700000001,-17.4617794],[-66.1445202,-17.461599500000002],[-66.1444823,-17.4614894],[-66.1444508,-17.4613611],[-66.1444149,-17.461270600000002],[-66.14437670000001,-17.4611468],[-66.14425600000001,-17.460710900000002],[-66.1441422,-17.4603167],[-66.14402170000001,-17.459882800000003],[-66.1438646,-17.4593582],[-66.1434863,-17.458142900000002],[-66.14315970000001,-17.457037500000002],[-66.1427862,-17.4557176],[-66.14251680000001,-17.4546603],[-66.1419527,-17.452709900000002],[-66.1417359,-17.451916100000002],[-66.141734,-17.4518711],[-66.14177000000001,-17.451785100000002],[-66.14180040000001,-17.451713],[-66.1418122,-17.451628000000003],[-66.1418067,-17.4515607],[-66.14175750000001,-17.451241500000002],[-66.1417373,-17.451204],[-66.14170220000001,-17.451170100000002],[-66.1416763,-17.451151900000003],[-66.1416301,-17.4511405],[-66.14131040000001,-17.4511366],[-66.14127350000001,-17.451132100000002],[-66.1412366,-17.4511168],[-66.1412007,-17.451080800000003],[-66.14117940000001,-17.4510328],[-66.1411049,-17.450265100000003],[-66.1409984,-17.449216900000003],[-66.14095280000001,-17.448713],[-66.1409314,-17.4482211],[-66.14093910000001,-17.4481459],[-66.14099630000001,-17.4475893],[-66.1409924,-17.4475494],[-66.14097550000001,-17.447508000000003],[-66.1409309,-17.447483300000002],[-66.1409174,-17.4475067],[-66.14089100000001,-17.4475282],[-66.1408717,-17.447536500000002],[-66.1408464,-17.4475401],[-66.1408121,-17.447533800000002],[-66.1407954,-17.4475261],[-66.1407813,-17.447514400000003],[-66.14076850000001,-17.447498600000003],[-66.14075820000001,-17.447475500000003],[-66.1407554,-17.4474506],[-66.1407597,-17.4474273],[-66.1407705,-17.447406],[-66.140787,-17.447388200000002],[-66.14080790000001,-17.447375500000003],[-66.14086230000001,-17.4462262],[-66.140883,-17.446058200000003],[-66.1409306,-17.445874500000002],[-66.1410077,-17.445640700000002],[-66.14106550000001,-17.4455008],[-66.141112,-17.445418500000002],[-66.14121010000001,-17.445265000000003],[-66.1417443,-17.4447206],[-66.1416451,-17.4445875],[-66.141592,-17.4445091],[-66.1414249,-17.4443416],[-66.141361,-17.444277500000002],[-66.1412619,-17.4441908],[-66.1411552,-17.444046],[-66.1412061,-17.443975100000003],[-66.1412389,-17.4439224],[-66.1417581,-17.443287],[-66.1420616,-17.442894300000003],[-66.1424652,-17.4424794],[-66.14250630000001,-17.4424294],[-66.1425864,-17.4423496],[-66.14308150000001,-17.441902900000002],[-66.1437418,-17.4413577],[-66.143786,-17.441253800000002],[-66.1438741,-17.4411637],[-66.1439622,-17.441060800000002],[-66.1442243,-17.4407277],[-66.1446033,-17.440253600000002],[-66.14469720000001,-17.4401361],[-66.144897,-17.4398634],[-66.1451643,-17.439511200000002],[-66.14533010000001,-17.439283000000003],[-66.1460899,-17.4381844],[-66.1461855,-17.4381044],[-66.14586800000001,-17.437976000000003],[-66.1457472,-17.437988],[-66.14564440000001,-17.438000000000002],[-66.1455681,-17.43802],[-66.1455286,-17.438030100000002],[-66.1454863,-17.4380348],[-66.14544590000001,-17.4380226],[-66.1454138,-17.4379965],[-66.1453946,-17.4379607],[-66.1453867,-17.437914000000003],[-66.14541120000001,-17.437866300000003],[-66.1454418,-17.4378068],[-66.1454977,-17.437707000000003],[-66.14569680000001,-17.4374639],[-66.14591820000001,-17.4372088],[-66.14611380000001,-17.4369489],[-66.1466853,-17.436179600000003],[-66.14733860000001,-17.4353002],[-66.1474728,-17.4351141],[-66.14793250000001,-17.4344888],[-66.1482129,-17.4341118],[-66.1485268,-17.4336898],[-66.1489382,-17.4331591],[-66.14925550000001,-17.4327246],[-66.14939190000001,-17.4325213],[-66.149747,-17.432055000000002],[-66.1500503,-17.4316567],[-66.1502384,-17.4313818],[-66.15037170000001,-17.431185300000003],[-66.1504225,-17.4311054],[-66.15052250000001,-17.4309346],[-66.15054930000001,-17.4308836],[-66.1507479,-17.4305056],[-66.15081190000001,-17.4303664],[-66.1509092,-17.430102400000003],[-66.1509693,-17.429924800000002],[-66.150999,-17.4298541],[-66.15102200000001,-17.4298055],[-66.1511069,-17.4296341],[-66.1512046,-17.429471600000003],[-66.1512951,-17.429341800000003],[-66.15135910000001,-17.4292678],[-66.1514234,-17.429199500000003],[-66.1515071,-17.429114000000002],[-66.1520629,-17.4286034],[-66.1524789,-17.428200500000003],[-66.1527178,-17.427944200000002],[-66.1529307,-17.4276804],[-66.1530846,-17.4274518],[-66.1532732,-17.4270934],[-66.1534092,-17.426773400000002],[-66.1535061,-17.426477100000003],[-66.1536583,-17.4258662],[-66.1537421,-17.4255007],[-66.15378410000001,-17.425112700000003],[-66.153788,-17.425082800000002],[-66.15378910000001,-17.4250127],[-66.1537952,-17.4246383],[-66.1537825,-17.424189100000003],[-66.15375490000001,-17.4238131],[-66.1537423,-17.4236599],[-66.15374,-17.4236463],[-66.1536868,-17.4233294],[-66.15361530000001,-17.422936800000002],[-66.1535906,-17.422801200000002],[-66.15347030000001,-17.4222569],[-66.15345710000001,-17.422197],[-66.1534055,-17.4220523],[-66.15331730000001,-17.421904100000003],[-66.15325990000001,-17.421819600000003],[-66.15320480000001,-17.421748200000003],[-66.153108,-17.421653600000003],[-66.15308850000001,-17.421645400000003],[-66.1530706,-17.421633200000002],[-66.15305310000001,-17.4216146],[-66.1530292,-17.421584300000003],[-66.15301210000001,-17.4215488],[-66.15300470000001,-17.4215206],[-66.15300230000001,-17.4214819],[-66.153006,-17.421454100000002],[-66.15301410000001,-17.421427100000002],[-66.15302650000001,-17.421401600000003],[-66.15303990000001,-17.4213819],[-66.1530548,-17.421365100000003],[-66.1530582,-17.4212451],[-66.1530651,-17.4211661],[-66.1530566,-17.4210391],[-66.1530058,-17.420819700000003],[-66.15293630000001,-17.420663],[-66.15280650000001,-17.420377000000002],[-66.15261190000001,-17.4199819],[-66.1525969,-17.419952400000003],[-66.15247810000001,-17.419718800000002],[-66.1523142,-17.4194022],[-66.15218300000001,-17.419165600000003],[-66.15181340000001,-17.418523200000003],[-66.1517008,-17.4183133],[-66.1515933,-17.418084],[-66.1515593,-17.417976200000002],[-66.15153880000001,-17.4178989],[-66.1515294,-17.417838300000003],[-66.15152140000001,-17.4177646],[-66.1515169,-17.417669200000002],[-66.1515174,-17.4176253],[-66.15151900000001,-17.4174973],[-66.15153620000001,-17.4173158],[-66.1515451,-17.4171988],[-66.1515701,-17.417080700000003],[-66.1515696,-17.417045400000003],[-66.15157660000001,-17.417010700000002],[-66.1515921,-17.4169759],[-66.151615,-17.416945100000003],[-66.15164440000001,-17.4169197],[-66.15167890000001,-17.416901000000003],[-66.15171670000001,-17.4168898],[-66.15181050000001,-17.4168418],[-66.1518939,-17.4167913],[-66.15196060000001,-17.4167248],[-66.1520277,-17.416647400000002],[-66.15288980000001,-17.4155516],[-66.15303750000001,-17.415364500000003],[-66.1531339,-17.415198],[-66.1532202,-17.415029],[-66.15328720000001,-17.4148891],[-66.15337190000001,-17.414694800000003],[-66.153436,-17.4145295],[-66.15350140000001,-17.414284900000002],[-66.1535365,-17.4141511],[-66.1535908,-17.413928600000002],[-66.1536069,-17.413714900000002],[-66.1535953,-17.4131712],[-66.1535386,-17.411177900000002],[-66.1535267,-17.410476600000003],[-66.1534922,-17.410274400000002],[-66.153473,-17.409858500000002],[-66.1534302,-17.408289],[-66.15340370000001,-17.407548600000002],[-66.1533921,-17.4070536],[-66.1533606,-17.4061008],[-66.15333480000001,-17.4052833],[-66.15332400000001,-17.4048628],[-66.1533227,-17.4048012],[-66.1532959,-17.403607500000003],[-66.1532969,-17.403542400000003],[-66.15329340000001,-17.4032094],[-66.1533194,-17.4031272],[-66.1533196,-17.4030749],[-66.1533203,-17.4029579],[-66.15332000000001,-17.402878100000002],[-66.15331970000001,-17.4028096],[-66.1533193,-17.402737000000002],[-66.1533222,-17.4026581],[-66.1533227,-17.402572300000003],[-66.15332550000001,-17.402501200000003],[-66.1533234,-17.4024287],[-66.15332380000001,-17.4023639],[-66.1533031,-17.4023036],[-66.1532722,-17.4014247],[-66.15325,-17.4007249],[-66.15322660000001,-17.3999032],[-66.1531973,-17.3991016],[-66.15319210000001,-17.398998000000002],[-66.1531927,-17.3988455],[-66.15319450000001,-17.3987646],[-66.15319960000001,-17.398702200000002],[-66.15325340000001,-17.3984238],[-66.15332190000001,-17.398064100000003],[-66.1535317,-17.397006],[-66.15373170000001,-17.3959471],[-66.1539142,-17.394938200000002],[-66.15392250000001,-17.394892300000002],[-66.15393060000001,-17.394848300000003],[-66.15400100000001,-17.3944662],[-66.15401100000001,-17.3944121],[-66.15410510000001,-17.3938959],[-66.1541124,-17.3938613],[-66.1541225,-17.3938175],[-66.15431310000001,-17.392865500000003],[-66.1543214,-17.3928243],[-66.1543276,-17.392791300000003],[-66.1544925,-17.3919251],[-66.15450050000001,-17.3918758],[-66.1545177,-17.3917873],[-66.1545292,-17.391726100000003],[-66.1547116,-17.3907655],[-66.1547221,-17.3907102],[-66.1549105,-17.3897477],[-66.1549159,-17.389719900000003],[-66.1549205,-17.3896929],[-66.1549294,-17.389649700000003],[-66.155119,-17.3887314],[-66.1551357,-17.388646700000002],[-66.1551489,-17.3885714],[-66.1553164,-17.3876634],[-66.15533660000001,-17.3875835],[-66.15563370000001,-17.3876361],[-66.1556802,-17.387578100000002],[-66.15581060000001,-17.3874102],[-66.15644660000001,-17.386541400000002],[-66.15650330000001,-17.3864649],[-66.1566081,-17.386333200000003],[-66.15758430000001,-17.385016500000003],[-66.15765350000001,-17.384924],[-66.15767480000001,-17.3848938],[-66.15769200000001,-17.384869700000003],[-66.1577731,-17.384765700000003],[-66.15793400000001,-17.3845452],[-66.1581429,-17.3842588],[-66.1584854,-17.3837894],[-66.15852550000001,-17.383733600000003],[-66.1585654,-17.383682500000003],[-66.15876560000001,-17.383414600000002],[-66.15888670000001,-17.383252600000002],[-66.159362,-17.382616600000002],[-66.1594084,-17.382554000000003],[-66.1594438,-17.3824824],[-66.15945470000001,-17.382365800000002],[-66.1594513,-17.382231],[-66.1594572,-17.382162400000002],[-66.1594869,-17.382100700000002],[-66.1595381,-17.3820379],[-66.1596272,-17.381970600000002],[-66.1597232,-17.3819275],[-66.1598062,-17.381880300000002],[-66.15986380000001,-17.381846600000003],[-66.159926,-17.381785500000003],[-66.1599741,-17.3817115],[-66.159998,-17.381654400000002],[-66.1600073,-17.3816254],[-66.16010370000001,-17.381265600000003],[-66.1601133,-17.381230900000002],[-66.16011780000001,-17.3811615],[-66.16011280000001,-17.3811056],[-66.1601035,-17.3810518],[-66.1600813,-17.3809733],[-66.16005480000001,-17.380921400000002],[-66.1600361,-17.3808931],[-66.16002230000001,-17.3808623],[-66.1600111,-17.3808052],[-66.16001680000001,-17.3807474],[-66.16003880000001,-17.380693200000003],[-66.1600756,-17.380647000000003],[-66.1601112,-17.3806216],[-66.1601655,-17.380593700000002],[-66.1601869,-17.380589800000003],[-66.16022770000001,-17.3805422],[-66.1602599,-17.380488900000003],[-66.1602876,-17.380414700000003],[-66.1608171,-17.378584200000002],[-66.16092010000001,-17.3782283],[-66.16093190000001,-17.378189600000002],[-66.1609406,-17.3781611],[-66.16097470000001,-17.378049400000002],[-66.1609998,-17.3779672],[-66.1610576,-17.3777775],[-66.16125050000001,-17.377100700000003],[-66.16142430000001,-17.3764909],[-66.1614492,-17.3764034],[-66.1614576,-17.376374100000003],[-66.16146590000001,-17.3763447],[-66.16160160000001,-17.3758853],[-66.161744,-17.375403000000002],[-66.16177540000001,-17.375302700000002],[-66.16187380000001,-17.3749718],[-66.16237600000001,-17.3732441],[-66.1625097,-17.372788],[-66.16255670000001,-17.372627100000003],[-66.1625774,-17.372555000000002],[-66.1626071,-17.3724567],[-66.16262920000001,-17.3723835],[-66.16263430000001,-17.372366300000003],[-66.1627158,-17.372092700000003],[-66.1627454,-17.3719933],[-66.1628553,-17.3716246],[-66.16286210000001,-17.3716016],[-66.1628915,-17.3714879],[-66.16317810000001,-17.3705052],[-66.1632094,-17.370400800000002],[-66.16333560000001,-17.369966400000003],[-66.16336890000001,-17.369851800000003],[-66.1636433,-17.3689071],[-66.16365590000001,-17.368838800000002],[-66.16365180000001,-17.3687697],[-66.1636417,-17.3687147],[-66.16362070000001,-17.3686586],[-66.16360780000001,-17.368600100000002],[-66.1636028,-17.3685113],[-66.1636151,-17.3684233],[-66.16364420000001,-17.3683389],[-66.16368960000001,-17.3682614],[-66.16373750000001,-17.3682079],[-66.16378950000001,-17.368173600000002],[-66.1638415,-17.368158400000002],[-66.1638805,-17.368155400000003],[-66.16399360000001,-17.3681212],[-66.16409420000001,-17.3680622],[-66.16417700000001,-17.3679938],[-66.1642023,-17.3679729],[-66.1651032,-17.3673216],[-66.1658235,-17.3667957],[-66.1660401,-17.366646300000003],[-66.16629710000001,-17.3664564],[-66.16643400000001,-17.3663637],[-66.1665827,-17.366260500000003],[-66.16684280000001,-17.366107000000003],[-66.1669031,-17.366071400000003],[-66.1669827,-17.366025200000003],[-66.1673397,-17.365817900000003],[-66.1674509,-17.365765000000003],[-66.16750110000001,-17.3657417],[-66.1675682,-17.365717],[-66.167662,-17.3656881],[-66.1677365,-17.365677100000003],[-66.1678243,-17.3656696],[-66.1679043,-17.365669200000003],[-66.1679304,-17.365669],[-66.1682856,-17.365691],[-66.1686444,-17.365713200000002],[-66.168659,-17.3657141],[-66.1687637,-17.3657241],[-66.1689348,-17.365752],[-66.1690859,-17.3657939],[-66.1693702,-17.3658885],[-66.1694386,-17.3659131],[-66.16960900000001,-17.365964400000003],[-66.16975280000001,-17.3659925],[-66.169909,-17.366012100000003],[-66.17006160000001,-17.3660213],[-66.17017290000001,-17.366021500000002],[-66.1703002,-17.3660114],[-66.1704414,-17.3659877],[-66.1705773,-17.365955000000003],[-66.17107920000001,-17.365814800000003],[-66.1711219,-17.365802000000002],[-66.17127860000001,-17.365765300000003],[-66.17137190000001,-17.3657523],[-66.17156750000001,-17.365740000000002],[-66.17157610000001,-17.365739700000002],[-66.171789,-17.3657317],[-66.1718551,-17.3657274],[-66.17323560000001,-17.365636300000002],[-66.1733184,-17.3656328],[-66.1735725,-17.3656113],[-66.1747878,-17.365540300000003],[-66.1748689,-17.365525400000003],[-66.17495690000001,-17.365499200000002],[-66.17513620000001,-17.3654422],[-66.175967,-17.365189100000002],[-66.1764448,-17.3650491],[-66.1765127,-17.365029200000002],[-66.17663850000001,-17.3649923],[-66.1767185,-17.3649679],[-66.1779552,-17.3645901],[-66.17825330000001,-17.364500300000003],[-66.17832890000001,-17.364478000000002],[-66.1783705,-17.3644648],[-66.1784856,-17.364427900000003],[-66.1785219,-17.364416300000002],[-66.17859890000001,-17.3643906],[-66.1787347,-17.364343400000003],[-66.178847,-17.3642943],[-66.178949,-17.364236700000003],[-66.1792731,-17.364054600000003],[-66.17949180000001,-17.3639183],[-66.17962320000001,-17.363833200000002],[-66.17992070000001,-17.363591900000003],[-66.18043610000001,-17.363202],[-66.1806191,-17.363037100000003],[-66.1808089,-17.362864700000003],[-66.1809655,-17.362712000000002],[-66.18116540000001,-17.362495900000003],[-66.18132220000001,-17.362299500000002],[-66.18137890000001,-17.3622261],[-66.18142510000001,-17.3621646],[-66.1815486,-17.3619713],[-66.1816936,-17.3617554],[-66.1819349,-17.36136],[-66.1819919,-17.3612666],[-66.18205420000001,-17.361152800000003],[-66.182606,-17.3600181],[-66.1829404,-17.3592955],[-66.18299130000001,-17.3592023],[-66.1831032,-17.359044500000003],[-66.18318430000001,-17.3589476],[-66.18325100000001,-17.3588606],[-66.1839786,-17.3578209],[-66.18407,-17.357691300000003],[-66.18426380000001,-17.3574099],[-66.1845536,-17.356969300000003],[-66.18467980000001,-17.3568128],[-66.18474540000001,-17.3567432],[-66.1848006,-17.356830600000002],[-66.1848384,-17.356895],[-66.18545780000001,-17.3578873],[-66.18599320000001,-17.3587275],[-66.1868618,-17.3600691],[-66.1868884,-17.3601093],[-66.18696530000001,-17.3601804],[-66.18766430000001,-17.360461400000002],[-66.187894,-17.3605601],[-66.18805280000001,-17.3606537],[-66.1882604,-17.360785500000002],[-66.18835840000001,-17.3608683],[-66.1883966,-17.3609155],[-66.18849080000001,-17.3610319],[-66.18867870000001,-17.361266500000003],[-66.18869620000001,-17.3612885],[-66.18874070000001,-17.361344000000003],[-66.18877830000001,-17.361391700000002],[-66.18895660000001,-17.361617300000002],[-66.18903130000001,-17.361690900000003],[-66.18915550000001,-17.3617817],[-66.1894881,-17.3620066],[-66.1895186,-17.3620272],[-66.18959790000001,-17.362105900000003],[-66.18968570000001,-17.3622048],[-66.18974250000001,-17.3623009],[-66.18977170000001,-17.362373400000003],[-66.1898613,-17.3623179],[-66.1899116,-17.362281000000003],[-66.19004170000001,-17.3620892],[-66.19035450000001,-17.3616278],[-66.1909351,-17.360747800000002],[-66.1910933,-17.360578],[-66.1911549,-17.360509800000003],[-66.1912557,-17.3604293],[-66.1913779,-17.360355700000003],[-66.19166630000001,-17.3601965],[-66.1919647,-17.360022400000002],[-66.1922241,-17.3597852],[-66.19277290000001,-17.359361900000003],[-66.19329230000001,-17.3589623],[-66.19346440000001,-17.3587746],[-66.1937532,-17.358673300000003],[-66.1946594,-17.3584223],[-66.19561490000001,-17.3581632],[-66.1956025,-17.3577756],[-66.1955724,-17.3575561],[-66.1954458,-17.3570777],[-66.195403,-17.3569761],[-66.1964289,-17.3567593],[-66.19729980000001,-17.3566113],[-66.19744820000001,-17.3565848],[-66.1975031,-17.356592900000003],[-66.19758920000001,-17.356634500000002],[-66.19772640000001,-17.3567554],[-66.19781300000001,-17.3568403],[-66.1978502,-17.356884800000003],[-66.1979338,-17.3569186],[-66.1980073,-17.356926700000002],[-66.1982148,-17.356883]],"nodes":[3671294856,3671294852,3671294847,3671294834,3671294826,3671294805,3671294801,3671294795,3671294780,3671294765,3671294757,3671294749,3671294746,3671294741,3671294734,3671294723,3671294705,3671294691,3671294689,3671294684,3671294677,3671294675,3671294672,3671294668,3671294664,3671294659,3671294655,3671294653,3671294649,3671294647,3671294641,3671294630,3671294624,3671294619,3671294610,1627089590,1627089589,3667627459,3667627457,3667627458,3667627455,3667627453,3667627450,3667627439,3667627425,3667626876,3667369629,3667369635,1627089919,13833044135,3671294510,3671294514,3671294515,3671294516,3671294518,3671294522,3671294533,3671294537,3671294541,3671294482,12629433460,3671294469,3671294463,3671294458,3671294453,3671294452,1627089694,3671294444,3671294435,12629433465,3667626827,3667369475,1627089341,3667626283,3667626264,1627102901,3667626228,3667626012,3667626010,1627102780,1627102757,1627102540,1627102560,3667625997,1627102585,3667625982,1627102598,3667625978,1627102722,3667625972,1627102854,3667625963,3667625962,1627102607,3667625959,1627102663,1627102667,13832155719,1627102766,3667625934,1627102815,1627102628,1627102532,3667566416,13832155780,1627102847,13832155739,1627102528,3666460811,1627102596,1496873829,11357566641,13832140768,1496873902,1617348571,1496873835,1496873865,3666460804,3666460806,1496874009,1627089788,1627089480,3666460786,1627102513,1627089407,1627089727,3666460761,1627011888,3666520711,1627089284,1627089392,3666520709,1627109190,1627011829,1627109070,1627109195,1627109230,6478082083,3666460639,3666457822,1627011910,3666457809,4201514547,1627109155,6478065459,1627011801,1626994888,1626994706,4201514548,1626994661,3657360256,1626983188,1627109087,1626994949,3657360203,1626983195,3657360197,1626982749,3657360171,1626983205,1627011891,4201513374,1626983218,1626983219,1626983190,7554645862,1626982941,1626983111,1626982497,1626982717,1626983041,1626982508,1626983233,3647863978,4401527190,1626983318,3647863974,3647863973,1626983216,9036562142,3647863946,3647863945,9036562140,4401527192,9036562141,1626982783,1626982942,1626982787,3017409678,3017409677,1626982548,4400579243,3017409683,3017409662,8459870695,3647863802,3647863798,3647863806,3647863809,3647863811,3647863814,3647863812,3647863810,3017409663,3647863801,4401526868,3017409664,3647863784,3647863778,4242416812,1626983055,3647863667,1626983243,3647863649,3647863626,3647863616,3647863606,1626982833,1626982493,11574745201,1617345021,3311611302,1617344982,10030867232,1638807099,10028610988,6185973486,1638807097,1638807095,1638807075,9188496077,3308828913,8462994724,3308828866,3308828895,10030745058,3308828892,3308828869,10030867243,1638807041,9188496114,3308828756,3308828744,10030867356,3308828704,8507179539,6558501287,7072911189,1637648656,10030867321,8462994899,8462994900,8462994901,8462994902,1637648641,9188521936,2778806551,3675745354,3574907097,2778806536,2045530066,10032549115,2778806531,3573684453,2778806526,3017405869,2045529859,8465159296,3573684257,2778806507,10040814048,2053282980,4414218814,4414218817,497182748,2045529783,10038420070,497182749,2778806498,2778806496,2778806486,9188620433,2778806481,648536528,646061387,646061391,3307473715,3307473697,2778806472,2778806447,3307473640,646061394,2778806438,646061399,2778806435,3307473550,2778806433,646061406,1638830107,10040814017,646061410,13416155728,2778806425,2778806422,2778806420,10040814088,10040814089,646061414,10040977410,2045510866,10040986817,646061425,3315367976,3315367972,10040986823,3675745353,10040986829,10830574938,646061429,10040986826,3315367951,646061554,10040986835,3577938002,646061558,10040986836,3315367938,10040986831,2045510732,3675745351,646061079,646061081,3315367911,3315367906,2045510589,3315367878,8236485309,2045510724,4414240043,2045510959,3017372545,8236494244,646061085,3315367739,3315367731,3315367725,3315367723,3315367710,3675745347,646061086,646061088,3675745345,646061145,3315367671,646061153,3315367666,702511586,3315367459,646061155,3315367455,3315367447,3315367434,3315367429,648538850,8226236120,648538851,3017372524,648538853,648538855,3315367365,3315367364,648538857,648538859,5610210470,3315366947,648538861,648538865,5610210471,5610210512,702511599,843383892,702511670,702511660,702511697,8236165731,2765190485,702511759,6129316876,6129316829,6471478536,5313058809,5313058790,6471287448,6471287453,6471287450,5313058818,5313058738,5313058812,5313058814,5313058816,6471287464,308300568,308300567,308300566,308300474,308300473,8238783213,648548911,3269819960,9941529680,8238783256,308300470,308300469,308300467,10711496712,308300466,10711496714,8964752740,315103283,10711496716,303217863,10711496720,8964738192,308300565,8964738194,2292218213,698492397,303218728,2292218206,10008644757,308300564,10920825771,7919097331,308300563,10920825770,2294524812,308300562,2294524809,2296982096,308300561,8326919823,2296982031,315032928,2296981978,843385471,2316430967,2900514430,8498956772,10839957167,315033182,2316430804,9141014790,9141014786,2686119170,315033260,2312198354,11098456190,11095273191,8347189864,2312198259,2312198235,8267964007,315122901,2312198125,2312198111,315122903,315123146,315122907,2312198016,315125530,2296580912,8362746231,8362746233,1636934218,315122913,8356393897,2296580888,9898424957,2296580875,2745674358,2296580843,8356437267,2296580828,2296580810,8356437268,2296580800,2296580788,9813506406,2296580780,6806428790,9813506405,2296580759,391739972,13735210084,2296580498,10744627742,13735210079,13735210078,2296580492,566526651,8267964015,11997826503,11082324527,11997866377,9797631613,8587381077,8587411319,1727306394,2896380345,9731395626,9731395681,2287827759,599541187,391739983,2287827716,10705908995,12509888271,12509888269,12509888236,9021398248,1859310257,2163957001,6534497616,12509911116,12509911124,391740307,598151868,2673712838,2331302157,2331302147,2331302132,9655177097,2331302125,2331302112,2331302102,2331302081,12663240703,9003433498,2331302079,2331302076,811023196,11079440647,3674260514,811023276,9875778079,4929965581,811023452,9875778087,9875778123,9875778125,845125561,9875778105,3275133581,9482805149,9875772997,391740546,3275133571,9482805150,391740547,9875773004,3275133569,9948774393,9875778020,9482805141,391740550,3275133577,391740920,391740921,9845867332,2851923700,9482805078,391740923,2851923902,9768692258,391740925,9768692257,2851923901,11076326290,391740945,2331301977,8570204297,10774545011,391740927,811023211,10774545006,2331301965,845125648,811023436,1849463007,1849463006,391740928,391740948,851594708,3658380320,12551721134,811023393,3658380319,851595283,10210231697,851594990,11069862001,11069862000,1865014707,3658380317,9819008106,9819008105,391741246,2468432997,391741248,1849462998,1849462995,391741250,1849462991,1849462989,391741277,2468432993,1849462986,11071450644,2468432991,8927312166,1849462983,11875908963,2555201629,391741319,1849462976,1849462971,1849462969,3924544394,391741321,1849462966,2317755823,2468432985,2317755818,391741420,1849462956,3279665262,3267779271,8927673336,2317801144,6750968258,11811111337,2160387438,3267779303,3267779308,3267779309,9518293091,3267779315,3267779320,11811080768,8927673264,11811111274,11811111271,2160387431,11811111270,10167999978,4257977535,5038140584,11811111290,10167999982,5038140586,5038140588,10167828835,10167828832,13063657082,3260875590,1577578369,2160387413,2160387449,9609924989,1577578364,3269457980,3260875588,1577578135,1577578322,3260875587,1577578174,3260875583,3260875582,1577578162,3783961334,1577578163,1573956010,3260875580,1574086911,2938505125,2938505116,2938505098,2938505092,2938505095,2938505107,4102697797,2938505117,4148212840,2938505127,2938505135,2938505128]},"gtfs":{"agency_id":16,"route_id":101,"services":[{"service_id":"Mo-Su","startTime":"06:00","endTime":"22:00","trip_id":10712656}],"filteredStops":{"nodes":[3671294856,3671294826,3671294765,3671294741,3671294691,3671294672,3671294655,3671294641,3671294610,3667627458,3667627439,3667369635,3671294515,3671294533,12629433460,3671294452,12629433465,3667626283,3667626012,1627102560,1627102598,1627102854,1627102663,3667625934,3667566416,3666460811,13832140768,1496873865,1627089788,1627089727,1627089284,1627011829,3666460639,4201514547,1626994888,1626983188,1626983195,1626983205,1626983219,1626982497,1626983233,3647863974,3647863945,1626982783,3017409677,8459870695,3647863809,3647863810,3017409664,3647863667,3647863616,11574745201,1638807099,1638807095,8462994724,3308828869,3308828756,8507179539,10030867321,1637648641,3574907097,2778806531,8465159296,2053282980,2045529783,2778806486,646061387,2778806472,2778806438,646061406,13416155728,10040814088,10040986817,10040986823,646061429,3577938002,10040986831,646061081,3315367878,3017372545,3315367731,3675745347,3315367671,3315367459,3315367434,3017372524,3315367364,3315366947,5610210512,702511697,6129316876,5313058790,5313058738,308300568,308300567,308300566,308300473,648548911,3269819960,308300470,308300469,308300467,308300466,315103283,303217863,308300565,698492397,303218728,10008644757,10920825771,10920825770,308300562,308300561,8326919823,843385471,315033182,2686119170,8347189864,315122901,315122907,8362746231,2296580888,2296580843,2296580800,6806428790,13735210084,2296580492,11082324527,1727306394,2287827759,12509888271,1859310257,391740307,2331302147,2331302102,2331302079,3674260514,9875778087,9875778105,3275133571,3275133569,3275133577,2851923700,391740925,391740945,811023211,811023436,851594708,3658380319,11069862001,9819008105,1849462998,391741277,2468432991,391741319,3924544394,2317755818,3267779271,2160387438,9518293091,8927673264,10167999978,10167999982,13063657082,2160387449,1577578135,3260875583,1573956010,2938505116,4102697797,2938505128],"coordinates":[[-66.1531465,-17.4853758],[-66.15241870000001,-17.484546],[-66.15055620000001,-17.483458000000002],[-66.15019310000001,-17.4831778],[-66.150783,-17.482860900000002],[-66.1517433,-17.482460800000002],[-66.15179760000001,-17.4822725],[-66.1513669,-17.4820925],[-66.1501065,-17.481765600000003],[-66.14974480000001,-17.4810765],[-66.14957740000001,-17.4807536],[-66.1501439,-17.479520100000002],[-66.15108620000001,-17.4799468],[-66.151685,-17.480159],[-66.1525479,-17.479103900000002],[-66.15151800000001,-17.4782107],[-66.15010910000001,-17.4777491],[-66.1488982,-17.476846100000003],[-66.14940680000001,-17.475431500000003],[-66.1492506,-17.4747814],[-66.1487132,-17.474113000000003],[-66.1477222,-17.473785900000003],[-66.1460759,-17.4733291],[-66.14452410000001,-17.4726278],[-66.1436726,-17.472152400000002],[-66.1428941,-17.471738600000002],[-66.14276070000001,-17.471141600000003],[-66.1432461,-17.471140700000003],[-66.14361330000001,-17.4710995],[-66.1451916,-17.470394900000002],[-66.1454341,-17.469555300000003],[-66.1456234,-17.4685644],[-66.1459947,-17.4666219],[-66.1463543,-17.4647386],[-66.1463592,-17.464300100000003],[-66.1456634,-17.463767800000003],[-66.1448706,-17.46226],[-66.1444823,-17.4614894],[-66.14425600000001,-17.460710900000002],[-66.14315970000001,-17.457037500000002],[-66.1417359,-17.451916100000002],[-66.1418122,-17.451628000000003],[-66.1416763,-17.451151900000003],[-66.1412366,-17.4511168],[-66.1409984,-17.449216900000003],[-66.1409924,-17.4475494],[-66.14089100000001,-17.4475282],[-66.1407954,-17.4475261],[-66.1407554,-17.4474506],[-66.14086230000001,-17.4462262],[-66.14106550000001,-17.4455008],[-66.1416451,-17.4445875],[-66.1411552,-17.444046],[-66.1420616,-17.442894300000003],[-66.14308150000001,-17.441902900000002],[-66.1442243,-17.4407277],[-66.1451643,-17.439511200000002],[-66.14586800000001,-17.437976000000003],[-66.1455286,-17.438030100000002],[-66.1453867,-17.437914000000003],[-66.14569680000001,-17.4374639],[-66.14733860000001,-17.4353002],[-66.1489382,-17.4331591],[-66.1500503,-17.4316567],[-66.15052250000001,-17.4309346],[-66.1509693,-17.429924800000002],[-66.1512046,-17.429471600000003],[-66.1515071,-17.429114000000002],[-66.1529307,-17.4276804],[-66.1536583,-17.4258662],[-66.15378910000001,-17.4250127],[-66.1537423,-17.4236599],[-66.15347030000001,-17.4222569],[-66.15325990000001,-17.421819600000003],[-66.1530706,-17.421633200000002],[-66.15300230000001,-17.4214819],[-66.15303990000001,-17.4213819],[-66.1530566,-17.4210391],[-66.15261190000001,-17.4199819],[-66.15181340000001,-17.418523200000003],[-66.15153880000001,-17.4178989],[-66.1515174,-17.4176253],[-66.1515696,-17.417045400000003],[-66.15164440000001,-17.4169197],[-66.1518939,-17.4167913],[-66.1531339,-17.415198],[-66.153436,-17.4145295],[-66.1536069,-17.413714900000002],[-66.1534922,-17.410274400000002],[-66.1533606,-17.4061008],[-66.1532959,-17.403607500000003],[-66.1533196,-17.4030749],[-66.1533222,-17.4026581],[-66.1533031,-17.4023036],[-66.1532722,-17.4014247],[-66.15325,-17.4007249],[-66.1531973,-17.3991016],[-66.1531927,-17.3988455],[-66.15319450000001,-17.3987646],[-66.15332190000001,-17.398064100000003],[-66.1535317,-17.397006],[-66.15373170000001,-17.3959471],[-66.15392250000001,-17.394892300000002],[-66.15401100000001,-17.3944121],[-66.1541124,-17.3938613],[-66.1543214,-17.3928243],[-66.15450050000001,-17.3918758],[-66.1545177,-17.3917873],[-66.1547116,-17.3907655],[-66.1549105,-17.3897477],[-66.1549294,-17.389649700000003],[-66.1551357,-17.388646700000002],[-66.15533660000001,-17.3875835],[-66.15563370000001,-17.3876361],[-66.15650330000001,-17.3864649],[-66.15769200000001,-17.384869700000003],[-66.1584854,-17.3837894],[-66.159362,-17.382616600000002],[-66.1594513,-17.382231],[-66.1597232,-17.3819275],[-66.1599741,-17.3817115],[-66.16011780000001,-17.3811615],[-66.16005480000001,-17.380921400000002],[-66.16003880000001,-17.380693200000003],[-66.1601869,-17.380589800000003],[-66.1608171,-17.378584200000002],[-66.1609998,-17.3779672],[-66.1614492,-17.3764034],[-66.16177540000001,-17.375302700000002],[-66.16255670000001,-17.372627100000003],[-66.1627158,-17.372092700000003],[-66.1628915,-17.3714879],[-66.1636433,-17.3689071],[-66.16362070000001,-17.3686586],[-66.16368960000001,-17.3682614],[-66.1638805,-17.368155400000003],[-66.1642023,-17.3679729],[-66.16643400000001,-17.3663637],[-66.1669827,-17.366025200000003],[-66.167662,-17.3656881],[-66.1679304,-17.365669],[-66.1689348,-17.365752],[-66.16960900000001,-17.365964400000003],[-66.1703002,-17.3660114],[-66.1711219,-17.365802000000002],[-66.171789,-17.3657317],[-66.1735725,-17.3656113],[-66.175967,-17.365189100000002],[-66.1767185,-17.3649679],[-66.1783705,-17.3644648],[-66.178847,-17.3642943],[-66.17962320000001,-17.363833200000002],[-66.1809655,-17.362712000000002],[-66.18142510000001,-17.3621646],[-66.18205420000001,-17.361152800000003],[-66.1831032,-17.359044500000003],[-66.18426380000001,-17.3574099],[-66.1848006,-17.356830600000002],[-66.1868884,-17.3601093],[-66.18805280000001,-17.3606537],[-66.18849080000001,-17.3610319],[-66.18895660000001,-17.361617300000002],[-66.1895186,-17.3620272],[-66.1898613,-17.3623179],[-66.1909351,-17.360747800000002],[-66.19166630000001,-17.3601965],[-66.19329230000001,-17.3589623],[-66.1956025,-17.3577756],[-66.1964289,-17.3567593],[-66.19772640000001,-17.3567554],[-66.1982148,-17.356883]]}}},{"type":"Feature","properties":{"bus":"yes","highway":"bus_stop","name":"Parada 17","public_transport":"platform","id":9139049452},"geometry":{"type":"Point","coordinates":[-66.1527003,-17.3958011]}},{"type":"Feature","properties":{"bus":"yes","departures_board":"no","highway":"bus_stop","name":"Parada 17","public_transport":"platform","shelter":"no","id":11386959253},"geometry":{"type":"Point","coordinates":[-66.15305380000001,-17.485342300000003]}}]}