{"type":"FeatureCollection","features":[{"type":"Feature","properties":{"check_date":"29/12/2025","from":"Torrentera Arocagua Mayu","name":"MiniBus 45: Torrentera Arocagua Mayu → Calle Serranía de Caíza","network":"BO:CB:Cochabamba","on_demand":"yes","operator":"Sindicato de taxis y trufis 14 de septiembre","public_transport:version":"2","ref":"45","route":"bus","to":"Calle Serranía de Caíza","type":"route","wheelchair":"no","id":10718946},"geometry":{"type":"LineString","coordinates":[[-66.1151671,-17.368156],[-66.1150036,-17.3680726],[-66.1149725,-17.3680507],[-66.1148599,-17.3679947],[-66.1138496,-17.3683586],[-66.1137895,-17.3684051],[-66.1137697,-17.3685131],[-66.1137132,-17.368595],[-66.1136731,-17.3697941],[-66.1136353,-17.3703277],[-66.1135858,-17.3708654],[-66.1135569,-17.3713922],[-66.1134966,-17.3724318],[-66.1134707,-17.3728783],[-66.113806,-17.372892],[-66.1143877,-17.3729122],[-66.1149545,-17.3729281],[-66.115721,-17.3729657],[-66.115715,-17.3730738],[-66.1156863,-17.3735613],[-66.1156557,-17.3739889],[-66.1156429,-17.3743952],[-66.1156271,-17.3747997],[-66.1156202,-17.37504],[-66.1152824,-17.3751706],[-66.1158741,-17.3758062],[-66.1164888,-17.3764656],[-66.116063,-17.3766327],[-66.1163714,-17.3769636],[-66.1166781,-17.3772927],[-66.1170678,-17.3771377],[-66.1171058,-17.3771226],[-66.1174495,-17.3769736],[-66.118313,-17.3766359],[-66.1183569,-17.3766242],[-66.1190207,-17.3763984],[-66.1198501,-17.3770309],[-66.1205833,-17.3767842],[-66.1206057,-17.376767],[-66.1206326,-17.3767575],[-66.1206613,-17.3767566],[-66.1206879,-17.376764],[-66.1207108,-17.3767788],[-66.1207279,-17.3767996],[-66.1207375,-17.3768244],[-66.1207386,-17.3768508],[-66.1207313,-17.3768763],[-66.1207201,-17.3768939],[-66.1207048,-17.3769085],[-66.1206862,-17.3769191],[-66.1207402,-17.3769808],[-66.1218888,-17.3781861],[-66.1226917,-17.3790258],[-66.122715,-17.3790715],[-66.1227232,-17.3791269],[-66.1227152,-17.3792594],[-66.1227145,-17.3793227],[-66.122742,-17.3793899],[-66.1236093,-17.3788174],[-66.1242133,-17.3784409],[-66.12471,-17.3781074],[-66.1253598,-17.3776556],[-66.1257746,-17.377356],[-66.1269581,-17.3765211],[-66.1270244,-17.376476],[-66.1271995,-17.3763545],[-66.1275504,-17.3761126],[-66.1279626,-17.3758313],[-66.1281352,-17.37571],[-66.1282882,-17.3756033],[-66.1288149,-17.3752302],[-66.1288741,-17.375188],[-66.128931,-17.3751503],[-66.1289543,-17.3751348],[-66.1289841,-17.3751153],[-66.1291394,-17.3750181],[-66.1292574,-17.3749494],[-66.1292821,-17.3749351],[-66.129327,-17.3749113],[-66.1294482,-17.3748504],[-66.1296174,-17.3747803],[-66.1298412,-17.3747014],[-66.1300549,-17.3746383],[-66.1302801,-17.37459],[-66.1305217,-17.3745502],[-66.1307689,-17.3745291],[-66.1313669,-17.3745232],[-66.1313916,-17.374523],[-66.1319101,-17.3745287],[-66.1321407,-17.3745275],[-66.132369,-17.3745257],[-66.1331657,-17.3745288],[-66.1332276,-17.374529],[-66.1336639,-17.3745303],[-66.1345247,-17.374534],[-66.1346749,-17.3745448],[-66.1348695,-17.3745687],[-66.1349714,-17.3745873],[-66.1350574,-17.3746031],[-66.1352388,-17.3746459],[-66.1354291,-17.3747002],[-66.1355865,-17.3747547],[-66.1357657,-17.3748287],[-66.1359602,-17.3749201],[-66.1361757,-17.3750446],[-66.1366294,-17.3753417],[-66.1371488,-17.3756925],[-66.1371768,-17.3757114],[-66.1375633,-17.3759426],[-66.137902,-17.3761238],[-66.1382558,-17.376282],[-66.138489,-17.3763838],[-66.1387412,-17.3764855],[-66.1389497,-17.3765576],[-66.1392113,-17.3766371],[-66.1396414,-17.3767716],[-66.1403943,-17.3769468],[-66.1408419,-17.3770223],[-66.1410415,-17.3770506],[-66.1411913,-17.3770792],[-66.1414646,-17.3771422],[-66.1420069,-17.3772685],[-66.1422247,-17.3773187],[-66.1422829,-17.3773512],[-66.1423113,-17.377371],[-66.1423373,-17.3773952],[-66.1423637,-17.3774238],[-66.1423853,-17.3774579],[-66.142406,-17.3774992],[-66.1424178,-17.3775385],[-66.1424231,-17.3775785],[-66.1424229,-17.3776065],[-66.142421,-17.3776344],[-66.1424051,-17.3777627],[-66.1423809,-17.3780515],[-66.1423777,-17.3782277],[-66.142358,-17.3784481],[-66.1423561,-17.3786003],[-66.1423592,-17.3786717],[-66.1423772,-17.3787495],[-66.1423857,-17.3787904],[-66.1424117,-17.378833],[-66.1424539,-17.3788802],[-66.1425271,-17.3789172],[-66.1427305,-17.3789834],[-66.1429971,-17.3790674],[-66.1430493,-17.3790829],[-66.1431317,-17.3791113],[-66.1431716,-17.3791262],[-66.1436182,-17.3792927],[-66.1437635,-17.3793961],[-66.1441866,-17.3795514],[-66.1445062,-17.3796595],[-66.1446005,-17.3796914],[-66.1446651,-17.3797132],[-66.1447885,-17.3797546],[-66.1448567,-17.3797774],[-66.1449379,-17.3798047],[-66.1453397,-17.3799394],[-66.145831,-17.3801041],[-66.1459655,-17.3801492],[-66.1460565,-17.3801775],[-66.1463273,-17.3802699],[-66.146644,-17.3803782],[-66.1470341,-17.3805057],[-66.1471626,-17.380543],[-66.1472794,-17.3805719],[-66.1473851,-17.380592],[-66.1474969,-17.3806133],[-66.1477717,-17.3806576],[-66.1478768,-17.3806746],[-66.1480441,-17.3806925],[-66.1484039,-17.3807273],[-66.1489406,-17.3807568],[-66.1490852,-17.3807647],[-66.1491992,-17.380771],[-66.1494532,-17.380785],[-66.1495449,-17.38079],[-66.1495718,-17.3807915],[-66.1496369,-17.3807951],[-66.1497803,-17.3808002],[-66.1498488,-17.3808035],[-66.1498697,-17.3808045],[-66.1506224,-17.3808409],[-66.1506502,-17.3808422],[-66.1506945,-17.3808443],[-66.1507513,-17.380847],[-66.1508284,-17.3808504],[-66.1509122,-17.3808556],[-66.1512684,-17.3808754],[-66.1513148,-17.3808508],[-66.1513887,-17.3808543],[-66.1515515,-17.3808653],[-66.1517122,-17.3808729],[-66.1519038,-17.3808756],[-66.1519208,-17.3806937],[-66.1519222,-17.3805369],[-66.151916,-17.3804292],[-66.151894,-17.3803402],[-66.1518541,-17.3801712],[-66.1518253,-17.3801178],[-66.151804,-17.3800653],[-66.1517964,-17.3799886],[-66.1518147,-17.3799136],[-66.1518573,-17.3798485],[-66.151908,-17.3798238],[-66.1519639,-17.3798131],[-66.1520206,-17.3798172],[-66.1520741,-17.3798359],[-66.1521204,-17.3798676],[-66.1521545,-17.3799229],[-66.1521707,-17.3799853],[-66.1521677,-17.3800494],[-66.1521458,-17.3801102],[-66.1520931,-17.3801673],[-66.1520583,-17.3802363],[-66.1520295,-17.3803711],[-66.1520082,-17.380641],[-66.15199,-17.3809334],[-66.1519803,-17.381014],[-66.1519205,-17.3815379],[-66.1519173,-17.3815757],[-66.1519287,-17.3816306],[-66.1519491,-17.3816773],[-66.1520457,-17.3817187],[-66.1521335,-17.3817752],[-66.1522101,-17.3818449],[-66.1522733,-17.381926],[-66.1522835,-17.3819453],[-66.1523209,-17.3820162],[-66.1523387,-17.3820841],[-66.1523498,-17.382163],[-66.1523496,-17.3822275],[-66.1523415,-17.382301],[-66.1523193,-17.3823884],[-66.1522786,-17.3824727],[-66.1522248,-17.3825501],[-66.1521593,-17.3826187],[-66.1520834,-17.3826766],[-66.1521378,-17.3827606],[-66.1521573,-17.3827907],[-66.1526343,-17.3835267],[-66.1526722,-17.3835852],[-66.1527153,-17.3836506],[-66.1530632,-17.3841788],[-66.1531075,-17.384246],[-66.1531824,-17.3842318],[-66.1532765,-17.3842422],[-66.1533707,-17.3842862],[-66.1534455,-17.3843481],[-66.1534689,-17.3843761],[-66.1535069,-17.3844218],[-66.1535385,-17.3844826],[-66.1535666,-17.3845642],[-66.1535826,-17.3846255],[-66.1535886,-17.3846716],[-66.153589,-17.3847326],[-66.1535833,-17.3847708],[-66.1535641,-17.3848154],[-66.1535438,-17.3848443],[-66.1535127,-17.3848629],[-66.1535533,-17.3849197],[-66.1535934,-17.3849851],[-66.1537361,-17.3852174],[-66.1539286,-17.3855308],[-66.1539766,-17.385604],[-66.1540228,-17.3856771],[-66.1541264,-17.3858416],[-66.1545624,-17.3865334],[-66.1546042,-17.3866004],[-66.1545695,-17.3866828],[-66.1543149,-17.3872702],[-66.1542768,-17.3873272],[-66.1542551,-17.3873875],[-66.1541807,-17.3877356],[-66.1541533,-17.3878639],[-66.1541408,-17.3879222],[-66.1540332,-17.3884258],[-66.1538354,-17.3894455],[-66.1538289,-17.3894766],[-66.1537825,-17.3896951],[-66.1537347,-17.3899324],[-66.1536219,-17.3904922],[-66.1534349,-17.3913133],[-66.1533849,-17.3915329],[-66.1533744,-17.3915849],[-66.1533576,-17.3916716],[-66.1533466,-17.3917265],[-66.1531979,-17.3926236],[-66.1530004,-17.3936642],[-66.1529612,-17.3938747],[-66.1528081,-17.3946979],[-66.1526171,-17.3957535],[-66.1524397,-17.396804],[-66.1522494,-17.3977878],[-66.1522434,-17.3978983],[-66.1522488,-17.3981452],[-66.1522284,-17.3983815],[-66.1522191,-17.398466],[-66.1522189,-17.3985461],[-66.1521909,-17.3987987],[-66.1521652,-17.3991575],[-66.1521595,-17.3992571],[-66.1521487,-17.3993274],[-66.152152,-17.3999095],[-66.1521961,-17.4014555],[-66.1522352,-17.4023897],[-66.1526695,-17.4023164],[-66.1533031,-17.4023036],[-66.1539503,-17.4022747],[-66.1540131,-17.4022708],[-66.1545042,-17.4022427],[-66.1549673,-17.4022081],[-66.1553165,-17.4021915],[-66.1559482,-17.4021963],[-66.1566669,-17.4022092],[-66.1567358,-17.4008781],[-66.1573928,-17.4009738],[-66.1574786,-17.4009863],[-66.1575885,-17.4010023],[-66.1575752,-17.4011537],[-66.157522,-17.4015753],[-66.1574818,-17.4020121],[-66.1574693,-17.4021498],[-66.1574602,-17.4022501],[-66.1574143,-17.4026402],[-66.1573804,-17.4029274],[-66.1573057,-17.4034308],[-66.1571981,-17.4039846],[-66.1571744,-17.4040293],[-66.1571494,-17.4040811],[-66.1569751,-17.4051438],[-66.156929,-17.4053964],[-66.1567149,-17.4065683],[-66.1566752,-17.4068311],[-66.1566081,-17.4073735],[-66.1565791,-17.4075962],[-66.1565643,-17.407672],[-66.1565522,-17.4077489],[-66.1563919,-17.408892],[-66.1562995,-17.4093093],[-66.1562526,-17.409537],[-66.1561494,-17.4101159],[-66.1561031,-17.4104088],[-66.1560788,-17.4106525],[-66.1560387,-17.4110086],[-66.1563064,-17.4118389],[-66.1563676,-17.4120812],[-66.1563982,-17.412262],[-66.1564103,-17.4124229],[-66.1565158,-17.4130482],[-66.1565199,-17.4130722],[-66.1566585,-17.4138321],[-66.156664,-17.4138639],[-66.1567889,-17.4145922],[-66.1568293,-17.4147082],[-66.1569922,-17.4155388],[-66.1570091,-17.4156269],[-66.1570227,-17.4157096],[-66.157197,-17.4165706],[-66.157207,-17.4166281],[-66.1572232,-17.4167107],[-66.1573721,-17.4176234],[-66.1575465,-17.4187052],[-66.1576093,-17.4191214],[-66.157644,-17.4193561],[-66.1576803,-17.419601],[-66.1576838,-17.4196249],[-66.1576939,-17.4196932],[-66.1577032,-17.4197518],[-66.1577297,-17.4199188],[-66.1577703,-17.4201746],[-66.1577789,-17.4202297],[-66.157817,-17.4204683],[-66.1578206,-17.420491],[-66.1578264,-17.420528],[-66.1578847,-17.4209201],[-66.1579216,-17.4211652],[-66.1580254,-17.4217709],[-66.1580356,-17.4218393],[-66.1581657,-17.4226696],[-66.158183,-17.4227871],[-66.1582975,-17.4235739],[-66.1584775,-17.4245309],[-66.1587278,-17.4257287],[-66.1587448,-17.4257964],[-66.1586595,-17.425793],[-66.1581169,-17.425774],[-66.157916,-17.4257668],[-66.1572385,-17.4257424],[-66.1564058,-17.4257108],[-66.1558078,-17.4256927],[-66.1557385,-17.4256906],[-66.1556726,-17.4256886],[-66.1549026,-17.4256653],[-66.1548487,-17.4268414],[-66.1547695,-17.4290227],[-66.1547557,-17.4291222],[-66.1546685,-17.4299232],[-66.1546609,-17.4301342],[-66.1546183,-17.4309087],[-66.1545005,-17.4324884],[-66.1543506,-17.4340782],[-66.1541958,-17.4358179],[-66.154187,-17.4359704],[-66.1541932,-17.436098],[-66.1542183,-17.4362222],[-66.1542586,-17.4363453],[-66.1543709,-17.4366038],[-66.1544322,-17.4367259],[-66.1545218,-17.4367301],[-66.154837,-17.4367447],[-66.154966,-17.436742],[-66.1552192,-17.4367515],[-66.1558064,-17.4367737],[-66.1557475,-17.4378505],[-66.1556903,-17.4389608],[-66.155689,-17.4389855],[-66.1556887,-17.4389953],[-66.1556486,-17.4400465],[-66.1556393,-17.4405855],[-66.1556197,-17.4410957],[-66.1555887,-17.4416379],[-66.1555858,-17.4417222],[-66.1555757,-17.4417497],[-66.1555495,-17.4417984],[-66.1555119,-17.4418582],[-66.1553862,-17.4420901],[-66.1553407,-17.442234],[-66.1553291,-17.442305],[-66.155329,-17.4423622],[-66.1553466,-17.4426064],[-66.1553395,-17.4426824],[-66.1552931,-17.4427584],[-66.1552802,-17.4428608],[-66.1552738,-17.4429702],[-66.1552679,-17.4433436],[-66.1553276,-17.4448093],[-66.1553722,-17.445906],[-66.1553734,-17.4459507],[-66.1553778,-17.4469712],[-66.1553776,-17.4470071],[-66.1553809,-17.4471265],[-66.155382,-17.4471557],[-66.1552483,-17.4471661],[-66.1550245,-17.4471777],[-66.1548866,-17.447162],[-66.1547429,-17.4471314],[-66.1546081,-17.4470748],[-66.1544578,-17.4469892],[-66.1543576,-17.44688],[-66.154296,-17.4468266],[-66.1538903,-17.4466187],[-66.1537981,-17.4466151],[-66.1537311,-17.446609],[-66.1536382,-17.4466043],[-66.1532802,-17.4464659],[-66.1528377,-17.4462769],[-66.1524672,-17.4461266],[-66.1522609,-17.4462624],[-66.151495,-17.4461106],[-66.1500906,-17.4458768],[-66.1499357,-17.4454561],[-66.1499216,-17.4454178],[-66.1497409,-17.4454236],[-66.1497369,-17.4453537],[-66.1497032,-17.4453175],[-66.1496305,-17.4452901],[-66.1491504,-17.4452778],[-66.1485316,-17.4452628],[-66.1485032,-17.4462172],[-66.1485016,-17.4474787],[-66.1484925,-17.4491431],[-66.1485067,-17.450085],[-66.1491373,-17.4500647],[-66.1497689,-17.4500562],[-66.1498321,-17.4500553],[-66.1498321,-17.4501253],[-66.1498322,-17.4503112],[-66.1498455,-17.4509211],[-66.1498456,-17.4510047],[-66.1498832,-17.4522531]],"nodes":[8439903482,5891284794,3017431094,2319491003,8430309909,2319491011,3292628177,1493826908,1493827011,1493827054,1493827106,1493827160,1493827217,1493827236,1489808237,8430309822,1489808256,1486245873,1486245879,1489808339,1489808405,1489808463,1489808505,1489808523,1486246104,1486246180,1486246206,1486246213,8455228551,1486246232,8455228553,1486246231,1486246224,1486246215,2805250608,1486246202,1485096988,6617622700,8455228592,8455228593,1485096984,8455228594,8455228595,8455228596,8455228597,8455228599,6617622701,8455228584,8455228585,6617622702,2857544340,1485097003,1485097016,10254796303,8401062286,10254846264,8401062287,1485097020,1485097014,9366321723,3877506232,1044379733,9366321725,8455317281,1009167683,8455317287,3290785083,11074088806,8162958964,1008238435,9012647241,497170001,9364555678,12952456793,1008238205,12952456779,12952456795,1008238230,8455639761,9364555682,7070768690,497170007,1008238537,497170008,497170010,1008238793,9364556031,497169979,497169953,6818591873,3316224538,12565837684,9359800374,9359800375,497169954,497169957,1044379345,12565837681,1009166481,497169958,6331635756,1009167549,497169962,6331635762,1044379589,1044379213,7965603739,598266521,598266518,1044379730,1044379735,1796486751,7965587281,1796486753,6331635754,1796486765,1044378919,9049714571,8385091906,598266493,8385091908,8385091907,602989551,8385091909,8385091914,5298602495,8385091913,1795293284,1795293323,8385091911,8385091910,8385091912,1795293424,1795293286,1795293393,1796486808,1795293430,2391341448,2391341465,1795293437,1795293264,1795293299,1795293277,8385093431,1795293338,2391341613,1795293296,2391341634,11977928457,1637609981,312425308,5353082139,11526125528,8388301552,312425919,4965282164,9584233882,9584233881,312425679,8389429275,312425664,2442129608,8389429274,10725027604,9030099129,9030099130,312425284,9794053510,312425283,8389429338,3924633677,9287273662,4040921136,10949120641,10949120639,9918656347,9918656345,11526125551,11526125550,668478533,312425273,9976167278,11526125549,11526125552,9976167280,9514998338,312425423,4154782682,9884224451,11911412596,11911412595,8365941798,8365941797,8368153992,9311178495,8365941768,9068826414,315226441,2220378931,2220378894,8365941769,2220378835,2220378817,2220378788,2220378759,8427474483,2220378730,2220378739,8258249831,2220378751,2220378764,2220378802,2220378822,2220378854,2441014237,2441014238,315226521,323942905,8365941793,2220378989,9309963143,8355285964,9068826350,8355285960,8355285959,2220379013,8355285958,2220379045,11081648809,1718842341,9816174021,2312198105,9042368177,2220379137,2220379178,8355285955,2220379216,9724070706,2220379256,4106074539,9950189853,3719465032,311359554,3719465033,8347669583,315029717,2113137343,2113137344,2113137346,2113137349,9641985261,315029572,2113137356,2113137358,2113137364,315029575,2113137372,9641985263,2113137377,9641985260,315029577,2113137382,11927510605,11927510611,2113137401,311357057,2113137404,10749443790,4341961454,310503101,4341961457,4341946257,310501355,2317965895,11885983267,12874237771,11886036004,310501186,310501175,7919097330,7919097337,13308457623,308306726,9932841687,2289661584,303218727,698492404,2289661596,310256286,303217864,9863185783,310281532,310500613,310500796,2765190335,310501003,8238783225,8238783240,1727306396,648548895,8238783131,8238783133,310503106,9941529677,843386643,310503107,323983970,6129316868,308300568,5313058805,323983784,702511962,5313058740,323982548,2765190393,323982551,323978402,4929965587,310262504,648543481,8637329085,2577975115,2577975131,9090462298,648542366,9652874528,702511644,2577975282,2577975307,9090462294,648542369,648542365,9131177339,323972806,2763553535,702511613,2763553554,2763553563,8226219195,319762950,1637437071,9131083914,2763553594,9131083870,319762952,319762953,648534611,560101168,3709606816,3709606819,11727597290,497187494,3709607014,11727597288,3709607018,1497947893,5433999187,497187505,5433999186,5433895294,740519915,5433895292,1497947915,1497947892,740519920,13067849843,13067849853,13067849851,4679599413,12589580114,13383715977,740519921,7768396127,12519463522,7768396129,13383715982,740519924,7768396074,740519927,12519463515,1866314088,8290039272,3306658847,2022073889,1638831970,3307354192,3307354191,3307354190,4113029915,3307354186,3307354179,13416147677,3307354176,13416147675,3307354170,2149916008,1615155239,3307354376,1615155237,1638807972,1615155230,2053282943,2053282952,1617352145,1615155252,3308828410,3308828412,1615155244,1615155232,1615155227,1615155236,3308828420,1617351991,1617351899,1617352179,2053282904,6861747968,1617352057,6861747967,3017399359,3017390014,1617351987,1617352207,13159082294,13159082293,3311611301,13159081860,5314086255,3647863369,13159081859,1617352087,1617351960,13336382370,1617351930,6133714650,3647863399,1617351921,1617352024,3647863640,1617351953,3647863745,2022078143,11071526193,1617352185,3657170792,3657170793,3657170791,3657170789,3657170783,3657170774,3657170765,3657170761,3657170753,3657170755,3657170754,3657170752,3657170748,3657170737,3657170726,3657170732,9956191302,1626983288,11574745242,3657163713,1617345023,3657163711,1617345029,3657163710,1617345036,1617345052,1617344938,1617345008,1617345048,1617344990,1617345056,9119260685,1617344952,9586555667,9119260684,9119260688,1617348750,1617344998]},"gtfs":{"agency_id":10,"route_id":49,"services":[{"service_id":"Mo-Su","startTime":"06:00","endTime":"22:00","trip_id":10718946}],"filteredStops":{"nodes":[8439903482,5891284794,3017431094,2319491003,8430309909,2319491011,3292628177,1493826908,1493827011,1493827054,1493827106,1493827160,1493827217,1493827236,1489808237,8430309822,1489808256,1486245873,1486245879,1489808339,1489808405,1489808463,1489808505,1489808523,1486246104,1486246180,1486246206,1486246213,8455228551,1486246232,8455228553,1486246231,1486246224,1486246215,2805250608,1486246202,1485096988,6617622700,8455228592,8455228593,1485096984,8455228594,8455228595,8455228596,8455228597,8455228599,6617622701,8455228584,8455228585,6617622702,2857544340,1485097003,1485097016,10254796303,8401062286,10254846264,8401062287,1485097020,1485097014,9366321723,3877506232,1044379733,9366321725,8455317281,1009167683,8455317287,3290785083,11074088806,8162958964,1008238435,9012647241,497170001,9364555678,12952456793,1008238205,12952456779,12952456795,1008238230,8455639761,9364555682,7070768690,497170007,1008238537,497170008,497170010,1008238793,9364556031,497169979,497169953,6818591873,3316224538,12565837684,9359800374,9359800375,497169954,497169957,1044379345,12565837681,1009166481,497169958,6331635756,1009167549,497169962,6331635762,1044379589,1044379213,7965603739,598266521,598266518,1044379730,1044379735,1796486751,7965587281,1796486753,6331635754,1796486765,1044378919,9049714571,8385091906,598266493,8385091908,8385091907,602989551,8385091909,8385091914,5298602495,8385091913,1795293284,1795293323,8385091911,8385091910,8385091912,1795293424,1795293286,1795293393,1796486808,1795293430,2391341448,2391341465,1795293437,1795293264,1795293299,1795293277,8385093431,1795293338,2391341613,1795293296,2391341634,11977928457,1637609981,312425308,5353082139,11526125528,8388301552,312425919,4965282164,9584233882,9584233881,312425679,8389429275,312425664,2442129608,8389429274,10725027604,9030099129,9030099130,312425284,9794053510,312425283,8389429338,3924633677,9287273662,4040921136,10949120641,10949120639,9918656347,9918656345,11526125551,11526125550,668478533,312425273,9976167278,11526125549,11526125552,9976167280,9514998338,312425423,4154782682,9884224451,11911412596,11911412595,8365941798,8365941797,8368153992,9311178495,8365941768,9068826414,315226441,2220378931,2220378894,8365941769,2220378835,2220378817,2220378788,2220378759,8427474483,2220378730,2220378739,8258249831,2220378751,2220378764,2220378802,2220378822,2220378854,2441014237,2441014238,315226521,323942905,8365941793,2220378989,9309963143,8355285964,9068826350,8355285960,8355285959,2220379013,8355285958,2220379045,11081648809,1718842341,9816174021,2312198105,9042368177,2220379137,2220379178,8355285955,2220379216,9724070706,2220379256,4106074539,9950189853,3719465032,311359554,3719465033,8347669583,315029717,2113137343,2113137344,2113137346,2113137349,9641985261,315029572,2113137356,2113137358,2113137364,315029575,2113137372,9641985263,2113137377,9641985260,315029577,2113137382,11927510605,11927510611,2113137401,311357057,2113137404,10749443790,4341961454,310503101,4341961457,4341946257,310501355,2317965895,11885983267,12874237771,11886036004,310501186,310501175,7919097330,7919097337,13308457623,308306726,9932841687,2289661584,303218727,698492404,2289661596,310256286,303217864,9863185783,310281532,310500613,310500796,2765190335,310501003,8238783225,8238783240,1727306396,648548895,8238783131,8238783133,310503106,9941529677,843386643,310503107,323983970,6129316868,308300568,5313058805,323983784,702511962,5313058740,323982548,2765190393,323982551,323978402,4929965587,310262504,648543481,8637329085,2577975115,2577975131,9090462298,648542366,9652874528,702511644,2577975282,2577975307,9090462294,648542369,648542365,9131177339,323972806,2763553535,702511613,2763553554,2763553563,8226219195,319762950,1637437071,9131083914,2763553594,9131083870,319762952,319762953,648534611,560101168,3709606816,3709606819,11727597290,497187494,3709607014,11727597288,3709607018,1497947893,5433999187,497187505,5433999186,5433895294,740519915,5433895292,1497947915,1497947892,740519920,13067849843,13067849853,13067849851,4679599413,12589580114,13383715977,740519921,7768396127,12519463522,7768396129,13383715982,740519924,7768396074,740519927,12519463515,1866314088,8290039272,3306658847,2022073889,1638831970,3307354192,3307354191,3307354190,4113029915,3307354186,3307354179,13416147677,3307354176,13416147675,3307354170,2149916008,1615155239,3307354376,1615155237,1638807972,1615155230,2053282943,2053282952,1617352145,1615155252,3308828410,3308828412,1615155244,1615155232,1615155227,1615155236,3308828420,1617351991,1617351899,1617352179,2053282904,6861747968,1617352057,6861747967,3017399359,3017390014,1617351987,1617352207,13159082294,13159082293,3311611301,13159081860,5314086255,3647863369,13159081859,1617352087,1617351960,13336382370,1617351930,6133714650,3647863399,1617351921,1617352024,3647863640,1617351953,3647863745,2022078143,11071526193,1617352185,3657170792,3657170793,3657170791,3657170789,3657170783,3657170774,3657170765,3657170761,3657170753,3657170755,3657170754,3657170752,3657170748,3657170737,3657170726,3657170732,9956191302,1626983288,11574745242,3657163713,1617345023,3657163711,1617345029,3657163710,1617345036,1617345052,1617344938,1617345008,1617345048,1617344990,1617345056,9119260685,1617344952,9586555667,9119260684,9119260688,1617348750,1617344998],"coordinates":[[-66.1151671,-17.368156],[-66.1150036,-17.3680726],[-66.1149725,-17.3680507],[-66.1148599,-17.3679947],[-66.1138496,-17.3683586],[-66.1137895,-17.3684051],[-66.1137697,-17.3685131],[-66.1137132,-17.368595],[-66.1136731,-17.3697941],[-66.1136353,-17.3703277],[-66.1135858,-17.3708654],[-66.1135569,-17.3713922],[-66.1134966,-17.3724318],[-66.1134707,-17.3728783],[-66.113806,-17.372892],[-66.1143877,-17.3729122],[-66.1149545,-17.3729281],[-66.115721,-17.3729657],[-66.115715,-17.3730738],[-66.1156863,-17.3735613],[-66.1156557,-17.3739889],[-66.1156429,-17.3743952],[-66.1156271,-17.3747997],[-66.1156202,-17.37504],[-66.1152824,-17.3751706],[-66.1158741,-17.3758062],[-66.1164888,-17.3764656],[-66.116063,-17.3766327],[-66.1163714,-17.3769636],[-66.1166781,-17.3772927],[-66.1170678,-17.3771377],[-66.1171058,-17.3771226],[-66.1174495,-17.3769736],[-66.118313,-17.3766359],[-66.1183569,-17.3766242],[-66.1190207,-17.3763984],[-66.1198501,-17.3770309],[-66.1205833,-17.3767842],[-66.1206057,-17.376767],[-66.1206326,-17.3767575],[-66.1206613,-17.3767566],[-66.1206879,-17.376764],[-66.1207108,-17.3767788],[-66.1207279,-17.3767996],[-66.1207375,-17.3768244],[-66.1207386,-17.3768508],[-66.1207313,-17.3768763],[-66.1207201,-17.3768939],[-66.1207048,-17.3769085],[-66.1206862,-17.3769191],[-66.1207402,-17.3769808],[-66.1218888,-17.3781861],[-66.1226917,-17.3790258],[-66.122715,-17.3790715],[-66.1227232,-17.3791269],[-66.1227152,-17.3792594],[-66.1227145,-17.3793227],[-66.122742,-17.3793899],[-66.1236093,-17.3788174],[-66.1242133,-17.3784409],[-66.12471,-17.3781074],[-66.1253598,-17.3776556],[-66.1257746,-17.377356],[-66.1269581,-17.3765211],[-66.1270244,-17.376476],[-66.1271995,-17.3763545],[-66.1275504,-17.3761126],[-66.1279626,-17.3758313],[-66.1281352,-17.37571],[-66.1282882,-17.3756033],[-66.1288149,-17.3752302],[-66.1288741,-17.375188],[-66.128931,-17.3751503],[-66.1289543,-17.3751348],[-66.1289841,-17.3751153],[-66.1291394,-17.3750181],[-66.1292574,-17.3749494],[-66.1292821,-17.3749351],[-66.129327,-17.3749113],[-66.1294482,-17.3748504],[-66.1296174,-17.3747803],[-66.1298412,-17.3747014],[-66.1300549,-17.3746383],[-66.1302801,-17.37459],[-66.1305217,-17.3745502],[-66.1307689,-17.3745291],[-66.1313669,-17.3745232],[-66.1313916,-17.374523],[-66.1319101,-17.3745287],[-66.1321407,-17.3745275],[-66.132369,-17.3745257],[-66.1331657,-17.3745288],[-66.1332276,-17.374529],[-66.1336639,-17.3745303],[-66.1345247,-17.374534],[-66.1346749,-17.3745448],[-66.1348695,-17.3745687],[-66.1349714,-17.3745873],[-66.1350574,-17.3746031],[-66.1352388,-17.3746459],[-66.1354291,-17.3747002],[-66.1355865,-17.3747547],[-66.1357657,-17.3748287],[-66.1359602,-17.3749201],[-66.1361757,-17.3750446],[-66.1366294,-17.3753417],[-66.1371488,-17.3756925],[-66.1371768,-17.3757114],[-66.1375633,-17.3759426],[-66.137902,-17.3761238],[-66.1382558,-17.376282],[-66.138489,-17.3763838],[-66.1387412,-17.3764855],[-66.1389497,-17.3765576],[-66.1392113,-17.3766371],[-66.1396414,-17.3767716],[-66.1403943,-17.3769468],[-66.1408419,-17.3770223],[-66.1410415,-17.3770506],[-66.1411913,-17.3770792],[-66.1414646,-17.3771422],[-66.1420069,-17.3772685],[-66.1422247,-17.3773187],[-66.1422829,-17.3773512],[-66.1423113,-17.377371],[-66.1423373,-17.3773952],[-66.1423637,-17.3774238],[-66.1423853,-17.3774579],[-66.142406,-17.3774992],[-66.1424178,-17.3775385],[-66.1424231,-17.3775785],[-66.1424229,-17.3776065],[-66.142421,-17.3776344],[-66.1424051,-17.3777627],[-66.1423809,-17.3780515],[-66.1423777,-17.3782277],[-66.142358,-17.3784481],[-66.1423561,-17.3786003],[-66.1423592,-17.3786717],[-66.1423772,-17.3787495],[-66.1423857,-17.3787904],[-66.1424117,-17.378833],[-66.1424539,-17.3788802],[-66.1425271,-17.3789172],[-66.1427305,-17.3789834],[-66.1429971,-17.3790674],[-66.1430493,-17.3790829],[-66.1431317,-17.3791113],[-66.1431716,-17.3791262],[-66.1436182,-17.3792927],[-66.1437635,-17.3793961],[-66.1441866,-17.3795514],[-66.1445062,-17.3796595],[-66.1446005,-17.3796914],[-66.1446651,-17.3797132],[-66.1447885,-17.3797546],[-66.1448567,-17.3797774],[-66.1449379,-17.3798047],[-66.1453397,-17.3799394],[-66.145831,-17.3801041],[-66.1459655,-17.3801492],[-66.1460565,-17.3801775],[-66.1463273,-17.3802699],[-66.146644,-17.3803782],[-66.1470341,-17.3805057],[-66.1471626,-17.380543],[-66.1472794,-17.3805719],[-66.1473851,-17.380592],[-66.1474969,-17.3806133],[-66.1477717,-17.3806576],[-66.1478768,-17.3806746],[-66.1480441,-17.3806925],[-66.1484039,-17.3807273],[-66.1489406,-17.3807568],[-66.1490852,-17.3807647],[-66.1491992,-17.380771],[-66.1494532,-17.380785],[-66.1495449,-17.38079],[-66.1495718,-17.3807915],[-66.1496369,-17.3807951],[-66.1497803,-17.3808002],[-66.1498488,-17.3808035],[-66.1498697,-17.3808045],[-66.1506224,-17.3808409],[-66.1506502,-17.3808422],[-66.1506945,-17.3808443],[-66.1507513,-17.380847],[-66.1508284,-17.3808504],[-66.1509122,-17.3808556],[-66.1512684,-17.3808754],[-66.1513148,-17.3808508],[-66.1513887,-17.3808543],[-66.1515515,-17.3808653],[-66.1517122,-17.3808729],[-66.1519038,-17.3808756],[-66.1519208,-17.3806937],[-66.1519222,-17.3805369],[-66.151916,-17.3804292],[-66.151894,-17.3803402],[-66.1518541,-17.3801712],[-66.1518253,-17.3801178],[-66.151804,-17.3800653],[-66.1517964,-17.3799886],[-66.1518147,-17.3799136],[-66.1518573,-17.3798485],[-66.151908,-17.3798238],[-66.1519639,-17.3798131],[-66.1520206,-17.3798172],[-66.1520741,-17.3798359],[-66.1521204,-17.3798676],[-66.1521545,-17.3799229],[-66.1521707,-17.3799853],[-66.1521677,-17.3800494],[-66.1521458,-17.3801102],[-66.1520931,-17.3801673],[-66.1520583,-17.3802363],[-66.1520295,-17.3803711],[-66.1520082,-17.380641],[-66.15199,-17.3809334],[-66.1519803,-17.381014],[-66.1519205,-17.3815379],[-66.1519173,-17.3815757],[-66.1519287,-17.3816306],[-66.1519491,-17.3816773],[-66.1520457,-17.3817187],[-66.1521335,-17.3817752],[-66.1522101,-17.3818449],[-66.1522733,-17.381926],[-66.1522835,-17.3819453],[-66.1523209,-17.3820162],[-66.1523387,-17.3820841],[-66.1523498,-17.382163],[-66.1523496,-17.3822275],[-66.1523415,-17.382301],[-66.1523193,-17.3823884],[-66.1522786,-17.3824727],[-66.1522248,-17.3825501],[-66.1521593,-17.3826187],[-66.1520834,-17.3826766],[-66.1521378,-17.3827606],[-66.1521573,-17.3827907],[-66.1526343,-17.3835267],[-66.1526722,-17.3835852],[-66.1527153,-17.3836506],[-66.1530632,-17.3841788],[-66.1531075,-17.384246],[-66.1531824,-17.3842318],[-66.1532765,-17.3842422],[-66.1533707,-17.3842862],[-66.1534455,-17.3843481],[-66.1534689,-17.3843761],[-66.1535069,-17.3844218],[-66.1535385,-17.3844826],[-66.1535666,-17.3845642],[-66.1535826,-17.3846255],[-66.1535886,-17.3846716],[-66.153589,-17.3847326],[-66.1535833,-17.3847708],[-66.1535641,-17.3848154],[-66.1535438,-17.3848443],[-66.1535127,-17.3848629],[-66.1535533,-17.3849197],[-66.1535934,-17.3849851],[-66.1537361,-17.3852174],[-66.1539286,-17.3855308],[-66.1539766,-17.385604],[-66.1540228,-17.3856771],[-66.1541264,-17.3858416],[-66.1545624,-17.3865334],[-66.1546042,-17.3866004],[-66.1545695,-17.3866828],[-66.1543149,-17.3872702],[-66.1542768,-17.3873272],[-66.1542551,-17.3873875],[-66.1541807,-17.3877356],[-66.1541533,-17.3878639],[-66.1541408,-17.3879222],[-66.1540332,-17.3884258],[-66.1538354,-17.3894455],[-66.1538289,-17.3894766],[-66.1537825,-17.3896951],[-66.1537347,-17.3899324],[-66.1536219,-17.3904922],[-66.1534349,-17.3913133],[-66.1533849,-17.3915329],[-66.1533744,-17.3915849],[-66.1533576,-17.3916716],[-66.1533466,-17.3917265],[-66.1531979,-17.3926236],[-66.1530004,-17.3936642],[-66.1529612,-17.3938747],[-66.1528081,-17.3946979],[-66.1526171,-17.3957535],[-66.1524397,-17.396804],[-66.1522494,-17.3977878],[-66.1522434,-17.3978983],[-66.1522488,-17.3981452],[-66.1522284,-17.3983815],[-66.1522191,-17.398466],[-66.1522189,-17.3985461],[-66.1521909,-17.3987987],[-66.1521652,-17.3991575],[-66.1521595,-17.3992571],[-66.1521487,-17.3993274],[-66.152152,-17.3999095],[-66.1521961,-17.4014555],[-66.1522352,-17.4023897],[-66.1526695,-17.4023164],[-66.1533031,-17.4023036],[-66.1539503,-17.4022747],[-66.1540131,-17.4022708],[-66.1545042,-17.4022427],[-66.1549673,-17.4022081],[-66.1553165,-17.4021915],[-66.1559482,-17.4021963],[-66.1566669,-17.4022092],[-66.1567358,-17.4008781],[-66.1573928,-17.4009738],[-66.1574786,-17.4009863],[-66.1575885,-17.4010023],[-66.1575752,-17.4011537],[-66.157522,-17.4015753],[-66.1574818,-17.4020121],[-66.1574693,-17.4021498],[-66.1574602,-17.4022501],[-66.1574143,-17.4026402],[-66.1573804,-17.4029274],[-66.1573057,-17.4034308],[-66.1571981,-17.4039846],[-66.1571744,-17.4040293],[-66.1571494,-17.4040811],[-66.1569751,-17.4051438],[-66.156929,-17.4053964],[-66.1567149,-17.4065683],[-66.1566752,-17.4068311],[-66.1566081,-17.4073735],[-66.1565791,-17.4075962],[-66.1565643,-17.407672],[-66.1565522,-17.4077489],[-66.1563919,-17.408892],[-66.1562995,-17.4093093],[-66.1562526,-17.409537],[-66.1561494,-17.4101159],[-66.1561031,-17.4104088],[-66.1560788,-17.4106525],[-66.1560387,-17.4110086],[-66.1563064,-17.4118389],[-66.1563676,-17.4120812],[-66.1563982,-17.412262],[-66.1564103,-17.4124229],[-66.1565158,-17.4130482],[-66.1565199,-17.4130722],[-66.1566585,-17.4138321],[-66.156664,-17.4138639],[-66.1567889,-17.4145922],[-66.1568293,-17.4147082],[-66.1569922,-17.4155388],[-66.1570091,-17.4156269],[-66.1570227,-17.4157096],[-66.157197,-17.4165706],[-66.157207,-17.4166281],[-66.1572232,-17.4167107],[-66.1573721,-17.4176234],[-66.1575465,-17.4187052],[-66.1576093,-17.4191214],[-66.157644,-17.4193561],[-66.1576803,-17.419601],[-66.1576838,-17.4196249],[-66.1576939,-17.4196932],[-66.1577032,-17.4197518],[-66.1577297,-17.4199188],[-66.1577703,-17.4201746],[-66.1577789,-17.4202297],[-66.157817,-17.4204683],[-66.1578206,-17.420491],[-66.1578264,-17.420528],[-66.1578847,-17.4209201],[-66.1579216,-17.4211652],[-66.1580254,-17.4217709],[-66.1580356,-17.4218393],[-66.1581657,-17.4226696],[-66.158183,-17.4227871],[-66.1582975,-17.4235739],[-66.1584775,-17.4245309],[-66.1587278,-17.4257287],[-66.1587448,-17.4257964],[-66.1586595,-17.425793],[-66.1581169,-17.425774],[-66.157916,-17.4257668],[-66.1572385,-17.4257424],[-66.1564058,-17.4257108],[-66.1558078,-17.4256927],[-66.1557385,-17.4256906],[-66.1556726,-17.4256886],[-66.1549026,-17.4256653],[-66.1548487,-17.4268414],[-66.1547695,-17.4290227],[-66.1547557,-17.4291222],[-66.1546685,-17.4299232],[-66.1546609,-17.4301342],[-66.1546183,-17.4309087],[-66.1545005,-17.4324884],[-66.1543506,-17.4340782],[-66.1541958,-17.4358179],[-66.154187,-17.4359704],[-66.1541932,-17.436098],[-66.1542183,-17.4362222],[-66.1542586,-17.4363453],[-66.1543709,-17.4366038],[-66.1544322,-17.4367259],[-66.1545218,-17.4367301],[-66.154837,-17.4367447],[-66.154966,-17.436742],[-66.1552192,-17.4367515],[-66.1558064,-17.4367737],[-66.1557475,-17.4378505],[-66.1556903,-17.4389608],[-66.155689,-17.4389855],[-66.1556887,-17.4389953],[-66.1556486,-17.4400465],[-66.1556393,-17.4405855],[-66.1556197,-17.4410957],[-66.1555887,-17.4416379],[-66.1555858,-17.4417222],[-66.1555757,-17.4417497],[-66.1555495,-17.4417984],[-66.1555119,-17.4418582],[-66.1553862,-17.4420901],[-66.1553407,-17.442234],[-66.1553291,-17.442305],[-66.155329,-17.4423622],[-66.1553466,-17.4426064],[-66.1553395,-17.4426824],[-66.1552931,-17.4427584],[-66.1552802,-17.4428608],[-66.1552738,-17.4429702],[-66.1552679,-17.4433436],[-66.1553276,-17.4448093],[-66.1553722,-17.445906],[-66.1553734,-17.4459507],[-66.1553778,-17.4469712],[-66.1553776,-17.4470071],[-66.1553809,-17.4471265],[-66.155382,-17.4471557],[-66.1552483,-17.4471661],[-66.1550245,-17.4471777],[-66.1548866,-17.447162],[-66.1547429,-17.4471314],[-66.1546081,-17.4470748],[-66.1544578,-17.4469892],[-66.1543576,-17.44688],[-66.154296,-17.4468266],[-66.1538903,-17.4466187],[-66.1537981,-17.4466151],[-66.1537311,-17.446609],[-66.1536382,-17.4466043],[-66.1532802,-17.4464659],[-66.1528377,-17.4462769],[-66.1524672,-17.4461266],[-66.1522609,-17.4462624],[-66.151495,-17.4461106],[-66.1500906,-17.4458768],[-66.1499357,-17.4454561],[-66.1499216,-17.4454178],[-66.1497409,-17.4454236],[-66.1497369,-17.4453537],[-66.1497032,-17.4453175],[-66.1496305,-17.4452901],[-66.1491504,-17.4452778],[-66.1485316,-17.4452628],[-66.1485032,-17.4462172],[-66.1485016,-17.4474787],[-66.1484925,-17.4491431],[-66.1485067,-17.450085],[-66.1491373,-17.4500647],[-66.1497689,-17.4500562],[-66.1498321,-17.4500553],[-66.1498321,-17.4501253],[-66.1498322,-17.4503112],[-66.1498455,-17.4509211],[-66.1498456,-17.4510047],[-66.1498832,-17.4522531]]}}}]}