{"type":"FeatureCollection","features":[{"type":"Feature","properties":{"check_date":"29/12/2025","from":"Avenida Chilimarca","name":"MiniBus 13: Avenida Chilimarca → Villa San Miguel","network":"BO:CB:Cochabamba","on_demand":"yes","operator":"Sindicato mixto de transporte público 6 de mayo","public_transport:version":"2","ref":"13","route":"bus","to":"Villa San Miguel","type":"route","wheelchair":"no","id":10712334},"geometry":{"type":"LineString","coordinates":[[-66.2017395,-17.3385809],[-66.2020575,-17.3387958],[-66.2023627,-17.3390019],[-66.2024851,-17.3391266],[-66.2025986,-17.3393305],[-66.2027243,-17.3395563],[-66.2029788,-17.3400179],[-66.2031494,-17.3403211],[-66.203369,-17.3408097],[-66.2035255,-17.3411578],[-66.2036702,-17.3414642],[-66.2037157,-17.3415745],[-66.2038326,-17.3419689],[-66.2038473,-17.3420069],[-66.2038592,-17.342051],[-66.2038797,-17.3421043],[-66.2038952,-17.3421806],[-66.2038981,-17.3422546],[-66.2038875,-17.3423237],[-66.2037986,-17.3425187],[-66.2036206,-17.3427997],[-66.203578,-17.3428749],[-66.2035741,-17.3429114],[-66.2035791,-17.34295],[-66.2037089,-17.3431678],[-66.2037491,-17.343234],[-66.2039719,-17.3435719],[-66.2039904,-17.3436013],[-66.2045612,-17.3445203],[-66.2048326,-17.3449717],[-66.2048617,-17.3450189],[-66.2049133,-17.3451279],[-66.2043116,-17.3453634],[-66.2042144,-17.3453991],[-66.2041561,-17.3454287],[-66.2036611,-17.345667],[-66.2033826,-17.3458024],[-66.2029937,-17.3459914],[-66.2027057,-17.3461282],[-66.2025158,-17.3462099],[-66.2023733,-17.3462723],[-66.2022868,-17.3463085],[-66.2011817,-17.3467548],[-66.2005236,-17.347033],[-66.2003118,-17.3471131],[-66.1999673,-17.3472561],[-66.1999066,-17.3472805],[-66.1998019,-17.3473211],[-66.1996959,-17.3473615],[-66.1986244,-17.3478087],[-66.1983887,-17.3479038],[-66.1975452,-17.3482488],[-66.1969189,-17.3485083],[-66.1966774,-17.3486211],[-66.1965222,-17.3486977],[-66.1959066,-17.3490435],[-66.1946996,-17.3496712],[-66.1941674,-17.3499621],[-66.1939153,-17.3500999],[-66.1935202,-17.3503159],[-66.193244,-17.3504752],[-66.1929365,-17.3506544],[-66.1926213,-17.3508604],[-66.1923719,-17.3510234],[-66.1922896,-17.3510787],[-66.1920062,-17.351265],[-66.1917342,-17.3514518],[-66.1915437,-17.3515827],[-66.1913324,-17.3517395],[-66.1907466,-17.3521766],[-66.1907138,-17.3522011],[-66.1899628,-17.3528104],[-66.1898741,-17.3528787],[-66.1897727,-17.352958],[-66.1889861,-17.3535872],[-66.1889207,-17.3536392],[-66.1880863,-17.3542805],[-66.1878493,-17.354472],[-66.1877648,-17.3545343],[-66.1877324,-17.3545599],[-66.1876662,-17.3546102],[-66.1876366,-17.3546327],[-66.1875869,-17.3546705],[-66.1875266,-17.3547178],[-66.187126,-17.3550327],[-66.1866871,-17.3553771],[-66.185658,-17.3561774],[-66.1856109,-17.356214],[-66.1850746,-17.3565958],[-66.184936,-17.3567105],[-66.1848006,-17.3568306],[-66.1847301,-17.3569011],[-66.1846468,-17.3570138],[-66.1840773,-17.3578876],[-66.1833082,-17.3589644],[-66.1832508,-17.3590284],[-66.1831977,-17.3590967],[-66.1831341,-17.3591824],[-66.1830695,-17.3592918],[-66.1826633,-17.3601208],[-66.1821207,-17.3612509],[-66.1820694,-17.3613293],[-66.1817636,-17.3618311],[-66.1814995,-17.36224],[-66.1814453,-17.3623112],[-66.1813907,-17.3623714],[-66.1812461,-17.3625434],[-66.1810592,-17.3627734],[-66.1808856,-17.3629293],[-66.1806538,-17.3631396],[-66.1804759,-17.3632776],[-66.1799864,-17.3636602],[-66.1796769,-17.3638997],[-66.1794633,-17.364045],[-66.1793056,-17.3641448],[-66.1790011,-17.3643096],[-66.178873,-17.3643769],[-66.1787583,-17.3644371],[-66.1786344,-17.3644825],[-66.1785679,-17.3645046],[-66.1785234,-17.3645185],[-66.178408,-17.3645546],[-66.1783719,-17.3645654],[-66.178284,-17.3645885],[-66.1779812,-17.3646935],[-66.1767955,-17.3650514],[-66.1767575,-17.3650629],[-66.1766743,-17.3650875],[-66.1765439,-17.3651266],[-66.1764768,-17.3651467],[-66.1751548,-17.3655435],[-66.1750141,-17.3655887],[-66.1749184,-17.3656146],[-66.1748031,-17.3656383],[-66.1733237,-17.3657397],[-66.1718641,-17.365821],[-66.1717966,-17.3658248],[-66.1715775,-17.3658391],[-66.1714925,-17.3658447],[-66.1714101,-17.3658491],[-66.1712985,-17.3658629],[-66.1711497,-17.3658979],[-66.1711192,-17.3659051],[-66.1709461,-17.3659562],[-66.1706407,-17.3660461],[-66.1704853,-17.3660898],[-66.1703409,-17.3661184],[-66.1702301,-17.3661286],[-66.1701006,-17.3661299],[-66.1699469,-17.3661229],[-66.1697832,-17.3661045],[-66.1696172,-17.3660766],[-66.1694981,-17.3660445],[-66.1694323,-17.3660214],[-66.1693403,-17.3659874],[-66.1690477,-17.3658885],[-66.1688934,-17.3658519],[-66.1687179,-17.3658213],[-66.1686355,-17.3658171],[-66.1685651,-17.3658135],[-66.1682722,-17.3657976],[-66.1679002,-17.3657773],[-66.1678124,-17.3657801],[-66.167736,-17.3657875],[-66.16768,-17.365801],[-66.1676156,-17.3658199],[-66.1675492,-17.3658444],[-66.167449,-17.3658858],[-66.1672959,-17.3659658],[-66.1670355,-17.3661164],[-66.1669496,-17.366166],[-66.1668968,-17.3661974],[-66.1666857,-17.366323],[-66.1665063,-17.3664424],[-66.1661295,-17.3667085],[-66.1661032,-17.3667279],[-66.1658913,-17.366882],[-66.1658373,-17.3669237],[-66.1651421,-17.3674257],[-66.1642493,-17.3680575],[-66.1641573,-17.3681314],[-66.1640875,-17.3681998],[-66.1640592,-17.3682405],[-66.1640437,-17.368284],[-66.164057,-17.3683599],[-66.1640552,-17.3684238],[-66.1640528,-17.3684526],[-66.1640391,-17.3685209],[-66.1640145,-17.3685864],[-66.1639797,-17.3686476],[-66.1639354,-17.3687028],[-66.1638826,-17.3687505],[-66.1638262,-17.3688157],[-66.1637969,-17.3688607],[-66.1637566,-17.3689209],[-66.1637339,-17.368975],[-66.1635894,-17.3694995],[-66.1633104,-17.3704268],[-66.1632793,-17.3705342],[-66.1629707,-17.3716013],[-66.1629631,-17.3716275],[-66.1628606,-17.3719817],[-66.1627881,-17.3722325],[-66.1627415,-17.3723846],[-66.1627243,-17.3724486],[-66.1626975,-17.3725484],[-66.1626738,-17.3726282],[-66.1626655,-17.372657],[-66.1626469,-17.3727147],[-66.1624847,-17.3732722],[-66.1623417,-17.3737608],[-66.1619469,-17.3751099],[-66.1619132,-17.3752197],[-66.1618519,-17.3754289],[-66.1618315,-17.3754986],[-66.1615816,-17.3763513],[-66.1615755,-17.3763721],[-66.1615553,-17.3764448],[-66.1615333,-17.3765194],[-66.1613573,-17.3771167],[-66.1611004,-17.3779932],[-66.1610775,-17.3780745],[-66.1610462,-17.3781873],[-66.1610272,-17.3782558],[-66.1609592,-17.3784883],[-66.1609424,-17.3785457],[-66.1608112,-17.3789943],[-66.1607831,-17.3790903],[-66.1607443,-17.3792232],[-66.1604215,-17.3803268],[-66.1603952,-17.3804271],[-66.1603946,-17.380447],[-66.1603903,-17.3805384],[-66.1604026,-17.3806234],[-66.1604292,-17.3807053],[-66.160446,-17.3807533],[-66.1604502,-17.3808037],[-66.1604418,-17.3808536],[-66.1604211,-17.3809001],[-66.1603894,-17.3809406],[-66.1603483,-17.3810263],[-66.1603242,-17.3810949],[-66.1603011,-17.3811631],[-66.1602836,-17.3812089],[-66.1602648,-17.3812714],[-66.1602553,-17.381306],[-66.1601491,-17.3816632],[-66.1601392,-17.381699],[-66.160118,-17.3817783],[-66.1601068,-17.3818443],[-66.1600997,-17.3819171],[-66.1601024,-17.3820084],[-66.160124,-17.3821361],[-66.1601469,-17.3822132],[-66.1601468,-17.3822926],[-66.1601403,-17.382329],[-66.1601337,-17.3823653],[-66.1601052,-17.3824327],[-66.1600491,-17.3824933],[-66.1599485,-17.3825638],[-66.1598111,-17.3826671],[-66.1597435,-17.3827412],[-66.1596513,-17.3828653],[-66.1596135,-17.3829447],[-66.1595022,-17.3830911],[-66.1593386,-17.3833062],[-66.1593007,-17.383356],[-66.1591066,-17.3836114],[-66.1589959,-17.383757],[-66.1588865,-17.3839009],[-66.1588472,-17.3839526],[-66.1588041,-17.3840085],[-66.1587884,-17.3840289],[-66.1586145,-17.3842548],[-66.1584148,-17.384514],[-66.1583937,-17.3845414],[-66.1583738,-17.3845669],[-66.1582879,-17.3846768],[-66.1580811,-17.3849472],[-66.1579708,-17.3850718],[-66.1579598,-17.3850858],[-66.1579357,-17.3851178],[-66.1578614,-17.3852154],[-66.1577607,-17.3853388],[-66.1575084,-17.3856628],[-66.1568608,-17.38651],[-66.1567872,-17.3866071],[-66.1567448,-17.3866577],[-66.1564624,-17.3870295],[-66.1560665,-17.3875508],[-66.1560532,-17.3875977],[-66.1560502,-17.3876487],[-66.1560494,-17.3877097],[-66.1562979,-17.3877537],[-66.156277,-17.3878777],[-66.1562142,-17.3884451],[-66.156169,-17.3887191],[-66.1561573,-17.388816],[-66.1560704,-17.3887901],[-66.1554886,-17.3886972],[-66.1552071,-17.3886532],[-66.1551357,-17.3886467],[-66.1550609,-17.3886428],[-66.1540332,-17.3884258],[-66.1529838,-17.388202],[-66.1518364,-17.3879394],[-66.1517708,-17.3879252],[-66.1517588,-17.3879999],[-66.1516101,-17.388925],[-66.151604,-17.3889628],[-66.1515995,-17.3889879],[-66.1515922,-17.3890291],[-66.1514143,-17.390025],[-66.1512469,-17.3911242],[-66.1512362,-17.3911812],[-66.1512194,-17.3912742],[-66.1512104,-17.3913248],[-66.1511296,-17.3917295],[-66.1510383,-17.3921922],[-66.151028,-17.3922446],[-66.1510205,-17.3922844],[-66.1508421,-17.3932269],[-66.150834,-17.3932743],[-66.1508222,-17.3933342],[-66.1506546,-17.3943283],[-66.1504423,-17.3953552],[-66.1503862,-17.3956441],[-66.1502362,-17.3964175],[-66.1500348,-17.3975665],[-66.150021,-17.3976385],[-66.1500136,-17.3976877],[-66.1499487,-17.3984764],[-66.1499407,-17.3985529],[-66.1499065,-17.3990035],[-66.1498494,-17.3998668],[-66.1500222,-17.3998728],[-66.1501395,-17.3998796],[-66.1502575,-17.399903],[-66.1503592,-17.3999303],[-66.1504801,-17.3999711],[-66.1506108,-17.4000341],[-66.1507434,-17.4001219],[-66.1508693,-17.4002252],[-66.150939,-17.4002895],[-66.1510132,-17.4003714],[-66.1510832,-17.4004668],[-66.1511583,-17.4005867],[-66.1512403,-17.4007535],[-66.1512896,-17.400901],[-66.1513107,-17.4010414],[-66.1513179,-17.401207],[-66.1513116,-17.4013496],[-66.1512901,-17.4014743],[-66.1512351,-17.4016052],[-66.1510926,-17.4019104],[-66.1510363,-17.4020268],[-66.1510003,-17.4021361],[-66.1509697,-17.4022563],[-66.1509643,-17.4023812],[-66.1509743,-17.4025874],[-66.1510012,-17.4031363],[-66.1510151,-17.403494],[-66.151025,-17.4038341],[-66.1510241,-17.4039937],[-66.1510096,-17.4041425],[-66.1509707,-17.4044188],[-66.1509247,-17.404686],[-66.1508784,-17.4048938],[-66.1508636,-17.4049278],[-66.1508695,-17.4049354],[-66.1508738,-17.4049439],[-66.1508769,-17.4049564],[-66.1508767,-17.4049692],[-66.1508731,-17.4049816],[-66.1508664,-17.4049928],[-66.150857,-17.405002],[-66.1508595,-17.405027],[-66.1508603,-17.4050958],[-66.1508022,-17.4076298],[-66.1508067,-17.4084116],[-66.1507991,-17.4087701],[-66.1508148,-17.4093633],[-66.1510285,-17.4114067],[-66.1510873,-17.4118997],[-66.1511538,-17.4123642],[-66.1511946,-17.4126857],[-66.1512648,-17.4132136],[-66.151189,-17.4132531],[-66.1503342,-17.4137204],[-66.1493566,-17.4142422],[-66.1495903,-17.4144938],[-66.149785,-17.4146895],[-66.1499164,-17.4148808],[-66.1500479,-17.4150891],[-66.1501472,-17.4152684],[-66.1502225,-17.4154568],[-66.1502789,-17.4156198],[-66.1503116,-17.4157882],[-66.1503329,-17.4159361],[-66.150362,-17.4162014],[-66.1503703,-17.4164868],[-66.1503649,-17.4165848],[-66.150343,-17.4167342],[-66.1502777,-17.417102],[-66.150174,-17.4176537],[-66.1501324,-17.4179158],[-66.1500836,-17.4180577],[-66.1500316,-17.4181772],[-66.1498087,-17.4185285],[-66.1492609,-17.4193039],[-66.1493015,-17.4193352],[-66.1493218,-17.4193665],[-66.1493834,-17.4196166],[-66.1493075,-17.4196369],[-66.149243,-17.4196464],[-66.149203,-17.4196354],[-66.1489045,-17.4195144],[-66.1488555,-17.4194958],[-66.1487969,-17.4194859],[-66.1487551,-17.4194825],[-66.1486578,-17.4194823],[-66.1482426,-17.4195059],[-66.1476294,-17.4195424],[-66.147289,-17.4195627],[-66.14703,-17.4195757],[-66.1465061,-17.419609],[-66.1464101,-17.4196151],[-66.1460215,-17.4196391],[-66.1447007,-17.4197207],[-66.1445939,-17.4197273],[-66.1439634,-17.4197669],[-66.1433615,-17.4197995],[-66.1427602,-17.4198335],[-66.1426926,-17.4198372],[-66.1421339,-17.419868],[-66.141976,-17.4198781],[-66.1416177,-17.419901],[-66.1415139,-17.4199076],[-66.1409078,-17.4199408],[-66.1405463,-17.4199618],[-66.1402894,-17.4199767],[-66.1399925,-17.4199918],[-66.1397568,-17.4199991],[-66.1397276,-17.4200019],[-66.1396656,-17.419998],[-66.1396145,-17.4199887],[-66.1395681,-17.4199707],[-66.13954,-17.4200354],[-66.1395212,-17.4201002],[-66.139314,-17.4210075],[-66.139244,-17.4212175],[-66.1391845,-17.4213435],[-66.139101,-17.4214584],[-66.1388979,-17.4216719],[-66.1388371,-17.421722],[-66.1385262,-17.4220318],[-66.1382564,-17.4223031],[-66.1379223,-17.4226459],[-66.1376449,-17.4229232],[-66.1385356,-17.4237202],[-66.1384345,-17.4238638],[-66.1383421,-17.4239581],[-66.1381976,-17.4241143],[-66.138023,-17.4242678],[-66.1377269,-17.4243451],[-66.1375543,-17.4244088],[-66.136947,-17.4246488],[-66.1366533,-17.424757],[-66.1365451,-17.4248109],[-66.1363353,-17.4249275],[-66.1361974,-17.4250404],[-66.1359881,-17.425243],[-66.1358963,-17.4253262],[-66.1357907,-17.425418],[-66.1356831,-17.4255114],[-66.1354029,-17.4257603],[-66.1352861,-17.4258665],[-66.1350371,-17.4261632],[-66.1346936,-17.4265678],[-66.1345708,-17.4266943],[-66.1344239,-17.4268027],[-66.1342013,-17.4269377],[-66.1338633,-17.4271309],[-66.1338243,-17.4271534],[-66.1336186,-17.4272495],[-66.1333899,-17.4273526],[-66.1331876,-17.4274644],[-66.133089,-17.4275329],[-66.1326576,-17.4278633],[-66.1324852,-17.427974],[-66.1324308,-17.4280254],[-66.1323526,-17.4280795],[-66.1322405,-17.4281403],[-66.1321307,-17.4282016],[-66.1320009,-17.4282462],[-66.1316505,-17.4284037],[-66.1313622,-17.4285453],[-66.1311452,-17.4286831],[-66.1307638,-17.4290084],[-66.1304942,-17.4292694],[-66.1304336,-17.429362],[-66.1303877,-17.4294869],[-66.1303169,-17.4297632],[-66.1302742,-17.430005],[-66.1302534,-17.4302741],[-66.1302101,-17.4305384],[-66.1301819,-17.4306721],[-66.1300579,-17.4308538],[-66.1298939,-17.431065],[-66.1297014,-17.4312929],[-66.1290105,-17.4320303],[-66.1288322,-17.4322003],[-66.1284513,-17.4325175],[-66.1282818,-17.4327542],[-66.1281425,-17.4330582],[-66.1279748,-17.4334387],[-66.1278784,-17.4336727],[-66.1277891,-17.4340267],[-66.1276565,-17.4343882],[-66.1275727,-17.4346686],[-66.127467,-17.4350409],[-66.1274509,-17.4350977],[-66.1272899,-17.4356681],[-66.1271995,-17.435992],[-66.1270831,-17.4364092],[-66.1280475,-17.4365041],[-66.1281366,-17.436478],[-66.1282212,-17.4364866],[-66.128276,-17.4365246],[-66.128334,-17.436852],[-66.128364,-17.4370215],[-66.1284588,-17.4375213],[-66.1285729,-17.4380245],[-66.1286491,-17.4385177],[-66.1302507,-17.4381359],[-66.1303451,-17.4381207],[-66.1308869,-17.4379929],[-66.1316245,-17.4378186],[-66.1316472,-17.4383325],[-66.1315899,-17.4388463],[-66.1315855,-17.4389063],[-66.1316966,-17.43886],[-66.1321066,-17.4387619],[-66.132146,-17.4387624],[-66.1321768,-17.438781],[-66.1321925,-17.4388079],[-66.1323419,-17.4392969],[-66.1323757,-17.4393797],[-66.1324068,-17.4394336],[-66.1324134,-17.4394905],[-66.1323979,-17.4396161],[-66.1323813,-17.4397477],[-66.1323751,-17.4398688],[-66.1323782,-17.4399986],[-66.1323567,-17.440078],[-66.1323371,-17.4401523],[-66.1329264,-17.4403637],[-66.1334166,-17.44056]],"nodes":[789429920,7244001666,2318926599,789429533,7235717955,2318926607,2319145521,789429816,11305988949,789429408,2318926612,12542331629,6548530625,12542331628,789429585,11071572389,2318926613,2318926615,7235717915,789429889,2318926616,2318926621,12550245677,789429502,2319145553,8921352629,8228333118,2319145564,2319145582,10286957077,391742182,786837188,8921352626,851595223,4092054738,4826368371,9421257730,5423606637,1849462822,4826368384,4092053658,1573956127,11079404847,2317801102,2938504605,2938504607,3281552574,3281552575,8336001235,1573955997,5395813233,1577578193,2317801105,851594958,2317801107,1849462862,2938504639,4293894336,4293894903,3549077680,2555201623,1574086933,4293894917,1849462889,5040236968,5040236973,1577578151,3283363688,1849462895,11296295738,1849462897,4092054740,1865014746,1849462899,4503707176,1849462903,2160400899,11535045442,11707600500,851594766,11707600508,11707600537,1849462931,11707600531,2160400887,11071395285,11071395287,2160399194,1849462952,1849462955,3267779271,851594781,1849462957,11071450643,1849462968,2468432986,851594784,3267779294,1849462970,1849462977,851594885,2555201638,1849462984,851595399,11071450645,11070168865,1849462988,851595224,1849462993,3267790091,851595009,1849462996,1849462999,851595124,8927805091,851595343,11071300152,851594756,3658380318,2468433001,11069861999,11069861998,851594726,9175127262,851595044,5262484220,3658380321,851594788,12551721135,3658380322,563279735,563279728,1849463009,1849463010,851595235,10774545005,2331301978,10774545014,3296125249,9845867331,851594830,2290559025,9531771391,9768692252,9529353644,3300171298,2851923904,9768692251,3300171307,2851923908,3300171306,7304392738,9482805073,13161542286,851595381,7304392739,851595065,3275133584,9875778017,851594888,9948774394,2851923697,851595095,9482805148,9875772987,851594793,3275133586,9768692260,9768692261,9875778108,851594812,9875778128,9875778124,2331301984,9482805154,4929965582,9875778078,851594894,851595276,3674260515,2331302074,2331302094,9655177095,2331302104,7436801323,4261955416,11071382475,7436801327,9003433500,2331302139,2331302155,2331302169,4728105068,1726098719,598151876,9021398260,4728105055,2331302188,9655267009,12509888237,5560268904,12509911134,9731395675,2287827715,598151867,599541188,2287827757,10705908990,2287827775,9731395623,11941128474,2538203114,2287827791,8587411318,2370240939,11997866376,9797631610,689437336,11997826500,2296580487,2296580493,598151865,8423552836,2296580502,12409937736,11079100480,11079057399,11079105205,11079057401,598151864,9309922472,2296580751,2296580762,2296580773,2296580797,2296580808,8356437270,2296580827,2296580841,2296580860,2745674359,8356393909,2296580889,8356393896,8356393898,315120853,1636934221,8362746232,2296580913,8362746230,315121330,2312198087,315121318,315123534,315121319,10859658790,315123540,315121320,315121321,315121322,315121324,315121326,315032954,315122225,2312198310,8498956719,315120406,2312198349,12410976762,2312198364,843382865,2686119186,9141014729,9141014739,8147646008,12361931195,12361931196,2316430803,1718842329,2316430856,10839957166,2900514433,2900514438,8267963999,8365550317,2316430973,315033203,2296981998,10996487166,315032956,8326919828,2296982079,319768764,8326914441,2296982114,10684678844,2294524811,310501185,2294519106,8365550218,2294519093,308300562,2294524810,310501186,310501187,4341946253,310501188,4341946255,3952902739,310501176,7919097328,3952902747,308306728,2289661502,303214821,698492410,2289661567,1851061867,2318884993,310256065,8515866939,8686453437,303215161,8686453438,310287558,310500687,8398265856,310500993,9121686991,310501008,9121686993,1727306399,648548725,311361483,323985741,8089836059,3322574432,8089836057,2236815474,323985099,3322574439,323985098,3322574447,12313136860,3322574450,323985733,323985728,323985094,3322575566,3322575582,323985091,3322575621,702511972,323985713,323985089,323985705,323985934,6129312154,6129312155,2768899033,6129316905,659960390,659960389,12313146774,2768899066,659960388,659960387,8208190713,2768899084,9343198168,9343198169,9343198167,9343198163,9343198164,9343198165,2768899087,8208190715,8208190714,659960380,5610210856,659960379,659960354,3315366893,5610210853,5610210870,646065231,2545423147,646065259,2545423149,2032952251,3017377551,2032952104,3331947177,3017377431,3331947185,8945406894,2032951784,3017377429,2032952190,2032952152,3017377428,3331947244,2032951903,3017377426,1737906678,2032952249,2032951979,2032952227,3331947272,4871222807,12484607544,12484607543,2032951962,12484607546,2032952053,12484607548,12484607547,1600426582,8748098570,8748098571,4871222802,2033020660,2033020734,2032986866,8748098537,12484607563,2032951848,12484607565,12484607567,2032986775,2033020706,2033020723,2032986701,13203351571,2032987055,13203309791,13203309787,2032986980,2033020625,8729962104,3017315878,8945388382,7149422538,3017315881,9378197652,10258381346,2674329381,10258381348,10258381347,3017315883,3337319138,3017315884,3017315885,3017334252,3017315886,3017334253,3017328358,3017315897,3017315899,3017315900,3017315917,2266514657,8292399323,2043658888,3339995064,5557341110,2043659154,3017334255,2043658747,2043659044,2043658866,3017334257,2043658912,3339995082,2043659137,2043659003,3017334263,3017334262,2043658772,3564555327,2043658991,3566245276,3564555335,2043659059,2043658666,3564555340,3564555346,2043658735,3564555361,2043659087,3564555382,3566245503,3564555387,3564556599,2043658698,3017359154,2043659161,3017359155,2043659081,2043659179,3564556608,2043658814,2043658662,3566245613,2043659138,2043658686,2043658904,2043658634,3564406928,2043658914,2043658884,3017359555,2043658983,3564406957,2043659021,3017359187,3564406977,2043659118,2043659156,2043659149,8484224996,2043659104,2043658720,8484224992,1637667940,2677410574,2677410573,3547897277,1637667942,6465820562,2677410581,2677410585,2677410597,2677410602,2677410598,3547899824,3547899823,2677410594,2677410601,2677410613,3547899838,3547899836,2677410609,3547899828,2677410610,2677410612,3547899848,3547899853,3547899854,3547899859,2677410619,3017368413,3017368414,3017368415,2043659194,3017368412,2043659019,2043658979]},"gtfs":{"agency_id":7,"route_id":95,"services":[{"service_id":"Mo-Su","startTime":"06:00","endTime":"22:00","trip_id":10712334}],"filteredStops":{"nodes":[789429920,7244001666,2318926599,789429533,7235717955,2318926607,2319145521,789429816,11305988949,789429408,2318926612,12542331629,6548530625,12542331628,789429585,11071572389,2318926613,2318926615,7235717915,789429889,2318926616,2318926621,12550245677,789429502,2319145553,8921352629,8228333118,2319145564,2319145582,10286957077,391742182,786837188,8921352626,851595223,4092054738,4826368371,9421257730,5423606637,1849462822,4826368384,4092053658,1573956127,11079404847,2317801102,2938504605,2938504607,3281552574,3281552575,8336001235,1573955997,5395813233,1577578193,2317801105,851594958,2317801107,1849462862,2938504639,4293894336,4293894903,3549077680,2555201623,1574086933,4293894917,1849462889,5040236968,5040236973,1577578151,3283363688,1849462895,11296295738,1849462897,4092054740,1865014746,1849462899,4503707176,1849462903,2160400899,11535045442,11707600500,851594766,11707600508,11707600537,1849462931,11707600531,2160400887,11071395285,11071395287,2160399194,1849462952,1849462955,3267779271,851594781,1849462957,11071450643,1849462968,2468432986,851594784,3267779294,1849462970,1849462977,851594885,2555201638,1849462984,851595399,11071450645,11070168865,1849462988,851595224,1849462993,3267790091,851595009,1849462996,1849462999,851595124,8927805091,851595343,11071300152,851594756,3658380318,2468433001,11069861999,11069861998,851594726,9175127262,851595044,5262484220,3658380321,851594788,12551721135,3658380322,563279735,563279728,1849463009,1849463010,851595235,10774545005,2331301978,10774545014,3296125249,9845867331,851594830,2290559025,9531771391,9768692252,9529353644,3300171298,2851923904,9768692251,3300171307,2851923908,3300171306,7304392738,9482805073,13161542286,851595381,7304392739,851595065,3275133584,9875778017,851594888,9948774394,2851923697,851595095,9482805148,9875772987,851594793,3275133586,9768692260,9768692261,9875778108,851594812,9875778128,9875778124,2331301984,9482805154,4929965582,9875778078,851594894,851595276,3674260515,2331302074,2331302094,9655177095,2331302104,7436801323,4261955416,11071382475,7436801327,9003433500,2331302139,2331302155,2331302169,4728105068,1726098719,598151876,9021398260,4728105055,2331302188,9655267009,12509888237,5560268904,12509911134,9731395675,2287827715,598151867,599541188,2287827757,10705908990,2287827775,9731395623,11941128474,2538203114,2287827791,8587411318,2370240939,11997866376,9797631610,689437336,11997826500,2296580487,2296580493,598151865,8423552836,2296580502,12409937736,11079100480,11079057399,11079105205,11079057401,598151864,9309922472,2296580751,2296580762,2296580773,2296580797,2296580808,8356437270,2296580827,2296580841,2296580860,2745674359,8356393909,2296580889,8356393896,8356393898,315120853,1636934221,8362746232,2296580913,8362746230,315121330,2312198087,315121318,315123534,315121319,10859658790,315123540,315121320,315121321,315121322,315121324,315121326,315032954,315122225,2312198310,8498956719,315120406,2312198349,12410976762,2312198364,843382865,2686119186,9141014729,9141014739,8147646008,12361931195,12361931196,2316430803,1718842329,2316430856,10839957166,2900514433,2900514438,8267963999,8365550317,2316430973,315033203,2296981998,10996487166,315032956,8326919828,2296982079,319768764,8326914441,2296982114,10684678844,2294524811,310501185,2294519106,8365550218,2294519093,308300562,2294524810,310501186,310501187,4341946253,310501188,4341946255,3952902739,310501176,7919097328,3952902747,308306728,2289661502,303214821,698492410,2289661567,1851061867,2318884993,310256065,8515866939,8686453437,303215161,8686453438,310287558,310500687,8398265856,310500993,9121686991,310501008,9121686993,1727306399,648548725,311361483,323985741,8089836059,3322574432,8089836057,2236815474,323985099,3322574439,323985098,3322574447,12313136860,3322574450,323985733,323985728,323985094,3322575566,3322575582,323985091,3322575621,702511972,323985713,323985089,323985705,323985934,6129312154,6129312155,2768899033,6129316905,659960390,659960389,12313146774,2768899066,659960388,659960387,8208190713,2768899084,9343198168,9343198169,9343198167,9343198163,9343198164,9343198165,2768899087,8208190715,8208190714,659960380,5610210856,659960379,659960354,3315366893,5610210853,5610210870,646065231,2545423147,646065259,2545423149,2032952251,3017377551,2032952104,3331947177,3017377431,3331947185,8945406894,2032951784,3017377429,2032952190,2032952152,3017377428,3331947244,2032951903,3017377426,1737906678,2032952249,2032951979,2032952227,3331947272,4871222807,12484607544,12484607543,2032951962,12484607546,2032952053,12484607548,12484607547,1600426582,8748098570,8748098571,4871222802,2033020660,2033020734,2032986866,8748098537,12484607563,2032951848,12484607565,12484607567,2032986775,2033020706,2033020723,2032986701,13203351571,2032987055,13203309791,13203309787,2032986980,2033020625,8729962104,3017315878,8945388382,7149422538,3017315881,9378197652,10258381346,2674329381,10258381348,10258381347,3017315883,3337319138,3017315884,3017315885,3017334252,3017315886,3017334253,3017328358,3017315897,3017315899,3017315900,3017315917,2266514657,8292399323,2043658888,3339995064,5557341110,2043659154,3017334255,2043658747,2043659044,2043658866,3017334257,2043658912,3339995082,2043659137,2043659003,3017334263,3017334262,2043658772,3564555327,2043658991,3566245276,3564555335,2043659059,2043658666,3564555340,3564555346,2043658735,3564555361,2043659087,3564555382,3566245503,3564555387,3564556599,2043658698,3017359154,2043659161,3017359155,2043659081,2043659179,3564556608,2043658814,2043658662,3566245613,2043659138,2043658686,2043658904,2043658634,3564406928,2043658914,2043658884,3017359555,2043658983,3564406957,2043659021,3017359187,3564406977,2043659118,2043659156,2043659149,8484224996,2043659104,2043658720,8484224992,1637667940,2677410574,2677410573,3547897277,1637667942,6465820562,2677410581,2677410585,2677410597,2677410602,2677410598,3547899824,3547899823,2677410594,2677410601,2677410613,3547899838,3547899836,2677410609,3547899828,2677410610,2677410612,3547899848,3547899853,3547899854,3547899859,2677410619,3017368413,3017368414,3017368415,2043659194,3017368412,2043659019,2043658979],"coordinates":[[-66.2017395,-17.3385809],[-66.2020575,-17.3387958],[-66.2023627,-17.3390019],[-66.2024851,-17.3391266],[-66.2025986,-17.3393305],[-66.2027243,-17.3395563],[-66.2029788,-17.3400179],[-66.2031494,-17.3403211],[-66.203369,-17.3408097],[-66.2035255,-17.3411578],[-66.2036702,-17.3414642],[-66.2037157,-17.3415745],[-66.2038326,-17.3419689],[-66.2038473,-17.3420069],[-66.2038592,-17.342051],[-66.2038797,-17.3421043],[-66.2038952,-17.3421806],[-66.2038981,-17.3422546],[-66.2038875,-17.3423237],[-66.2037986,-17.3425187],[-66.2036206,-17.3427997],[-66.203578,-17.3428749],[-66.2035741,-17.3429114],[-66.2035791,-17.34295],[-66.2037089,-17.3431678],[-66.2037491,-17.343234],[-66.2039719,-17.3435719],[-66.2039904,-17.3436013],[-66.2045612,-17.3445203],[-66.2048326,-17.3449717],[-66.2048617,-17.3450189],[-66.2049133,-17.3451279],[-66.2043116,-17.3453634],[-66.2042144,-17.3453991],[-66.2041561,-17.3454287],[-66.2036611,-17.345667],[-66.2033826,-17.3458024],[-66.2029937,-17.3459914],[-66.2027057,-17.3461282],[-66.2025158,-17.3462099],[-66.2023733,-17.3462723],[-66.2022868,-17.3463085],[-66.2011817,-17.3467548],[-66.2005236,-17.347033],[-66.2003118,-17.3471131],[-66.1999673,-17.3472561],[-66.1999066,-17.3472805],[-66.1998019,-17.3473211],[-66.1996959,-17.3473615],[-66.1986244,-17.3478087],[-66.1983887,-17.3479038],[-66.1975452,-17.3482488],[-66.1969189,-17.3485083],[-66.1966774,-17.3486211],[-66.1965222,-17.3486977],[-66.1959066,-17.3490435],[-66.1946996,-17.3496712],[-66.1941674,-17.3499621],[-66.1939153,-17.3500999],[-66.1935202,-17.3503159],[-66.193244,-17.3504752],[-66.1929365,-17.3506544],[-66.1926213,-17.3508604],[-66.1923719,-17.3510234],[-66.1922896,-17.3510787],[-66.1920062,-17.351265],[-66.1917342,-17.3514518],[-66.1915437,-17.3515827],[-66.1913324,-17.3517395],[-66.1907466,-17.3521766],[-66.1907138,-17.3522011],[-66.1899628,-17.3528104],[-66.1898741,-17.3528787],[-66.1897727,-17.352958],[-66.1889861,-17.3535872],[-66.1889207,-17.3536392],[-66.1880863,-17.3542805],[-66.1878493,-17.354472],[-66.1877648,-17.3545343],[-66.1877324,-17.3545599],[-66.1876662,-17.3546102],[-66.1876366,-17.3546327],[-66.1875869,-17.3546705],[-66.1875266,-17.3547178],[-66.187126,-17.3550327],[-66.1866871,-17.3553771],[-66.185658,-17.3561774],[-66.1856109,-17.356214],[-66.1850746,-17.3565958],[-66.184936,-17.3567105],[-66.1848006,-17.3568306],[-66.1847301,-17.3569011],[-66.1846468,-17.3570138],[-66.1840773,-17.3578876],[-66.1833082,-17.3589644],[-66.1832508,-17.3590284],[-66.1831977,-17.3590967],[-66.1831341,-17.3591824],[-66.1830695,-17.3592918],[-66.1826633,-17.3601208],[-66.1821207,-17.3612509],[-66.1820694,-17.3613293],[-66.1817636,-17.3618311],[-66.1814995,-17.36224],[-66.1814453,-17.3623112],[-66.1813907,-17.3623714],[-66.1812461,-17.3625434],[-66.1810592,-17.3627734],[-66.1808856,-17.3629293],[-66.1806538,-17.3631396],[-66.1804759,-17.3632776],[-66.1799864,-17.3636602],[-66.1796769,-17.3638997],[-66.1794633,-17.364045],[-66.1793056,-17.3641448],[-66.1790011,-17.3643096],[-66.178873,-17.3643769],[-66.1787583,-17.3644371],[-66.1786344,-17.3644825],[-66.1785679,-17.3645046],[-66.1785234,-17.3645185],[-66.178408,-17.3645546],[-66.1783719,-17.3645654],[-66.178284,-17.3645885],[-66.1779812,-17.3646935],[-66.1767955,-17.3650514],[-66.1767575,-17.3650629],[-66.1766743,-17.3650875],[-66.1765439,-17.3651266],[-66.1764768,-17.3651467],[-66.1751548,-17.3655435],[-66.1750141,-17.3655887],[-66.1749184,-17.3656146],[-66.1748031,-17.3656383],[-66.1733237,-17.3657397],[-66.1718641,-17.365821],[-66.1717966,-17.3658248],[-66.1715775,-17.3658391],[-66.1714925,-17.3658447],[-66.1714101,-17.3658491],[-66.1712985,-17.3658629],[-66.1711497,-17.3658979],[-66.1711192,-17.3659051],[-66.1709461,-17.3659562],[-66.1706407,-17.3660461],[-66.1704853,-17.3660898],[-66.1703409,-17.3661184],[-66.1702301,-17.3661286],[-66.1701006,-17.3661299],[-66.1699469,-17.3661229],[-66.1697832,-17.3661045],[-66.1696172,-17.3660766],[-66.1694981,-17.3660445],[-66.1694323,-17.3660214],[-66.1693403,-17.3659874],[-66.1690477,-17.3658885],[-66.1688934,-17.3658519],[-66.1687179,-17.3658213],[-66.1686355,-17.3658171],[-66.1685651,-17.3658135],[-66.1682722,-17.3657976],[-66.1679002,-17.3657773],[-66.1678124,-17.3657801],[-66.167736,-17.3657875],[-66.16768,-17.365801],[-66.1676156,-17.3658199],[-66.1675492,-17.3658444],[-66.167449,-17.3658858],[-66.1672959,-17.3659658],[-66.1670355,-17.3661164],[-66.1669496,-17.366166],[-66.1668968,-17.3661974],[-66.1666857,-17.366323],[-66.1665063,-17.3664424],[-66.1661295,-17.3667085],[-66.1661032,-17.3667279],[-66.1658913,-17.366882],[-66.1658373,-17.3669237],[-66.1651421,-17.3674257],[-66.1642493,-17.3680575],[-66.1641573,-17.3681314],[-66.1640875,-17.3681998],[-66.1640592,-17.3682405],[-66.1640437,-17.368284],[-66.164057,-17.3683599],[-66.1640552,-17.3684238],[-66.1640528,-17.3684526],[-66.1640391,-17.3685209],[-66.1640145,-17.3685864],[-66.1639797,-17.3686476],[-66.1639354,-17.3687028],[-66.1638826,-17.3687505],[-66.1638262,-17.3688157],[-66.1637969,-17.3688607],[-66.1637566,-17.3689209],[-66.1637339,-17.368975],[-66.1635894,-17.3694995],[-66.1633104,-17.3704268],[-66.1632793,-17.3705342],[-66.1629707,-17.3716013],[-66.1629631,-17.3716275],[-66.1628606,-17.3719817],[-66.1627881,-17.3722325],[-66.1627415,-17.3723846],[-66.1627243,-17.3724486],[-66.1626975,-17.3725484],[-66.1626738,-17.3726282],[-66.1626655,-17.372657],[-66.1626469,-17.3727147],[-66.1624847,-17.3732722],[-66.1623417,-17.3737608],[-66.1619469,-17.3751099],[-66.1619132,-17.3752197],[-66.1618519,-17.3754289],[-66.1618315,-17.3754986],[-66.1615816,-17.3763513],[-66.1615755,-17.3763721],[-66.1615553,-17.3764448],[-66.1615333,-17.3765194],[-66.1613573,-17.3771167],[-66.1611004,-17.3779932],[-66.1610775,-17.3780745],[-66.1610462,-17.3781873],[-66.1610272,-17.3782558],[-66.1609592,-17.3784883],[-66.1609424,-17.3785457],[-66.1608112,-17.3789943],[-66.1607831,-17.3790903],[-66.1607443,-17.3792232],[-66.1604215,-17.3803268],[-66.1603952,-17.3804271],[-66.1603946,-17.380447],[-66.1603903,-17.3805384],[-66.1604026,-17.3806234],[-66.1604292,-17.3807053],[-66.160446,-17.3807533],[-66.1604502,-17.3808037],[-66.1604418,-17.3808536],[-66.1604211,-17.3809001],[-66.1603894,-17.3809406],[-66.1603483,-17.3810263],[-66.1603242,-17.3810949],[-66.1603011,-17.3811631],[-66.1602836,-17.3812089],[-66.1602648,-17.3812714],[-66.1602553,-17.381306],[-66.1601491,-17.3816632],[-66.1601392,-17.381699],[-66.160118,-17.3817783],[-66.1601068,-17.3818443],[-66.1600997,-17.3819171],[-66.1601024,-17.3820084],[-66.160124,-17.3821361],[-66.1601469,-17.3822132],[-66.1601468,-17.3822926],[-66.1601403,-17.382329],[-66.1601337,-17.3823653],[-66.1601052,-17.3824327],[-66.1600491,-17.3824933],[-66.1599485,-17.3825638],[-66.1598111,-17.3826671],[-66.1597435,-17.3827412],[-66.1596513,-17.3828653],[-66.1596135,-17.3829447],[-66.1595022,-17.3830911],[-66.1593386,-17.3833062],[-66.1593007,-17.383356],[-66.1591066,-17.3836114],[-66.1589959,-17.383757],[-66.1588865,-17.3839009],[-66.1588472,-17.3839526],[-66.1588041,-17.3840085],[-66.1587884,-17.3840289],[-66.1586145,-17.3842548],[-66.1584148,-17.384514],[-66.1583937,-17.3845414],[-66.1583738,-17.3845669],[-66.1582879,-17.3846768],[-66.1580811,-17.3849472],[-66.1579708,-17.3850718],[-66.1579598,-17.3850858],[-66.1579357,-17.3851178],[-66.1578614,-17.3852154],[-66.1577607,-17.3853388],[-66.1575084,-17.3856628],[-66.1568608,-17.38651],[-66.1567872,-17.3866071],[-66.1567448,-17.3866577],[-66.1564624,-17.3870295],[-66.1560665,-17.3875508],[-66.1560532,-17.3875977],[-66.1560502,-17.3876487],[-66.1560494,-17.3877097],[-66.1562979,-17.3877537],[-66.156277,-17.3878777],[-66.1562142,-17.3884451],[-66.156169,-17.3887191],[-66.1561573,-17.388816],[-66.1560704,-17.3887901],[-66.1554886,-17.3886972],[-66.1552071,-17.3886532],[-66.1551357,-17.3886467],[-66.1550609,-17.3886428],[-66.1540332,-17.3884258],[-66.1529838,-17.388202],[-66.1518364,-17.3879394],[-66.1517708,-17.3879252],[-66.1517588,-17.3879999],[-66.1516101,-17.388925],[-66.151604,-17.3889628],[-66.1515995,-17.3889879],[-66.1515922,-17.3890291],[-66.1514143,-17.390025],[-66.1512469,-17.3911242],[-66.1512362,-17.3911812],[-66.1512194,-17.3912742],[-66.1512104,-17.3913248],[-66.1511296,-17.3917295],[-66.1510383,-17.3921922],[-66.151028,-17.3922446],[-66.1510205,-17.3922844],[-66.1508421,-17.3932269],[-66.150834,-17.3932743],[-66.1508222,-17.3933342],[-66.1506546,-17.3943283],[-66.1504423,-17.3953552],[-66.1503862,-17.3956441],[-66.1502362,-17.3964175],[-66.1500348,-17.3975665],[-66.150021,-17.3976385],[-66.1500136,-17.3976877],[-66.1499487,-17.3984764],[-66.1499407,-17.3985529],[-66.1499065,-17.3990035],[-66.1498494,-17.3998668],[-66.1500222,-17.3998728],[-66.1501395,-17.3998796],[-66.1502575,-17.399903],[-66.1503592,-17.3999303],[-66.1504801,-17.3999711],[-66.1506108,-17.4000341],[-66.1507434,-17.4001219],[-66.1508693,-17.4002252],[-66.150939,-17.4002895],[-66.1510132,-17.4003714],[-66.1510832,-17.4004668],[-66.1511583,-17.4005867],[-66.1512403,-17.4007535],[-66.1512896,-17.400901],[-66.1513107,-17.4010414],[-66.1513179,-17.401207],[-66.1513116,-17.4013496],[-66.1512901,-17.4014743],[-66.1512351,-17.4016052],[-66.1510926,-17.4019104],[-66.1510363,-17.4020268],[-66.1510003,-17.4021361],[-66.1509697,-17.4022563],[-66.1509643,-17.4023812],[-66.1509743,-17.4025874],[-66.1510012,-17.4031363],[-66.1510151,-17.403494],[-66.151025,-17.4038341],[-66.1510241,-17.4039937],[-66.1510096,-17.4041425],[-66.1509707,-17.4044188],[-66.1509247,-17.404686],[-66.1508784,-17.4048938],[-66.1508636,-17.4049278],[-66.1508695,-17.4049354],[-66.1508738,-17.4049439],[-66.1508769,-17.4049564],[-66.1508767,-17.4049692],[-66.1508731,-17.4049816],[-66.1508664,-17.4049928],[-66.150857,-17.405002],[-66.1508595,-17.405027],[-66.1508603,-17.4050958],[-66.1508022,-17.4076298],[-66.1508067,-17.4084116],[-66.1507991,-17.4087701],[-66.1508148,-17.4093633],[-66.1510285,-17.4114067],[-66.1510873,-17.4118997],[-66.1511538,-17.4123642],[-66.1511946,-17.4126857],[-66.1512648,-17.4132136],[-66.151189,-17.4132531],[-66.1503342,-17.4137204],[-66.1493566,-17.4142422],[-66.1495903,-17.4144938],[-66.149785,-17.4146895],[-66.1499164,-17.4148808],[-66.1500479,-17.4150891],[-66.1501472,-17.4152684],[-66.1502225,-17.4154568],[-66.1502789,-17.4156198],[-66.1503116,-17.4157882],[-66.1503329,-17.4159361],[-66.150362,-17.4162014],[-66.1503703,-17.4164868],[-66.1503649,-17.4165848],[-66.150343,-17.4167342],[-66.1502777,-17.417102],[-66.150174,-17.4176537],[-66.1501324,-17.4179158],[-66.1500836,-17.4180577],[-66.1500316,-17.4181772],[-66.1498087,-17.4185285],[-66.1492609,-17.4193039],[-66.1493015,-17.4193352],[-66.1493218,-17.4193665],[-66.1493834,-17.4196166],[-66.1493075,-17.4196369],[-66.149243,-17.4196464],[-66.149203,-17.4196354],[-66.1489045,-17.4195144],[-66.1488555,-17.4194958],[-66.1487969,-17.4194859],[-66.1487551,-17.4194825],[-66.1486578,-17.4194823],[-66.1482426,-17.4195059],[-66.1476294,-17.4195424],[-66.147289,-17.4195627],[-66.14703,-17.4195757],[-66.1465061,-17.419609],[-66.1464101,-17.4196151],[-66.1460215,-17.4196391],[-66.1447007,-17.4197207],[-66.1445939,-17.4197273],[-66.1439634,-17.4197669],[-66.1433615,-17.4197995],[-66.1427602,-17.4198335],[-66.1426926,-17.4198372],[-66.1421339,-17.419868],[-66.141976,-17.4198781],[-66.1416177,-17.419901],[-66.1415139,-17.4199076],[-66.1409078,-17.4199408],[-66.1405463,-17.4199618],[-66.1402894,-17.4199767],[-66.1399925,-17.4199918],[-66.1397568,-17.4199991],[-66.1397276,-17.4200019],[-66.1396656,-17.419998],[-66.1396145,-17.4199887],[-66.1395681,-17.4199707],[-66.13954,-17.4200354],[-66.1395212,-17.4201002],[-66.139314,-17.4210075],[-66.139244,-17.4212175],[-66.1391845,-17.4213435],[-66.139101,-17.4214584],[-66.1388979,-17.4216719],[-66.1388371,-17.421722],[-66.1385262,-17.4220318],[-66.1382564,-17.4223031],[-66.1379223,-17.4226459],[-66.1376449,-17.4229232],[-66.1385356,-17.4237202],[-66.1384345,-17.4238638],[-66.1383421,-17.4239581],[-66.1381976,-17.4241143],[-66.138023,-17.4242678],[-66.1377269,-17.4243451],[-66.1375543,-17.4244088],[-66.136947,-17.4246488],[-66.1366533,-17.424757],[-66.1365451,-17.4248109],[-66.1363353,-17.4249275],[-66.1361974,-17.4250404],[-66.1359881,-17.425243],[-66.1358963,-17.4253262],[-66.1357907,-17.425418],[-66.1356831,-17.4255114],[-66.1354029,-17.4257603],[-66.1352861,-17.4258665],[-66.1350371,-17.4261632],[-66.1346936,-17.4265678],[-66.1345708,-17.4266943],[-66.1344239,-17.4268027],[-66.1342013,-17.4269377],[-66.1338633,-17.4271309],[-66.1338243,-17.4271534],[-66.1336186,-17.4272495],[-66.1333899,-17.4273526],[-66.1331876,-17.4274644],[-66.133089,-17.4275329],[-66.1326576,-17.4278633],[-66.1324852,-17.427974],[-66.1324308,-17.4280254],[-66.1323526,-17.4280795],[-66.1322405,-17.4281403],[-66.1321307,-17.4282016],[-66.1320009,-17.4282462],[-66.1316505,-17.4284037],[-66.1313622,-17.4285453],[-66.1311452,-17.4286831],[-66.1307638,-17.4290084],[-66.1304942,-17.4292694],[-66.1304336,-17.429362],[-66.1303877,-17.4294869],[-66.1303169,-17.4297632],[-66.1302742,-17.430005],[-66.1302534,-17.4302741],[-66.1302101,-17.4305384],[-66.1301819,-17.4306721],[-66.1300579,-17.4308538],[-66.1298939,-17.431065],[-66.1297014,-17.4312929],[-66.1290105,-17.4320303],[-66.1288322,-17.4322003],[-66.1284513,-17.4325175],[-66.1282818,-17.4327542],[-66.1281425,-17.4330582],[-66.1279748,-17.4334387],[-66.1278784,-17.4336727],[-66.1277891,-17.4340267],[-66.1276565,-17.4343882],[-66.1275727,-17.4346686],[-66.127467,-17.4350409],[-66.1274509,-17.4350977],[-66.1272899,-17.4356681],[-66.1271995,-17.435992],[-66.1270831,-17.4364092],[-66.1280475,-17.4365041],[-66.1281366,-17.436478],[-66.1282212,-17.4364866],[-66.128276,-17.4365246],[-66.128334,-17.436852],[-66.128364,-17.4370215],[-66.1284588,-17.4375213],[-66.1285729,-17.4380245],[-66.1286491,-17.4385177],[-66.1302507,-17.4381359],[-66.1303451,-17.4381207],[-66.1308869,-17.4379929],[-66.1316245,-17.4378186],[-66.1316472,-17.4383325],[-66.1315899,-17.4388463],[-66.1315855,-17.4389063],[-66.1316966,-17.43886],[-66.1321066,-17.4387619],[-66.132146,-17.4387624],[-66.1321768,-17.438781],[-66.1321925,-17.4388079],[-66.1323419,-17.4392969],[-66.1323757,-17.4393797],[-66.1324068,-17.4394336],[-66.1324134,-17.4394905],[-66.1323979,-17.4396161],[-66.1323813,-17.4397477],[-66.1323751,-17.4398688],[-66.1323782,-17.4399986],[-66.1323567,-17.440078],[-66.1323371,-17.4401523],[-66.1329264,-17.4403637],[-66.1334166,-17.44056]]}}}]}