{"type":"FeatureCollection","features":[{"type":"Feature","properties":{"check_date":"29/12/2025","from":"Calle 12 de septiembre","name":"MiniBus 217: Calle 12 de septiembre → Pacata Central","network":"BO:CB:Cochabamba","on_demand":"yes","operator":"Sindicato de trufibuses 15 de agosto","public_transport:version":"2","ref":"217","route":"bus","to":"Pacata Central","type":"route","wheelchair":"no","id":10722066},"geometry":{"type":"LineString","coordinates":[[-66.2884925,-17.407518200000002],[-66.2879748,-17.407515],[-66.2874745,-17.407505],[-66.2869265,-17.407507000000003],[-66.2863825,-17.4074953],[-66.2863868,-17.4077337],[-66.28629480000001,-17.4077287],[-66.2862858,-17.4070572],[-66.28628520000001,-17.4069991],[-66.2862868,-17.4064906],[-66.2862746,-17.4058628],[-66.28627150000001,-17.404605200000002],[-66.2862673,-17.4040541],[-66.2862661,-17.403975000000003],[-66.28623750000001,-17.4032154],[-66.28624690000001,-17.402075],[-66.2848403,-17.402095300000003],[-66.2842409,-17.4021039],[-66.28249070000001,-17.402181900000002],[-66.2824544,-17.4023055],[-66.2823257,-17.4023083],[-66.2813553,-17.4023296],[-66.2812837,-17.4023313],[-66.28122160000001,-17.402330000000003],[-66.2812313,-17.4021584],[-66.281225,-17.402110200000003],[-66.28121300000001,-17.402047200000002],[-66.28118230000001,-17.4018184],[-66.28107270000001,-17.4011718],[-66.2809084,-17.400006700000002],[-66.28081560000001,-17.399267100000003],[-66.2807549,-17.398800400000002],[-66.2806049,-17.397671000000003],[-66.2806087,-17.397643600000002],[-66.2805369,-17.3971516],[-66.2804261,-17.396601],[-66.28041180000001,-17.3965099],[-66.28052960000001,-17.3951852],[-66.28053600000001,-17.3951098],[-66.2805441,-17.3950329],[-66.2806147,-17.394366700000003],[-66.2806245,-17.394282],[-66.2804969,-17.3942675],[-66.2798815,-17.3942066],[-66.2795033,-17.3941692],[-66.27879770000001,-17.3940994],[-66.27829600000001,-17.3940485],[-66.2782169,-17.394039000000003],[-66.27816890000001,-17.394033200000003],[-66.27814450000001,-17.3940395],[-66.27811790000001,-17.394044500000003],[-66.27806840000001,-17.394044400000002],[-66.2780201,-17.3940285],[-66.2778794,-17.394015300000003],[-66.27738090000001,-17.393965100000003],[-66.27698430000001,-17.393924000000002],[-66.2768911,-17.3939144],[-66.27613620000001,-17.3938363],[-66.27496330000001,-17.3937285],[-66.27453870000001,-17.3936929],[-66.27442020000001,-17.393684200000003],[-66.27325280000001,-17.393565300000002],[-66.2729886,-17.393549],[-66.27289060000001,-17.393511500000002],[-66.27285210000001,-17.393533100000003],[-66.2728074,-17.3935435],[-66.2727806,-17.393545000000003],[-66.2727581,-17.3935427],[-66.2727267,-17.393536],[-66.2726973,-17.3935241],[-66.27266130000001,-17.3934995],[-66.27249690000001,-17.3934548],[-66.27235230000001,-17.3934131],[-66.27222420000001,-17.393386500000002],[-66.272136,-17.393375000000002],[-66.27118340000001,-17.393261600000002],[-66.27011320000001,-17.3931644],[-66.2699556,-17.393150900000002],[-66.2692456,-17.393083],[-66.2683157,-17.392994],[-66.26816210000001,-17.3929793],[-66.26808580000001,-17.392970400000003],[-66.2680632,-17.3929681],[-66.26630990000001,-17.3927856],[-66.26498190000001,-17.3926561],[-66.2620232,-17.3923631],[-66.26103330000001,-17.3922706],[-66.26040300000001,-17.392209700000002],[-66.2600955,-17.3921801],[-66.2597451,-17.392146200000003],[-66.2596815,-17.392140100000002],[-66.25964130000001,-17.392134600000002],[-66.25948260000001,-17.3921205],[-66.2589272,-17.392065600000002],[-66.25794470000001,-17.391968400000003],[-66.2577273,-17.391949800000003],[-66.2575312,-17.3919305],[-66.2560565,-17.3917855],[-66.2548029,-17.3916521],[-66.25319800000001,-17.3914884],[-66.2530064,-17.3914702],[-66.2528628,-17.3914565],[-66.2517349,-17.391351800000002],[-66.25130530000001,-17.3913072],[-66.2507894,-17.3912641],[-66.25064590000001,-17.3912553],[-66.25044960000001,-17.391241100000002],[-66.24994980000001,-17.391207700000002],[-66.24902460000001,-17.391148],[-66.24892960000001,-17.3911412],[-66.2483832,-17.391103700000002],[-66.2478983,-17.3910798],[-66.2474718,-17.391058800000003],[-66.24669460000001,-17.3910205],[-66.2463515,-17.3910036],[-66.2462864,-17.391000400000003],[-66.246144,-17.390994300000003],[-66.24609570000001,-17.390992800000003],[-66.2459542,-17.3909884],[-66.2450017,-17.3909622],[-66.2449045,-17.390971200000003],[-66.24474570000001,-17.3910024],[-66.244702,-17.391009200000003],[-66.24461070000001,-17.391030400000002],[-66.2444712,-17.391049600000002],[-66.2443896,-17.3910486],[-66.2440073,-17.391043800000002],[-66.2439758,-17.391043200000002],[-66.2439215,-17.3910349],[-66.24373270000001,-17.390998600000003],[-66.24367640000001,-17.3909884],[-66.24355220000001,-17.3909664],[-66.24346390000001,-17.390956900000003],[-66.2433575,-17.3909534],[-66.2427821,-17.3909552],[-66.24211430000001,-17.3909528],[-66.24113820000001,-17.3909664],[-66.2409403,-17.390969400000003],[-66.2398934,-17.390992100000002],[-66.2393461,-17.391020700000002],[-66.2391427,-17.391038400000003],[-66.23896260000001,-17.391061500000003],[-66.2388277,-17.3910735],[-66.23878500000001,-17.3910956],[-66.23875550000001,-17.391099500000003],[-66.23872490000001,-17.3910999],[-66.2386949,-17.391094600000002],[-66.2385208,-17.391072100000002],[-66.23834480000001,-17.3910467],[-66.2381859,-17.3910491],[-66.23783080000001,-17.3910656],[-66.23636230000001,-17.391125600000002],[-66.23635920000001,-17.3911257],[-66.2338646,-17.3912258],[-66.2324387,-17.3912917],[-66.23202930000001,-17.391311],[-66.2319827,-17.391310100000002],[-66.23130280000001,-17.3913334],[-66.23093850000001,-17.3913516],[-66.23050210000001,-17.3913727],[-66.23003270000001,-17.391397100000002],[-66.23001740000001,-17.3913979],[-66.22988550000001,-17.3914048],[-66.2297415,-17.391410200000003],[-66.2291665,-17.3914316],[-66.228361,-17.3914642],[-66.2274295,-17.3915073],[-66.22662360000001,-17.391544500000002],[-66.22649600000001,-17.391546700000003],[-66.22491930000001,-17.391616900000002],[-66.22209000000001,-17.391740000000002],[-66.2218668,-17.391750700000003],[-66.2215956,-17.391763800000003],[-66.2213351,-17.3917763],[-66.2201605,-17.391822400000002],[-66.2194839,-17.39185],[-66.21940950000001,-17.391853],[-66.2190114,-17.3918693],[-66.218896,-17.3918743],[-66.2182131,-17.3919074],[-66.2154179,-17.392026100000002],[-66.2134978,-17.3921116],[-66.2125925,-17.3921494],[-66.21252270000001,-17.3921524],[-66.2103878,-17.392245600000003],[-66.2103017,-17.392249600000003],[-66.208973,-17.3923041],[-66.20829520000001,-17.3923381],[-66.20824280000001,-17.392340800000003],[-66.20819030000001,-17.3923434],[-66.2080961,-17.3923466],[-66.20801010000001,-17.3923501],[-66.2077704,-17.392359900000002],[-66.20563480000001,-17.3924477],[-66.20470830000001,-17.392489100000002],[-66.20430920000001,-17.3925078],[-66.2036195,-17.3925345],[-66.2031084,-17.392554200000003],[-66.2004314,-17.3926766],[-66.2002307,-17.392685800000002],[-66.1998222,-17.392704600000002],[-66.1997525,-17.3927076],[-66.1996829,-17.3927105],[-66.1996077,-17.392714100000003],[-66.19948160000001,-17.392719300000003],[-66.1989358,-17.392742000000002],[-66.1970994,-17.392820500000003],[-66.19696090000001,-17.3928267],[-66.19417130000001,-17.3929516],[-66.19390320000001,-17.3929632],[-66.1918596,-17.3930496],[-66.1892684,-17.393168300000003],[-66.1875821,-17.393243100000003],[-66.18641620000001,-17.393294400000002],[-66.1844616,-17.3933742],[-66.18410340000001,-17.3933915],[-66.1825146,-17.393462200000002],[-66.18183020000001,-17.393494],[-66.1810597,-17.393529800000003],[-66.1801494,-17.393567700000002],[-66.1795661,-17.393593300000003],[-66.17767380000001,-17.3936785],[-66.17727880000001,-17.393696700000003],[-66.1766698,-17.3937248],[-66.176607,-17.393727700000003],[-66.1764849,-17.393733],[-66.1763233,-17.3937399],[-66.1746071,-17.3938138],[-66.1740147,-17.3938393],[-66.1739096,-17.3938439],[-66.1724045,-17.393906400000002],[-66.17213500000001,-17.3939606],[-66.171351,-17.3939959],[-66.1711564,-17.394010700000003],[-66.17086850000001,-17.3940485],[-66.1708359,-17.3940528],[-66.1707777,-17.3940604],[-66.17074910000001,-17.394078200000003],[-66.17071770000001,-17.394089],[-66.1706843,-17.394098600000003],[-66.1706577,-17.3941006],[-66.1706312,-17.394099100000002],[-66.17060500000001,-17.394094300000003],[-66.1705706,-17.3940823],[-66.1705409,-17.394065700000002],[-66.1705148,-17.3940446],[-66.1704928,-17.3940194],[-66.17047570000001,-17.393991],[-66.17046400000001,-17.393960200000002],[-66.1704581,-17.3939279],[-66.1704581,-17.393895200000003],[-66.17046400000001,-17.393862900000002],[-66.1704756,-17.3938321],[-66.1704926,-17.393803600000002],[-66.1705146,-17.393778400000002],[-66.1705407,-17.393757200000003],[-66.17057030000001,-17.3937406],[-66.1706025,-17.3937291],[-66.1706024,-17.393642200000002],[-66.1705811,-17.3928583],[-66.17056720000001,-17.392119100000002],[-66.1705632,-17.3913993],[-66.17055880000001,-17.391238],[-66.17054470000001,-17.3906677],[-66.1705431,-17.390607600000003],[-66.1705323,-17.3901988],[-66.1705302,-17.3901167],[-66.17052860000001,-17.390059500000003],[-66.170527,-17.390008700000003],[-66.17051590000001,-17.389578800000002],[-66.1705146,-17.389529500000002],[-66.1705019,-17.3889821],[-66.1704984,-17.3888292],[-66.1704876,-17.3884025],[-66.170478,-17.388173000000002],[-66.17046450000001,-17.388109500000002],[-66.17045350000001,-17.388079400000002],[-66.1704424,-17.388049300000002],[-66.1704133,-17.3879732],[-66.17038960000001,-17.3879546],[-66.1703667,-17.387928900000002],[-66.17035290000001,-17.3879069],[-66.1703413,-17.387879],[-66.1703348,-17.387849600000003],[-66.1703336,-17.3878196],[-66.17033780000001,-17.3877898],[-66.1703473,-17.387761100000002],[-66.17036180000001,-17.387734400000003],[-66.1703853,-17.3877057],[-66.1704146,-17.3876822],[-66.1704232,-17.387596100000003],[-66.170421,-17.387545900000003],[-66.1704102,-17.3874694],[-66.1703121,-17.387007200000003],[-66.17017870000001,-17.3863705],[-66.1700792,-17.385876200000002],[-66.17009150000001,-17.385772600000003],[-66.1700773,-17.3857043],[-66.17004510000001,-17.3855502],[-66.1700272,-17.3854642],[-66.17001420000001,-17.3853975],[-66.1698097,-17.3843673],[-66.1697396,-17.3840314],[-66.16971790000001,-17.383945],[-66.16969110000001,-17.383860100000003],[-66.1696589,-17.3837769],[-66.1696216,-17.3836957],[-66.16958310000001,-17.383611100000003],[-66.16957790000001,-17.383607700000002],[-66.1693484,-17.383493100000003],[-66.1692562,-17.3834525],[-66.1691832,-17.3834252],[-66.1690207,-17.383369100000003],[-66.16851310000001,-17.383190600000002],[-66.16793820000001,-17.3829883],[-66.16786540000001,-17.3829627],[-66.1669426,-17.382640700000003],[-66.16674,-17.38257],[-66.1666584,-17.3825451],[-66.1665801,-17.382527600000003],[-66.16653070000001,-17.3825167],[-66.16645410000001,-17.382507800000003],[-66.1663525,-17.382505600000002],[-66.1663324,-17.3825067],[-66.16631240000001,-17.3825058],[-66.1661617,-17.3825237],[-66.1660992,-17.382533600000002],[-66.1660233,-17.382552],[-66.1659245,-17.3825794],[-66.16576040000001,-17.382659800000003],[-66.16518540000001,-17.382989400000003],[-66.16515290000001,-17.3830065],[-66.16505210000001,-17.3830674],[-66.1649852,-17.383105800000003],[-66.16448220000001,-17.383407400000003],[-66.1641417,-17.383587400000003],[-66.1640976,-17.383610800000003],[-66.1640225,-17.3836219],[-66.1639246,-17.3836416],[-66.1638662,-17.3835753],[-66.16363360000001,-17.383311000000003],[-66.1635055,-17.3831744],[-66.1632605,-17.382914300000003],[-66.16306940000001,-17.382723000000002],[-66.1628646,-17.3825407],[-66.16277620000001,-17.3824699],[-66.1625901,-17.382321100000002],[-66.16242430000001,-17.382197100000003],[-66.16232760000001,-17.3821242],[-66.16217900000001,-17.3820154],[-66.1621277,-17.381975800000003],[-66.1618583,-17.381795800000003],[-66.1617892,-17.381753500000002],[-66.16173040000001,-17.3817176],[-66.1616235,-17.381663500000002],[-66.1615252,-17.3816178],[-66.16136560000001,-17.381551],[-66.16115540000001,-17.3814844],[-66.1609184,-17.381415500000003],[-66.1606043,-17.3813312],[-66.15976380000001,-17.381102100000003],[-66.1595121,-17.381045800000003],[-66.1591798,-17.380996600000003],[-66.15769560000001,-17.3806307],[-66.15742970000001,-17.380565200000003],[-66.1570793,-17.3804805],[-66.156739,-17.380398600000003],[-66.15621300000001,-17.380254400000002],[-66.15596450000001,-17.380179700000003],[-66.1553897,-17.3800372],[-66.1550023,-17.3799421],[-66.1541928,-17.3797433],[-66.1540233,-17.3797016],[-66.15358260000001,-17.379598400000003],[-66.15333050000001,-17.379533100000003],[-66.15302530000001,-17.3794369],[-66.15237450000001,-17.379264900000003],[-66.1523162,-17.3792538],[-66.15227390000001,-17.379251],[-66.15223660000001,-17.3792563],[-66.1522127,-17.3792702],[-66.1521831,-17.3793009],[-66.1521786,-17.3793188],[-66.15208550000001,-17.379685300000002],[-66.1520795,-17.379733100000003],[-66.1520888,-17.3798099],[-66.1521204,-17.3798676],[-66.15215450000001,-17.3799229],[-66.1521707,-17.3799853],[-66.1521677,-17.3800494],[-66.1521458,-17.3801102],[-66.1520931,-17.3801673],[-66.15202690000001,-17.380215200000002],[-66.1519792,-17.380223100000002],[-66.151931,-17.3802172],[-66.1518899,-17.3801972],[-66.15185410000001,-17.380171200000003],[-66.1518253,-17.3801178],[-66.15180400000001,-17.380065300000002],[-66.15170470000001,-17.3799634],[-66.15163820000001,-17.3798932],[-66.1515828,-17.379839200000003],[-66.15151920000001,-17.3797992],[-66.15142580000001,-17.3797591],[-66.15132000000001,-17.379708500000003],[-66.1511966,-17.3796621],[-66.15109120000001,-17.379625800000003],[-66.15083720000001,-17.3795669],[-66.15009210000001,-17.379397500000003],[-66.1499797,-17.379364900000002],[-66.1489571,-17.379120800000003],[-66.14833030000001,-17.378962400000002],[-66.1480945,-17.378907400000003],[-66.14784680000001,-17.378822500000002],[-66.14744350000001,-17.378724400000003],[-66.1463336,-17.378454400000003],[-66.14556300000001,-17.3782669],[-66.14472830000001,-17.378063800000003],[-66.14335480000001,-17.3777146],[-66.1432422,-17.3777204],[-66.14284740000001,-17.377626300000003],[-66.1427,-17.3776012],[-66.1426684,-17.3775982],[-66.14263670000001,-17.377595200000002],[-66.1425911,-17.377601600000002],[-66.14255150000001,-17.3776146],[-66.14251180000001,-17.3776276],[-66.1424521,-17.3776461],[-66.14243590000001,-17.377670400000003],[-66.14241030000001,-17.3776951],[-66.1423795,-17.377715300000002],[-66.1423309,-17.377727800000002],[-66.1422795,-17.377725],[-66.14224630000001,-17.3777143],[-66.1422199,-17.3776949],[-66.1421909,-17.3776639],[-66.14217310000001,-17.3776255],[-66.14216710000001,-17.377586],[-66.14217070000001,-17.3775543],[-66.1421773,-17.377529600000003],[-66.14219340000001,-17.377495200000002],[-66.142222,-17.3774681],[-66.14225540000001,-17.3774507],[-66.14229470000001,-17.3774383],[-66.1423194,-17.3774203],[-66.14233460000001,-17.3774054],[-66.1423592,-17.3773105],[-66.14246,-17.376944400000003],[-66.1424636,-17.376928900000003],[-66.142464,-17.376924900000002],[-66.1424703,-17.3768683],[-66.1424748,-17.3768274],[-66.142481,-17.3767615],[-66.14251820000001,-17.376325],[-66.1425282,-17.376219600000002],[-66.1425928,-17.375760800000002],[-66.14265420000001,-17.3753253],[-66.1426953,-17.375031],[-66.14270520000001,-17.374962800000002],[-66.14271830000001,-17.3748676],[-66.142819,-17.374184500000002],[-66.1428047,-17.3741261],[-66.1427764,-17.374057200000003],[-66.14268050000001,-17.3739877],[-66.14263460000001,-17.373939500000002],[-66.1426047,-17.373879000000002],[-66.14259750000001,-17.3738446],[-66.1425861,-17.3737841],[-66.1425906,-17.3736961],[-66.1426187,-17.3736122],[-66.14265400000001,-17.3735557],[-66.1426742,-17.373532200000003],[-66.1427001,-17.3735067],[-66.14272790000001,-17.373355],[-66.14273220000001,-17.373298100000003],[-66.14273220000001,-17.373234200000002],[-66.14258290000001,-17.3725963],[-66.1424698,-17.372114500000002],[-66.14246370000001,-17.372088400000003],[-66.14243970000001,-17.371972900000003],[-66.1424198,-17.371879],[-66.1424119,-17.3718444],[-66.142142,-17.3705959],[-66.14212850000001,-17.3705432],[-66.14210940000001,-17.370423300000002],[-66.1421037,-17.3703697],[-66.14198640000001,-17.370409600000002],[-66.14187430000001,-17.3704645],[-66.14097500000001,-17.3710646],[-66.1402844,-17.3714625],[-66.1401931,-17.371495000000003],[-66.1401302,-17.3715151],[-66.1400366,-17.3715398],[-66.1396424,-17.3715961],[-66.1392529,-17.371651800000002],[-66.13916210000001,-17.371665500000002],[-66.13861630000001,-17.3717325],[-66.1385829,-17.371736600000002],[-66.13853990000001,-17.3717428],[-66.1383306,-17.371772800000002],[-66.138238,-17.3717989],[-66.1381444,-17.371834600000003],[-66.1380505,-17.371878300000002],[-66.1380127,-17.371904800000003],[-66.13767840000001,-17.372139200000003],[-66.1376309,-17.372169500000002],[-66.13754800000001,-17.372229],[-66.1370854,-17.3725452],[-66.1370134,-17.372600000000002],[-66.1369164,-17.372671200000003],[-66.1368516,-17.3727063],[-66.1367986,-17.3727325],[-66.13674660000001,-17.3727549],[-66.1366337,-17.372782],[-66.1365427,-17.3727975],[-66.1361547,-17.372841700000002],[-66.13608350000001,-17.3728479],[-66.1359771,-17.372857200000002],[-66.13586020000001,-17.3728656],[-66.13578170000001,-17.3728684],[-66.1356853,-17.372860300000003],[-66.13549660000001,-17.3728322],[-66.1351908,-17.372780600000002],[-66.1351489,-17.372770300000003],[-66.13507530000001,-17.372756300000002],[-66.1347435,-17.3726933],[-66.134217,-17.372593400000003],[-66.1341675,-17.372584],[-66.1341027,-17.3725714],[-66.1337319,-17.3724992],[-66.1334855,-17.3724558],[-66.13338390000001,-17.372432500000002],[-66.1333491,-17.372427300000002],[-66.13319360000001,-17.372420100000003],[-66.13306530000001,-17.3724275],[-66.1326272,-17.3725546],[-66.1319916,-17.3727297],[-66.1318806,-17.3727555],[-66.1316408,-17.372834500000003],[-66.13114630000001,-17.3730495],[-66.1309399,-17.3731471],[-66.13084500000001,-17.373181900000002],[-66.13071880000001,-17.3732067],[-66.13054310000001,-17.3732203],[-66.1302763,-17.3732331],[-66.1300836,-17.373247900000003],[-66.12985490000001,-17.3732694],[-66.1298225,-17.373275600000003],[-66.1296782,-17.373303200000002],[-66.1294941,-17.373350600000002],[-66.1293598,-17.3733943],[-66.1292169,-17.3734493],[-66.12908060000001,-17.373502700000003],[-66.1289941,-17.373526100000003],[-66.12888410000001,-17.373551300000003],[-66.12879240000001,-17.3735624],[-66.1286912,-17.373569900000003],[-66.12775640000001,-17.3735584],[-66.12761880000001,-17.373554600000002],[-66.1271409,-17.3735386],[-66.12669580000001,-17.3735226],[-66.12623450000001,-17.373509100000003],[-66.12581660000001,-17.3734922],[-66.1253243,-17.373470400000002],[-66.1247261,-17.3734433],[-66.1244463,-17.3734314],[-66.12397170000001,-17.373418100000002],[-66.1239031,-17.3734159],[-66.1237105,-17.373413900000003],[-66.1235774,-17.3734137],[-66.1235776,-17.373313500000002],[-66.12357100000001,-17.373001700000003],[-66.1234902,-17.372992],[-66.1234201,-17.372946000000002],[-66.1232792,-17.3728327],[-66.1231544,-17.372706700000002],[-66.12308630000001,-17.3726071],[-66.12306770000001,-17.3725227],[-66.1230591,-17.3724533],[-66.1230443,-17.3718432]],"nodes":[780226745,780227861,780227103,7059178010,6572877680,6572877678,5945045902,7528125743,617359948,780226860,780227690,781813756,4574012597,6572901006,780226494,781835201,781835234,781835314,7059177781,617360051,13743659715,10794393270,781813595,7059198541,4509963020,4509963018,3700232960,9319861012,617198410,781813781,11038654648,781813528,2545471215,617337151,617360088,617200544,4941079635,6852495122,781835257,6852495125,3255507767,319771126,6728813998,11353309042,8221419846,617198439,7527591106,3192787640,7527591083,11073473498,7527591084,6179669353,7527591077,7527591100,617344406,8221419836,8221419838,781813590,783870512,781813472,8221419798,12487415613,12706842543,2140912563,6917120246,9354944921,319771802,2140912543,8048387332,9354944920,617200550,8048387321,319772517,12706842535,319771957,783869220,617337192,617337190,13744093450,785869304,5870202365,5870202366,6917120217,785868542,785868821,2544242053,5236806811,8316478288,8316478291,9262757164,8316478298,319772617,12091174511,8316478286,786662202,4571961294,11084165261,786662071,786662079,7149699478,10012571191,786662233,786662020,7933924070,8630411911,786662086,4571961312,9008315768,786662289,786662384,4317735514,7933924074,9008315506,9008315507,10572209945,8316478467,319773261,9008315534,9008315509,8316478468,319773262,9008315710,4586488215,10837513366,2594886774,11296265958,10837513370,4586488216,10837513371,10572209994,319773839,8630411836,319773840,8630411835,793568529,793568511,6918618955,793568540,793568550,7933924038,698491866,9008269186,698491852,698491857,9355127785,9355127784,698491894,9008269190,4586487875,8317038874,6836037176,793568534,9025874012,793568542,793568567,6282778241,793568556,5605232830,5605232828,8627399434,9786116626,9786116635,2354386800,9786116631,8627399435,794074995,9008269168,794075099,794075049,794074991,794074975,4340534094,4478225459,794075151,13760954833,3255507834,13760954848,13760954835,4158051955,794075132,794075196,794075208,794074982,794075086,794075201,794075101,6845758237,8235936965,13685730899,2417368094,794081382,8235936959,8235936931,2417368107,2417368139,2417368154,6846214132,2417368183,1807038058,12650627925,2429829239,12650627934,1807038060,1807038065,8235455990,497195296,2339557956,2339557957,2160491572,6282770217,2160491570,2292218255,2635402936,6272592192,4398318268,6326490903,698597067,13438104010,560522669,689437127,800044225,800044066,9081523770,13438065392,2527263187,800044095,13438103967,9017927915,800044053,800043986,12300469255,315919272,13416534064,13416534065,13417065133,13436362625,13416534061,13416534042,13303075825,13416534071,13303071588,13416534056,13416534072,13303071581,13416534060,13303071568,13416534059,13416534037,13303071569,13303071570,13416534038,13303071571,13303071572,13303071573,13416534041,13303071574,13416534039,13416534069,2527263171,1724886100,1724886195,1724886197,3250373526,6175794743,9873615235,2160380412,9222357025,1724956661,6175794739,9873615237,8319877518,2161414362,7943494884,3295185745,1806931208,9873615129,9894977667,1718722308,3250373519,3250373514,9873615122,3250373509,9343503241,3250373504,9343503240,3250373498,9343503239,5213287366,9343503238,2410715931,1718722271,9873593893,3250373483,1724886152,2602834679,9892523602,598178974,9894887104,9894887103,598178976,9894887117,598178980,8947856390,11079292075,1807038004,11045409857,9736311281,1724886238,2972424434,560437521,3658380832,9736277915,6806354337,9736311265,9736311252,598179039,9736311264,2971956195,598179037,8398804551,598179043,5548631717,8398804558,9352684185,6806354342,2971956190,8398804557,598179045,2971956193,2971956196,4478186975,4478186978,598179077,4478186984,598179067,9168729321,5243810855,497207231,497207226,5243810858,8415784764,497207156,2312521285,8415784721,2971956192,9166483006,8415784722,497207159,4322549906,4322549907,2971955910,497207511,9034957214,1636934208,8415715264,2971955873,497207514,7703825386,7703825385,2312197743,2296580880,1636934195,1636934190,9976165367,2296981849,602989762,1724886114,4995779941,9042489756,9042489751,9042489746,9042489744,9042466411,8337099511,602989763,1636934152,1636934150,1636934141,8427474509,1636934145,8427474510,2441014235,1636934149,1636934155,1636934160,8427474485,2220378751,2220378764,2220378802,2220378822,2220378854,2441014237,9768729616,2220378898,2220378904,9768740817,2220378894,8365941769,2220378835,315129792,8670163328,9976171825,13645744940,9068826442,2220378727,1636883430,315128111,5397392973,13447433677,6369301355,6369301367,9116387482,8389429235,8670162216,4406352470,9797126351,8388301585,8367863586,1795293412,2391341285,1795293408,1796486793,9604637744,8385093419,1795293328,9880112658,1795293421,11081772339,1795293377,1795293388,1795293404,1795293301,1795293273,1795293390,1795293379,1795293373,1795293274,1795293317,8385093438,1795293364,1795293348,1795293368,8385093437,1795293310,9007531385,2391341224,2389107311,2466162853,602989599,11081730876,8385093445,8385091887,2389107301,391733772,8373677219,8373677217,8373677221,2590032490,698492587,2590032474,2126674187,2126674171,1785473496,8509264306,10830782194,10830782195,1785473517,9404086355,1785473267,1785473202,8509264301,10830782197,1785473632,1785473439,8509264375,601872810,8616654863,11026980047,8616654973,601872818,9192234376,2389107104,602990178,2590032444,9579636304,602990134,8253713331,602990136,602990137,3285395366,602990139,8600950453,3285395367,11081351801,807968335,8253713345,11081351796,807968440,9276752265,1785473171,8596958584,602990141,602990142,11081351792,5240568158,807968459,5240568160,1796486304,2520618592,602990143,8596958452,1171505011,5605166014,602990144,8596958447,602990147,11987099418,602990148,2394199566,8596958446,602990149,8596958433,6835289597,1171504754,13368859873,9366321575,13368859876,8596958571,13368859879,9366321572,1171504659,13299770220,602990150,602990151,602990152,602990153,3287025570,602990155,602990157,602990158,602990159,3287949026,2795698767,602990160,602990161,3287949028,602990163,13299770233,2795698873,1044379840,602990164,11081424005,602990165,1008238282,11071563642,5734888010,8455678873,1008238540,1489808324,1044378998,1044379796,1489808320,1044379444,1046715733,1489808318,1046717327,9015711403,1044378872,8455428839,3287949036,1044378819,1489808260,8436191132,1044378752,9015711643,1489808215,1044379884,1044379549,1044379176,8435700651]},"gtfs":{"agency_id":34,"route_id":108,"services":[{"service_id":"Mo-Su","startTime":"06:00","endTime":"22:00","trip_id":10722066}],"filteredStops":{"nodes":[780226745,780227861,780227103,7059178010,6572877680,6572877678,5945045902,7528125743,617359948,780226860,780227690,781813756,4574012597,6572901006,780226494,781835201,781835234,781835314,7059177781,617360051,13743659715,10794393270,781813595,7059198541,4509963020,4509963018,3700232960,9319861012,617198410,781813781,11038654648,781813528,2545471215,617337151,617360088,617200544,4941079635,6852495122,781835257,6852495125,3255507767,319771126,6728813998,11353309042,8221419846,617198439,7527591106,3192787640,7527591083,11073473498,7527591084,6179669353,7527591077,7527591100,617344406,8221419836,8221419838,781813590,783870512,781813472,8221419798,12487415613,12706842543,2140912563,6917120246,9354944921,319771802,2140912543,8048387332,9354944920,617200550,8048387321,319772517,12706842535,319771957,783869220,617337192,617337190,13744093450,785869304,5870202365,5870202366,6917120217,785868542,785868821,2544242053,5236806811,8316478288,8316478291,9262757164,8316478298,319772617,12091174511,8316478286,786662202,4571961294,11084165261,786662071,786662079,7149699478,10012571191,786662233,786662020,7933924070,8630411911,786662086,4571961312,9008315768,786662289,786662384,4317735514,7933924074,9008315506,9008315507,10572209945,8316478467,319773261,9008315534,9008315509,8316478468,319773262,9008315710,4586488215,10837513366,2594886774,11296265958,10837513370,4586488216,10837513371,10572209994,319773839,8630411836,319773840,8630411835,793568529,793568511,6918618955,793568540,793568550,7933924038,698491866,9008269186,698491852,698491857,9355127785,9355127784,698491894,9008269190,4586487875,8317038874,6836037176,793568534,9025874012,793568542,793568567,6282778241,793568556,5605232830,5605232828,8627399434,9786116626,9786116635,2354386800,9786116631,8627399435,794074995,9008269168,794075099,794075049,794074991,794074975,4340534094,4478225459,794075151,13760954833,3255507834,13760954848,13760954835,4158051955,794075132,794075196,794075208,794074982,794075086,794075201,794075101,6845758237,8235936965,13685730899,2417368094,794081382,8235936959,8235936931,2417368107,2417368139,2417368154,6846214132,2417368183,1807038058,12650627925,2429829239,12650627934,1807038060,1807038065,8235455990,497195296,2339557956,2339557957,2160491572,6282770217,2160491570,2292218255,2635402936,6272592192,4398318268,6326490903,698597067,13438104010,560522669,689437127,800044225,800044066,9081523770,13438065392,2527263187,800044095,13438103967,9017927915,800044053,800043986,12300469255,315919272,13416534064,13416534065,13417065133,13436362625,13416534061,13416534042,13303075825,13416534071,13303071588,13416534056,13416534072,13303071581,13416534060,13303071568,13416534059,13416534037,13303071569,13303071570,13416534038,13303071571,13303071572,13303071573,13416534041,13303071574,13416534039,13416534069,2527263171,1724886100,1724886195,1724886197,3250373526,6175794743,9873615235,2160380412,9222357025,1724956661,6175794739,9873615237,8319877518,2161414362,7943494884,3295185745,1806931208,9873615129,9894977667,1718722308,3250373519,3250373514,9873615122,3250373509,9343503241,3250373504,9343503240,3250373498,9343503239,5213287366,9343503238,2410715931,1718722271,9873593893,3250373483,1724886152,2602834679,9892523602,598178974,9894887104,9894887103,598178976,9894887117,598178980,8947856390,11079292075,1807038004,11045409857,9736311281,1724886238,2972424434,560437521,3658380832,9736277915,6806354337,9736311265,9736311252,598179039,9736311264,2971956195,598179037,8398804551,598179043,5548631717,8398804558,9352684185,6806354342,2971956190,8398804557,598179045,2971956193,2971956196,4478186975,4478186978,598179077,4478186984,598179067,9168729321,5243810855,497207231,497207226,5243810858,8415784764,497207156,2312521285,8415784721,2971956192,9166483006,8415784722,497207159,4322549906,4322549907,2971955910,497207511,9034957214,1636934208,8415715264,2971955873,497207514,7703825386,7703825385,2312197743,2296580880,1636934195,1636934190,9976165367,2296981849,602989762,1724886114,4995779941,9042489756,9042489751,9042489746,9042489744,9042466411,8337099511,602989763,1636934152,1636934150,1636934141,8427474509,1636934145,8427474510,2441014235,1636934149,1636934155,1636934160,8427474485,2220378751,2220378764,2220378802,2220378822,2220378854,2441014237,9768729616,2220378898,2220378904,9768740817,2220378894,8365941769,2220378835,315129792,8670163328,9976171825,13645744940,9068826442,2220378727,1636883430,315128111,5397392973,13447433677,6369301355,6369301367,9116387482,8389429235,8670162216,4406352470,9797126351,8388301585,8367863586,1795293412,2391341285,1795293408,1796486793,9604637744,8385093419,1795293328,9880112658,1795293421,11081772339,1795293377,1795293388,1795293404,1795293301,1795293273,1795293390,1795293379,1795293373,1795293274,1795293317,8385093438,1795293364,1795293348,1795293368,8385093437,1795293310,9007531385,2391341224,2389107311,2466162853,602989599,11081730876,8385093445,8385091887,2389107301,391733772,8373677219,8373677217,8373677221,2590032490,698492587,2590032474,2126674187,2126674171,1785473496,8509264306,10830782194,10830782195,1785473517,9404086355,1785473267,1785473202,8509264301,10830782197,1785473632,1785473439,8509264375,601872810,8616654863,11026980047,8616654973,601872818,9192234376,2389107104,602990178,2590032444,9579636304,602990134,8253713331,602990136,602990137,3285395366,602990139,8600950453,3285395367,11081351801,807968335,8253713345,11081351796,807968440,9276752265,1785473171,8596958584,602990141,602990142,11081351792,5240568158,807968459,5240568160,1796486304,2520618592,602990143,8596958452,1171505011,5605166014,602990144,8596958447,602990147,11987099418,602990148,2394199566,8596958446,602990149,8596958433,6835289597,1171504754,13368859873,9366321575,13368859876,8596958571,13368859879,9366321572,1171504659,13299770220,602990150,602990151,602990152,602990153,3287025570,602990155,602990157,602990158,602990159,3287949026,2795698767,602990160,602990161,3287949028,602990163,13299770233,2795698873,1044379840,602990164,11081424005,602990165,1008238282,11071563642,5734888010,8455678873,1008238540,1489808324,1044378998,1044379796,1489808320,1044379444,1046715733,1489808318,1046717327,9015711403,1044378872,8455428839,3287949036,1044378819,1489808260,8436191132,1044378752,9015711643,1489808215,1044379884,1044379549,1044379176,8435700651],"coordinates":[[-66.2884925,-17.407518200000002],[-66.2879748,-17.407515],[-66.2874745,-17.407505],[-66.2869265,-17.407507000000003],[-66.2863825,-17.4074953],[-66.2863868,-17.4077337],[-66.28629480000001,-17.4077287],[-66.2862858,-17.4070572],[-66.28628520000001,-17.4069991],[-66.2862868,-17.4064906],[-66.2862746,-17.4058628],[-66.28627150000001,-17.404605200000002],[-66.2862673,-17.4040541],[-66.2862661,-17.403975000000003],[-66.28623750000001,-17.4032154],[-66.28624690000001,-17.402075],[-66.2848403,-17.402095300000003],[-66.2842409,-17.4021039],[-66.28249070000001,-17.402181900000002],[-66.2824544,-17.4023055],[-66.2823257,-17.4023083],[-66.2813553,-17.4023296],[-66.2812837,-17.4023313],[-66.28122160000001,-17.402330000000003],[-66.2812313,-17.4021584],[-66.281225,-17.402110200000003],[-66.28121300000001,-17.402047200000002],[-66.28118230000001,-17.4018184],[-66.28107270000001,-17.4011718],[-66.2809084,-17.400006700000002],[-66.28081560000001,-17.399267100000003],[-66.2807549,-17.398800400000002],[-66.2806049,-17.397671000000003],[-66.2806087,-17.397643600000002],[-66.2805369,-17.3971516],[-66.2804261,-17.396601],[-66.28041180000001,-17.3965099],[-66.28052960000001,-17.3951852],[-66.28053600000001,-17.3951098],[-66.2805441,-17.3950329],[-66.2806147,-17.394366700000003],[-66.2806245,-17.394282],[-66.2804969,-17.3942675],[-66.2798815,-17.3942066],[-66.2795033,-17.3941692],[-66.27879770000001,-17.3940994],[-66.27829600000001,-17.3940485],[-66.2782169,-17.394039000000003],[-66.27816890000001,-17.394033200000003],[-66.27814450000001,-17.3940395],[-66.27811790000001,-17.394044500000003],[-66.27806840000001,-17.394044400000002],[-66.2780201,-17.3940285],[-66.2778794,-17.394015300000003],[-66.27738090000001,-17.393965100000003],[-66.27698430000001,-17.393924000000002],[-66.2768911,-17.3939144],[-66.27613620000001,-17.3938363],[-66.27496330000001,-17.3937285],[-66.27453870000001,-17.3936929],[-66.27442020000001,-17.393684200000003],[-66.27325280000001,-17.393565300000002],[-66.2729886,-17.393549],[-66.27289060000001,-17.393511500000002],[-66.27285210000001,-17.393533100000003],[-66.2728074,-17.3935435],[-66.2727806,-17.393545000000003],[-66.2727581,-17.3935427],[-66.2727267,-17.393536],[-66.2726973,-17.3935241],[-66.27266130000001,-17.3934995],[-66.27249690000001,-17.3934548],[-66.27235230000001,-17.3934131],[-66.27222420000001,-17.393386500000002],[-66.272136,-17.393375000000002],[-66.27118340000001,-17.393261600000002],[-66.27011320000001,-17.3931644],[-66.2699556,-17.393150900000002],[-66.2692456,-17.393083],[-66.2683157,-17.392994],[-66.26816210000001,-17.3929793],[-66.26808580000001,-17.392970400000003],[-66.2680632,-17.3929681],[-66.26630990000001,-17.3927856],[-66.26498190000001,-17.3926561],[-66.2620232,-17.3923631],[-66.26103330000001,-17.3922706],[-66.26040300000001,-17.392209700000002],[-66.2600955,-17.3921801],[-66.2597451,-17.392146200000003],[-66.2596815,-17.392140100000002],[-66.25964130000001,-17.392134600000002],[-66.25948260000001,-17.3921205],[-66.2589272,-17.392065600000002],[-66.25794470000001,-17.391968400000003],[-66.2577273,-17.391949800000003],[-66.2575312,-17.3919305],[-66.2560565,-17.3917855],[-66.2548029,-17.3916521],[-66.25319800000001,-17.3914884],[-66.2530064,-17.3914702],[-66.2528628,-17.3914565],[-66.2517349,-17.391351800000002],[-66.25130530000001,-17.3913072],[-66.2507894,-17.3912641],[-66.25064590000001,-17.3912553],[-66.25044960000001,-17.391241100000002],[-66.24994980000001,-17.391207700000002],[-66.24902460000001,-17.391148],[-66.24892960000001,-17.3911412],[-66.2483832,-17.391103700000002],[-66.2478983,-17.3910798],[-66.2474718,-17.391058800000003],[-66.24669460000001,-17.3910205],[-66.2463515,-17.3910036],[-66.2462864,-17.391000400000003],[-66.246144,-17.390994300000003],[-66.24609570000001,-17.390992800000003],[-66.2459542,-17.3909884],[-66.2450017,-17.3909622],[-66.2449045,-17.390971200000003],[-66.24474570000001,-17.3910024],[-66.244702,-17.391009200000003],[-66.24461070000001,-17.391030400000002],[-66.2444712,-17.391049600000002],[-66.2443896,-17.3910486],[-66.2440073,-17.391043800000002],[-66.2439758,-17.391043200000002],[-66.2439215,-17.3910349],[-66.24373270000001,-17.390998600000003],[-66.24367640000001,-17.3909884],[-66.24355220000001,-17.3909664],[-66.24346390000001,-17.390956900000003],[-66.2433575,-17.3909534],[-66.2427821,-17.3909552],[-66.24211430000001,-17.3909528],[-66.24113820000001,-17.3909664],[-66.2409403,-17.390969400000003],[-66.2398934,-17.390992100000002],[-66.2393461,-17.391020700000002],[-66.2391427,-17.391038400000003],[-66.23896260000001,-17.391061500000003],[-66.2388277,-17.3910735],[-66.23878500000001,-17.3910956],[-66.23875550000001,-17.391099500000003],[-66.23872490000001,-17.3910999],[-66.2386949,-17.391094600000002],[-66.2385208,-17.391072100000002],[-66.23834480000001,-17.3910467],[-66.2381859,-17.3910491],[-66.23783080000001,-17.3910656],[-66.23636230000001,-17.391125600000002],[-66.23635920000001,-17.3911257],[-66.2338646,-17.3912258],[-66.2324387,-17.3912917],[-66.23202930000001,-17.391311],[-66.2319827,-17.391310100000002],[-66.23130280000001,-17.3913334],[-66.23093850000001,-17.3913516],[-66.23050210000001,-17.3913727],[-66.23003270000001,-17.391397100000002],[-66.23001740000001,-17.3913979],[-66.22988550000001,-17.3914048],[-66.2297415,-17.391410200000003],[-66.2291665,-17.3914316],[-66.228361,-17.3914642],[-66.2274295,-17.3915073],[-66.22662360000001,-17.391544500000002],[-66.22649600000001,-17.391546700000003],[-66.22491930000001,-17.391616900000002],[-66.22209000000001,-17.391740000000002],[-66.2218668,-17.391750700000003],[-66.2215956,-17.391763800000003],[-66.2213351,-17.3917763],[-66.2201605,-17.391822400000002],[-66.2194839,-17.39185],[-66.21940950000001,-17.391853],[-66.2190114,-17.3918693],[-66.218896,-17.3918743],[-66.2182131,-17.3919074],[-66.2154179,-17.392026100000002],[-66.2134978,-17.3921116],[-66.2125925,-17.3921494],[-66.21252270000001,-17.3921524],[-66.2103878,-17.392245600000003],[-66.2103017,-17.392249600000003],[-66.208973,-17.3923041],[-66.20829520000001,-17.3923381],[-66.20824280000001,-17.392340800000003],[-66.20819030000001,-17.3923434],[-66.2080961,-17.3923466],[-66.20801010000001,-17.3923501],[-66.2077704,-17.392359900000002],[-66.20563480000001,-17.3924477],[-66.20470830000001,-17.392489100000002],[-66.20430920000001,-17.3925078],[-66.2036195,-17.3925345],[-66.2031084,-17.392554200000003],[-66.2004314,-17.3926766],[-66.2002307,-17.392685800000002],[-66.1998222,-17.392704600000002],[-66.1997525,-17.3927076],[-66.1996829,-17.3927105],[-66.1996077,-17.392714100000003],[-66.19948160000001,-17.392719300000003],[-66.1989358,-17.392742000000002],[-66.1970994,-17.392820500000003],[-66.19696090000001,-17.3928267],[-66.19417130000001,-17.3929516],[-66.19390320000001,-17.3929632],[-66.1918596,-17.3930496],[-66.1892684,-17.393168300000003],[-66.1875821,-17.393243100000003],[-66.18641620000001,-17.393294400000002],[-66.1844616,-17.3933742],[-66.18410340000001,-17.3933915],[-66.1825146,-17.393462200000002],[-66.18183020000001,-17.393494],[-66.1810597,-17.393529800000003],[-66.1801494,-17.393567700000002],[-66.1795661,-17.393593300000003],[-66.17767380000001,-17.3936785],[-66.17727880000001,-17.393696700000003],[-66.1766698,-17.3937248],[-66.176607,-17.393727700000003],[-66.1764849,-17.393733],[-66.1763233,-17.3937399],[-66.1746071,-17.3938138],[-66.1740147,-17.3938393],[-66.1739096,-17.3938439],[-66.1724045,-17.393906400000002],[-66.17213500000001,-17.3939606],[-66.171351,-17.3939959],[-66.1711564,-17.394010700000003],[-66.17086850000001,-17.3940485],[-66.1708359,-17.3940528],[-66.1707777,-17.3940604],[-66.17074910000001,-17.394078200000003],[-66.17071770000001,-17.394089],[-66.1706843,-17.394098600000003],[-66.1706577,-17.3941006],[-66.1706312,-17.394099100000002],[-66.17060500000001,-17.394094300000003],[-66.1705706,-17.3940823],[-66.1705409,-17.394065700000002],[-66.1705148,-17.3940446],[-66.1704928,-17.3940194],[-66.17047570000001,-17.393991],[-66.17046400000001,-17.393960200000002],[-66.1704581,-17.3939279],[-66.1704581,-17.393895200000003],[-66.17046400000001,-17.393862900000002],[-66.1704756,-17.3938321],[-66.1704926,-17.393803600000002],[-66.1705146,-17.393778400000002],[-66.1705407,-17.393757200000003],[-66.17057030000001,-17.3937406],[-66.1706025,-17.3937291],[-66.1706024,-17.393642200000002],[-66.1705811,-17.3928583],[-66.17056720000001,-17.392119100000002],[-66.1705632,-17.3913993],[-66.17055880000001,-17.391238],[-66.17054470000001,-17.3906677],[-66.1705431,-17.390607600000003],[-66.1705323,-17.3901988],[-66.1705302,-17.3901167],[-66.17052860000001,-17.390059500000003],[-66.170527,-17.390008700000003],[-66.17051590000001,-17.389578800000002],[-66.1705146,-17.389529500000002],[-66.1705019,-17.3889821],[-66.1704984,-17.3888292],[-66.1704876,-17.3884025],[-66.170478,-17.388173000000002],[-66.17046450000001,-17.388109500000002],[-66.17045350000001,-17.388079400000002],[-66.1704424,-17.388049300000002],[-66.1704133,-17.3879732],[-66.17038960000001,-17.3879546],[-66.1703667,-17.387928900000002],[-66.17035290000001,-17.3879069],[-66.1703413,-17.387879],[-66.1703348,-17.387849600000003],[-66.1703336,-17.3878196],[-66.17033780000001,-17.3877898],[-66.1703473,-17.387761100000002],[-66.17036180000001,-17.387734400000003],[-66.1703853,-17.3877057],[-66.1704146,-17.3876822],[-66.1704232,-17.387596100000003],[-66.170421,-17.387545900000003],[-66.1704102,-17.3874694],[-66.1703121,-17.387007200000003],[-66.17017870000001,-17.3863705],[-66.1700792,-17.385876200000002],[-66.17009150000001,-17.385772600000003],[-66.1700773,-17.3857043],[-66.17004510000001,-17.3855502],[-66.1700272,-17.3854642],[-66.17001420000001,-17.3853975],[-66.1698097,-17.3843673],[-66.1697396,-17.3840314],[-66.16971790000001,-17.383945],[-66.16969110000001,-17.383860100000003],[-66.1696589,-17.3837769],[-66.1696216,-17.3836957],[-66.16958310000001,-17.383611100000003],[-66.16957790000001,-17.383607700000002],[-66.1693484,-17.383493100000003],[-66.1692562,-17.3834525],[-66.1691832,-17.3834252],[-66.1690207,-17.383369100000003],[-66.16851310000001,-17.383190600000002],[-66.16793820000001,-17.3829883],[-66.16786540000001,-17.3829627],[-66.1669426,-17.382640700000003],[-66.16674,-17.38257],[-66.1666584,-17.3825451],[-66.1665801,-17.382527600000003],[-66.16653070000001,-17.3825167],[-66.16645410000001,-17.382507800000003],[-66.1663525,-17.382505600000002],[-66.1663324,-17.3825067],[-66.16631240000001,-17.3825058],[-66.1661617,-17.3825237],[-66.1660992,-17.382533600000002],[-66.1660233,-17.382552],[-66.1659245,-17.3825794],[-66.16576040000001,-17.382659800000003],[-66.16518540000001,-17.382989400000003],[-66.16515290000001,-17.3830065],[-66.16505210000001,-17.3830674],[-66.1649852,-17.383105800000003],[-66.16448220000001,-17.383407400000003],[-66.1641417,-17.383587400000003],[-66.1640976,-17.383610800000003],[-66.1640225,-17.3836219],[-66.1639246,-17.3836416],[-66.1638662,-17.3835753],[-66.16363360000001,-17.383311000000003],[-66.1635055,-17.3831744],[-66.1632605,-17.382914300000003],[-66.16306940000001,-17.382723000000002],[-66.1628646,-17.3825407],[-66.16277620000001,-17.3824699],[-66.1625901,-17.382321100000002],[-66.16242430000001,-17.382197100000003],[-66.16232760000001,-17.3821242],[-66.16217900000001,-17.3820154],[-66.1621277,-17.381975800000003],[-66.1618583,-17.381795800000003],[-66.1617892,-17.381753500000002],[-66.16173040000001,-17.3817176],[-66.1616235,-17.381663500000002],[-66.1615252,-17.3816178],[-66.16136560000001,-17.381551],[-66.16115540000001,-17.3814844],[-66.1609184,-17.381415500000003],[-66.1606043,-17.3813312],[-66.15976380000001,-17.381102100000003],[-66.1595121,-17.381045800000003],[-66.1591798,-17.380996600000003],[-66.15769560000001,-17.3806307],[-66.15742970000001,-17.380565200000003],[-66.1570793,-17.3804805],[-66.156739,-17.380398600000003],[-66.15621300000001,-17.380254400000002],[-66.15596450000001,-17.380179700000003],[-66.1553897,-17.3800372],[-66.1550023,-17.3799421],[-66.1541928,-17.3797433],[-66.1540233,-17.3797016],[-66.15358260000001,-17.379598400000003],[-66.15333050000001,-17.379533100000003],[-66.15302530000001,-17.3794369],[-66.15237450000001,-17.379264900000003],[-66.1523162,-17.3792538],[-66.15227390000001,-17.379251],[-66.15223660000001,-17.3792563],[-66.1522127,-17.3792702],[-66.1521831,-17.3793009],[-66.1521786,-17.3793188],[-66.15208550000001,-17.379685300000002],[-66.1520795,-17.379733100000003],[-66.1520888,-17.3798099],[-66.1521204,-17.3798676],[-66.15215450000001,-17.3799229],[-66.1521707,-17.3799853],[-66.1521677,-17.3800494],[-66.1521458,-17.3801102],[-66.1520931,-17.3801673],[-66.15202690000001,-17.380215200000002],[-66.1519792,-17.380223100000002],[-66.151931,-17.3802172],[-66.1518899,-17.3801972],[-66.15185410000001,-17.380171200000003],[-66.1518253,-17.3801178],[-66.15180400000001,-17.380065300000002],[-66.15170470000001,-17.3799634],[-66.15163820000001,-17.3798932],[-66.1515828,-17.379839200000003],[-66.15151920000001,-17.3797992],[-66.15142580000001,-17.3797591],[-66.15132000000001,-17.379708500000003],[-66.1511966,-17.3796621],[-66.15109120000001,-17.379625800000003],[-66.15083720000001,-17.3795669],[-66.15009210000001,-17.379397500000003],[-66.1499797,-17.379364900000002],[-66.1489571,-17.379120800000003],[-66.14833030000001,-17.378962400000002],[-66.1480945,-17.378907400000003],[-66.14784680000001,-17.378822500000002],[-66.14744350000001,-17.378724400000003],[-66.1463336,-17.378454400000003],[-66.14556300000001,-17.3782669],[-66.14472830000001,-17.378063800000003],[-66.14335480000001,-17.3777146],[-66.1432422,-17.3777204],[-66.14284740000001,-17.377626300000003],[-66.1427,-17.3776012],[-66.1426684,-17.3775982],[-66.14263670000001,-17.377595200000002],[-66.1425911,-17.377601600000002],[-66.14255150000001,-17.3776146],[-66.14251180000001,-17.3776276],[-66.1424521,-17.3776461],[-66.14243590000001,-17.377670400000003],[-66.14241030000001,-17.3776951],[-66.1423795,-17.377715300000002],[-66.1423309,-17.377727800000002],[-66.1422795,-17.377725],[-66.14224630000001,-17.3777143],[-66.1422199,-17.3776949],[-66.1421909,-17.3776639],[-66.14217310000001,-17.3776255],[-66.14216710000001,-17.377586],[-66.14217070000001,-17.3775543],[-66.1421773,-17.377529600000003],[-66.14219340000001,-17.377495200000002],[-66.142222,-17.3774681],[-66.14225540000001,-17.3774507],[-66.14229470000001,-17.3774383],[-66.1423194,-17.3774203],[-66.14233460000001,-17.3774054],[-66.1423592,-17.3773105],[-66.14246,-17.376944400000003],[-66.1424636,-17.376928900000003],[-66.142464,-17.376924900000002],[-66.1424703,-17.3768683],[-66.1424748,-17.3768274],[-66.142481,-17.3767615],[-66.14251820000001,-17.376325],[-66.1425282,-17.376219600000002],[-66.1425928,-17.375760800000002],[-66.14265420000001,-17.3753253],[-66.1426953,-17.375031],[-66.14270520000001,-17.374962800000002],[-66.14271830000001,-17.3748676],[-66.142819,-17.374184500000002],[-66.1428047,-17.3741261],[-66.1427764,-17.374057200000003],[-66.14268050000001,-17.3739877],[-66.14263460000001,-17.373939500000002],[-66.1426047,-17.373879000000002],[-66.14259750000001,-17.3738446],[-66.1425861,-17.3737841],[-66.1425906,-17.3736961],[-66.1426187,-17.3736122],[-66.14265400000001,-17.3735557],[-66.1426742,-17.373532200000003],[-66.1427001,-17.3735067],[-66.14272790000001,-17.373355],[-66.14273220000001,-17.373298100000003],[-66.14273220000001,-17.373234200000002],[-66.14258290000001,-17.3725963],[-66.1424698,-17.372114500000002],[-66.14246370000001,-17.372088400000003],[-66.14243970000001,-17.371972900000003],[-66.1424198,-17.371879],[-66.1424119,-17.3718444],[-66.142142,-17.3705959],[-66.14212850000001,-17.3705432],[-66.14210940000001,-17.370423300000002],[-66.1421037,-17.3703697],[-66.14198640000001,-17.370409600000002],[-66.14187430000001,-17.3704645],[-66.14097500000001,-17.3710646],[-66.1402844,-17.3714625],[-66.1401931,-17.371495000000003],[-66.1401302,-17.3715151],[-66.1400366,-17.3715398],[-66.1396424,-17.3715961],[-66.1392529,-17.371651800000002],[-66.13916210000001,-17.371665500000002],[-66.13861630000001,-17.3717325],[-66.1385829,-17.371736600000002],[-66.13853990000001,-17.3717428],[-66.1383306,-17.371772800000002],[-66.138238,-17.3717989],[-66.1381444,-17.371834600000003],[-66.1380505,-17.371878300000002],[-66.1380127,-17.371904800000003],[-66.13767840000001,-17.372139200000003],[-66.1376309,-17.372169500000002],[-66.13754800000001,-17.372229],[-66.1370854,-17.3725452],[-66.1370134,-17.372600000000002],[-66.1369164,-17.372671200000003],[-66.1368516,-17.3727063],[-66.1367986,-17.3727325],[-66.13674660000001,-17.3727549],[-66.1366337,-17.372782],[-66.1365427,-17.3727975],[-66.1361547,-17.372841700000002],[-66.13608350000001,-17.3728479],[-66.1359771,-17.372857200000002],[-66.13586020000001,-17.3728656],[-66.13578170000001,-17.3728684],[-66.1356853,-17.372860300000003],[-66.13549660000001,-17.3728322],[-66.1351908,-17.372780600000002],[-66.1351489,-17.372770300000003],[-66.13507530000001,-17.372756300000002],[-66.1347435,-17.3726933],[-66.134217,-17.372593400000003],[-66.1341675,-17.372584],[-66.1341027,-17.3725714],[-66.1337319,-17.3724992],[-66.1334855,-17.3724558],[-66.13338390000001,-17.372432500000002],[-66.1333491,-17.372427300000002],[-66.13319360000001,-17.372420100000003],[-66.13306530000001,-17.3724275],[-66.1326272,-17.3725546],[-66.1319916,-17.3727297],[-66.1318806,-17.3727555],[-66.1316408,-17.372834500000003],[-66.13114630000001,-17.3730495],[-66.1309399,-17.3731471],[-66.13084500000001,-17.373181900000002],[-66.13071880000001,-17.3732067],[-66.13054310000001,-17.3732203],[-66.1302763,-17.3732331],[-66.1300836,-17.373247900000003],[-66.12985490000001,-17.3732694],[-66.1298225,-17.373275600000003],[-66.1296782,-17.373303200000002],[-66.1294941,-17.373350600000002],[-66.1293598,-17.3733943],[-66.1292169,-17.3734493],[-66.12908060000001,-17.373502700000003],[-66.1289941,-17.373526100000003],[-66.12888410000001,-17.373551300000003],[-66.12879240000001,-17.3735624],[-66.1286912,-17.373569900000003],[-66.12775640000001,-17.3735584],[-66.12761880000001,-17.373554600000002],[-66.1271409,-17.3735386],[-66.12669580000001,-17.3735226],[-66.12623450000001,-17.373509100000003],[-66.12581660000001,-17.3734922],[-66.1253243,-17.373470400000002],[-66.1247261,-17.3734433],[-66.1244463,-17.3734314],[-66.12397170000001,-17.373418100000002],[-66.1239031,-17.3734159],[-66.1237105,-17.373413900000003],[-66.1235774,-17.3734137],[-66.1235776,-17.373313500000002],[-66.12357100000001,-17.373001700000003],[-66.1234902,-17.372992],[-66.1234201,-17.372946000000002],[-66.1232792,-17.3728327],[-66.1231544,-17.372706700000002],[-66.12308630000001,-17.3726071],[-66.12306770000001,-17.3725227],[-66.1230591,-17.3724533],[-66.1230443,-17.3718432]]}}},{"type":"Feature","properties":{"bus":"yes","highway":"bus_stop","name":"Parada MiniBus 217","public_transport":"platform","id":9180628299},"geometry":{"type":"Point","coordinates":[-66.2885535,-17.407561100000002]}},{"type":"Feature","properties":{"bench":"yes","bin":"no","bus":"yes","departures_board":"no","highway":"bus_stop","lit":"no","name":"Piscina Victoria","operator":"Gobierno Autónomo Municipal de Cochabamba","public_transport":"platform","shelter":"yes","tactile_paving":"no","wheelchair":"no","id":8616284788},"geometry":{"type":"Point","coordinates":[-66.1426462,-17.375075900000002]}},{"type":"Feature","properties":{"bench":"no","bin":"no","bus":"yes","departures_board":"no","highway":"bus_stop","level":"0","lit":"no","name":"Automóvil Club Boliviano","operator":"Administradora Boliviana de Carreteras","operator:short":"ABC","operator:type":"public","pole":"yes","public_transport":"platform","shelter":"no","tactile_paving":"no","wheelchair":"no","id":3201987266},"geometry":{"type":"Point","coordinates":[-66.1745966,-17.3938969]}},{"type":"Feature","properties":{"bus":"yes","departures_board":"no","highway":"bus_stop","name":"Parada 217","public_transport":"platform","shelter":"no","id":1044378888},"geometry":{"type":"Point","coordinates":[-66.1229809,-17.3717349]}},{"type":"Feature","properties":{"bench":"no","bin":"no","bus":"yes","departures_board":"no","highway":"bus_stop","informal":"yes","level":"0","lit":"no","name":"Distribuidor Carlos Blanco Galindo-Perú","pole":"no","public_transport":"platform","shelter":"no","tactile_paving":"no","wheelchair":"no","id":13303075832},"geometry":{"type":"Point","coordinates":[-66.17103510000001,-17.3940655]}},{"type":"Feature","properties":{"bench":"no","bin":"no","bus":"yes","departures_board":"no","highway":"bus_stop","level":"0","lit":"no","name":"La Merced","operator":"Gobierno Autónomo Municipal de Cochabamba","operator:short":"GAMC","operator:type":"government","public_transport":"platform","tactile_paving":"no","wheelchair":"no","id":13335060433},"geometry":{"type":"Point","coordinates":[-66.1705663,-17.3929875]}}]}