{"type":"FeatureCollection","features":[{"type":"Feature","properties":{"check_date":"46167","from":"Villa San Andres","name":"Trufi 108: Villa San Andres → Calle Esteban Arce","network":"BO:CB:Cochabamba","on_demand":"yes","operator":"Asociación de transporte libre mixto Oruro","public_transport:version":"2","ref":"108","route":"bus","to":"Calle Esteban Arce","type":"route","wheelchair":"no","id":10721734},"geometry":{"type":"LineString","coordinates":[[-66.1114146,-17.462667500000002],[-66.11127780000001,-17.4627315],[-66.11096230000001,-17.462841200000003],[-66.11095180000001,-17.4628789],[-66.1109612,-17.4629285],[-66.11102810000001,-17.463051],[-66.1110768,-17.463108300000002],[-66.1111592,-17.4631925],[-66.11122440000001,-17.463239100000003],[-66.11127090000001,-17.4632563],[-66.11132690000001,-17.4632577],[-66.1113711,-17.463251200000002],[-66.11142050000001,-17.4632377],[-66.11147700000001,-17.463213000000003],[-66.11176440000001,-17.4630489],[-66.11206270000001,-17.462951500000003],[-66.11224610000001,-17.4629011],[-66.1124029,-17.462888200000002],[-66.112941,-17.462876400000003],[-66.11298160000001,-17.462842900000002],[-66.1129214,-17.4615219],[-66.11313390000001,-17.461547200000002],[-66.11336650000001,-17.4615544],[-66.1134957,-17.461608400000003],[-66.11360230000001,-17.4616942],[-66.1138906,-17.4621688],[-66.1140271,-17.4622908],[-66.11416000000001,-17.462401900000003],[-66.114232,-17.462505200000003],[-66.1147,-17.4621202],[-66.1150606,-17.4616994],[-66.11521540000001,-17.461479500000003],[-66.11538680000001,-17.461265400000002],[-66.11554860000001,-17.461023100000002],[-66.11565130000001,-17.4607315],[-66.1156911,-17.4605801],[-66.11581020000001,-17.459940900000003],[-66.11584710000001,-17.459802600000003],[-66.1157259,-17.4598024],[-66.11583630000001,-17.459410600000002],[-66.11594790000001,-17.459007300000003],[-66.11609800000001,-17.4584654],[-66.1162024,-17.458070900000003],[-66.1163341,-17.4575245],[-66.11635650000001,-17.457448600000003],[-66.11640030000001,-17.4573053],[-66.11650700000001,-17.457047000000003],[-66.1168792,-17.4564027],[-66.1164454,-17.456188800000003],[-66.1160153,-17.4559733],[-66.1159928,-17.455962000000003],[-66.11579850000001,-17.4558624],[-66.11577580000001,-17.455850700000003],[-66.1153778,-17.4556466],[-66.1152024,-17.455751600000003],[-66.11512,-17.455672500000002],[-66.11505580000001,-17.4555729],[-66.11540480000001,-17.455178500000002],[-66.1157165,-17.4549813],[-66.1159466,-17.4548428],[-66.11621120000001,-17.4547333],[-66.1163463,-17.454667200000003],[-66.11639120000001,-17.454296300000003],[-66.1164505,-17.4535728],[-66.11651970000001,-17.452842200000003],[-66.11657890000001,-17.4523295],[-66.11665710000001,-17.4515622],[-66.1166544,-17.451369500000002],[-66.1166635,-17.4513314],[-66.11687280000001,-17.4509693],[-66.1169704,-17.450781300000003],[-66.11742890000001,-17.4498786],[-66.11703460000001,-17.449674],[-66.1168547,-17.449445100000002],[-66.11681030000001,-17.449377300000002],[-66.11678690000001,-17.4489543],[-66.11678210000001,-17.4488203],[-66.1167415,-17.4476841],[-66.1167394,-17.447611000000002],[-66.11673250000001,-17.4474923],[-66.11671390000001,-17.4471706],[-66.1166903,-17.4464048],[-66.1166778,-17.4462155],[-66.11666740000001,-17.446057900000003],[-66.11665430000001,-17.4458592],[-66.11664830000001,-17.445785100000002],[-66.1166331,-17.445501],[-66.1166195,-17.4452293],[-66.1166048,-17.444670700000003],[-66.1165718,-17.4439332],[-66.1165624,-17.4437228],[-66.11655060000001,-17.443427800000002],[-66.1165206,-17.442693700000003],[-66.1164976,-17.4421667],[-66.1164736,-17.4415602],[-66.11647190000001,-17.441515600000002],[-66.1164641,-17.4412965],[-66.1164383,-17.4407846],[-66.1164025,-17.440155100000002],[-66.1163944,-17.4399681],[-66.1163896,-17.4398589],[-66.1163399,-17.438924],[-66.1162943,-17.4377266],[-66.11644790000001,-17.437768900000002],[-66.11700370000001,-17.4378713],[-66.1170694,-17.4374077],[-66.1170706,-17.437329400000003],[-66.1176896,-17.437154300000003],[-66.1179977,-17.4370744],[-66.11831480000001,-17.4369921],[-66.1184164,-17.436989200000003],[-66.1188939,-17.436971900000003],[-66.1194517,-17.4369532],[-66.11961810000001,-17.4369492],[-66.11975240000001,-17.4369365],[-66.11987540000001,-17.4369453],[-66.12104620000001,-17.4371301],[-66.12205030000001,-17.437287400000002],[-66.12308440000001,-17.4374483],[-66.1241145,-17.437625200000003],[-66.1245056,-17.437665900000002],[-66.1246809,-17.437670200000003],[-66.1249033,-17.43765],[-66.1252786,-17.4375983],[-66.125442,-17.4375657],[-66.125544,-17.4375365],[-66.125354,-17.436575],[-66.12531580000001,-17.4363743],[-66.12528,-17.436276900000003],[-66.12523800000001,-17.436163],[-66.1251714,-17.435986900000003],[-66.1251376,-17.4358614],[-66.12512690000001,-17.4357341],[-66.12514390000001,-17.4355517],[-66.1251654,-17.4354243],[-66.1252055,-17.435304600000002],[-66.12527100000001,-17.435183600000002],[-66.12568370000001,-17.434584700000002],[-66.1259222,-17.4342042],[-66.1265453,-17.433226100000002],[-66.1266258,-17.433099600000002],[-66.1267698,-17.4328742],[-66.1272416,-17.4320017],[-66.12751820000001,-17.431459800000003],[-66.1277733,-17.430971000000003],[-66.1279727,-17.4305784],[-66.12841350000001,-17.4297621],[-66.1285675,-17.4294954],[-66.12869500000001,-17.429295],[-66.1288018,-17.429144],[-66.12887280000001,-17.4290461],[-66.12902890000001,-17.428848900000002],[-66.1303195,-17.427304300000003],[-66.1305469,-17.427046400000002],[-66.1306835,-17.4269116],[-66.1312527,-17.426440200000002],[-66.1325741,-17.4253062],[-66.13427460000001,-17.4238758],[-66.1343645,-17.4237992],[-66.13445010000001,-17.423719900000002],[-66.1344629,-17.423640300000002],[-66.1345886,-17.423646100000003],[-66.1346439,-17.4236487],[-66.1354118,-17.423683800000003],[-66.13679420000001,-17.422266200000003],[-66.13801950000001,-17.420991100000002],[-66.13871750000001,-17.420301400000003],[-66.1392069,-17.4197886],[-66.1392703,-17.4197221],[-66.13936000000001,-17.4196315],[-66.1394624,-17.4195755],[-66.1394879,-17.419541300000002],[-66.1395725,-17.4193959],[-66.13963310000001,-17.419311],[-66.1396873,-17.4192305],[-66.1397403,-17.4191353],[-66.13979880000001,-17.418986],[-66.13983280000001,-17.4188823],[-66.14016480000001,-17.4178612],[-66.1404933,-17.4168866],[-66.1405244,-17.416806700000002],[-66.1405833,-17.416682700000003],[-66.1407573,-17.4163719],[-66.14094800000001,-17.4160763],[-66.1409708,-17.4160292],[-66.1409715,-17.4159384],[-66.1410963,-17.4158614],[-66.1411571,-17.4158204],[-66.14120940000001,-17.415777400000003],[-66.1413184,-17.415687600000002],[-66.1414637,-17.415557600000003],[-66.14162110000001,-17.415388],[-66.14181620000001,-17.415161],[-66.14196510000001,-17.4149342],[-66.14213240000001,-17.4146275],[-66.1422319,-17.4143516],[-66.14230110000001,-17.4141008],[-66.14235470000001,-17.413792800000003],[-66.1423669,-17.4136852],[-66.14238320000001,-17.4133356],[-66.142442,-17.4122956],[-66.1424875,-17.410792200000003],[-66.1425014,-17.4105589],[-66.1425131,-17.410420900000002],[-66.14252160000001,-17.4103269],[-66.14255560000001,-17.410092300000002],[-66.1426088,-17.409822000000002],[-66.1426969,-17.409533800000002],[-66.14280380000001,-17.4092482],[-66.14295340000001,-17.4089245],[-66.14313290000001,-17.408614800000002],[-66.14327440000001,-17.4084112],[-66.1436255,-17.407940800000002],[-66.1441016,-17.4073278],[-66.1446442,-17.4066392],[-66.1447121,-17.4065501],[-66.14485280000001,-17.4063549],[-66.14487150000001,-17.406329000000003],[-66.1449015,-17.4062875],[-66.14496310000001,-17.4061868],[-66.14501080000001,-17.406109],[-66.14529300000001,-17.4055715],[-66.14542180000001,-17.4053073],[-66.1454853,-17.405170000000002],[-66.14557470000001,-17.405032700000003],[-66.14565250000001,-17.4048461],[-66.1457908,-17.4045641],[-66.14591150000001,-17.404335800000002],[-66.1460246,-17.4041685],[-66.14625690000001,-17.403881300000002],[-66.14656020000001,-17.4035453],[-66.14673540000001,-17.4033443],[-66.1468116,-17.403175200000003],[-66.1468785,-17.403069700000003],[-66.14692380000001,-17.4029986],[-66.1469869,-17.4028497],[-66.14703700000001,-17.402718500000002],[-66.14706240000001,-17.402651900000002],[-66.1470936,-17.4025344],[-66.147125,-17.4023666],[-66.1471298,-17.4021304],[-66.147153,-17.4020486],[-66.14717180000001,-17.402008000000002],[-66.1471961,-17.401979100000002],[-66.1472339,-17.4019505],[-66.1472995,-17.401910700000002],[-66.1473653,-17.4018908],[-66.14741570000001,-17.4019018],[-66.14750570000001,-17.4018777],[-66.14756410000001,-17.401858],[-66.14763330000001,-17.4018178],[-66.1476868,-17.401763900000002],[-66.1477981,-17.401607100000003],[-66.1478917,-17.401321000000003],[-66.1479899,-17.400962500000002],[-66.14800340000001,-17.400894800000003],[-66.1480179,-17.4008307],[-66.1481961,-17.399952300000002],[-66.14821160000001,-17.399872900000002],[-66.14829800000001,-17.3998478],[-66.14883130000001,-17.3998543],[-66.14933400000001,-17.399860500000003],[-66.14984940000001,-17.3998668],[-66.15002220000001,-17.3998728],[-66.15013950000001,-17.399879600000002],[-66.15025750000001,-17.399903000000002],[-66.15035920000001,-17.3999303],[-66.15048010000001,-17.399971100000002],[-66.15061080000001,-17.400034100000003],[-66.15074340000001,-17.400121900000002],[-66.15086930000001,-17.4002252],[-66.15093900000001,-17.400289500000003],[-66.15101320000001,-17.4003714],[-66.1510832,-17.4004668],[-66.1511583,-17.4005867],[-66.15124030000001,-17.4007535],[-66.15128960000001,-17.400901],[-66.15131070000001,-17.4010414],[-66.15131790000001,-17.401207000000003],[-66.1513116,-17.401349600000003],[-66.15129010000001,-17.4014743],[-66.15123510000001,-17.401605200000002],[-66.15109260000001,-17.401910400000002],[-66.1510363,-17.4020268],[-66.1510003,-17.4021361],[-66.1509697,-17.4022563],[-66.15096430000001,-17.4023812],[-66.1509999,-17.4023946],[-66.1510233,-17.4024091],[-66.1510449,-17.402439],[-66.1522352,-17.4023897],[-66.1526695,-17.4023164],[-66.1533031,-17.4023036],[-66.1539503,-17.402274700000003],[-66.1540131,-17.4022708],[-66.1545042,-17.402242700000002],[-66.15496730000001,-17.402208100000003],[-66.15531650000001,-17.4021915],[-66.1552573,-17.401342600000003],[-66.1539544,-17.401400300000002],[-66.1536294,-17.401411900000003],[-66.1532722,-17.4014247],[-66.15219610000001,-17.4014555],[-66.15129010000001,-17.4014743],[-66.1512002,-17.401454400000002]],"nodes":[3017280311,3623711984,3017267670,3623712007,3623712015,3623712030,3017267660,3623712046,3623712049,3623712051,3017267661,3623712050,3623712048,3017267662,3623712029,3017267663,3017267664,3017267665,3623712011,3017267666,3017267668,9951950035,9951950036,9951950037,9951950038,9951950039,9951950041,3017298979,2677330324,2677330313,2677330309,2677330300,2677330294,3481745619,2677330275,2677330264,10839040237,2677330245,2677330242,3017320627,3017320625,2677330223,2677330215,2677221280,10839040275,2677221275,2677221271,2677221263,3477118208,13894507535,3477118080,13894507537,2677221258,2677221252,1600494852,3477118056,3017320636,3017320642,3477118033,1600628533,3017320645,3017320646,3477118005,3477117994,3477117980,3477117968,3477117961,3477117959,3477117957,3477117948,3477463154,3477463150,1600515986,1600515978,3423729914,1600636789,13894274791,12647036056,1600641440,12647036058,1600636772,3017320710,1600636790,3423729571,8158702167,2677221061,1600599839,3423728891,1706129768,8158702152,1600599749,2677221016,2677220999,1600641449,12290979271,1600641417,1600641453,1600623776,1600623821,5019083434,1600623766,1600623760,1706129765,1600599679,1600599781,3412878150,1600599547,1600599631,9829890532,3412878104,1600599827,1600599515,1600599642,2032749242,9368724319,3365328376,1637667957,2032749278,2677410584,2677410587,1637667971,1637667970,1637667968,3365328396,3365328395,1637667960,2677410575,3338058974,11078931157,9368724322,9368724335,1600457509,3338058969,3338058965,1600457650,3338058961,3338058959,1600457579,9015445645,11406647629,3338058954,2032749236,2675803604,2675803578,2675803565,2675803550,1600457607,3338058945,3338058943,1600457610,3017359161,2266514671,1600457545,3338058935,2043659189,2675803286,2043659157,9342320219,3337374369,13755642393,13755642392,13755657001,13755642400,2043658753,2266514654,1610526987,3337319129,10258291963,1610527049,13203351491,2674329297,8729961977,13203351492,8729962051,1600457620,3337267629,3337267628,2674329264,2674329124,1600457617,8729961915,1600457538,2674328974,2674328932,11106108070,8729961891,8729961976,12777576106,12777576103,8741049845,653082758,11106108067,653082755,653082752,3328854766,653082749,653082747,3337266445,3328854762,9052272501,9052272502,9052272505,9052275602,9052272544,9052272475,9052275597,9052272471,9052272470,9052272469,9052272468,9052272467,9052272466,9052272465,9052272463,9052272462,2031079586,12777576110,12508280792,9052272487,12508280784,5434000150,12777576107,2031079518,2031079513,12777576108,2031079515,5227462564,3325466473,2674328752,843385352,324015376,8192377531,12777576115,8192368910,324015373,324015371,8192377560,324015370,598789673,324015368,5227527455,324015367,2031079468,8192368877,2031079460,2031079448,10830662561,8192368884,10677741931,2031079440,2031079436,2031079434,4941281629,8192368866,8542732655,308297682,8192368864,8542732656,308297683,11072042765,12313136886,12313136883,323985741,8089836059,3322574432,8089836057,2236815474,323985099,3322574439,323985098,3322574447,12313136860,3322574450,323985733,323985728,323985094,3322575566,3322575582,323985091,3322575621,702511972,323985713,323985089,323985705,323985934,6129312154,6129312155,6129312143,12313146766,659960369,323983970,6129316868,308300568,5313058805,323983784,702511962,5313058740,323982548,702511964,310503084,3663487408,308300567,310503107,702511972,7197849281]},"gtfs":{"agency_id":11,"route_id":25,"services":[{"service_id":"Mo-Su","startTime":"06:00","endTime":"22:00","trip_id":10721734}],"filteredStops":{"nodes":[3017280311,3623712015,3623712049,3623712050,3017267663,3017267666,9951950037,9951950041,2677330309,2677330275,2677330242,2677330223,2677221275,13894507535,2677221252,3017320642,3017320645,3477117980,3477117957,1600515986,1600636789,12647036058,3423729571,3423728891,1600599749,12290979271,5019083434,1600623766,1600623760,1706129765,1600599679,1600599547,1600599827,2032749242,1637667957,1637667971,3365328396,2677410575,9368724335,3338058965,3338058959,3338058954,2675803578,1600457607,3017359161,3338058935,9342320219,13755642392,2043658753,10258291963,2674329297,8729962051,2674329264,8729961915,2674328932,12777576106,653082758,653082752,3337266445,9052272502,9052272544,9052272470,9052272467,9052272463,12508280792,5434000150,2031079513,3325466473,324015376,8192368910,324015370,5227527455,8192368877,8192368884,2031079436,8542732655,8542732656,12313136886,3322574432,323985099,3322574447,323985728,3322575582,702511972,323985934,6129312143,323983970,323983784,702511964,310503084,308300567,310503107,702511972,7197849281],"coordinates":[[-66.1114146,-17.462667500000002],[-66.1109612,-17.4629285],[-66.11122440000001,-17.463239100000003],[-66.1113711,-17.463251200000002],[-66.11206270000001,-17.462951500000003],[-66.11298160000001,-17.462842900000002],[-66.1134957,-17.461608400000003],[-66.1140271,-17.4622908],[-66.1150606,-17.4616994],[-66.11565130000001,-17.4607315],[-66.1157259,-17.4598024],[-66.11609800000001,-17.4584654],[-66.11640030000001,-17.4573053],[-66.1160153,-17.4559733],[-66.1153778,-17.4556466],[-66.11540480000001,-17.455178500000002],[-66.11621120000001,-17.4547333],[-66.11651970000001,-17.452842200000003],[-66.1166635,-17.4513314],[-66.11703460000001,-17.449674],[-66.11678690000001,-17.4489543],[-66.11673250000001,-17.4474923],[-66.11666740000001,-17.446057900000003],[-66.1166195,-17.4452293],[-66.1165624,-17.4437228],[-66.1164736,-17.4415602],[-66.1163944,-17.4399681],[-66.1163896,-17.4398589],[-66.1163399,-17.438924],[-66.1162943,-17.4377266],[-66.11644790000001,-17.437768900000002],[-66.1170706,-17.437329400000003],[-66.1184164,-17.436989200000003],[-66.11961810000001,-17.4369492],[-66.12104620000001,-17.4371301],[-66.1245056,-17.437665900000002],[-66.1252786,-17.4375983],[-66.125354,-17.436575],[-66.1251714,-17.435986900000003],[-66.12514390000001,-17.4355517],[-66.12527100000001,-17.435183600000002],[-66.1266258,-17.433099600000002],[-66.12751820000001,-17.431459800000003],[-66.12841350000001,-17.4297621],[-66.12887280000001,-17.4290461],[-66.1305469,-17.427046400000002],[-66.13427460000001,-17.4238758],[-66.1344629,-17.423640300000002],[-66.1354118,-17.423683800000003],[-66.1392069,-17.4197886],[-66.1394624,-17.4195755],[-66.13963310000001,-17.419311],[-66.13983280000001,-17.4188823],[-66.1405244,-17.416806700000002],[-66.14094800000001,-17.4160763],[-66.1411571,-17.4158204],[-66.1414637,-17.415557600000003],[-66.14196510000001,-17.4149342],[-66.14235470000001,-17.413792800000003],[-66.142442,-17.4122956],[-66.1425131,-17.410420900000002],[-66.1426969,-17.409533800000002],[-66.14313290000001,-17.408614800000002],[-66.1441016,-17.4073278],[-66.14487150000001,-17.406329000000003],[-66.14501080000001,-17.406109],[-66.1454853,-17.405170000000002],[-66.14591150000001,-17.404335800000002],[-66.14656020000001,-17.4035453],[-66.1468785,-17.403069700000003],[-66.14706240000001,-17.402651900000002],[-66.1471298,-17.4021304],[-66.1471961,-17.401979100000002],[-66.14741570000001,-17.4019018],[-66.14763330000001,-17.4018178],[-66.1479899,-17.400962500000002],[-66.1481961,-17.399952300000002],[-66.14883130000001,-17.3998543],[-66.15013950000001,-17.399879600000002],[-66.15048010000001,-17.399971100000002],[-66.15086930000001,-17.4002252],[-66.1511583,-17.4005867],[-66.15131070000001,-17.4010414],[-66.15129010000001,-17.4014743],[-66.1510003,-17.4021361],[-66.1509999,-17.4023946],[-66.1522352,-17.4023897],[-66.1540131,-17.4022708],[-66.1552573,-17.401342600000003],[-66.1539544,-17.401400300000002],[-66.1532722,-17.4014247],[-66.15219610000001,-17.4014555],[-66.15129010000001,-17.4014743],[-66.1512002,-17.401454400000002]]}}},{"type":"Feature","properties":{"bus":"yes","highway":"bus_stop","name":"Parada Trufi 108 / 148","public_transport":"platform","id":9159610931},"geometry":{"type":"Point","coordinates":[-66.1114204,-17.4626355]}},{"type":"Feature","properties":{"bench":"no","bin":"no","bus":"yes","highway":"bus_stop","name":"Parada Trufi 108","public_transport":"platform","shelter":"no","id":9150327844},"geometry":{"type":"Point","coordinates":[-66.1511656,-17.401447800000003]}}]}