{"type":"FeatureCollection","features":[{"type":"Feature","properties":{"check_date":"29/12/2025","from":"Calle Sacaca","name":"MicroBus T: Calle Sacaca → Villa Coña Coña","network":"BO:CB:Cochabamba","on_demand":"yes","operator":"Sindicato mixto de transporte Sebastian Pagador","public_transport:version":"2","ref":"T","route":"bus","to":"Villa Coña Coña","type":"route","wheelchair":"no","id":10807446},"geometry":{"type":"LineString","coordinates":[[-66.11263140000001,-17.458946500000003],[-66.1122366,-17.4584738],[-66.11205960000001,-17.458251100000002],[-66.1120331,-17.457320300000003],[-66.11199280000001,-17.456680900000002],[-66.1119554,-17.456337],[-66.1119522,-17.456227300000002],[-66.11194920000001,-17.4561536],[-66.11193150000001,-17.4557165],[-66.111924,-17.4555316],[-66.1119111,-17.4552142],[-66.1119072,-17.4551182],[-66.1118886,-17.4546622],[-66.1118696,-17.454194100000002],[-66.11184890000001,-17.4538091],[-66.11181830000001,-17.4533549],[-66.11179680000001,-17.4528494],[-66.1117751,-17.452402600000003],[-66.1117708,-17.452157000000003],[-66.11193060000001,-17.4521513],[-66.11193370000001,-17.4522212],[-66.11235930000001,-17.452211000000002],[-66.113752,-17.452173100000003],[-66.1137422,-17.451882700000002],[-66.113741,-17.451823800000003],[-66.1137382,-17.451676600000003],[-66.1137339,-17.4515904],[-66.113732,-17.451552200000002],[-66.11372,-17.4513101],[-66.113713,-17.45117],[-66.1137056,-17.450885000000003],[-66.11369140000001,-17.450730500000002],[-66.1141482,-17.4506948],[-66.11428810000001,-17.4506939],[-66.11488270000001,-17.450787400000003],[-66.1151184,-17.450838],[-66.11520130000001,-17.450634800000003],[-66.1154649,-17.450656600000002],[-66.1156028,-17.4506364],[-66.1164746,-17.4506839],[-66.11654970000001,-17.4506969],[-66.1166579,-17.4504513],[-66.1168696,-17.44998],[-66.1170256,-17.4496569],[-66.1168547,-17.449445100000002],[-66.1168016,-17.449369],[-66.1167779,-17.448928600000002],[-66.1167415,-17.4476841],[-66.1167394,-17.447611000000002],[-66.11673250000001,-17.4474923],[-66.11671390000001,-17.4471706],[-66.1166903,-17.4464048],[-66.1166778,-17.4462155],[-66.11666740000001,-17.446057900000003],[-66.11665430000001,-17.4458592],[-66.11664830000001,-17.4457679],[-66.1166331,-17.445501],[-66.1166195,-17.445223600000002],[-66.1166048,-17.444670700000003],[-66.1165718,-17.4439332],[-66.1165624,-17.4437228],[-66.11655060000001,-17.443427800000002],[-66.1165206,-17.442693700000003],[-66.1164976,-17.4421667],[-66.1164736,-17.4415602],[-66.11647190000001,-17.441515600000002],[-66.1164641,-17.4412965],[-66.1164383,-17.4407846],[-66.1164025,-17.440155100000002],[-66.1163944,-17.4399681],[-66.1165539,-17.439964800000002],[-66.11831000000001,-17.439888600000003],[-66.118319,-17.4398236],[-66.11832770000001,-17.439337100000003],[-66.1183323,-17.4388468],[-66.1184063,-17.4381075],[-66.1184302,-17.437633700000003],[-66.1184164,-17.436989200000003],[-66.1188939,-17.436971900000003],[-66.1194517,-17.4369532],[-66.11961810000001,-17.4369492],[-66.11975240000001,-17.4369365],[-66.11987540000001,-17.4369453],[-66.12104620000001,-17.4371301],[-66.12205030000001,-17.437287400000002],[-66.12308440000001,-17.4374483],[-66.1241145,-17.437625200000003],[-66.1245056,-17.437665900000002],[-66.1246809,-17.437670200000003],[-66.1249033,-17.43765],[-66.1252786,-17.4375983],[-66.125442,-17.4375657],[-66.125544,-17.4375365],[-66.125354,-17.436575],[-66.12531580000001,-17.4363743],[-66.12528,-17.436276900000003],[-66.12523800000001,-17.436163],[-66.1251714,-17.435986900000003],[-66.1251376,-17.4358614],[-66.12512690000001,-17.4357341],[-66.12514390000001,-17.4355517],[-66.1251654,-17.4354243],[-66.1252055,-17.435304600000002],[-66.12527100000001,-17.435183600000002],[-66.12568370000001,-17.434584700000002],[-66.1259222,-17.4342042],[-66.1265453,-17.433226100000002],[-66.1266258,-17.433099600000002],[-66.1267698,-17.4328742],[-66.1272416,-17.4320017],[-66.12751820000001,-17.431459800000003],[-66.1277733,-17.430971000000003],[-66.1279727,-17.4305784],[-66.12841350000001,-17.4297621],[-66.1285675,-17.4294954],[-66.12869500000001,-17.429295],[-66.1288018,-17.429144],[-66.12887280000001,-17.4290461],[-66.12902890000001,-17.428848900000002],[-66.1303195,-17.427304300000003],[-66.1305469,-17.427046400000002],[-66.1306835,-17.4269116],[-66.1312527,-17.426440200000002],[-66.1325741,-17.4253062],[-66.13427460000001,-17.4238758],[-66.1343645,-17.4237992],[-66.13445010000001,-17.423719900000002],[-66.1344629,-17.423640300000002],[-66.1345886,-17.423646100000003],[-66.1346439,-17.4236487],[-66.1354118,-17.423683800000003],[-66.13679420000001,-17.422266200000003],[-66.13801950000001,-17.420991100000002],[-66.13871750000001,-17.420301400000003],[-66.1392069,-17.4197886],[-66.1392703,-17.4197221],[-66.13936000000001,-17.4196315],[-66.1394624,-17.4195755],[-66.1394879,-17.419541300000002],[-66.1395725,-17.4193959],[-66.13963310000001,-17.419311],[-66.1396873,-17.4192305],[-66.1397403,-17.4191353],[-66.13979880000001,-17.418986],[-66.13983280000001,-17.4188823],[-66.14016480000001,-17.4178612],[-66.1404933,-17.4168866],[-66.1405244,-17.416806700000002],[-66.1405833,-17.416682700000003],[-66.1407573,-17.4163719],[-66.14094800000001,-17.4160763],[-66.1409708,-17.4160292],[-66.1409715,-17.4159384],[-66.1410963,-17.4158614],[-66.1411571,-17.4158204],[-66.14120940000001,-17.415777400000003],[-66.1413184,-17.415687600000002],[-66.1414637,-17.415557600000003],[-66.14162110000001,-17.415388],[-66.14181620000001,-17.415161],[-66.14196510000001,-17.4149342],[-66.14213240000001,-17.4146275],[-66.1422319,-17.4143516],[-66.14230110000001,-17.4141008],[-66.14235470000001,-17.413792800000003],[-66.1423669,-17.4136852],[-66.14238320000001,-17.4133356],[-66.142442,-17.4122956],[-66.1424875,-17.410792200000003],[-66.1425014,-17.4105589],[-66.1425131,-17.410420900000002],[-66.14252160000001,-17.4103269],[-66.14255560000001,-17.410092300000002],[-66.1426088,-17.409822000000002],[-66.1426969,-17.409533800000002],[-66.14280380000001,-17.4092482],[-66.14295340000001,-17.4089245],[-66.14313290000001,-17.408614800000002],[-66.14327440000001,-17.4084112],[-66.1436255,-17.407940800000002],[-66.1441016,-17.4073278],[-66.1446442,-17.4066392],[-66.1447121,-17.4065501],[-66.14485280000001,-17.4063549],[-66.14487150000001,-17.406329000000003],[-66.1449015,-17.4062875],[-66.14496310000001,-17.4061868],[-66.14501080000001,-17.406109],[-66.14529300000001,-17.4055715],[-66.14542180000001,-17.4053073],[-66.1454853,-17.405170000000002],[-66.14557470000001,-17.405032700000003],[-66.14565250000001,-17.4048461],[-66.1457908,-17.4045641],[-66.14591150000001,-17.404335800000002],[-66.1460246,-17.4041685],[-66.14625690000001,-17.403881300000002],[-66.14656020000001,-17.4035453],[-66.14673540000001,-17.4033443],[-66.1468116,-17.403175200000003],[-66.1468785,-17.403069700000003],[-66.14692380000001,-17.4029986],[-66.1469869,-17.4028497],[-66.14703700000001,-17.402718500000002],[-66.14706240000001,-17.402651900000002],[-66.1470936,-17.4025344],[-66.147125,-17.4023666],[-66.1471298,-17.4021304],[-66.147153,-17.4020486],[-66.14717180000001,-17.402008000000002],[-66.1471961,-17.401979100000002],[-66.1472339,-17.4019505],[-66.1472995,-17.401910700000002],[-66.1473653,-17.4018908],[-66.14741570000001,-17.4019018],[-66.14750570000001,-17.4018777],[-66.14756410000001,-17.401858],[-66.14763330000001,-17.4018178],[-66.1476868,-17.401763900000002],[-66.1477981,-17.401607100000003],[-66.1478917,-17.401321000000003],[-66.1479899,-17.400962500000002],[-66.14800340000001,-17.400894800000003],[-66.1480179,-17.4008307],[-66.1481961,-17.399952300000002],[-66.14821160000001,-17.399872900000002],[-66.14829800000001,-17.3998478],[-66.14883130000001,-17.3998543],[-66.14933400000001,-17.399860500000003],[-66.14984940000001,-17.3998668],[-66.15002220000001,-17.3998728],[-66.15013950000001,-17.399879600000002],[-66.15025750000001,-17.399903000000002],[-66.15035920000001,-17.3999303],[-66.15048010000001,-17.399971100000002],[-66.15061080000001,-17.400034100000003],[-66.15074340000001,-17.400121900000002],[-66.15086930000001,-17.4002252],[-66.15089730000001,-17.400136600000003],[-66.1509151,-17.399965],[-66.1509855,-17.3992846],[-66.1510846,-17.398539600000003],[-66.1510902,-17.398456600000003],[-66.15115630000001,-17.397774700000003],[-66.1513099,-17.396614800000002],[-66.15150530000001,-17.395542600000002],[-66.1515705,-17.395216400000002],[-66.15171020000001,-17.394513800000002],[-66.1519057,-17.3934654],[-66.152094,-17.3924306],[-66.15227150000001,-17.391539],[-66.15228610000001,-17.3914711],[-66.1523052,-17.391382],[-66.15238160000001,-17.3913942],[-66.1533232,-17.3915757],[-66.1533744,-17.3915849],[-66.15342190000001,-17.3915933],[-66.1540423,-17.3917031],[-66.1544525,-17.3917758],[-66.1545177,-17.3917873],[-66.1545971,-17.3918012],[-66.1550581,-17.3918822],[-66.155297,-17.391924200000002],[-66.15553580000001,-17.3919661],[-66.1556012,-17.3919776],[-66.15566120000001,-17.3919889],[-66.1566289,-17.3921703],[-66.15667280000001,-17.3921785],[-66.156727,-17.392187500000002],[-66.1573168,-17.3922886],[-66.1577055,-17.3923552],[-66.157753,-17.3923634],[-66.1577984,-17.3923713],[-66.15796230000001,-17.392399700000002],[-66.1585898,-17.3925084],[-66.1587059,-17.3925285],[-66.1587863,-17.3925424],[-66.158879,-17.3925589],[-66.1589397,-17.3925698],[-66.1598762,-17.3927236],[-66.1599202,-17.3927307],[-66.1599716,-17.3927397],[-66.1610041,-17.392913500000002],[-66.1610608,-17.3929264],[-66.1611287,-17.392944],[-66.1613786,-17.392987700000003],[-66.1615323,-17.393014500000003],[-66.1619926,-17.393095000000002],[-66.1620628,-17.3931073],[-66.1621604,-17.393123600000003],[-66.16279990000001,-17.3932302],[-66.16387610000001,-17.393409600000002],[-66.16392780000001,-17.393418200000003],[-66.16399150000001,-17.393430000000002],[-66.16492090000001,-17.3936022],[-66.1659169,-17.393779300000002],[-66.1661485,-17.39382],[-66.1661971,-17.3938251],[-66.1664389,-17.3938288],[-66.16661040000001,-17.3938412],[-66.1667802,-17.393886700000003],[-66.16693740000001,-17.3939373],[-66.1673519,-17.3939756],[-66.16737610000001,-17.393974200000002],[-66.167449,-17.393973900000002],[-66.1675661,-17.393955400000003],[-66.1677971,-17.393916100000002],[-66.16782760000001,-17.3939109],[-66.16786,-17.3939053],[-66.16799400000001,-17.3938847],[-66.1680638,-17.393877900000003],[-66.1683952,-17.393863900000003],[-66.16860340000001,-17.3938542],[-66.1686861,-17.3938503],[-66.1687744,-17.393846200000002],[-66.169044,-17.3938336],[-66.169397,-17.3937798],[-66.17022320000001,-17.3937475],[-66.17046400000001,-17.393742800000002],[-66.17053440000001,-17.393741400000003],[-66.17057030000001,-17.3937406],[-66.1706025,-17.3937291],[-66.17062680000001,-17.3937242],[-66.1706515,-17.3937223],[-66.1706764,-17.3937233],[-66.1707008,-17.3937272],[-66.1707334,-17.393737400000003],[-66.170806,-17.393716700000002],[-66.170822,-17.3937126],[-66.17085700000001,-17.393704500000002],[-66.1709593,-17.393689400000003],[-66.1723743,-17.3936297],[-66.173901,-17.3935555],[-66.17390370000001,-17.393598400000002],[-66.17391160000001,-17.393719800000003],[-66.17435850000001,-17.3937004],[-66.17445380000001,-17.3936962],[-66.17631180000001,-17.393615500000003],[-66.17640320000001,-17.393611500000002],[-66.17645250000001,-17.393609400000003],[-66.17657580000001,-17.393604],[-66.17680170000001,-17.3935944],[-66.1775114,-17.393564400000002],[-66.17858620000001,-17.3935123],[-66.17997820000001,-17.3934515],[-66.18095240000001,-17.3934044],[-66.1825074,-17.393342200000003],[-66.1841002,-17.393278300000002],[-66.1844521,-17.3932597],[-66.1864116,-17.3931714],[-66.18663930000001,-17.3931593],[-66.18663360000001,-17.393049],[-66.18663140000001,-17.3930051],[-66.18709150000001,-17.3929845],[-66.1874037,-17.3929706],[-66.1874083,-17.392922700000003],[-66.18717550000001,-17.392300000000002],[-66.1867127,-17.390995800000002],[-66.18741580000001,-17.3909066],[-66.1881415,-17.3908284],[-66.18886420000001,-17.3907311],[-66.18847410000001,-17.389605800000002],[-66.18832830000001,-17.3891712],[-66.1880646,-17.388421],[-66.188046,-17.3883502],[-66.18783830000001,-17.3877442],[-66.1877829,-17.387582700000003],[-66.18766550000001,-17.387240300000002],[-66.18764230000001,-17.387172600000003],[-66.1875954,-17.387035800000003],[-66.1875036,-17.386768],[-66.1874707,-17.3866711],[-66.1873336,-17.386278100000002],[-66.1873331,-17.386200600000002],[-66.1873422,-17.3861446],[-66.1872982,-17.386137700000003],[-66.1872707,-17.3861342],[-66.1868642,-17.386084200000003],[-66.18672450000001,-17.3860759],[-66.1865707,-17.386078],[-66.1864336,-17.386085100000003],[-66.1858967,-17.3861217],[-66.18573830000001,-17.3861372],[-66.18548340000001,-17.38616],[-66.18569570000001,-17.3859059],[-66.18576130000001,-17.385812700000002],[-66.1857811,-17.385782900000002],[-66.1857909,-17.385749],[-66.18579070000001,-17.385696600000003],[-66.18570720000001,-17.3853648],[-66.1856496,-17.385095500000002],[-66.18562800000001,-17.384949900000002],[-66.1856161,-17.384768],[-66.18562010000001,-17.3845949],[-66.1856254,-17.384515500000003],[-66.1856326,-17.384436200000003],[-66.1856779,-17.3842195],[-66.1857554,-17.3838587],[-66.18583860000001,-17.3834382],[-66.1859225,-17.3830139],[-66.18593460000001,-17.3829171],[-66.1859378,-17.382891200000003],[-66.18594110000001,-17.382817000000003],[-66.18594250000001,-17.382740000000002],[-66.1859476,-17.382692000000002],[-66.18596980000001,-17.3826448],[-66.18601840000001,-17.3826304],[-66.1860638,-17.3826241],[-66.1861549,-17.3826217],[-66.18622850000001,-17.3826217],[-66.1862883,-17.382621800000003],[-66.1863156,-17.382621200000003],[-66.1863505,-17.3826204],[-66.1874729,-17.3825845],[-66.187516,-17.3825812],[-66.1889998,-17.3825305],[-66.18907890000001,-17.3825286],[-66.1895624,-17.3825168],[-66.1898108,-17.382508],[-66.1899851,-17.382491100000003],[-66.1902336,-17.3824527],[-66.190909,-17.382299800000002],[-66.1909511,-17.3822903],[-66.19191550000001,-17.3820763],[-66.1919562,-17.382069700000002],[-66.19278170000001,-17.3820048],[-66.1932123,-17.381970900000002],[-66.1932697,-17.381965800000003],[-66.1938317,-17.3819158],[-66.19411670000001,-17.3818956],[-66.19416650000001,-17.381887600000002],[-66.1942319,-17.381865400000002],[-66.19429570000001,-17.3818342],[-66.19433500000001,-17.3818126],[-66.1944472,-17.3817507],[-66.19451190000001,-17.381715500000002],[-66.19468300000001,-17.381668100000002],[-66.19481180000001,-17.381648900000002],[-66.19512230000001,-17.381627100000003],[-66.1951531,-17.381625600000003],[-66.1954345,-17.381607300000002],[-66.1961138,-17.3815704],[-66.19612740000001,-17.381557400000002],[-66.1961448,-17.381546200000003],[-66.19616420000001,-17.3815387],[-66.19618480000001,-17.3815351],[-66.19620570000001,-17.381535600000003],[-66.1962261,-17.381540100000002],[-66.1962451,-17.3815484],[-66.1962731,-17.3815673],[-66.1963367,-17.381561],[-66.19686420000001,-17.3814998],[-66.1981805,-17.3813464],[-66.1988809,-17.381267400000002],[-66.1989935,-17.3812572],[-66.199511,-17.3811952],[-66.199566,-17.3811889],[-66.1999416,-17.381145500000002],[-66.20029720000001,-17.381100200000002],[-66.20068660000001,-17.3810585],[-66.20077060000001,-17.381049500000003],[-66.20112540000001,-17.3810106],[-66.2018522,-17.3809304],[-66.2020181,-17.3809286],[-66.20216640000001,-17.380964900000002],[-66.2022836,-17.381011700000002],[-66.20242110000001,-17.381065900000003],[-66.20255390000001,-17.3811201],[-66.20303650000001,-17.381394],[-66.20422380000001,-17.3820678],[-66.20515250000001,-17.382556100000002],[-66.2051943,-17.3820151],[-66.2050129,-17.381844100000002],[-66.20499570000001,-17.3817732],[-66.20494790000001,-17.3812439],[-66.2048695,-17.380060200000003],[-66.2048046,-17.3800442],[-66.20443940000001,-17.380099700000002],[-66.20429750000001,-17.3801293],[-66.2041483,-17.380144400000002],[-66.20415750000001,-17.379318700000002],[-66.204188,-17.3792443],[-66.2042473,-17.3792128],[-66.2047218,-17.3791733],[-66.2047727,-17.379138],[-66.20478270000001,-17.3790735],[-66.2047792,-17.3790261],[-66.20473940000001,-17.378488],[-66.2048357,-17.3784768],[-66.2052336,-17.3784527],[-66.20570260000001,-17.378419500000003]],"nodes":[7808802846,2677330221,3016850497,3016850501,3016850491,2677330196,3481745420,2677330192,2677330186,1600628555,2677330170,1600628560,2677330160,2677330152,2677330136,3016850480,2677330111,2677330096,10839040288,10839040289,13483071890,2677221190,1600628583,1600628578,11365338031,2677221186,1600628545,11365338032,2677221174,2677221169,2677221151,1600628539,2677221146,2677221147,9951549031,3477117934,2677221139,11365337993,2677221140,2677221145,1600641452,2677221135,1600641416,1600515986,1600515978,3423729914,1600636789,12647036056,1600641440,12647036058,1600636772,3017320710,1600636790,3423729571,8158702167,2677221061,1600599839,3423728891,1706129768,8158702152,1600599749,2677221016,2677220999,1600641449,12290979271,1600641417,1600641453,1600623776,1600623821,5019083434,1600623810,1600623772,3416910965,3017320704,1600623785,1600599483,1600599485,1600599827,1600599515,1600599642,2032749242,9368724319,3365328376,1637667957,2032749278,2677410584,2677410587,1637667971,1637667970,1637667968,3365328396,3365328395,1637667960,2677410575,3338058974,11078931157,9368724322,9368724335,1600457509,3338058969,3338058965,1600457650,3338058961,3338058959,1600457579,9015445645,11406647629,3338058954,2032749236,2675803604,2675803578,2675803565,2675803550,1600457607,3338058945,3338058943,1600457610,3017359161,2266514671,1600457545,3338058935,2043659189,2675803286,2043659157,9342320219,3337374369,13755642393,13755642392,13755657001,13755642400,2043658753,2266514654,1610526987,3337319129,10258291963,1610527049,13203351491,2674329297,8729961977,13203351492,8729962051,1600457620,3337267629,3337267628,2674329264,2674329124,1600457617,8729961915,1600457538,2674328974,2674328932,11106108070,8729961891,8729961976,12777576106,12777576103,8741049845,653082758,11106108067,653082755,653082752,3328854766,653082749,653082747,3337266445,3328854762,9052272501,9052272502,9052272505,9052275602,9052272544,9052272475,9052275597,9052272471,9052272470,9052272469,9052272468,9052272467,9052272466,9052272465,9052272463,9052272462,2031079586,12777576110,12508280792,9052272487,12508280784,5434000150,12777576107,2031079518,2031079513,12777576108,2031079515,5227462564,3325466473,2674328752,843385352,324015376,8192377531,12777576115,8192368910,324015373,324015371,8192377560,324015370,598789673,324015368,5227527455,324015367,2031079468,8192368877,2031079460,2031079448,10830662561,8192368884,10677741931,2031079440,2031079436,2031079434,4941281629,8192368866,8542732655,308297682,8192368864,8542732656,308297683,11072042765,12313136886,12313136883,323985741,8089836059,3322574432,8089836057,2236815474,323985099,3322574439,323985098,3322574447,2768898988,8089836061,311358095,648548806,1727306395,310501007,310500994,310500614,8398256514,310281534,303217865,310256285,2289661585,698492406,303218726,2289661575,2289661586,303218727,2289661587,2377781522,2292218207,303218728,2292218208,9567473057,10884624348,4503778522,303218729,2292218216,2295541574,303218730,2295541575,8609183214,2295541589,308297343,2295541594,11043280710,9704099835,2295541614,308297344,648546083,2295541617,2694171662,308297345,2694171663,2694171668,308297346,2694171669,9155792279,9155792272,8565985149,308297347,10879431901,10792253179,13131123327,308297348,10792253185,308297349,308297350,9515033287,315114806,315936458,315936460,2330755896,315936461,11079352070,7353579718,2420519732,4732874465,9081829378,497205202,8320364713,12088438232,2420519599,563279534,9081461994,6952929961,12678181847,563279527,13280092695,13303071583,13416534074,13436362626,13416534039,13416534069,13416534040,13416534057,13416534034,13416534070,13303071587,13416534075,13416534076,13436362650,11081593218,563279519,563279515,2527263173,2527263184,2527263182,9081435138,13438103968,13438065396,563279499,2339557951,9081523771,2354386743,560522668,563279456,689437115,4398499281,6326490902,4398318267,4398499272,2635402927,2635402905,560522372,11081258248,560522368,12723607293,560522376,560522529,560522464,560522463,560522462,560522467,2265578508,2265578504,560522489,560522497,8060490685,8060490686,560522521,8060490691,560522517,560522523,7956609155,10675462340,7956609158,7956609160,560522511,2265578451,2265578443,5869436081,560522629,5869436892,3040552982,560522633,7956617358,698492101,10675446284,2265578395,2265578393,9018989703,698492103,3040552984,698492099,3265599866,10675462371,3265599865,698492121,698492132,8997922814,9018656440,9630553877,698492129,9018656463,560437485,5353045235,2544300021,5353045238,9018656460,9018656468,7143106015,9018989661,9630553879,5353043987,689437100,4984179010,560437471,9019031949,3265654668,9019031950,560437470,689437094,9019031972,689437099,682374719,4984179008,4984179006,682384958,9019032005,4984179004,9019031994,2137733237,2744376497,560437463,9019032029,560437462,9019031993,2744376494,560437461,2744376480,4984179002,2744376491,7996545488,7996545492,9343473310,9343473306,7996508774,9343473307,9343473312,9343473313,7996508775,7996545498,4984179018,9155641195,2744376483,2744376477,8130720865,11261784012,2147373629,4173325848,10900974953,3017419868,560437448,560437450,560437446,3259850416,3259850417,3017419863,4939137074,10229506822,560437428,560437423,560437422,3641790473,3017419853,10229506817,3017419854,3017419855,3017419856,10229506824,3017419857,10900974920,3017419858,10830712252,3017419859,10830712251,3017419860,10900974921,3017419861,5390500468,10229482416,8502572574]},"gtfs":{"agency_id":10,"route_id":86,"services":[{"service_id":"Mo-Su","startTime":"06:00","endTime":"22:00","trip_id":10807446}],"filteredStops":{"nodes":[7808802846,2677330221,3016850497,3016850501,3016850491,2677330196,3481745420,2677330192,2677330186,1600628555,2677330170,1600628560,2677330160,2677330152,2677330136,3016850480,2677330111,2677330096,10839040288,10839040289,13483071890,2677221190,1600628583,1600628578,11365338031,2677221186,1600628545,11365338032,2677221174,2677221169,2677221151,1600628539,2677221146,2677221147,9951549031,3477117934,2677221139,11365337993,2677221140,2677221145,1600641452,2677221135,1600641416,1600515986,1600515978,3423729914,1600636789,12647036056,1600641440,12647036058,1600636772,3017320710,1600636790,3423729571,8158702167,2677221061,1600599839,3423728891,1706129768,8158702152,1600599749,2677221016,2677220999,1600641449,12290979271,1600641417,1600641453,1600623776,1600623821,5019083434,1600623810,1600623772,3416910965,3017320704,1600623785,1600599483,1600599485,1600599827,1600599515,1600599642,2032749242,9368724319,3365328376,1637667957,2032749278,2677410584,2677410587,1637667971,1637667970,1637667968,3365328396,3365328395,1637667960,2677410575,3338058974,11078931157,9368724322,9368724335,1600457509,3338058969,3338058965,1600457650,3338058961,3338058959,1600457579,9015445645,11406647629,3338058954,2032749236,2675803604,2675803578,2675803565,2675803550,1600457607,3338058945,3338058943,1600457610,3017359161,2266514671,1600457545,3338058935,2043659189,2675803286,2043659157,9342320219,3337374369,13755642393,13755642392,13755657001,13755642400,2043658753,2266514654,1610526987,3337319129,10258291963,1610527049,13203351491,2674329297,8729961977,13203351492,8729962051,1600457620,3337267629,3337267628,2674329264,2674329124,1600457617,8729961915,1600457538,2674328974,2674328932,11106108070,8729961891,8729961976,12777576106,12777576103,8741049845,653082758,11106108067,653082755,653082752,3328854766,653082749,653082747,3337266445,3328854762,9052272501,9052272502,9052272505,9052275602,9052272544,9052272475,9052275597,9052272471,9052272470,9052272469,9052272468,9052272467,9052272466,9052272465,9052272463,9052272462,2031079586,12777576110,12508280792,9052272487,12508280784,5434000150,12777576107,2031079518,2031079513,12777576108,2031079515,5227462564,3325466473,2674328752,843385352,324015376,8192377531,12777576115,8192368910,324015373,324015371,8192377560,324015370,598789673,324015368,5227527455,324015367,2031079468,8192368877,2031079460,2031079448,10830662561,8192368884,10677741931,2031079440,2031079436,2031079434,4941281629,8192368866,8542732655,308297682,8192368864,8542732656,308297683,11072042765,12313136886,12313136883,323985741,8089836059,3322574432,8089836057,2236815474,323985099,3322574439,323985098,3322574447,2768898988,8089836061,311358095,648548806,1727306395,310501007,310500994,310500614,8398256514,310281534,303217865,310256285,2289661585,698492406,303218726,2289661575,2289661586,303218727,2289661587,2377781522,2292218207,303218728,2292218208,9567473057,10884624348,4503778522,303218729,2292218216,2295541574,303218730,2295541575,8609183214,2295541589,308297343,2295541594,11043280710,9704099835,2295541614,308297344,648546083,2295541617,2694171662,308297345,2694171663,2694171668,308297346,2694171669,9155792279,9155792272,8565985149,308297347,10879431901,10792253179,13131123327,308297348,10792253185,308297349,308297350,9515033287,315114806,315936458,315936460,2330755896,315936461,11079352070,7353579718,2420519732,4732874465,9081829378,497205202,8320364713,12088438232,2420519599,563279534,9081461994,6952929961,12678181847,563279527,13280092695,13303071583,13416534074,13436362626,13416534039,13416534069,13416534040,13416534057,13416534034,13416534070,13303071587,13416534075,13416534076,13436362650,11081593218,563279519,563279515,2527263173,2527263184,2527263182,9081435138,13438103968,13438065396,563279499,2339557951,9081523771,2354386743,560522668,563279456,689437115,4398499281,6326490902,4398318267,4398499272,2635402927,2635402905,560522372,11081258248,560522368,12723607293,560522376,560522529,560522464,560522463,560522462,560522467,2265578508,2265578504,560522489,560522497,8060490685,8060490686,560522521,8060490691,560522517,560522523,7956609155,10675462340,7956609158,7956609160,560522511,2265578451,2265578443,5869436081,560522629,5869436892,3040552982,560522633,7956617358,698492101,10675446284,2265578395,2265578393,9018989703,698492103,3040552984,698492099,3265599866,10675462371,3265599865,698492121,698492132,8997922814,9018656440,9630553877,698492129,9018656463,560437485,5353045235,2544300021,5353045238,9018656460,9018656468,7143106015,9018989661,9630553879,5353043987,689437100,4984179010,560437471,9019031949,3265654668,9019031950,560437470,689437094,9019031972,689437099,682374719,4984179008,4984179006,682384958,9019032005,4984179004,9019031994,2137733237,2744376497,560437463,9019032029,560437462,9019031993,2744376494,560437461,2744376480,4984179002,2744376491,7996545488,7996545492,9343473310,9343473306,7996508774,9343473307,9343473312,9343473313,7996508775,7996545498,4984179018,9155641195,2744376483,2744376477,8130720865,11261784012,2147373629,4173325848,10900974953,3017419868,560437448,560437450,560437446,3259850416,3259850417,3017419863,4939137074,10229506822,560437428,560437423,560437422,3641790473,3017419853,10229506817,3017419854,3017419855,3017419856,10229506824,3017419857,10900974920,3017419858,10830712252,3017419859,10830712251,3017419860,10900974921,3017419861,5390500468,10229482416,8502572574],"coordinates":[[-66.11263140000001,-17.458946500000003],[-66.1122366,-17.4584738],[-66.11205960000001,-17.458251100000002],[-66.1120331,-17.457320300000003],[-66.11199280000001,-17.456680900000002],[-66.1119554,-17.456337],[-66.1119522,-17.456227300000002],[-66.11194920000001,-17.4561536],[-66.11193150000001,-17.4557165],[-66.111924,-17.4555316],[-66.1119111,-17.4552142],[-66.1119072,-17.4551182],[-66.1118886,-17.4546622],[-66.1118696,-17.454194100000002],[-66.11184890000001,-17.4538091],[-66.11181830000001,-17.4533549],[-66.11179680000001,-17.4528494],[-66.1117751,-17.452402600000003],[-66.1117708,-17.452157000000003],[-66.11193060000001,-17.4521513],[-66.11193370000001,-17.4522212],[-66.11235930000001,-17.452211000000002],[-66.113752,-17.452173100000003],[-66.1137422,-17.451882700000002],[-66.113741,-17.451823800000003],[-66.1137382,-17.451676600000003],[-66.1137339,-17.4515904],[-66.113732,-17.451552200000002],[-66.11372,-17.4513101],[-66.113713,-17.45117],[-66.1137056,-17.450885000000003],[-66.11369140000001,-17.450730500000002],[-66.1141482,-17.4506948],[-66.11428810000001,-17.4506939],[-66.11488270000001,-17.450787400000003],[-66.1151184,-17.450838],[-66.11520130000001,-17.450634800000003],[-66.1154649,-17.450656600000002],[-66.1156028,-17.4506364],[-66.1164746,-17.4506839],[-66.11654970000001,-17.4506969],[-66.1166579,-17.4504513],[-66.1168696,-17.44998],[-66.1170256,-17.4496569],[-66.1168547,-17.449445100000002],[-66.1168016,-17.449369],[-66.1167779,-17.448928600000002],[-66.1167415,-17.4476841],[-66.1167394,-17.447611000000002],[-66.11673250000001,-17.4474923],[-66.11671390000001,-17.4471706],[-66.1166903,-17.4464048],[-66.1166778,-17.4462155],[-66.11666740000001,-17.446057900000003],[-66.11665430000001,-17.4458592],[-66.11664830000001,-17.4457679],[-66.1166331,-17.445501],[-66.1166195,-17.445223600000002],[-66.1166048,-17.444670700000003],[-66.1165718,-17.4439332],[-66.1165624,-17.4437228],[-66.11655060000001,-17.443427800000002],[-66.1165206,-17.442693700000003],[-66.1164976,-17.4421667],[-66.1164736,-17.4415602],[-66.11647190000001,-17.441515600000002],[-66.1164641,-17.4412965],[-66.1164383,-17.4407846],[-66.1164025,-17.440155100000002],[-66.1163944,-17.4399681],[-66.1165539,-17.439964800000002],[-66.11831000000001,-17.439888600000003],[-66.118319,-17.4398236],[-66.11832770000001,-17.439337100000003],[-66.1183323,-17.4388468],[-66.1184063,-17.4381075],[-66.1184302,-17.437633700000003],[-66.1184164,-17.436989200000003],[-66.1188939,-17.436971900000003],[-66.1194517,-17.4369532],[-66.11961810000001,-17.4369492],[-66.11975240000001,-17.4369365],[-66.11987540000001,-17.4369453],[-66.12104620000001,-17.4371301],[-66.12205030000001,-17.437287400000002],[-66.12308440000001,-17.4374483],[-66.1241145,-17.437625200000003],[-66.1245056,-17.437665900000002],[-66.1246809,-17.437670200000003],[-66.1249033,-17.43765],[-66.1252786,-17.4375983],[-66.125442,-17.4375657],[-66.125544,-17.4375365],[-66.125354,-17.436575],[-66.12531580000001,-17.4363743],[-66.12528,-17.436276900000003],[-66.12523800000001,-17.436163],[-66.1251714,-17.435986900000003],[-66.1251376,-17.4358614],[-66.12512690000001,-17.4357341],[-66.12514390000001,-17.4355517],[-66.1251654,-17.4354243],[-66.1252055,-17.435304600000002],[-66.12527100000001,-17.435183600000002],[-66.12568370000001,-17.434584700000002],[-66.1259222,-17.4342042],[-66.1265453,-17.433226100000002],[-66.1266258,-17.433099600000002],[-66.1267698,-17.4328742],[-66.1272416,-17.4320017],[-66.12751820000001,-17.431459800000003],[-66.1277733,-17.430971000000003],[-66.1279727,-17.4305784],[-66.12841350000001,-17.4297621],[-66.1285675,-17.4294954],[-66.12869500000001,-17.429295],[-66.1288018,-17.429144],[-66.12887280000001,-17.4290461],[-66.12902890000001,-17.428848900000002],[-66.1303195,-17.427304300000003],[-66.1305469,-17.427046400000002],[-66.1306835,-17.4269116],[-66.1312527,-17.426440200000002],[-66.1325741,-17.4253062],[-66.13427460000001,-17.4238758],[-66.1343645,-17.4237992],[-66.13445010000001,-17.423719900000002],[-66.1344629,-17.423640300000002],[-66.1345886,-17.423646100000003],[-66.1346439,-17.4236487],[-66.1354118,-17.423683800000003],[-66.13679420000001,-17.422266200000003],[-66.13801950000001,-17.420991100000002],[-66.13871750000001,-17.420301400000003],[-66.1392069,-17.4197886],[-66.1392703,-17.4197221],[-66.13936000000001,-17.4196315],[-66.1394624,-17.4195755],[-66.1394879,-17.419541300000002],[-66.1395725,-17.4193959],[-66.13963310000001,-17.419311],[-66.1396873,-17.4192305],[-66.1397403,-17.4191353],[-66.13979880000001,-17.418986],[-66.13983280000001,-17.4188823],[-66.14016480000001,-17.4178612],[-66.1404933,-17.4168866],[-66.1405244,-17.416806700000002],[-66.1405833,-17.416682700000003],[-66.1407573,-17.4163719],[-66.14094800000001,-17.4160763],[-66.1409708,-17.4160292],[-66.1409715,-17.4159384],[-66.1410963,-17.4158614],[-66.1411571,-17.4158204],[-66.14120940000001,-17.415777400000003],[-66.1413184,-17.415687600000002],[-66.1414637,-17.415557600000003],[-66.14162110000001,-17.415388],[-66.14181620000001,-17.415161],[-66.14196510000001,-17.4149342],[-66.14213240000001,-17.4146275],[-66.1422319,-17.4143516],[-66.14230110000001,-17.4141008],[-66.14235470000001,-17.413792800000003],[-66.1423669,-17.4136852],[-66.14238320000001,-17.4133356],[-66.142442,-17.4122956],[-66.1424875,-17.410792200000003],[-66.1425014,-17.4105589],[-66.1425131,-17.410420900000002],[-66.14252160000001,-17.4103269],[-66.14255560000001,-17.410092300000002],[-66.1426088,-17.409822000000002],[-66.1426969,-17.409533800000002],[-66.14280380000001,-17.4092482],[-66.14295340000001,-17.4089245],[-66.14313290000001,-17.408614800000002],[-66.14327440000001,-17.4084112],[-66.1436255,-17.407940800000002],[-66.1441016,-17.4073278],[-66.1446442,-17.4066392],[-66.1447121,-17.4065501],[-66.14485280000001,-17.4063549],[-66.14487150000001,-17.406329000000003],[-66.1449015,-17.4062875],[-66.14496310000001,-17.4061868],[-66.14501080000001,-17.406109],[-66.14529300000001,-17.4055715],[-66.14542180000001,-17.4053073],[-66.1454853,-17.405170000000002],[-66.14557470000001,-17.405032700000003],[-66.14565250000001,-17.4048461],[-66.1457908,-17.4045641],[-66.14591150000001,-17.404335800000002],[-66.1460246,-17.4041685],[-66.14625690000001,-17.403881300000002],[-66.14656020000001,-17.4035453],[-66.14673540000001,-17.4033443],[-66.1468116,-17.403175200000003],[-66.1468785,-17.403069700000003],[-66.14692380000001,-17.4029986],[-66.1469869,-17.4028497],[-66.14703700000001,-17.402718500000002],[-66.14706240000001,-17.402651900000002],[-66.1470936,-17.4025344],[-66.147125,-17.4023666],[-66.1471298,-17.4021304],[-66.147153,-17.4020486],[-66.14717180000001,-17.402008000000002],[-66.1471961,-17.401979100000002],[-66.1472339,-17.4019505],[-66.1472995,-17.401910700000002],[-66.1473653,-17.4018908],[-66.14741570000001,-17.4019018],[-66.14750570000001,-17.4018777],[-66.14756410000001,-17.401858],[-66.14763330000001,-17.4018178],[-66.1476868,-17.401763900000002],[-66.1477981,-17.401607100000003],[-66.1478917,-17.401321000000003],[-66.1479899,-17.400962500000002],[-66.14800340000001,-17.400894800000003],[-66.1480179,-17.4008307],[-66.1481961,-17.399952300000002],[-66.14821160000001,-17.399872900000002],[-66.14829800000001,-17.3998478],[-66.14883130000001,-17.3998543],[-66.14933400000001,-17.399860500000003],[-66.14984940000001,-17.3998668],[-66.15002220000001,-17.3998728],[-66.15013950000001,-17.399879600000002],[-66.15025750000001,-17.399903000000002],[-66.15035920000001,-17.3999303],[-66.15048010000001,-17.399971100000002],[-66.15061080000001,-17.400034100000003],[-66.15074340000001,-17.400121900000002],[-66.15086930000001,-17.4002252],[-66.15089730000001,-17.400136600000003],[-66.1509151,-17.399965],[-66.1509855,-17.3992846],[-66.1510846,-17.398539600000003],[-66.1510902,-17.398456600000003],[-66.15115630000001,-17.397774700000003],[-66.1513099,-17.396614800000002],[-66.15150530000001,-17.395542600000002],[-66.1515705,-17.395216400000002],[-66.15171020000001,-17.394513800000002],[-66.1519057,-17.3934654],[-66.152094,-17.3924306],[-66.15227150000001,-17.391539],[-66.15228610000001,-17.3914711],[-66.1523052,-17.391382],[-66.15238160000001,-17.3913942],[-66.1533232,-17.3915757],[-66.1533744,-17.3915849],[-66.15342190000001,-17.3915933],[-66.1540423,-17.3917031],[-66.1544525,-17.3917758],[-66.1545177,-17.3917873],[-66.1545971,-17.3918012],[-66.1550581,-17.3918822],[-66.155297,-17.391924200000002],[-66.15553580000001,-17.3919661],[-66.1556012,-17.3919776],[-66.15566120000001,-17.3919889],[-66.1566289,-17.3921703],[-66.15667280000001,-17.3921785],[-66.156727,-17.392187500000002],[-66.1573168,-17.3922886],[-66.1577055,-17.3923552],[-66.157753,-17.3923634],[-66.1577984,-17.3923713],[-66.15796230000001,-17.392399700000002],[-66.1585898,-17.3925084],[-66.1587059,-17.3925285],[-66.1587863,-17.3925424],[-66.158879,-17.3925589],[-66.1589397,-17.3925698],[-66.1598762,-17.3927236],[-66.1599202,-17.3927307],[-66.1599716,-17.3927397],[-66.1610041,-17.392913500000002],[-66.1610608,-17.3929264],[-66.1611287,-17.392944],[-66.1613786,-17.392987700000003],[-66.1615323,-17.393014500000003],[-66.1619926,-17.393095000000002],[-66.1620628,-17.3931073],[-66.1621604,-17.393123600000003],[-66.16279990000001,-17.3932302],[-66.16387610000001,-17.393409600000002],[-66.16392780000001,-17.393418200000003],[-66.16399150000001,-17.393430000000002],[-66.16492090000001,-17.3936022],[-66.1659169,-17.393779300000002],[-66.1661485,-17.39382],[-66.1661971,-17.3938251],[-66.1664389,-17.3938288],[-66.16661040000001,-17.3938412],[-66.1667802,-17.393886700000003],[-66.16693740000001,-17.3939373],[-66.1673519,-17.3939756],[-66.16737610000001,-17.393974200000002],[-66.167449,-17.393973900000002],[-66.1675661,-17.393955400000003],[-66.1677971,-17.393916100000002],[-66.16782760000001,-17.3939109],[-66.16786,-17.3939053],[-66.16799400000001,-17.3938847],[-66.1680638,-17.393877900000003],[-66.1683952,-17.393863900000003],[-66.16860340000001,-17.3938542],[-66.1686861,-17.3938503],[-66.1687744,-17.393846200000002],[-66.169044,-17.3938336],[-66.169397,-17.3937798],[-66.17022320000001,-17.3937475],[-66.17046400000001,-17.393742800000002],[-66.17053440000001,-17.393741400000003],[-66.17057030000001,-17.3937406],[-66.1706025,-17.3937291],[-66.17062680000001,-17.3937242],[-66.1706515,-17.3937223],[-66.1706764,-17.3937233],[-66.1707008,-17.3937272],[-66.1707334,-17.393737400000003],[-66.170806,-17.393716700000002],[-66.170822,-17.3937126],[-66.17085700000001,-17.393704500000002],[-66.1709593,-17.393689400000003],[-66.1723743,-17.3936297],[-66.173901,-17.3935555],[-66.17390370000001,-17.393598400000002],[-66.17391160000001,-17.393719800000003],[-66.17435850000001,-17.3937004],[-66.17445380000001,-17.3936962],[-66.17631180000001,-17.393615500000003],[-66.17640320000001,-17.393611500000002],[-66.17645250000001,-17.393609400000003],[-66.17657580000001,-17.393604],[-66.17680170000001,-17.3935944],[-66.1775114,-17.393564400000002],[-66.17858620000001,-17.3935123],[-66.17997820000001,-17.3934515],[-66.18095240000001,-17.3934044],[-66.1825074,-17.393342200000003],[-66.1841002,-17.393278300000002],[-66.1844521,-17.3932597],[-66.1864116,-17.3931714],[-66.18663930000001,-17.3931593],[-66.18663360000001,-17.393049],[-66.18663140000001,-17.3930051],[-66.18709150000001,-17.3929845],[-66.1874037,-17.3929706],[-66.1874083,-17.392922700000003],[-66.18717550000001,-17.392300000000002],[-66.1867127,-17.390995800000002],[-66.18741580000001,-17.3909066],[-66.1881415,-17.3908284],[-66.18886420000001,-17.3907311],[-66.18847410000001,-17.389605800000002],[-66.18832830000001,-17.3891712],[-66.1880646,-17.388421],[-66.188046,-17.3883502],[-66.18783830000001,-17.3877442],[-66.1877829,-17.387582700000003],[-66.18766550000001,-17.387240300000002],[-66.18764230000001,-17.387172600000003],[-66.1875954,-17.387035800000003],[-66.1875036,-17.386768],[-66.1874707,-17.3866711],[-66.1873336,-17.386278100000002],[-66.1873331,-17.386200600000002],[-66.1873422,-17.3861446],[-66.1872982,-17.386137700000003],[-66.1872707,-17.3861342],[-66.1868642,-17.386084200000003],[-66.18672450000001,-17.3860759],[-66.1865707,-17.386078],[-66.1864336,-17.386085100000003],[-66.1858967,-17.3861217],[-66.18573830000001,-17.3861372],[-66.18548340000001,-17.38616],[-66.18569570000001,-17.3859059],[-66.18576130000001,-17.385812700000002],[-66.1857811,-17.385782900000002],[-66.1857909,-17.385749],[-66.18579070000001,-17.385696600000003],[-66.18570720000001,-17.3853648],[-66.1856496,-17.385095500000002],[-66.18562800000001,-17.384949900000002],[-66.1856161,-17.384768],[-66.18562010000001,-17.3845949],[-66.1856254,-17.384515500000003],[-66.1856326,-17.384436200000003],[-66.1856779,-17.3842195],[-66.1857554,-17.3838587],[-66.18583860000001,-17.3834382],[-66.1859225,-17.3830139],[-66.18593460000001,-17.3829171],[-66.1859378,-17.382891200000003],[-66.18594110000001,-17.382817000000003],[-66.18594250000001,-17.382740000000002],[-66.1859476,-17.382692000000002],[-66.18596980000001,-17.3826448],[-66.18601840000001,-17.3826304],[-66.1860638,-17.3826241],[-66.1861549,-17.3826217],[-66.18622850000001,-17.3826217],[-66.1862883,-17.382621800000003],[-66.1863156,-17.382621200000003],[-66.1863505,-17.3826204],[-66.1874729,-17.3825845],[-66.187516,-17.3825812],[-66.1889998,-17.3825305],[-66.18907890000001,-17.3825286],[-66.1895624,-17.3825168],[-66.1898108,-17.382508],[-66.1899851,-17.382491100000003],[-66.1902336,-17.3824527],[-66.190909,-17.382299800000002],[-66.1909511,-17.3822903],[-66.19191550000001,-17.3820763],[-66.1919562,-17.382069700000002],[-66.19278170000001,-17.3820048],[-66.1932123,-17.381970900000002],[-66.1932697,-17.381965800000003],[-66.1938317,-17.3819158],[-66.19411670000001,-17.3818956],[-66.19416650000001,-17.381887600000002],[-66.1942319,-17.381865400000002],[-66.19429570000001,-17.3818342],[-66.19433500000001,-17.3818126],[-66.1944472,-17.3817507],[-66.19451190000001,-17.381715500000002],[-66.19468300000001,-17.381668100000002],[-66.19481180000001,-17.381648900000002],[-66.19512230000001,-17.381627100000003],[-66.1951531,-17.381625600000003],[-66.1954345,-17.381607300000002],[-66.1961138,-17.3815704],[-66.19612740000001,-17.381557400000002],[-66.1961448,-17.381546200000003],[-66.19616420000001,-17.3815387],[-66.19618480000001,-17.3815351],[-66.19620570000001,-17.381535600000003],[-66.1962261,-17.381540100000002],[-66.1962451,-17.3815484],[-66.1962731,-17.3815673],[-66.1963367,-17.381561],[-66.19686420000001,-17.3814998],[-66.1981805,-17.3813464],[-66.1988809,-17.381267400000002],[-66.1989935,-17.3812572],[-66.199511,-17.3811952],[-66.199566,-17.3811889],[-66.1999416,-17.381145500000002],[-66.20029720000001,-17.381100200000002],[-66.20068660000001,-17.3810585],[-66.20077060000001,-17.381049500000003],[-66.20112540000001,-17.3810106],[-66.2018522,-17.3809304],[-66.2020181,-17.3809286],[-66.20216640000001,-17.380964900000002],[-66.2022836,-17.381011700000002],[-66.20242110000001,-17.381065900000003],[-66.20255390000001,-17.3811201],[-66.20303650000001,-17.381394],[-66.20422380000001,-17.3820678],[-66.20515250000001,-17.382556100000002],[-66.2051943,-17.3820151],[-66.2050129,-17.381844100000002],[-66.20499570000001,-17.3817732],[-66.20494790000001,-17.3812439],[-66.2048695,-17.380060200000003],[-66.2048046,-17.3800442],[-66.20443940000001,-17.380099700000002],[-66.20429750000001,-17.3801293],[-66.2041483,-17.380144400000002],[-66.20415750000001,-17.379318700000002],[-66.204188,-17.3792443],[-66.2042473,-17.3792128],[-66.2047218,-17.3791733],[-66.2047727,-17.379138],[-66.20478270000001,-17.3790735],[-66.2047792,-17.3790261],[-66.20473940000001,-17.378488],[-66.2048357,-17.3784768],[-66.2052336,-17.3784527],[-66.20570260000001,-17.378419500000003]]}}},{"type":"Feature","properties":{"addr:city":"Cochabamba","bench":"no","bus":"yes","covered":"no","departures_board":"no","highway":"bus_stop","name":"Parada T","public_transport":"platform","shelter":"no","id":2677330230},"geometry":{"type":"Point","coordinates":[-66.1125217,-17.4589974]}},{"type":"Feature","properties":{"bench":"no","bin":"no","bus":"yes","departures_board":"no","highway":"bus_stop","lit":"no","name":"Lanza","pole":"yes","public_transport":"platform","shelter":"no","id":5472737093},"geometry":{"type":"Point","coordinates":[-66.1532679,-17.3915168]}},{"type":"Feature","properties":{"bench":"no","bin":"no","bus":"yes","departures_board":"no","highway":"bus_stop","kerb":"raised","level":"0","lit":"no","name":"Baptista","operator":"Gobierno Autónomo Municipal de Cochabamba","pole":"yes","public_transport":"platform","shelter":"no","tactile_paving":"no","wheelchair":"no","id":6546789754},"geometry":{"type":"Point","coordinates":[-66.15767260000001,-17.392301900000003]}},{"type":"Feature","properties":{"bench":"yes","bin":"no","bus":"yes","departures_board":"no","highway":"bus_stop","kerb":"raised","level":"0","lit":"no","name":"ELFEC","operator":"Gobierno Autónomo Municipal de Cochabamba","operator:short":"GAMC","operator:type":"government","public_transport":"platform","shelter":"yes","tactile_paving":"no","wheelchair":"no","id":3281516918},"geometry":{"type":"Point","coordinates":[-66.16611830000001,-17.393781500000003]}},{"type":"Feature","properties":{"bench":"yes","bin":"no","bus":"yes","departures_board":"no","highway":"bus_stop","level":"0","lit":"no","name":"Club Tenis Municipal","operator":"Administradora Boliviana de Carreteras","operator:short":"ABC","operator:type":"public","public_transport":"platform","shelter":"yes","tactile_paving":"no","wheelchair":"no","id":3232582115},"geometry":{"type":"Point","coordinates":[-66.16859980000001,-17.3937788]}},{"type":"Feature","properties":{"addr:city":"Cochabamba","bench":"no","bus":"yes","covered":"no","departures_board":"no","highway":"bus_stop","name":"Parada T","public_transport":"platform","shelter":"no","id":5390500469},"geometry":{"type":"Point","coordinates":[-66.20572440000001,-17.3783792]}}]}