{"type":"FeatureCollection","features":[{"type":"Feature","properties":{"check_date":"29/12/2025","from":"Tajra","name":"MicroBus 39: Tajra → Av. Sexta","on_demand":"yes","operator":"Sindicato mixto de transporte público 6 de mayo","public_transport:version":"2","ref":"39","route":"bus","to":"Av. Sexta","type":"route","wheelchair":"no","id":11105559},"geometry":{"type":"LineString","coordinates":[[-66.1704611,-17.4526924],[-66.1703758,-17.4526996],[-66.1702807,-17.4526843],[-66.1701409,-17.4526407],[-66.1699481,-17.4525328],[-66.1698436,-17.4524723],[-66.1696174,-17.4523367],[-66.1695009,-17.4522811],[-66.1693295,-17.4522304],[-66.1692198,-17.4522042],[-66.1690948,-17.4521895],[-66.1689748,-17.4521944],[-66.168872,-17.4522157],[-66.1685584,-17.4522892],[-66.1684436,-17.4523187],[-66.1683356,-17.4523334],[-66.1682465,-17.4523416],[-66.1681472,-17.4523285],[-66.1680323,-17.4523007],[-66.1673298,-17.4520653],[-66.1669724,-17.4519483],[-66.1668654,-17.4519133],[-66.166754,-17.4518806],[-66.1666426,-17.4518642],[-66.166545,-17.4518577],[-66.1664713,-17.4518675],[-66.1663411,-17.4519035],[-66.1662155,-17.4519526],[-66.1661148,-17.4519869],[-66.165188,-17.4522942],[-66.1648478,-17.4524218],[-66.1647485,-17.4524345],[-66.1645307,-17.4523708],[-66.1633456,-17.4520487],[-66.1630376,-17.4519595],[-66.1629575,-17.45195],[-66.1628685,-17.4519497],[-66.1620153,-17.4520269],[-66.1618144,-17.4520451],[-66.1617141,-17.4520598],[-66.1616031,-17.4520883],[-66.1615192,-17.4521208],[-66.1612141,-17.4522936],[-66.1611407,-17.4523187],[-66.161054,-17.4523328],[-66.1607872,-17.4523421],[-66.1607259,-17.4523442],[-66.1606059,-17.4523532],[-66.1601656,-17.4523304],[-66.1594978,-17.452318],[-66.159092,-17.4523158],[-66.1586646,-17.4523139],[-66.1585256,-17.4523384],[-66.1582395,-17.4524446],[-66.1577716,-17.4525965],[-66.1573445,-17.4527454],[-66.1572965,-17.4527784],[-66.1572343,-17.4528407],[-66.1571303,-17.4529882],[-66.1566868,-17.4529453],[-66.155915,-17.4529217],[-66.1558222,-17.4522893],[-66.1556645,-17.451389],[-66.155625,-17.4509939],[-66.1556027,-17.4505567],[-66.1555867,-17.4499094],[-66.1555751,-17.4495084],[-66.1555631,-17.4491459],[-66.1555038,-17.4484813],[-66.1554891,-17.4483445],[-66.1554253,-17.4476267],[-66.155382,-17.4471557],[-66.1553809,-17.4471265],[-66.1553776,-17.4470071],[-66.1553778,-17.4469712],[-66.1553734,-17.4459507],[-66.1553722,-17.445906],[-66.1553276,-17.4448093],[-66.1552679,-17.4433436],[-66.1552738,-17.4429702],[-66.1552802,-17.4428608],[-66.1552931,-17.4427584],[-66.1553395,-17.4426824],[-66.1553466,-17.4426064],[-66.155329,-17.4423622],[-66.1553291,-17.442305],[-66.1553407,-17.442234],[-66.1553862,-17.4420901],[-66.1555119,-17.4418582],[-66.1555495,-17.4417984],[-66.1555757,-17.4417497],[-66.1555858,-17.4417222],[-66.1555887,-17.4416379],[-66.1567906,-17.4414501],[-66.1579204,-17.4412696],[-66.1579912,-17.4412558],[-66.1579734,-17.4411907],[-66.158026,-17.4401286],[-66.1580456,-17.4395745],[-66.1580588,-17.4390463],[-66.158087,-17.4384861],[-66.1581285,-17.4379443],[-66.1575345,-17.4379224],[-66.1569573,-17.4378971],[-66.1569986,-17.4372682],[-66.1570096,-17.4370228],[-66.1570181,-17.4368318],[-66.1570218,-17.436696],[-66.1570342,-17.436296],[-66.1570378,-17.4361815],[-66.1570508,-17.4359578],[-66.1570635,-17.4357364],[-66.1564468,-17.4357126],[-66.1564732,-17.4351466],[-66.1564992,-17.4346451],[-66.1565789,-17.4346477],[-66.1571651,-17.4346666],[-66.1571812,-17.434195],[-66.1571835,-17.4341263],[-66.1570768,-17.4341257],[-66.1570312,-17.434098],[-66.1570061,-17.4340645],[-66.1570007,-17.4340371],[-66.1569951,-17.4340086],[-66.1569985,-17.4339284],[-66.1570104,-17.4336487],[-66.1570176,-17.4336286],[-66.1570257,-17.4336061],[-66.157058,-17.4335809],[-66.1570971,-17.4335685],[-66.1571962,-17.4335706],[-66.1582476,-17.4336222],[-66.1582705,-17.433072],[-66.1582929,-17.4325328],[-66.158892,-17.4325651],[-66.1589199,-17.4319882],[-66.1583823,-17.4319383],[-66.1583914,-17.431775],[-66.1577723,-17.4317419],[-66.1577837,-17.4314009],[-66.1575908,-17.4313934],[-66.1572425,-17.4314058],[-66.1572732,-17.4308757],[-66.1572949,-17.4303315],[-66.1573212,-17.4297956],[-66.157332,-17.4295718],[-66.1573421,-17.4292244],[-66.1588603,-17.4292758],[-66.1588811,-17.4286724],[-66.1588943,-17.4283724],[-66.1589088,-17.4282701],[-66.1589346,-17.4281923],[-66.1589565,-17.4281325],[-66.1589878,-17.4280705],[-66.1590793,-17.4279675],[-66.1592069,-17.4278287],[-66.1591867,-17.4277439],[-66.159143,-17.42756],[-66.1589821,-17.4269791],[-66.1586595,-17.425793],[-66.158644,-17.4257254],[-66.1584892,-17.4250012],[-66.158388,-17.4245278],[-66.1582127,-17.4235733],[-66.1580844,-17.4227889],[-66.1580664,-17.4226868],[-66.1579302,-17.4218446],[-66.1579202,-17.4217826],[-66.1578639,-17.421693],[-66.1575823,-17.4212723],[-66.1575037,-17.4211406],[-66.1574675,-17.4210563],[-66.1574266,-17.4209428],[-66.1574399,-17.4205262],[-66.1574408,-17.4204939],[-66.1574454,-17.4203442],[-66.1574461,-17.4203231],[-66.1574491,-17.4202251],[-66.1574669,-17.4198247],[-66.157468,-17.4198008],[-66.1574726,-17.4196975],[-66.1574747,-17.4196456],[-66.1574989,-17.4190587],[-66.1574515,-17.4187016],[-66.1572813,-17.4176486],[-66.1571283,-17.4167263],[-66.1571127,-17.4166415],[-66.1571052,-17.4165892],[-66.1569325,-17.4157097],[-66.1569187,-17.4156285],[-66.1568994,-17.4155536],[-66.1567386,-17.4146025],[-66.1566729,-17.414405],[-66.1565732,-17.4138141],[-66.1565362,-17.4135945],[-66.1565144,-17.4135358],[-66.1564879,-17.4134988],[-66.1564599,-17.4134745],[-66.1562041,-17.4134241],[-66.1559132,-17.4133788],[-66.1557916,-17.4133586],[-66.1557552,-17.4133531],[-66.1556071,-17.4133243],[-66.1555752,-17.413315],[-66.1555265,-17.4133009],[-66.1554401,-17.4132586],[-66.1553389,-17.4132028],[-66.1550519,-17.4130447],[-66.1550281,-17.4130325],[-66.1548024,-17.4129164],[-66.1546499,-17.4128352],[-66.1539535,-17.4124837],[-66.1537674,-17.4123862],[-66.1536436,-17.4122825],[-66.1535673,-17.4121917],[-66.1535467,-17.4121411],[-66.1535373,-17.4121042],[-66.1535104,-17.411993],[-66.1535029,-17.4119093],[-66.1534726,-17.4104835],[-66.1534922,-17.4102744],[-66.153473,-17.4098585],[-66.1534302,-17.408289],[-66.1534037,-17.4075486],[-66.1533921,-17.4070536],[-66.1533606,-17.4061008],[-66.1533348,-17.4052833],[-66.153324,-17.4048628],[-66.1533227,-17.4048012],[-66.1532959,-17.4036075],[-66.1532969,-17.4035424],[-66.1532934,-17.4032094],[-66.1533194,-17.4031272],[-66.1533196,-17.4030749],[-66.1533203,-17.4029579],[-66.15332,-17.4028781],[-66.1533197,-17.4028096],[-66.1533193,-17.402737],[-66.1533222,-17.4026581],[-66.1533227,-17.4025723],[-66.1533255,-17.4025012],[-66.1533234,-17.4024287],[-66.1533238,-17.4023639],[-66.1533031,-17.4023036],[-66.1532722,-17.4014247],[-66.15325,-17.4007249],[-66.1532266,-17.3999032],[-66.1531973,-17.3991016],[-66.1531921,-17.398998],[-66.1531927,-17.3988455],[-66.1531945,-17.3987646],[-66.15417,-17.39898],[-66.1542283,-17.3989929],[-66.1542956,-17.3990088],[-66.1552473,-17.3992338],[-66.1553036,-17.3992471],[-66.1553477,-17.3992567],[-66.156378,-17.399481],[-66.1564374,-17.3994887],[-66.1564991,-17.3994953],[-66.1567559,-17.3994948],[-66.1569636,-17.399463],[-66.1571541,-17.3994401],[-66.1575712,-17.3993743],[-66.1576356,-17.3993655],[-66.1577347,-17.3993519],[-66.1578434,-17.3993362],[-66.1584393,-17.3992452],[-66.1584983,-17.3992362],[-66.158615,-17.3992272],[-66.1587124,-17.3992288],[-66.158764,-17.3992321],[-66.1591739,-17.3992577],[-66.1592816,-17.3992705],[-66.1593653,-17.3992744],[-66.1599967,-17.3993032],[-66.1600663,-17.3993136],[-66.1601608,-17.3993373],[-66.1603302,-17.3993931],[-66.160433,-17.3994267],[-66.1609953,-17.3995906],[-66.1610911,-17.3996185],[-66.1610973,-17.3995759],[-66.1612631,-17.3984368],[-66.1612698,-17.3983892],[-66.161278,-17.3983353],[-66.161425,-17.3973709],[-66.1614316,-17.3973275],[-66.1614408,-17.3972611],[-66.1615801,-17.3962551],[-66.1617448,-17.3952022],[-66.1618929,-17.3941121],[-66.1619959,-17.3935576],[-66.1620034,-17.3935174],[-66.162048,-17.3932145],[-66.1620531,-17.3931798],[-66.1620628,-17.3931073],[-66.1621604,-17.3931236],[-66.1627999,-17.3932302],[-66.1638761,-17.3934096],[-66.1639278,-17.3934182],[-66.1639915,-17.39343],[-66.1649209,-17.3936022],[-66.1659169,-17.3937793],[-66.1661485,-17.39382],[-66.1661971,-17.3938251],[-66.1662659,-17.3938073],[-66.1663006,-17.393787],[-66.1663255,-17.3937592],[-66.1663345,-17.3937303],[-66.1663354,-17.3936796],[-66.1663227,-17.393632],[-66.1663119,-17.3936069],[-66.1661542,-17.3932408],[-66.1660752,-17.392978],[-66.1659027,-17.3926285],[-66.1658615,-17.3925489],[-66.1658266,-17.3924777],[-66.1653393,-17.3915596],[-66.1651432,-17.3911969],[-66.1648508,-17.3906414],[-66.1647029,-17.3903728],[-66.1646584,-17.3902846],[-66.1642832,-17.3895382],[-66.1642398,-17.3894225],[-66.1642116,-17.3893035],[-66.1642083,-17.3891992],[-66.1642167,-17.3891029],[-66.1642407,-17.3889461],[-66.164254,-17.3888315],[-66.1642462,-17.3887564],[-66.1642257,-17.3886535],[-66.1642014,-17.3885626],[-66.1641672,-17.3884805],[-66.1641204,-17.388381],[-66.1640131,-17.3881625],[-66.1638767,-17.3878798],[-66.1637531,-17.3875993],[-66.1637591,-17.3875087],[-66.1637711,-17.3874641],[-66.1637993,-17.3874205],[-66.1638458,-17.3873837],[-66.1638892,-17.3873698],[-66.1639217,-17.3873669],[-66.1639627,-17.387372],[-66.1639882,-17.3873911],[-66.1640493,-17.3874581],[-66.164151,-17.3876314],[-66.1642245,-17.3877371],[-66.1642564,-17.3877652],[-66.1642896,-17.3877831],[-66.1643272,-17.3877922],[-66.1643848,-17.3877711],[-66.1644441,-17.3877488],[-66.1645162,-17.3877208],[-66.1648578,-17.3875809],[-66.1649018,-17.3875643],[-66.164924,-17.3875552],[-66.1650363,-17.3875237],[-66.1655829,-17.3873123],[-66.1657108,-17.3872507],[-66.1657931,-17.3871905],[-66.1658953,-17.3870972],[-66.1659533,-17.3870258],[-66.1659986,-17.3869648],[-66.1661071,-17.3868187],[-66.1663218,-17.3865558],[-66.1665707,-17.3862431],[-66.1666104,-17.3861957],[-66.1670888,-17.3856646],[-66.1675962,-17.3850394],[-66.1680279,-17.3855424],[-66.1683643,-17.3859622],[-66.1684075,-17.3860142],[-66.1684748,-17.3860952],[-66.168515,-17.3861436],[-66.1692085,-17.3869547],[-66.1691849,-17.3877265],[-66.1692981,-17.3877494],[-66.1693603,-17.3877557],[-66.170183,-17.3877917],[-66.1702253,-17.3877872],[-66.1702677,-17.3877762],[-66.1703618,-17.3877344],[-66.1703853,-17.3877057],[-66.1704146,-17.3876822],[-66.1704232,-17.3875961],[-66.170421,-17.3875459],[-66.1704102,-17.3874694],[-66.1703121,-17.3870072],[-66.1701787,-17.3863705],[-66.1700792,-17.3858762],[-66.1700915,-17.3857726],[-66.1700773,-17.3857043],[-66.1700451,-17.3855502],[-66.1700272,-17.3854642],[-66.1700096,-17.3853754],[-66.1698097,-17.3843673],[-66.1697396,-17.3840314],[-66.1697179,-17.383945],[-66.1696911,-17.3838601],[-66.1696589,-17.3837769],[-66.1696216,-17.3836957],[-66.1695831,-17.3836111],[-66.1695779,-17.3836077],[-66.169544,-17.3835751],[-66.1695227,-17.3835341],[-66.1695159,-17.3834887],[-66.1695246,-17.3834436],[-66.1695477,-17.3834035],[-66.1695518,-17.3833987],[-66.1695561,-17.3833941],[-66.1695931,-17.3833663],[-66.1696373,-17.3833509],[-66.1696843,-17.3833493],[-66.1697296,-17.3833616],[-66.1697411,-17.3833673],[-66.1697941,-17.383358],[-66.1698425,-17.3833535],[-66.1699256,-17.3833409],[-66.1700092,-17.3833219],[-66.1705347,-17.383184],[-66.1708107,-17.383105],[-66.171589,-17.3829013],[-66.1721956,-17.3827419],[-66.172794,-17.3825846],[-66.1741378,-17.3822358],[-66.1746654,-17.3820984],[-66.1747525,-17.3820731],[-66.1748021,-17.3820611],[-66.1751885,-17.381968],[-66.1752482,-17.381949],[-66.1753938,-17.381889],[-66.1754721,-17.3818687],[-66.1755706,-17.3818446],[-66.175669,-17.3818282],[-66.175803,-17.381812],[-66.1759129,-17.3818052],[-66.1760443,-17.3818111],[-66.176198,-17.3818316],[-66.1763611,-17.3818644],[-66.1764425,-17.3818874],[-66.1765583,-17.381925],[-66.1780298,-17.3823567],[-66.1787832,-17.3825769],[-66.1794707,-17.3827741],[-66.1800553,-17.3829345],[-66.180204,-17.38295],[-66.1804507,-17.3829476],[-66.180529,-17.3829489],[-66.1814669,-17.3829363],[-66.1815029,-17.3829334],[-66.1815848,-17.3829139],[-66.1816457,-17.382894],[-66.1816966,-17.382884],[-66.1817667,-17.3828816],[-66.1818244,-17.382894],[-66.1818904,-17.3829158],[-66.1819263,-17.382929],[-66.1819723,-17.3829389],[-66.1820387,-17.3829444],[-66.1827962,-17.3829294],[-66.1835651,-17.3829246],[-66.1838469,-17.3829228],[-66.1839679,-17.382922],[-66.1841292,-17.3829203],[-66.1843826,-17.3828958],[-66.1849898,-17.3828246],[-66.1850597,-17.3828146],[-66.1858256,-17.3826834],[-66.1858504,-17.3826792],[-66.1859155,-17.3826645],[-66.1859698,-17.3826448],[-66.1859908,-17.3825923],[-66.1860022,-17.382552],[-66.1861579,-17.3817211],[-66.1861986,-17.3816158],[-66.1862619,-17.3815039],[-66.1863308,-17.3814132],[-66.1863917,-17.3813483],[-66.1864264,-17.3813113],[-66.1876636,-17.3800831],[-66.1877383,-17.3800086],[-66.1882978,-17.3794405],[-66.1883743,-17.3793442],[-66.1882237,-17.3786421],[-66.1881294,-17.3782472],[-66.1886538,-17.3779965],[-66.1887473,-17.3779482],[-66.1887931,-17.3780062],[-66.1892292,-17.3783875],[-66.1893005,-17.378404],[-66.1893869,-17.378476],[-66.1894248,-17.3785211],[-66.1895101,-17.378666],[-66.1897024,-17.3797017],[-66.1898854,-17.3806033],[-66.18984,-17.3806168],[-66.1900809,-17.3816816],[-66.1902336,-17.3824527],[-66.190909,-17.3822998],[-66.1909511,-17.3822903],[-66.1919155,-17.3820763],[-66.1919562,-17.3820697],[-66.1927817,-17.3820048],[-66.1932123,-17.3819709],[-66.1932697,-17.3819658],[-66.1938317,-17.3819158],[-66.1941167,-17.3818956],[-66.1941665,-17.3818876],[-66.1942319,-17.3818654],[-66.1942957,-17.3818342],[-66.194335,-17.3818126],[-66.1944472,-17.3817507],[-66.1944911,-17.3818959],[-66.194561,-17.3827144],[-66.1945787,-17.3829387],[-66.194549,-17.3829966],[-66.1946328,-17.3839652],[-66.1946388,-17.384042],[-66.1949291,-17.3840529],[-66.1954424,-17.3840826],[-66.196159,-17.3841131],[-66.1962263,-17.3841467],[-66.1963806,-17.3841553],[-66.1964644,-17.3841778],[-66.1978007,-17.3840492],[-66.1984497,-17.383981],[-66.199003,-17.383923],[-66.199101,-17.3839219],[-66.2001449,-17.3838141],[-66.2012644,-17.3837038],[-66.2014284,-17.3836901],[-66.2017245,-17.3836654],[-66.2020777,-17.3836305],[-66.2027525,-17.3835905],[-66.203293,-17.3835606],[-66.203991,-17.3834712],[-66.2043957,-17.3834394],[-66.2051826,-17.3833804],[-66.2066875,-17.3832597],[-66.2067507,-17.3831945],[-66.2068535,-17.383058],[-66.2070718,-17.3827278],[-66.2077891,-17.38188],[-66.2078009,-17.3818422],[-66.2077974,-17.3818128],[-66.2080715,-17.3817742]],"nodes":[3679283020,3679283022,1626983309,1626983192,3679283009,3679283005,3679282991,3679282975,3679282966,3679282963,3679282960,3679282961,3679282964,3679282976,3679282985,3679282990,3679282992,3679282989,3679282980,3679282956,12421398982,3679282944,3679282942,3679282938,3679282937,3679282940,3679282943,8261043746,1496873897,3657171128,3657171156,1626982869,1626983276,1626983031,3657171085,3657171084,1626982935,9462111407,3657171092,1626983169,1626983038,1626982713,1626982767,1626982603,1626982892,13378630832,3657171140,1626983019,3657171137,1626983137,3657171132,1626982956,1626983008,1626982883,4691143900,1626983290,3657171215,3657171221,1626982982,3657171238,1617351912,1617352143,1617352231,1617352204,3657170986,1617352237,12726527541,3657170922,1617352029,3657170865,3657170819,1617352185,11071526193,2022078143,3647863745,1617351953,3647863640,1617352024,1617351921,3647863399,6133714650,1617351930,13336382370,1617351960,1617352087,13159081859,3647863369,5314086255,13159081860,3311611301,13159082293,13159082294,1617352207,1617351967,5572609055,3112775842,13159081868,3017390017,3017390024,3017399355,2053282999,2053283013,2053282992,1617351928,5562916893,5572312912,1617352031,5572312910,3017390003,5572312907,5572312908,3017389995,3017399364,5565807974,3017399366,5625255128,3017389979,12998228694,1617352079,3017389964,3311610744,3311610741,12998235234,3017389965,12998228697,3017389966,12998235211,3311610724,3311610720,3017389967,2149916054,3017389961,3017389969,3017389960,2149899989,3017389951,3017389955,3017389958,3017389957,2149915999,3017389959,2149899993,2149899997,2149916042,2149900001,2149916026,2149899996,1637693347,2149916006,1638809446,3311610067,3311610066,1638809443,1638809439,1638809435,3307473564,3307473565,1499934256,2149916017,3307354191,1638831967,9191720004,2022073888,1499934157,1499934196,3306658845,12519463516,7768396064,7768396069,1637408408,12519463518,12519463519,1499573838,7768396132,13383715983,12519463525,12519463520,1497953244,13067849852,13067849842,4679599408,13067849850,3307231669,1499934219,1499934269,5433895293,1499934359,5433895295,5433999185,1499934373,5433999188,1499934251,3709607019,9131108047,3709607009,3709607006,3709607005,3709607002,5433895286,3709606976,11270427063,4770480910,3709606994,11722101401,5433895288,3709606955,9435142311,3017385048,9599936947,9599936935,5610210467,5610210466,5610210481,9139129393,5610210486,9131108111,9131108110,5610210482,5610210483,5610210485,5610210512,702511599,843383892,702511670,702511660,702511697,8236165731,2765190485,702511759,6129316876,6129316829,6471478536,5313058809,5313058790,6471287448,6471287453,6471287450,5313058818,5313058738,5313058812,5313058814,5313058816,6471287464,308300568,308300567,308300566,308300474,308300473,8238783213,648548911,3269819960,12081159183,1727306400,12081159182,3674274541,1727306404,3674274542,12081159193,1727306401,2398944652,2398944653,11679558744,7767900404,4929965568,1727306403,1865095006,2398944637,10921117778,2398944625,9566992862,315111204,9593572452,323969382,9593572449,10921117799,676069596,8099810036,9593560545,323969927,2266470191,9598863723,315111364,9955760904,9175513399,310500788,9175513400,9955760892,310500541,9955760893,5559683367,310499296,310499275,10879431899,310502624,10879431898,698492322,308297347,10879431901,10792253179,13131123327,308297348,10792253185,308297349,308297350,9515033287,315114806,8147129087,8147129088,2477244096,9604464113,315114810,2477244089,9536787287,8147129086,315108296,2312521741,315117174,2312521733,4965154817,2312521678,2312521648,10792253189,315117071,315108293,315108292,315108291,315108290,2196986709,2312521619,1636978207,2312521580,8143793610,1636978176,8143793591,2312521564,1636978150,1636978120,1636978110,2312521474,2312521463,2312521453,2312521440,2312521438,9163629233,1636952610,8143793575,2312521450,1636952611,843385443,3297079278,9163629260,2312521495,676069598,9163629263,9163629266,11079349297,11079424622,676069597,1636978099,1636978093,1636978087,1636978084,1636978082,6481891030,12956643101,8667184717,1636978075,598178961,9686979844,598179000,598179002,2602832696,598178947,9894887115,9894887116,598178945,598178943,5213287372,9686979826,5213287371,5213287365,9873615124,3250373497,5213287366,9343503238,2410715931,1718722271,9873593893,3250373483,1724886152,2602834679,9892523602,598178974,9894887104,9894887103,598178976,9894887117,598178980,8947856390,11079292075,1807038004,11045409857,9736311281,1724886238,2972424434,2972424331,2972424317,2972424305,9356030774,11079292076,6806412400,2972424293,2972424288,3593740854,2972424286,6806354338,2972424289,2972424290,2972424287,9736277883,9356030787,598178985,3296016834,598178927,9736277841,598178925,9021457174,6481891032,6481891031,9021456994,8997922788,9843437744,8997922789,3296016829,9843437742,2869785589,9021457007,9843437743,560437509,2869785590,8997922795,560437508,560437507,689437148,3017419917,689437146,560437506,2544300069,2544300066,2544300064,2381924820,7436277546,7436277547,7436277538,7436277539,7436277540,7436277541,6806297280,9018486819,7436277553,560437481,560437480,4984179016,4984179014,560437479,9018656417,2544300049,560437478,5353043947,9630553874,7143106014,9630553873,2544300021,9018989662,7143106017,2544300017,698492165,2544300016,9019031869,10798484788,698492168,9019031921,2147353042,9019031924,698492220,1723594028,698492234,3268355956,1807004186,809705375,809705520,9019031928,698492231,9019031922,809705224,689437111,3266371446,689437104,2147346919,689437094,9019031972,689437099,682374719,4984179008,4984179006,682384958,9019032005,4984179004,9019031994,2137733237,2744376497,560437463,9019032029,560437462,560437466,7996508749,9019032027,698491971,698491955,3265968154,3017419877,698491947,12980349472,560522449,560522440,12980349471,560522439,560522437,560084607,560437438,560437437,560437434,8508036728,3641793995,3641793994,560437433,8508027699,560437414,8508027700,560437410,560437413,560437409,560437425,3017419848,11071479569,11071479568,560437418,794098688]},"gtfs":{"agency_id":7,"route_id":121,"services":[{"service_id":"Mo-Su","startTime":"06:00","endTime":"22:00","trip_id":11105559}],"filteredStops":{"nodes":[3679283020,3679283022,1626983309,1626983192,3679283009,3679283005,3679282991,3679282975,3679282966,3679282963,3679282960,3679282961,3679282964,3679282976,3679282985,3679282990,3679282992,3679282989,3679282980,3679282956,12421398982,3679282944,3679282942,3679282938,3679282937,3679282940,3679282943,8261043746,1496873897,3657171128,3657171156,1626982869,1626983276,1626983031,3657171085,3657171084,1626982935,9462111407,3657171092,1626983169,1626983038,1626982713,1626982767,1626982603,1626982892,13378630832,3657171140,1626983019,3657171137,1626983137,3657171132,1626982956,1626983008,1626982883,4691143900,1626983290,3657171215,3657171221,1626982982,3657171238,1617351912,1617352143,1617352231,1617352204,3657170986,1617352237,12726527541,3657170922,1617352029,3657170865,3657170819,1617352185,11071526193,2022078143,3647863745,1617351953,3647863640,1617352024,1617351921,3647863399,6133714650,1617351930,13336382370,1617351960,1617352087,13159081859,3647863369,5314086255,13159081860,3311611301,13159082293,13159082294,1617352207,1617351967,5572609055,3112775842,13159081868,3017390017,3017390024,3017399355,2053282999,2053283013,2053282992,1617351928,5562916893,5572312912,1617352031,5572312910,3017390003,5572312907,5572312908,3017389995,3017399364,5565807974,3017399366,5625255128,3017389979,12998228694,1617352079,3017389964,3311610744,3311610741,12998235234,3017389965,12998228697,3017389966,12998235211,3311610724,3311610720,3017389967,2149916054,3017389961,3017389969,3017389960,2149899989,3017389951,3017389955,3017389958,3017389957,2149915999,3017389959,2149899993,2149899997,2149916042,2149900001,2149916026,2149899996,1637693347,2149916006,1638809446,3311610067,3311610066,1638809443,1638809439,1638809435,3307473564,3307473565,1499934256,2149916017,3307354191,1638831967,9191720004,2022073888,1499934157,1499934196,3306658845,12519463516,7768396064,7768396069,1637408408,12519463518,12519463519,1499573838,7768396132,13383715983,12519463525,12519463520,1497953244,13067849852,13067849842,4679599408,13067849850,3307231669,1499934219,1499934269,5433895293,1499934359,5433895295,5433999185,1499934373,5433999188,1499934251,3709607019,9131108047,3709607009,3709607006,3709607005,3709607002,5433895286,3709606976,11270427063,4770480910,3709606994,11722101401,5433895288,3709606955,9435142311,3017385048,9599936947,9599936935,5610210467,5610210466,5610210481,9139129393,5610210486,9131108111,9131108110,5610210482,5610210483,5610210485,5610210512,702511599,843383892,702511670,702511660,702511697,8236165731,2765190485,702511759,6129316876,6129316829,6471478536,5313058809,5313058790,6471287448,6471287453,6471287450,5313058818,5313058738,5313058812,5313058814,5313058816,6471287464,308300568,308300567,308300566,308300474,308300473,8238783213,648548911,3269819960,12081159183,1727306400,12081159182,3674274541,1727306404,3674274542,12081159193,1727306401,2398944652,2398944653,11679558744,7767900404,4929965568,1727306403,1865095006,2398944637,10921117778,2398944625,9566992862,315111204,9593572452,323969382,9593572449,10921117799,676069596,8099810036,9593560545,323969927,2266470191,9598863723,315111364,9955760904,9175513399,310500788,9175513400,9955760892,310500541,9955760893,5559683367,310499296,310499275,10879431899,310502624,10879431898,698492322,308297347,10879431901,10792253179,13131123327,308297348,10792253185,308297349,308297350,9515033287,315114806,8147129087,8147129088,2477244096,9604464113,315114810,2477244089,9536787287,8147129086,315108296,2312521741,315117174,2312521733,4965154817,2312521678,2312521648,10792253189,315117071,315108293,315108292,315108291,315108290,2196986709,2312521619,1636978207,2312521580,8143793610,1636978176,8143793591,2312521564,1636978150,1636978120,1636978110,2312521474,2312521463,2312521453,2312521440,2312521438,9163629233,1636952610,8143793575,2312521450,1636952611,843385443,3297079278,9163629260,2312521495,676069598,9163629263,9163629266,11079349297,11079424622,676069597,1636978099,1636978093,1636978087,1636978084,1636978082,6481891030,12956643101,8667184717,1636978075,598178961,9686979844,598179000,598179002,2602832696,598178947,9894887115,9894887116,598178945,598178943,5213287372,9686979826,5213287371,5213287365,9873615124,3250373497,5213287366,9343503238,2410715931,1718722271,9873593893,3250373483,1724886152,2602834679,9892523602,598178974,9894887104,9894887103,598178976,9894887117,598178980,8947856390,11079292075,1807038004,11045409857,9736311281,1724886238,2972424434,2972424331,2972424317,2972424305,9356030774,11079292076,6806412400,2972424293,2972424288,3593740854,2972424286,6806354338,2972424289,2972424290,2972424287,9736277883,9356030787,598178985,3296016834,598178927,9736277841,598178925,9021457174,6481891032,6481891031,9021456994,8997922788,9843437744,8997922789,3296016829,9843437742,2869785589,9021457007,9843437743,560437509,2869785590,8997922795,560437508,560437507,689437148,3017419917,689437146,560437506,2544300069,2544300066,2544300064,2381924820,7436277546,7436277547,7436277538,7436277539,7436277540,7436277541,6806297280,9018486819,7436277553,560437481,560437480,4984179016,4984179014,560437479,9018656417,2544300049,560437478,5353043947,9630553874,7143106014,9630553873,2544300021,9018989662,7143106017,2544300017,698492165,2544300016,9019031869,10798484788,698492168,9019031921,2147353042,9019031924,698492220,1723594028,698492234,3268355956,1807004186,809705375,809705520,9019031928,698492231,9019031922,809705224,689437111,3266371446,689437104,2147346919,689437094,9019031972,689437099,682374719,4984179008,4984179006,682384958,9019032005,4984179004,9019031994,2137733237,2744376497,560437463,9019032029,560437462,560437466,7996508749,9019032027,698491971,698491955,3265968154,3017419877,698491947,12980349472,560522449,560522440,12980349471,560522439,560522437,560084607,560437438,560437437,560437434,8508036728,3641793995,3641793994,560437433,8508027699,560437414,8508027700,560437410,560437413,560437409,560437425,3017419848,11071479569,11071479568,560437418,794098688],"coordinates":[[-66.1704611,-17.4526924],[-66.1703758,-17.4526996],[-66.1702807,-17.4526843],[-66.1701409,-17.4526407],[-66.1699481,-17.4525328],[-66.1698436,-17.4524723],[-66.1696174,-17.4523367],[-66.1695009,-17.4522811],[-66.1693295,-17.4522304],[-66.1692198,-17.4522042],[-66.1690948,-17.4521895],[-66.1689748,-17.4521944],[-66.168872,-17.4522157],[-66.1685584,-17.4522892],[-66.1684436,-17.4523187],[-66.1683356,-17.4523334],[-66.1682465,-17.4523416],[-66.1681472,-17.4523285],[-66.1680323,-17.4523007],[-66.1673298,-17.4520653],[-66.1669724,-17.4519483],[-66.1668654,-17.4519133],[-66.166754,-17.4518806],[-66.1666426,-17.4518642],[-66.166545,-17.4518577],[-66.1664713,-17.4518675],[-66.1663411,-17.4519035],[-66.1662155,-17.4519526],[-66.1661148,-17.4519869],[-66.165188,-17.4522942],[-66.1648478,-17.4524218],[-66.1647485,-17.4524345],[-66.1645307,-17.4523708],[-66.1633456,-17.4520487],[-66.1630376,-17.4519595],[-66.1629575,-17.45195],[-66.1628685,-17.4519497],[-66.1620153,-17.4520269],[-66.1618144,-17.4520451],[-66.1617141,-17.4520598],[-66.1616031,-17.4520883],[-66.1615192,-17.4521208],[-66.1612141,-17.4522936],[-66.1611407,-17.4523187],[-66.161054,-17.4523328],[-66.1607872,-17.4523421],[-66.1607259,-17.4523442],[-66.1606059,-17.4523532],[-66.1601656,-17.4523304],[-66.1594978,-17.452318],[-66.159092,-17.4523158],[-66.1586646,-17.4523139],[-66.1585256,-17.4523384],[-66.1582395,-17.4524446],[-66.1577716,-17.4525965],[-66.1573445,-17.4527454],[-66.1572965,-17.4527784],[-66.1572343,-17.4528407],[-66.1571303,-17.4529882],[-66.1566868,-17.4529453],[-66.155915,-17.4529217],[-66.1558222,-17.4522893],[-66.1556645,-17.451389],[-66.155625,-17.4509939],[-66.1556027,-17.4505567],[-66.1555867,-17.4499094],[-66.1555751,-17.4495084],[-66.1555631,-17.4491459],[-66.1555038,-17.4484813],[-66.1554891,-17.4483445],[-66.1554253,-17.4476267],[-66.155382,-17.4471557],[-66.1553809,-17.4471265],[-66.1553776,-17.4470071],[-66.1553778,-17.4469712],[-66.1553734,-17.4459507],[-66.1553722,-17.445906],[-66.1553276,-17.4448093],[-66.1552679,-17.4433436],[-66.1552738,-17.4429702],[-66.1552802,-17.4428608],[-66.1552931,-17.4427584],[-66.1553395,-17.4426824],[-66.1553466,-17.4426064],[-66.155329,-17.4423622],[-66.1553291,-17.442305],[-66.1553407,-17.442234],[-66.1553862,-17.4420901],[-66.1555119,-17.4418582],[-66.1555495,-17.4417984],[-66.1555757,-17.4417497],[-66.1555858,-17.4417222],[-66.1555887,-17.4416379],[-66.1567906,-17.4414501],[-66.1579204,-17.4412696],[-66.1579912,-17.4412558],[-66.1579734,-17.4411907],[-66.158026,-17.4401286],[-66.1580456,-17.4395745],[-66.1580588,-17.4390463],[-66.158087,-17.4384861],[-66.1581285,-17.4379443],[-66.1575345,-17.4379224],[-66.1569573,-17.4378971],[-66.1569986,-17.4372682],[-66.1570096,-17.4370228],[-66.1570181,-17.4368318],[-66.1570218,-17.436696],[-66.1570342,-17.436296],[-66.1570378,-17.4361815],[-66.1570508,-17.4359578],[-66.1570635,-17.4357364],[-66.1564468,-17.4357126],[-66.1564732,-17.4351466],[-66.1564992,-17.4346451],[-66.1565789,-17.4346477],[-66.1571651,-17.4346666],[-66.1571812,-17.434195],[-66.1571835,-17.4341263],[-66.1570768,-17.4341257],[-66.1570312,-17.434098],[-66.1570061,-17.4340645],[-66.1570007,-17.4340371],[-66.1569951,-17.4340086],[-66.1569985,-17.4339284],[-66.1570104,-17.4336487],[-66.1570176,-17.4336286],[-66.1570257,-17.4336061],[-66.157058,-17.4335809],[-66.1570971,-17.4335685],[-66.1571962,-17.4335706],[-66.1582476,-17.4336222],[-66.1582705,-17.433072],[-66.1582929,-17.4325328],[-66.158892,-17.4325651],[-66.1589199,-17.4319882],[-66.1583823,-17.4319383],[-66.1583914,-17.431775],[-66.1577723,-17.4317419],[-66.1577837,-17.4314009],[-66.1575908,-17.4313934],[-66.1572425,-17.4314058],[-66.1572732,-17.4308757],[-66.1572949,-17.4303315],[-66.1573212,-17.4297956],[-66.157332,-17.4295718],[-66.1573421,-17.4292244],[-66.1588603,-17.4292758],[-66.1588811,-17.4286724],[-66.1588943,-17.4283724],[-66.1589088,-17.4282701],[-66.1589346,-17.4281923],[-66.1589565,-17.4281325],[-66.1589878,-17.4280705],[-66.1590793,-17.4279675],[-66.1592069,-17.4278287],[-66.1591867,-17.4277439],[-66.159143,-17.42756],[-66.1589821,-17.4269791],[-66.1586595,-17.425793],[-66.158644,-17.4257254],[-66.1584892,-17.4250012],[-66.158388,-17.4245278],[-66.1582127,-17.4235733],[-66.1580844,-17.4227889],[-66.1580664,-17.4226868],[-66.1579302,-17.4218446],[-66.1579202,-17.4217826],[-66.1578639,-17.421693],[-66.1575823,-17.4212723],[-66.1575037,-17.4211406],[-66.1574675,-17.4210563],[-66.1574266,-17.4209428],[-66.1574399,-17.4205262],[-66.1574408,-17.4204939],[-66.1574454,-17.4203442],[-66.1574461,-17.4203231],[-66.1574491,-17.4202251],[-66.1574669,-17.4198247],[-66.157468,-17.4198008],[-66.1574726,-17.4196975],[-66.1574747,-17.4196456],[-66.1574989,-17.4190587],[-66.1574515,-17.4187016],[-66.1572813,-17.4176486],[-66.1571283,-17.4167263],[-66.1571127,-17.4166415],[-66.1571052,-17.4165892],[-66.1569325,-17.4157097],[-66.1569187,-17.4156285],[-66.1568994,-17.4155536],[-66.1567386,-17.4146025],[-66.1566729,-17.414405],[-66.1565732,-17.4138141],[-66.1565362,-17.4135945],[-66.1565144,-17.4135358],[-66.1564879,-17.4134988],[-66.1564599,-17.4134745],[-66.1562041,-17.4134241],[-66.1559132,-17.4133788],[-66.1557916,-17.4133586],[-66.1557552,-17.4133531],[-66.1556071,-17.4133243],[-66.1555752,-17.413315],[-66.1555265,-17.4133009],[-66.1554401,-17.4132586],[-66.1553389,-17.4132028],[-66.1550519,-17.4130447],[-66.1550281,-17.4130325],[-66.1548024,-17.4129164],[-66.1546499,-17.4128352],[-66.1539535,-17.4124837],[-66.1537674,-17.4123862],[-66.1536436,-17.4122825],[-66.1535673,-17.4121917],[-66.1535467,-17.4121411],[-66.1535373,-17.4121042],[-66.1535104,-17.411993],[-66.1535029,-17.4119093],[-66.1534726,-17.4104835],[-66.1534922,-17.4102744],[-66.153473,-17.4098585],[-66.1534302,-17.408289],[-66.1534037,-17.4075486],[-66.1533921,-17.4070536],[-66.1533606,-17.4061008],[-66.1533348,-17.4052833],[-66.153324,-17.4048628],[-66.1533227,-17.4048012],[-66.1532959,-17.4036075],[-66.1532969,-17.4035424],[-66.1532934,-17.4032094],[-66.1533194,-17.4031272],[-66.1533196,-17.4030749],[-66.1533203,-17.4029579],[-66.15332,-17.4028781],[-66.1533197,-17.4028096],[-66.1533193,-17.402737],[-66.1533222,-17.4026581],[-66.1533227,-17.4025723],[-66.1533255,-17.4025012],[-66.1533234,-17.4024287],[-66.1533238,-17.4023639],[-66.1533031,-17.4023036],[-66.1532722,-17.4014247],[-66.15325,-17.4007249],[-66.1532266,-17.3999032],[-66.1531973,-17.3991016],[-66.1531921,-17.398998],[-66.1531927,-17.3988455],[-66.1531945,-17.3987646],[-66.15417,-17.39898],[-66.1542283,-17.3989929],[-66.1542956,-17.3990088],[-66.1552473,-17.3992338],[-66.1553036,-17.3992471],[-66.1553477,-17.3992567],[-66.156378,-17.399481],[-66.1564374,-17.3994887],[-66.1564991,-17.3994953],[-66.1567559,-17.3994948],[-66.1569636,-17.399463],[-66.1571541,-17.3994401],[-66.1575712,-17.3993743],[-66.1576356,-17.3993655],[-66.1577347,-17.3993519],[-66.1578434,-17.3993362],[-66.1584393,-17.3992452],[-66.1584983,-17.3992362],[-66.158615,-17.3992272],[-66.1587124,-17.3992288],[-66.158764,-17.3992321],[-66.1591739,-17.3992577],[-66.1592816,-17.3992705],[-66.1593653,-17.3992744],[-66.1599967,-17.3993032],[-66.1600663,-17.3993136],[-66.1601608,-17.3993373],[-66.1603302,-17.3993931],[-66.160433,-17.3994267],[-66.1609953,-17.3995906],[-66.1610911,-17.3996185],[-66.1610973,-17.3995759],[-66.1612631,-17.3984368],[-66.1612698,-17.3983892],[-66.161278,-17.3983353],[-66.161425,-17.3973709],[-66.1614316,-17.3973275],[-66.1614408,-17.3972611],[-66.1615801,-17.3962551],[-66.1617448,-17.3952022],[-66.1618929,-17.3941121],[-66.1619959,-17.3935576],[-66.1620034,-17.3935174],[-66.162048,-17.3932145],[-66.1620531,-17.3931798],[-66.1620628,-17.3931073],[-66.1621604,-17.3931236],[-66.1627999,-17.3932302],[-66.1638761,-17.3934096],[-66.1639278,-17.3934182],[-66.1639915,-17.39343],[-66.1649209,-17.3936022],[-66.1659169,-17.3937793],[-66.1661485,-17.39382],[-66.1661971,-17.3938251],[-66.1662659,-17.3938073],[-66.1663006,-17.393787],[-66.1663255,-17.3937592],[-66.1663345,-17.3937303],[-66.1663354,-17.3936796],[-66.1663227,-17.393632],[-66.1663119,-17.3936069],[-66.1661542,-17.3932408],[-66.1660752,-17.392978],[-66.1659027,-17.3926285],[-66.1658615,-17.3925489],[-66.1658266,-17.3924777],[-66.1653393,-17.3915596],[-66.1651432,-17.3911969],[-66.1648508,-17.3906414],[-66.1647029,-17.3903728],[-66.1646584,-17.3902846],[-66.1642832,-17.3895382],[-66.1642398,-17.3894225],[-66.1642116,-17.3893035],[-66.1642083,-17.3891992],[-66.1642167,-17.3891029],[-66.1642407,-17.3889461],[-66.164254,-17.3888315],[-66.1642462,-17.3887564],[-66.1642257,-17.3886535],[-66.1642014,-17.3885626],[-66.1641672,-17.3884805],[-66.1641204,-17.388381],[-66.1640131,-17.3881625],[-66.1638767,-17.3878798],[-66.1637531,-17.3875993],[-66.1637591,-17.3875087],[-66.1637711,-17.3874641],[-66.1637993,-17.3874205],[-66.1638458,-17.3873837],[-66.1638892,-17.3873698],[-66.1639217,-17.3873669],[-66.1639627,-17.387372],[-66.1639882,-17.3873911],[-66.1640493,-17.3874581],[-66.164151,-17.3876314],[-66.1642245,-17.3877371],[-66.1642564,-17.3877652],[-66.1642896,-17.3877831],[-66.1643272,-17.3877922],[-66.1643848,-17.3877711],[-66.1644441,-17.3877488],[-66.1645162,-17.3877208],[-66.1648578,-17.3875809],[-66.1649018,-17.3875643],[-66.164924,-17.3875552],[-66.1650363,-17.3875237],[-66.1655829,-17.3873123],[-66.1657108,-17.3872507],[-66.1657931,-17.3871905],[-66.1658953,-17.3870972],[-66.1659533,-17.3870258],[-66.1659986,-17.3869648],[-66.1661071,-17.3868187],[-66.1663218,-17.3865558],[-66.1665707,-17.3862431],[-66.1666104,-17.3861957],[-66.1670888,-17.3856646],[-66.1675962,-17.3850394],[-66.1680279,-17.3855424],[-66.1683643,-17.3859622],[-66.1684075,-17.3860142],[-66.1684748,-17.3860952],[-66.168515,-17.3861436],[-66.1692085,-17.3869547],[-66.1691849,-17.3877265],[-66.1692981,-17.3877494],[-66.1693603,-17.3877557],[-66.170183,-17.3877917],[-66.1702253,-17.3877872],[-66.1702677,-17.3877762],[-66.1703618,-17.3877344],[-66.1703853,-17.3877057],[-66.1704146,-17.3876822],[-66.1704232,-17.3875961],[-66.170421,-17.3875459],[-66.1704102,-17.3874694],[-66.1703121,-17.3870072],[-66.1701787,-17.3863705],[-66.1700792,-17.3858762],[-66.1700915,-17.3857726],[-66.1700773,-17.3857043],[-66.1700451,-17.3855502],[-66.1700272,-17.3854642],[-66.1700096,-17.3853754],[-66.1698097,-17.3843673],[-66.1697396,-17.3840314],[-66.1697179,-17.383945],[-66.1696911,-17.3838601],[-66.1696589,-17.3837769],[-66.1696216,-17.3836957],[-66.1695831,-17.3836111],[-66.1695779,-17.3836077],[-66.169544,-17.3835751],[-66.1695227,-17.3835341],[-66.1695159,-17.3834887],[-66.1695246,-17.3834436],[-66.1695477,-17.3834035],[-66.1695518,-17.3833987],[-66.1695561,-17.3833941],[-66.1695931,-17.3833663],[-66.1696373,-17.3833509],[-66.1696843,-17.3833493],[-66.1697296,-17.3833616],[-66.1697411,-17.3833673],[-66.1697941,-17.383358],[-66.1698425,-17.3833535],[-66.1699256,-17.3833409],[-66.1700092,-17.3833219],[-66.1705347,-17.383184],[-66.1708107,-17.383105],[-66.171589,-17.3829013],[-66.1721956,-17.3827419],[-66.172794,-17.3825846],[-66.1741378,-17.3822358],[-66.1746654,-17.3820984],[-66.1747525,-17.3820731],[-66.1748021,-17.3820611],[-66.1751885,-17.381968],[-66.1752482,-17.381949],[-66.1753938,-17.381889],[-66.1754721,-17.3818687],[-66.1755706,-17.3818446],[-66.175669,-17.3818282],[-66.175803,-17.381812],[-66.1759129,-17.3818052],[-66.1760443,-17.3818111],[-66.176198,-17.3818316],[-66.1763611,-17.3818644],[-66.1764425,-17.3818874],[-66.1765583,-17.381925],[-66.1780298,-17.3823567],[-66.1787832,-17.3825769],[-66.1794707,-17.3827741],[-66.1800553,-17.3829345],[-66.180204,-17.38295],[-66.1804507,-17.3829476],[-66.180529,-17.3829489],[-66.1814669,-17.3829363],[-66.1815029,-17.3829334],[-66.1815848,-17.3829139],[-66.1816457,-17.382894],[-66.1816966,-17.382884],[-66.1817667,-17.3828816],[-66.1818244,-17.382894],[-66.1818904,-17.3829158],[-66.1819263,-17.382929],[-66.1819723,-17.3829389],[-66.1820387,-17.3829444],[-66.1827962,-17.3829294],[-66.1835651,-17.3829246],[-66.1838469,-17.3829228],[-66.1839679,-17.382922],[-66.1841292,-17.3829203],[-66.1843826,-17.3828958],[-66.1849898,-17.3828246],[-66.1850597,-17.3828146],[-66.1858256,-17.3826834],[-66.1858504,-17.3826792],[-66.1859155,-17.3826645],[-66.1859698,-17.3826448],[-66.1859908,-17.3825923],[-66.1860022,-17.382552],[-66.1861579,-17.3817211],[-66.1861986,-17.3816158],[-66.1862619,-17.3815039],[-66.1863308,-17.3814132],[-66.1863917,-17.3813483],[-66.1864264,-17.3813113],[-66.1876636,-17.3800831],[-66.1877383,-17.3800086],[-66.1882978,-17.3794405],[-66.1883743,-17.3793442],[-66.1882237,-17.3786421],[-66.1881294,-17.3782472],[-66.1886538,-17.3779965],[-66.1887473,-17.3779482],[-66.1887931,-17.3780062],[-66.1892292,-17.3783875],[-66.1893005,-17.378404],[-66.1893869,-17.378476],[-66.1894248,-17.3785211],[-66.1895101,-17.378666],[-66.1897024,-17.3797017],[-66.1898854,-17.3806033],[-66.18984,-17.3806168],[-66.1900809,-17.3816816],[-66.1902336,-17.3824527],[-66.190909,-17.3822998],[-66.1909511,-17.3822903],[-66.1919155,-17.3820763],[-66.1919562,-17.3820697],[-66.1927817,-17.3820048],[-66.1932123,-17.3819709],[-66.1932697,-17.3819658],[-66.1938317,-17.3819158],[-66.1941167,-17.3818956],[-66.1941665,-17.3818876],[-66.1942319,-17.3818654],[-66.1942957,-17.3818342],[-66.194335,-17.3818126],[-66.1944472,-17.3817507],[-66.1944911,-17.3818959],[-66.194561,-17.3827144],[-66.1945787,-17.3829387],[-66.194549,-17.3829966],[-66.1946328,-17.3839652],[-66.1946388,-17.384042],[-66.1949291,-17.3840529],[-66.1954424,-17.3840826],[-66.196159,-17.3841131],[-66.1962263,-17.3841467],[-66.1963806,-17.3841553],[-66.1964644,-17.3841778],[-66.1978007,-17.3840492],[-66.1984497,-17.383981],[-66.199003,-17.383923],[-66.199101,-17.3839219],[-66.2001449,-17.3838141],[-66.2012644,-17.3837038],[-66.2014284,-17.3836901],[-66.2017245,-17.3836654],[-66.2020777,-17.3836305],[-66.2027525,-17.3835905],[-66.203293,-17.3835606],[-66.203991,-17.3834712],[-66.2043957,-17.3834394],[-66.2051826,-17.3833804],[-66.2066875,-17.3832597],[-66.2067507,-17.3831945],[-66.2068535,-17.383058],[-66.2070718,-17.3827278],[-66.2077891,-17.38188],[-66.2078009,-17.3818422],[-66.2077974,-17.3818128],[-66.2080715,-17.3817742]]}}}]}