{"type":"FeatureCollection","features":[{"type":"Feature","properties":{"check_date":"29/12/2025","from":"Calle Camiri","name":"MiniBus 208: Calle Camiri → Quiros Rancho","network":"BO:CB:Cochabamba","on_demand":"yes","operator":"Sindicato mixto de trufibuses Vinto","public_transport:version":"2","ref":"208","route":"bus","to":"Quiros Rancho","type":"route","wheelchair":"no","id":11116711},"geometry":{"type":"LineString","coordinates":[[-66.1502303,-17.4127883],[-66.1503233,-17.4135876],[-66.1503342,-17.4137204],[-66.151189,-17.4132531],[-66.1511181,-17.4126965],[-66.1510765,-17.4123794],[-66.1509964,-17.4119104],[-66.1509598,-17.4115293],[-66.1508605,-17.4106406],[-66.150846,-17.410498],[-66.1508721,-17.4104334],[-66.1509236,-17.410392],[-66.1509758,-17.4103801],[-66.1510319,-17.4103847],[-66.1517886,-17.4108903],[-66.1526677,-17.4114626],[-66.1532692,-17.4118284],[-66.1533627,-17.41188],[-66.1533985,-17.411893],[-66.1534452,-17.4119012],[-66.1535029,-17.4119093],[-66.1534726,-17.4104835],[-66.1534922,-17.4102744],[-66.153473,-17.4098585],[-66.1534302,-17.408289],[-66.1534037,-17.4075486],[-66.1525781,-17.40757],[-66.1525507,-17.4075707],[-66.1516888,-17.4075963],[-66.1515162,-17.4076034],[-66.1508022,-17.4076298],[-66.1507125,-17.4076317],[-66.1499138,-17.4076377],[-66.1498946,-17.4076378],[-66.1498474,-17.4076292],[-66.1498107,-17.4076185],[-66.1497894,-17.4076383],[-66.1498063,-17.4076742],[-66.1498153,-17.4077101],[-66.1498518,-17.4088407],[-66.1498585,-17.4096343],[-66.1500246,-17.4097407],[-66.1501375,-17.4098088],[-66.1505664,-17.4100964],[-66.1517122,-17.4109129],[-66.1520489,-17.4111362],[-66.1522412,-17.4112605],[-66.1527414,-17.4115703],[-66.1539878,-17.4122767],[-66.1544409,-17.4125218],[-66.1546605,-17.4126411],[-66.1549246,-17.4127476],[-66.1551309,-17.4128636],[-66.1552374,-17.4129235],[-66.1554424,-17.4130209],[-66.1555455,-17.4130699],[-66.1556581,-17.4131116],[-66.1556714,-17.4130708],[-66.1557054,-17.4129662],[-66.1557789,-17.4122963],[-66.1558195,-17.4121594],[-66.1558299,-17.4120439],[-66.1558748,-17.411548],[-66.1559288,-17.4112041],[-66.1559541,-17.4110427],[-66.1559726,-17.4108067],[-66.1559939,-17.410651],[-66.1560665,-17.4101124],[-66.1561965,-17.4092904],[-66.1563245,-17.4083979],[-66.1563907,-17.4078971],[-66.1564025,-17.4077582],[-66.1564075,-17.4076741],[-66.1564172,-17.4075785],[-66.1564191,-17.4074706],[-66.1564511,-17.4073074],[-66.1565684,-17.4068749],[-66.1566275,-17.4065551],[-66.1566747,-17.4062922],[-66.1568802,-17.4051487],[-66.1569809,-17.4045918],[-66.1570686,-17.4040687],[-66.1570773,-17.404014],[-66.1572388,-17.4029048],[-66.1572759,-17.402622],[-66.157327,-17.4022321],[-66.1573377,-17.4021346],[-66.1574144,-17.4015643],[-66.1574614,-17.4011383],[-66.1574786,-17.4009863],[-66.1574843,-17.4009417],[-66.1576275,-17.3996977],[-66.1576328,-17.3995669],[-66.1576362,-17.3994821],[-66.1576356,-17.3993655],[-66.1577347,-17.3993519],[-66.1578434,-17.3993362],[-66.1584393,-17.3992452],[-66.1584983,-17.3992362],[-66.158615,-17.3992272],[-66.1587124,-17.3992288],[-66.158764,-17.3992321],[-66.1591739,-17.3992577],[-66.1592816,-17.3992705],[-66.1593653,-17.3992744],[-66.1599967,-17.3993032],[-66.1600663,-17.3993136],[-66.1601608,-17.3993373],[-66.1603302,-17.3993931],[-66.160433,-17.3994267],[-66.1609953,-17.3995906],[-66.1610911,-17.3996185],[-66.1612278,-17.3996562],[-66.1615876,-17.3997555],[-66.1618371,-17.399843],[-66.1619824,-17.3999132],[-66.1621329,-17.4000056],[-66.1622471,-17.4000935],[-66.1623448,-17.4001555],[-66.1624054,-17.4001839],[-66.1624734,-17.4002151],[-66.1624927,-17.4002145],[-66.1625631,-17.4001825],[-66.1626805,-17.4001316],[-66.1627789,-17.4000729],[-66.1633734,-17.3996728],[-66.1639365,-17.3992859],[-66.1639474,-17.3992784],[-66.1640723,-17.3991926],[-66.1641639,-17.3991275],[-66.1642244,-17.3990848],[-66.1643956,-17.3989638],[-66.1644471,-17.3989273],[-66.1645215,-17.3988766],[-66.1652342,-17.3983884],[-66.166064,-17.3978227],[-66.1661993,-17.3977303],[-66.1663691,-17.3976131],[-66.1669462,-17.3972147],[-66.1670559,-17.3971286],[-66.1671875,-17.3970265],[-66.1671946,-17.3970056],[-66.1672161,-17.3969725],[-66.1672473,-17.3969472],[-66.1672851,-17.3969323],[-66.1673259,-17.3969292],[-66.1673657,-17.3969382],[-66.1673767,-17.3969431],[-66.1673872,-17.3969489],[-66.1674439,-17.3969587],[-66.1675081,-17.3969663],[-66.1675463,-17.3969687],[-66.1679243,-17.3969026],[-66.1680127,-17.3968744],[-66.1680703,-17.3968301],[-66.1682924,-17.3966991],[-66.1683421,-17.3966796],[-66.1687595,-17.3965664],[-66.1689623,-17.3965375],[-66.1691496,-17.3965204],[-66.1692283,-17.3965168],[-66.1692803,-17.3965144],[-66.1693069,-17.3965132],[-66.1694121,-17.3965121],[-66.1706981,-17.3964801],[-66.1707149,-17.3964797],[-66.1706929,-17.3960242],[-66.1706755,-17.3954402],[-66.1706741,-17.3953947],[-66.1706734,-17.3953531],[-66.1706483,-17.3952289],[-66.1706326,-17.3948074],[-66.1706309,-17.3947623],[-66.1706293,-17.3947195],[-66.1706106,-17.3942277],[-66.1706063,-17.3941133],[-66.170605,-17.3940943],[-66.1705706,-17.3940823],[-66.1705409,-17.3940657],[-66.1705148,-17.3940446],[-66.1704928,-17.3940194],[-66.1704757,-17.393991],[-66.170464,-17.3939602],[-66.1704581,-17.3939279],[-66.1704581,-17.3938952],[-66.170464,-17.3938629],[-66.1704756,-17.3938321],[-66.1704926,-17.3938036],[-66.1705146,-17.3937784],[-66.1705407,-17.3937572],[-66.1705703,-17.3937406],[-66.1706025,-17.3937291],[-66.1706268,-17.3937242],[-66.1706515,-17.3937223],[-66.1706764,-17.3937233],[-66.1707008,-17.3937272],[-66.1707334,-17.3937374],[-66.170806,-17.3937167],[-66.170822,-17.3937126],[-66.170857,-17.3937045],[-66.1709593,-17.3936894],[-66.1723743,-17.3936297],[-66.173901,-17.3935555],[-66.1739037,-17.3935984],[-66.1739116,-17.3937198],[-66.1743585,-17.3937004],[-66.1744538,-17.3936962],[-66.1763118,-17.3936155],[-66.1764032,-17.3936115],[-66.1764525,-17.3936094],[-66.1765758,-17.393604],[-66.1768017,-17.3935944],[-66.1775114,-17.3935644],[-66.1785862,-17.3935123],[-66.1799782,-17.3934515],[-66.1809524,-17.3934044],[-66.1825074,-17.3933422],[-66.1841002,-17.3932783],[-66.1844521,-17.3932597],[-66.1864116,-17.3931714],[-66.1866393,-17.3931593],[-66.1874124,-17.3931268],[-66.1888567,-17.3930628],[-66.1892743,-17.3930444],[-66.1911252,-17.3929577],[-66.1921353,-17.3929072],[-66.1938986,-17.3928412],[-66.1947235,-17.3928088],[-66.1969299,-17.3927077],[-66.1970753,-17.3927008],[-66.1987218,-17.392627],[-66.1989338,-17.3926165],[-66.199474,-17.3925896],[-66.1995374,-17.3925864],[-66.1996008,-17.3925833],[-66.1996781,-17.39258],[-66.1998158,-17.3925734],[-66.2001909,-17.3925553],[-66.2025337,-17.3924534],[-66.2032418,-17.3924227],[-66.203618,-17.3924063],[-66.2050914,-17.3923528],[-66.2072128,-17.3922538],[-66.2074111,-17.3922446],[-66.2080046,-17.3922214],[-66.2080229,-17.3922206],[-66.2080916,-17.3922175],[-66.2081846,-17.3922143],[-66.2082887,-17.3922104],[-66.2085114,-17.3922021],[-66.2089727,-17.3921849],[-66.2091079,-17.392179],[-66.209809,-17.3921428],[-66.2099245,-17.3921368],[-66.210321,-17.392123],[-66.2103967,-17.392118],[-66.2111207,-17.3920846],[-66.212964,-17.3919997],[-66.2136675,-17.3919733],[-66.2143133,-17.391949],[-66.2154152,-17.3919077],[-66.2158619,-17.3918901],[-66.2168864,-17.3918417],[-66.2182483,-17.391766],[-66.2185741,-17.3917538],[-66.2193943,-17.3917164],[-66.2213267,-17.3916517],[-66.2215894,-17.3916389],[-66.2220618,-17.3916136],[-66.2233037,-17.3915541],[-66.2242367,-17.3915189],[-66.2245993,-17.3915051],[-66.2249474,-17.3914893],[-66.2258636,-17.3914462],[-66.2264962,-17.3914165],[-66.226663,-17.391409],[-66.2274214,-17.3913804],[-66.2284514,-17.3913315],[-66.2287988,-17.3913116],[-66.2291662,-17.3912966],[-66.2297343,-17.3912731],[-66.2297673,-17.3912717],[-66.2298409,-17.3912687],[-66.2300121,-17.3912616],[-66.2305661,-17.3912386],[-66.2320252,-17.3911775],[-66.2324271,-17.3911635],[-66.2336249,-17.3911146],[-66.2345974,-17.3910749],[-66.2363591,-17.3910045],[-66.2365822,-17.3909918],[-66.237921,-17.3909427],[-66.2382125,-17.3909071],[-66.2383299,-17.390888],[-66.2385075,-17.3908499],[-66.238539,-17.390845],[-66.2386552,-17.3908233],[-66.2386762,-17.3908128],[-66.2386987,-17.3908055],[-66.2387279,-17.3908011],[-66.2387574,-17.3908019],[-66.2387863,-17.390808],[-66.2389553,-17.3908324],[-66.2390359,-17.3908517],[-66.2391888,-17.3908644],[-66.2398993,-17.3908426],[-66.240912,-17.3908188],[-66.2411366,-17.390814],[-66.2420988,-17.3908022],[-66.2427852,-17.3907986],[-66.2435679,-17.3907949],[-66.2436525,-17.390786],[-66.2437193,-17.3907743],[-66.2437568,-17.3907665],[-66.2439573,-17.3907244],[-66.2444481,-17.3907345],[-66.2444669,-17.3907364],[-66.2446218,-17.3907623],[-66.2447073,-17.3907855],[-66.2447511,-17.3907996],[-66.2448526,-17.3908176],[-66.244949,-17.390826],[-66.2461527,-17.3908672],[-66.2462901,-17.3908757],[-66.2480066,-17.3909571],[-66.2484636,-17.3909797],[-66.2490276,-17.3910156],[-66.2494577,-17.3910255],[-66.2496164,-17.3910356],[-66.2499632,-17.3910579],[-66.2501971,-17.3910726],[-66.2502435,-17.3910755],[-66.2502905,-17.3910784],[-66.2504434,-17.391088],[-66.2506914,-17.3910616],[-66.2508008,-17.3910637],[-66.2508967,-17.3910763],[-66.2509344,-17.3910855],[-66.2509776,-17.3910961],[-66.2512161,-17.3911541],[-66.2513818,-17.3911859],[-66.2514689,-17.3911951],[-66.2526672,-17.3913123],[-66.2527928,-17.3913246],[-66.2542188,-17.3914622],[-66.2567501,-17.391716],[-66.2573333,-17.3917803],[-66.2577457,-17.3918257],[-66.2579393,-17.391844],[-66.2582763,-17.3918759],[-66.2590144,-17.3919395],[-66.2594909,-17.3919806],[-66.25952,-17.3919831],[-66.2595584,-17.3919864],[-66.2596428,-17.3919909],[-66.2601,-17.3920415],[-66.2603304,-17.3920654],[-66.2608025,-17.3921143],[-66.2620077,-17.392239],[-66.2643025,-17.3924716],[-66.2649633,-17.3925368],[-66.2662909,-17.3926642],[-66.2675492,-17.3927929],[-66.2678247,-17.3928199],[-66.2679871,-17.3928392],[-66.2680961,-17.3928518],[-66.2681726,-17.3928591],[-66.2682498,-17.3928669],[-66.2684282,-17.392885],[-66.2687823,-17.392921],[-66.2699511,-17.3930396],[-66.2701093,-17.3930492],[-66.2712023,-17.393158],[-66.2722402,-17.3932523],[-66.2723895,-17.3932515],[-66.2725216,-17.3932415],[-66.2726698,-17.3932388],[-66.272689,-17.3932258],[-66.2727154,-17.393213],[-66.2727381,-17.3932058],[-66.2727616,-17.3932016],[-66.2727854,-17.3932003],[-66.2728092,-17.393202],[-66.2728326,-17.3932068],[-66.2728551,-17.3932144],[-66.2728763,-17.3932248],[-66.2728916,-17.3932345],[-66.2729057,-17.3932457],[-66.2731599,-17.3932739],[-66.273306,-17.3932901],[-66.2734584,-17.393307],[-66.2742772,-17.393387],[-66.2744122,-17.3934011],[-66.2749658,-17.3934607],[-66.2756625,-17.3935319],[-66.2761702,-17.3935795],[-66.276919,-17.3936497],[-66.276929,-17.3936506],[-66.2770081,-17.3936583],[-66.2779056,-17.3937459],[-66.2780191,-17.3937577],[-66.2780498,-17.393761],[-66.2781005,-17.3937577],[-66.2781476,-17.3937681],[-66.2782028,-17.3937739],[-66.2783188,-17.3937856],[-66.2793687,-17.3938843],[-66.279509,-17.3938978],[-66.2805328,-17.393996],[-66.2806406,-17.3940055],[-66.2807486,-17.3940124],[-66.2815018,-17.3940605],[-66.2816,-17.3940668],[-66.2817091,-17.3940767],[-66.281799,-17.3940806],[-66.2829891,-17.3941538],[-66.2830834,-17.394157],[-66.2845815,-17.3942283],[-66.2846215,-17.3942302],[-66.2847138,-17.3942354],[-66.2860817,-17.394313],[-66.2861048,-17.3943143],[-66.2862367,-17.3943285],[-66.2862733,-17.3943251],[-66.2863096,-17.3943305],[-66.2865376,-17.3943356],[-66.286777,-17.3943491],[-66.2872857,-17.3943822],[-66.2886863,-17.39446],[-66.2895369,-17.3944924],[-66.2898312,-17.3945077],[-66.2903391,-17.394541],[-66.2906093,-17.3945595],[-66.291237,-17.3946027],[-66.2913548,-17.39461],[-66.2914228,-17.3946134],[-66.2917477,-17.3946266],[-66.2919362,-17.3946361],[-66.2940367,-17.3947654],[-66.2942753,-17.3947872],[-66.2947522,-17.3948437],[-66.2950412,-17.3948673],[-66.2952138,-17.3948744],[-66.2952782,-17.394877],[-66.2981362,-17.3950474],[-66.2985394,-17.3950711],[-66.2988629,-17.395089],[-66.3004517,-17.395164],[-66.3008112,-17.3951837],[-66.3008621,-17.3951865],[-66.3012742,-17.3952092],[-66.3013338,-17.3952121],[-66.3017818,-17.395237],[-66.3025167,-17.3952733],[-66.3038799,-17.395352],[-66.3048334,-17.3954013],[-66.3053498,-17.3954291],[-66.3058377,-17.3954545],[-66.306824,-17.395508],[-66.3075911,-17.3955487],[-66.3077258,-17.3955559],[-66.3081104,-17.3955756],[-66.3082254,-17.3955817],[-66.3089425,-17.3956194],[-66.30912,-17.3956287],[-66.3107412,-17.3957176],[-66.3109964,-17.3957333],[-66.3110565,-17.3957369],[-66.3112683,-17.3957491],[-66.3119894,-17.3957891],[-66.3123703,-17.3958093],[-66.312506,-17.3958166],[-66.3133959,-17.395865],[-66.3139572,-17.3958926],[-66.3141226,-17.3958989],[-66.3145069,-17.3959149],[-66.3146463,-17.395918],[-66.3152319,-17.3958914],[-66.3156932,-17.3958984],[-66.3157439,-17.3959008],[-66.3161161,-17.3959188],[-66.3161724,-17.3959215],[-66.316247,-17.3959253],[-66.3164331,-17.3959356],[-66.3165774,-17.395943],[-66.3168443,-17.3959598],[-66.3172293,-17.3959826],[-66.3178877,-17.3960833],[-66.3184016,-17.3961151],[-66.3193653,-17.3961646],[-66.3201386,-17.3962172],[-66.3204852,-17.3962454],[-66.3207448,-17.3962717],[-66.3207955,-17.3962783],[-66.3209654,-17.3963003],[-66.3211098,-17.3963241],[-66.3217274,-17.3964507],[-66.3222673,-17.3965979],[-66.3227172,-17.396734],[-66.3230918,-17.3968838],[-66.3235382,-17.3970786],[-66.3239313,-17.3972711],[-66.3240343,-17.3973201],[-66.3242435,-17.3974269],[-66.3247534,-17.3977485],[-66.32488,-17.3978352],[-66.3254305,-17.3981587],[-66.3255291,-17.3982223],[-66.325706,-17.3983425],[-66.3257098,-17.3983451],[-66.3257143,-17.3983481],[-66.3259915,-17.3983976],[-66.3260318,-17.3984029],[-66.326065,-17.3984073],[-66.3261312,-17.3984395],[-66.3261825,-17.3984907],[-66.3262134,-17.3985555],[-66.3262201,-17.3986266],[-66.3262018,-17.3986957],[-66.3261728,-17.3987415],[-66.3261328,-17.3987788],[-66.3260529,-17.3988155],[-66.3259643,-17.3988195],[-66.325896,-17.3987982],[-66.3258384,-17.3987572],[-66.3256463,-17.3989895],[-66.3255112,-17.3991456],[-66.3249413,-17.3995395],[-66.3248965,-17.3995725],[-66.3246742,-17.3997362],[-66.3244819,-17.3999203],[-66.3242803,-17.4002076],[-66.3240617,-17.4005073],[-66.3239711,-17.4006315],[-66.3239484,-17.4006781],[-66.3238495,-17.400881],[-66.3237892,-17.401052],[-66.3237676,-17.4011132],[-66.3236228,-17.4015912],[-66.3235478,-17.4019983],[-66.3235163,-17.4021188],[-66.3234647,-17.4025221],[-66.3233731,-17.4028319],[-66.3233192,-17.4029588],[-66.3232797,-17.4030107],[-66.3232145,-17.4030745],[-66.3231217,-17.403219],[-66.3229936,-17.403368],[-66.322952,-17.4034968],[-66.3229041,-17.4037377],[-66.322822,-17.4039132],[-66.3227795,-17.4039859],[-66.322588,-17.4042399],[-66.3223621,-17.4045441],[-66.3222719,-17.4047319],[-66.32224,-17.4048401],[-66.322158,-17.4047708],[-66.3220369,-17.4047066],[-66.3215354,-17.4044057],[-66.3214612,-17.40437],[-66.3213046,-17.4043475],[-66.3210248,-17.4042879],[-66.3207201,-17.4041864],[-66.3205644,-17.4047524],[-66.3205032,-17.4050549],[-66.3205001,-17.4052383],[-66.3205969,-17.4054943],[-66.3206312,-17.4056039],[-66.3206916,-17.4057582],[-66.3207953,-17.4060163],[-66.3208147,-17.406176],[-66.3208156,-17.4064034],[-66.3208096,-17.4066379],[-66.321215,-17.4075718],[-66.3210985,-17.4076362],[-66.320933,-17.4077158],[-66.3207711,-17.4077746],[-66.320407,-17.4079068],[-66.320618,-17.408306],[-66.3205801,-17.4083857],[-66.3208474,-17.4090311],[-66.3209728,-17.4091727],[-66.3210369,-17.4092896],[-66.3212641,-17.4097021],[-66.3216758,-17.410582],[-66.3221571,-17.4103996],[-66.3225686,-17.4101669],[-66.3228116,-17.4100691],[-66.322893,-17.4100363],[-66.3229608,-17.4100478],[-66.3230266,-17.4101177],[-66.3234663,-17.4110971],[-66.3235004,-17.4111886],[-66.3238549,-17.4121379],[-66.3238783,-17.4122239],[-66.3239184,-17.4121976],[-66.3242537,-17.4120741],[-66.3251003,-17.4120632],[-66.3250518,-17.4113662],[-66.3249854,-17.4112177],[-66.3260159,-17.4108108],[-66.3261615,-17.4107769],[-66.326517,-17.410769],[-66.3265697,-17.410768],[-66.3266176,-17.4107678]],"nodes":[2545423142,5495422922,2545423149,646065259,646065262,5610210872,5610210873,3017385033,9139129431,5610210874,6235286624,6235286622,6235286623,5610210828,8996505329,5610210465,5610210830,5610210833,9435142305,5610210835,5610210483,5610210485,5610210512,702511599,843383892,702511670,10923297987,702511672,702511667,8208217821,659960380,2768899137,11789289646,11789289645,11789289653,11789289655,2240938079,11789289665,11789289652,702511607,646072437,646072487,6338367052,5610210464,3315366879,702511593,5610210825,3709670995,5164453898,9599936942,3709671003,707336874,9599936944,2763553726,9435142307,2763553740,3709606930,11664399183,3709606929,3709606822,648534528,648541875,9131107850,10628476620,1499934333,2763553621,2763553615,560101173,843386144,2763553572,8226219193,2636956076,2763553565,2763553549,2763553542,702511616,2763553534,2763553531,8637299570,843383240,4127346519,310262303,9090462295,310262502,9652874529,310262503,9090462299,9652874536,8637329086,310262504,9593572483,8099780503,2398944655,315111095,1727306403,1865095006,2398944637,10921117778,2398944625,9566992862,315111204,9593572452,323969382,9593572449,10921117799,676069596,8099810036,9593560545,323969927,2266470191,9598863723,315111364,9598863715,2266470205,315111363,315111362,702511945,702511949,2280518053,9944343024,7899367256,2280518105,7899367255,2280518027,315111387,2483518901,9944330583,9025561515,2483518845,315112515,8015423524,8015423526,315112528,8015423527,2713599541,8667184644,323961416,8667184645,8015423583,315111481,2330755958,11070112181,2330755948,2330755943,2330755941,2330755942,11070112180,11069773600,2330755944,653091979,2330755946,2330755947,2330755940,653091989,2477244412,653093656,8272264729,653093658,12405192950,5156142116,8907982977,12405192960,653093660,8907982976,12405014008,2477244312,800043944,13432830728,800044124,12300469224,12300469223,13431520299,800044331,13431520298,660004649,13436362623,13416534072,13303071581,13416534060,13303071568,13416534059,13416534037,13303071569,13303071570,13416534038,13303071571,13303071572,13303071573,13416534041,13303071574,13416534039,13416534069,13416534040,13416534057,13416534034,13416534070,13303071587,13416534075,13416534076,13436362650,11081593218,563279519,563279515,2527263173,2527263184,2527263182,9081435138,13438103968,13438065396,563279499,2339557951,9081523771,2354386743,560522668,563279456,689437115,4398499281,6326490902,4398318267,4398499272,2635402927,2354386761,560522361,2292218251,2292218247,2418530992,5581228588,2418530981,2137733242,2137733243,1807038051,12650627924,8235455989,12650627935,1807038048,2354386770,2429829237,6846214146,11084175485,11084175483,6846214133,2417368043,11084175482,8200481419,8235936958,9374958478,5579061862,3641784408,8235936964,8235936932,2418530966,6845809618,11084175480,9241585477,3255507856,2417367882,11084175478,3255507852,11084175476,3255507849,560084503,560084507,3255507830,3255507821,9008269171,4158028115,794269983,4478225458,792630474,5605204668,2354386778,2354386781,794269932,11084175474,794269972,794269961,9008269167,5605232829,5605232823,8627399437,9786116630,9786116627,560084489,9786116634,8627399436,6282778240,794303535,10837430538,794303398,4586486623,794303570,4586487874,4586487873,8317038876,9008269189,8317038875,698491918,9355127775,7150288216,9355127774,792630390,698491877,9008269182,7933924058,698491863,792630233,785868153,6918618956,792630380,792630483,319773758,8630411872,10837513369,792630507,319773759,10837513367,319773760,8630411868,4586488214,8630411830,9008315709,319773761,4586488419,8316478466,7933924071,4317735512,3880715143,319773764,9008315784,9008315770,4650646887,3880715144,4650646888,7933924066,319773765,319773766,8310400080,8316478456,319773767,319773768,8310400066,319773138,10012571188,5870202500,3881280412,785868004,11084165269,4571961269,11031871495,5236806812,8316478290,12091174510,9262757165,8316478299,319772622,8316478289,8316478287,11084165260,785868517,4382907901,785868508,7931999285,11084165256,2138416891,9262757145,5870202368,5870202367,3195120410,785869180,2360589703,617337196,617337194,783869371,783870663,6179669345,3192787627,8048387329,8048387338,8048387339,2140912533,2140912536,9354911916,8048387327,9354911915,617337182,6917120250,8048387326,319771811,12706842541,12487415611,6917120244,783870340,8221419797,7527585416,783869019,8221419828,8221419837,783870788,8221419835,7527591099,7527591095,7527591091,783871023,7527591076,7527591094,7527591103,783871207,8221419844,6852610654,319771168,6852610653,6852610655,319771170,6852610658,3257962988,319771172,7535460542,12530467808,319770860,12530467807,12530441293,8221419852,3192787645,8221419851,5240483086,12530441286,3192787655,3192797868,781813790,782027439,7064468770,4414022403,6583288998,8117851279,10290549755,8221420007,3257962999,8117851278,319770868,782028626,5240483426,319770604,3811531652,11071380853,5242308080,7064447422,780226843,5242307788,5242307792,5242307797,5242307796,5242307790,5242307787,780226551,319770603,3257963026,1723606664,6751636072,4160023105,11393314253,6751636038,6751636043,11393314256,11077846675,7064447975,5242307737,5242307738,3257963027,5242307740,6751605314,6751605321,11877745766,11877737962,11877737958,6751636145,6179474641,5242307727,1723153067,4938882239,11877745773,11877745776,1934708846,7735246970,1934708810,12521648519,7064469387,1722992994,1934708874,1722973535,2533172994,1723140858,4414028794,10583691402,10583709339,319772454,10583709333,5080526123,1723121686,1722973537,6179471243,6352987786,319772448,3825811810,3825811809,319772443,7064462169,1722973542,3825811804,11069727146,12511412528,3825811805,6352666612,9072527095,6352666593,6352666594,6352666595,6352666590,6352666591,5070871658,6352666596,6298413547,6352666597,6352666598,6352666599,6179873427,3825811803,3825811802,3825811801,10634809665,6352666589,3825811800,3825811799,12044882775,3825811798,12044882777,3825811797,12044882773,10583709399,3825811796,3825811795,3825811794,3825811793,3825811792,9012683074,3825811791,3825811790,3825811789,3825811788,3825811787,1722885610,10583709409,6338167957,1722885630,1722885636,6298536647,1722885659,1722885656,1722885653,1722885632,10613334098,3821233578,1722885629,1722885617,1722943633,1722943643,1722943645,1722943650,7300995476,5165745549,1722943659,1722943660,7301007388,1722943668,1722943679,1722943691,1722943692,5165745532,1722943693,1722943706,1722943708,7300947590,1722943731,1722943743,11395374191,1722943778,1722943773,1722943770,4941417715,1722943768,7301007376,1722943767,1722943796,5165744921,7735246616,1722943829,1722943827,1722943825,1722943807,1722943798,6298536648,1722943789,1722943785,7929674743,1722943788,7735246619]},"gtfs":{"agency_id":4,"route_id":109,"services":[{"service_id":"Mo-Su","startTime":"06:00","endTime":"22:00","trip_id":11116711}],"filteredStops":{"nodes":[2545423142,5495422922,2545423149,646065259,646065262,5610210872,5610210873,3017385033,9139129431,5610210874,6235286624,6235286622,6235286623,5610210828,8996505329,5610210465,5610210830,5610210833,9435142305,5610210835,5610210483,5610210485,5610210512,702511599,843383892,702511670,10923297987,702511672,702511667,8208217821,659960380,2768899137,11789289646,11789289645,11789289653,11789289655,2240938079,11789289665,11789289652,702511607,646072437,646072487,6338367052,5610210464,3315366879,702511593,5610210825,3709670995,5164453898,9599936942,3709671003,707336874,9599936944,2763553726,9435142307,2763553740,3709606930,11664399183,3709606929,3709606822,648534528,648541875,9131107850,10628476620,1499934333,2763553621,2763553615,560101173,843386144,2763553572,8226219193,2636956076,2763553565,2763553549,2763553542,702511616,2763553534,2763553531,8637299570,843383240,4127346519,310262303,9090462295,310262502,9652874529,310262503,9090462299,9652874536,8637329086,310262504,9593572483,8099780503,2398944655,315111095,1727306403,1865095006,2398944637,10921117778,2398944625,9566992862,315111204,9593572452,323969382,9593572449,10921117799,676069596,8099810036,9593560545,323969927,2266470191,9598863723,315111364,9598863715,2266470205,315111363,315111362,702511945,702511949,2280518053,9944343024,7899367256,2280518105,7899367255,2280518027,315111387,2483518901,9944330583,9025561515,2483518845,315112515,8015423524,8015423526,315112528,8015423527,2713599541,8667184644,323961416,8667184645,8015423583,315111481,2330755958,11070112181,2330755948,2330755943,2330755941,2330755942,11070112180,11069773600,2330755944,653091979,2330755946,2330755947,2330755940,653091989,2477244412,653093656,8272264729,653093658,12405192950,5156142116,8907982977,12405192960,653093660,8907982976,12405014008,2477244312,800043944,13432830728,800044124,12300469224,12300469223,13431520299,800044331,13431520298,660004649,13436362623,13416534072,13303071581,13416534060,13303071568,13416534059,13416534037,13303071569,13303071570,13416534038,13303071571,13303071572,13303071573,13416534041,13303071574,13416534039,13416534069,13416534040,13416534057,13416534034,13416534070,13303071587,13416534075,13416534076,13436362650,11081593218,563279519,563279515,2527263173,2527263184,2527263182,9081435138,13438103968,13438065396,563279499,2339557951,9081523771,2354386743,560522668,563279456,689437115,4398499281,6326490902,4398318267,4398499272,2635402927,2354386761,560522361,2292218251,2292218247,2418530992,5581228588,2418530981,2137733242,2137733243,1807038051,12650627924,8235455989,12650627935,1807038048,2354386770,2429829237,6846214146,11084175485,11084175483,6846214133,2417368043,11084175482,8200481419,8235936958,9374958478,5579061862,3641784408,8235936964,8235936932,2418530966,6845809618,11084175480,9241585477,3255507856,2417367882,11084175478,3255507852,11084175476,3255507849,560084503,560084507,3255507830,3255507821,9008269171,4158028115,794269983,4478225458,792630474,5605204668,2354386778,2354386781,794269932,11084175474,794269972,794269961,9008269167,5605232829,5605232823,8627399437,9786116630,9786116627,560084489,9786116634,8627399436,6282778240,794303535,10837430538,794303398,4586486623,794303570,4586487874,4586487873,8317038876,9008269189,8317038875,698491918,9355127775,7150288216,9355127774,792630390,698491877,9008269182,7933924058,698491863,792630233,785868153,6918618956,792630380,792630483,319773758,8630411872,10837513369,792630507,319773759,10837513367,319773760,8630411868,4586488214,8630411830,9008315709,319773761,4586488419,8316478466,7933924071,4317735512,3880715143,319773764,9008315784,9008315770,4650646887,3880715144,4650646888,7933924066,319773765,319773766,8310400080,8316478456,319773767,319773768,8310400066,319773138,10012571188,5870202500,3881280412,785868004,11084165269,4571961269,11031871495,5236806812,8316478290,12091174510,9262757165,8316478299,319772622,8316478289,8316478287,11084165260,785868517,4382907901,785868508,7931999285,11084165256,2138416891,9262757145,5870202368,5870202367,3195120410,785869180,2360589703,617337196,617337194,783869371,783870663,6179669345,3192787627,8048387329,8048387338,8048387339,2140912533,2140912536,9354911916,8048387327,9354911915,617337182,6917120250,8048387326,319771811,12706842541,12487415611,6917120244,783870340,8221419797,7527585416,783869019,8221419828,8221419837,783870788,8221419835,7527591099,7527591095,7527591091,783871023,7527591076,7527591094,7527591103,783871207,8221419844,6852610654,319771168,6852610653,6852610655,319771170,6852610658,3257962988,319771172,7535460542,12530467808,319770860,12530467807,12530441293,8221419852,3192787645,8221419851,5240483086,12530441286,3192787655,3192797868,781813790,782027439,7064468770,4414022403,6583288998,8117851279,10290549755,8221420007,3257962999,8117851278,319770868,782028626,5240483426,319770604,3811531652,11071380853,5242308080,7064447422,780226843,5242307788,5242307792,5242307797,5242307796,5242307790,5242307787,780226551,319770603,3257963026,1723606664,6751636072,4160023105,11393314253,6751636038,6751636043,11393314256,11077846675,7064447975,5242307737,5242307738,3257963027,5242307740,6751605314,6751605321,11877745766,11877737962,11877737958,6751636145,6179474641,5242307727,1723153067,4938882239,11877745773,11877745776,1934708846,7735246970,1934708810,12521648519,7064469387,1722992994,1934708874,1722973535,2533172994,1723140858,4414028794,10583691402,10583709339,319772454,10583709333,5080526123,1723121686,1722973537,6179471243,6352987786,319772448,3825811810,3825811809,319772443,7064462169,1722973542,3825811804,11069727146,12511412528,3825811805,6352666612,9072527095,6352666593,6352666594,6352666595,6352666590,6352666591,5070871658,6352666596,6298413547,6352666597,6352666598,6352666599,6179873427,3825811803,3825811802,3825811801,10634809665,6352666589,3825811800,3825811799,12044882775,3825811798,12044882777,3825811797,12044882773,10583709399,3825811796,3825811795,3825811794,3825811793,3825811792,9012683074,3825811791,3825811790,3825811789,3825811788,3825811787,1722885610,10583709409,6338167957,1722885630,1722885636,6298536647,1722885659,1722885656,1722885653,1722885632,10613334098,3821233578,1722885629,1722885617,1722943633,1722943643,1722943645,1722943650,7300995476,5165745549,1722943659,1722943660,7301007388,1722943668,1722943679,1722943691,1722943692,5165745532,1722943693,1722943706,1722943708,7300947590,1722943731,1722943743,11395374191,1722943778,1722943773,1722943770,4941417715,1722943768,7301007376,1722943767,1722943796,5165744921,7735246616,1722943829,1722943827,1722943825,1722943807,1722943798,6298536648,1722943789,1722943785,7929674743,1722943788,7735246619],"coordinates":[[-66.1502303,-17.4127883],[-66.1503233,-17.4135876],[-66.1503342,-17.4137204],[-66.151189,-17.4132531],[-66.1511181,-17.4126965],[-66.1510765,-17.4123794],[-66.1509964,-17.4119104],[-66.1509598,-17.4115293],[-66.1508605,-17.4106406],[-66.150846,-17.410498],[-66.1508721,-17.4104334],[-66.1509236,-17.410392],[-66.1509758,-17.4103801],[-66.1510319,-17.4103847],[-66.1517886,-17.4108903],[-66.1526677,-17.4114626],[-66.1532692,-17.4118284],[-66.1533627,-17.41188],[-66.1533985,-17.411893],[-66.1534452,-17.4119012],[-66.1535029,-17.4119093],[-66.1534726,-17.4104835],[-66.1534922,-17.4102744],[-66.153473,-17.4098585],[-66.1534302,-17.408289],[-66.1534037,-17.4075486],[-66.1525781,-17.40757],[-66.1525507,-17.4075707],[-66.1516888,-17.4075963],[-66.1515162,-17.4076034],[-66.1508022,-17.4076298],[-66.1507125,-17.4076317],[-66.1499138,-17.4076377],[-66.1498946,-17.4076378],[-66.1498474,-17.4076292],[-66.1498107,-17.4076185],[-66.1497894,-17.4076383],[-66.1498063,-17.4076742],[-66.1498153,-17.4077101],[-66.1498518,-17.4088407],[-66.1498585,-17.4096343],[-66.1500246,-17.4097407],[-66.1501375,-17.4098088],[-66.1505664,-17.4100964],[-66.1517122,-17.4109129],[-66.1520489,-17.4111362],[-66.1522412,-17.4112605],[-66.1527414,-17.4115703],[-66.1539878,-17.4122767],[-66.1544409,-17.4125218],[-66.1546605,-17.4126411],[-66.1549246,-17.4127476],[-66.1551309,-17.4128636],[-66.1552374,-17.4129235],[-66.1554424,-17.4130209],[-66.1555455,-17.4130699],[-66.1556581,-17.4131116],[-66.1556714,-17.4130708],[-66.1557054,-17.4129662],[-66.1557789,-17.4122963],[-66.1558195,-17.4121594],[-66.1558299,-17.4120439],[-66.1558748,-17.411548],[-66.1559288,-17.4112041],[-66.1559541,-17.4110427],[-66.1559726,-17.4108067],[-66.1559939,-17.410651],[-66.1560665,-17.4101124],[-66.1561965,-17.4092904],[-66.1563245,-17.4083979],[-66.1563907,-17.4078971],[-66.1564025,-17.4077582],[-66.1564075,-17.4076741],[-66.1564172,-17.4075785],[-66.1564191,-17.4074706],[-66.1564511,-17.4073074],[-66.1565684,-17.4068749],[-66.1566275,-17.4065551],[-66.1566747,-17.4062922],[-66.1568802,-17.4051487],[-66.1569809,-17.4045918],[-66.1570686,-17.4040687],[-66.1570773,-17.404014],[-66.1572388,-17.4029048],[-66.1572759,-17.402622],[-66.157327,-17.4022321],[-66.1573377,-17.4021346],[-66.1574144,-17.4015643],[-66.1574614,-17.4011383],[-66.1574786,-17.4009863],[-66.1574843,-17.4009417],[-66.1576275,-17.3996977],[-66.1576328,-17.3995669],[-66.1576362,-17.3994821],[-66.1576356,-17.3993655],[-66.1577347,-17.3993519],[-66.1578434,-17.3993362],[-66.1584393,-17.3992452],[-66.1584983,-17.3992362],[-66.158615,-17.3992272],[-66.1587124,-17.3992288],[-66.158764,-17.3992321],[-66.1591739,-17.3992577],[-66.1592816,-17.3992705],[-66.1593653,-17.3992744],[-66.1599967,-17.3993032],[-66.1600663,-17.3993136],[-66.1601608,-17.3993373],[-66.1603302,-17.3993931],[-66.160433,-17.3994267],[-66.1609953,-17.3995906],[-66.1610911,-17.3996185],[-66.1612278,-17.3996562],[-66.1615876,-17.3997555],[-66.1618371,-17.399843],[-66.1619824,-17.3999132],[-66.1621329,-17.4000056],[-66.1622471,-17.4000935],[-66.1623448,-17.4001555],[-66.1624054,-17.4001839],[-66.1624734,-17.4002151],[-66.1624927,-17.4002145],[-66.1625631,-17.4001825],[-66.1626805,-17.4001316],[-66.1627789,-17.4000729],[-66.1633734,-17.3996728],[-66.1639365,-17.3992859],[-66.1639474,-17.3992784],[-66.1640723,-17.3991926],[-66.1641639,-17.3991275],[-66.1642244,-17.3990848],[-66.1643956,-17.3989638],[-66.1644471,-17.3989273],[-66.1645215,-17.3988766],[-66.1652342,-17.3983884],[-66.166064,-17.3978227],[-66.1661993,-17.3977303],[-66.1663691,-17.3976131],[-66.1669462,-17.3972147],[-66.1670559,-17.3971286],[-66.1671875,-17.3970265],[-66.1671946,-17.3970056],[-66.1672161,-17.3969725],[-66.1672473,-17.3969472],[-66.1672851,-17.3969323],[-66.1673259,-17.3969292],[-66.1673657,-17.3969382],[-66.1673767,-17.3969431],[-66.1673872,-17.3969489],[-66.1674439,-17.3969587],[-66.1675081,-17.3969663],[-66.1675463,-17.3969687],[-66.1679243,-17.3969026],[-66.1680127,-17.3968744],[-66.1680703,-17.3968301],[-66.1682924,-17.3966991],[-66.1683421,-17.3966796],[-66.1687595,-17.3965664],[-66.1689623,-17.3965375],[-66.1691496,-17.3965204],[-66.1692283,-17.3965168],[-66.1692803,-17.3965144],[-66.1693069,-17.3965132],[-66.1694121,-17.3965121],[-66.1706981,-17.3964801],[-66.1707149,-17.3964797],[-66.1706929,-17.3960242],[-66.1706755,-17.3954402],[-66.1706741,-17.3953947],[-66.1706734,-17.3953531],[-66.1706483,-17.3952289],[-66.1706326,-17.3948074],[-66.1706309,-17.3947623],[-66.1706293,-17.3947195],[-66.1706106,-17.3942277],[-66.1706063,-17.3941133],[-66.170605,-17.3940943],[-66.1705706,-17.3940823],[-66.1705409,-17.3940657],[-66.1705148,-17.3940446],[-66.1704928,-17.3940194],[-66.1704757,-17.393991],[-66.170464,-17.3939602],[-66.1704581,-17.3939279],[-66.1704581,-17.3938952],[-66.170464,-17.3938629],[-66.1704756,-17.3938321],[-66.1704926,-17.3938036],[-66.1705146,-17.3937784],[-66.1705407,-17.3937572],[-66.1705703,-17.3937406],[-66.1706025,-17.3937291],[-66.1706268,-17.3937242],[-66.1706515,-17.3937223],[-66.1706764,-17.3937233],[-66.1707008,-17.3937272],[-66.1707334,-17.3937374],[-66.170806,-17.3937167],[-66.170822,-17.3937126],[-66.170857,-17.3937045],[-66.1709593,-17.3936894],[-66.1723743,-17.3936297],[-66.173901,-17.3935555],[-66.1739037,-17.3935984],[-66.1739116,-17.3937198],[-66.1743585,-17.3937004],[-66.1744538,-17.3936962],[-66.1763118,-17.3936155],[-66.1764032,-17.3936115],[-66.1764525,-17.3936094],[-66.1765758,-17.393604],[-66.1768017,-17.3935944],[-66.1775114,-17.3935644],[-66.1785862,-17.3935123],[-66.1799782,-17.3934515],[-66.1809524,-17.3934044],[-66.1825074,-17.3933422],[-66.1841002,-17.3932783],[-66.1844521,-17.3932597],[-66.1864116,-17.3931714],[-66.1866393,-17.3931593],[-66.1874124,-17.3931268],[-66.1888567,-17.3930628],[-66.1892743,-17.3930444],[-66.1911252,-17.3929577],[-66.1921353,-17.3929072],[-66.1938986,-17.3928412],[-66.1947235,-17.3928088],[-66.1969299,-17.3927077],[-66.1970753,-17.3927008],[-66.1987218,-17.392627],[-66.1989338,-17.3926165],[-66.199474,-17.3925896],[-66.1995374,-17.3925864],[-66.1996008,-17.3925833],[-66.1996781,-17.39258],[-66.1998158,-17.3925734],[-66.2001909,-17.3925553],[-66.2025337,-17.3924534],[-66.2032418,-17.3924227],[-66.203618,-17.3924063],[-66.2050914,-17.3923528],[-66.2072128,-17.3922538],[-66.2074111,-17.3922446],[-66.2080046,-17.3922214],[-66.2080229,-17.3922206],[-66.2080916,-17.3922175],[-66.2081846,-17.3922143],[-66.2082887,-17.3922104],[-66.2085114,-17.3922021],[-66.2089727,-17.3921849],[-66.2091079,-17.392179],[-66.209809,-17.3921428],[-66.2099245,-17.3921368],[-66.210321,-17.392123],[-66.2103967,-17.392118],[-66.2111207,-17.3920846],[-66.212964,-17.3919997],[-66.2136675,-17.3919733],[-66.2143133,-17.391949],[-66.2154152,-17.3919077],[-66.2158619,-17.3918901],[-66.2168864,-17.3918417],[-66.2182483,-17.391766],[-66.2185741,-17.3917538],[-66.2193943,-17.3917164],[-66.2213267,-17.3916517],[-66.2215894,-17.3916389],[-66.2220618,-17.3916136],[-66.2233037,-17.3915541],[-66.2242367,-17.3915189],[-66.2245993,-17.3915051],[-66.2249474,-17.3914893],[-66.2258636,-17.3914462],[-66.2264962,-17.3914165],[-66.226663,-17.391409],[-66.2274214,-17.3913804],[-66.2284514,-17.3913315],[-66.2287988,-17.3913116],[-66.2291662,-17.3912966],[-66.2297343,-17.3912731],[-66.2297673,-17.3912717],[-66.2298409,-17.3912687],[-66.2300121,-17.3912616],[-66.2305661,-17.3912386],[-66.2320252,-17.3911775],[-66.2324271,-17.3911635],[-66.2336249,-17.3911146],[-66.2345974,-17.3910749],[-66.2363591,-17.3910045],[-66.2365822,-17.3909918],[-66.237921,-17.3909427],[-66.2382125,-17.3909071],[-66.2383299,-17.390888],[-66.2385075,-17.3908499],[-66.238539,-17.390845],[-66.2386552,-17.3908233],[-66.2386762,-17.3908128],[-66.2386987,-17.3908055],[-66.2387279,-17.3908011],[-66.2387574,-17.3908019],[-66.2387863,-17.390808],[-66.2389553,-17.3908324],[-66.2390359,-17.3908517],[-66.2391888,-17.3908644],[-66.2398993,-17.3908426],[-66.240912,-17.3908188],[-66.2411366,-17.390814],[-66.2420988,-17.3908022],[-66.2427852,-17.3907986],[-66.2435679,-17.3907949],[-66.2436525,-17.390786],[-66.2437193,-17.3907743],[-66.2437568,-17.3907665],[-66.2439573,-17.3907244],[-66.2444481,-17.3907345],[-66.2444669,-17.3907364],[-66.2446218,-17.3907623],[-66.2447073,-17.3907855],[-66.2447511,-17.3907996],[-66.2448526,-17.3908176],[-66.244949,-17.390826],[-66.2461527,-17.3908672],[-66.2462901,-17.3908757],[-66.2480066,-17.3909571],[-66.2484636,-17.3909797],[-66.2490276,-17.3910156],[-66.2494577,-17.3910255],[-66.2496164,-17.3910356],[-66.2499632,-17.3910579],[-66.2501971,-17.3910726],[-66.2502435,-17.3910755],[-66.2502905,-17.3910784],[-66.2504434,-17.391088],[-66.2506914,-17.3910616],[-66.2508008,-17.3910637],[-66.2508967,-17.3910763],[-66.2509344,-17.3910855],[-66.2509776,-17.3910961],[-66.2512161,-17.3911541],[-66.2513818,-17.3911859],[-66.2514689,-17.3911951],[-66.2526672,-17.3913123],[-66.2527928,-17.3913246],[-66.2542188,-17.3914622],[-66.2567501,-17.391716],[-66.2573333,-17.3917803],[-66.2577457,-17.3918257],[-66.2579393,-17.391844],[-66.2582763,-17.3918759],[-66.2590144,-17.3919395],[-66.2594909,-17.3919806],[-66.25952,-17.3919831],[-66.2595584,-17.3919864],[-66.2596428,-17.3919909],[-66.2601,-17.3920415],[-66.2603304,-17.3920654],[-66.2608025,-17.3921143],[-66.2620077,-17.392239],[-66.2643025,-17.3924716],[-66.2649633,-17.3925368],[-66.2662909,-17.3926642],[-66.2675492,-17.3927929],[-66.2678247,-17.3928199],[-66.2679871,-17.3928392],[-66.2680961,-17.3928518],[-66.2681726,-17.3928591],[-66.2682498,-17.3928669],[-66.2684282,-17.392885],[-66.2687823,-17.392921],[-66.2699511,-17.3930396],[-66.2701093,-17.3930492],[-66.2712023,-17.393158],[-66.2722402,-17.3932523],[-66.2723895,-17.3932515],[-66.2725216,-17.3932415],[-66.2726698,-17.3932388],[-66.272689,-17.3932258],[-66.2727154,-17.393213],[-66.2727381,-17.3932058],[-66.2727616,-17.3932016],[-66.2727854,-17.3932003],[-66.2728092,-17.393202],[-66.2728326,-17.3932068],[-66.2728551,-17.3932144],[-66.2728763,-17.3932248],[-66.2728916,-17.3932345],[-66.2729057,-17.3932457],[-66.2731599,-17.3932739],[-66.273306,-17.3932901],[-66.2734584,-17.393307],[-66.2742772,-17.393387],[-66.2744122,-17.3934011],[-66.2749658,-17.3934607],[-66.2756625,-17.3935319],[-66.2761702,-17.3935795],[-66.276919,-17.3936497],[-66.276929,-17.3936506],[-66.2770081,-17.3936583],[-66.2779056,-17.3937459],[-66.2780191,-17.3937577],[-66.2780498,-17.393761],[-66.2781005,-17.3937577],[-66.2781476,-17.3937681],[-66.2782028,-17.3937739],[-66.2783188,-17.3937856],[-66.2793687,-17.3938843],[-66.279509,-17.3938978],[-66.2805328,-17.393996],[-66.2806406,-17.3940055],[-66.2807486,-17.3940124],[-66.2815018,-17.3940605],[-66.2816,-17.3940668],[-66.2817091,-17.3940767],[-66.281799,-17.3940806],[-66.2829891,-17.3941538],[-66.2830834,-17.394157],[-66.2845815,-17.3942283],[-66.2846215,-17.3942302],[-66.2847138,-17.3942354],[-66.2860817,-17.394313],[-66.2861048,-17.3943143],[-66.2862367,-17.3943285],[-66.2862733,-17.3943251],[-66.2863096,-17.3943305],[-66.2865376,-17.3943356],[-66.286777,-17.3943491],[-66.2872857,-17.3943822],[-66.2886863,-17.39446],[-66.2895369,-17.3944924],[-66.2898312,-17.3945077],[-66.2903391,-17.394541],[-66.2906093,-17.3945595],[-66.291237,-17.3946027],[-66.2913548,-17.39461],[-66.2914228,-17.3946134],[-66.2917477,-17.3946266],[-66.2919362,-17.3946361],[-66.2940367,-17.3947654],[-66.2942753,-17.3947872],[-66.2947522,-17.3948437],[-66.2950412,-17.3948673],[-66.2952138,-17.3948744],[-66.2952782,-17.394877],[-66.2981362,-17.3950474],[-66.2985394,-17.3950711],[-66.2988629,-17.395089],[-66.3004517,-17.395164],[-66.3008112,-17.3951837],[-66.3008621,-17.3951865],[-66.3012742,-17.3952092],[-66.3013338,-17.3952121],[-66.3017818,-17.395237],[-66.3025167,-17.3952733],[-66.3038799,-17.395352],[-66.3048334,-17.3954013],[-66.3053498,-17.3954291],[-66.3058377,-17.3954545],[-66.306824,-17.395508],[-66.3075911,-17.3955487],[-66.3077258,-17.3955559],[-66.3081104,-17.3955756],[-66.3082254,-17.3955817],[-66.3089425,-17.3956194],[-66.30912,-17.3956287],[-66.3107412,-17.3957176],[-66.3109964,-17.3957333],[-66.3110565,-17.3957369],[-66.3112683,-17.3957491],[-66.3119894,-17.3957891],[-66.3123703,-17.3958093],[-66.312506,-17.3958166],[-66.3133959,-17.395865],[-66.3139572,-17.3958926],[-66.3141226,-17.3958989],[-66.3145069,-17.3959149],[-66.3146463,-17.395918],[-66.3152319,-17.3958914],[-66.3156932,-17.3958984],[-66.3157439,-17.3959008],[-66.3161161,-17.3959188],[-66.3161724,-17.3959215],[-66.316247,-17.3959253],[-66.3164331,-17.3959356],[-66.3165774,-17.395943],[-66.3168443,-17.3959598],[-66.3172293,-17.3959826],[-66.3178877,-17.3960833],[-66.3184016,-17.3961151],[-66.3193653,-17.3961646],[-66.3201386,-17.3962172],[-66.3204852,-17.3962454],[-66.3207448,-17.3962717],[-66.3207955,-17.3962783],[-66.3209654,-17.3963003],[-66.3211098,-17.3963241],[-66.3217274,-17.3964507],[-66.3222673,-17.3965979],[-66.3227172,-17.396734],[-66.3230918,-17.3968838],[-66.3235382,-17.3970786],[-66.3239313,-17.3972711],[-66.3240343,-17.3973201],[-66.3242435,-17.3974269],[-66.3247534,-17.3977485],[-66.32488,-17.3978352],[-66.3254305,-17.3981587],[-66.3255291,-17.3982223],[-66.325706,-17.3983425],[-66.3257098,-17.3983451],[-66.3257143,-17.3983481],[-66.3259915,-17.3983976],[-66.3260318,-17.3984029],[-66.326065,-17.3984073],[-66.3261312,-17.3984395],[-66.3261825,-17.3984907],[-66.3262134,-17.3985555],[-66.3262201,-17.3986266],[-66.3262018,-17.3986957],[-66.3261728,-17.3987415],[-66.3261328,-17.3987788],[-66.3260529,-17.3988155],[-66.3259643,-17.3988195],[-66.325896,-17.3987982],[-66.3258384,-17.3987572],[-66.3256463,-17.3989895],[-66.3255112,-17.3991456],[-66.3249413,-17.3995395],[-66.3248965,-17.3995725],[-66.3246742,-17.3997362],[-66.3244819,-17.3999203],[-66.3242803,-17.4002076],[-66.3240617,-17.4005073],[-66.3239711,-17.4006315],[-66.3239484,-17.4006781],[-66.3238495,-17.400881],[-66.3237892,-17.401052],[-66.3237676,-17.4011132],[-66.3236228,-17.4015912],[-66.3235478,-17.4019983],[-66.3235163,-17.4021188],[-66.3234647,-17.4025221],[-66.3233731,-17.4028319],[-66.3233192,-17.4029588],[-66.3232797,-17.4030107],[-66.3232145,-17.4030745],[-66.3231217,-17.403219],[-66.3229936,-17.403368],[-66.322952,-17.4034968],[-66.3229041,-17.4037377],[-66.322822,-17.4039132],[-66.3227795,-17.4039859],[-66.322588,-17.4042399],[-66.3223621,-17.4045441],[-66.3222719,-17.4047319],[-66.32224,-17.4048401],[-66.322158,-17.4047708],[-66.3220369,-17.4047066],[-66.3215354,-17.4044057],[-66.3214612,-17.40437],[-66.3213046,-17.4043475],[-66.3210248,-17.4042879],[-66.3207201,-17.4041864],[-66.3205644,-17.4047524],[-66.3205032,-17.4050549],[-66.3205001,-17.4052383],[-66.3205969,-17.4054943],[-66.3206312,-17.4056039],[-66.3206916,-17.4057582],[-66.3207953,-17.4060163],[-66.3208147,-17.406176],[-66.3208156,-17.4064034],[-66.3208096,-17.4066379],[-66.321215,-17.4075718],[-66.3210985,-17.4076362],[-66.320933,-17.4077158],[-66.3207711,-17.4077746],[-66.320407,-17.4079068],[-66.320618,-17.408306],[-66.3205801,-17.4083857],[-66.3208474,-17.4090311],[-66.3209728,-17.4091727],[-66.3210369,-17.4092896],[-66.3212641,-17.4097021],[-66.3216758,-17.410582],[-66.3221571,-17.4103996],[-66.3225686,-17.4101669],[-66.3228116,-17.4100691],[-66.322893,-17.4100363],[-66.3229608,-17.4100478],[-66.3230266,-17.4101177],[-66.3234663,-17.4110971],[-66.3235004,-17.4111886],[-66.3238549,-17.4121379],[-66.3238783,-17.4122239],[-66.3239184,-17.4121976],[-66.3242537,-17.4120741],[-66.3251003,-17.4120632],[-66.3250518,-17.4113662],[-66.3249854,-17.4112177],[-66.3260159,-17.4108108],[-66.3261615,-17.4107769],[-66.326517,-17.410769],[-66.3265697,-17.410768],[-66.3266176,-17.4107678]]}}}]}