{"type":"FeatureCollection","features":[{"type":"Feature","properties":{"check_date":"46167","from":"Calle Camiri","name":"MiniBus 208: Calle Camiri → Comunidad Montecato","network":"BO:CB:Cochabamba","on_demand":"yes","operator":"Sindicato mixto de trufibuses Vinto","public_transport:version":"2","ref":"208","route":"bus","to":"Comunidad Montecato","type":"route","wheelchair":"no","id":11116767},"geometry":{"type":"LineString","coordinates":[[-66.1502303,-17.412788300000003],[-66.15032330000001,-17.413587600000003],[-66.1503342,-17.413720400000003],[-66.151189,-17.413253100000002],[-66.1511181,-17.412696500000003],[-66.1510765,-17.412379400000003],[-66.15099640000001,-17.4119104],[-66.15095980000001,-17.4115293],[-66.15086050000001,-17.4106406],[-66.150846,-17.410498],[-66.1508721,-17.410433400000002],[-66.1509236,-17.410392],[-66.15097580000001,-17.4103801],[-66.1510319,-17.4103847],[-66.1517886,-17.410890300000002],[-66.15266770000001,-17.4114626],[-66.15326920000001,-17.4118284],[-66.1533627,-17.41188],[-66.15339850000001,-17.411893000000003],[-66.15344520000001,-17.411901200000003],[-66.1535029,-17.4119093],[-66.1534726,-17.4104835],[-66.1534922,-17.410274400000002],[-66.153473,-17.409858500000002],[-66.1534302,-17.408289],[-66.15340370000001,-17.407548600000002],[-66.1525781,-17.40757],[-66.1525507,-17.4075707],[-66.1516888,-17.4075963],[-66.1515162,-17.407603400000003],[-66.1508022,-17.407629800000002],[-66.15071250000001,-17.407631700000003],[-66.14991380000001,-17.407637700000002],[-66.14989460000001,-17.4076378],[-66.1498474,-17.407629200000002],[-66.1498107,-17.4076185],[-66.1497894,-17.407638300000002],[-66.14980630000001,-17.407674200000002],[-66.1498153,-17.407710100000003],[-66.14985180000001,-17.408840700000002],[-66.14985850000001,-17.4096343],[-66.15002460000001,-17.4097407],[-66.1501375,-17.4098088],[-66.1505664,-17.4100964],[-66.1517122,-17.410912900000003],[-66.15204890000001,-17.4111362],[-66.1522412,-17.4112605],[-66.15274140000001,-17.4115703],[-66.15398780000001,-17.412276700000003],[-66.15444090000001,-17.4125218],[-66.1546605,-17.412641100000002],[-66.1549246,-17.412747600000003],[-66.1551309,-17.4128636],[-66.1552374,-17.4129235],[-66.1554383,-17.4130287],[-66.15555420000001,-17.4130827],[-66.15566170000001,-17.4131113],[-66.155697,-17.412965200000002],[-66.1556984,-17.4129536],[-66.1557732,-17.4123291],[-66.1558054,-17.4122655],[-66.1558299,-17.4120439],[-66.1558748,-17.411548],[-66.15592880000001,-17.411204100000003],[-66.1559541,-17.411042700000003],[-66.15597260000001,-17.410806700000002],[-66.15599390000001,-17.410651],[-66.15606650000001,-17.410112400000003],[-66.15619650000001,-17.409290400000003],[-66.15632450000001,-17.4083979],[-66.1563907,-17.407897100000003],[-66.1564025,-17.4077582],[-66.1564075,-17.4076741],[-66.1564172,-17.407578500000003],[-66.15641910000001,-17.4074706],[-66.15645110000001,-17.4073074],[-66.15656840000001,-17.406874900000002],[-66.1566275,-17.406555100000002],[-66.15667470000001,-17.406292200000003],[-66.1568802,-17.4051487],[-66.15698090000001,-17.404591800000002],[-66.1570686,-17.4040687],[-66.15707730000001,-17.404014],[-66.1572388,-17.4029048],[-66.1572759,-17.402622],[-66.15732700000001,-17.402232100000003],[-66.1573377,-17.4021346],[-66.15741440000001,-17.4015643],[-66.1574614,-17.401138300000003],[-66.1574786,-17.400986300000003],[-66.15748430000001,-17.4009417],[-66.1576275,-17.3996977],[-66.1576328,-17.3995669],[-66.1576362,-17.3994821],[-66.1576356,-17.399365500000002],[-66.1577347,-17.399351900000003],[-66.1578434,-17.3993362],[-66.15843930000001,-17.399245200000003],[-66.1584983,-17.3992362],[-66.15861500000001,-17.399227200000002],[-66.1587124,-17.399228800000003],[-66.158764,-17.399232100000003],[-66.1591739,-17.399257700000003],[-66.1592816,-17.3992705],[-66.1593653,-17.399274400000003],[-66.15999670000001,-17.399303200000002],[-66.16006630000001,-17.399313600000003],[-66.1601608,-17.399337300000003],[-66.1603302,-17.3993931],[-66.16043300000001,-17.399426700000003],[-66.16099530000001,-17.3995906],[-66.16109110000001,-17.399618500000003],[-66.1612278,-17.399656200000003],[-66.1615876,-17.3997555],[-66.1618371,-17.399843],[-66.1619824,-17.3999132],[-66.1621329,-17.4000056],[-66.1622471,-17.4000935],[-66.1623448,-17.4001555],[-66.16240540000001,-17.400183900000002],[-66.16247340000001,-17.4002151],[-66.1624927,-17.4002145],[-66.1625631,-17.400182500000003],[-66.16268050000001,-17.4001316],[-66.1627789,-17.4000729],[-66.16337340000001,-17.3996728],[-66.1639365,-17.399285900000002],[-66.16394740000001,-17.3992784],[-66.1640723,-17.399192600000003],[-66.1641639,-17.399127500000002],[-66.16422440000001,-17.3990848],[-66.1643956,-17.3989638],[-66.1644471,-17.3989273],[-66.1645215,-17.3988766],[-66.1652342,-17.3983884],[-66.166064,-17.397822700000003],[-66.1661993,-17.397730300000003],[-66.16636910000001,-17.3976131],[-66.16694620000001,-17.397214700000003],[-66.16705590000001,-17.397128600000002],[-66.16718750000001,-17.397026500000003],[-66.1671946,-17.3970056],[-66.1672161,-17.3969725],[-66.1672473,-17.396947200000003],[-66.1672851,-17.396932300000003],[-66.16732590000001,-17.396929200000002],[-66.1673657,-17.3969382],[-66.1673767,-17.3969431],[-66.16738720000001,-17.3969489],[-66.16744390000001,-17.396958700000003],[-66.1675081,-17.396966300000003],[-66.16754630000001,-17.396968700000002],[-66.16792430000001,-17.3969026],[-66.1680127,-17.3968744],[-66.16807030000001,-17.396830100000003],[-66.16829240000001,-17.396699100000003],[-66.1683421,-17.396679600000002],[-66.16875950000001,-17.3965664],[-66.1689623,-17.3965375],[-66.16914960000001,-17.3965204],[-66.1692283,-17.3965168],[-66.16928030000001,-17.3965144],[-66.16930690000001,-17.3965132],[-66.1694121,-17.396512100000002],[-66.17069810000001,-17.3964801],[-66.17071490000001,-17.3964797],[-66.1706929,-17.396024200000003],[-66.1706755,-17.395440200000003],[-66.1706741,-17.3953947],[-66.17067340000001,-17.3953531],[-66.17064830000001,-17.395228900000003],[-66.1706326,-17.3948074],[-66.1706309,-17.3947623],[-66.1706293,-17.3947195],[-66.1706106,-17.394227700000002],[-66.1706063,-17.3941133],[-66.17060500000001,-17.394094300000003],[-66.1705706,-17.3940823],[-66.1705409,-17.394065700000002],[-66.1705148,-17.3940446],[-66.1704928,-17.3940194],[-66.17047570000001,-17.393991],[-66.17046400000001,-17.393960200000002],[-66.1704581,-17.3939279],[-66.1704581,-17.393895200000003],[-66.17046400000001,-17.393862900000002],[-66.1704756,-17.3938321],[-66.1704926,-17.393803600000002],[-66.1705146,-17.393778400000002],[-66.1705407,-17.393757200000003],[-66.17057030000001,-17.3937406],[-66.1706025,-17.3937291],[-66.17062680000001,-17.3937242],[-66.1706515,-17.3937223],[-66.1706764,-17.3937233],[-66.1707008,-17.3937272],[-66.1707334,-17.393737400000003],[-66.170806,-17.393716700000002],[-66.170822,-17.3937126],[-66.17085700000001,-17.393704500000002],[-66.1709593,-17.393689400000003],[-66.1723743,-17.3936297],[-66.17240770000001,-17.3936281],[-66.173901,-17.3935555],[-66.17390370000001,-17.393598400000002],[-66.17391160000001,-17.393719800000003],[-66.17435850000001,-17.3937004],[-66.17445380000001,-17.3936962],[-66.17631180000001,-17.393615500000003],[-66.17640320000001,-17.393611500000002],[-66.17645250000001,-17.393609400000003],[-66.17657580000001,-17.393604],[-66.17680170000001,-17.3935944],[-66.1775114,-17.393564400000002],[-66.17858620000001,-17.3935123],[-66.17997820000001,-17.3934515],[-66.18095240000001,-17.3934044],[-66.18222940000001,-17.393354000000002],[-66.18279650000001,-17.3933316],[-66.1841002,-17.393278300000002],[-66.1844521,-17.3932597],[-66.1864116,-17.3931714],[-66.18663930000001,-17.3931593],[-66.1874124,-17.3931268],[-66.1888567,-17.393062800000003],[-66.18927430000001,-17.3930444],[-66.1911252,-17.3929577],[-66.1921353,-17.3929072],[-66.19389860000001,-17.392841200000003],[-66.19472350000001,-17.3928088],[-66.1969299,-17.392707700000003],[-66.19707530000001,-17.3927008],[-66.1987218,-17.392627],[-66.1989338,-17.392616500000003],[-66.19947400000001,-17.3925896],[-66.19953740000001,-17.392586400000003],[-66.1996008,-17.392583300000002],[-66.1996781,-17.392580000000002],[-66.19981580000001,-17.3925734],[-66.20019090000001,-17.3925553],[-66.2025337,-17.3924534],[-66.2032418,-17.3924227],[-66.203618,-17.3924063],[-66.2050914,-17.3923528],[-66.20721280000001,-17.392253800000002],[-66.2074111,-17.3922446],[-66.20800460000001,-17.3922214],[-66.2080481,-17.392219500000003],[-66.2080916,-17.3922175],[-66.20818460000001,-17.392214300000003],[-66.20828870000001,-17.392210400000003],[-66.2085114,-17.392202100000002],[-66.20897260000001,-17.3921819],[-66.20910780000001,-17.392176000000003],[-66.21032100000001,-17.392123],[-66.2103967,-17.392118],[-66.2111208,-17.3920862],[-66.21296430000001,-17.3920053],[-66.2135903,-17.3919779],[-66.2143132,-17.391946100000002],[-66.21541470000001,-17.391897800000002],[-66.2157354,-17.3918837],[-66.2158613,-17.3918782],[-66.21687560000001,-17.391833700000003],[-66.2182449,-17.3917806],[-66.218646,-17.391763],[-66.2193292,-17.391737000000003],[-66.2193982,-17.391733300000002],[-66.21979680000001,-17.3917176],[-66.2213267,-17.3916517],[-66.2215894,-17.3916389],[-66.2220752,-17.391613600000003],[-66.2233037,-17.3915541],[-66.2242367,-17.3915189],[-66.22459930000001,-17.3915051],[-66.2249474,-17.3914893],[-66.22586360000001,-17.3914462],[-66.2264962,-17.391416500000002],[-66.226663,-17.391409000000003],[-66.22742140000001,-17.391380400000003],[-66.22845140000001,-17.391331500000003],[-66.2287988,-17.3913116],[-66.22916620000001,-17.3912966],[-66.2297343,-17.391273100000003],[-66.2297673,-17.3912717],[-66.2298409,-17.3912687],[-66.23001210000001,-17.3912616],[-66.2305661,-17.3912386],[-66.23202520000001,-17.3911775],[-66.23242710000001,-17.3911635],[-66.23362490000001,-17.3911146],[-66.23459740000001,-17.391074900000003],[-66.2363591,-17.3910045],[-66.2365822,-17.390991800000002],[-66.237921,-17.3909427],[-66.2382125,-17.390907100000003],[-66.23832990000001,-17.390888],[-66.23850750000001,-17.390849900000003],[-66.238539,-17.390845000000002],[-66.23865520000001,-17.3908233],[-66.2386762,-17.390812800000003],[-66.2386987,-17.390805500000003],[-66.2387279,-17.3908011],[-66.23875740000001,-17.390801900000003],[-66.2387863,-17.390808],[-66.2389553,-17.3908324],[-66.2390359,-17.390851700000002],[-66.23918880000001,-17.3908644],[-66.2398993,-17.390842600000003],[-66.24091200000001,-17.3908188],[-66.2411366,-17.390814000000002],[-66.24209880000001,-17.390802200000003],[-66.2427852,-17.3907986],[-66.2435679,-17.390794900000003],[-66.24365250000001,-17.390786000000002],[-66.24371930000001,-17.3907743],[-66.2437568,-17.3907665],[-66.2439573,-17.3907244],[-66.2444481,-17.3907345],[-66.2444669,-17.3907364],[-66.2446218,-17.390762300000002],[-66.2447073,-17.3907855],[-66.2447511,-17.3907996],[-66.2448526,-17.390817600000002],[-66.244949,-17.390826],[-66.24615270000001,-17.390867200000002],[-66.24629010000001,-17.390875700000002],[-66.24800660000001,-17.3909571],[-66.24846360000001,-17.390979700000003],[-66.2490276,-17.391015600000003],[-66.24945770000001,-17.3910255],[-66.24961640000001,-17.391035600000002],[-66.24996320000001,-17.3910579],[-66.25024350000001,-17.391075500000003],[-66.25044340000001,-17.391088],[-66.25069140000001,-17.3910616],[-66.25080080000001,-17.3910637],[-66.25089670000001,-17.3910763],[-66.2509344,-17.391085500000003],[-66.2509776,-17.391096100000002],[-66.25121610000001,-17.3911541],[-66.2513818,-17.3911859],[-66.2514689,-17.3911951],[-66.2526672,-17.391312300000003],[-66.25279280000001,-17.3913246],[-66.2542188,-17.391462200000003],[-66.2567501,-17.391716000000002],[-66.2573333,-17.3917803],[-66.2577457,-17.391825700000002],[-66.2579393,-17.391844000000003],[-66.2582763,-17.391875900000002],[-66.25901440000001,-17.391939500000003],[-66.2594909,-17.3919806],[-66.25952000000001,-17.3919831],[-66.2595584,-17.3919864],[-66.25964280000001,-17.391990900000003],[-66.26010000000001,-17.3920415],[-66.2603304,-17.3920654],[-66.26080250000001,-17.392114300000003],[-66.26200770000001,-17.392239],[-66.2643025,-17.3924716],[-66.2649633,-17.392536800000002],[-66.2662909,-17.392664200000002],[-66.2675492,-17.3927929],[-66.2678247,-17.392819900000003],[-66.26809610000001,-17.392851800000003],[-66.2681726,-17.392859100000003],[-66.2682498,-17.3928669],[-66.2684282,-17.392885000000003],[-66.26878230000001,-17.392921],[-66.26926060000001,-17.392969500000003],[-66.2699511,-17.3930396],[-66.2701093,-17.3930492],[-66.2712023,-17.393158000000003],[-66.2722402,-17.3932523],[-66.2723895,-17.3932515],[-66.2725216,-17.393241500000002],[-66.2726698,-17.393238800000002],[-66.272689,-17.393225800000003],[-66.27271540000001,-17.393213000000003],[-66.27273810000001,-17.3932058],[-66.27276160000001,-17.3932016],[-66.2727854,-17.3932003],[-66.27280920000001,-17.393202000000002],[-66.2728326,-17.3932068],[-66.2728551,-17.3932144],[-66.27287630000001,-17.393224800000002],[-66.27289160000001,-17.393234500000002],[-66.27290570000001,-17.3932457],[-66.27315990000001,-17.3932739],[-66.273306,-17.3932901],[-66.27345840000001,-17.393307],[-66.2742772,-17.393387],[-66.2744122,-17.393401100000002],[-66.2749658,-17.393460700000002],[-66.27566250000001,-17.393531900000003],[-66.27617020000001,-17.3935795],[-66.276919,-17.3936497],[-66.27692900000001,-17.3936506],[-66.2770081,-17.393658300000002],[-66.27790560000001,-17.393745900000003],[-66.27801910000001,-17.393757700000002],[-66.2780498,-17.393761],[-66.27810050000001,-17.393757700000002],[-66.27814760000001,-17.393768100000003],[-66.2782028,-17.393773900000003],[-66.27831880000001,-17.3937856],[-66.2793687,-17.3938843],[-66.279509,-17.3938978],[-66.2805328,-17.393996],[-66.28064060000001,-17.394005500000002],[-66.28074860000001,-17.3940124],[-66.2815018,-17.394060500000002],[-66.28160000000001,-17.3940668],[-66.2817091,-17.394076700000003],[-66.281799,-17.394080600000002],[-66.28298910000001,-17.3941538],[-66.28308340000001,-17.394157],[-66.2845815,-17.3942283],[-66.2846215,-17.394230200000003],[-66.2847138,-17.394235400000003],[-66.28608170000001,-17.394313],[-66.2861048,-17.3943143],[-66.2862367,-17.3943285],[-66.2862733,-17.394325100000003],[-66.28630960000001,-17.394330500000002],[-66.2865376,-17.3943356],[-66.286777,-17.394349100000003],[-66.28728570000001,-17.394382200000003],[-66.2879023,-17.394416500000002],[-66.28868630000001,-17.394460000000002],[-66.2895369,-17.3944924],[-66.28983120000001,-17.394507700000002],[-66.29033910000001,-17.394541],[-66.2906093,-17.394559500000003],[-66.29123700000001,-17.3946027],[-66.29135480000001,-17.39461],[-66.2914228,-17.3946134],[-66.2917477,-17.394626600000002],[-66.29193620000001,-17.394636100000003],[-66.2940367,-17.3947654],[-66.29427530000001,-17.394787200000003],[-66.2947522,-17.394843700000003],[-66.2950412,-17.3948673],[-66.2952138,-17.394874400000003],[-66.29527820000001,-17.394877],[-66.2981362,-17.395047400000003],[-66.29853940000001,-17.395071100000003],[-66.2988629,-17.395089000000002],[-66.30045170000001,-17.395164],[-66.30081120000001,-17.3951837],[-66.3008621,-17.3951865],[-66.30127420000001,-17.3952092],[-66.30133380000001,-17.395212100000002],[-66.3017818,-17.395237],[-66.30251670000001,-17.395273300000003],[-66.30387990000001,-17.395352000000003],[-66.3048334,-17.395401300000003],[-66.3053498,-17.3954291],[-66.30583770000001,-17.395454500000003],[-66.306824,-17.395508000000003],[-66.30759110000001,-17.395548700000003],[-66.3077258,-17.3955559],[-66.3081104,-17.3955756],[-66.30822540000001,-17.3955817],[-66.3089425,-17.3956194],[-66.30912000000001,-17.395628700000003],[-66.31074120000001,-17.3957176],[-66.31099640000001,-17.3957333],[-66.3110565,-17.395736900000003],[-66.31126830000001,-17.3957491],[-66.3119894,-17.395789100000002],[-66.31237030000001,-17.3958093],[-66.312506,-17.3958166],[-66.3133959,-17.395865],[-66.3139572,-17.3958926],[-66.3141226,-17.395898900000002],[-66.31450690000001,-17.3959149],[-66.3146463,-17.395918],[-66.3152319,-17.3958914],[-66.31569320000001,-17.3958984],[-66.3157439,-17.395900800000003],[-66.3161161,-17.3959188],[-66.3161724,-17.3959215],[-66.316247,-17.395925300000002],[-66.31643310000001,-17.3959356],[-66.3165774,-17.395943000000003],[-66.3168443,-17.3959598],[-66.31722930000001,-17.3959826],[-66.3178877,-17.3960833],[-66.3184016,-17.396115100000003],[-66.3193653,-17.396164600000002],[-66.3201386,-17.396217200000002],[-66.32048520000001,-17.3962454],[-66.3207448,-17.3962717],[-66.3207955,-17.396278300000002],[-66.3209654,-17.3963003],[-66.3211098,-17.3963241],[-66.3217274,-17.396450700000003],[-66.32226730000001,-17.396597900000003],[-66.3227172,-17.396734000000002],[-66.3230918,-17.3968838],[-66.3235382,-17.3970786],[-66.32393130000001,-17.3972711],[-66.32403430000001,-17.3973201],[-66.32424350000001,-17.397426900000003],[-66.3247534,-17.397748500000002],[-66.32488000000001,-17.397835200000003],[-66.32543050000001,-17.3981587],[-66.32552910000001,-17.3982223],[-66.32570600000001,-17.398342500000002],[-66.32570980000001,-17.3983451],[-66.3257143,-17.3983481],[-66.32585750000001,-17.398445600000002],[-66.32600120000001,-17.3985485],[-66.3262018,-17.3986957],[-66.32634610000001,-17.398823500000002],[-66.32656080000001,-17.3990137],[-66.326704,-17.3991344],[-66.3270279,-17.3994509],[-66.32726310000001,-17.3992979],[-66.3281863,-17.3987221],[-66.3283825,-17.3985798],[-66.3285316,-17.3984756],[-66.3297479,-17.3980065],[-66.3310198,-17.397527200000003],[-66.3311276,-17.397487],[-66.33243,-17.3969722],[-66.33278890000001,-17.396916],[-66.3334234,-17.3966889],[-66.3338202,-17.396492400000003],[-66.3341056,-17.3963679],[-66.33428640000001,-17.3963374],[-66.33471460000001,-17.3961235],[-66.33652230000001,-17.3952029],[-66.33751570000001,-17.3947442],[-66.33863930000001,-17.3942304],[-66.33904290000001,-17.394209],[-66.3391308,-17.394165400000002],[-66.3402721,-17.3925284],[-66.3403675,-17.3923966],[-66.3405201,-17.392109],[-66.3409426,-17.3915733],[-66.3410097,-17.391495000000003],[-66.341524,-17.3906627],[-66.34203090000001,-17.389866],[-66.34218,-17.389695300000003],[-66.34250800000001,-17.389297000000003],[-66.34265710000001,-17.3890409],[-66.3428956,-17.3886852],[-66.3433596,-17.3877129],[-66.3435482,-17.387475400000003],[-66.3440394,-17.3867796],[-66.34438130000001,-17.3862953],[-66.3446176,-17.385991],[-66.3452213,-17.385213800000002],[-66.34543000000001,-17.384929200000002],[-66.34569470000001,-17.3845752],[-66.3463036,-17.383794700000003],[-66.3467837,-17.383087900000003]],"nodes":[2545423142,5495422922,2545423149,646065259,646065262,5610210872,5610210873,3017385033,9139129431,5610210874,6235286624,6235286622,6235286623,5610210828,8996505329,5610210465,5610210830,5610210833,9435142305,5610210835,5610210483,5610210485,5610210512,702511599,843383892,702511670,10923297987,702511672,702511667,8208217821,659960380,2768899137,11789289646,11789289645,11789289653,11789289655,2240938079,11789289665,11789289652,702511607,646072437,646072487,6338367052,5610210464,3315366879,702511593,5610210825,3709670995,5164453898,9599936942,3709671003,707336874,9599936944,2763553726,9435142307,13764559469,3709606930,3709606929,13764586859,3709606822,648534528,648541875,9131107850,10628476620,1499934333,2763553621,2763553615,560101173,843386144,2763553572,8226219193,2636956076,2763553565,2763553549,2763553542,702511616,2763553534,2763553531,8637299570,843383240,4127346519,310262303,9090462295,310262502,9652874529,310262503,9090462299,9652874536,8637329086,310262504,9593572483,8099780503,2398944655,315111095,1727306403,1865095006,2398944637,10921117778,2398944625,9566992862,315111204,9593572452,323969382,9593572449,10921117799,676069596,8099810036,9593560545,323969927,2266470191,9598863723,315111364,9598863715,2266470205,315111363,315111362,702511945,702511949,2280518053,9944343024,7899367256,2280518105,7899367255,2280518027,315111387,2483518901,9944330583,9025561515,2483518845,315112515,8015423524,8015423526,315112528,8015423527,2713599541,8667184644,323961416,8667184645,8015423583,315111481,2330755958,11070112181,2330755948,2330755943,2330755941,2330755942,11070112180,11069773600,2330755944,653091979,2330755946,2330755947,2330755940,653091989,2477244412,653093656,8272264729,653093658,12405192950,5156142116,8907982977,12405192960,653093660,8907982976,12405014008,2477244312,800043944,13432830728,800044124,12300469224,12300469223,13431520299,800044331,13431520298,660004649,13436362623,13416534072,13303071581,13416534060,13303071568,13416534059,13416534037,13303071569,13303071570,13416534038,13303071571,13303071572,13303071573,13416534041,13303071574,13416534039,13416534069,13416534040,13416534057,13416534034,13416534070,13303071587,13416534075,13416534076,13436362650,11081593218,563279519,13879263584,563279515,2527263173,2527263184,2527263182,9081435138,13438103968,13438065396,563279499,2339557951,9081523771,2354386743,560522668,563279456,689437115,13847108974,4398499281,6326490902,4398318267,4398499272,2635402927,2354386761,560522361,2292218251,2292218247,2418530992,5581228588,2418530981,2137733242,2137733243,1807038051,12650627924,8235455989,12650627935,1807038048,2354386770,2429829237,6846214146,11084175485,11084175483,6846214133,2417368043,11084175482,8200481419,8235936958,13685730898,5579061862,3641784408,8235936964,8235936932,2418530966,6845809618,3255507856,2417367882,11084175478,3255507852,11084175476,3255507849,560084503,13760971210,560084507,3255507830,3255507821,13760954836,4158028115,13760954847,13760954837,794269983,4478225458,792630474,5605204668,2354386778,2354386781,794269932,11084175474,794269972,794269961,9008269167,5605232829,5605232823,8627399437,9786116630,9786116627,560084489,9786116634,8627399436,6282778240,794303535,10837430538,794303398,4586486623,794303570,4586487874,4586487873,8317038876,9008269189,8317038875,698491918,9355127775,7150288216,9355127774,792630390,698491877,9008269182,7933924058,698491863,792630233,785868153,6918618956,792630380,792630483,319773758,8630411872,10837513369,792630507,319773759,10837513367,319773760,8630411868,4586488214,8630411830,9008315709,319773761,4586488419,8316478466,7933924071,4317735512,3880715143,319773764,9008315784,9008315770,3880715144,7933924066,319773765,319773766,8310400080,8316478456,319773767,319773768,8310400066,319773138,10012571188,5870202500,3881280412,785868004,11084165269,4571961269,11031871495,5236806812,8316478290,12091174510,9262757165,8316478299,319772622,8316478289,8316478287,11084165260,785868517,4382907901,785868508,7931999285,11084165256,2138416891,5870202368,5870202367,3195120410,785869180,2360589703,13744093449,617337196,617337194,783869371,783870663,6179669345,3192787627,8048387329,8048387338,8048387339,2140912533,2140912536,9354911916,8048387327,9354911915,617337182,6917120250,8048387326,319771811,12706842541,12487415611,6917120244,783870340,8221419797,7527585416,783869019,8221419828,8221419837,783870788,8221419835,7527591099,7527591095,7527591091,783871023,7527591076,7527591094,7527591103,783871207,8221419844,6852610654,319771168,6852610653,6852610655,319771170,6852610658,3257962988,319771172,7535460542,12530467808,319770860,12530467807,12530441293,8221419852,3192787645,8221419851,5240483086,12530441286,3192787655,3192797868,13746246444,781813790,782027439,7064468770,4414022403,6583288998,8117851279,10290549755,8221420007,3257962999,8117851278,319770868,782028626,5240483426,319770604,3811531652,11071380853,5242308080,7064447422,780226843,5242307788,5242307792,5242307797,5242307796,5242307790,5242307787,780226551,319770603,3257963026,1723606664,6751636072,4160023105,11393314253,6751636038,6751636043,11393314256,11077846675,7064447975,5242307737,5242307738,3257963027,5242307740,6751605314,6751605321,11877745766,11877737962,11877737958,6751636145,6179474641,5242307727,1723153067,4938882239,11877745773,11877745776,1934708846,7735246970,1934708810,12521648519,7064469387,1722992994,1934708874,1722973535,2533172994,1723140858,4414028794,10583691402,10583709339,319772454,10583709333,5080526123,1723121686,1722973537,6179471243,6352987786,319772448,3825811810,3825811809,319772443,7064462169,1722973542,3825811804,11069727146,12511412528,3825811805,6179873422,1718238719,5070871658,12511412524,6352666607,6298413550,1722885563,1722885565,1722885555,1722885553,1722885542,7734947312,7734947314,7734947319,1722885534,1722885533,1722885529,1722885519,1722885495,1722885493,7734947429,4416824131,6991152369,1722885487,1722885486,1722885485,7060852340,1722885475,1722885451,1722885448,1722885446,1722885439,1722885431,1722885424,1722885415,1722885412,1722885405,1722885395,4449676322,6991159514,1722885389,6991159515,1722885383,1722885382,1722885380,9049017532,1722885375]},"gtfs":{"agency_id":4,"route_id":112,"services":[{"service_id":"Mo-Su","startTime":"06:00","endTime":"22:00","trip_id":11116767}],"filteredStops":{"nodes":[2545423142,5495422922,646065259,646065262,9139129431,6235286623,5610210833,5610210485,702511670,659960380,2768899137,2240938079,646072487,5610210825,707336874,3709606930,9131107850,560101173,2763553565,2763553531,9090462295,9652874536,315111095,1727306403,1865095006,10921117778,315111204,323969382,10921117799,8099810036,2266470191,315111364,2266470205,702511945,2280518053,7899367256,2280518027,2483518901,9025561515,315112515,315112528,2713599541,323961416,315111481,11070112181,2330755943,2330755942,2330755944,2330755946,2330755940,653093656,653093658,5156142116,12405192960,12405014008,800043944,800044124,13431520299,13431520298,13436362623,13416534060,13416534059,13303071569,13416534038,13303071573,13303071574,13416534069,13416534034,13303071587,13416534076,11081593218,563279515,2527263184,9081435138,563279499,9081523771,560522668,689437115,6326490902,4398499272,2354386761,2292218247,5581228588,2137733242,12650627924,12650627935,2354386770,6846214146,6846214133,11084175482,8235936958,3641784408,8235936932,6845809618,2417367882,11084175476,560084503,560084507,13760954836,13760954847,794269983,792630474,2354386781,11084175474,794269961,5605232823,9786116630,560084489,6282778240,10837430538,4586486623,4586487874,9008269189,698491918,7150288216,698491877,7933924058,792630233,6918618956,319773758,10837513369,319773759,8630411868,8630411830,319773761,8316478466,3880715143,9008315784,3880715144,319773766,8316478456,319773768,10012571188,3881280412,11084165269,11031871495,12091174510,8316478299,8316478289,785868517,785868508,11084165256,5870202368,785869180,13744093449,617337194,6179669345,8048387329,8048387339,9354911916,9354911915,6917120250,319771811,6917120244,8221419797,783869019,783870788,7527591099,7527591091,7527591076,783871207,6852610654,6852610653,6852610658,319771172,12530467808,12530467807,3192787645,5240483086,3192787655,781813790,7064468770,6583288998,8221420007,8117851278,782028626,319770604,5242308080,780226843,5242307792,5242307790,780226551,3257963026,6751636072,6751636038,11393314256,7064447975,3257963027,6751605314,11877745766,11877737958,5242307727,4938882239,11877745776,1934708810,7064469387,1934708874,1723140858,10583691402,319772454,5080526123,6179471243,319772448,3825811809,1722973542,11069727146,3825811805,1718238719,6352666607,1722885563,1722885555,7734947312,7734947319,1722885533,1722885519,7734947429,6991152369,1722885486,1722885475,1722885448,1722885439,1722885415,1722885405,4449676322,1722885389,1722885382,1722885375],"coordinates":[[-66.1502303,-17.412788300000003],[-66.15032330000001,-17.413587600000003],[-66.151189,-17.413253100000002],[-66.1511181,-17.412696500000003],[-66.15086050000001,-17.4106406],[-66.15097580000001,-17.4103801],[-66.1533627,-17.41188],[-66.1534726,-17.4104835],[-66.15340370000001,-17.407548600000002],[-66.1508022,-17.407629800000002],[-66.15071250000001,-17.407631700000003],[-66.1497894,-17.407638300000002],[-66.15002460000001,-17.4097407],[-66.1522412,-17.4112605],[-66.1549246,-17.412747600000003],[-66.15566170000001,-17.4131113],[-66.1558748,-17.411548],[-66.15606650000001,-17.410112400000003],[-66.1564075,-17.4076741],[-66.1566275,-17.406555100000002],[-66.15707730000001,-17.404014],[-66.15741440000001,-17.4015643],[-66.1576362,-17.3994821],[-66.1576356,-17.399365500000002],[-66.1577347,-17.399351900000003],[-66.15843930000001,-17.399245200000003],[-66.1587124,-17.399228800000003],[-66.1591739,-17.399257700000003],[-66.1593653,-17.399274400000003],[-66.16006630000001,-17.399313600000003],[-66.16043300000001,-17.399426700000003],[-66.16109110000001,-17.399618500000003],[-66.1615876,-17.3997555],[-66.1621329,-17.4000056],[-66.1623448,-17.4001555],[-66.16247340000001,-17.4002151],[-66.16268050000001,-17.4001316],[-66.16337340000001,-17.3996728],[-66.16394740000001,-17.3992784],[-66.1641639,-17.399127500000002],[-66.1644471,-17.3989273],[-66.1652342,-17.3983884],[-66.1661993,-17.397730300000003],[-66.16705590000001,-17.397128600000002],[-66.1671946,-17.3970056],[-66.1672473,-17.396947200000003],[-66.16732590000001,-17.396929200000002],[-66.16738720000001,-17.3969489],[-66.1675081,-17.396966300000003],[-66.16792430000001,-17.3969026],[-66.16829240000001,-17.396699100000003],[-66.16875950000001,-17.3965664],[-66.16914960000001,-17.3965204],[-66.16928030000001,-17.3965144],[-66.17069810000001,-17.3964801],[-66.1706929,-17.396024200000003],[-66.1706741,-17.3953947],[-66.1706326,-17.3948074],[-66.1706293,-17.3947195],[-66.1706063,-17.3941133],[-66.1705409,-17.394065700000002],[-66.1704928,-17.3940194],[-66.17046400000001,-17.393960200000002],[-66.1704581,-17.393895200000003],[-66.1704926,-17.393803600000002],[-66.1705407,-17.393757200000003],[-66.1706025,-17.3937291],[-66.1706764,-17.3937233],[-66.1707334,-17.393737400000003],[-66.170822,-17.3937126],[-66.1709593,-17.393689400000003],[-66.173901,-17.3935555],[-66.17391160000001,-17.393719800000003],[-66.17445380000001,-17.3936962],[-66.17645250000001,-17.393609400000003],[-66.17680170000001,-17.3935944],[-66.17858620000001,-17.3935123],[-66.18095240000001,-17.3934044],[-66.1841002,-17.393278300000002],[-66.1864116,-17.3931714],[-66.1874124,-17.3931268],[-66.1911252,-17.3929577],[-66.19389860000001,-17.392841200000003],[-66.1969299,-17.392707700000003],[-66.1989338,-17.392616500000003],[-66.19953740000001,-17.392586400000003],[-66.1996781,-17.392580000000002],[-66.20019090000001,-17.3925553],[-66.203618,-17.3924063],[-66.20721280000001,-17.392253800000002],[-66.20800460000001,-17.3922214],[-66.20818460000001,-17.392214300000003],[-66.2085114,-17.392202100000002],[-66.20910780000001,-17.392176000000003],[-66.2103967,-17.392118],[-66.2135903,-17.3919779],[-66.21541470000001,-17.391897800000002],[-66.2158613,-17.3918782],[-66.218646,-17.391763],[-66.2193982,-17.391733300000002],[-66.2213267,-17.3916517],[-66.2220752,-17.391613600000003],[-66.22459930000001,-17.3915051],[-66.22586360000001,-17.3914462],[-66.226663,-17.391409000000003],[-66.2287988,-17.3913116],[-66.2297343,-17.391273100000003],[-66.2298409,-17.3912687],[-66.23202520000001,-17.3911775],[-66.23362490000001,-17.3911146],[-66.2363591,-17.3910045],[-66.237921,-17.3909427],[-66.23850750000001,-17.390849900000003],[-66.23865520000001,-17.3908233],[-66.2386987,-17.390805500000003],[-66.2387863,-17.390808],[-66.2390359,-17.390851700000002],[-66.2398993,-17.390842600000003],[-66.2411366,-17.390814000000002],[-66.2435679,-17.390794900000003],[-66.24371930000001,-17.3907743],[-66.2439573,-17.3907244],[-66.2446218,-17.390762300000002],[-66.2447511,-17.3907996],[-66.244949,-17.390826],[-66.24629010000001,-17.390875700000002],[-66.2490276,-17.391015600000003],[-66.24961640000001,-17.391035600000002],[-66.25024350000001,-17.391075500000003],[-66.25080080000001,-17.3910637],[-66.2509344,-17.391085500000003],[-66.25121610000001,-17.3911541],[-66.2526672,-17.391312300000003],[-66.2542188,-17.391462200000003],[-66.2573333,-17.3917803],[-66.2579393,-17.391844000000003],[-66.2594909,-17.3919806],[-66.2595584,-17.3919864],[-66.26010000000001,-17.3920415],[-66.26200770000001,-17.392239],[-66.2649633,-17.392536800000002],[-66.2675492,-17.3927929],[-66.26809610000001,-17.392851800000003],[-66.2684282,-17.392885000000003],[-66.26926060000001,-17.392969500000003],[-66.2701093,-17.3930492],[-66.2723895,-17.3932515],[-66.2726698,-17.393238800000002],[-66.27271540000001,-17.393213000000003],[-66.2727854,-17.3932003],[-66.2728326,-17.3932068],[-66.27287630000001,-17.393224800000002],[-66.27290570000001,-17.3932457],[-66.27345840000001,-17.393307],[-66.2744122,-17.393401100000002],[-66.27566250000001,-17.393531900000003],[-66.27692900000001,-17.3936506],[-66.27790560000001,-17.393745900000003],[-66.2780498,-17.393761],[-66.27814760000001,-17.393768100000003],[-66.2793687,-17.3938843],[-66.2805328,-17.393996],[-66.28074860000001,-17.3940124],[-66.2817091,-17.394076700000003],[-66.28298910000001,-17.3941538],[-66.2845815,-17.3942283],[-66.2847138,-17.394235400000003],[-66.2862367,-17.3943285],[-66.28630960000001,-17.394330500000002],[-66.286777,-17.394349100000003],[-66.28868630000001,-17.394460000000002],[-66.28983120000001,-17.394507700000002],[-66.2906093,-17.394559500000003],[-66.2914228,-17.3946134],[-66.29193620000001,-17.394636100000003],[-66.29427530000001,-17.394787200000003],[-66.2950412,-17.3948673],[-66.2981362,-17.395047400000003],[-66.2988629,-17.395089000000002],[-66.30081120000001,-17.3951837],[-66.30133380000001,-17.395212100000002],[-66.30251670000001,-17.395273300000003],[-66.3048334,-17.395401300000003],[-66.30583770000001,-17.395454500000003],[-66.3077258,-17.3955559],[-66.30822540000001,-17.3955817],[-66.30912000000001,-17.395628700000003],[-66.3110565,-17.395736900000003],[-66.3119894,-17.395789100000002],[-66.312506,-17.3958166],[-66.3139572,-17.3958926],[-66.3146463,-17.395918],[-66.31569320000001,-17.3958984],[-66.3161161,-17.3959188],[-66.31643310000001,-17.3959356],[-66.3168443,-17.3959598],[-66.3178877,-17.3960833],[-66.3201386,-17.396217200000002],[-66.3207448,-17.3962717],[-66.3209654,-17.3963003],[-66.3217274,-17.396450700000003],[-66.3230918,-17.3968838],[-66.32393130000001,-17.3972711],[-66.32424350000001,-17.397426900000003],[-66.32543050000001,-17.3981587],[-66.32570600000001,-17.398342500000002],[-66.3257143,-17.3983481],[-66.32600120000001,-17.3985485],[-66.32656080000001,-17.3990137],[-66.3270279,-17.3994509],[-66.3281863,-17.3987221],[-66.3297479,-17.3980065],[-66.3311276,-17.397487],[-66.33278890000001,-17.396916],[-66.3338202,-17.396492400000003],[-66.33471460000001,-17.3961235],[-66.33751570000001,-17.3947442],[-66.33904290000001,-17.394209],[-66.3403675,-17.3923966],[-66.3409426,-17.3915733],[-66.341524,-17.3906627],[-66.34250800000001,-17.389297000000003],[-66.3428956,-17.3886852],[-66.3435482,-17.387475400000003],[-66.34438130000001,-17.3862953],[-66.34543000000001,-17.384929200000002],[-66.3467837,-17.383087900000003]]}}},{"type":"Feature","properties":{"bus":"yes","highway":"bus_stop","name":"Parada MiniBus 208","public_transport":"platform","id":7533561456},"geometry":{"type":"Point","coordinates":[-66.1502801,-17.4128244]}},{"type":"Feature","properties":{"bench":"no","bin":"no","bus":"yes","departures_board":"no","highway":"bus_stop","informal":"yes","kerb":"raised","level":"0","lit":"no","name":"Plaza Reforma Agraria","public_transport":"platform","shelter":"no","tactile_paving":"no","wheelchair":"no","id":8015423522},"geometry":{"type":"Point","coordinates":[-66.1643095,-17.398930500000002]}},{"type":"Feature","properties":{"bench":"yes","bin":"no","bus":"yes","departures_board":"no","highway":"bus_stop","level":"0","lit":"no","name":"Automóvil Club Boliviano","operator":"Administradora Boliviana de Carreteras","operator:short":"ABC","operator:type":"public","public_transport":"platform","shelter":"yes","tactile_paving":"no","wheelchair":"no","id":5238905983},"geometry":{"type":"Point","coordinates":[-66.17446050000001,-17.393606400000003]}},{"type":"Feature","properties":{"addr:city":"Vinto","bench":"no","bus":"yes","covered":"no","departures_board":"no","highway":"bus_stop","name":"Parada 208","public_transport":"platform","shelter":"no","id":7535523330},"geometry":{"type":"Point","coordinates":[-66.3468392,-17.383219800000003]}},{"type":"Feature","properties":{"bench":"yes","bin":"no","bus":"yes","departures_board":"no","highway":"bus_stop","level":"0","lit":"no","loc_name":"KM 4","name":"Avenida Segunda","operator":"Administradora Boliviana de Carreteras","operator:short":"ABC","operator:type":"public","public_transport":"platform","shelter":"yes","tactile_paving":"no","wheelchair":"no","id":2418530979},"geometry":{"type":"Point","coordinates":[-66.19508040000001,-17.3927015]}}]}