{"type":"FeatureCollection","features":[{"type":"Feature","properties":{"check_date":"29/12/2025","from":"Calle Litoral","name":"MiniBus 201: Calle Litoral → Calle Francisco Anaya","network":"BO:CB:Cochabamba","on_demand":"yes","operator":"Sindicato mixto transporte Urkupiña","public_transport:version":"2","ref":"201","route":"bus","to":"Calle Francisco Anaya","type":"route","wheelchair":"no","id":11118282},"geometry":{"type":"LineString","coordinates":[[-66.1417116,-17.3999523],[-66.1417535,-17.3999587],[-66.1419329,-17.3999861],[-66.142208,-17.4000272],[-66.142426,-17.3990847],[-66.1419213,-17.3990187],[-66.1412178,-17.3989232],[-66.1411635,-17.3989158],[-66.1410698,-17.3989026],[-66.1407435,-17.3988568],[-66.1406343,-17.3988414],[-66.1405517,-17.3988298],[-66.1396259,-17.3986937],[-66.1396562,-17.3986281],[-66.1398933,-17.3981152],[-66.1399786,-17.3979321],[-66.1407077,-17.3963364],[-66.1407354,-17.3962758],[-66.1407681,-17.3962043],[-66.1414542,-17.3947032],[-66.141484,-17.3946387],[-66.1415059,-17.3945896],[-66.1417752,-17.3940245],[-66.1418082,-17.3939294],[-66.1417898,-17.3939184],[-66.1417762,-17.3939047],[-66.1417677,-17.3938909],[-66.1417617,-17.3938721],[-66.1417608,-17.3938522],[-66.1417652,-17.3938328],[-66.141775,-17.3938147],[-66.1417888,-17.3938],[-66.1418057,-17.3937894],[-66.1418248,-17.3937831],[-66.1418395,-17.3937814],[-66.1418543,-17.3937823],[-66.1418779,-17.3937896],[-66.141893,-17.3937988],[-66.1419055,-17.393811],[-66.141917,-17.3938301],[-66.1419226,-17.3938534],[-66.1419205,-17.3938773],[-66.1419595,-17.3939217],[-66.1425597,-17.3946913],[-66.1429237,-17.3951433],[-66.1431094,-17.3953528],[-66.1432772,-17.3955556],[-66.1434016,-17.3956819],[-66.1437902,-17.3960495],[-66.1440656,-17.3962608],[-66.1443118,-17.3964434],[-66.1445746,-17.3966099],[-66.1448217,-17.3967514],[-66.1451356,-17.3969281],[-66.1453947,-17.3970572],[-66.1457425,-17.3972348],[-66.1467847,-17.3977645],[-66.1474569,-17.3981037],[-66.1476723,-17.3982059],[-66.1478288,-17.398264],[-66.1480011,-17.3983085],[-66.1481566,-17.3983362],[-66.1483155,-17.3983579],[-66.148511,-17.3983678],[-66.148558,-17.3983726],[-66.1499487,-17.3984764],[-66.1505885,-17.398518],[-66.1510902,-17.3984566],[-66.1519487,-17.3984139],[-66.1520104,-17.3984159],[-66.1520931,-17.3984305],[-66.1522191,-17.398466],[-66.1523644,-17.398521],[-66.1526616,-17.3986303],[-66.1527528,-17.3986605],[-66.1527737,-17.3986674],[-66.1531067,-17.3987465],[-66.1531945,-17.3987646],[-66.15417,-17.39898],[-66.1542283,-17.3989929],[-66.1542956,-17.3990088],[-66.1552473,-17.3992338],[-66.1553036,-17.3992471],[-66.1553477,-17.3992567],[-66.156378,-17.399481],[-66.1564374,-17.3994887],[-66.1564991,-17.3994953],[-66.1567559,-17.3994948],[-66.1569636,-17.399463],[-66.1571541,-17.3994401],[-66.1575712,-17.3993743],[-66.1576356,-17.3993655],[-66.1577347,-17.3993519],[-66.1578434,-17.3993362],[-66.1584393,-17.3992452],[-66.1584983,-17.3992362],[-66.158615,-17.3992272],[-66.1587124,-17.3992288],[-66.158764,-17.3992321],[-66.1591739,-17.3992577],[-66.1592816,-17.3992705],[-66.1593653,-17.3992744],[-66.1599967,-17.3993032],[-66.1600663,-17.3993136],[-66.1601608,-17.3993373],[-66.1603302,-17.3993931],[-66.160433,-17.3994267],[-66.1609953,-17.3995906],[-66.1610911,-17.3996185],[-66.1612278,-17.3996562],[-66.1615876,-17.3997555],[-66.1618371,-17.399843],[-66.1619824,-17.3999132],[-66.1621329,-17.4000056],[-66.1622471,-17.4000935],[-66.1623448,-17.4001555],[-66.1624054,-17.4001839],[-66.1624734,-17.4002151],[-66.1624927,-17.4002145],[-66.1625631,-17.4001825],[-66.1626805,-17.4001316],[-66.1627789,-17.4000729],[-66.1633734,-17.3996728],[-66.1639365,-17.3992859],[-66.1639474,-17.3992784],[-66.1640723,-17.3991926],[-66.1641639,-17.3991275],[-66.1642244,-17.3990848],[-66.1643956,-17.3989638],[-66.1644471,-17.3989273],[-66.1645215,-17.3988766],[-66.1652342,-17.3983884],[-66.166064,-17.3978227],[-66.1661993,-17.3977303],[-66.1663691,-17.3976131],[-66.1669462,-17.3972147],[-66.1670559,-17.3971286],[-66.1671875,-17.3970265],[-66.1671946,-17.3970056],[-66.1672161,-17.3969725],[-66.1672473,-17.3969472],[-66.1672851,-17.3969323],[-66.1673259,-17.3969292],[-66.1673657,-17.3969382],[-66.1673767,-17.3969431],[-66.1673872,-17.3969489],[-66.1674439,-17.3969587],[-66.1675081,-17.3969663],[-66.1675463,-17.3969687],[-66.1679243,-17.3969026],[-66.1680127,-17.3968744],[-66.1680703,-17.3968301],[-66.1682924,-17.3966991],[-66.1683421,-17.3966796],[-66.1687595,-17.3965664],[-66.1689623,-17.3965375],[-66.1691496,-17.3965204],[-66.1692283,-17.3965168],[-66.1692803,-17.3965144],[-66.1693069,-17.3965132],[-66.1694121,-17.3965121],[-66.1706981,-17.3964801],[-66.1707149,-17.3964797],[-66.1706929,-17.3960242],[-66.1706755,-17.3954402],[-66.1706741,-17.3953947],[-66.1706734,-17.3953531],[-66.1706483,-17.3952289],[-66.1706326,-17.3948074],[-66.1706309,-17.3947623],[-66.1706293,-17.3947195],[-66.1706106,-17.3942277],[-66.1706063,-17.3941133],[-66.170605,-17.3940943],[-66.1705706,-17.3940823],[-66.1705409,-17.3940657],[-66.1705148,-17.3940446],[-66.1704928,-17.3940194],[-66.1704757,-17.393991],[-66.170464,-17.3939602],[-66.1704581,-17.3939279],[-66.1704581,-17.3938952],[-66.170464,-17.3938629],[-66.1704756,-17.3938321],[-66.1704926,-17.3938036],[-66.1705146,-17.3937784],[-66.1705407,-17.3937572],[-66.1705703,-17.3937406],[-66.1706025,-17.3937291],[-66.1706268,-17.3937242],[-66.1706515,-17.3937223],[-66.1706764,-17.3937233],[-66.1707008,-17.3937272],[-66.1707334,-17.3937374],[-66.170806,-17.3937167],[-66.170822,-17.3937126],[-66.170857,-17.3937045],[-66.1709593,-17.3936894],[-66.1723743,-17.3936297],[-66.173901,-17.3935555],[-66.1739037,-17.3935984],[-66.1739116,-17.3937198],[-66.1743585,-17.3937004],[-66.1744538,-17.3936962],[-66.1763118,-17.3936155],[-66.1764032,-17.3936115],[-66.1764525,-17.3936094],[-66.1765758,-17.393604],[-66.1768017,-17.3935944],[-66.1775114,-17.3935644],[-66.1785862,-17.3935123],[-66.1799782,-17.3934515],[-66.1809524,-17.3934044],[-66.1825074,-17.3933422],[-66.1841002,-17.3932783],[-66.1844521,-17.3932597],[-66.1864116,-17.3931714],[-66.1866393,-17.3931593],[-66.1874124,-17.3931268],[-66.1888567,-17.3930628],[-66.1892743,-17.3930444],[-66.1911252,-17.3929577],[-66.1921353,-17.3929072],[-66.1938986,-17.3928412],[-66.1947235,-17.3928088],[-66.1969299,-17.3927077],[-66.1970753,-17.3927008],[-66.1987218,-17.392627],[-66.1989338,-17.3926165],[-66.199474,-17.3925896],[-66.1995374,-17.3925864],[-66.1996008,-17.3925833],[-66.1996781,-17.39258],[-66.1998158,-17.3925734],[-66.2001909,-17.3925553],[-66.2025337,-17.3924534],[-66.2032418,-17.3924227],[-66.203618,-17.3924063],[-66.2050914,-17.3923528],[-66.2072128,-17.3922538],[-66.2074111,-17.3922446],[-66.2080046,-17.3922214],[-66.2080229,-17.3922206],[-66.2080916,-17.3922175],[-66.2081846,-17.3922143],[-66.2082887,-17.3922104],[-66.2085114,-17.3922021],[-66.2089727,-17.3921849],[-66.2091079,-17.392179],[-66.209809,-17.3921428],[-66.2099245,-17.3921368],[-66.210321,-17.392123],[-66.2103967,-17.392118],[-66.2111207,-17.3920846],[-66.212964,-17.3919997],[-66.2136675,-17.3919733],[-66.2143133,-17.391949],[-66.2154152,-17.3919077],[-66.2158619,-17.3918901],[-66.2168864,-17.3918417],[-66.2182483,-17.391766],[-66.2185741,-17.3917538],[-66.2193943,-17.3917164],[-66.2213267,-17.3916517],[-66.2215894,-17.3916389],[-66.2220618,-17.3916136],[-66.2233037,-17.3915541],[-66.2242367,-17.3915189],[-66.2245993,-17.3915051],[-66.2249474,-17.3914893],[-66.2258636,-17.3914462],[-66.2264962,-17.3914165],[-66.226663,-17.391409],[-66.2274214,-17.3913804],[-66.2284514,-17.3913315],[-66.2287988,-17.3913116],[-66.2291662,-17.3912966],[-66.2297343,-17.3912731],[-66.2297673,-17.3912717],[-66.2298409,-17.3912687],[-66.2300121,-17.3912616],[-66.2305661,-17.3912386],[-66.2320252,-17.3911775],[-66.2324271,-17.3911635],[-66.2336249,-17.3911146],[-66.2345974,-17.3910749],[-66.2363591,-17.3910045],[-66.2365822,-17.3909918],[-66.237921,-17.3909427],[-66.2382125,-17.3909071],[-66.2383299,-17.390888],[-66.2385075,-17.3908499],[-66.238539,-17.390845],[-66.2386552,-17.3908233],[-66.2386762,-17.3908128],[-66.2386987,-17.3908055],[-66.2387279,-17.3908011],[-66.2387574,-17.3908019],[-66.2387863,-17.390808],[-66.2389553,-17.3908324],[-66.2390359,-17.3908517],[-66.2391888,-17.3908644],[-66.2398993,-17.3908426],[-66.240912,-17.3908188],[-66.2411366,-17.390814],[-66.2420988,-17.3908022],[-66.2427852,-17.3907986],[-66.2435679,-17.3907949],[-66.2436525,-17.390786],[-66.2437193,-17.3907743],[-66.2437568,-17.3907665],[-66.2439573,-17.3907244],[-66.2444481,-17.3907345],[-66.2444669,-17.3907364],[-66.2446218,-17.3907623],[-66.2447073,-17.3907855],[-66.2447511,-17.3907996],[-66.2448526,-17.3908176],[-66.244949,-17.390826],[-66.2461527,-17.3908672],[-66.2462901,-17.3908757],[-66.2480066,-17.3909571],[-66.2484636,-17.3909797],[-66.2490276,-17.3910156],[-66.2494577,-17.3910255],[-66.2496164,-17.3910356],[-66.2499632,-17.3910579],[-66.2501971,-17.3910726],[-66.2502435,-17.3910755],[-66.2502905,-17.3910784],[-66.2504434,-17.391088],[-66.2506914,-17.3910616],[-66.2508008,-17.3910637],[-66.2508967,-17.3910763],[-66.2509344,-17.3910855],[-66.2509776,-17.3910961],[-66.2512161,-17.3911541],[-66.2513818,-17.3911859],[-66.2514689,-17.3911951],[-66.2526672,-17.3913123],[-66.2527928,-17.3913246],[-66.2542188,-17.3914622],[-66.2567501,-17.391716],[-66.2573333,-17.3917803],[-66.2577457,-17.3918257],[-66.2579393,-17.391844],[-66.2582763,-17.3918759],[-66.2590144,-17.3919395],[-66.2594909,-17.3919806],[-66.25952,-17.3919831],[-66.2595584,-17.3919864],[-66.2596428,-17.3919909],[-66.2601,-17.3920415],[-66.2603304,-17.3920654],[-66.2608025,-17.3921143],[-66.2620077,-17.392239],[-66.2643025,-17.3924716],[-66.2649633,-17.3925368],[-66.2662909,-17.3926642],[-66.2675492,-17.3927929],[-66.2678247,-17.3928199],[-66.2679871,-17.3928392],[-66.2680961,-17.3928518],[-66.2681726,-17.3928591],[-66.2682498,-17.3928669],[-66.2684282,-17.392885],[-66.2687823,-17.392921],[-66.2699511,-17.3930396],[-66.2701093,-17.3930492],[-66.2712023,-17.393158],[-66.2722402,-17.3932523],[-66.2723895,-17.3932515],[-66.2725216,-17.3932415],[-66.2726698,-17.3932388],[-66.272689,-17.3932258],[-66.2727154,-17.393213],[-66.2727381,-17.3932058],[-66.2727616,-17.3932016],[-66.2727854,-17.3932003],[-66.2728092,-17.393202],[-66.2728326,-17.3932068],[-66.2728551,-17.3932144],[-66.2728763,-17.3932248],[-66.2728916,-17.3932345],[-66.2729057,-17.3932457],[-66.2731599,-17.3932739],[-66.273306,-17.3932901],[-66.2734584,-17.393307],[-66.2742772,-17.393387],[-66.2744122,-17.3934011],[-66.2749658,-17.3934607],[-66.2756625,-17.3935319],[-66.2761702,-17.3935795],[-66.276919,-17.3936497],[-66.276929,-17.3936506],[-66.2770081,-17.3936583],[-66.2779056,-17.3937459],[-66.2780191,-17.3937577],[-66.2780498,-17.393761],[-66.2781005,-17.3937577],[-66.2781476,-17.3937681],[-66.2781916,-17.3937891],[-66.2782238,-17.393825],[-66.2782423,-17.3938689],[-66.2782452,-17.393916],[-66.278232,-17.3939616],[-66.2782043,-17.3940008],[-66.2781689,-17.3940332],[-66.2781445,-17.3940395],[-66.2781854,-17.3941271],[-66.2782342,-17.394946],[-66.2789148,-17.3949879],[-66.2804489,-17.3951033],[-66.280536,-17.3951098],[-66.2806478,-17.3951181],[-66.2814234,-17.395176],[-66.2815078,-17.3951823],[-66.281607,-17.39519],[-66.282766,-17.3952931],[-66.2829421,-17.394853],[-66.2829749,-17.3947472],[-66.2830035,-17.3945683],[-66.2829966,-17.3944173],[-66.2829891,-17.3941538],[-66.2830834,-17.394157],[-66.2845815,-17.3942283],[-66.2846215,-17.3942302],[-66.2847138,-17.3942354],[-66.2860817,-17.394313],[-66.2861048,-17.3943143],[-66.2862367,-17.3943285],[-66.2862733,-17.3943251],[-66.2863096,-17.3943305],[-66.2865376,-17.3943356],[-66.286777,-17.3943491],[-66.2871071,-17.3940081],[-66.2871458,-17.3939683],[-66.2877022,-17.3933996],[-66.2879475,-17.3932146],[-66.288199,-17.3930648],[-66.2886153,-17.3928441],[-66.2895162,-17.392285],[-66.2901588,-17.3919203],[-66.2902486,-17.3918804],[-66.2906225,-17.3917044],[-66.2912513,-17.3914143],[-66.2915629,-17.3912774],[-66.2916939,-17.3912247],[-66.2921495,-17.3910365],[-66.2922893,-17.39098],[-66.2926321,-17.3908279],[-66.2931173,-17.3906366],[-66.2939722,-17.3903871],[-66.2942882,-17.3902946],[-66.2943726,-17.3902713],[-66.2944112,-17.3902621],[-66.2953961,-17.3900188],[-66.2957949,-17.3899071],[-66.2966231,-17.3896688],[-66.2972634,-17.3894883],[-66.2973133,-17.3891995],[-66.2973309,-17.3879913],[-66.2973392,-17.3874162],[-66.2972799,-17.3873132],[-66.2972729,-17.3868125],[-66.2972873,-17.38639],[-66.2973142,-17.3850646],[-66.2973493,-17.3834909],[-66.2973674,-17.3825172],[-66.2973396,-17.3803033],[-66.2973517,-17.3794737],[-66.2973664,-17.3784591],[-66.2973341,-17.3772655],[-66.2973451,-17.3755563]],"nodes":[8090151671,11910834852,8090151707,8090151674,702512053,702512054,9886703803,702512055,9886703805,9886703801,9886703804,702512056,391725774,8250700095,598788350,8090197938,8619110577,598789213,8619110576,8253508695,598787365,8253508693,9886485059,9886485061,11072493720,11072493714,11072493717,2033335336,11072493721,2033335237,11072493722,2033335171,11072493725,11072493716,11072493726,10597422695,2033335103,11072493727,2033335200,2033335257,11072493723,2033335311,2033335550,8619283530,8253508719,315031289,598789073,598789071,8253508706,315031292,315031293,315031294,8250070339,598789057,391727105,2033336773,702512026,315031513,315031514,315031515,315031516,315031517,8250061916,315031543,8004756950,1727306399,598789381,1727306395,2765190357,2765190359,9121680511,1727306396,8241198663,8238783261,8238783233,2765190377,8238783242,3269819960,12081159183,1727306400,12081159182,3674274541,1727306404,3674274542,12081159193,1727306401,2398944652,2398944653,11679558744,7767900404,4929965568,1727306403,1865095006,2398944637,10921117778,2398944625,9566992862,315111204,9593572452,323969382,9593572449,10921117799,676069596,8099810036,9593560545,323969927,2266470191,9598863723,315111364,9598863715,2266470205,315111363,315111362,702511945,702511949,2280518053,9944343024,7899367256,2280518105,7899367255,2280518027,315111387,2483518901,9944330583,9025561515,2483518845,315112515,8015423524,8015423526,315112528,8015423527,2713599541,8667184644,323961416,8667184645,8015423583,315111481,2330755958,11070112181,2330755948,2330755943,2330755941,2330755942,11070112180,11069773600,2330755944,653091979,2330755946,2330755947,2330755940,653091989,2477244412,653093656,8272264729,653093658,12405192950,5156142116,8907982977,12405192960,653093660,8907982976,12405014008,2477244312,800043944,13432830728,800044124,12300469224,12300469223,13431520299,800044331,13431520298,660004649,13436362623,13416534072,13303071581,13416534060,13303071568,13416534059,13416534037,13303071569,13303071570,13416534038,13303071571,13303071572,13303071573,13416534041,13303071574,13416534039,13416534069,13416534040,13416534057,13416534034,13416534070,13303071587,13416534075,13416534076,13436362650,11081593218,563279519,563279515,2527263173,2527263184,2527263182,9081435138,13438103968,13438065396,563279499,2339557951,9081523771,2354386743,560522668,563279456,689437115,4398499281,6326490902,4398318267,4398499272,2635402927,2354386761,560522361,2292218251,2292218247,2418530992,5581228588,2418530981,2137733242,2137733243,1807038051,12650627924,8235455989,12650627935,1807038048,2354386770,2429829237,6846214146,11084175485,11084175483,6846214133,2417368043,11084175482,8200481419,8235936958,9374958478,5579061862,3641784408,8235936964,8235936932,2418530966,6845809618,11084175480,9241585477,3255507856,2417367882,11084175478,3255507852,11084175476,3255507849,560084503,560084507,3255507830,3255507821,9008269171,4158028115,794269983,4478225458,792630474,5605204668,2354386778,2354386781,794269932,11084175474,794269972,794269961,9008269167,5605232829,5605232823,8627399437,9786116630,9786116627,560084489,9786116634,8627399436,6282778240,794303535,10837430538,794303398,4586486623,794303570,4586487874,4586487873,8317038876,9008269189,8317038875,698491918,9355127775,7150288216,9355127774,792630390,698491877,9008269182,7933924058,698491863,792630233,785868153,6918618956,792630380,792630483,319773758,8630411872,10837513369,792630507,319773759,10837513367,319773760,8630411868,4586488214,8630411830,9008315709,319773761,4586488419,8316478466,7933924071,4317735512,3880715143,319773764,9008315784,9008315770,4650646887,3880715144,4650646888,7933924066,319773765,319773766,8310400080,8316478456,319773767,319773768,8310400066,319773138,10012571188,5870202500,3881280412,785868004,11084165269,4571961269,11031871495,5236806812,8316478290,12091174510,9262757165,8316478299,319772622,8316478289,8316478287,11084165260,785868517,4382907901,785868508,7931999285,11084165256,2138416891,9262757145,5870202368,5870202367,3195120410,785869180,2360589703,617337196,617337194,783869371,783870663,6179669345,3192787627,8048387329,8048387338,8048387339,2140912533,2140912536,9354911916,8048387327,9354911915,617337182,6917120250,8048387326,319771811,12706842541,12487415611,6917120244,783870340,8221419797,7527585416,783869019,8221419828,8221419837,783870788,8221419835,7527591099,7527591095,7527591091,783871023,7527591076,7527591092,7527591078,7527591079,7527591080,7527591081,7527591082,7527591083,11073473498,7527591097,783884168,781835264,6852495123,781835257,6852495124,5357622680,309139663,5357622676,781835216,617337156,7535400148,617337155,319771123,319771172,7535460542,12530467808,319770860,12530467807,12530441293,8221419852,3192787645,8221419851,5240483086,12530441286,3192787655,8777705766,780226903,780227762,782027766,12706776935,12706776936,782028760,782027828,3811531558,780227882,782026044,782027248,782027990,782028466,782027408,782027214,780226509,782026199,4572556620,4572556621,780227569,8117846179,783869643,783869414,780227722,782028741,782028225,783870634,782026255,5920902983,783869059,5920902969,782026067,5920902970,782027231,7059214709,7059214714,7059214718,782026351]},"gtfs":{"agency_id":1,"route_id":2,"services":[{"service_id":"Mo-Su","startTime":"06:00","endTime":"22:00","trip_id":11118282}],"filteredStops":{"nodes":[8090151671,11910834852,8090151707,8090151674,702512053,702512054,9886703803,702512055,9886703805,9886703801,9886703804,702512056,391725774,8250700095,598788350,8090197938,8619110577,598789213,8619110576,8253508695,598787365,8253508693,9886485059,9886485061,11072493720,11072493714,11072493717,2033335336,11072493721,2033335237,11072493722,2033335171,11072493725,11072493716,11072493726,10597422695,2033335103,11072493727,2033335200,2033335257,11072493723,2033335311,2033335550,8619283530,8253508719,315031289,598789073,598789071,8253508706,315031292,315031293,315031294,8250070339,598789057,391727105,2033336773,702512026,315031513,315031514,315031515,315031516,315031517,8250061916,315031543,8004756950,1727306399,598789381,1727306395,2765190357,2765190359,9121680511,1727306396,8241198663,8238783261,8238783233,2765190377,8238783242,3269819960,12081159183,1727306400,12081159182,3674274541,1727306404,3674274542,12081159193,1727306401,2398944652,2398944653,11679558744,7767900404,4929965568,1727306403,1865095006,2398944637,10921117778,2398944625,9566992862,315111204,9593572452,323969382,9593572449,10921117799,676069596,8099810036,9593560545,323969927,2266470191,9598863723,315111364,9598863715,2266470205,315111363,315111362,702511945,702511949,2280518053,9944343024,7899367256,2280518105,7899367255,2280518027,315111387,2483518901,9944330583,9025561515,2483518845,315112515,8015423524,8015423526,315112528,8015423527,2713599541,8667184644,323961416,8667184645,8015423583,315111481,2330755958,11070112181,2330755948,2330755943,2330755941,2330755942,11070112180,11069773600,2330755944,653091979,2330755946,2330755947,2330755940,653091989,2477244412,653093656,8272264729,653093658,12405192950,5156142116,8907982977,12405192960,653093660,8907982976,12405014008,2477244312,800043944,13432830728,800044124,12300469224,12300469223,13431520299,800044331,13431520298,660004649,13436362623,13416534072,13303071581,13416534060,13303071568,13416534059,13416534037,13303071569,13303071570,13416534038,13303071571,13303071572,13303071573,13416534041,13303071574,13416534039,13416534069,13416534040,13416534057,13416534034,13416534070,13303071587,13416534075,13416534076,13436362650,11081593218,563279519,563279515,2527263173,2527263184,2527263182,9081435138,13438103968,13438065396,563279499,2339557951,9081523771,2354386743,560522668,563279456,689437115,4398499281,6326490902,4398318267,4398499272,2635402927,2354386761,560522361,2292218251,2292218247,2418530992,5581228588,2418530981,2137733242,2137733243,1807038051,12650627924,8235455989,12650627935,1807038048,2354386770,2429829237,6846214146,11084175485,11084175483,6846214133,2417368043,11084175482,8200481419,8235936958,9374958478,5579061862,3641784408,8235936964,8235936932,2418530966,6845809618,11084175480,9241585477,3255507856,2417367882,11084175478,3255507852,11084175476,3255507849,560084503,560084507,3255507830,3255507821,9008269171,4158028115,794269983,4478225458,792630474,5605204668,2354386778,2354386781,794269932,11084175474,794269972,794269961,9008269167,5605232829,5605232823,8627399437,9786116630,9786116627,560084489,9786116634,8627399436,6282778240,794303535,10837430538,794303398,4586486623,794303570,4586487874,4586487873,8317038876,9008269189,8317038875,698491918,9355127775,7150288216,9355127774,792630390,698491877,9008269182,7933924058,698491863,792630233,785868153,6918618956,792630380,792630483,319773758,8630411872,10837513369,792630507,319773759,10837513367,319773760,8630411868,4586488214,8630411830,9008315709,319773761,4586488419,8316478466,7933924071,4317735512,3880715143,319773764,9008315784,9008315770,4650646887,3880715144,4650646888,7933924066,319773765,319773766,8310400080,8316478456,319773767,319773768,8310400066,319773138,10012571188,5870202500,3881280412,785868004,11084165269,4571961269,11031871495,5236806812,8316478290,12091174510,9262757165,8316478299,319772622,8316478289,8316478287,11084165260,785868517,4382907901,785868508,7931999285,11084165256,2138416891,9262757145,5870202368,5870202367,3195120410,785869180,2360589703,617337196,617337194,783869371,783870663,6179669345,3192787627,8048387329,8048387338,8048387339,2140912533,2140912536,9354911916,8048387327,9354911915,617337182,6917120250,8048387326,319771811,12706842541,12487415611,6917120244,783870340,8221419797,7527585416,783869019,8221419828,8221419837,783870788,8221419835,7527591099,7527591095,7527591091,783871023,7527591076,7527591092,7527591078,7527591079,7527591080,7527591081,7527591082,7527591083,11073473498,7527591097,783884168,781835264,6852495123,781835257,6852495124,5357622680,309139663,5357622676,781835216,617337156,7535400148,617337155,319771123,319771172,7535460542,12530467808,319770860,12530467807,12530441293,8221419852,3192787645,8221419851,5240483086,12530441286,3192787655,8777705766,780226903,780227762,782027766,12706776935,12706776936,782028760,782027828,3811531558,780227882,782026044,782027248,782027990,782028466,782027408,782027214,780226509,782026199,4572556620,4572556621,780227569,8117846179,783869643,783869414,780227722,782028741,782028225,783870634,782026255,5920902983,783869059,5920902969,782026067,5920902970,782027231,7059214709,7059214714,7059214718,782026351],"coordinates":[[-66.1417116,-17.3999523],[-66.1417535,-17.3999587],[-66.1419329,-17.3999861],[-66.142208,-17.4000272],[-66.142426,-17.3990847],[-66.1419213,-17.3990187],[-66.1412178,-17.3989232],[-66.1411635,-17.3989158],[-66.1410698,-17.3989026],[-66.1407435,-17.3988568],[-66.1406343,-17.3988414],[-66.1405517,-17.3988298],[-66.1396259,-17.3986937],[-66.1396562,-17.3986281],[-66.1398933,-17.3981152],[-66.1399786,-17.3979321],[-66.1407077,-17.3963364],[-66.1407354,-17.3962758],[-66.1407681,-17.3962043],[-66.1414542,-17.3947032],[-66.141484,-17.3946387],[-66.1415059,-17.3945896],[-66.1417752,-17.3940245],[-66.1418082,-17.3939294],[-66.1417898,-17.3939184],[-66.1417762,-17.3939047],[-66.1417677,-17.3938909],[-66.1417617,-17.3938721],[-66.1417608,-17.3938522],[-66.1417652,-17.3938328],[-66.141775,-17.3938147],[-66.1417888,-17.3938],[-66.1418057,-17.3937894],[-66.1418248,-17.3937831],[-66.1418395,-17.3937814],[-66.1418543,-17.3937823],[-66.1418779,-17.3937896],[-66.141893,-17.3937988],[-66.1419055,-17.393811],[-66.141917,-17.3938301],[-66.1419226,-17.3938534],[-66.1419205,-17.3938773],[-66.1419595,-17.3939217],[-66.1425597,-17.3946913],[-66.1429237,-17.3951433],[-66.1431094,-17.3953528],[-66.1432772,-17.3955556],[-66.1434016,-17.3956819],[-66.1437902,-17.3960495],[-66.1440656,-17.3962608],[-66.1443118,-17.3964434],[-66.1445746,-17.3966099],[-66.1448217,-17.3967514],[-66.1451356,-17.3969281],[-66.1453947,-17.3970572],[-66.1457425,-17.3972348],[-66.1467847,-17.3977645],[-66.1474569,-17.3981037],[-66.1476723,-17.3982059],[-66.1478288,-17.398264],[-66.1480011,-17.3983085],[-66.1481566,-17.3983362],[-66.1483155,-17.3983579],[-66.148511,-17.3983678],[-66.148558,-17.3983726],[-66.1499487,-17.3984764],[-66.1505885,-17.398518],[-66.1510902,-17.3984566],[-66.1519487,-17.3984139],[-66.1520104,-17.3984159],[-66.1520931,-17.3984305],[-66.1522191,-17.398466],[-66.1523644,-17.398521],[-66.1526616,-17.3986303],[-66.1527528,-17.3986605],[-66.1527737,-17.3986674],[-66.1531067,-17.3987465],[-66.1531945,-17.3987646],[-66.15417,-17.39898],[-66.1542283,-17.3989929],[-66.1542956,-17.3990088],[-66.1552473,-17.3992338],[-66.1553036,-17.3992471],[-66.1553477,-17.3992567],[-66.156378,-17.399481],[-66.1564374,-17.3994887],[-66.1564991,-17.3994953],[-66.1567559,-17.3994948],[-66.1569636,-17.399463],[-66.1571541,-17.3994401],[-66.1575712,-17.3993743],[-66.1576356,-17.3993655],[-66.1577347,-17.3993519],[-66.1578434,-17.3993362],[-66.1584393,-17.3992452],[-66.1584983,-17.3992362],[-66.158615,-17.3992272],[-66.1587124,-17.3992288],[-66.158764,-17.3992321],[-66.1591739,-17.3992577],[-66.1592816,-17.3992705],[-66.1593653,-17.3992744],[-66.1599967,-17.3993032],[-66.1600663,-17.3993136],[-66.1601608,-17.3993373],[-66.1603302,-17.3993931],[-66.160433,-17.3994267],[-66.1609953,-17.3995906],[-66.1610911,-17.3996185],[-66.1612278,-17.3996562],[-66.1615876,-17.3997555],[-66.1618371,-17.399843],[-66.1619824,-17.3999132],[-66.1621329,-17.4000056],[-66.1622471,-17.4000935],[-66.1623448,-17.4001555],[-66.1624054,-17.4001839],[-66.1624734,-17.4002151],[-66.1624927,-17.4002145],[-66.1625631,-17.4001825],[-66.1626805,-17.4001316],[-66.1627789,-17.4000729],[-66.1633734,-17.3996728],[-66.1639365,-17.3992859],[-66.1639474,-17.3992784],[-66.1640723,-17.3991926],[-66.1641639,-17.3991275],[-66.1642244,-17.3990848],[-66.1643956,-17.3989638],[-66.1644471,-17.3989273],[-66.1645215,-17.3988766],[-66.1652342,-17.3983884],[-66.166064,-17.3978227],[-66.1661993,-17.3977303],[-66.1663691,-17.3976131],[-66.1669462,-17.3972147],[-66.1670559,-17.3971286],[-66.1671875,-17.3970265],[-66.1671946,-17.3970056],[-66.1672161,-17.3969725],[-66.1672473,-17.3969472],[-66.1672851,-17.3969323],[-66.1673259,-17.3969292],[-66.1673657,-17.3969382],[-66.1673767,-17.3969431],[-66.1673872,-17.3969489],[-66.1674439,-17.3969587],[-66.1675081,-17.3969663],[-66.1675463,-17.3969687],[-66.1679243,-17.3969026],[-66.1680127,-17.3968744],[-66.1680703,-17.3968301],[-66.1682924,-17.3966991],[-66.1683421,-17.3966796],[-66.1687595,-17.3965664],[-66.1689623,-17.3965375],[-66.1691496,-17.3965204],[-66.1692283,-17.3965168],[-66.1692803,-17.3965144],[-66.1693069,-17.3965132],[-66.1694121,-17.3965121],[-66.1706981,-17.3964801],[-66.1707149,-17.3964797],[-66.1706929,-17.3960242],[-66.1706755,-17.3954402],[-66.1706741,-17.3953947],[-66.1706734,-17.3953531],[-66.1706483,-17.3952289],[-66.1706326,-17.3948074],[-66.1706309,-17.3947623],[-66.1706293,-17.3947195],[-66.1706106,-17.3942277],[-66.1706063,-17.3941133],[-66.170605,-17.3940943],[-66.1705706,-17.3940823],[-66.1705409,-17.3940657],[-66.1705148,-17.3940446],[-66.1704928,-17.3940194],[-66.1704757,-17.393991],[-66.170464,-17.3939602],[-66.1704581,-17.3939279],[-66.1704581,-17.3938952],[-66.170464,-17.3938629],[-66.1704756,-17.3938321],[-66.1704926,-17.3938036],[-66.1705146,-17.3937784],[-66.1705407,-17.3937572],[-66.1705703,-17.3937406],[-66.1706025,-17.3937291],[-66.1706268,-17.3937242],[-66.1706515,-17.3937223],[-66.1706764,-17.3937233],[-66.1707008,-17.3937272],[-66.1707334,-17.3937374],[-66.170806,-17.3937167],[-66.170822,-17.3937126],[-66.170857,-17.3937045],[-66.1709593,-17.3936894],[-66.1723743,-17.3936297],[-66.173901,-17.3935555],[-66.1739037,-17.3935984],[-66.1739116,-17.3937198],[-66.1743585,-17.3937004],[-66.1744538,-17.3936962],[-66.1763118,-17.3936155],[-66.1764032,-17.3936115],[-66.1764525,-17.3936094],[-66.1765758,-17.393604],[-66.1768017,-17.3935944],[-66.1775114,-17.3935644],[-66.1785862,-17.3935123],[-66.1799782,-17.3934515],[-66.1809524,-17.3934044],[-66.1825074,-17.3933422],[-66.1841002,-17.3932783],[-66.1844521,-17.3932597],[-66.1864116,-17.3931714],[-66.1866393,-17.3931593],[-66.1874124,-17.3931268],[-66.1888567,-17.3930628],[-66.1892743,-17.3930444],[-66.1911252,-17.3929577],[-66.1921353,-17.3929072],[-66.1938986,-17.3928412],[-66.1947235,-17.3928088],[-66.1969299,-17.3927077],[-66.1970753,-17.3927008],[-66.1987218,-17.392627],[-66.1989338,-17.3926165],[-66.199474,-17.3925896],[-66.1995374,-17.3925864],[-66.1996008,-17.3925833],[-66.1996781,-17.39258],[-66.1998158,-17.3925734],[-66.2001909,-17.3925553],[-66.2025337,-17.3924534],[-66.2032418,-17.3924227],[-66.203618,-17.3924063],[-66.2050914,-17.3923528],[-66.2072128,-17.3922538],[-66.2074111,-17.3922446],[-66.2080046,-17.3922214],[-66.2080229,-17.3922206],[-66.2080916,-17.3922175],[-66.2081846,-17.3922143],[-66.2082887,-17.3922104],[-66.2085114,-17.3922021],[-66.2089727,-17.3921849],[-66.2091079,-17.392179],[-66.209809,-17.3921428],[-66.2099245,-17.3921368],[-66.210321,-17.392123],[-66.2103967,-17.392118],[-66.2111207,-17.3920846],[-66.212964,-17.3919997],[-66.2136675,-17.3919733],[-66.2143133,-17.391949],[-66.2154152,-17.3919077],[-66.2158619,-17.3918901],[-66.2168864,-17.3918417],[-66.2182483,-17.391766],[-66.2185741,-17.3917538],[-66.2193943,-17.3917164],[-66.2213267,-17.3916517],[-66.2215894,-17.3916389],[-66.2220618,-17.3916136],[-66.2233037,-17.3915541],[-66.2242367,-17.3915189],[-66.2245993,-17.3915051],[-66.2249474,-17.3914893],[-66.2258636,-17.3914462],[-66.2264962,-17.3914165],[-66.226663,-17.391409],[-66.2274214,-17.3913804],[-66.2284514,-17.3913315],[-66.2287988,-17.3913116],[-66.2291662,-17.3912966],[-66.2297343,-17.3912731],[-66.2297673,-17.3912717],[-66.2298409,-17.3912687],[-66.2300121,-17.3912616],[-66.2305661,-17.3912386],[-66.2320252,-17.3911775],[-66.2324271,-17.3911635],[-66.2336249,-17.3911146],[-66.2345974,-17.3910749],[-66.2363591,-17.3910045],[-66.2365822,-17.3909918],[-66.237921,-17.3909427],[-66.2382125,-17.3909071],[-66.2383299,-17.390888],[-66.2385075,-17.3908499],[-66.238539,-17.390845],[-66.2386552,-17.3908233],[-66.2386762,-17.3908128],[-66.2386987,-17.3908055],[-66.2387279,-17.3908011],[-66.2387574,-17.3908019],[-66.2387863,-17.390808],[-66.2389553,-17.3908324],[-66.2390359,-17.3908517],[-66.2391888,-17.3908644],[-66.2398993,-17.3908426],[-66.240912,-17.3908188],[-66.2411366,-17.390814],[-66.2420988,-17.3908022],[-66.2427852,-17.3907986],[-66.2435679,-17.3907949],[-66.2436525,-17.390786],[-66.2437193,-17.3907743],[-66.2437568,-17.3907665],[-66.2439573,-17.3907244],[-66.2444481,-17.3907345],[-66.2444669,-17.3907364],[-66.2446218,-17.3907623],[-66.2447073,-17.3907855],[-66.2447511,-17.3907996],[-66.2448526,-17.3908176],[-66.244949,-17.390826],[-66.2461527,-17.3908672],[-66.2462901,-17.3908757],[-66.2480066,-17.3909571],[-66.2484636,-17.3909797],[-66.2490276,-17.3910156],[-66.2494577,-17.3910255],[-66.2496164,-17.3910356],[-66.2499632,-17.3910579],[-66.2501971,-17.3910726],[-66.2502435,-17.3910755],[-66.2502905,-17.3910784],[-66.2504434,-17.391088],[-66.2506914,-17.3910616],[-66.2508008,-17.3910637],[-66.2508967,-17.3910763],[-66.2509344,-17.3910855],[-66.2509776,-17.3910961],[-66.2512161,-17.3911541],[-66.2513818,-17.3911859],[-66.2514689,-17.3911951],[-66.2526672,-17.3913123],[-66.2527928,-17.3913246],[-66.2542188,-17.3914622],[-66.2567501,-17.391716],[-66.2573333,-17.3917803],[-66.2577457,-17.3918257],[-66.2579393,-17.391844],[-66.2582763,-17.3918759],[-66.2590144,-17.3919395],[-66.2594909,-17.3919806],[-66.25952,-17.3919831],[-66.2595584,-17.3919864],[-66.2596428,-17.3919909],[-66.2601,-17.3920415],[-66.2603304,-17.3920654],[-66.2608025,-17.3921143],[-66.2620077,-17.392239],[-66.2643025,-17.3924716],[-66.2649633,-17.3925368],[-66.2662909,-17.3926642],[-66.2675492,-17.3927929],[-66.2678247,-17.3928199],[-66.2679871,-17.3928392],[-66.2680961,-17.3928518],[-66.2681726,-17.3928591],[-66.2682498,-17.3928669],[-66.2684282,-17.392885],[-66.2687823,-17.392921],[-66.2699511,-17.3930396],[-66.2701093,-17.3930492],[-66.2712023,-17.393158],[-66.2722402,-17.3932523],[-66.2723895,-17.3932515],[-66.2725216,-17.3932415],[-66.2726698,-17.3932388],[-66.272689,-17.3932258],[-66.2727154,-17.393213],[-66.2727381,-17.3932058],[-66.2727616,-17.3932016],[-66.2727854,-17.3932003],[-66.2728092,-17.393202],[-66.2728326,-17.3932068],[-66.2728551,-17.3932144],[-66.2728763,-17.3932248],[-66.2728916,-17.3932345],[-66.2729057,-17.3932457],[-66.2731599,-17.3932739],[-66.273306,-17.3932901],[-66.2734584,-17.393307],[-66.2742772,-17.393387],[-66.2744122,-17.3934011],[-66.2749658,-17.3934607],[-66.2756625,-17.3935319],[-66.2761702,-17.3935795],[-66.276919,-17.3936497],[-66.276929,-17.3936506],[-66.2770081,-17.3936583],[-66.2779056,-17.3937459],[-66.2780191,-17.3937577],[-66.2780498,-17.393761],[-66.2781005,-17.3937577],[-66.2781476,-17.3937681],[-66.2781916,-17.3937891],[-66.2782238,-17.393825],[-66.2782423,-17.3938689],[-66.2782452,-17.393916],[-66.278232,-17.3939616],[-66.2782043,-17.3940008],[-66.2781689,-17.3940332],[-66.2781445,-17.3940395],[-66.2781854,-17.3941271],[-66.2782342,-17.394946],[-66.2789148,-17.3949879],[-66.2804489,-17.3951033],[-66.280536,-17.3951098],[-66.2806478,-17.3951181],[-66.2814234,-17.395176],[-66.2815078,-17.3951823],[-66.281607,-17.39519],[-66.282766,-17.3952931],[-66.2829421,-17.394853],[-66.2829749,-17.3947472],[-66.2830035,-17.3945683],[-66.2829966,-17.3944173],[-66.2829891,-17.3941538],[-66.2830834,-17.394157],[-66.2845815,-17.3942283],[-66.2846215,-17.3942302],[-66.2847138,-17.3942354],[-66.2860817,-17.394313],[-66.2861048,-17.3943143],[-66.2862367,-17.3943285],[-66.2862733,-17.3943251],[-66.2863096,-17.3943305],[-66.2865376,-17.3943356],[-66.286777,-17.3943491],[-66.2871071,-17.3940081],[-66.2871458,-17.3939683],[-66.2877022,-17.3933996],[-66.2879475,-17.3932146],[-66.288199,-17.3930648],[-66.2886153,-17.3928441],[-66.2895162,-17.392285],[-66.2901588,-17.3919203],[-66.2902486,-17.3918804],[-66.2906225,-17.3917044],[-66.2912513,-17.3914143],[-66.2915629,-17.3912774],[-66.2916939,-17.3912247],[-66.2921495,-17.3910365],[-66.2922893,-17.39098],[-66.2926321,-17.3908279],[-66.2931173,-17.3906366],[-66.2939722,-17.3903871],[-66.2942882,-17.3902946],[-66.2943726,-17.3902713],[-66.2944112,-17.3902621],[-66.2953961,-17.3900188],[-66.2957949,-17.3899071],[-66.2966231,-17.3896688],[-66.2972634,-17.3894883],[-66.2973133,-17.3891995],[-66.2973309,-17.3879913],[-66.2973392,-17.3874162],[-66.2972799,-17.3873132],[-66.2972729,-17.3868125],[-66.2972873,-17.38639],[-66.2973142,-17.3850646],[-66.2973493,-17.3834909],[-66.2973674,-17.3825172],[-66.2973396,-17.3803033],[-66.2973517,-17.3794737],[-66.2973664,-17.3784591],[-66.2973341,-17.3772655],[-66.2973451,-17.3755563]]}}},{"type":"Feature","properties":{"addr:city":"Cochabamba","bench":"no","bin":"no","bus":"yes","departures_board":"no","highway":"bus_stop","level":"0","lit":"no","name":"Parada 200 / 201 / 203 / 204 / 206","operator":"Sindicato Mixto de Transportistas Línea 7 Nuestra Señora de Urkupiña","public_transport":"platform","shelter":"no","tactile_paving":"no","wheelchair":"no","id":7204237206},"geometry":{"type":"Point","coordinates":[-66.1416765,-17.399911]}},{"type":"Feature","properties":{"bench":"no","bin":"no","bus":"yes","departures_board":"no","highway":"bus_stop","informal":"yes","kerb":"raised","level":"0","lit":"no","name":"Plaza Reforma Agraria","public_transport":"platform","shelter":"no","tactile_paving":"no","wheelchair":"no","id":8015423522},"geometry":{"type":"Point","coordinates":[-66.1643095,-17.3989305]}},{"type":"Feature","properties":{"bench":"yes","bin":"no","bus":"yes","departures_board":"no","highway":"bus_stop","kerb":"raised","level":"0","lit":"no","name":"Coliseo UMSS","public_transport":"platform","shelter":"yes","tactile_paving":"no","wheelchair":"no","id":8581169584},"geometry":{"type":"Point","coordinates":[-66.1433069,-17.3955142]}},{"type":"Feature","properties":{"bench":"yes","bin":"no","bus":"yes","departures_board":"no","highway":"bus_stop","level":"0","lit":"no","name":"Automóvil Club Boliviano","operator":"Administradora Boliviana de Carreteras","operator:short":"ABC","operator:type":"public","public_transport":"platform","shelter":"yes","tactile_paving":"no","wheelchair":"no","id":5238905983},"geometry":{"type":"Point","coordinates":[-66.1744605,-17.3936064]}},{"type":"Feature","properties":{"bus":"yes","departures_board":"no","highway":"bus_stop","name":"Parada MiniBus 201","network":"BO:CB:Cochabamba","public_transport":"platform","shelter":"no","id":7537771288},"geometry":{"type":"Point","coordinates":[-66.2972797,-17.3755579]}},{"type":"Feature","properties":{"bench":"yes","bin":"no","bus":"yes","departures_board":"no","highway":"bus_stop","level":"0","lit":"no","loc_name":"KM 4","name":"Avenida Segunda","operator":"Administradora Boliviana de Carreteras","operator:short":"ABC","operator:type":"public","public_transport":"platform","shelter":"yes","tactile_paving":"no","wheelchair":"no","id":2418530979},"geometry":{"type":"Point","coordinates":[-66.1950804,-17.3927015]}}]}