{"type":"FeatureCollection","features":[{"type":"Feature","properties":{"bicycle":"no","bus":"minibus","check_date":"46167","from":"Villa Urkupiña Calvario","name":"MiniBus 206: Villa Urkupiña Calvario → Calle Litoral","network":"BO:C:Cochabamba;BO:C:Colcapirhua;BO:C:Quillacollo","on_demand":"yes","operator":"Asociación de taxi trufis 1ro de mayo","operator:type":"association","public_transport:version":"2","ref":"206","route":"bus","to":"Calle Litoral","type":"route","wheelchair":"no","id":11111525},"geometry":{"type":"LineString","coordinates":[[-66.2852788,-17.423733600000002],[-66.2852553,-17.423614800000003],[-66.2850775,-17.422715800000002],[-66.28506870000001,-17.422650700000002],[-66.2849465,-17.421746300000002],[-66.2849236,-17.421613200000003],[-66.28477720000001,-17.420761000000002],[-66.28460910000001,-17.4197814],[-66.28454620000001,-17.419746200000002],[-66.284419,-17.419792400000002],[-66.28426440000001,-17.419898],[-66.2842435,-17.4199124],[-66.28415500000001,-17.419994000000003],[-66.2840165,-17.4200984],[-66.28390060000001,-17.420149300000002],[-66.2837935,-17.420180600000002],[-66.2837374,-17.419854],[-66.2837289,-17.4198175],[-66.2836673,-17.419400500000002],[-66.2836528,-17.4193074],[-66.2836079,-17.4189964],[-66.28356430000001,-17.4186942],[-66.2835584,-17.418653600000003],[-66.2835129,-17.4185662],[-66.2832838,-17.4169205],[-66.2827618,-17.4131183],[-66.2823075,-17.409816600000003],[-66.2822156,-17.4091674],[-66.2821143,-17.408450700000003],[-66.2819944,-17.4075732],[-66.2819814,-17.407506700000003],[-66.28190400000001,-17.406992300000002],[-66.28182740000001,-17.406466100000003],[-66.2817437,-17.4060096],[-66.2817325,-17.405929800000003],[-66.281655,-17.405379],[-66.28158090000001,-17.404852],[-66.28150550000001,-17.4043159],[-66.2814309,-17.4037857],[-66.28135250000001,-17.4032404],[-66.28127140000001,-17.4027026],[-66.28122160000001,-17.402330000000003],[-66.2812313,-17.4021584],[-66.281225,-17.402110200000003],[-66.28121300000001,-17.402047200000002],[-66.28118230000001,-17.4018184],[-66.28107270000001,-17.4011718],[-66.2809084,-17.400006700000002],[-66.28081560000001,-17.399267100000003],[-66.2807549,-17.398800400000002],[-66.2806049,-17.397671000000003],[-66.2806087,-17.397643600000002],[-66.2805369,-17.3971516],[-66.2804261,-17.396601],[-66.28041180000001,-17.3965099],[-66.28052960000001,-17.3951852],[-66.28053600000001,-17.3951098],[-66.2805441,-17.3950329],[-66.2806147,-17.394366700000003],[-66.2806245,-17.394282],[-66.2804969,-17.3942675],[-66.2798815,-17.3942066],[-66.2795033,-17.3941692],[-66.27879770000001,-17.3940994],[-66.27829600000001,-17.3940485],[-66.2782169,-17.394039000000003],[-66.27816890000001,-17.394033200000003],[-66.27814450000001,-17.3940395],[-66.27811790000001,-17.394044500000003],[-66.27806840000001,-17.394044400000002],[-66.2780201,-17.3940285],[-66.2778794,-17.394015300000003],[-66.27738090000001,-17.393965100000003],[-66.27698430000001,-17.393924000000002],[-66.2768911,-17.3939144],[-66.27613620000001,-17.3938363],[-66.27496330000001,-17.3937285],[-66.27453870000001,-17.3936929],[-66.27442020000001,-17.393684200000003],[-66.27325280000001,-17.393565300000002],[-66.2729886,-17.393549],[-66.27289060000001,-17.393511500000002],[-66.27285210000001,-17.393533100000003],[-66.2728074,-17.3935435],[-66.2727806,-17.393545000000003],[-66.2727581,-17.3935427],[-66.2727267,-17.393536],[-66.2726973,-17.3935241],[-66.27266130000001,-17.3934995],[-66.27249690000001,-17.3934548],[-66.27235230000001,-17.3934131],[-66.27222420000001,-17.393386500000002],[-66.272136,-17.393375000000002],[-66.27118340000001,-17.393261600000002],[-66.27011320000001,-17.3931644],[-66.2699556,-17.393150900000002],[-66.2692456,-17.393083],[-66.2683157,-17.392994],[-66.26816210000001,-17.3929793],[-66.26808580000001,-17.392970400000003],[-66.2680632,-17.3929681],[-66.26630990000001,-17.3927856],[-66.26498190000001,-17.3926561],[-66.2620232,-17.3923631],[-66.26103330000001,-17.3922706],[-66.26040300000001,-17.392209700000002],[-66.2600955,-17.3921801],[-66.2597451,-17.392146200000003],[-66.2596815,-17.392140100000002],[-66.25964130000001,-17.392134600000002],[-66.25948260000001,-17.3921205],[-66.2589272,-17.392065600000002],[-66.25794470000001,-17.391968400000003],[-66.2577273,-17.391949800000003],[-66.2575312,-17.3919305],[-66.2560565,-17.3917855],[-66.2548029,-17.3916521],[-66.25319800000001,-17.3914884],[-66.2530064,-17.3914702],[-66.2528628,-17.3914565],[-66.2517349,-17.391351800000002],[-66.25130530000001,-17.3913072],[-66.2507894,-17.3912641],[-66.25064590000001,-17.3912553],[-66.25044960000001,-17.391241100000002],[-66.24994980000001,-17.391207700000002],[-66.24902460000001,-17.391148],[-66.24892960000001,-17.3911412],[-66.2483832,-17.391103700000002],[-66.24798270000001,-17.391084000000003],[-66.2478983,-17.3910798],[-66.2474718,-17.391058800000003],[-66.24669460000001,-17.3910205],[-66.2463515,-17.3910036],[-66.2462864,-17.391000400000003],[-66.246144,-17.390994300000003],[-66.24609570000001,-17.390992800000003],[-66.2459542,-17.3909884],[-66.2450017,-17.3909622],[-66.2449045,-17.390971200000003],[-66.24474570000001,-17.3910024],[-66.244702,-17.391009200000003],[-66.24461070000001,-17.391030400000002],[-66.2444712,-17.391049600000002],[-66.2443896,-17.3910486],[-66.2440073,-17.391043800000002],[-66.2439758,-17.391043200000002],[-66.2439215,-17.3910349],[-66.24373270000001,-17.390998600000003],[-66.24367640000001,-17.3909884],[-66.24355220000001,-17.3909664],[-66.24346390000001,-17.390956900000003],[-66.2433575,-17.3909534],[-66.2427821,-17.3909552],[-66.24211430000001,-17.3909528],[-66.24113820000001,-17.3909664],[-66.2409403,-17.390969400000003],[-66.2398934,-17.390992100000002],[-66.2393461,-17.391020700000002],[-66.2391427,-17.391038400000003],[-66.23896260000001,-17.391061500000003],[-66.2388277,-17.3910735],[-66.23878500000001,-17.3910956],[-66.23875550000001,-17.391099500000003],[-66.23872490000001,-17.3910999],[-66.2386949,-17.391094600000002],[-66.2385208,-17.391072100000002],[-66.23834480000001,-17.3910467],[-66.2381859,-17.3910491],[-66.23783080000001,-17.3910656],[-66.23636230000001,-17.391125600000002],[-66.23635920000001,-17.3911257],[-66.2338646,-17.3912258],[-66.2324387,-17.3912917],[-66.23202930000001,-17.391311],[-66.2319827,-17.391310100000002],[-66.23130280000001,-17.3913334],[-66.23093850000001,-17.3913516],[-66.23050210000001,-17.3913727],[-66.23003270000001,-17.391397100000002],[-66.23001740000001,-17.3913979],[-66.22988550000001,-17.3914048],[-66.2297415,-17.391410200000003],[-66.2291665,-17.3914316],[-66.228361,-17.3914642],[-66.2274295,-17.3915073],[-66.22662360000001,-17.391544500000002],[-66.22649600000001,-17.391546700000003],[-66.22491930000001,-17.391616900000002],[-66.22209000000001,-17.391740000000002],[-66.2218668,-17.391750700000003],[-66.2215956,-17.391763800000003],[-66.2213351,-17.3917763],[-66.2201605,-17.391822400000002],[-66.2194839,-17.39185],[-66.21940950000001,-17.391853],[-66.2190114,-17.3918693],[-66.218896,-17.3918743],[-66.2182131,-17.3919074],[-66.2154179,-17.392026100000002],[-66.2134978,-17.3921116],[-66.2125925,-17.3921494],[-66.21252270000001,-17.3921524],[-66.2103878,-17.392245600000003],[-66.2103017,-17.392249600000003],[-66.208973,-17.3923041],[-66.20829520000001,-17.3923381],[-66.20824280000001,-17.392340800000003],[-66.20819030000001,-17.3923434],[-66.2080961,-17.3923466],[-66.20801010000001,-17.3923501],[-66.2077704,-17.392359900000002],[-66.20563480000001,-17.3924477],[-66.20470830000001,-17.392489100000002],[-66.20430920000001,-17.3925078],[-66.2036195,-17.3925345],[-66.2031084,-17.392554200000003],[-66.2004314,-17.3926766],[-66.2002307,-17.392685800000002],[-66.1998222,-17.392704600000002],[-66.1997525,-17.3927076],[-66.1996829,-17.3927105],[-66.1996077,-17.392714100000003],[-66.19948160000001,-17.392719300000003],[-66.1989358,-17.392742000000002],[-66.1970994,-17.392820500000003],[-66.19696090000001,-17.3928267],[-66.19417130000001,-17.3929516],[-66.19390320000001,-17.3929632],[-66.1918596,-17.3930496],[-66.1892684,-17.393168300000003],[-66.1875821,-17.393243100000003],[-66.18641620000001,-17.393294400000002],[-66.1844616,-17.3933742],[-66.18410340000001,-17.3933915],[-66.1828126,-17.393447300000002],[-66.18183020000001,-17.393494],[-66.1810597,-17.393529800000003],[-66.1808486,-17.3936345],[-66.18080090000001,-17.3936642],[-66.1807531,-17.393693300000002],[-66.1807256,-17.3937278],[-66.1807045,-17.393790000000003],[-66.18070180000001,-17.3938345],[-66.180728,-17.393922800000002],[-66.18093040000001,-17.3944112],[-66.180936,-17.3945629],[-66.1810885,-17.3949152],[-66.18111040000001,-17.3949649],[-66.1815619,-17.3960508],[-66.1816122,-17.3961769],[-66.18164010000001,-17.3962469],[-66.18166860000001,-17.3963214],[-66.1816907,-17.396397],[-66.1817216,-17.3965065],[-66.1818525,-17.396962700000003],[-66.1820333,-17.3975943],[-66.18205640000001,-17.397674900000002],[-66.18207410000001,-17.3977325],[-66.1822265,-17.398318300000003],[-66.1823457,-17.398750000000003],[-66.18251360000001,-17.3993815],[-66.1825519,-17.399512400000003],[-66.18257940000001,-17.399610300000003],[-66.18278210000001,-17.4003073],[-66.1828909,-17.400734500000002],[-66.18290540000001,-17.400787100000002],[-66.1829134,-17.4008162],[-66.18293940000001,-17.400918400000002],[-66.1829505,-17.400961900000002],[-66.18295730000001,-17.4009953],[-66.18298770000001,-17.401002700000003],[-66.1830072,-17.4010105],[-66.1830262,-17.401020900000002],[-66.18304380000001,-17.4010333],[-66.1830675,-17.4010564],[-66.1830834,-17.4010785],[-66.18309550000001,-17.401102700000003],[-66.18310220000001,-17.401123100000003],[-66.1831063,-17.401145600000003],[-66.18310720000001,-17.4011685],[-66.183104,-17.4011964],[-66.1830941,-17.4012281],[-66.1830829,-17.401249800000002],[-66.18306860000001,-17.401269900000003],[-66.1830415,-17.401296000000002],[-66.1830113,-17.4013151],[-66.1829884,-17.401324600000002],[-66.1829644,-17.401331000000003],[-66.18293960000001,-17.4013342],[-66.1829146,-17.401334000000002],[-66.1828847,-17.4013293],[-66.182856,-17.4013199],[-66.18271320000001,-17.401491800000002],[-66.1821111,-17.4022465],[-66.18146780000001,-17.4030831],[-66.1808032,-17.403948200000002],[-66.1806883,-17.4040672],[-66.1806402,-17.404120900000002],[-66.18051240000001,-17.404251400000003],[-66.18046070000001,-17.404300600000003],[-66.18023000000001,-17.404508900000003],[-66.179972,-17.404726],[-66.17978910000001,-17.4048611],[-66.17970100000001,-17.4049137],[-66.17934890000001,-17.40512],[-66.179326,-17.4051334],[-66.1792851,-17.4051574],[-66.1792272,-17.4051873],[-66.17811320000001,-17.4057625],[-66.1776255,-17.406004900000003],[-66.1773479,-17.406175],[-66.1770709,-17.406355400000002],[-66.17670670000001,-17.406634500000003],[-66.17664620000001,-17.4066808],[-66.17655450000001,-17.406753700000003],[-66.1764873,-17.4068116],[-66.1762154,-17.407046],[-66.1761345,-17.407137300000002],[-66.17569160000001,-17.4076883],[-66.1750887,-17.408481600000002],[-66.1747739,-17.4089075],[-66.1747661,-17.4089147],[-66.1747309,-17.408945000000003],[-66.1746949,-17.408973500000002],[-66.1745937,-17.4090519],[-66.1745425,-17.4090999],[-66.1745276,-17.4091138],[-66.1745154,-17.409125300000003],[-66.1741824,-17.4094772],[-66.1741662,-17.409494300000002],[-66.174126,-17.4095367],[-66.1740517,-17.409622600000002],[-66.17404730000001,-17.409685200000002],[-66.1739965,-17.4097481],[-66.17394920000001,-17.4098025],[-66.17390900000001,-17.4098487],[-66.173816,-17.409916900000002],[-66.17369980000001,-17.4099885],[-66.17362170000001,-17.410025800000003],[-66.1735582,-17.410051300000003],[-66.173449,-17.410084100000002],[-66.17335890000001,-17.410083],[-66.17326340000001,-17.4101049],[-66.1731312,-17.4101269],[-66.1730174,-17.410132700000002],[-66.17272240000001,-17.4101412],[-66.17182190000001,-17.4101424],[-66.1712318,-17.4101453],[-66.1711765,-17.410150100000003],[-66.17112320000001,-17.4101609],[-66.17099610000001,-17.410193500000002],[-66.17095690000001,-17.4102023],[-66.17090440000001,-17.4102102],[-66.17084170000001,-17.410216100000003],[-66.169899,-17.410229700000002],[-66.16850500000001,-17.410241300000003],[-66.16831020000001,-17.4102463],[-66.16814090000001,-17.4102588],[-66.1679472,-17.4102837],[-66.1677878,-17.410308200000003],[-66.1677561,-17.4103131],[-66.16724740000001,-17.410421000000003],[-66.1671601,-17.410441000000002],[-66.16645860000001,-17.4106069],[-66.1664145,-17.4106172],[-66.16580250000001,-17.410764800000003],[-66.1653867,-17.4108614],[-66.16530230000001,-17.410883100000003],[-66.1652408,-17.4109048],[-66.1650439,-17.411010800000003],[-66.16490370000001,-17.4110932],[-66.1648842,-17.4111192],[-66.1648619,-17.411143000000003],[-66.16482710000001,-17.411171900000003],[-66.1647882,-17.4111958],[-66.1647461,-17.4112139],[-66.16470170000001,-17.4112261],[-66.1646559,-17.4112319],[-66.1646097,-17.411231200000003],[-66.16456400000001,-17.411224200000003],[-66.16452000000001,-17.4112109],[-66.16448720000001,-17.4111963],[-66.16445630000001,-17.411178200000002],[-66.1644279,-17.4111569],[-66.1644021,-17.411132600000002],[-66.16437950000001,-17.411105600000003],[-66.1642415,-17.4110476],[-66.16417440000001,-17.4110371],[-66.16410730000001,-17.4110389],[-66.16399600000001,-17.411047200000002],[-66.1638889,-17.4110759],[-66.1635129,-17.4112416],[-66.1626782,-17.411627000000003],[-66.1626487,-17.411640600000002],[-66.1616448,-17.412101600000003],[-66.15983600000001,-17.412905300000002],[-66.15977290000001,-17.412933300000002],[-66.15965560000001,-17.412985600000003],[-66.15963350000001,-17.412996800000002],[-66.15960980000001,-17.413004200000003],[-66.1595691,-17.413007200000003],[-66.1594438,-17.4130666],[-66.1588006,-17.4132539],[-66.1587703,-17.4132627],[-66.15871250000001,-17.4132767],[-66.15860160000001,-17.413303300000003],[-66.15854850000001,-17.4133166],[-66.1576666,-17.413436500000003],[-66.1576174,-17.413443200000003],[-66.1573529,-17.413480800000002],[-66.1572733,-17.4134916],[-66.15687240000001,-17.4135461],[-66.15676020000001,-17.413552000000003],[-66.15669600000001,-17.413541000000002],[-66.1566397,-17.4135223],[-66.15651190000001,-17.4134789],[-66.15642820000001,-17.413459000000003],[-66.1559132,-17.4133788],[-66.1557916,-17.413358600000002],[-66.1557739,-17.413355900000003],[-66.1557325,-17.4133502],[-66.15560710000001,-17.413324300000003],[-66.1555752,-17.413315],[-66.15552650000001,-17.413300900000003],[-66.1554401,-17.413258600000002],[-66.1553389,-17.4132028],[-66.15531410000001,-17.4131891],[-66.1551014,-17.413072000000003],[-66.1550519,-17.4130447],[-66.15502810000001,-17.4130325],[-66.15480240000001,-17.4129164],[-66.15464990000001,-17.4128352],[-66.1537674,-17.4123862],[-66.15364360000001,-17.4122825],[-66.1535673,-17.4121917],[-66.1535467,-17.412141100000003],[-66.15353730000001,-17.4121042],[-66.1535104,-17.411993000000002],[-66.1535029,-17.4119093],[-66.1534726,-17.4104835],[-66.1534922,-17.410274400000002],[-66.153473,-17.409858500000002],[-66.1534302,-17.408289],[-66.15340370000001,-17.407548600000002],[-66.1525781,-17.40757],[-66.1525507,-17.4075707],[-66.1516888,-17.4075963],[-66.1515162,-17.407603400000003],[-66.1508022,-17.407629800000002],[-66.15071250000001,-17.407631700000003],[-66.1507746,-17.4049827],[-66.150771,-17.404971600000003],[-66.15077000000001,-17.4049601],[-66.15077190000001,-17.404948400000002],[-66.1507766,-17.4049374],[-66.1507837,-17.404927700000002],[-66.1508472,-17.4046287],[-66.150896,-17.404378100000002],[-66.1509295,-17.404109400000003],[-66.1509427,-17.403939700000002],[-66.15092440000001,-17.403489],[-66.1509204,-17.4033251],[-66.1508986,-17.402581700000002],[-66.15089210000001,-17.402390800000003],[-66.15088990000001,-17.4022599],[-66.15091410000001,-17.4021192],[-66.1509729,-17.4019459],[-66.1510198,-17.4018412],[-66.1511813,-17.401497300000003],[-66.1512002,-17.401454400000002],[-66.1512301,-17.4013183],[-66.1512356,-17.4011615],[-66.15122360000001,-17.4010129],[-66.15119960000001,-17.400908400000002],[-66.15115990000001,-17.400784],[-66.1511079,-17.4006717],[-66.15106730000001,-17.4005979],[-66.1509999,-17.400493200000003],[-66.1509233,-17.4003938],[-66.1508146,-17.400286400000002],[-66.15071800000001,-17.400208300000003],[-66.15059790000001,-17.4001282],[-66.1505042,-17.4000796],[-66.1503866,-17.4000312],[-66.1502731,-17.3999956],[-66.1501808,-17.3999807],[-66.15007990000001,-17.3999658],[-66.14984550000001,-17.3999622],[-66.14933160000001,-17.399950800000003],[-66.1488302,-17.3999397],[-66.14830380000001,-17.3999281],[-66.14821160000001,-17.399872900000002],[-66.1471925,-17.399734000000002],[-66.1471293,-17.399726700000002],[-66.14708,-17.399720300000002],[-66.1467796,-17.3996813],[-66.14634190000001,-17.399624600000003],[-66.1463217,-17.399622],[-66.14625910000001,-17.399613900000002],[-66.14613700000001,-17.3995965],[-66.1460904,-17.399589900000002],[-66.1457953,-17.399548000000003],[-66.14557540000001,-17.399516300000002],[-66.1445109,-17.3993696],[-66.14397620000001,-17.3992925],[-66.1431728,-17.3991872],[-66.142426,-17.399084700000003],[-66.1419213,-17.399018700000003],[-66.14171160000001,-17.399952300000002]],"nodes":[780227189,8961937465,3700161940,5871333495,780227764,5871333568,780226711,780227519,780227434,780226719,5031064376,5031064342,780227567,3601746295,5031064370,617198358,13327467021,617198359,3601746234,12511366906,12511124097,12511124098,13327480209,7059198523,7059198524,7059198525,7059198526,13731478463,7059198528,7059198529,7059198530,7059198531,7059198532,13731478461,7059198533,7059198534,7059198535,7059198536,7059198537,7059198538,7059198540,7059198541,4509963020,4509963018,3700232960,9319861012,617198410,781813781,11038654648,781813528,2545471215,617337151,617360088,617200544,4941079635,6852495122,781835257,6852495125,3255507767,319771126,6728813998,11353309042,8221419846,617198439,7527591106,3192787640,7527591083,11073473498,7527591084,6179669353,7527591077,7527591100,617344406,8221419836,8221419838,781813590,783870512,781813472,8221419798,12487415613,12706842543,2140912563,6917120246,9354944921,319771802,2140912543,8048387332,9354944920,617200550,8048387321,319772517,12706842535,319771957,783869220,617337192,617337190,13744093450,785869304,5870202365,5870202366,6917120217,785868542,785868821,2544242053,5236806811,8316478288,8316478291,9262757164,8316478298,319772617,12091174511,8316478286,786662202,4571961294,11084165261,786662071,786662079,7149699478,10012571191,786662233,786662020,7933924070,8630411911,786662086,4571961312,9008315768,786662289,786662384,4317735514,13812800413,7933924074,9008315506,9008315507,10572209945,8316478467,319773261,9008315534,9008315509,8316478468,319773262,9008315710,4586488215,10837513366,2594886774,11296265958,10837513370,4586488216,10837513371,10572209994,319773839,8630411836,319773840,8630411835,793568529,793568511,6918618955,793568540,793568550,7933924038,698491866,9008269186,698491852,698491857,9355127785,9355127784,698491894,9008269190,4586487875,8317038874,6836037176,793568534,9025874012,793568542,793568567,6282778241,793568556,5605232830,5605232828,8627399434,9786116626,9786116635,2354386800,9786116631,8627399435,794074995,9008269168,794075099,794075049,794074991,794074975,4340534094,4478225459,794075151,13760954833,3255507834,13760954848,13760954835,4158051955,794075132,794075196,794075208,794074982,794075086,794075201,794075101,6845758237,8235936965,13685730899,2417368094,794081382,8235936959,8235936931,2417368107,2417368139,2417368154,6846214132,2417368183,1807038058,12650627925,2429829239,12650627934,1807038060,1807038065,8235455990,497195296,2339557956,2339557957,2160491572,6282770217,2160491570,2292218255,2635402936,6272592192,4398318268,6326490903,698597067,13438104010,560522669,2527702714,560522670,8474498116,560522671,8474498115,1445568050,1445568053,1445568062,1445568066,9017927881,560522653,6621278936,2869785615,660012892,560522652,2869785617,6621278944,800044188,7144349794,800044170,7144349792,800044219,9506951545,7144349797,800043957,7144349798,2334089729,2800230312,2800230315,2800230318,12849430782,13846976287,13846976288,13847013609,13847013601,13847013610,12849430777,13847013602,13847013611,13846976291,2812625139,13847013612,9436471466,13846976289,13847013613,13846976292,13847013614,800044230,2812625164,13847013603,13847013621,9436471471,13846976284,13847013604,2812625168,12498959411,3264157144,1737902982,560522324,12874271856,800044099,560522323,12874271853,3024437976,800044235,8046390997,2812625386,12874271838,12874271877,800044236,12874271839,843534441,8046380061,2800230434,843534504,11821516119,560522318,843534550,11821516122,2800230442,844969886,844969877,844969843,12391372557,9024004096,12391328964,2780334086,560522304,12391372567,12538679970,648571009,560522299,12391328954,11083708225,2420519876,12391328991,7555583167,12391328998,5735037334,8543061751,7555583181,12391328940,12391328934,7555583168,1638041075,12391328926,12391328924,7555592269,560522312,9024034092,560522311,9920249706,1638041078,7555586484,7555586466,9920249705,1638041080,9089886515,560522331,9089886514,2604131467,2604131470,9089888982,560522333,12393861217,843386444,9967177438,1865108172,1865108194,2604131542,12393861216,497192443,497192448,497190365,9436550539,648571098,9195011515,9436550538,497190369,9436550537,497190340,9195011514,9436550536,497190342,5729212691,9436550535,5729212690,9436550534,497190346,497190575,9195017618,497187079,9195017617,1762869009,1762869024,10583174313,1762869038,1762869113,7132200133,2716726806,2716726810,9438085266,2716726813,10830635450,1762869310,12100007983,2716726817,1497947919,2149916022,497187093,13764559481,1497947903,6558443842,13764559489,13764559476,13764559477,13764559482,2766300884,3709607002,13764559497,3709606976,11270427063,13764559472,13764559470,3709606994,11722101401,5433895288,3709606955,9435142311,13764586847,13702669634,3017385048,9599936947,9599936935,5610210467,5610210466,9139129393,5610210486,9131108111,9131108110,5610210482,5610210483,5610210485,5610210512,702511599,843383892,702511670,10923297987,702511672,702511667,8208217821,659960380,2768899137,2768899091,2768899088,2768899086,2768899085,2768899083,2768899082,2768899070,2768899068,12313146773,3325688394,7424209198,2768899058,2768899047,8192846541,2768899017,2768899015,12313146763,2768899012,2768899009,7197849281,2768899006,2768899001,2768899000,2768898998,2768898997,3322574459,2768898995,2768898994,8089836053,2768898991,8089836052,9121680489,2768898987,8089836054,2768898984,12313146720,2768898983,2768898982,12313136885,12313136888,2768898980,308297683,2031313826,598789376,8090144003,8090144006,2401180724,8090144002,702512021,702512024,9121680430,2401180720,702512028,2031313820,598787550,702512052,702512053,702512054,8090151671]},"gtfs":{"agency_id":2,"route_id":80,"services":[{"service_id":"Mo-Su","startTime":"06:00","endTime":"22:00","trip_id":11111525}],"filteredStops":{"nodes":[780227189,3700161940,780227764,780227519,780226719,5031064342,3601746295,617198358,617198359,12511124097,13327480209,7059198524,7059198526,7059198528,7059198530,13731478461,7059198534,7059198536,7059198538,7059198541,4509963018,617198410,11038654648,2545471215,617360088,4941079635,6852495125,319771126,11353309042,617198439,3192787640,11073473498,7527591077,617344406,8221419838,783870512,8221419798,12706842543,9354944921,2140912543,9354944920,8048387321,12706842535,783869220,13744093450,5870202365,6917120217,785868821,5236806811,9262757164,319772617,8316478286,4571961294,786662071,7149699478,786662020,8630411911,4571961312,786662289,4317735514,7933924074,10572209945,319773261,9008315509,319773262,4586488215,2594886774,4586488216,10572209994,8630411836,8630411835,793568511,793568550,698491866,698491852,9355127785,698491894,4586487875,793568534,793568542,6282778241,5605232830,8627399434,9786116635,8627399435,9008269168,794075049,794074975,4478225459,13760954833,13760954835,794075132,794075208,794075086,794075101,13685730899,794081382,8235936931,2417368139,6846214132,1807038058,12650627934,1807038065,497195296,2339557957,6282770217,2292218255,4398318268,698597067,560522669,560522670,560522671,1445568050,1445568066,560522653,660012892,560522652,800044170,800043957,2800230315,13847013609,13847013611,13846976289,2812625164,13846976284,1737902982,12874271853,12874271838,8046380061,560522318,844969877,2780334086,560522299,7555583167,7555583181,12391328926,560522311,9920249705,2604131467,12393861217,2604131542,9436550539,9436550537,5729212691,497190346,1762869009,2716726806,2716726810,1762869310,2149916022,6558443842,2766300884,3709607002,13764559472,11722101401,13764586847,9599936947,9139129393,9131108110,5610210512,702511670,659960380,2768899137,2768899085,2768899068,2768899058,2768899015,2768899006,2768898997,8089836053,2768898987,2768898983,308297683,2031313826,8090144003,8090144002,702512024,702512028,702512052,702512053,702512054,8090151671],"coordinates":[[-66.2852788,-17.423733600000002],[-66.2850775,-17.422715800000002],[-66.2849465,-17.421746300000002],[-66.28460910000001,-17.4197814],[-66.284419,-17.419792400000002],[-66.2842435,-17.4199124],[-66.2840165,-17.4200984],[-66.2837935,-17.420180600000002],[-66.2837289,-17.4198175],[-66.2836079,-17.4189964],[-66.2835584,-17.418653600000003],[-66.2832838,-17.4169205],[-66.2823075,-17.409816600000003],[-66.2821143,-17.408450700000003],[-66.2819814,-17.407506700000003],[-66.2817437,-17.4060096],[-66.281655,-17.405379],[-66.28150550000001,-17.4043159],[-66.28135250000001,-17.4032404],[-66.28122160000001,-17.402330000000003],[-66.281225,-17.402110200000003],[-66.28107270000001,-17.4011718],[-66.28081560000001,-17.399267100000003],[-66.2806049,-17.397671000000003],[-66.2805369,-17.3971516],[-66.28041180000001,-17.3965099],[-66.2805441,-17.3950329],[-66.2806245,-17.394282],[-66.2798815,-17.3942066],[-66.27879770000001,-17.3940994],[-66.2782169,-17.394039000000003],[-66.27814450000001,-17.3940395],[-66.2780201,-17.3940285],[-66.27738090000001,-17.393965100000003],[-66.2768911,-17.3939144],[-66.27496330000001,-17.3937285],[-66.27442020000001,-17.393684200000003],[-66.2729886,-17.393549],[-66.2728074,-17.3935435],[-66.2727581,-17.3935427],[-66.2726973,-17.3935241],[-66.27249690000001,-17.3934548],[-66.27222420000001,-17.393386500000002],[-66.27118340000001,-17.393261600000002],[-66.2692456,-17.393083],[-66.26816210000001,-17.3929793],[-66.2680632,-17.3929681],[-66.26498190000001,-17.3926561],[-66.26103330000001,-17.3922706],[-66.2597451,-17.392146200000003],[-66.25964130000001,-17.392134600000002],[-66.2589272,-17.392065600000002],[-66.2577273,-17.391949800000003],[-66.2560565,-17.3917855],[-66.25319800000001,-17.3914884],[-66.2517349,-17.391351800000002],[-66.2507894,-17.3912641],[-66.25044960000001,-17.391241100000002],[-66.24902460000001,-17.391148],[-66.2483832,-17.391103700000002],[-66.2478983,-17.3910798],[-66.2463515,-17.3910036],[-66.246144,-17.390994300000003],[-66.2459542,-17.3909884],[-66.2449045,-17.390971200000003],[-66.244702,-17.391009200000003],[-66.2444712,-17.391049600000002],[-66.2439758,-17.391043200000002],[-66.24373270000001,-17.390998600000003],[-66.24355220000001,-17.3909664],[-66.2433575,-17.3909534],[-66.24211430000001,-17.3909528],[-66.2398934,-17.390992100000002],[-66.2391427,-17.391038400000003],[-66.2388277,-17.3910735],[-66.23875550000001,-17.391099500000003],[-66.2386949,-17.391094600000002],[-66.23834480000001,-17.3910467],[-66.23636230000001,-17.391125600000002],[-66.2338646,-17.3912258],[-66.23202930000001,-17.391311],[-66.23130280000001,-17.3913334],[-66.23050210000001,-17.3913727],[-66.23001740000001,-17.3913979],[-66.2291665,-17.3914316],[-66.2274295,-17.3915073],[-66.22649600000001,-17.391546700000003],[-66.22209000000001,-17.391740000000002],[-66.2215956,-17.391763800000003],[-66.2201605,-17.391822400000002],[-66.2190114,-17.3918693],[-66.2182131,-17.3919074],[-66.2134978,-17.3921116],[-66.21252270000001,-17.3921524],[-66.2103017,-17.392249600000003],[-66.20824280000001,-17.392340800000003],[-66.2080961,-17.3923466],[-66.2077704,-17.392359900000002],[-66.20470830000001,-17.392489100000002],[-66.2036195,-17.3925345],[-66.2004314,-17.3926766],[-66.1997525,-17.3927076],[-66.1996077,-17.392714100000003],[-66.1989358,-17.392742000000002],[-66.19696090000001,-17.3928267],[-66.19390320000001,-17.3929632],[-66.1892684,-17.393168300000003],[-66.1844616,-17.3933742],[-66.1828126,-17.393447300000002],[-66.1810597,-17.393529800000003],[-66.18080090000001,-17.3936642],[-66.1807256,-17.3937278],[-66.18070180000001,-17.3938345],[-66.180936,-17.3945629],[-66.18111040000001,-17.3949649],[-66.18164010000001,-17.3962469],[-66.18166860000001,-17.3963214],[-66.18205640000001,-17.397674900000002],[-66.1825519,-17.399512400000003],[-66.18290540000001,-17.400787100000002],[-66.18298770000001,-17.401002700000003],[-66.1830834,-17.4010785],[-66.183104,-17.4011964],[-66.1830113,-17.4013151],[-66.1829146,-17.401334000000002],[-66.18146780000001,-17.4030831],[-66.18046070000001,-17.404300600000003],[-66.17934890000001,-17.40512],[-66.1776255,-17.406004900000003],[-66.17664620000001,-17.4066808],[-66.17569160000001,-17.4076883],[-66.1746949,-17.408973500000002],[-66.1741824,-17.4094772],[-66.1739965,-17.4097481],[-66.17369980000001,-17.4099885],[-66.17326340000001,-17.4101049],[-66.1712318,-17.4101453],[-66.17090440000001,-17.4102102],[-66.16814090000001,-17.4102588],[-66.16724740000001,-17.410421000000003],[-66.1653867,-17.4108614],[-66.1648842,-17.4111192],[-66.16470170000001,-17.4112261],[-66.16448720000001,-17.4111963],[-66.16437950000001,-17.411105600000003],[-66.1638889,-17.4110759],[-66.15977290000001,-17.412933300000002],[-66.15965560000001,-17.412985600000003],[-66.1594438,-17.4130666],[-66.15860160000001,-17.413303300000003],[-66.1573529,-17.413480800000002],[-66.1566397,-17.4135223],[-66.15651190000001,-17.4134789],[-66.1557739,-17.413355900000003],[-66.1555752,-17.413315],[-66.15531410000001,-17.4131891],[-66.15502810000001,-17.4130325],[-66.15364360000001,-17.4122825],[-66.15353730000001,-17.4121042],[-66.1534922,-17.410274400000002],[-66.15340370000001,-17.407548600000002],[-66.1508022,-17.407629800000002],[-66.15071250000001,-17.407631700000003],[-66.15077190000001,-17.404948400000002],[-66.150896,-17.404378100000002],[-66.1509204,-17.4033251],[-66.15091410000001,-17.4021192],[-66.1512301,-17.4013183],[-66.15115990000001,-17.400784],[-66.1509233,-17.4003938],[-66.1505042,-17.4000796],[-66.15007990000001,-17.3999658],[-66.14821160000001,-17.399872900000002],[-66.1471925,-17.399734000000002],[-66.14708,-17.399720300000002],[-66.1463217,-17.399622],[-66.14613700000001,-17.3995965],[-66.14557540000001,-17.399516300000002],[-66.1431728,-17.3991872],[-66.142426,-17.399084700000003],[-66.1419213,-17.399018700000003],[-66.14171160000001,-17.399952300000002]]}}},{"type":"Feature","properties":{"bench":"no","bin":"no","bus":"yes","departures_board":"no","highway":"bus_stop","level":"0","lit":"no","name":"16 de Julio","public_transport":"platform","shelter":"no","tactile_paving":"no","wheelchair":"no","id":6546789715},"geometry":{"type":"Point","coordinates":[-66.14989340000001,-17.4000069]}},{"type":"Feature","properties":{"bench":"no","bin":"no","bus":"yes","departures_board":"no","highway":"bus_stop","kerb":"raised","level":"0","lit":"no","name":"Puente Killman","operator":"Gobierno Autónomo Municipal de Cochabamba","operator:type":"government","public_transport":"platform","shelter":"no","tactile_paving":"no","wheelchair":"no","id":7555586465},"geometry":{"type":"Point","coordinates":[-66.1740297,-17.409782200000002]}},{"type":"Feature","properties":{"addr:city":"Cochabamba","bench":"no","bin":"no","bus":"yes","departures_board":"no","highway":"bus_stop","level":"0","lit":"no","name":"Parada 200 / 201 / 203 / 204 / 206","operator":"Sindicato Mixto de Transportistas Línea 7 Nuestra Señora de Urkupiña","public_transport":"platform","shelter":"no","tactile_paving":"no","wheelchair":"no","id":7204237206},"geometry":{"type":"Point","coordinates":[-66.1416765,-17.399911000000003]}},{"type":"Feature","properties":{"bench":"no","bin":"no","bus":"yes","departures_board":"no","fee":"yes","highway":"bus_stop","level":"0","lit":"no","name":"Parada 206","public_transport":"platform","shelter":"no","tactile_paving":"no","wheelchair":"no","id":13728657684},"geometry":{"type":"Point","coordinates":[-66.2852278,-17.4237198]}}]}