{"type":"FeatureCollection","features":[{"type":"Feature","properties":{"bicycle":"no","bus":"minibus","check_date":"29/12/2025","from":"Avenida Suarez Miranda","name":"MiniBus 205: Avenida Suarez Miranda → Calle Litoral","network":"BO:CB:Cochabamba","on_demand":"yes","operator":"Asociación de taxi trufis 1ro de mayo","operator:type":"association","public_transport:version":"2","ref":"205","roundtrip":"no","route":"bus","to":"Calle Litoral","type":"route","via":"Plaza Bolívar","wheelchair":"no","id":11110740},"geometry":{"type":"LineString","coordinates":[[-66.2816921,-17.3808119],[-66.2816415,-17.3815608],[-66.2815854,-17.382213],[-66.2815814,-17.3822594],[-66.2815501,-17.3826277],[-66.2815208,-17.3830256],[-66.2813866,-17.3846243],[-66.2813006,-17.3857489],[-66.2812977,-17.385782],[-66.2812124,-17.3868709],[-66.2811047,-17.3881002],[-66.2810051,-17.3892727],[-66.2809188,-17.390505],[-66.2818825,-17.3905745],[-66.2817936,-17.3917818],[-66.2816969,-17.3929911],[-66.2816,-17.3940668],[-66.2815709,-17.3943417],[-66.2815121,-17.3951247],[-66.2815078,-17.3951823],[-66.2814993,-17.3952706],[-66.2813752,-17.3967659],[-66.2804118,-17.3965099],[-66.2803473,-17.3965005],[-66.2790567,-17.3959125],[-66.2788803,-17.3958419],[-66.2782413,-17.3954141],[-66.277662,-17.3950262],[-66.2775163,-17.3948999],[-66.2773809,-17.3939651],[-66.2769843,-17.393924],[-66.2768911,-17.3939144],[-66.2761362,-17.3938363],[-66.2749633,-17.3937285],[-66.2745387,-17.3936929],[-66.2744202,-17.3936842],[-66.2732528,-17.3935653],[-66.2729886,-17.393549],[-66.2728906,-17.3935115],[-66.2728521,-17.3935331],[-66.2728074,-17.3935435],[-66.2727806,-17.393545],[-66.2727581,-17.3935427],[-66.2727267,-17.393536],[-66.2726973,-17.3935241],[-66.2726613,-17.3934995],[-66.2724969,-17.3934548],[-66.2723523,-17.3934131],[-66.2722242,-17.3933865],[-66.272136,-17.393375],[-66.2711834,-17.3932616],[-66.2701132,-17.3931644],[-66.2699556,-17.3931509],[-66.2682713,-17.392991],[-66.2681621,-17.3929793],[-66.2680858,-17.3929704],[-66.2680632,-17.3929681],[-66.2679799,-17.3929599],[-66.2663099,-17.3927856],[-66.2649819,-17.3926561],[-66.2620232,-17.3923631],[-66.2610333,-17.3922706],[-66.260403,-17.3922097],[-66.2600955,-17.3921801],[-66.2597451,-17.3921462],[-66.2596815,-17.3921401],[-66.2596413,-17.3921346],[-66.2594826,-17.3921205],[-66.2589272,-17.3920656],[-66.2579447,-17.3919684],[-66.2577273,-17.3919498],[-66.2575312,-17.3919305],[-66.2560565,-17.3917855],[-66.2548029,-17.3916521],[-66.253198,-17.3914884],[-66.2530064,-17.3914702],[-66.2528628,-17.3914565],[-66.2517349,-17.3913518],[-66.2513053,-17.3913072],[-66.2507894,-17.3912641],[-66.2506459,-17.3912553],[-66.2504496,-17.3912411],[-66.2499498,-17.3912077],[-66.2490246,-17.391148],[-66.2489296,-17.3911412],[-66.2483832,-17.3911037],[-66.2478983,-17.3910798],[-66.2474718,-17.3910588],[-66.2466946,-17.3910205],[-66.2463515,-17.3910036],[-66.2462864,-17.3910004],[-66.246144,-17.3909943],[-66.2460957,-17.3909928],[-66.2459542,-17.3909884],[-66.2450017,-17.3909622],[-66.2449045,-17.3909712],[-66.2447457,-17.3910024],[-66.244702,-17.3910092],[-66.2446107,-17.3910304],[-66.2444712,-17.3910496],[-66.2443896,-17.3910486],[-66.2440073,-17.3910438],[-66.2439758,-17.3910432],[-66.2439215,-17.3910349],[-66.2437327,-17.3909986],[-66.2436764,-17.3909884],[-66.2435522,-17.3909664],[-66.2434639,-17.3909569],[-66.2433575,-17.3909534],[-66.2427821,-17.3909552],[-66.2421143,-17.3909528],[-66.2411382,-17.3909664],[-66.2409403,-17.3909694],[-66.2398934,-17.3909921],[-66.2393461,-17.3910207],[-66.2391427,-17.3910384],[-66.2389626,-17.3910615],[-66.2388277,-17.3910735],[-66.238785,-17.3910956],[-66.2387555,-17.3910995],[-66.2387249,-17.3910999],[-66.2386949,-17.3910946],[-66.2385208,-17.3910721],[-66.2383448,-17.3910467],[-66.2381859,-17.3910491],[-66.2378308,-17.3910656],[-66.2363623,-17.3911256],[-66.2363592,-17.3911257],[-66.2338646,-17.3912258],[-66.2324387,-17.3912917],[-66.2320293,-17.391311],[-66.2319827,-17.3913101],[-66.2313028,-17.3913334],[-66.2309385,-17.3913516],[-66.2305021,-17.3913727],[-66.2300327,-17.3913971],[-66.2300174,-17.3913979],[-66.2298855,-17.3914048],[-66.2297415,-17.3914102],[-66.2291665,-17.3914316],[-66.228361,-17.3914642],[-66.2274295,-17.3915073],[-66.2266236,-17.3915445],[-66.226496,-17.3915467],[-66.2249193,-17.3916169],[-66.22209,-17.39174],[-66.2218668,-17.3917507],[-66.2215956,-17.3917638],[-66.2213351,-17.3917763],[-66.2194094,-17.3918519],[-66.2193472,-17.3918506],[-66.218927,-17.3918711],[-66.2182553,-17.3918972],[-66.2154179,-17.392026],[-66.2135165,-17.3921133],[-66.2125924,-17.3921466],[-66.2125225,-17.3921489],[-66.2113164,-17.3922033],[-66.2103878,-17.3922456],[-66.2103017,-17.3922496],[-66.208973,-17.3923041],[-66.2082952,-17.3923381],[-66.2082831,-17.3923387],[-66.2081903,-17.3923434],[-66.2080961,-17.3923466],[-66.2080101,-17.3923501],[-66.2077704,-17.3923599],[-66.2056284,-17.3924477],[-66.2047083,-17.3924891],[-66.2043092,-17.3925078],[-66.2036195,-17.3925345],[-66.2031084,-17.3925542],[-66.2004314,-17.3926766],[-66.2002307,-17.3926858],[-66.1998222,-17.3927046],[-66.1997525,-17.3927076],[-66.1996829,-17.3927105],[-66.1996077,-17.3927141],[-66.1994816,-17.3927193],[-66.1989358,-17.392742],[-66.1970994,-17.3928205],[-66.1969609,-17.3928267],[-66.1941713,-17.3929516],[-66.1939032,-17.3929632],[-66.1918596,-17.3930496],[-66.1892684,-17.3931683],[-66.1875821,-17.3932431],[-66.1864162,-17.3932944],[-66.1844616,-17.3933742],[-66.1841034,-17.3933915],[-66.1825146,-17.3934622],[-66.1818302,-17.393494],[-66.1810597,-17.3935298],[-66.1801494,-17.3935677],[-66.1795661,-17.3935933],[-66.1776738,-17.3936785],[-66.1772788,-17.3936967],[-66.1766698,-17.3937248],[-66.176607,-17.3937277],[-66.1764849,-17.393733],[-66.1763233,-17.3937399],[-66.1746071,-17.3938138],[-66.1740147,-17.3938393],[-66.1739096,-17.3938439],[-66.1724045,-17.3939064],[-66.172135,-17.3939606],[-66.171351,-17.3939959],[-66.1711564,-17.3940107],[-66.1708685,-17.3940485],[-66.1708359,-17.3940528],[-66.1707777,-17.3940604],[-66.1707491,-17.3940782],[-66.1707177,-17.394089],[-66.1706843,-17.3940986],[-66.1706577,-17.3941006],[-66.1706312,-17.3940991],[-66.170605,-17.3940943],[-66.1705706,-17.3940823],[-66.1705363,-17.3940981],[-66.1705029,-17.3941101],[-66.1703542,-17.3941299],[-66.1692179,-17.3941727],[-66.16885,-17.3941349],[-66.1687489,-17.3941394],[-66.1683519,-17.3941568],[-66.1680676,-17.3941641],[-66.1679544,-17.3941685],[-66.1678045,-17.3941573],[-66.1677095,-17.394146],[-66.1676034,-17.3941365],[-66.1674729,-17.3941222],[-66.167405,-17.3941166],[-66.1673762,-17.394114],[-66.1669627,-17.3940655],[-66.1669372,-17.3940636],[-66.1666985,-17.3940382],[-66.1666089,-17.3940263],[-66.1665145,-17.3940046],[-66.166338,-17.3939312],[-66.1662729,-17.3939109],[-66.166192,-17.3938936],[-66.165909,-17.3938483],[-66.1659047,-17.3938916],[-66.16583,-17.3946523],[-66.1658204,-17.3947484],[-66.1658902,-17.394756],[-66.1660693,-17.3947845],[-66.1663067,-17.3947917],[-66.1665308,-17.3947733],[-66.1666695,-17.3947513],[-66.1667241,-17.3947426],[-66.1666947,-17.3944766],[-66.1666451,-17.3942532],[-66.1666025,-17.394135],[-66.1663799,-17.3936194],[-66.1662357,-17.3933027],[-66.1660752,-17.392978],[-66.1659027,-17.3926285],[-66.1658615,-17.3925489],[-66.1658042,-17.3925655],[-66.165747,-17.3925666],[-66.1656731,-17.39256],[-66.1651824,-17.3924767],[-66.1647945,-17.3924087],[-66.1641258,-17.3923022],[-66.1632725,-17.3921625],[-66.1629662,-17.3921123],[-66.1622199,-17.3919797],[-66.1612411,-17.3918198],[-66.1601096,-17.3916424],[-66.1602989,-17.3905992],[-66.1604853,-17.389578],[-66.1604941,-17.3895298],[-66.1595645,-17.3893548],[-66.1595142,-17.3893446],[-66.1594248,-17.3893303],[-66.1594381,-17.3892731],[-66.1595045,-17.3889593],[-66.1595438,-17.3887739],[-66.1595597,-17.3887023],[-66.1596289,-17.388391],[-66.1596533,-17.3882855],[-66.159665,-17.3882378],[-66.1596699,-17.3882185],[-66.1598506,-17.3873411],[-66.1598618,-17.3872827],[-66.1599769,-17.3866825],[-66.1600755,-17.386168],[-66.1600869,-17.3861089],[-66.1600949,-17.3860628],[-66.1601659,-17.3856534],[-66.16018,-17.3855719],[-66.1602426,-17.3852112],[-66.1602719,-17.3850427],[-66.1603,-17.3848807],[-66.1603909,-17.3843568],[-66.1603977,-17.3843175],[-66.1604492,-17.3840424],[-66.160463,-17.3839763],[-66.1605182,-17.3836826],[-66.1606066,-17.3832271],[-66.160622,-17.3831615],[-66.1607113,-17.382727],[-66.1607725,-17.3823996],[-66.1607845,-17.3823264],[-66.1607744,-17.3822598],[-66.1607473,-17.3821879],[-66.160705,-17.3821268],[-66.1606319,-17.3820712],[-66.1605166,-17.3820253],[-66.1604059,-17.3819879],[-66.1602108,-17.3818713],[-66.1598161,-17.3817462],[-66.1595993,-17.3816536],[-66.1594851,-17.3816156],[-66.1593943,-17.3816108],[-66.1593262,-17.3816229],[-66.159246,-17.3816634],[-66.1591849,-17.3817131],[-66.1591467,-17.3817732],[-66.1591297,-17.3818237],[-66.1591016,-17.3819554],[-66.1590835,-17.3820112],[-66.1590641,-17.3820423],[-66.1590394,-17.3820634],[-66.1590056,-17.3820821],[-66.1589617,-17.382104],[-66.1589084,-17.3821172],[-66.1588434,-17.3821132],[-66.1587835,-17.3821039],[-66.1580753,-17.3819751],[-66.1580028,-17.3819643],[-66.1573892,-17.381873],[-66.1568888,-17.3817905],[-66.1568313,-17.3817807],[-66.1567671,-17.3817717],[-66.15672,-17.3817635],[-66.1557422,-17.3815937],[-66.1552471,-17.3815077],[-66.1544358,-17.3813799],[-66.1542726,-17.3813542],[-66.1539083,-17.3814744],[-66.1535582,-17.381583],[-66.1529795,-17.3817842],[-66.1524372,-17.3819727],[-66.1523209,-17.3820162],[-66.1523387,-17.3820841],[-66.1523498,-17.382163],[-66.1523496,-17.3822275],[-66.1523415,-17.382301],[-66.1523193,-17.3823884],[-66.1522786,-17.3824727],[-66.1522248,-17.3825501],[-66.1521593,-17.3826187],[-66.1520834,-17.3826766],[-66.1519408,-17.3827253],[-66.151791,-17.382747],[-66.1516597,-17.3827433],[-66.1515937,-17.3827285],[-66.1515298,-17.3827068],[-66.1514689,-17.3826784],[-66.1513972,-17.3826334],[-66.151333,-17.3825792],[-66.1512774,-17.3825169],[-66.1512315,-17.3824478],[-66.1511549,-17.3824729],[-66.1511287,-17.3824821],[-66.1503508,-17.3827539],[-66.1502869,-17.3827763],[-66.1502398,-17.382793],[-66.1498838,-17.3829205],[-66.149362,-17.3831136],[-66.1493001,-17.3831365],[-66.1493758,-17.3833362],[-66.1493773,-17.3833623],[-66.1493728,-17.3833791],[-66.1493629,-17.3833936],[-66.1493485,-17.3834042],[-66.1493313,-17.3834098],[-66.14928,-17.3834395],[-66.1492301,-17.3834738],[-66.1491921,-17.383517],[-66.1491527,-17.3835715],[-66.1491029,-17.3836523],[-66.1487751,-17.384153],[-66.1483056,-17.3849038],[-66.1477627,-17.3857801],[-66.1475769,-17.3858929],[-66.1475139,-17.3859308],[-66.1475669,-17.3860074],[-66.147678,-17.3861681],[-66.1477159,-17.3862228],[-66.148064,-17.3867233],[-66.1483646,-17.3871554],[-66.1484094,-17.3872198],[-66.1485012,-17.3873491],[-66.1485192,-17.3873745],[-66.1486427,-17.3875508],[-66.1488419,-17.3878325],[-66.14901,-17.38807],[-66.1491698,-17.3882995],[-66.1493366,-17.3885389],[-66.1493179,-17.3886449],[-66.149276,-17.3888535],[-66.1491994,-17.3892544],[-66.1491441,-17.3895439],[-66.1490107,-17.3902306],[-66.148919,-17.390703],[-66.1489091,-17.3907458],[-66.1488943,-17.3908244],[-66.1488306,-17.3908127],[-66.1482502,-17.3907061],[-66.1479073,-17.3906432],[-66.1478329,-17.3906295],[-66.1477703,-17.3906176],[-66.1472595,-17.3905203],[-66.1462645,-17.3903309],[-66.1458114,-17.3902432],[-66.1457691,-17.390235],[-66.1452792,-17.3901402],[-66.1448309,-17.3900534],[-66.1447822,-17.390044],[-66.1447221,-17.3900326],[-66.1437615,-17.3898592],[-66.1436815,-17.3898455],[-66.1436552,-17.3898914],[-66.1433968,-17.3904568],[-66.1432738,-17.3907341],[-66.1427748,-17.3917991],[-66.1427452,-17.3918573],[-66.1427214,-17.3919144],[-66.1423464,-17.3927549],[-66.1423273,-17.3927935],[-66.1419298,-17.3936747],[-66.1418779,-17.3937896],[-66.141893,-17.3937988],[-66.1419055,-17.393811],[-66.141917,-17.3938301],[-66.1419226,-17.3938534],[-66.1419205,-17.3938773],[-66.1419148,-17.3938924],[-66.141906,-17.3939061],[-66.141894,-17.3939181],[-66.1418729,-17.3939304],[-66.1418541,-17.3939354],[-66.1418341,-17.393936],[-66.1418082,-17.3939294],[-66.1417752,-17.3940245],[-66.1415059,-17.3945896],[-66.141484,-17.3946387],[-66.1414542,-17.3947032],[-66.1407681,-17.3962043],[-66.1407354,-17.3962758],[-66.1407077,-17.3963364],[-66.1399786,-17.3979321],[-66.1398933,-17.3981152],[-66.1396562,-17.3986281],[-66.1396259,-17.3986937],[-66.1392739,-17.3995221]],"nodes":[783868776,783870246,11353342871,783869112,783869977,783869395,783869722,7943415823,783870714,783868850,783869017,617337208,783870693,783868912,783884158,309139665,319771170,319771124,5357622681,309139663,5357622678,781835203,4941079635,6179669361,617331659,617331656,7535460589,3257963020,617344402,617344406,8221419836,8221419838,781813590,783870512,781813472,8221419798,12487415613,12706842543,2140912563,6917120246,9354944921,319771802,2140912543,8048387332,9354944920,617200550,8048387321,319772517,12706842535,319771957,783869220,617337192,617337190,785869304,5870202365,5870202366,6917120217,9262757144,785868542,785868821,2544242053,5236806811,8316478288,8316478291,9262757164,8316478298,319772617,12091174511,8316478286,786662202,4571961294,11084165261,786662071,786662079,7149699478,10012571191,786662233,786662020,7933924070,8630411911,786662086,4571961312,9008315768,786662289,786662384,4317735514,7933924074,9008315506,9008315507,10572209945,8316478467,319773261,9008315534,9008315509,8316478468,319773262,9008315710,4586488215,10837513366,2594886774,11296265958,10837513370,4586488216,10837513371,10572209994,319773839,8630411836,319773840,8630411835,793568529,793568511,6918618955,793568540,793568550,7933924038,698491866,9008269186,698491852,698491857,9355127785,9355127784,698491894,9008269190,4586487875,8317038874,6836037176,793568534,9025874012,793568542,793568567,6282778241,793568556,5605232830,5605232828,8627399434,9786116626,9786116635,2354386800,9786116631,8627399435,794074995,9008269168,794075099,794075049,794074991,794074975,4340534094,4478225459,794075151,3255507834,4158051956,4158051955,794075132,794075196,794075208,794074982,794075086,794074944,794075201,794075101,6845758237,8235936965,9374958479,2417368094,794081382,8235936959,8235936931,2417368107,2417368139,2417368154,6846214132,2417368183,1807038058,12650627925,2429829239,12650627934,1807038060,1807038065,8235455990,497195296,2339557956,2339557957,2160491572,6282770217,2160491570,2292218255,2635402936,6272592192,4398318268,6326490903,698597067,13438104010,560522669,689437127,800044225,800044066,9081523770,13438065392,2527263187,800044095,13438103967,9017927915,800044053,800043986,12300469255,315919272,13416534064,13416534065,13417065133,13436362625,13416534061,13416534042,13303075825,13416534071,13303071588,13416534056,13416534072,13303071581,13416534049,660004651,13416534073,800044094,9081461993,6952929962,800044036,12088438231,315934179,9081829379,2420519775,4732874466,2420519774,11079352071,315942232,648570956,11079352069,315935003,8147129096,3281516922,2330755899,3281516920,1636978219,698492313,13131123325,2398944556,310502087,2398944557,1636978221,4941353034,2477244182,9916158243,315114923,2330755914,2330755911,315115733,315115734,2330755890,315108296,2312521741,315117174,2312521737,8147129083,9650376688,9515118283,5567794553,2398944438,308304262,12574550687,308304263,308304264,308304265,8226402867,10792253168,310501182,2295541496,648546073,310263604,2295541482,10817208102,9339527214,10817208098,9566992879,310263795,310263856,9566992878,310263858,3674260521,9339528759,11105974895,3232582105,11105974897,11917330433,8527430219,11917330449,11069694906,9141014768,310263912,2312198396,310272906,2312198368,8147707646,2312198325,2312198317,315119721,315119722,315119841,315119842,2312198127,315119843,2312198097,315119844,2312198065,315119406,315119846,315119405,315119636,315119637,315119638,315119639,315119640,315119641,8347189848,315119642,315119643,10777469229,315119644,8362746256,2312198104,8267964009,315119646,10777469232,4040921140,13157037922,4867424208,2296981955,312424909,8337099524,2296981950,312425136,312425143,11911412614,4040921144,391730462,6199916373,10779146131,2220379085,1718842341,9816174021,2312198105,9042368177,2220379137,2220379178,8355285955,2220379216,9724070706,2220379256,9724070707,9042368179,2220379261,10839957165,6179537716,2220379259,6179537717,2220379212,9068826346,2361168084,2441014293,10597815717,9068826502,3921428858,9068826696,5253442221,9724210430,2361168086,9169042313,9068826321,9068826322,9068826336,9068826337,2321582872,2321582874,2321582875,9068826338,6615525547,9563776898,4027317748,9031318898,312425830,6179473103,312425828,6179473096,11310743156,9031318855,9028209372,6179473247,9031318856,2141431944,6179473241,6179473238,9034180378,5353339454,11310645817,312425956,315096054,3201986227,11827172367,308306729,11827181890,2524491857,303214819,698492415,1873958890,9920363683,1873958878,698492417,1873958877,8909153738,698492419,9852141003,2213884667,3950325577,4308163740,698492426,4308163739,6178744931,698492429,6178744932,360127104,315135505,8620183348,303221552,8620183347,8584400934,315134805,9886485075,2033335103,11072493727,2033335200,2033335257,11072493723,2033335311,11072493724,2033335400,2033335463,11072493713,11072493719,10597422696,9886485061,9886485059,8253508693,598787365,8253508695,8619110576,598789213,8619110577,8090197938,598788350,8250700095,391725774,3195120423]},"gtfs":{"agency_id":2,"route_id":3,"services":[{"service_id":"Mo-Su","startTime":"06:00","endTime":"22:00","trip_id":11110740}],"filteredStops":{"nodes":[783868776,783870246,11353342871,783869112,783869977,783869395,783869722,7943415823,783870714,783868850,783869017,617337208,783870693,783868912,783884158,309139665,319771170,319771124,5357622681,309139663,5357622678,781835203,4941079635,6179669361,617331659,617331656,7535460589,3257963020,617344402,617344406,8221419836,8221419838,781813590,783870512,781813472,8221419798,12487415613,12706842543,2140912563,6917120246,9354944921,319771802,2140912543,8048387332,9354944920,617200550,8048387321,319772517,12706842535,319771957,783869220,617337192,617337190,785869304,5870202365,5870202366,6917120217,9262757144,785868542,785868821,2544242053,5236806811,8316478288,8316478291,9262757164,8316478298,319772617,12091174511,8316478286,786662202,4571961294,11084165261,786662071,786662079,7149699478,10012571191,786662233,786662020,7933924070,8630411911,786662086,4571961312,9008315768,786662289,786662384,4317735514,7933924074,9008315506,9008315507,10572209945,8316478467,319773261,9008315534,9008315509,8316478468,319773262,9008315710,4586488215,10837513366,2594886774,11296265958,10837513370,4586488216,10837513371,10572209994,319773839,8630411836,319773840,8630411835,793568529,793568511,6918618955,793568540,793568550,7933924038,698491866,9008269186,698491852,698491857,9355127785,9355127784,698491894,9008269190,4586487875,8317038874,6836037176,793568534,9025874012,793568542,793568567,6282778241,793568556,5605232830,5605232828,8627399434,9786116626,9786116635,2354386800,9786116631,8627399435,794074995,9008269168,794075099,794075049,794074991,794074975,4340534094,4478225459,794075151,3255507834,4158051956,4158051955,794075132,794075196,794075208,794074982,794075086,794074944,794075201,794075101,6845758237,8235936965,9374958479,2417368094,794081382,8235936959,8235936931,2417368107,2417368139,2417368154,6846214132,2417368183,1807038058,12650627925,2429829239,12650627934,1807038060,1807038065,8235455990,497195296,2339557956,2339557957,2160491572,6282770217,2160491570,2292218255,2635402936,6272592192,4398318268,6326490903,698597067,13438104010,560522669,689437127,800044225,800044066,9081523770,13438065392,2527263187,800044095,13438103967,9017927915,800044053,800043986,12300469255,315919272,13416534064,13416534065,13417065133,13436362625,13416534061,13416534042,13303075825,13416534071,13303071588,13416534056,13416534072,13303071581,13416534049,660004651,13416534073,800044094,9081461993,6952929962,800044036,12088438231,315934179,9081829379,2420519775,4732874466,2420519774,11079352071,315942232,648570956,11079352069,315935003,8147129096,3281516922,2330755899,3281516920,1636978219,698492313,13131123325,2398944556,310502087,2398944557,1636978221,4941353034,2477244182,9916158243,315114923,2330755914,2330755911,315115733,315115734,2330755890,315108296,2312521741,315117174,2312521737,8147129083,9650376688,9515118283,5567794553,2398944438,308304262,12574550687,308304263,308304264,308304265,8226402867,10792253168,310501182,2295541496,648546073,310263604,2295541482,10817208102,9339527214,10817208098,9566992879,310263795,310263856,9566992878,310263858,3674260521,9339528759,11105974895,3232582105,11105974897,11917330433,8527430219,11917330449,11069694906,9141014768,310263912,2312198396,310272906,2312198368,8147707646,2312198325,2312198317,315119721,315119722,315119841,315119842,2312198127,315119843,2312198097,315119844,2312198065,315119406,315119846,315119405,315119636,315119637,315119638,315119639,315119640,315119641,8347189848,315119642,315119643,10777469229,315119644,8362746256,2312198104,8267964009,315119646,10777469232,4040921140,13157037922,4867424208,2296981955,312424909,8337099524,2296981950,312425136,312425143,11911412614,4040921144,391730462,6199916373,10779146131,2220379085,1718842341,9816174021,2312198105,9042368177,2220379137,2220379178,8355285955,2220379216,9724070706,2220379256,9724070707,9042368179,2220379261,10839957165,6179537716,2220379259,6179537717,2220379212,9068826346,2361168084,2441014293,10597815717,9068826502,3921428858,9068826696,5253442221,9724210430,2361168086,9169042313,9068826321,9068826322,9068826336,9068826337,2321582872,2321582874,2321582875,9068826338,6615525547,9563776898,4027317748,9031318898,312425830,6179473103,312425828,6179473096,11310743156,9031318855,9028209372,6179473247,9031318856,2141431944,6179473241,6179473238,9034180378,5353339454,11310645817,312425956,315096054,3201986227,11827172367,308306729,11827181890,2524491857,303214819,698492415,1873958890,9920363683,1873958878,698492417,1873958877,8909153738,698492419,9852141003,2213884667,3950325577,4308163740,698492426,4308163739,6178744931,698492429,6178744932,360127104,315135505,8620183348,303221552,8620183347,8584400934,315134805,9886485075,2033335103,11072493727,2033335200,2033335257,11072493723,2033335311,11072493724,2033335400,2033335463,11072493713,11072493719,10597422696,9886485061,9886485059,8253508693,598787365,8253508695,8619110576,598789213,8619110577,8090197938,598788350,8250700095,391725774,3195120423],"coordinates":[[-66.2816921,-17.3808119],[-66.2816415,-17.3815608],[-66.2815854,-17.382213],[-66.2815814,-17.3822594],[-66.2815501,-17.3826277],[-66.2815208,-17.3830256],[-66.2813866,-17.3846243],[-66.2813006,-17.3857489],[-66.2812977,-17.385782],[-66.2812124,-17.3868709],[-66.2811047,-17.3881002],[-66.2810051,-17.3892727],[-66.2809188,-17.390505],[-66.2818825,-17.3905745],[-66.2817936,-17.3917818],[-66.2816969,-17.3929911],[-66.2816,-17.3940668],[-66.2815709,-17.3943417],[-66.2815121,-17.3951247],[-66.2815078,-17.3951823],[-66.2814993,-17.3952706],[-66.2813752,-17.3967659],[-66.2804118,-17.3965099],[-66.2803473,-17.3965005],[-66.2790567,-17.3959125],[-66.2788803,-17.3958419],[-66.2782413,-17.3954141],[-66.277662,-17.3950262],[-66.2775163,-17.3948999],[-66.2773809,-17.3939651],[-66.2769843,-17.393924],[-66.2768911,-17.3939144],[-66.2761362,-17.3938363],[-66.2749633,-17.3937285],[-66.2745387,-17.3936929],[-66.2744202,-17.3936842],[-66.2732528,-17.3935653],[-66.2729886,-17.393549],[-66.2728906,-17.3935115],[-66.2728521,-17.3935331],[-66.2728074,-17.3935435],[-66.2727806,-17.393545],[-66.2727581,-17.3935427],[-66.2727267,-17.393536],[-66.2726973,-17.3935241],[-66.2726613,-17.3934995],[-66.2724969,-17.3934548],[-66.2723523,-17.3934131],[-66.2722242,-17.3933865],[-66.272136,-17.393375],[-66.2711834,-17.3932616],[-66.2701132,-17.3931644],[-66.2699556,-17.3931509],[-66.2682713,-17.392991],[-66.2681621,-17.3929793],[-66.2680858,-17.3929704],[-66.2680632,-17.3929681],[-66.2679799,-17.3929599],[-66.2663099,-17.3927856],[-66.2649819,-17.3926561],[-66.2620232,-17.3923631],[-66.2610333,-17.3922706],[-66.260403,-17.3922097],[-66.2600955,-17.3921801],[-66.2597451,-17.3921462],[-66.2596815,-17.3921401],[-66.2596413,-17.3921346],[-66.2594826,-17.3921205],[-66.2589272,-17.3920656],[-66.2579447,-17.3919684],[-66.2577273,-17.3919498],[-66.2575312,-17.3919305],[-66.2560565,-17.3917855],[-66.2548029,-17.3916521],[-66.253198,-17.3914884],[-66.2530064,-17.3914702],[-66.2528628,-17.3914565],[-66.2517349,-17.3913518],[-66.2513053,-17.3913072],[-66.2507894,-17.3912641],[-66.2506459,-17.3912553],[-66.2504496,-17.3912411],[-66.2499498,-17.3912077],[-66.2490246,-17.391148],[-66.2489296,-17.3911412],[-66.2483832,-17.3911037],[-66.2478983,-17.3910798],[-66.2474718,-17.3910588],[-66.2466946,-17.3910205],[-66.2463515,-17.3910036],[-66.2462864,-17.3910004],[-66.246144,-17.3909943],[-66.2460957,-17.3909928],[-66.2459542,-17.3909884],[-66.2450017,-17.3909622],[-66.2449045,-17.3909712],[-66.2447457,-17.3910024],[-66.244702,-17.3910092],[-66.2446107,-17.3910304],[-66.2444712,-17.3910496],[-66.2443896,-17.3910486],[-66.2440073,-17.3910438],[-66.2439758,-17.3910432],[-66.2439215,-17.3910349],[-66.2437327,-17.3909986],[-66.2436764,-17.3909884],[-66.2435522,-17.3909664],[-66.2434639,-17.3909569],[-66.2433575,-17.3909534],[-66.2427821,-17.3909552],[-66.2421143,-17.3909528],[-66.2411382,-17.3909664],[-66.2409403,-17.3909694],[-66.2398934,-17.3909921],[-66.2393461,-17.3910207],[-66.2391427,-17.3910384],[-66.2389626,-17.3910615],[-66.2388277,-17.3910735],[-66.238785,-17.3910956],[-66.2387555,-17.3910995],[-66.2387249,-17.3910999],[-66.2386949,-17.3910946],[-66.2385208,-17.3910721],[-66.2383448,-17.3910467],[-66.2381859,-17.3910491],[-66.2378308,-17.3910656],[-66.2363623,-17.3911256],[-66.2363592,-17.3911257],[-66.2338646,-17.3912258],[-66.2324387,-17.3912917],[-66.2320293,-17.391311],[-66.2319827,-17.3913101],[-66.2313028,-17.3913334],[-66.2309385,-17.3913516],[-66.2305021,-17.3913727],[-66.2300327,-17.3913971],[-66.2300174,-17.3913979],[-66.2298855,-17.3914048],[-66.2297415,-17.3914102],[-66.2291665,-17.3914316],[-66.228361,-17.3914642],[-66.2274295,-17.3915073],[-66.2266236,-17.3915445],[-66.226496,-17.3915467],[-66.2249193,-17.3916169],[-66.22209,-17.39174],[-66.2218668,-17.3917507],[-66.2215956,-17.3917638],[-66.2213351,-17.3917763],[-66.2194094,-17.3918519],[-66.2193472,-17.3918506],[-66.218927,-17.3918711],[-66.2182553,-17.3918972],[-66.2154179,-17.392026],[-66.2135165,-17.3921133],[-66.2125924,-17.3921466],[-66.2125225,-17.3921489],[-66.2113164,-17.3922033],[-66.2103878,-17.3922456],[-66.2103017,-17.3922496],[-66.208973,-17.3923041],[-66.2082952,-17.3923381],[-66.2082831,-17.3923387],[-66.2081903,-17.3923434],[-66.2080961,-17.3923466],[-66.2080101,-17.3923501],[-66.2077704,-17.3923599],[-66.2056284,-17.3924477],[-66.2047083,-17.3924891],[-66.2043092,-17.3925078],[-66.2036195,-17.3925345],[-66.2031084,-17.3925542],[-66.2004314,-17.3926766],[-66.2002307,-17.3926858],[-66.1998222,-17.3927046],[-66.1997525,-17.3927076],[-66.1996829,-17.3927105],[-66.1996077,-17.3927141],[-66.1994816,-17.3927193],[-66.1989358,-17.392742],[-66.1970994,-17.3928205],[-66.1969609,-17.3928267],[-66.1941713,-17.3929516],[-66.1939032,-17.3929632],[-66.1918596,-17.3930496],[-66.1892684,-17.3931683],[-66.1875821,-17.3932431],[-66.1864162,-17.3932944],[-66.1844616,-17.3933742],[-66.1841034,-17.3933915],[-66.1825146,-17.3934622],[-66.1818302,-17.393494],[-66.1810597,-17.3935298],[-66.1801494,-17.3935677],[-66.1795661,-17.3935933],[-66.1776738,-17.3936785],[-66.1772788,-17.3936967],[-66.1766698,-17.3937248],[-66.176607,-17.3937277],[-66.1764849,-17.393733],[-66.1763233,-17.3937399],[-66.1746071,-17.3938138],[-66.1740147,-17.3938393],[-66.1739096,-17.3938439],[-66.1724045,-17.3939064],[-66.172135,-17.3939606],[-66.171351,-17.3939959],[-66.1711564,-17.3940107],[-66.1708685,-17.3940485],[-66.1708359,-17.3940528],[-66.1707777,-17.3940604],[-66.1707491,-17.3940782],[-66.1707177,-17.394089],[-66.1706843,-17.3940986],[-66.1706577,-17.3941006],[-66.1706312,-17.3940991],[-66.170605,-17.3940943],[-66.1705706,-17.3940823],[-66.1705363,-17.3940981],[-66.1705029,-17.3941101],[-66.1703542,-17.3941299],[-66.1692179,-17.3941727],[-66.16885,-17.3941349],[-66.1687489,-17.3941394],[-66.1683519,-17.3941568],[-66.1680676,-17.3941641],[-66.1679544,-17.3941685],[-66.1678045,-17.3941573],[-66.1677095,-17.394146],[-66.1676034,-17.3941365],[-66.1674729,-17.3941222],[-66.167405,-17.3941166],[-66.1673762,-17.394114],[-66.1669627,-17.3940655],[-66.1669372,-17.3940636],[-66.1666985,-17.3940382],[-66.1666089,-17.3940263],[-66.1665145,-17.3940046],[-66.166338,-17.3939312],[-66.1662729,-17.3939109],[-66.166192,-17.3938936],[-66.165909,-17.3938483],[-66.1659047,-17.3938916],[-66.16583,-17.3946523],[-66.1658204,-17.3947484],[-66.1658902,-17.394756],[-66.1660693,-17.3947845],[-66.1663067,-17.3947917],[-66.1665308,-17.3947733],[-66.1666695,-17.3947513],[-66.1667241,-17.3947426],[-66.1666947,-17.3944766],[-66.1666451,-17.3942532],[-66.1666025,-17.394135],[-66.1663799,-17.3936194],[-66.1662357,-17.3933027],[-66.1660752,-17.392978],[-66.1659027,-17.3926285],[-66.1658615,-17.3925489],[-66.1658042,-17.3925655],[-66.165747,-17.3925666],[-66.1656731,-17.39256],[-66.1651824,-17.3924767],[-66.1647945,-17.3924087],[-66.1641258,-17.3923022],[-66.1632725,-17.3921625],[-66.1629662,-17.3921123],[-66.1622199,-17.3919797],[-66.1612411,-17.3918198],[-66.1601096,-17.3916424],[-66.1602989,-17.3905992],[-66.1604853,-17.389578],[-66.1604941,-17.3895298],[-66.1595645,-17.3893548],[-66.1595142,-17.3893446],[-66.1594248,-17.3893303],[-66.1594381,-17.3892731],[-66.1595045,-17.3889593],[-66.1595438,-17.3887739],[-66.1595597,-17.3887023],[-66.1596289,-17.388391],[-66.1596533,-17.3882855],[-66.159665,-17.3882378],[-66.1596699,-17.3882185],[-66.1598506,-17.3873411],[-66.1598618,-17.3872827],[-66.1599769,-17.3866825],[-66.1600755,-17.386168],[-66.1600869,-17.3861089],[-66.1600949,-17.3860628],[-66.1601659,-17.3856534],[-66.16018,-17.3855719],[-66.1602426,-17.3852112],[-66.1602719,-17.3850427],[-66.1603,-17.3848807],[-66.1603909,-17.3843568],[-66.1603977,-17.3843175],[-66.1604492,-17.3840424],[-66.160463,-17.3839763],[-66.1605182,-17.3836826],[-66.1606066,-17.3832271],[-66.160622,-17.3831615],[-66.1607113,-17.382727],[-66.1607725,-17.3823996],[-66.1607845,-17.3823264],[-66.1607744,-17.3822598],[-66.1607473,-17.3821879],[-66.160705,-17.3821268],[-66.1606319,-17.3820712],[-66.1605166,-17.3820253],[-66.1604059,-17.3819879],[-66.1602108,-17.3818713],[-66.1598161,-17.3817462],[-66.1595993,-17.3816536],[-66.1594851,-17.3816156],[-66.1593943,-17.3816108],[-66.1593262,-17.3816229],[-66.159246,-17.3816634],[-66.1591849,-17.3817131],[-66.1591467,-17.3817732],[-66.1591297,-17.3818237],[-66.1591016,-17.3819554],[-66.1590835,-17.3820112],[-66.1590641,-17.3820423],[-66.1590394,-17.3820634],[-66.1590056,-17.3820821],[-66.1589617,-17.382104],[-66.1589084,-17.3821172],[-66.1588434,-17.3821132],[-66.1587835,-17.3821039],[-66.1580753,-17.3819751],[-66.1580028,-17.3819643],[-66.1573892,-17.381873],[-66.1568888,-17.3817905],[-66.1568313,-17.3817807],[-66.1567671,-17.3817717],[-66.15672,-17.3817635],[-66.1557422,-17.3815937],[-66.1552471,-17.3815077],[-66.1544358,-17.3813799],[-66.1542726,-17.3813542],[-66.1539083,-17.3814744],[-66.1535582,-17.381583],[-66.1529795,-17.3817842],[-66.1524372,-17.3819727],[-66.1523209,-17.3820162],[-66.1523387,-17.3820841],[-66.1523498,-17.382163],[-66.1523496,-17.3822275],[-66.1523415,-17.382301],[-66.1523193,-17.3823884],[-66.1522786,-17.3824727],[-66.1522248,-17.3825501],[-66.1521593,-17.3826187],[-66.1520834,-17.3826766],[-66.1519408,-17.3827253],[-66.151791,-17.382747],[-66.1516597,-17.3827433],[-66.1515937,-17.3827285],[-66.1515298,-17.3827068],[-66.1514689,-17.3826784],[-66.1513972,-17.3826334],[-66.151333,-17.3825792],[-66.1512774,-17.3825169],[-66.1512315,-17.3824478],[-66.1511549,-17.3824729],[-66.1511287,-17.3824821],[-66.1503508,-17.3827539],[-66.1502869,-17.3827763],[-66.1502398,-17.382793],[-66.1498838,-17.3829205],[-66.149362,-17.3831136],[-66.1493001,-17.3831365],[-66.1493758,-17.3833362],[-66.1493773,-17.3833623],[-66.1493728,-17.3833791],[-66.1493629,-17.3833936],[-66.1493485,-17.3834042],[-66.1493313,-17.3834098],[-66.14928,-17.3834395],[-66.1492301,-17.3834738],[-66.1491921,-17.383517],[-66.1491527,-17.3835715],[-66.1491029,-17.3836523],[-66.1487751,-17.384153],[-66.1483056,-17.3849038],[-66.1477627,-17.3857801],[-66.1475769,-17.3858929],[-66.1475139,-17.3859308],[-66.1475669,-17.3860074],[-66.147678,-17.3861681],[-66.1477159,-17.3862228],[-66.148064,-17.3867233],[-66.1483646,-17.3871554],[-66.1484094,-17.3872198],[-66.1485012,-17.3873491],[-66.1485192,-17.3873745],[-66.1486427,-17.3875508],[-66.1488419,-17.3878325],[-66.14901,-17.38807],[-66.1491698,-17.3882995],[-66.1493366,-17.3885389],[-66.1493179,-17.3886449],[-66.149276,-17.3888535],[-66.1491994,-17.3892544],[-66.1491441,-17.3895439],[-66.1490107,-17.3902306],[-66.148919,-17.390703],[-66.1489091,-17.3907458],[-66.1488943,-17.3908244],[-66.1488306,-17.3908127],[-66.1482502,-17.3907061],[-66.1479073,-17.3906432],[-66.1478329,-17.3906295],[-66.1477703,-17.3906176],[-66.1472595,-17.3905203],[-66.1462645,-17.3903309],[-66.1458114,-17.3902432],[-66.1457691,-17.390235],[-66.1452792,-17.3901402],[-66.1448309,-17.3900534],[-66.1447822,-17.390044],[-66.1447221,-17.3900326],[-66.1437615,-17.3898592],[-66.1436815,-17.3898455],[-66.1436552,-17.3898914],[-66.1433968,-17.3904568],[-66.1432738,-17.3907341],[-66.1427748,-17.3917991],[-66.1427452,-17.3918573],[-66.1427214,-17.3919144],[-66.1423464,-17.3927549],[-66.1423273,-17.3927935],[-66.1419298,-17.3936747],[-66.1418779,-17.3937896],[-66.141893,-17.3937988],[-66.1419055,-17.393811],[-66.141917,-17.3938301],[-66.1419226,-17.3938534],[-66.1419205,-17.3938773],[-66.1419148,-17.3938924],[-66.141906,-17.3939061],[-66.141894,-17.3939181],[-66.1418729,-17.3939304],[-66.1418541,-17.3939354],[-66.1418341,-17.393936],[-66.1418082,-17.3939294],[-66.1417752,-17.3940245],[-66.1415059,-17.3945896],[-66.141484,-17.3946387],[-66.1414542,-17.3947032],[-66.1407681,-17.3962043],[-66.1407354,-17.3962758],[-66.1407077,-17.3963364],[-66.1399786,-17.3979321],[-66.1398933,-17.3981152],[-66.1396562,-17.3986281],[-66.1396259,-17.3986937],[-66.1392739,-17.3995221]]}}}]}