{"type":"FeatureCollection","features":[{"type":"Feature","properties":{"check_date":"46167","description":"Siglo XX","from":"Avenida Gualberto Villarroel","name":"MiniBus 207: Avenida Gualberto Villarroel → Siglo XX","network":"BO:CB:Cochabamba","on_demand":"yes","operator":"Sindicato de trufibuses 15 de agosto","public_transport:version":"2","ref":"207","route":"bus","to":"Siglo XX","type":"route","wheelchair":"no","id":11111885},"geometry":{"type":"LineString","coordinates":[[-66.15767720000001,-17.3675372],[-66.1579827,-17.3675156],[-66.15762190000001,-17.367081300000002],[-66.1572034,-17.3665756],[-66.1571043,-17.366449000000003],[-66.1570478,-17.366374],[-66.15694660000001,-17.366424600000002],[-66.15689970000001,-17.366439800000002],[-66.1564735,-17.3665123],[-66.15637860000001,-17.366522],[-66.15627450000001,-17.366531600000002],[-66.1557216,-17.366589400000002],[-66.1556091,-17.3665938],[-66.155455,-17.366599800000003],[-66.1547056,-17.366665100000002],[-66.15436050000001,-17.3666923],[-66.15357540000001,-17.3667562],[-66.15344040000001,-17.366766900000002],[-66.15300210000001,-17.366804000000002],[-66.15209560000001,-17.3668717],[-66.1520497,-17.3668772],[-66.1519729,-17.3668838],[-66.1510612,-17.366951],[-66.1509453,-17.3669596],[-66.1498079,-17.367057900000002],[-66.1496875,-17.367076100000002],[-66.14952910000001,-17.3671165],[-66.14920430000001,-17.3672375],[-66.1489239,-17.367342],[-66.1488611,-17.3673648],[-66.1487283,-17.367413000000003],[-66.14834210000001,-17.3675645],[-66.14823720000001,-17.367605700000002],[-66.14768070000001,-17.3678187],[-66.1476229,-17.3678408],[-66.1468648,-17.368134700000002],[-66.1457998,-17.368545700000002],[-66.1449137,-17.3688891],[-66.1442248,-17.3691353],[-66.1437346,-17.3692643],[-66.14364180000001,-17.3692992],[-66.14357740000001,-17.369333800000003],[-66.14287300000001,-17.3697856],[-66.1427263,-17.369896],[-66.14262310000001,-17.369996500000003],[-66.1424806,-17.370145100000002],[-66.1423889,-17.370216900000003],[-66.14240810000001,-17.3702718],[-66.1424058,-17.3703074],[-66.1423694,-17.370484700000002],[-66.14235640000001,-17.370547900000002],[-66.1423443,-17.370692700000003],[-66.1423506,-17.3707424],[-66.1423541,-17.370769600000003],[-66.142578,-17.371781300000002],[-66.1425818,-17.371799600000003],[-66.142587,-17.3718241],[-66.14260630000001,-17.3719131],[-66.1426357,-17.372050400000003],[-66.1426658,-17.3721871],[-66.1427482,-17.372561100000002],[-66.1428951,-17.3731875],[-66.1429435,-17.3733058],[-66.142993,-17.3733776],[-66.143066,-17.3734399],[-66.1431441,-17.373479500000002],[-66.14320950000001,-17.3735363],[-66.14325810000001,-17.3736067],[-66.14328110000001,-17.3736636],[-66.143293,-17.3737236],[-66.14329350000001,-17.3737846],[-66.14328250000001,-17.373844700000003],[-66.1432451,-17.373929200000003],[-66.1431855,-17.374000900000002],[-66.14310780000001,-17.374054800000003],[-66.1430179,-17.3740869],[-66.1429705,-17.374129500000002],[-66.14293140000001,-17.374195800000003],[-66.1428264,-17.374870700000002],[-66.1428132,-17.3749632],[-66.1428008,-17.3750357],[-66.14275260000001,-17.3753405],[-66.14268390000001,-17.375774600000003],[-66.14267360000001,-17.3758395],[-66.14261900000001,-17.376235100000002],[-66.142601,-17.3763647],[-66.1425808,-17.376478600000002],[-66.14254940000001,-17.3767783],[-66.1425426,-17.376843100000002],[-66.14253810000001,-17.376884800000003],[-66.14252920000001,-17.376936500000003],[-66.1425277,-17.3769451],[-66.14252490000001,-17.3769601],[-66.1424276,-17.3773273],[-66.1424039,-17.377419200000002],[-66.14240880000001,-17.377441100000002],[-66.1424219,-17.377476],[-66.14243760000001,-17.3774945],[-66.1424518,-17.377522900000002],[-66.14246010000001,-17.3775508],[-66.14246320000001,-17.377579700000002],[-66.14246100000001,-17.377608600000002],[-66.1424521,-17.3776461],[-66.14243590000001,-17.377670400000003],[-66.14245980000001,-17.3777399],[-66.14245360000001,-17.377854900000003],[-66.14240140000001,-17.3784476],[-66.14237720000001,-17.3787495],[-66.1423857,-17.3787904],[-66.14241170000001,-17.378833],[-66.1424539,-17.3788802],[-66.14252710000001,-17.3789172],[-66.1427305,-17.378983400000003],[-66.1429971,-17.3790674],[-66.1430493,-17.3790829],[-66.14306780000001,-17.379109000000003],[-66.1430837,-17.3791368],[-66.1430966,-17.379165800000003],[-66.14310160000001,-17.3791891],[-66.1431024,-17.379212900000002],[-66.14309940000001,-17.379236600000002],[-66.14306760000001,-17.379372800000002],[-66.14306880000001,-17.3794137],[-66.14307760000001,-17.379442],[-66.14309370000001,-17.379472],[-66.14320280000001,-17.3796329],[-66.14410310000001,-17.3809425],[-66.14414070000001,-17.380997200000003],[-66.1442263,-17.3811247],[-66.1443213,-17.3812621],[-66.14433430000001,-17.3812809],[-66.1443962,-17.3813704],[-66.1450554,-17.382323900000003],[-66.1451665,-17.3824805],[-66.14526500000001,-17.382625200000003],[-66.14626410000001,-17.3840939],[-66.1462906,-17.384132800000003],[-66.1463324,-17.384194200000003],[-66.1463585,-17.3842326],[-66.147463,-17.385856],[-66.1475139,-17.3859308],[-66.1475669,-17.3860074],[-66.147678,-17.386168100000003],[-66.14771590000001,-17.386222800000002],[-66.148064,-17.3867233],[-66.14836460000001,-17.3871554],[-66.1484094,-17.3872198],[-66.14850120000001,-17.3873491],[-66.14851920000001,-17.3873745],[-66.14864270000001,-17.387550800000003],[-66.14884190000001,-17.387832500000002],[-66.14901,-17.388070000000003],[-66.14916980000001,-17.388299500000002],[-66.14933660000001,-17.3885389],[-66.1495508,-17.388829],[-66.149579,-17.388860700000002],[-66.1496122,-17.388879900000003],[-66.14966410000001,-17.388893600000003],[-66.1497336,-17.3889095],[-66.14989270000001,-17.388916400000003],[-66.1500084,-17.388916100000003],[-66.1500814,-17.3889065],[-66.15019450000001,-17.388880800000003],[-66.1503144,-17.388842500000003],[-66.1504324,-17.3888061],[-66.1504479,-17.388726300000002],[-66.1505623,-17.388206200000003],[-66.1506379,-17.387748400000003],[-66.1506511,-17.387696700000003],[-66.15068430000001,-17.3875092],[-66.15071900000001,-17.387353700000002],[-66.1507318,-17.387296900000003],[-66.15088890000001,-17.3866008],[-66.1508979,-17.3865461],[-66.1509087,-17.386498600000003],[-66.15109310000001,-17.3855979],[-66.15110890000001,-17.385506600000003],[-66.15116540000001,-17.3852221],[-66.1511784,-17.3851568],[-66.1511861,-17.3851239],[-66.1512256,-17.3849194],[-66.15140410000001,-17.384021],[-66.1514094,-17.383994100000002],[-66.1514217,-17.3839322],[-66.1514374,-17.3838563],[-66.1516198,-17.382975300000002],[-66.1516399,-17.382874700000002],[-66.1516498,-17.382809],[-66.15165970000001,-17.3827433],[-66.1515937,-17.382728500000002],[-66.1515298,-17.3827068],[-66.15146890000001,-17.382678400000003],[-66.1513972,-17.382633400000003],[-66.15133300000001,-17.382579200000002],[-66.15127740000001,-17.382516900000002],[-66.15123150000001,-17.3824478],[-66.15120510000001,-17.3823717],[-66.1511821,-17.382277900000002],[-66.1511753,-17.3821817],[-66.1511847,-17.382085800000002],[-66.15120870000001,-17.3819921],[-66.1512426,-17.381916500000003],[-66.15128870000001,-17.3818471],[-66.1513456,-17.381785400000002],[-66.15141200000001,-17.381733],[-66.1514719,-17.3816993],[-66.15149600000001,-17.381685800000003],[-66.15159390000001,-17.3816542],[-66.15166280000001,-17.3816452],[-66.151752,-17.3816394],[-66.1517908,-17.381598],[-66.15181550000001,-17.3815555],[-66.15186050000001,-17.3811894],[-66.15187250000001,-17.381071400000003],[-66.15187970000001,-17.381000500000003],[-66.1518865,-17.3809636],[-66.15189450000001,-17.3809201],[-66.1519208,-17.380693700000002],[-66.1519222,-17.380536900000003],[-66.151916,-17.380429200000002],[-66.15189400000001,-17.380340200000003],[-66.15185410000001,-17.380171200000003],[-66.1518253,-17.3801178],[-66.15180400000001,-17.380065300000002],[-66.15179640000001,-17.3799886],[-66.1518147,-17.379913600000002],[-66.1518573,-17.3798485],[-66.15194650000001,-17.379775900000002],[-66.1519992,-17.379713600000002],[-66.15201180000001,-17.379693500000002],[-66.1520205,-17.3796697],[-66.15211330000001,-17.379303200000003],[-66.15211810000001,-17.3792855],[-66.1521299,-17.379230500000002],[-66.1521326,-17.3791766],[-66.1521338,-17.379120200000003],[-66.152129,-17.378966100000003],[-66.15210330000001,-17.378598],[-66.1520897,-17.3785653],[-66.1520699,-17.378535600000003],[-66.152038,-17.378510000000002],[-66.15200300000001,-17.3784849],[-66.1519693,-17.378450500000003],[-66.1519463,-17.378408800000003],[-66.1519354,-17.3783575],[-66.15194070000001,-17.3783053],[-66.1519631,-17.378260500000003],[-66.15199770000001,-17.378223300000002],[-66.15202810000001,-17.378204800000002],[-66.15204170000001,-17.3781965],[-66.1520916,-17.378182300000002],[-66.15214370000001,-17.3781816],[-66.1521941,-17.378194500000003],[-66.1522388,-17.378220000000002],[-66.152265,-17.3782445],[-66.1522858,-17.3782734],[-66.152299,-17.378308800000003],[-66.1523011,-17.378331900000003],[-66.15232540000001,-17.378358000000002],[-66.1523578,-17.3783837],[-66.15239310000001,-17.3784041],[-66.1524267,-17.3784162],[-66.15246710000001,-17.3784241],[-66.15254680000001,-17.3784269],[-66.15302170000001,-17.3783987],[-66.1530578,-17.378396600000002],[-66.15399950000001,-17.3783354],[-66.15406920000001,-17.3783302],[-66.1541478,-17.3783226],[-66.15552790000001,-17.3782186],[-66.1558347,-17.3781988],[-66.15627020000001,-17.378168000000002],[-66.1569209,-17.3781274],[-66.1570174,-17.3781195],[-66.1570796,-17.378116700000003],[-66.1576426,-17.3780748],[-66.1577493,-17.378067700000003],[-66.1583107,-17.3780304],[-66.1586024,-17.378011],[-66.1586329,-17.3780089],[-66.15921700000001,-17.377970100000002],[-66.15926950000001,-17.3779666],[-66.1593014,-17.3779645],[-66.1593801,-17.3779587],[-66.1594412,-17.3779542],[-66.16017280000001,-17.3778963],[-66.16031620000001,-17.37789],[-66.1603403,-17.377888900000002],[-66.1603997,-17.3778913],[-66.16046060000001,-17.377904],[-66.16085860000001,-17.3780152],[-66.1609389,-17.3780389],[-66.16097470000001,-17.378049400000002],[-66.1610775,-17.3780745],[-66.1610462,-17.3781873],[-66.1610272,-17.3782558],[-66.16095920000001,-17.3784883],[-66.16094240000001,-17.3785457],[-66.16081120000001,-17.378994300000002],[-66.1607831,-17.3790903],[-66.1607443,-17.379223200000002],[-66.16042150000001,-17.380326800000002],[-66.16042630000001,-17.380407400000003],[-66.16043040000001,-17.380435000000002],[-66.16043880000001,-17.3804604],[-66.16045290000001,-17.380516200000002],[-66.16046870000001,-17.3805656],[-66.160525,-17.3806765],[-66.16068700000001,-17.381053],[-66.1607364,-17.381154600000002],[-66.16076860000001,-17.3811947],[-66.16080090000001,-17.381230900000002],[-66.1608803,-17.381308100000002],[-66.1609686,-17.381345500000002],[-66.1612379,-17.3814224],[-66.16134450000001,-17.3814561],[-66.1614857,-17.3815062],[-66.16167490000001,-17.3815925],[-66.16186920000001,-17.381692800000003],[-66.1620764,-17.3818343],[-66.16218160000001,-17.381906100000002],[-66.1622347,-17.3819422],[-66.16238720000001,-17.3820532],[-66.16248270000001,-17.3821271],[-66.16252150000001,-17.3821562],[-66.1626507,-17.3822593],[-66.16273170000001,-17.382323900000003],[-66.1628726,-17.3824392],[-66.1630963,-17.3826392],[-66.16331360000001,-17.3828502],[-66.1635655,-17.383110300000002],[-66.1639368,-17.383520800000003],[-66.1639763,-17.383565100000002],[-66.1640225,-17.3836219],[-66.1640601,-17.3836686],[-66.1641209,-17.383750600000003],[-66.1643794,-17.3841056],[-66.164664,-17.3845181],[-66.16482420000001,-17.3847935],[-66.1650779,-17.385240300000003],[-66.16510670000001,-17.385299500000002],[-66.1652402,-17.385560100000003],[-66.1652988,-17.3856745],[-66.16551030000001,-17.386142600000003],[-66.1655606,-17.386209800000003],[-66.16561100000001,-17.386277],[-66.16585880000001,-17.3868669],[-66.1658969,-17.386957000000002],[-66.1659314,-17.3870319],[-66.16595570000001,-17.3870846],[-66.16597180000001,-17.3870946],[-66.16598640000001,-17.387109000000002],[-66.1660033,-17.3871326],[-66.16601290000001,-17.387156500000003],[-66.1660169,-17.3871819],[-66.16601870000001,-17.387202400000003],[-66.16601610000001,-17.3872229],[-66.1660093,-17.387242500000003],[-66.1659989,-17.387255300000003],[-66.1659927,-17.3872611],[-66.16597630000001,-17.3872748],[-66.1659506,-17.3872897],[-66.1659298,-17.3872977],[-66.1658642,-17.3873219],[-66.1657758,-17.3873527],[-66.16564910000001,-17.387399300000002],[-66.165632,-17.387406000000002],[-66.16507610000001,-17.387619400000002],[-66.16495520000001,-17.3876187],[-66.1648866,-17.3876464],[-66.1645448,-17.3877859],[-66.164473,-17.387815200000002],[-66.16441420000001,-17.387838700000003],[-66.1643482,-17.387870200000002],[-66.1643092,-17.3879182],[-66.1642808,-17.3879622],[-66.1642662,-17.388032900000002],[-66.1642613,-17.388097400000003],[-66.1643181,-17.3885414],[-66.16433500000001,-17.388669800000002],[-66.1643427,-17.3888131],[-66.16433930000001,-17.3888943],[-66.16432350000001,-17.388990600000003],[-66.16431200000001,-17.3890506],[-66.1642971,-17.3891749],[-66.16430000000001,-17.389294800000002],[-66.16432300000001,-17.3893971],[-66.16436970000001,-17.3895288],[-66.16452120000001,-17.389825100000003],[-66.164742,-17.390257100000003],[-66.16478310000001,-17.3903345],[-66.16522210000001,-17.3911616],[-66.1653845,-17.3914724],[-66.165412,-17.391525100000003],[-66.1659049,-17.3924576],[-66.16593630000001,-17.3925209],[-66.16598640000001,-17.3926111],[-66.1661299,-17.3928869],[-66.1662943,-17.3931337],[-66.166538,-17.3936399],[-66.1666141,-17.3937448],[-66.1666644,-17.3937987],[-66.1667802,-17.393886700000003],[-66.16693740000001,-17.3939373],[-66.1673519,-17.3939756],[-66.16737610000001,-17.393974200000002],[-66.167449,-17.393973900000002],[-66.1675661,-17.393955400000003],[-66.1677971,-17.393916100000002],[-66.16782760000001,-17.3939109],[-66.16786,-17.3939053],[-66.16799400000001,-17.3938847],[-66.1680638,-17.393877900000003],[-66.1683952,-17.393863900000003],[-66.16860340000001,-17.3938542],[-66.1686861,-17.3938503],[-66.1687744,-17.393846200000002],[-66.169044,-17.3938336],[-66.169397,-17.3937798],[-66.17022320000001,-17.3937475],[-66.17046400000001,-17.393742800000002],[-66.17053440000001,-17.393741400000003],[-66.17057030000001,-17.3937406],[-66.1706025,-17.3937291],[-66.17062680000001,-17.3937242],[-66.1706515,-17.3937223],[-66.1706764,-17.3937233],[-66.1707008,-17.3937272],[-66.1707334,-17.393737400000003],[-66.170806,-17.393716700000002],[-66.170822,-17.3937126],[-66.17085700000001,-17.393704500000002],[-66.1709593,-17.393689400000003],[-66.1723743,-17.3936297],[-66.17240770000001,-17.3936281],[-66.173901,-17.3935555],[-66.17390370000001,-17.393598400000002],[-66.17391160000001,-17.393719800000003],[-66.17435850000001,-17.3937004],[-66.17445380000001,-17.3936962],[-66.17631180000001,-17.393615500000003],[-66.17640320000001,-17.393611500000002],[-66.17645250000001,-17.393609400000003],[-66.17657580000001,-17.393604],[-66.17680170000001,-17.3935944],[-66.1775114,-17.393564400000002],[-66.17858620000001,-17.3935123],[-66.17997820000001,-17.3934515],[-66.18095240000001,-17.3934044],[-66.18222940000001,-17.393354000000002],[-66.18279650000001,-17.3933316],[-66.1841002,-17.393278300000002],[-66.1844521,-17.3932597],[-66.1864116,-17.3931714],[-66.18663930000001,-17.3931593],[-66.1874124,-17.3931268],[-66.1888567,-17.393062800000003],[-66.18927430000001,-17.3930444],[-66.1911252,-17.3929577],[-66.1921353,-17.3929072],[-66.19389860000001,-17.392841200000003],[-66.19472350000001,-17.3928088],[-66.1969299,-17.392707700000003],[-66.19707530000001,-17.3927008],[-66.1987218,-17.392627],[-66.1989338,-17.392616500000003],[-66.19947400000001,-17.3925896],[-66.19953740000001,-17.392586400000003],[-66.1996008,-17.392583300000002],[-66.1996781,-17.392580000000002],[-66.19981580000001,-17.3925734],[-66.20019090000001,-17.3925553],[-66.2025337,-17.3924534],[-66.2032418,-17.3924227],[-66.203618,-17.3924063],[-66.2050914,-17.3923528],[-66.20721280000001,-17.392253800000002],[-66.2074111,-17.3922446],[-66.20800460000001,-17.3922214],[-66.2080481,-17.392219500000003],[-66.2080916,-17.3922175],[-66.20818460000001,-17.392214300000003],[-66.20828870000001,-17.392210400000003],[-66.2085114,-17.392202100000002],[-66.20897260000001,-17.3921819],[-66.20910780000001,-17.392176000000003],[-66.21032100000001,-17.392123],[-66.2103967,-17.392118],[-66.2111208,-17.3920862],[-66.21296430000001,-17.3920053],[-66.2135903,-17.3919779],[-66.2143132,-17.391946100000002],[-66.21541470000001,-17.391897800000002],[-66.2157354,-17.3918837],[-66.2158613,-17.3918782],[-66.21687560000001,-17.391833700000003],[-66.2182449,-17.3917806],[-66.218646,-17.391763],[-66.2193292,-17.391737000000003],[-66.2193982,-17.391733300000002],[-66.21979680000001,-17.3917176],[-66.2213267,-17.3916517],[-66.2215894,-17.3916389],[-66.2220752,-17.391613600000003],[-66.2233037,-17.3915541],[-66.2242367,-17.3915189],[-66.22459930000001,-17.3915051],[-66.2249474,-17.3914893],[-66.22586360000001,-17.3914462],[-66.2264962,-17.391416500000002],[-66.226663,-17.391409000000003],[-66.22742140000001,-17.391380400000003],[-66.22845140000001,-17.391331500000003],[-66.2287988,-17.3913116],[-66.22916620000001,-17.3912966],[-66.2297343,-17.391273100000003],[-66.2297673,-17.3912717],[-66.2298409,-17.3912687],[-66.23001210000001,-17.3912616],[-66.2305661,-17.3912386],[-66.23202520000001,-17.3911775],[-66.23242710000001,-17.3911635],[-66.23362490000001,-17.3911146],[-66.23459740000001,-17.391074900000003],[-66.2363591,-17.3910045],[-66.2365822,-17.390991800000002],[-66.237921,-17.3909427],[-66.2382125,-17.390907100000003],[-66.23832990000001,-17.390888],[-66.23850750000001,-17.390849900000003],[-66.238539,-17.390845000000002],[-66.23865520000001,-17.3908233],[-66.2386762,-17.390812800000003],[-66.2386987,-17.390805500000003],[-66.2387279,-17.3908011],[-66.23875740000001,-17.390801900000003],[-66.2387863,-17.390808],[-66.2389553,-17.3908324],[-66.2390359,-17.390851700000002],[-66.23918880000001,-17.3908644],[-66.2398993,-17.390842600000003],[-66.24091200000001,-17.3908188],[-66.2411366,-17.390814000000002],[-66.24209880000001,-17.390802200000003],[-66.2427852,-17.3907986],[-66.2435679,-17.390794900000003],[-66.24365250000001,-17.390786000000002],[-66.24371930000001,-17.3907743],[-66.2437568,-17.3907665],[-66.2439573,-17.3907244],[-66.2444481,-17.3907345],[-66.2444669,-17.3907364],[-66.2446218,-17.390762300000002],[-66.2447073,-17.3907855],[-66.2447511,-17.3907996],[-66.2448526,-17.390817600000002],[-66.244949,-17.390826],[-66.24615270000001,-17.390867200000002],[-66.24629010000001,-17.390875700000002],[-66.24800660000001,-17.3909571],[-66.24846360000001,-17.390979700000003],[-66.2490276,-17.391015600000003],[-66.24945770000001,-17.3910255],[-66.24961640000001,-17.391035600000002],[-66.24996320000001,-17.3910579],[-66.25024350000001,-17.391075500000003],[-66.25044340000001,-17.391088],[-66.25069140000001,-17.3910616],[-66.25080080000001,-17.3910637],[-66.25089670000001,-17.3910763],[-66.2509344,-17.391085500000003],[-66.2509776,-17.391096100000002],[-66.25121610000001,-17.3911541],[-66.2513818,-17.3911859],[-66.2514689,-17.3911951],[-66.2526672,-17.391312300000003],[-66.25279280000001,-17.3913246],[-66.2542188,-17.391462200000003],[-66.2567501,-17.391716000000002],[-66.2573333,-17.3917803],[-66.2577457,-17.391825700000002],[-66.2579393,-17.391844000000003],[-66.2582763,-17.391875900000002],[-66.25901440000001,-17.391939500000003],[-66.2594909,-17.3919806],[-66.25952000000001,-17.3919831],[-66.2595584,-17.3919864],[-66.25964280000001,-17.391990900000003],[-66.26010000000001,-17.3920415],[-66.2603304,-17.3920654],[-66.26080250000001,-17.392114300000003],[-66.26200770000001,-17.392239],[-66.2643025,-17.3924716],[-66.2649633,-17.392536800000002],[-66.2662909,-17.392664200000002],[-66.2675492,-17.3927929],[-66.2678247,-17.392819900000003],[-66.26809610000001,-17.392851800000003],[-66.2681726,-17.392859100000003],[-66.2682498,-17.3928669],[-66.2684282,-17.392885000000003],[-66.26878230000001,-17.392921],[-66.26926060000001,-17.392969500000003],[-66.2699511,-17.3930396],[-66.2701093,-17.3930492],[-66.2712023,-17.393158000000003],[-66.2722402,-17.3932523],[-66.2723895,-17.3932515],[-66.2725216,-17.393241500000002],[-66.2726698,-17.393238800000002],[-66.272689,-17.393225800000003],[-66.27271540000001,-17.393213000000003],[-66.27273810000001,-17.3932058],[-66.27276160000001,-17.3932016],[-66.2727854,-17.3932003],[-66.27280920000001,-17.393202000000002],[-66.2728326,-17.3932068],[-66.2728551,-17.3932144],[-66.27287630000001,-17.393224800000002],[-66.27289160000001,-17.393234500000002],[-66.27290570000001,-17.3932457],[-66.27315990000001,-17.3932739],[-66.273306,-17.3932901],[-66.27345840000001,-17.393307],[-66.2742772,-17.393387],[-66.2744122,-17.393401100000002],[-66.2749658,-17.393460700000002],[-66.27566250000001,-17.393531900000003],[-66.27617020000001,-17.3935795],[-66.276919,-17.3936497],[-66.27692900000001,-17.3936506],[-66.2770081,-17.393658300000002],[-66.27790560000001,-17.393745900000003],[-66.27801910000001,-17.393757700000002],[-66.2780498,-17.393761],[-66.27810050000001,-17.393757700000002],[-66.27814760000001,-17.393768100000003],[-66.2782028,-17.393773900000003],[-66.27831880000001,-17.3937856],[-66.2793687,-17.3938843],[-66.279509,-17.3938978],[-66.2805328,-17.393996],[-66.28064060000001,-17.394005500000002],[-66.28074860000001,-17.3940124],[-66.2815018,-17.394060500000002],[-66.28160000000001,-17.3940668],[-66.2815709,-17.394341700000002],[-66.2815121,-17.3951247],[-66.2815078,-17.395182300000002],[-66.28149930000001,-17.3952706],[-66.2813752,-17.396765900000002],[-66.2823369,-17.3968621],[-66.28197320000001,-17.3972932],[-66.28206320000001,-17.39733],[-66.28213670000001,-17.397453000000002],[-66.28216800000001,-17.397597],[-66.28219960000001,-17.397826300000002],[-66.2821619,-17.3980134],[-66.2820808,-17.3981463],[-66.28201680000001,-17.398304000000003],[-66.2819015,-17.3987853],[-66.2819077,-17.3993745],[-66.28187700000001,-17.399646200000003],[-66.28194140000001,-17.399889100000003],[-66.28142910000001,-17.3999494],[-66.2813756,-17.4011311],[-66.28107270000001,-17.4011718],[-66.28118230000001,-17.4018184],[-66.28121300000001,-17.402047200000002],[-66.281225,-17.402110200000003],[-66.2812313,-17.4021584],[-66.2812837,-17.4023313],[-66.2813553,-17.4023296],[-66.2823257,-17.4023083],[-66.2824544,-17.4023055],[-66.282471,-17.402412100000003],[-66.28259,-17.4031789],[-66.2831194,-17.404526],[-66.28319690000001,-17.404685100000002],[-66.28367920000001,-17.404663300000003],[-66.2843103,-17.404619],[-66.28526930000001,-17.4046278],[-66.28627150000001,-17.404605200000002],[-66.2863619,-17.4046103],[-66.2863578,-17.4052249],[-66.2863724,-17.4058648],[-66.28636700000001,-17.406494300000002],[-66.2863763,-17.4069857],[-66.28745520000001,-17.4068545],[-66.28842080000001,-17.4067411],[-66.28841530000001,-17.4066121],[-66.28839950000001,-17.4058761],[-66.28842800000001,-17.405438500000002],[-66.2883997,-17.4050027],[-66.28840260000001,-17.4044136],[-66.2884317,-17.403968000000003],[-66.28943860000001,-17.404058600000003],[-66.28997620000001,-17.4041064],[-66.2906617,-17.404167],[-66.2916532,-17.4042582],[-66.2916629,-17.405416900000002],[-66.2916711,-17.4063862],[-66.2917692,-17.406378200000002],[-66.2925874,-17.4063176],[-66.2930669,-17.406283000000002],[-66.2942082,-17.406194600000003],[-66.2942778,-17.4071438],[-66.29429680000001,-17.4074029],[-66.2943764,-17.408207700000002],[-66.29446220000001,-17.409201600000003],[-66.29443300000001,-17.4093255],[-66.2942546,-17.409806800000002],[-66.2940743,-17.410302400000003],[-66.2940289,-17.4104169],[-66.2939764,-17.4109938],[-66.29471260000001,-17.411114],[-66.29535150000001,-17.411238700000002]],"nodes":[2126669465,602989969,4269368240,4269368243,2126669315,602989970,3674250326,10656614150,4925510973,602990005,4925510976,2126669332,11781893000,9779782578,2126669335,2126669337,9974184809,602990017,602990117,7050309141,851594864,7050309139,9824105242,602990090,602990118,2126669386,602990062,602990119,602990072,13524585086,9824095638,13524585082,2126669468,13524585077,808010549,808035952,808010526,808010541,602990129,2126669905,602990130,2126669931,602990131,1785473552,2126670178,9579636312,9192234377,9579636314,9579636315,9579636313,1785473495,601872709,13751842914,601872740,2126671164,11026980048,9192234375,601872746,8616654972,13556268476,2126672209,601872755,1785473290,8509264310,1785473441,1785473207,1785473612,1785473544,2126674116,2389107140,1785473427,2126674142,1785473511,1785473654,1785473340,1785473238,2126674180,2126674191,2590032472,698492585,2590032493,8373677220,8373671016,698492595,8373677218,599541212,8385091871,1637609887,8385091886,8385091900,1637609914,11081730875,8385091876,2389107312,2391341230,8385093441,1795293270,8385093440,1795293321,1795293349,1795293382,11081772340,11081772339,1795293377,1795293372,1795293269,1795293345,1795293437,1795293264,1795293299,1795293277,8385093431,1795293338,2391341613,1795293296,8379904343,11081763605,2391341643,8379904342,1795293405,2391341655,2391341667,1795293432,9890903488,1795293389,602989537,9890903489,8388301598,312425917,9584233890,3676912941,9584233886,10854297122,312425660,8390961546,9930862751,1807100710,2361168089,9930862749,6179473101,312425828,6179473096,11310743156,9031318855,9028209372,6179473247,9031318856,2141431944,6179473241,6179473238,9034180378,5353339454,11310645817,312425956,312425955,8568166653,2295135831,2327853066,2164166202,2295135834,312425953,2470422187,315032383,315032382,303217665,2470422184,3783547283,2470422182,7517222306,310501189,2470422172,13041385796,2327853065,303217726,2327853062,2470422169,303217727,360562473,4106074780,2590640139,2590640132,4106074711,3921428755,303217729,9030077625,3921428756,2220379268,13799533800,2220379261,10839957165,6179537716,2220379259,6179537717,2220379212,9068826346,2361168084,2441014290,2220379125,6179537718,9068826356,8355285956,9068826355,8355285957,2220379067,9068826368,11815830409,2220379033,6606671263,11081648808,6606671264,9068826351,8355285965,9068826448,13835486113,2220378980,13799533797,9311178495,8365941768,9068826414,315226441,2220378931,2220378894,8365941769,2220378835,2220378817,2220378788,2220378759,8427474484,1636934157,8427474482,315225069,315225067,2441014234,8427474504,1636934136,1636934117,2212559878,8456364943,8459438737,2212559862,2212559849,2212559813,2212559784,8456364942,2212559768,2212559747,2212559735,2212559729,13287386670,2212559723,2212559719,2212559721,2212559725,9075020138,2212559733,9419763477,8459438775,8459438774,9419763478,8456364946,2212559782,8459438772,8459438771,391745832,9816160898,3298035231,8365941733,391756531,4341961468,676069607,2164826659,2384907368,4341961465,391745658,4341961464,598151878,10236708487,10857352360,8423552871,4341961463,4341961462,391743998,13735210076,13735210074,4341961460,391745854,11525745860,3775062997,391745886,8423552890,2296580494,1722458959,13735210078,13735210081,13735210080,2296580502,12409937736,11079100480,11079057399,11079105205,11079057401,598151864,8267964014,9309922471,6806428791,2296580765,9797624517,8423552926,7703825395,497208919,9797624521,7703825391,7703825392,598151852,2971955861,8415715280,1636934201,497207225,2296580910,8427474469,4322549908,5548631716,2296580917,2296580919,8415784729,9736931535,8415784720,2971956189,8415784749,497207229,2312521288,5243810857,1722458958,497207231,5243810853,9168729324,497207233,2971956442,2312521352,497206815,5243810846,9924260247,2970239857,497206816,12956628495,1637648603,1637648606,9892601712,9170720411,2410715816,12956628491,12956628490,11079283503,2410715848,9170720371,9170720370,2410715866,9170720381,5298532380,11079283499,12295702646,11079283501,2410715869,2410715875,9170720366,1636978100,12956643112,1636978109,851595003,11079349296,9163629265,9163629264,851594930,598178970,9163629237,1636978128,1636978138,2971956454,2971956457,598178964,8147085893,8147085894,315108856,2312521620,315108855,315108854,315108852,315108851,13717684291,2312521643,10792253191,2312521666,8147129074,4965154816,2312521732,2312521735,2312521738,315108772,315116269,315116268,2477244091,8147129095,2330755896,315936461,11079352070,7353579718,2420519732,4732874465,9081829378,497205202,8320364713,12088438232,2420519599,563279534,9081461994,6952929961,12678181847,563279527,13280092695,13303071583,13416534074,13436362626,13416534039,13416534069,13416534040,13416534057,13416534034,13416534070,13303071587,13416534075,13416534076,13436362650,11081593218,563279519,13879263584,563279515,2527263173,2527263184,2527263182,9081435138,13438103968,13438065396,563279499,2339557951,9081523771,2354386743,560522668,563279456,689437115,13847108974,4398499281,6326490902,4398318267,4398499272,2635402927,2354386761,560522361,2292218251,2292218247,2418530992,5581228588,2418530981,2137733242,2137733243,1807038051,12650627924,8235455989,12650627935,1807038048,2354386770,2429829237,6846214146,11084175485,11084175483,6846214133,2417368043,11084175482,8200481419,8235936958,13685730898,5579061862,3641784408,8235936964,8235936932,2418530966,6845809618,3255507856,2417367882,11084175478,3255507852,11084175476,3255507849,560084503,13760971210,560084507,3255507830,3255507821,13760954836,4158028115,13760954847,13760954837,794269983,4478225458,792630474,5605204668,2354386778,2354386781,794269932,11084175474,794269972,794269961,9008269167,5605232829,5605232823,8627399437,9786116630,9786116627,560084489,9786116634,8627399436,6282778240,794303535,10837430538,794303398,4586486623,794303570,4586487874,4586487873,8317038876,9008269189,8317038875,698491918,9355127775,7150288216,9355127774,792630390,698491877,9008269182,7933924058,698491863,792630233,785868153,6918618956,792630380,792630483,319773758,8630411872,10837513369,792630507,319773759,10837513367,319773760,8630411868,4586488214,8630411830,9008315709,319773761,4586488419,8316478466,7933924071,4317735512,3880715143,319773764,9008315784,9008315770,3880715144,7933924066,319773765,319773766,8310400080,8316478456,319773767,319773768,8310400066,319773138,10012571188,5870202500,3881280412,785868004,11084165269,4571961269,11031871495,5236806812,8316478290,12091174510,9262757165,8316478299,319772622,8316478289,8316478287,11084165260,785868517,4382907901,785868508,7931999285,11084165256,2138416891,5870202368,5870202367,3195120410,785869180,2360589703,13744093449,617337196,617337194,783869371,783870663,6179669345,3192787627,8048387329,8048387338,8048387339,2140912533,2140912536,9354911916,8048387327,9354911915,617337182,6917120250,8048387326,319771811,12706842541,12487415611,6917120244,783870340,8221419797,7527585416,783869019,8221419828,8221419837,783870788,8221419835,7527591099,7527591095,7527591091,783871023,7527591076,7527591094,7527591103,783871207,8221419844,6852610654,319771168,6852610653,6852610655,319771170,319771124,5357622681,309139663,5357622678,781835203,2140883412,2140883410,2140883416,617360079,617360076,617360074,617360072,617360070,617360068,781813634,617337149,617360066,617360063,781813535,781813437,617198410,9319861012,3700232960,4509963018,4509963020,781813595,10794393270,13743659715,617360051,13743659714,6583297720,617359942,781813714,781813417,781813573,781813440,781813756,6572877684,6572900985,6572877683,6572877682,6572877681,780227311,780227802,780226440,780226992,780227466,780227689,780226670,780227174,780226935,780226781,4574012542,4574012538,4574012539,4574012540,780227507,617359827,5945037683,617359829,5945037676,8258971960,617359787,617359780,617359779,11834312621,11834312628,6776042968,6776042970,6776042979,6776042981]},"gtfs":{"agency_id":33,"route_id":79,"services":[{"service_id":"Mo-Su","startTime":"06:00","endTime":"22:00","trip_id":11111885}],"filteredStops":{"nodes":[2126669465,602989970,602990005,2126669335,7050309141,602990090,602990072,13524585077,808010541,602990131,9192234377,601872709,9192234375,2126672209,1785473207,1785473427,1785473340,698492585,8373677218,8385091886,2389107312,1795293321,11081772339,1795293437,8385093431,11081763605,2391341667,602989537,3676912941,9930862751,6179473101,9028209372,6179473238,312425956,2164166202,315032382,2470422182,2327853065,303217727,4106074711,2220379268,6179537716,2361168084,8355285956,9068826368,6606671264,2220378980,9068826414,2220378835,1636934157,2441014234,8456364943,2212559813,2212559735,2212559721,9419763477,2212559782,3298035231,676069607,4341961464,4341961463,13735210074,391745886,13735210081,11079100480,8267964014,9797624517,7703825391,1636934201,4322549908,9736931535,2312521288,5243810853,497206815,12956628495,9170720411,2410715848,5298532380,2410715869,1636978109,9163629264,1636978138,8147085894,315108854,10792253191,2312521735,315116268,11079352070,497205202,563279534,13280092695,13416534069,13416534070,11081593218,2527263173,13438065396,560522668,4398499281,2354386761,5581228588,1807038051,2354386770,6846214133,8235936958,8235936932,11084175478,560084503,13760954836,794269983,2354386781,9008269167,9786116630,6282778240,794303570,9008269189,9355127774,698491863,792630380,792630507,4586488214,4586488419,319773764,7933924066,319773767,5870202500,4571961269,9262757165,11084165260,7931999285,3195120410,617337194,3192787627,2140912536,6917120250,12487415611,783869019,8221419835,7527591076,6852610654,319771170,781835203,617360076,617360068,781813535,4509963018,13743659715,781813714,6572877684,6572877681,780227466,780226935,4574012540,5945037676,617359779,6776042981],"coordinates":[[-66.15767720000001,-17.3675372],[-66.1570478,-17.366374],[-66.15637860000001,-17.366522],[-66.1547056,-17.366665100000002],[-66.15209560000001,-17.3668717],[-66.1509453,-17.3669596],[-66.1489239,-17.367342],[-66.14768070000001,-17.3678187],[-66.1449137,-17.3688891],[-66.14287300000001,-17.3697856],[-66.1423889,-17.370216900000003],[-66.1423443,-17.370692700000003],[-66.142587,-17.3718241],[-66.1427482,-17.372561100000002],[-66.1431441,-17.373479500000002],[-66.14329350000001,-17.3737846],[-66.14310780000001,-17.374054800000003],[-66.1428132,-17.3749632],[-66.14261900000001,-17.376235100000002],[-66.1425426,-17.376843100000002],[-66.1424276,-17.3773273],[-66.1424518,-17.377522900000002],[-66.1424521,-17.3776461],[-66.14237720000001,-17.3787495],[-66.14252710000001,-17.3789172],[-66.1430837,-17.3791368],[-66.14306760000001,-17.379372800000002],[-66.14320280000001,-17.3796329],[-66.14433430000001,-17.3812809],[-66.14626410000001,-17.3840939],[-66.147463,-17.385856],[-66.148064,-17.3867233],[-66.14864270000001,-17.387550800000003],[-66.14933660000001,-17.3885389],[-66.1497336,-17.3889095],[-66.1503144,-17.388842500000003],[-66.1506379,-17.387748400000003],[-66.15088890000001,-17.3866008],[-66.15110890000001,-17.385506600000003],[-66.15140410000001,-17.384021],[-66.1516399,-17.382874700000002],[-66.1515298,-17.3827068],[-66.15123150000001,-17.3824478],[-66.15120870000001,-17.3819921],[-66.15141200000001,-17.381733],[-66.151752,-17.3816394],[-66.15187970000001,-17.381000500000003],[-66.1519222,-17.380536900000003],[-66.15180400000001,-17.380065300000002],[-66.1519992,-17.379713600000002],[-66.15211810000001,-17.3792855],[-66.15210330000001,-17.378598],[-66.15200300000001,-17.3784849],[-66.1519631,-17.378260500000003],[-66.15214370000001,-17.3781816],[-66.1522858,-17.3782734],[-66.15239310000001,-17.3784041],[-66.1530578,-17.378396600000002],[-66.15552790000001,-17.3782186],[-66.1570796,-17.378116700000003],[-66.1586329,-17.3780089],[-66.1593801,-17.3779587],[-66.1603997,-17.3778913],[-66.1610775,-17.3780745],[-66.16094240000001,-17.3785457],[-66.16042630000001,-17.380407400000003],[-66.16046870000001,-17.3805656],[-66.16080090000001,-17.381230900000002],[-66.1614857,-17.3815062],[-66.16218160000001,-17.381906100000002],[-66.1626507,-17.3822593],[-66.1635655,-17.383110300000002],[-66.1640601,-17.3836686],[-66.1650779,-17.385240300000003],[-66.1655606,-17.386209800000003],[-66.1659314,-17.3870319],[-66.16601290000001,-17.387156500000003],[-66.1659989,-17.387255300000003],[-66.1659298,-17.3872977],[-66.16507610000001,-17.387619400000002],[-66.164473,-17.387815200000002],[-66.1642662,-17.388032900000002],[-66.16433930000001,-17.3888943],[-66.16430000000001,-17.389294800000002],[-66.16478310000001,-17.3903345],[-66.16593630000001,-17.3925209],[-66.166538,-17.3936399],[-66.1673519,-17.3939756],[-66.16782760000001,-17.3939109],[-66.1683952,-17.393863900000003],[-66.169397,-17.3937798],[-66.1706025,-17.3937291],[-66.1707008,-17.3937272],[-66.1709593,-17.393689400000003],[-66.17390370000001,-17.393598400000002],[-66.17640320000001,-17.393611500000002],[-66.17858620000001,-17.3935123],[-66.18279650000001,-17.3933316],[-66.1874124,-17.3931268],[-66.19389860000001,-17.392841200000003],[-66.1987218,-17.392627],[-66.1996781,-17.392580000000002],[-66.203618,-17.3924063],[-66.20800460000001,-17.3922214],[-66.2085114,-17.392202100000002],[-66.2111208,-17.3920862],[-66.21541470000001,-17.391897800000002],[-66.218646,-17.391763],[-66.2213267,-17.3916517],[-66.22459930000001,-17.3915051],[-66.22742140000001,-17.391380400000003],[-66.2297343,-17.391273100000003],[-66.23202520000001,-17.3911775],[-66.2365822,-17.390991800000002],[-66.23850750000001,-17.390849900000003],[-66.2387279,-17.3908011],[-66.23918880000001,-17.3908644],[-66.24209880000001,-17.390802200000003],[-66.2437568,-17.3907665],[-66.2447073,-17.3907855],[-66.24615270000001,-17.390867200000002],[-66.24945770000001,-17.3910255],[-66.25044340000001,-17.391088],[-66.2509776,-17.391096100000002],[-66.25279280000001,-17.3913246],[-66.2577457,-17.391825700000002],[-66.25952000000001,-17.3919831],[-66.26080250000001,-17.392114300000003],[-66.2662909,-17.392664200000002],[-66.2682498,-17.3928669],[-66.2701093,-17.3930492],[-66.2725216,-17.393241500000002],[-66.27276160000001,-17.3932016],[-66.27287630000001,-17.393224800000002],[-66.273306,-17.3932901],[-66.27566250000001,-17.393531900000003],[-66.2770081,-17.393658300000002],[-66.27814760000001,-17.393768100000003],[-66.2805328,-17.393996],[-66.28160000000001,-17.3940668],[-66.2813752,-17.396765900000002],[-66.28216800000001,-17.397597],[-66.28201680000001,-17.398304000000003],[-66.28142910000001,-17.3999494],[-66.281225,-17.402110200000003],[-66.2823257,-17.4023083],[-66.28319690000001,-17.404685100000002],[-66.2863619,-17.4046103],[-66.2863763,-17.4069857],[-66.28842800000001,-17.405438500000002],[-66.28943860000001,-17.404058600000003],[-66.2916711,-17.4063862],[-66.2942778,-17.4071438],[-66.29443300000001,-17.4093255],[-66.29535150000001,-17.411238700000002]]}}},{"type":"Feature","properties":{"bus":"yes","departures_board":"no","highway":"bus_stop","name":"Parada 207","public_transport":"platform","shelter":"no","id":7530697619},"geometry":{"type":"Point","coordinates":[-66.15767020000001,-17.3674806]}},{"type":"Feature","properties":{"bench":"yes","bin":"yes","bus":"yes","departures_board":"no","highway":"bus_stop","level":"0","lit":"no","name":"Plaza Tarija","operator":"Gobierno Autónomo Municipal de Cochabamba","operator:short":"GAMC","operator:type":"government","public_transport":"platform","shelter":"yes","tactile_paving":"no","wheelchair":"no","id":2126673437},"geometry":{"type":"Point","coordinates":[-66.14296060000001,-17.373225]}},{"type":"Feature","properties":{"bench":"no","bin":"no","bus":"yes","departures_board":"no","highway":"bus_stop","lit":"no","name":"General Galindo y Mariano Melgarejo","operator":"Gobierno Autónomo Municipal de Cochabamba","pole":"yes","public_transport":"platform","shelter":"no","tactile_paving":"no","wheelchair":"no","id":2590032465},"geometry":{"type":"Point","coordinates":[-66.142891,-17.3748074]}},{"type":"Feature","properties":{"bench":"no","bin":"no","bus":"yes","departures_board":"no","highway":"bus_stop","kerb":"raised","level":"0","lit":"no","name":"Aniceto Arce y Ramón Rivero","operator":"Gobierno Autónomo Municipal de Cochabamba","pole":"yes","public_transport":"platform","shelter":"no","tactile_paving":"no","wheelchair":"no","id":8388301542},"geometry":{"type":"Point","coordinates":[-66.14333350000001,-17.3797563]}},{"type":"Feature","properties":{"bench":"no","bin":"no","bus":"yes","departures_board":"no","highway":"bus_stop","kerb":"raised","level":"0","lit":"no","name":"Aniceto Arce y Papa Paulo III","public_transport":"platform","shelter":"no","tactile_paving":"no","wheelchair":"no","id":6299491685},"geometry":{"type":"Point","coordinates":[-66.1462664,-17.3840179]}},{"type":"Feature","properties":{"bench":"yes","bin":"no","bus":"yes","departures_board":"no","highway":"bus_stop","kerb":"raised","level":"0","lit":"no","name":"Hospital Materno Infantil Germán Urquidi","operator":"Gobierno Autónomo Municipal de Cochabamba","public_transport":"platform","shelter":"yes","tactile_paving":"no","wheelchair":"no","id":2892512813},"geometry":{"type":"Point","coordinates":[-66.1484657,-17.387225100000002]}},{"type":"Feature","properties":{"bench":"yes","bin":"no","bus":"yes","departures_board":"no","highway":"bus_stop","kerb":"raised","lit":"no","name":"SEDES","operator":"Gobierno Autónomo Municipal de Cochabamba","public_transport":"platform","shelter":"yes","tactile_paving":"no","id":3264544592},"geometry":{"type":"Point","coordinates":[-66.1492259,-17.388328400000002]}},{"type":"Feature","properties":{"bench":"no","bin":"no","bus":"yes","highway":"bus_stop","kerb":"raised","lit":"no","name":"Paccieri","operator":"Gobierno Autónomo Municipal de Cochabamba","pole":"yes","public_transport":"platform","shelter":"no","tactile_paving":"no","wheelchair":"no","id":5368460671},"geometry":{"type":"Point","coordinates":[-66.1509839,-17.3856149]}},{"type":"Feature","properties":{"bench":"no","bin":"no","bus":"yes","departures_board":"no","highway":"bus_stop","level":"0","lit":"no","name":"Quintanilla","operator":"Gobierno Autónomo Municipal de Cochabamba","operator:short":"GAMC","operator:type":"government","pole":"yes","public_transport":"platform","shelter":"no","tactile_paving":"no","wheelchair":"no","id":9309963144},"geometry":{"type":"Point","coordinates":[-66.15159320000001,-17.3815855]}},{"type":"Feature","properties":{"bench":"no","bin":"no","bus":"yes","departures_board":"no","highway":"bus_stop","kerb":"raised","level":"0","lit":"no","name":"Cine Center","operator":"Gobierno Autónomo Municipal de Cochabamba","operator:short":"GAMC","operator:type":"government","pole":"yes","public_transport":"platform","shelter":"no","tactile_paving":"no","wheelchair":"no","id":6448927988},"geometry":{"type":"Point","coordinates":[-66.15176410000001,-17.3810666]}},{"type":"Feature","properties":{"bench":"yes","bin":"no","bus":"yes","departures_board":"no","highway":"bus_stop","kerb":"raised","level":"0","lit":"no","name":"Libertador Simón Bolívar","operator":"Gobierno Autónomo Municipal de Cochabamba","public_transport":"platform","shelter":"yes","tactile_paving":"no","wheelchair":"no","id":2384907362},"geometry":{"type":"Point","coordinates":[-66.16069250000001,-17.3779213]}},{"type":"Feature","properties":{"bench":"no","bin":"no","bus":"yes","departures_board":"no","highway":"bus_stop","level":"0","lit":"no","name":"Distribuidor Vial Cobija","operator":"Gobierno Autónomo Municipal de Cochabamba","operator:short":"GAMC","operator:type":"government","pole":"yes","public_transport":"platform","shelter":"no","tactile_paving":"no","wheelchair":"no","id":9170720380},"geometry":{"type":"Point","coordinates":[-66.1660492,-17.3871174]}},{"type":"Feature","properties":{"bench":"yes","bin":"no","bus":"yes","departures_board":"no","highway":"bus_stop","level":"0","lit":"no","name":"Club Tenis Municipal","operator":"Administradora Boliviana de Carreteras","operator:short":"ABC","operator:type":"public","public_transport":"platform","shelter":"yes","tactile_paving":"no","wheelchair":"no","id":3232582115},"geometry":{"type":"Point","coordinates":[-66.16859980000001,-17.3937788]}},{"type":"Feature","properties":{"bench":"yes","bin":"no","bus":"yes","departures_board":"no","highway":"bus_stop","level":"0","lit":"no","name":"Automóvil Club Boliviano","operator":"Administradora Boliviana de Carreteras","operator:short":"ABC","operator:type":"public","public_transport":"platform","shelter":"yes","tactile_paving":"no","wheelchair":"no","id":5238905983},"geometry":{"type":"Point","coordinates":[-66.17446050000001,-17.393606400000003]}},{"type":"Feature","properties":{"addr:city":"Quillacollo","bench":"no","bus":"yes","covered":"no","departures_board":"no","highway":"bus_stop","name":"Parada 207","public_transport":"platform","shelter":"no","id":7530697618},"geometry":{"type":"Point","coordinates":[-66.2781525,-17.4056508]}},{"type":"Feature","properties":{"bench":"yes","bin":"no","bus":"yes","departures_board":"no","highway":"bus_stop","level":"0","lit":"no","loc_name":"KM 4","name":"Avenida Segunda","operator":"Administradora Boliviana de Carreteras","operator:short":"ABC","operator:type":"public","public_transport":"platform","shelter":"yes","tactile_paving":"no","wheelchair":"no","id":2418530979},"geometry":{"type":"Point","coordinates":[-66.19508040000001,-17.3927015]}}]}