{"type":"FeatureCollection","features":[{"type":"Feature","properties":{"bicycle":"no","check_date":"29/12/2025","from":"Pirque","name":"MiniBus 245: Pirque → Vinto","network":"BO:CB:Cochabamba","on_demand":"yes","operator":"Sindicato mixto de autotransporte 6 de agosto Sipe Sipe","public_transport:version":"2","ref":"245","roundtrip":"no","route":"bus","to":"Vinto","type":"route","via":"Suticollo","wheelchair":"no","id":11124782},"geometry":{"type":"LineString","coordinates":[[-66.351854,-17.575130100000003],[-66.3516568,-17.575232000000003],[-66.3513279,-17.5754181],[-66.35103020000001,-17.575596800000003],[-66.3506428,-17.575818100000003],[-66.35048060000001,-17.5759259],[-66.35033580000001,-17.5760496],[-66.3502459,-17.5761833],[-66.3501104,-17.5765107],[-66.3500247,-17.5766151],[-66.3499008,-17.576720100000003],[-66.3497375,-17.576477200000003],[-66.3487221,-17.574946100000002],[-66.34869210000001,-17.574899100000003],[-66.34865260000001,-17.5748375],[-66.34858100000001,-17.574726000000002],[-66.34840430000001,-17.574421],[-66.34815730000001,-17.574013],[-66.3479925,-17.5736941],[-66.34789690000001,-17.5733929],[-66.3478551,-17.5731764],[-66.3478288,-17.572933000000003],[-66.3477984,-17.5725465],[-66.34779590000001,-17.5718962],[-66.347813,-17.5712434],[-66.3477445,-17.5712422],[-66.34768050000001,-17.5711233],[-66.3474723,-17.5706092],[-66.3471062,-17.5695078],[-66.347009,-17.5692528],[-66.3469129,-17.5691302],[-66.34649780000001,-17.568848000000003],[-66.34605450000001,-17.5683511],[-66.34603170000001,-17.568374600000002],[-66.34600130000001,-17.5683998],[-66.3459504,-17.5684095],[-66.34590610000001,-17.568398000000002],[-66.3458739,-17.5683718],[-66.3456489,-17.568109500000002],[-66.3456424,-17.5680638],[-66.345647,-17.5680234],[-66.34568920000001,-17.567982500000003],[-66.3457175,-17.5679625],[-66.3457309,-17.567888800000002],[-66.345731,-17.567809200000003],[-66.3456536,-17.567669700000003],[-66.34562790000001,-17.5674229],[-66.3455957,-17.567026400000003],[-66.3456007,-17.5668599],[-66.3455763,-17.5665917],[-66.34553740000001,-17.5663205],[-66.3454913,-17.5661467],[-66.3454574,-17.5660597],[-66.3453509,-17.5658175],[-66.3448597,-17.5649389],[-66.34446100000001,-17.564075900000002],[-66.34443440000001,-17.5639457],[-66.3444037,-17.5636851],[-66.3444224,-17.563372400000002],[-66.3442421,-17.563092400000002],[-66.3440314,-17.562833400000002],[-66.3439096,-17.5626375],[-66.3437519,-17.562383],[-66.3435754,-17.562079100000002],[-66.3432702,-17.561367],[-66.3431109,-17.561030300000002],[-66.34306330000001,-17.5609353],[-66.34281490000001,-17.560463400000003],[-66.3426366,-17.560084800000002],[-66.3423413,-17.5594696],[-66.3420445,-17.5588513],[-66.34195290000001,-17.5586471],[-66.34185190000001,-17.558411300000003],[-66.3417888,-17.5582154],[-66.3417685,-17.558001700000002],[-66.34177670000001,-17.5577308],[-66.34179160000001,-17.5574738],[-66.34183680000001,-17.557222600000003],[-66.3419221,-17.556962900000002],[-66.34205100000001,-17.556723100000003],[-66.34263490000001,-17.5558583],[-66.3426972,-17.5557607],[-66.34275720000001,-17.5556161],[-66.3428002,-17.5555394],[-66.34286870000001,-17.5553068],[-66.3429129,-17.5551192],[-66.34294100000001,-17.554825700000002],[-66.3429375,-17.5545599],[-66.34286490000001,-17.553770800000002],[-66.34277390000001,-17.552989500000002],[-66.34271770000001,-17.5527339],[-66.3426407,-17.5523841],[-66.3425136,-17.5521034],[-66.3423417,-17.551855900000003],[-66.3421706,-17.551629900000002],[-66.34170400000001,-17.551099100000002],[-66.34159620000001,-17.550955300000002],[-66.3414264,-17.550676000000003],[-66.3412799,-17.550322700000002],[-66.34108450000001,-17.549771900000003],[-66.3408914,-17.5492709],[-66.34078380000001,-17.5489992],[-66.3407346,-17.5487894],[-66.34071,-17.548516900000003],[-66.34071080000001,-17.5483322],[-66.3407437,-17.5481331],[-66.3408849,-17.5475208],[-66.3409307,-17.5472836],[-66.34094610000001,-17.5469744],[-66.34092070000001,-17.5467809],[-66.34088510000001,-17.546634],[-66.3408026,-17.5464413],[-66.3406624,-17.546182700000003],[-66.3405266,-17.546030400000003],[-66.3402733,-17.545837300000002],[-66.33842890000001,-17.544499300000002],[-66.337084,-17.5435482],[-66.3368432,-17.543348700000003],[-66.3366984,-17.543178700000002],[-66.33656300000001,-17.542966],[-66.3364974,-17.542794500000003],[-66.3364581,-17.5426214],[-66.3364341,-17.5424629],[-66.3364202,-17.542300200000003],[-66.33641700000001,-17.5422298],[-66.3364099,-17.542020800000003],[-66.3363585,-17.5411965],[-66.33633320000001,-17.540848800000003],[-66.3363022,-17.540669100000002],[-66.33624710000001,-17.540516200000003],[-66.3361557,-17.540328300000002],[-66.3360385,-17.5401233],[-66.33589070000001,-17.539920400000003],[-66.3358422,-17.5398539],[-66.3355435,-17.539337200000002],[-66.33549500000001,-17.539200800000003],[-66.33543130000001,-17.538784200000002],[-66.33547060000001,-17.5383533],[-66.3358949,-17.5371086],[-66.3359516,-17.5367301],[-66.3359336,-17.5363055],[-66.33581840000001,-17.5358531],[-66.3354927,-17.535196000000003],[-66.33508110000001,-17.534418900000002],[-66.33489700000001,-17.533944],[-66.33482930000001,-17.5334733],[-66.3348644,-17.5329893],[-66.335063,-17.5324372],[-66.33564720000001,-17.5314471],[-66.335802,-17.531067200000003],[-66.33589330000001,-17.5306113],[-66.33587960000001,-17.530258500000002],[-66.3355775,-17.528675800000002],[-66.3354331,-17.5277771],[-66.3354863,-17.526526],[-66.335425,-17.5259888],[-66.3352814,-17.5255605],[-66.3351279,-17.525153900000003],[-66.334812,-17.524690300000003],[-66.3339837,-17.5235182],[-66.3335811,-17.5229374],[-66.3332591,-17.522476800000003],[-66.33296510000001,-17.522100700000003],[-66.3327807,-17.521872000000002],[-66.3326282,-17.521547],[-66.33250980000001,-17.5212059],[-66.3324803,-17.5209756],[-66.3324608,-17.5206833],[-66.33251390000001,-17.5203345],[-66.33260100000001,-17.519985000000002],[-66.33282630000001,-17.5192264],[-66.33291200000001,-17.5188959],[-66.33295840000001,-17.518581700000002],[-66.33296840000001,-17.518384],[-66.3329595,-17.5181736],[-66.33288590000001,-17.517365],[-66.332858,-17.5169886],[-66.33284780000001,-17.5168396],[-66.33284,-17.516655200000002],[-66.3328596,-17.516442],[-66.33293330000001,-17.5161103],[-66.333296,-17.5148669],[-66.3333872,-17.5146534],[-66.3334784,-17.514447500000003],[-66.33357740000001,-17.514272300000002],[-66.3337156,-17.5141114],[-66.33390940000001,-17.513929500000003],[-66.33446520000001,-17.5134502],[-66.3346307,-17.5132592],[-66.3347715,-17.513010700000002],[-66.3348629,-17.512664100000002],[-66.33507800000001,-17.511097300000003],[-66.3350633,-17.510609900000002],[-66.3350022,-17.510076100000003],[-66.33492430000001,-17.509690000000003],[-66.3346911,-17.5087513],[-66.33436920000001,-17.507807000000003],[-66.33396760000001,-17.5070133],[-66.3337408,-17.5064552],[-66.3335141,-17.5058311],[-66.3331947,-17.5050855],[-66.33312210000001,-17.5048259],[-66.3330861,-17.5046238],[-66.3330806,-17.504479],[-66.33309650000001,-17.504313900000003],[-66.333168,-17.5040666],[-66.3332675,-17.5038234],[-66.3335155,-17.503397200000002],[-66.33365900000001,-17.503137600000002],[-66.3337616,-17.502879],[-66.33382710000001,-17.502667300000002],[-66.33386730000001,-17.502497400000003],[-66.3338775,-17.5022623],[-66.3338595,-17.501933],[-66.33367000000001,-17.5000594],[-66.3336604,-17.499600500000003],[-66.3337006,-17.4992598],[-66.3337607,-17.498993000000002],[-66.3338408,-17.4986944],[-66.33397710000001,-17.498361600000003],[-66.3341273,-17.498003200000003],[-66.33439990000001,-17.497316],[-66.3345869,-17.497023700000003],[-66.33509260000001,-17.4963619],[-66.3351829,-17.496237200000003],[-66.3353249,-17.4959874],[-66.3357364,-17.494917100000002],[-66.33586700000001,-17.4946044],[-66.33611090000001,-17.494219400000002],[-66.33630070000001,-17.4939447],[-66.3369205,-17.4932877],[-66.33805770000001,-17.4920823],[-66.3382514,-17.491841700000002],[-66.3385399,-17.491386100000003],[-66.33870540000001,-17.490999300000002],[-66.33879970000001,-17.4906362],[-66.3388218,-17.490364900000003],[-66.3388391,-17.4901531],[-66.3388037,-17.489760200000003],[-66.3387112,-17.4892715],[-66.33860200000001,-17.4887641],[-66.33825660000001,-17.4871459],[-66.33813950000001,-17.486629100000002],[-66.33800830000001,-17.486276500000002],[-66.3377751,-17.4857458],[-66.3376119,-17.485361],[-66.3375326,-17.4850785],[-66.3375077,-17.4847095],[-66.33748150000001,-17.4840379],[-66.3374065,-17.482908700000003],[-66.3373943,-17.482711700000003],[-66.33741470000001,-17.482235000000003],[-66.33745110000001,-17.482015],[-66.33749920000001,-17.4818503],[-66.33754970000001,-17.4817216],[-66.3376126,-17.4815778],[-66.3377382,-17.481369500000003],[-66.3379297,-17.481152],[-66.3380939,-17.480998900000003],[-66.33827670000001,-17.4808743],[-66.33883150000001,-17.4805062],[-66.33915730000001,-17.4802494],[-66.33928230000001,-17.4801223],[-66.339399,-17.4799545],[-66.3395076,-17.479706500000002],[-66.33957690000001,-17.4794194],[-66.33961760000001,-17.4790953],[-66.3396675,-17.478367000000002],[-66.33970450000001,-17.477523400000003],[-66.3396819,-17.477011800000003],[-66.33960880000001,-17.4764701],[-66.33946040000001,-17.4752867],[-66.339374,-17.4747075],[-66.33927080000001,-17.473854300000003],[-66.3391697,-17.4731673],[-66.33914010000001,-17.472821600000003],[-66.3390998,-17.472563200000003],[-66.33908100000001,-17.472374400000003],[-66.3389621,-17.4719127],[-66.338907,-17.4715874],[-66.33889740000001,-17.4715376],[-66.3388922,-17.4714969],[-66.33886670000001,-17.471292700000003],[-66.3388271,-17.470943300000002],[-66.33876360000001,-17.4704021],[-66.338746,-17.470237100000002],[-66.3387103,-17.4699624],[-66.3386358,-17.469425700000002],[-66.3385939,-17.468936300000003],[-66.338577,-17.4686881],[-66.33857250000001,-17.4685506],[-66.33856440000001,-17.468298200000003],[-66.3385696,-17.468096900000003],[-66.33863840000001,-17.4675771],[-66.3386445,-17.467515000000002],[-66.33869840000001,-17.4669272],[-66.3387859,-17.465461700000002],[-66.338785,-17.4649897],[-66.33875330000001,-17.4645575],[-66.3387165,-17.464216800000003],[-66.33863840000001,-17.4636634],[-66.3386361,-17.4636472],[-66.3385466,-17.462873400000003],[-66.33847,-17.4621235],[-66.33841430000001,-17.461550600000002],[-66.33837190000001,-17.4607549],[-66.3383623,-17.4605758],[-66.3383295,-17.460058],[-66.3383204,-17.459773700000003],[-66.3383158,-17.4594916],[-66.3383196,-17.4591771],[-66.3383325,-17.4588927],[-66.33836910000001,-17.4584538],[-66.33847990000001,-17.457265000000003],[-66.3386988,-17.455157500000002],[-66.33882360000001,-17.4538797],[-66.33885160000001,-17.4535935],[-66.33893920000001,-17.452772900000003],[-66.3390347,-17.4518132],[-66.3391476,-17.450643300000003],[-66.33923920000001,-17.449652800000003],[-66.33927080000001,-17.449003],[-66.33925740000001,-17.448517000000002],[-66.33919470000001,-17.447924200000003],[-66.3391478,-17.447612000000003],[-66.33912550000001,-17.447464],[-66.3390677,-17.447113400000003],[-66.33900390000001,-17.4468564],[-66.33889810000001,-17.446486500000002],[-66.3388395,-17.446309600000003],[-66.33882910000001,-17.446280400000003],[-66.3386612,-17.4458121],[-66.3380049,-17.444204600000003],[-66.3376569,-17.443345100000002],[-66.3376381,-17.4432981],[-66.3375603,-17.4431042],[-66.3375017,-17.4429643],[-66.33741230000001,-17.442754500000003],[-66.337283,-17.4424329],[-66.3372422,-17.4423308],[-66.3371367,-17.4420766],[-66.3360973,-17.439585700000002],[-66.33578320000001,-17.4388329],[-66.33557800000001,-17.438291000000003],[-66.33485560000001,-17.4364738],[-66.33463010000001,-17.4358916],[-66.33457320000001,-17.4357487],[-66.3341568,-17.4346694],[-66.3332196,-17.4323896],[-66.33304240000001,-17.4319746],[-66.33293850000001,-17.431704],[-66.33241840000001,-17.4305032],[-66.33206170000001,-17.4297268],[-66.3319757,-17.4295495],[-66.3319084,-17.429407700000002],[-66.3315539,-17.4284995],[-66.33147720000001,-17.428260100000003],[-66.3314091,-17.4280125],[-66.33137210000001,-17.4278364],[-66.3313243,-17.427535600000002],[-66.3313109,-17.4273904],[-66.3312956,-17.426997200000002],[-66.3313102,-17.426605900000002],[-66.33134740000001,-17.426338],[-66.3314679,-17.4256008],[-66.3318033,-17.4236714],[-66.33199760000001,-17.422624600000002],[-66.33241140000001,-17.4202593],[-66.3324815,-17.419903],[-66.33251890000001,-17.4197099],[-66.3325889,-17.4193274],[-66.33262830000001,-17.419106600000003],[-66.3327027,-17.418753900000002],[-66.33293180000001,-17.417423900000003],[-66.3329346,-17.417407400000002],[-66.33306,-17.416682],[-66.3331326,-17.4162448],[-66.3332132,-17.4157033],[-66.33328780000001,-17.415291200000002],[-66.3333731,-17.414610000000003],[-66.33339600000001,-17.414073700000003],[-66.3333892,-17.413557700000002],[-66.3333513,-17.4131763],[-66.33328820000001,-17.412730500000002],[-66.33321360000001,-17.4123407],[-66.3331426,-17.412043],[-66.3330615,-17.411742800000003],[-66.3328869,-17.411328100000002],[-66.3327651,-17.410951],[-66.3323969,-17.4101411],[-66.33203110000001,-17.4093313],[-66.33182330000001,-17.4088731],[-66.3317196,-17.4086456],[-66.331652,-17.4084973],[-66.33148340000001,-17.408127500000003],[-66.33140820000001,-17.4079625],[-66.33129690000001,-17.4077182],[-66.33112910000001,-17.407327300000002],[-66.3308629,-17.406752],[-66.3307886,-17.4065879],[-66.32969480000001,-17.404194],[-66.32963430000001,-17.404056200000003],[-66.32943,-17.4036267],[-66.32935160000001,-17.4034538],[-66.32869520000001,-17.402032300000002],[-66.32842500000001,-17.4014798],[-66.3282504,-17.401172600000002],[-66.32809200000001,-17.400918700000002],[-66.3279593,-17.4007119],[-66.32778590000001,-17.4004647],[-66.32752470000001,-17.400129000000003],[-66.3272391,-17.3997932],[-66.3270839,-17.3996387],[-66.3267728,-17.3993173],[-66.3265049,-17.3991],[-66.32627360000001,-17.398900400000002],[-66.32613280000001,-17.398778800000002],[-66.3257904,-17.3985348],[-66.3256511,-17.3984358],[-66.3256465,-17.3984327],[-66.32564260000001,-17.398430100000002],[-66.32546590000001,-17.398310000000002],[-66.3248873,-17.3979724],[-66.3244736,-17.397705100000003],[-66.3241995,-17.3975401],[-66.3240074,-17.3974325],[-66.3236507,-17.3972547],[-66.32343420000001,-17.3971567],[-66.3231865,-17.397048700000003],[-66.3226743,-17.396845000000003],[-66.32228210000001,-17.3967139],[-66.32194340000001,-17.396614200000002],[-66.32150490000001,-17.3965047],[-66.32094880000001,-17.3964108],[-66.32053020000001,-17.396356],[-66.3201138,-17.3963161],[-66.3193129,-17.3962763],[-66.3183989,-17.396222400000003],[-66.317842,-17.3961982],[-66.3171983,-17.3962396],[-66.31698990000001,-17.396227000000003],[-66.31683740000001,-17.396219000000002],[-66.3165618,-17.3962046],[-66.3164191,-17.396196800000002]],"nodes":[2902772570,2902772574,2902772581,2902772588,2902772712,2902772717,2902772727,2902766431,2902766453,2902766454,1124782140,2902766444,4281240967,12258562092,12279728645,4281240962,7472811836,4280948437,4280948436,4281240907,7472811843,4281240891,4280948435,4280948434,1126621339,12279728643,4280948442,4280948443,4280948441,4281240753,1126621302,4281240739,1126621344,4281240722,1126621403,4281240724,4281240723,4281240720,8459690760,4281240704,1126621369,1126621408,8459690763,8459690762,1126621434,4245443646,1126621475,1126762091,1126762061,1126621374,1126621406,1126762018,8459690764,1126621464,8459690757,4245432553,4245432557,1126621307,1126621350,6852902455,319771282,4281240429,4245432551,319771284,1126762150,1126762001,12913507089,1126762264,2902771327,8459824219,4281240383,319771297,4245443651,4245443652,2902770898,319771298,4245443653,319771299,4245443655,4281240375,4245443654,6463458830,4281240373,319771300,4245443656,319771301,4245443657,4281240355,4281240354,319771316,6463458821,319771326,4281240351,4245443660,319771338,319771378,4245443662,8217894370,4245443663,4245443664,4245443665,319771387,4245443666,319771395,4281240349,4245443667,2902770162,4281240344,319771407,4245443668,4281240339,319771415,4245443669,8459765808,4281240335,12304684010,11065476833,4245443670,319771473,4245443671,319771475,6298742827,4245443672,4281240309,12304684007,1124806632,319771477,4912365742,4245443674,1124806669,6863563876,1124806749,12304684025,4245443675,12304684011,319771479,319771485,319771493,319771500,4245443676,319771550,4245443677,4245443678,319771602,319771636,4245443679,319771674,11065476832,319771678,4245443680,319771683,4245443681,319771687,11065476831,319771691,319771696,4245443683,319771732,4739028049,4245443684,4739028048,4739028046,4739028047,4245443685,4739028045,319771745,4739028044,4739028043,4739028042,319771751,4739028041,319771757,4245443687,4739028039,4245443688,4739028038,319771765,4739028075,4739028037,4245443689,4245443690,319771771,4739028076,4245443691,4739027973,319771777,4245443692,319771781,4245443693,4245443694,319771784,319771789,4245443696,319771793,4245443697,319771799,8203830823,4245443700,11755746259,11755746258,12506928681,4245443701,4245443702,12506928682,319771817,11755746255,4245443703,7940092918,4245443704,319771822,8203830833,4245443705,319771826,8203830834,1126876299,319771860,4162107567,8203830835,8203830836,319771865,8203830837,319771897,4245443706,3823744897,6993773665,319771898,7929456537,319771919,319771953,7929456538,12506965302,12506939883,319771955,319771960,7929456539,319771963,7929456543,3823744896,319771965,6993773662,3821279548,319771968,3821277370,6558183140,3823744895,319771990,3823744894,3823744893,3823744892,6558183138,319771992,3094143430,3823744891,319771995,3823744890,3094143429,6558183141,319772000,11069346772,3094143428,3094143427,3094143426,319772003,3094143425,319772007,7929456645,3094143424,7929415825,319772012,3823744889,319772016,6558183002,3823744888,4160564489,6988516764,3094143409,3094143405,3823718540,3823718535,4650974554,3823718534,4650974557,3823718531,3825884365,3094143370,3825884366,3823718524,3823718523,319772129,9057806870,11071715934,3094143332,3785755071,4160564518,7064476194,6172156435,319772257,3823718512,3094086748,3094086737,7064476819,3094086603,3094086578,3823718507,319772268,9203691313,3823718503,3823718502,7059074347,319772280,7059074348,3823718499,3823718497,3823718495,3094086025,7064472058,3094085945,3823718481,3823718479,3823718477,319772297,3094085173,6172156325,319772308,12270368927,3823718470,6172156326,319772319,6172156344,1497972756,12270357692,3094084914,7933350601,5179218488,2022078140,2022078138,11069650023,6298572908,6298572911,12271404588,6172156390,12271440524,7064470347,3094083510,3823722763,6182218511,6113969145,1124806722,1124806648,6182218513,9488489821,6113969129,9488489975,1723764609,9488489977,319772331,11395374292,4245439540,6113969174,319772339,6113969175,6113969176,1722951306,3804474427,6113975794,11395374302,3804474331,3804474280,6113975762,6113975723,6113975704,5070871664,6113975749,6113975692,7064467409,3804474206,3804474203,6182218516,319772362,4245445405,319772381,3804474159,319772392,3804474129,5070871662,5070871661,6326422077,5470213999,6182218518,11368023032,5470214002,6167540823,12530294315,6167540820,1722943703,12530294311,6179368734,7735246839,6298468002,6298468003,1722885626,7064444155,7929674777,7929674778,6298413537,6298413539,10613336276,6298413540,6298413541,6298413542,10613336207,7064462724,6298413543,6298413545,6352666608,12511412523,6298413547,6298413549,6352666603,12511412527,11069727145,6352666604,6352666605,10634809673,6352666631,6352666632,6387277809,6352666674,6352666675,6352666672,6352666673,6583297655,6352666676,6352666677,6352666678,6352666679,1723140841,1723140766,6352666682,1722993022,6751636171,7064469393,12521648516,2140772675]},"gtfs":{"agency_id":0,"route_id":120,"services":[{"service_id":"Mo-Su","startTime":"06:00","endTime":"22:00","trip_id":11124782}],"filteredStops":{"nodes":[2902772570,2902772574,2902772581,2902772588,2902772712,2902772717,2902772727,2902766431,2902766453,2902766454,1124782140,2902766444,4281240967,12258562092,12279728645,4281240962,7472811836,4280948437,4280948436,4281240907,7472811843,4281240891,4280948435,4280948434,1126621339,12279728643,4280948442,4280948443,4280948441,4281240753,1126621302,4281240739,1126621344,4281240722,1126621403,4281240724,4281240723,4281240720,8459690760,4281240704,1126621369,1126621408,8459690763,8459690762,1126621434,4245443646,1126621475,1126762091,1126762061,1126621374,1126621406,1126762018,8459690764,1126621464,8459690757,4245432553,4245432557,1126621307,1126621350,6852902455,319771282,4281240429,4245432551,319771284,1126762150,1126762001,12913507089,1126762264,2902771327,8459824219,4281240383,319771297,4245443651,4245443652,2902770898,319771298,4245443653,319771299,4245443655,4281240375,4245443654,6463458830,4281240373,319771300,4245443656,319771301,4245443657,4281240355,4281240354,319771316,6463458821,319771326,4281240351,4245443660,319771338,319771378,4245443662,8217894370,4245443663,4245443664,4245443665,319771387,4245443666,319771395,4281240349,4245443667,2902770162,4281240344,319771407,4245443668,4281240339,319771415,4245443669,8459765808,4281240335,12304684010,11065476833,4245443670,319771473,4245443671,319771475,6298742827,4245443672,4281240309,12304684007,1124806632,319771477,4912365742,4245443674,1124806669,6863563876,1124806749,12304684025,4245443675,12304684011,319771479,319771485,319771493,319771500,4245443676,319771550,4245443677,4245443678,319771602,319771636,4245443679,319771674,11065476832,319771678,4245443680,319771683,4245443681,319771687,11065476831,319771691,319771696,4245443683,319771732,4739028049,4245443684,4739028048,4739028046,4739028047,4245443685,4739028045,319771745,4739028044,4739028043,4739028042,319771751,4739028041,319771757,4245443687,4739028039,4245443688,4739028038,319771765,4739028075,4739028037,4245443689,4245443690,319771771,4739028076,4245443691,4739027973,319771777,4245443692,319771781,4245443693,4245443694,319771784,319771789,4245443696,319771793,4245443697,319771799,8203830823,4245443700,11755746259,11755746258,12506928681,4245443701,4245443702,12506928682,319771817,11755746255,4245443703,7940092918,4245443704,319771822,8203830833,4245443705,319771826,8203830834,1126876299,319771860,4162107567,8203830835,8203830836,319771865,8203830837,319771897,4245443706,3823744897,6993773665,319771898,7929456537,319771919,319771953,7929456538,12506965302,12506939883,319771955,319771960,7929456539,319771963,7929456543,3823744896,319771965,6993773662,3821279548,319771968,3821277370,6558183140,3823744895,319771990,3823744894,3823744893,3823744892,6558183138,319771992,3094143430,3823744891,319771995,3823744890,3094143429,6558183141,319772000,11069346772,3094143428,3094143427,3094143426,319772003,3094143425,319772007,7929456645,3094143424,7929415825,319772012,3823744889,319772016,6558183002,3823744888,4160564489,6988516764,3094143409,3094143405,3823718540,3823718535,4650974554,3823718534,4650974557,3823718531,3825884365,3094143370,3825884366,3823718524,3823718523,319772129,9057806870,11071715934,3094143332,3785755071,4160564518,7064476194,6172156435,319772257,3823718512,3094086748,3094086737,7064476819,3094086603,3094086578,3823718507,319772268,9203691313,3823718503,3823718502,7059074347,319772280,7059074348,3823718499,3823718497,3823718495,3094086025,7064472058,3094085945,3823718481,3823718479,3823718477,319772297,3094085173,6172156325,319772308,12270368927,3823718470,6172156326,319772319,6172156344,1497972756,12270357692,3094084914,7933350601,5179218488,2022078140,2022078138,11069650023,6298572908,6298572911,12271404588,6172156390,12271440524,7064470347,3094083510,3823722763,6182218511,6113969145,1124806722,1124806648,6182218513,9488489821,6113969129,9488489975,1723764609,9488489977,319772331,11395374292,4245439540,6113969174,319772339,6113969175,6113969176,1722951306,3804474427,6113975794,11395374302,3804474331,3804474280,6113975762,6113975723,6113975704,5070871664,6113975749,6113975692,7064467409,3804474206,3804474203,6182218516,319772362,4245445405,319772381,3804474159,319772392,3804474129,5070871662,5070871661,6326422077,5470213999,6182218518,11368023032,5470214002,6167540823,12530294315,6167540820,1722943703,12530294311,6179368734,7735246839,6298468002,6298468003,1722885626,7064444155,7929674777,7929674778,6298413537,6298413539,10613336276,6298413540,6298413541,6298413542,10613336207,7064462724,6298413543,6298413545,6352666608,12511412523,6298413547,6298413549,6352666603,12511412527,11069727145,6352666604,6352666605,10634809673,6352666631,6352666632,6387277809,6352666674,6352666675,6352666672,6352666673,6583297655,6352666676,6352666677,6352666678,6352666679,1723140841,1723140766,6352666682,1722993022,6751636171,7064469393,12521648516,2140772675],"coordinates":[[-66.351854,-17.575130100000003],[-66.3516568,-17.575232000000003],[-66.3513279,-17.5754181],[-66.35103020000001,-17.575596800000003],[-66.3506428,-17.575818100000003],[-66.35048060000001,-17.5759259],[-66.35033580000001,-17.5760496],[-66.3502459,-17.5761833],[-66.3501104,-17.5765107],[-66.3500247,-17.5766151],[-66.3499008,-17.576720100000003],[-66.3497375,-17.576477200000003],[-66.3487221,-17.574946100000002],[-66.34869210000001,-17.574899100000003],[-66.34865260000001,-17.5748375],[-66.34858100000001,-17.574726000000002],[-66.34840430000001,-17.574421],[-66.34815730000001,-17.574013],[-66.3479925,-17.5736941],[-66.34789690000001,-17.5733929],[-66.3478551,-17.5731764],[-66.3478288,-17.572933000000003],[-66.3477984,-17.5725465],[-66.34779590000001,-17.5718962],[-66.347813,-17.5712434],[-66.3477445,-17.5712422],[-66.34768050000001,-17.5711233],[-66.3474723,-17.5706092],[-66.3471062,-17.5695078],[-66.347009,-17.5692528],[-66.3469129,-17.5691302],[-66.34649780000001,-17.568848000000003],[-66.34605450000001,-17.5683511],[-66.34603170000001,-17.568374600000002],[-66.34600130000001,-17.5683998],[-66.3459504,-17.5684095],[-66.34590610000001,-17.568398000000002],[-66.3458739,-17.5683718],[-66.3456489,-17.568109500000002],[-66.3456424,-17.5680638],[-66.345647,-17.5680234],[-66.34568920000001,-17.567982500000003],[-66.3457175,-17.5679625],[-66.3457309,-17.567888800000002],[-66.345731,-17.567809200000003],[-66.3456536,-17.567669700000003],[-66.34562790000001,-17.5674229],[-66.3455957,-17.567026400000003],[-66.3456007,-17.5668599],[-66.3455763,-17.5665917],[-66.34553740000001,-17.5663205],[-66.3454913,-17.5661467],[-66.3454574,-17.5660597],[-66.3453509,-17.5658175],[-66.3448597,-17.5649389],[-66.34446100000001,-17.564075900000002],[-66.34443440000001,-17.5639457],[-66.3444037,-17.5636851],[-66.3444224,-17.563372400000002],[-66.3442421,-17.563092400000002],[-66.3440314,-17.562833400000002],[-66.3439096,-17.5626375],[-66.3437519,-17.562383],[-66.3435754,-17.562079100000002],[-66.3432702,-17.561367],[-66.3431109,-17.561030300000002],[-66.34306330000001,-17.5609353],[-66.34281490000001,-17.560463400000003],[-66.3426366,-17.560084800000002],[-66.3423413,-17.5594696],[-66.3420445,-17.5588513],[-66.34195290000001,-17.5586471],[-66.34185190000001,-17.558411300000003],[-66.3417888,-17.5582154],[-66.3417685,-17.558001700000002],[-66.34177670000001,-17.5577308],[-66.34179160000001,-17.5574738],[-66.34183680000001,-17.557222600000003],[-66.3419221,-17.556962900000002],[-66.34205100000001,-17.556723100000003],[-66.34263490000001,-17.5558583],[-66.3426972,-17.5557607],[-66.34275720000001,-17.5556161],[-66.3428002,-17.5555394],[-66.34286870000001,-17.5553068],[-66.3429129,-17.5551192],[-66.34294100000001,-17.554825700000002],[-66.3429375,-17.5545599],[-66.34286490000001,-17.553770800000002],[-66.34277390000001,-17.552989500000002],[-66.34271770000001,-17.5527339],[-66.3426407,-17.5523841],[-66.3425136,-17.5521034],[-66.3423417,-17.551855900000003],[-66.3421706,-17.551629900000002],[-66.34170400000001,-17.551099100000002],[-66.34159620000001,-17.550955300000002],[-66.3414264,-17.550676000000003],[-66.3412799,-17.550322700000002],[-66.34108450000001,-17.549771900000003],[-66.3408914,-17.5492709],[-66.34078380000001,-17.5489992],[-66.3407346,-17.5487894],[-66.34071,-17.548516900000003],[-66.34071080000001,-17.5483322],[-66.3407437,-17.5481331],[-66.3408849,-17.5475208],[-66.3409307,-17.5472836],[-66.34094610000001,-17.5469744],[-66.34092070000001,-17.5467809],[-66.34088510000001,-17.546634],[-66.3408026,-17.5464413],[-66.3406624,-17.546182700000003],[-66.3405266,-17.546030400000003],[-66.3402733,-17.545837300000002],[-66.33842890000001,-17.544499300000002],[-66.337084,-17.5435482],[-66.3368432,-17.543348700000003],[-66.3366984,-17.543178700000002],[-66.33656300000001,-17.542966],[-66.3364974,-17.542794500000003],[-66.3364581,-17.5426214],[-66.3364341,-17.5424629],[-66.3364202,-17.542300200000003],[-66.33641700000001,-17.5422298],[-66.3364099,-17.542020800000003],[-66.3363585,-17.5411965],[-66.33633320000001,-17.540848800000003],[-66.3363022,-17.540669100000002],[-66.33624710000001,-17.540516200000003],[-66.3361557,-17.540328300000002],[-66.3360385,-17.5401233],[-66.33589070000001,-17.539920400000003],[-66.3358422,-17.5398539],[-66.3355435,-17.539337200000002],[-66.33549500000001,-17.539200800000003],[-66.33543130000001,-17.538784200000002],[-66.33547060000001,-17.5383533],[-66.3358949,-17.5371086],[-66.3359516,-17.5367301],[-66.3359336,-17.5363055],[-66.33581840000001,-17.5358531],[-66.3354927,-17.535196000000003],[-66.33508110000001,-17.534418900000002],[-66.33489700000001,-17.533944],[-66.33482930000001,-17.5334733],[-66.3348644,-17.5329893],[-66.335063,-17.5324372],[-66.33564720000001,-17.5314471],[-66.335802,-17.531067200000003],[-66.33589330000001,-17.5306113],[-66.33587960000001,-17.530258500000002],[-66.3355775,-17.528675800000002],[-66.3354331,-17.5277771],[-66.3354863,-17.526526],[-66.335425,-17.5259888],[-66.3352814,-17.5255605],[-66.3351279,-17.525153900000003],[-66.334812,-17.524690300000003],[-66.3339837,-17.5235182],[-66.3335811,-17.5229374],[-66.3332591,-17.522476800000003],[-66.33296510000001,-17.522100700000003],[-66.3327807,-17.521872000000002],[-66.3326282,-17.521547],[-66.33250980000001,-17.5212059],[-66.3324803,-17.5209756],[-66.3324608,-17.5206833],[-66.33251390000001,-17.5203345],[-66.33260100000001,-17.519985000000002],[-66.33282630000001,-17.5192264],[-66.33291200000001,-17.5188959],[-66.33295840000001,-17.518581700000002],[-66.33296840000001,-17.518384],[-66.3329595,-17.5181736],[-66.33288590000001,-17.517365],[-66.332858,-17.5169886],[-66.33284780000001,-17.5168396],[-66.33284,-17.516655200000002],[-66.3328596,-17.516442],[-66.33293330000001,-17.5161103],[-66.333296,-17.5148669],[-66.3333872,-17.5146534],[-66.3334784,-17.514447500000003],[-66.33357740000001,-17.514272300000002],[-66.3337156,-17.5141114],[-66.33390940000001,-17.513929500000003],[-66.33446520000001,-17.5134502],[-66.3346307,-17.5132592],[-66.3347715,-17.513010700000002],[-66.3348629,-17.512664100000002],[-66.33507800000001,-17.511097300000003],[-66.3350633,-17.510609900000002],[-66.3350022,-17.510076100000003],[-66.33492430000001,-17.509690000000003],[-66.3346911,-17.5087513],[-66.33436920000001,-17.507807000000003],[-66.33396760000001,-17.5070133],[-66.3337408,-17.5064552],[-66.3335141,-17.5058311],[-66.3331947,-17.5050855],[-66.33312210000001,-17.5048259],[-66.3330861,-17.5046238],[-66.3330806,-17.504479],[-66.33309650000001,-17.504313900000003],[-66.333168,-17.5040666],[-66.3332675,-17.5038234],[-66.3335155,-17.503397200000002],[-66.33365900000001,-17.503137600000002],[-66.3337616,-17.502879],[-66.33382710000001,-17.502667300000002],[-66.33386730000001,-17.502497400000003],[-66.3338775,-17.5022623],[-66.3338595,-17.501933],[-66.33367000000001,-17.5000594],[-66.3336604,-17.499600500000003],[-66.3337006,-17.4992598],[-66.3337607,-17.498993000000002],[-66.3338408,-17.4986944],[-66.33397710000001,-17.498361600000003],[-66.3341273,-17.498003200000003],[-66.33439990000001,-17.497316],[-66.3345869,-17.497023700000003],[-66.33509260000001,-17.4963619],[-66.3351829,-17.496237200000003],[-66.3353249,-17.4959874],[-66.3357364,-17.494917100000002],[-66.33586700000001,-17.4946044],[-66.33611090000001,-17.494219400000002],[-66.33630070000001,-17.4939447],[-66.3369205,-17.4932877],[-66.33805770000001,-17.4920823],[-66.3382514,-17.491841700000002],[-66.3385399,-17.491386100000003],[-66.33870540000001,-17.490999300000002],[-66.33879970000001,-17.4906362],[-66.3388218,-17.490364900000003],[-66.3388391,-17.4901531],[-66.3388037,-17.489760200000003],[-66.3387112,-17.4892715],[-66.33860200000001,-17.4887641],[-66.33825660000001,-17.4871459],[-66.33813950000001,-17.486629100000002],[-66.33800830000001,-17.486276500000002],[-66.3377751,-17.4857458],[-66.3376119,-17.485361],[-66.3375326,-17.4850785],[-66.3375077,-17.4847095],[-66.33748150000001,-17.4840379],[-66.3374065,-17.482908700000003],[-66.3373943,-17.482711700000003],[-66.33741470000001,-17.482235000000003],[-66.33745110000001,-17.482015],[-66.33749920000001,-17.4818503],[-66.33754970000001,-17.4817216],[-66.3376126,-17.4815778],[-66.3377382,-17.481369500000003],[-66.3379297,-17.481152],[-66.3380939,-17.480998900000003],[-66.33827670000001,-17.4808743],[-66.33883150000001,-17.4805062],[-66.33915730000001,-17.4802494],[-66.33928230000001,-17.4801223],[-66.339399,-17.4799545],[-66.3395076,-17.479706500000002],[-66.33957690000001,-17.4794194],[-66.33961760000001,-17.4790953],[-66.3396675,-17.478367000000002],[-66.33970450000001,-17.477523400000003],[-66.3396819,-17.477011800000003],[-66.33960880000001,-17.4764701],[-66.33946040000001,-17.4752867],[-66.339374,-17.4747075],[-66.33927080000001,-17.473854300000003],[-66.3391697,-17.4731673],[-66.33914010000001,-17.472821600000003],[-66.3390998,-17.472563200000003],[-66.33908100000001,-17.472374400000003],[-66.3389621,-17.4719127],[-66.338907,-17.4715874],[-66.33889740000001,-17.4715376],[-66.3388922,-17.4714969],[-66.33886670000001,-17.471292700000003],[-66.3388271,-17.470943300000002],[-66.33876360000001,-17.4704021],[-66.338746,-17.470237100000002],[-66.3387103,-17.4699624],[-66.3386358,-17.469425700000002],[-66.3385939,-17.468936300000003],[-66.338577,-17.4686881],[-66.33857250000001,-17.4685506],[-66.33856440000001,-17.468298200000003],[-66.3385696,-17.468096900000003],[-66.33863840000001,-17.4675771],[-66.3386445,-17.467515000000002],[-66.33869840000001,-17.4669272],[-66.3387859,-17.465461700000002],[-66.338785,-17.4649897],[-66.33875330000001,-17.4645575],[-66.3387165,-17.464216800000003],[-66.33863840000001,-17.4636634],[-66.3386361,-17.4636472],[-66.3385466,-17.462873400000003],[-66.33847,-17.4621235],[-66.33841430000001,-17.461550600000002],[-66.33837190000001,-17.4607549],[-66.3383623,-17.4605758],[-66.3383295,-17.460058],[-66.3383204,-17.459773700000003],[-66.3383158,-17.4594916],[-66.3383196,-17.4591771],[-66.3383325,-17.4588927],[-66.33836910000001,-17.4584538],[-66.33847990000001,-17.457265000000003],[-66.3386988,-17.455157500000002],[-66.33882360000001,-17.4538797],[-66.33885160000001,-17.4535935],[-66.33893920000001,-17.452772900000003],[-66.3390347,-17.4518132],[-66.3391476,-17.450643300000003],[-66.33923920000001,-17.449652800000003],[-66.33927080000001,-17.449003],[-66.33925740000001,-17.448517000000002],[-66.33919470000001,-17.447924200000003],[-66.3391478,-17.447612000000003],[-66.33912550000001,-17.447464],[-66.3390677,-17.447113400000003],[-66.33900390000001,-17.4468564],[-66.33889810000001,-17.446486500000002],[-66.3388395,-17.446309600000003],[-66.33882910000001,-17.446280400000003],[-66.3386612,-17.4458121],[-66.3380049,-17.444204600000003],[-66.3376569,-17.443345100000002],[-66.3376381,-17.4432981],[-66.3375603,-17.4431042],[-66.3375017,-17.4429643],[-66.33741230000001,-17.442754500000003],[-66.337283,-17.4424329],[-66.3372422,-17.4423308],[-66.3371367,-17.4420766],[-66.3360973,-17.439585700000002],[-66.33578320000001,-17.4388329],[-66.33557800000001,-17.438291000000003],[-66.33485560000001,-17.4364738],[-66.33463010000001,-17.4358916],[-66.33457320000001,-17.4357487],[-66.3341568,-17.4346694],[-66.3332196,-17.4323896],[-66.33304240000001,-17.4319746],[-66.33293850000001,-17.431704],[-66.33241840000001,-17.4305032],[-66.33206170000001,-17.4297268],[-66.3319757,-17.4295495],[-66.3319084,-17.429407700000002],[-66.3315539,-17.4284995],[-66.33147720000001,-17.428260100000003],[-66.3314091,-17.4280125],[-66.33137210000001,-17.4278364],[-66.3313243,-17.427535600000002],[-66.3313109,-17.4273904],[-66.3312956,-17.426997200000002],[-66.3313102,-17.426605900000002],[-66.33134740000001,-17.426338],[-66.3314679,-17.4256008],[-66.3318033,-17.4236714],[-66.33199760000001,-17.422624600000002],[-66.33241140000001,-17.4202593],[-66.3324815,-17.419903],[-66.33251890000001,-17.4197099],[-66.3325889,-17.4193274],[-66.33262830000001,-17.419106600000003],[-66.3327027,-17.418753900000002],[-66.33293180000001,-17.417423900000003],[-66.3329346,-17.417407400000002],[-66.33306,-17.416682],[-66.3331326,-17.4162448],[-66.3332132,-17.4157033],[-66.33328780000001,-17.415291200000002],[-66.3333731,-17.414610000000003],[-66.33339600000001,-17.414073700000003],[-66.3333892,-17.413557700000002],[-66.3333513,-17.4131763],[-66.33328820000001,-17.412730500000002],[-66.33321360000001,-17.4123407],[-66.3331426,-17.412043],[-66.3330615,-17.411742800000003],[-66.3328869,-17.411328100000002],[-66.3327651,-17.410951],[-66.3323969,-17.4101411],[-66.33203110000001,-17.4093313],[-66.33182330000001,-17.4088731],[-66.3317196,-17.4086456],[-66.331652,-17.4084973],[-66.33148340000001,-17.408127500000003],[-66.33140820000001,-17.4079625],[-66.33129690000001,-17.4077182],[-66.33112910000001,-17.407327300000002],[-66.3308629,-17.406752],[-66.3307886,-17.4065879],[-66.32969480000001,-17.404194],[-66.32963430000001,-17.404056200000003],[-66.32943,-17.4036267],[-66.32935160000001,-17.4034538],[-66.32869520000001,-17.402032300000002],[-66.32842500000001,-17.4014798],[-66.3282504,-17.401172600000002],[-66.32809200000001,-17.400918700000002],[-66.3279593,-17.4007119],[-66.32778590000001,-17.4004647],[-66.32752470000001,-17.400129000000003],[-66.3272391,-17.3997932],[-66.3270839,-17.3996387],[-66.3267728,-17.3993173],[-66.3265049,-17.3991],[-66.32627360000001,-17.398900400000002],[-66.32613280000001,-17.398778800000002],[-66.3257904,-17.3985348],[-66.3256511,-17.3984358],[-66.3256465,-17.3984327],[-66.32564260000001,-17.398430100000002],[-66.32546590000001,-17.398310000000002],[-66.3248873,-17.3979724],[-66.3244736,-17.397705100000003],[-66.3241995,-17.3975401],[-66.3240074,-17.3974325],[-66.3236507,-17.3972547],[-66.32343420000001,-17.3971567],[-66.3231865,-17.397048700000003],[-66.3226743,-17.396845000000003],[-66.32228210000001,-17.3967139],[-66.32194340000001,-17.396614200000002],[-66.32150490000001,-17.3965047],[-66.32094880000001,-17.3964108],[-66.32053020000001,-17.396356],[-66.3201138,-17.3963161],[-66.3193129,-17.3962763],[-66.3183989,-17.396222400000003],[-66.317842,-17.3961982],[-66.3171983,-17.3962396],[-66.31698990000001,-17.396227000000003],[-66.31683740000001,-17.396219000000002],[-66.3165618,-17.3962046],[-66.3164191,-17.396196800000002]]}}},{"type":"Feature","properties":{"bench":"no","bin":"no","bus":"yes","departures_board":"no","highway":"bus_stop","level":"0","lit":"no","name":"Parada 245","public_transport":"platform","shelter":"no","tactile_paving":"no","wheelchair":"no","id":7541581659},"geometry":{"type":"Point","coordinates":[-66.3164739,-17.3958467]}},{"type":"Feature","properties":{"bench":"no","bin":"no","bus":"yes","departures_board":"no","highway":"bus_stop","level":"0","lit":"no","name":"Parada 245","public_transport":"platform","shelter":"no","tactile_paving":"no","wheelchair":"no","id":11877745716},"geometry":{"type":"Point","coordinates":[-66.3164522,-17.3962894]}},{"type":"Feature","properties":{"bench":"no","bin":"no","bus":"yes","departures_board":"no","highway":"bus_stop","level":"0","lit":"yes","name":"Parada 245","operator":"Sindicato Mixto de Autotransporte 6 de Agosto Sipe Sipe","public_transport":"platform","shelter":"no","tactile_paving":"no","wheelchair":"no","id":12253899046},"geometry":{"type":"Point","coordinates":[-66.35175670000001,-17.575203300000002]}},{"type":"Feature","properties":{"bench":"no","bin":"no","bus":"yes","departures_board":"no","highway":"bus_stop","level":"0","lit":"no","name":"Phankuruma","public_transport":"platform","shelter":"no","tactile_paving":"no","wheelchair":"no","id":6182218508},"geometry":{"type":"Point","coordinates":[-66.3357069,-17.438907500000003]}}]}