{"type":"FeatureCollection","features":[{"type":"Feature","properties":{"from":"Calle Litoral","name":"MiniBus 260: Calle Litoral → Viloma Cala Cala","network":"BO:CB:Cochabamba","on_demand":"yes","operator":"Sindicato mixto de autotransporte 6 de agosto Sipe Sipe","public_transport:version":"2","ref":"260","route":"bus","to":"Viloma Cala Cala","type":"route","wheelchair":"no","id":11127395},"geometry":{"type":"LineString","coordinates":[[-66.14295220000001,-17.4001364],[-66.1436979,-17.400251200000003],[-66.14378590000001,-17.4002628],[-66.14397620000001,-17.3992925],[-66.1431728,-17.3991872],[-66.142426,-17.399084700000003],[-66.1419213,-17.399018700000003],[-66.1412178,-17.398923200000002],[-66.1411635,-17.3989158],[-66.14106980000001,-17.398902600000003],[-66.1407435,-17.3988568],[-66.1406343,-17.398841400000002],[-66.1405517,-17.3988298],[-66.13962590000001,-17.398693700000003],[-66.1396562,-17.3986281],[-66.13989330000001,-17.398115200000003],[-66.1399786,-17.397932100000002],[-66.14070770000001,-17.396336400000003],[-66.14073540000001,-17.3962758],[-66.1407681,-17.3962043],[-66.14145420000001,-17.394703200000002],[-66.141484,-17.3946387],[-66.14150590000001,-17.3945896],[-66.14177520000001,-17.3940245],[-66.1418082,-17.3939294],[-66.14178980000001,-17.3939184],[-66.14177620000001,-17.3939047],[-66.1417677,-17.393890900000002],[-66.1417617,-17.393872100000003],[-66.1417608,-17.3938522],[-66.14176520000001,-17.393832800000002],[-66.14177500000001,-17.3938147],[-66.1417888,-17.393800000000002],[-66.1418057,-17.393789400000003],[-66.14182480000001,-17.3937831],[-66.1418395,-17.3937814],[-66.1418543,-17.3937823],[-66.14187790000001,-17.3937896],[-66.1419298,-17.393674700000002],[-66.1423273,-17.3927935],[-66.14234640000001,-17.3927549],[-66.1427214,-17.3919144],[-66.14274520000001,-17.3918573],[-66.14277480000001,-17.3917991],[-66.1432738,-17.390734100000003],[-66.1433968,-17.390456800000003],[-66.14365520000001,-17.3898914],[-66.1436815,-17.3898455],[-66.14372680000001,-17.389761],[-66.14375670000001,-17.38971],[-66.1438823,-17.389169000000003],[-66.1438912,-17.389130700000003],[-66.1438998,-17.3890856],[-66.14401190000001,-17.3885763],[-66.14401810000001,-17.388548],[-66.1440274,-17.3885055],[-66.14403940000001,-17.3884519],[-66.1440445,-17.3884289],[-66.14409280000001,-17.388213800000003],[-66.1441228,-17.388003100000002],[-66.1441303,-17.387871],[-66.14411840000001,-17.3876305],[-66.14409780000001,-17.3874676],[-66.14406720000001,-17.387328],[-66.1440092,-17.387150100000003],[-66.14375170000001,-17.386405],[-66.1434742,-17.385276100000002],[-66.1434619,-17.3852262],[-66.14344150000001,-17.3851592],[-66.14351950000001,-17.385130800000002],[-66.14365620000001,-17.3850793],[-66.1436884,-17.385032600000002],[-66.1437027,-17.385011900000002],[-66.1437269,-17.384959700000003],[-66.1437636,-17.3848644],[-66.143642,-17.3845476],[-66.1435733,-17.3843812],[-66.14355280000001,-17.384331600000003],[-66.1435331,-17.384279000000003],[-66.1433676,-17.383855],[-66.1432156,-17.383461200000003],[-66.1431235,-17.3832227],[-66.1430998,-17.383161400000002],[-66.14302210000001,-17.382966000000003],[-66.1429365,-17.3827505],[-66.1428348,-17.382453700000003],[-66.1428049,-17.3823271],[-66.1428013,-17.382192500000002],[-66.142812,-17.3820759],[-66.1428274,-17.381992200000003],[-66.1428571,-17.3818728],[-66.14286390000001,-17.3818452],[-66.1428932,-17.381785200000003],[-66.14280620000001,-17.3817208],[-66.14276910000001,-17.3816926],[-66.1422567,-17.3813321],[-66.14218190000001,-17.3813062],[-66.1420982,-17.3812524],[-66.14203730000001,-17.381203300000003],[-66.1420076,-17.3811794],[-66.1419204,-17.381094400000002],[-66.141942,-17.3809289],[-66.1419898,-17.3804528],[-66.1420054,-17.3803324],[-66.1420325,-17.380121000000003],[-66.1420751,-17.379981200000003],[-66.14211440000001,-17.379624200000002],[-66.14223080000001,-17.3784013],[-66.1422469,-17.3781314],[-66.14222570000001,-17.377979500000002],[-66.14223430000001,-17.3778571],[-66.14223030000001,-17.377773700000002],[-66.1422199,-17.3776949],[-66.1421909,-17.3776639],[-66.14217310000001,-17.3776255],[-66.14216710000001,-17.377586],[-66.14217070000001,-17.3775543],[-66.1421773,-17.377529600000003],[-66.14219340000001,-17.377495200000002],[-66.142222,-17.3774681],[-66.14225540000001,-17.3774507],[-66.14229470000001,-17.3774383],[-66.1423194,-17.3774203],[-66.14233460000001,-17.3774054],[-66.1423592,-17.3773105],[-66.14246,-17.376944400000003],[-66.1424636,-17.376928900000003],[-66.142464,-17.376924900000002],[-66.1424703,-17.3768683],[-66.1424748,-17.3768274],[-66.142481,-17.3767615],[-66.14251820000001,-17.376325],[-66.1425282,-17.376219600000002],[-66.1425928,-17.375760800000002],[-66.14265420000001,-17.3753253],[-66.1426953,-17.375031],[-66.14270520000001,-17.374962800000002],[-66.14271830000001,-17.3748676],[-66.142819,-17.374184500000002],[-66.1428047,-17.3741261],[-66.1427764,-17.374057200000003],[-66.14268050000001,-17.3739877],[-66.14263460000001,-17.373939500000002],[-66.1426047,-17.373879000000002],[-66.14259750000001,-17.3738446],[-66.1425861,-17.3737841],[-66.1425906,-17.3736961],[-66.1426187,-17.3736122],[-66.14265400000001,-17.3735557],[-66.1426742,-17.373532200000003],[-66.1427001,-17.3735067],[-66.1427463,-17.373472500000002],[-66.14279780000001,-17.373446100000002],[-66.1428532,-17.373428],[-66.14290650000001,-17.373419300000002],[-66.14296060000001,-17.373418400000002],[-66.1430141,-17.3734253],[-66.143066,-17.3734399],[-66.1431441,-17.373479500000002],[-66.14320950000001,-17.3735363],[-66.14325810000001,-17.3736067],[-66.1433648,-17.3736706],[-66.1434091,-17.3736789],[-66.143743,-17.373666],[-66.14381540000001,-17.3736615],[-66.1443457,-17.3736292],[-66.1445029,-17.3736196],[-66.1445734,-17.373616300000002],[-66.1446097,-17.3736146],[-66.14564530000001,-17.373547400000003],[-66.14585340000001,-17.3735342],[-66.1459105,-17.3735302],[-66.1466176,-17.3734812],[-66.1467391,-17.3734727],[-66.1468978,-17.3734617],[-66.14704470000001,-17.3734515],[-66.14716,-17.3734435],[-66.1477354,-17.373403600000003],[-66.1485729,-17.3733532],[-66.1491709,-17.3733174],[-66.1493762,-17.373305900000002],[-66.1494179,-17.3732966],[-66.14946540000001,-17.3732778],[-66.14948290000001,-17.373254000000003],[-66.1495055,-17.3732341],[-66.14952910000001,-17.3732207],[-66.1495551,-17.3732119],[-66.1495828,-17.3732079],[-66.14961690000001,-17.373210200000003],[-66.14965000000001,-17.3732204],[-66.1496795,-17.373237900000003],[-66.14970310000001,-17.3732611],[-66.1497561,-17.3732748],[-66.1497987,-17.3732787],[-66.1505133,-17.3732341],[-66.15095480000001,-17.373206600000003],[-66.1510593,-17.3732],[-66.15117380000001,-17.373193],[-66.15120830000001,-17.3731909],[-66.15144260000001,-17.3731741],[-66.1524613,-17.373111],[-66.15341910000001,-17.3730516],[-66.1535724,-17.373042100000003],[-66.1536725,-17.3730353],[-66.1537516,-17.373029900000002],[-66.15377450000001,-17.373028400000003],[-66.15462020000001,-17.372979200000003],[-66.1546879,-17.3729757],[-66.1547572,-17.3729707],[-66.15479110000001,-17.3729683],[-66.1564764,-17.3728483],[-66.156552,-17.3728389],[-66.15656940000001,-17.3727842],[-66.1565973,-17.3727336],[-66.15663470000001,-17.3726889],[-66.15668020000001,-17.372651700000002],[-66.15673220000001,-17.372623200000003],[-66.1567699,-17.3726096],[-66.15680920000001,-17.372600600000002],[-66.1568493,-17.3725972],[-66.1569111,-17.372604300000003],[-66.15697030000001,-17.372622900000003],[-66.15702440000001,-17.372652300000002],[-66.1570714,-17.372691300000003],[-66.15710940000001,-17.372738400000003],[-66.1571284,-17.3727719],[-66.1571777,-17.372797000000002],[-66.15724,-17.372803],[-66.158928,-17.372691300000003],[-66.15898530000001,-17.372688200000002],[-66.15907010000001,-17.372683400000003],[-66.1591482,-17.372678800000003],[-66.1592834,-17.372671],[-66.159475,-17.3726595],[-66.1597268,-17.3726458],[-66.1604978,-17.3725945],[-66.16058120000001,-17.3725908],[-66.16078270000001,-17.372576300000002],[-66.16079300000001,-17.3725756],[-66.1608853,-17.372569900000002],[-66.16104220000001,-17.3725601],[-66.16166670000001,-17.372521300000002],[-66.1625305,-17.372462000000002],[-66.1626071,-17.3724567],[-66.16272430000001,-17.372448600000002],[-66.16280760000001,-17.372444400000003],[-66.16281930000001,-17.3724437],[-66.1629565,-17.3724339],[-66.16368630000001,-17.3723902],[-66.16377960000001,-17.372384],[-66.1638592,-17.372380600000003],[-66.16504470000001,-17.372305],[-66.1659248,-17.37225],[-66.16601080000001,-17.372244000000002],[-66.1667106,-17.372195400000003],[-66.16762510000001,-17.372139800000003],[-66.1682109,-17.3720994],[-66.1682737,-17.3720962],[-66.16828840000001,-17.3720694],[-66.16830820000001,-17.372048200000002],[-66.16834270000001,-17.3720274],[-66.1683728,-17.3720193],[-66.16840400000001,-17.3720184],[-66.1684443,-17.3720287],[-66.16846190000001,-17.372038],[-66.1684843,-17.372056200000003],[-66.16850400000001,-17.3720828],[-66.16857750000001,-17.3720773],[-66.1690899,-17.3720399],[-66.1693731,-17.3720204],[-66.169897,-17.3719842],[-66.17065840000001,-17.3719374],[-66.1712894,-17.3718971],[-66.1717893,-17.3718609],[-66.17188970000001,-17.371842700000002],[-66.1719161,-17.3718232],[-66.17196290000001,-17.371807500000003],[-66.1720118,-17.371799300000003],[-66.1720614,-17.3717986],[-66.1721105,-17.371805600000002],[-66.1721498,-17.3718258],[-66.17220130000001,-17.371835],[-66.17224300000001,-17.3718393],[-66.1727697,-17.371804800000003],[-66.17286610000001,-17.3717995],[-66.1729274,-17.3717958],[-66.17311760000001,-17.3717843],[-66.17329360000001,-17.371774000000002],[-66.1735962,-17.3717572],[-66.1742529,-17.371712900000002],[-66.1749163,-17.3716633],[-66.17527840000001,-17.3716402],[-66.175621,-17.3716183],[-66.1756587,-17.3716161],[-66.1756964,-17.3716139],[-66.17575400000001,-17.3716106],[-66.17580530000001,-17.3716076],[-66.1758748,-17.371603500000003],[-66.1761305,-17.371589],[-66.1769981,-17.371539900000002],[-66.1769706,-17.371115500000002],[-66.17692860000001,-17.3704679],[-66.17695880000001,-17.3703831],[-66.17692050000001,-17.3703645],[-66.1764454,-17.370134200000003],[-66.17589550000001,-17.3698677],[-66.1758413,-17.3698744],[-66.1757972,-17.369891300000003],[-66.1757685,-17.369916500000002],[-66.1757369,-17.3699629],[-66.1757757,-17.370922200000003],[-66.1758061,-17.371523],[-66.1758056,-17.371579800000003],[-66.17580530000001,-17.3716076],[-66.1758047,-17.371706800000002],[-66.17580450000001,-17.3717733],[-66.1758044,-17.371785000000003],[-66.1758133,-17.372115400000002],[-66.1758209,-17.3723943],[-66.17584930000001,-17.3734398],[-66.1758521,-17.373500500000002],[-66.17588310000001,-17.3741787],[-66.1758843,-17.374238700000003],[-66.17590170000001,-17.3751235],[-66.17592880000001,-17.375939000000002],[-66.17595220000001,-17.376465500000002],[-66.17596230000001,-17.376580800000003],[-66.1760196,-17.3771498],[-66.17608360000001,-17.377663700000003],[-66.17610540000001,-17.377885600000003],[-66.176264,-17.3792693],[-66.1762674,-17.379298600000002],[-66.17628020000001,-17.3794104],[-66.17631580000001,-17.3797514],[-66.1763306,-17.3798925],[-66.1763475,-17.3800545],[-66.17636420000001,-17.3802141],[-66.1764294,-17.380838500000003],[-66.17652290000001,-17.3816166],[-66.1765376,-17.3817425],[-66.17654900000001,-17.3818407],[-66.17655830000001,-17.381925000000003],[-66.17657580000001,-17.382058200000003],[-66.17658270000001,-17.3821239],[-66.17663920000001,-17.3826658],[-66.1766681,-17.382943],[-66.1767045,-17.3833422],[-66.1767372,-17.383557000000003],[-66.17677090000001,-17.383706500000002],[-66.1768296,-17.3838826],[-66.17691400000001,-17.384085300000002],[-66.17718380000001,-17.3845452],[-66.1772825,-17.3847035],[-66.17768600000001,-17.385426300000002],[-66.1781675,-17.3862755],[-66.17865160000001,-17.387129400000003],[-66.17894000000001,-17.387648900000002],[-66.1789694,-17.387717000000002],[-66.17898260000001,-17.3877671],[-66.1789997,-17.3878321],[-66.17901520000001,-17.3878877],[-66.17904650000001,-17.38801],[-66.17906210000001,-17.388069100000003],[-66.17912100000001,-17.3882887],[-66.17916670000001,-17.3884738],[-66.1793907,-17.3892916],[-66.1794021,-17.389339200000002],[-66.1796305,-17.390173800000003],[-66.1801824,-17.3921978],[-66.1802603,-17.392333],[-66.1804695,-17.3930587],[-66.18048080000001,-17.393098300000002],[-66.1805054,-17.393145800000003],[-66.18054430000001,-17.393188700000003],[-66.18057730000001,-17.3932183],[-66.18062970000001,-17.3932667],[-66.18067540000001,-17.393308],[-66.18074960000001,-17.3933579],[-66.1808314,-17.3933852],[-66.18095240000001,-17.3934044],[-66.181751,-17.393372900000003],[-66.1823452,-17.3933444],[-66.1841002,-17.393278300000002],[-66.1844521,-17.3932597],[-66.1864116,-17.3931714],[-66.18663930000001,-17.3931593],[-66.1874124,-17.3931268],[-66.1888567,-17.393062800000003],[-66.18927430000001,-17.3930444],[-66.1911252,-17.3929577],[-66.1921353,-17.3929072],[-66.19389860000001,-17.392841200000003],[-66.19472350000001,-17.3928088],[-66.1969299,-17.392707700000003],[-66.19707530000001,-17.3927008],[-66.1987218,-17.392627],[-66.1989338,-17.392616500000003],[-66.19947400000001,-17.3925896],[-66.19953740000001,-17.392586400000003],[-66.1996008,-17.392583300000002],[-66.1996781,-17.392580000000002],[-66.19981580000001,-17.3925734],[-66.20019090000001,-17.3925553],[-66.2025337,-17.3924534],[-66.2032418,-17.3924227],[-66.203618,-17.3924063],[-66.2050914,-17.3923528],[-66.20721280000001,-17.392253800000002],[-66.2074111,-17.3922446],[-66.20800460000001,-17.3922214],[-66.2080229,-17.3922206],[-66.2080916,-17.3922175],[-66.20818460000001,-17.392214300000003],[-66.20828870000001,-17.392210400000003],[-66.2085114,-17.392202100000002],[-66.2089727,-17.3921849],[-66.2091079,-17.392179000000002],[-66.209809,-17.392142800000002],[-66.2099245,-17.392136800000003],[-66.21032100000001,-17.392123],[-66.2103967,-17.392118],[-66.21112070000001,-17.3920846],[-66.212964,-17.391999700000003],[-66.2136675,-17.3919733],[-66.2143133,-17.391949],[-66.21541520000001,-17.3919077],[-66.21586190000001,-17.3918901],[-66.2168864,-17.3918417],[-66.2182483,-17.391766],[-66.21857410000001,-17.3917538],[-66.2193943,-17.3917164],[-66.2213267,-17.3916517],[-66.2215894,-17.3916389],[-66.2220618,-17.391613600000003],[-66.2233037,-17.3915541],[-66.2242367,-17.3915189],[-66.22459930000001,-17.3915051],[-66.2249474,-17.3914893],[-66.22586360000001,-17.3914462],[-66.2264962,-17.391416500000002],[-66.226663,-17.391409000000003],[-66.22742140000001,-17.391380400000003],[-66.22845140000001,-17.391331500000003],[-66.2287988,-17.3913116],[-66.22916620000001,-17.3912966],[-66.2297343,-17.391273100000003],[-66.2297673,-17.3912717],[-66.2298409,-17.3912687],[-66.23001210000001,-17.3912616],[-66.2305661,-17.3912386],[-66.23202520000001,-17.3911775],[-66.23242710000001,-17.3911635],[-66.23362490000001,-17.3911146],[-66.23459740000001,-17.391074900000003],[-66.2363591,-17.3910045],[-66.2365822,-17.390991800000002],[-66.237921,-17.3909427],[-66.2382125,-17.390907100000003],[-66.23832990000001,-17.390888],[-66.23850750000001,-17.390849900000003],[-66.238539,-17.390845000000002],[-66.23865520000001,-17.3908233],[-66.2386762,-17.390812800000003],[-66.2386987,-17.390805500000003],[-66.2387279,-17.3908011],[-66.23875740000001,-17.390801900000003],[-66.2387863,-17.390808],[-66.2389553,-17.3908324],[-66.2390359,-17.390851700000002],[-66.23918880000001,-17.3908644],[-66.2398993,-17.390842600000003],[-66.24091200000001,-17.3908188],[-66.2411366,-17.390814000000002],[-66.24209880000001,-17.390802200000003],[-66.2427852,-17.3907986],[-66.2435679,-17.390794900000003],[-66.24365250000001,-17.390786000000002],[-66.24371930000001,-17.3907743],[-66.2437568,-17.3907665],[-66.2439573,-17.3907244],[-66.2444481,-17.3907345],[-66.2444669,-17.3907364],[-66.2446218,-17.390762300000002],[-66.2447073,-17.3907855],[-66.2447511,-17.3907996],[-66.2448526,-17.390817600000002],[-66.244949,-17.390826],[-66.24615270000001,-17.390867200000002],[-66.24629010000001,-17.390875700000002],[-66.24800660000001,-17.3909571],[-66.24846360000001,-17.390979700000003],[-66.2490276,-17.391015600000003],[-66.24945770000001,-17.3910255],[-66.24961640000001,-17.391035600000002],[-66.24996320000001,-17.3910579],[-66.25019710000001,-17.3910726],[-66.25024350000001,-17.391075500000003],[-66.2502905,-17.3910784],[-66.25044340000001,-17.391088],[-66.25069140000001,-17.3910616],[-66.25080080000001,-17.3910637],[-66.25089670000001,-17.3910763],[-66.2509344,-17.391085500000003],[-66.2509776,-17.391096100000002],[-66.25121610000001,-17.3911541],[-66.2513818,-17.3911859],[-66.2514689,-17.3911951],[-66.2526672,-17.391312300000003],[-66.25279280000001,-17.3913246],[-66.2542188,-17.391462200000003],[-66.2567501,-17.391716000000002],[-66.2573333,-17.3917803],[-66.2577457,-17.391825700000002],[-66.2579393,-17.391844000000003],[-66.2582763,-17.391875900000002],[-66.25901440000001,-17.391939500000003],[-66.2594909,-17.3919806],[-66.25952000000001,-17.3919831],[-66.2595584,-17.3919864],[-66.25960780000001,-17.3919906],[-66.26010000000001,-17.3920415],[-66.2603304,-17.3920654],[-66.26080250000001,-17.392114300000003],[-66.26200770000001,-17.392239],[-66.2643025,-17.3924716],[-66.2649633,-17.392536800000002],[-66.2662909,-17.392664200000002],[-66.2675492,-17.3927929],[-66.2678247,-17.392819900000003],[-66.2679871,-17.3928392],[-66.26809610000001,-17.392851800000003],[-66.2681726,-17.392859100000003],[-66.2682498,-17.3928669],[-66.2684282,-17.392885000000003],[-66.26878230000001,-17.392921],[-66.2699511,-17.3930396],[-66.2701093,-17.3930492],[-66.2712023,-17.393158000000003],[-66.2722402,-17.3932523],[-66.2723895,-17.3932515],[-66.2725216,-17.393241500000002],[-66.2726698,-17.393238800000002],[-66.272689,-17.393225800000003],[-66.27271540000001,-17.393213000000003],[-66.27273810000001,-17.3932058],[-66.27276160000001,-17.3932016],[-66.2727854,-17.3932003],[-66.27280920000001,-17.393202000000002],[-66.2728326,-17.3932068],[-66.2728551,-17.3932144],[-66.27287630000001,-17.393224800000002],[-66.27289160000001,-17.393234500000002],[-66.27290570000001,-17.3932457],[-66.27315990000001,-17.3932739],[-66.273306,-17.3932901],[-66.27345840000001,-17.393307],[-66.2742772,-17.393387],[-66.2744122,-17.393401100000002],[-66.2749658,-17.393460700000002],[-66.27566250000001,-17.393531900000003],[-66.27617020000001,-17.3935795],[-66.276919,-17.3936497],[-66.27692900000001,-17.3936506],[-66.2770081,-17.393658300000002],[-66.27790560000001,-17.393745900000003],[-66.27801910000001,-17.393757700000002],[-66.2780498,-17.393761],[-66.27810050000001,-17.393757700000002],[-66.27814760000001,-17.393768100000003],[-66.2782028,-17.393773900000003],[-66.27831880000001,-17.3937856],[-66.2793687,-17.3938843],[-66.279509,-17.3938978],[-66.2805328,-17.393996],[-66.28064060000001,-17.394005500000002],[-66.28074860000001,-17.3940124],[-66.2815018,-17.394060500000002],[-66.28160000000001,-17.3940668],[-66.2817091,-17.394076700000003],[-66.281799,-17.394080600000002],[-66.28298910000001,-17.3941538],[-66.28308340000001,-17.394157],[-66.2845815,-17.3942283],[-66.2846215,-17.394230200000003],[-66.2847138,-17.394235400000003],[-66.28608170000001,-17.394313],[-66.2861048,-17.3943143],[-66.2862367,-17.3943285],[-66.2862733,-17.394325100000003],[-66.28630960000001,-17.394330500000002],[-66.2865376,-17.3943356],[-66.286777,-17.394349100000003],[-66.28728570000001,-17.394382200000003],[-66.28868630000001,-17.394460000000002],[-66.2895369,-17.3944924],[-66.28983120000001,-17.394507700000002],[-66.29033910000001,-17.394541],[-66.2906093,-17.394559500000003],[-66.29123700000001,-17.3946027],[-66.29135480000001,-17.39461],[-66.2914228,-17.3946134],[-66.2917477,-17.394626600000002],[-66.29193620000001,-17.394636100000003],[-66.2940367,-17.3947654],[-66.29427530000001,-17.394787200000003],[-66.2947522,-17.394843700000003],[-66.2950412,-17.3948673],[-66.2952138,-17.394874400000003],[-66.29527820000001,-17.394877],[-66.2981362,-17.395047400000003],[-66.29853940000001,-17.395071100000003],[-66.2988629,-17.395089000000002],[-66.30045170000001,-17.395164],[-66.30081120000001,-17.3951837],[-66.3008621,-17.3951865],[-66.30127420000001,-17.3952092],[-66.30133380000001,-17.395212100000002],[-66.3017818,-17.395237],[-66.30251670000001,-17.395273300000003],[-66.30387990000001,-17.395352000000003],[-66.3048334,-17.395401300000003],[-66.3053498,-17.3954291],[-66.30583770000001,-17.395454500000003],[-66.306824,-17.395508000000003],[-66.30759110000001,-17.395548700000003],[-66.3077258,-17.3955559],[-66.3081104,-17.3955756],[-66.30822540000001,-17.3955817],[-66.3089425,-17.3956194],[-66.30912000000001,-17.395628700000003],[-66.31074120000001,-17.3957176],[-66.31099640000001,-17.3957333],[-66.3110565,-17.395736900000003],[-66.31126830000001,-17.3957491],[-66.3119894,-17.395789100000002],[-66.31237030000001,-17.3958093],[-66.312506,-17.3958166],[-66.3133959,-17.395865],[-66.3139572,-17.3958926],[-66.3141226,-17.395898900000002],[-66.31450690000001,-17.3959149],[-66.3146463,-17.395918],[-66.3152319,-17.3958914],[-66.31569320000001,-17.3958984],[-66.3157439,-17.395900800000003],[-66.3161161,-17.3959188],[-66.3161724,-17.3959215],[-66.316247,-17.395925300000002],[-66.31643310000001,-17.3959356],[-66.3165774,-17.395943000000003],[-66.3168443,-17.3959598],[-66.31722930000001,-17.3959826],[-66.3178877,-17.3960833],[-66.3184016,-17.396115100000003],[-66.3193653,-17.396164600000002],[-66.3201386,-17.396217200000002],[-66.32048520000001,-17.3962454],[-66.3207448,-17.3962717],[-66.3207955,-17.396278300000002],[-66.3209654,-17.3963003],[-66.3211098,-17.3963241],[-66.3217274,-17.396450700000003],[-66.32226730000001,-17.396597900000003],[-66.3227172,-17.396734000000002],[-66.3230918,-17.3968838],[-66.3235382,-17.3970786],[-66.32393130000001,-17.3972711],[-66.32403430000001,-17.3973201],[-66.32424350000001,-17.397426900000003],[-66.3247534,-17.397748500000002],[-66.32488000000001,-17.397835200000003],[-66.32543050000001,-17.3981587],[-66.32552910000001,-17.3982223],[-66.32570600000001,-17.398342500000002],[-66.32570980000001,-17.3983451],[-66.3257143,-17.3983481],[-66.32585750000001,-17.398445600000002],[-66.32600120000001,-17.3985485],[-66.3262018,-17.3986957],[-66.32634610000001,-17.398823500000002],[-66.32656080000001,-17.3990137],[-66.326704,-17.3991344],[-66.3270279,-17.3994509],[-66.32716160000001,-17.399579300000003],[-66.32729160000001,-17.3997117],[-66.3274933,-17.399940100000002],[-66.32773730000001,-17.400241700000002],[-66.32802620000001,-17.400662200000003],[-66.32829650000001,-17.401062300000003],[-66.3284704,-17.4013835],[-66.3286958,-17.4018382],[-66.3294231,-17.4033878],[-66.3294365,-17.4034185],[-66.3295154,-17.4035854],[-66.3296873,-17.403928200000003],[-66.3298295,-17.404251300000002],[-66.330492,-17.4056973],[-66.33088070000001,-17.4065532],[-66.33094960000001,-17.406719000000002],[-66.3309777,-17.4067754],[-66.3313895,-17.4076752],[-66.3314986,-17.4079221],[-66.33157390000001,-17.4080927],[-66.3317363,-17.4084603],[-66.3318004,-17.4086053],[-66.3319098,-17.408853],[-66.332244,-17.409589500000003],[-66.332474,-17.4100937],[-66.3329168,-17.41109],[-66.3330354,-17.411365500000002],[-66.33315130000001,-17.4117119],[-66.3332465,-17.4120251],[-66.3333166,-17.412322200000002],[-66.3333915,-17.4127188],[-66.3334509,-17.4131603],[-66.3334794,-17.413522800000003],[-66.3334897,-17.414067300000003],[-66.3334648,-17.414615],[-66.3333709,-17.4153069],[-66.33329450000001,-17.4157167],[-66.33323510000001,-17.4161344],[-66.3332101,-17.416262800000002],[-66.33305610000001,-17.4172383],[-66.33302950000001,-17.4173554],[-66.33284590000001,-17.4184091],[-66.33277960000001,-17.418761800000002],[-66.3327098,-17.419120000000003],[-66.33267260000001,-17.4193414],[-66.33260460000001,-17.419723700000002],[-66.33256820000001,-17.419917100000003],[-66.3325214,-17.4202395],[-66.3320946,-17.4225503],[-66.33190210000001,-17.4236346],[-66.33155950000001,-17.4255928],[-66.33143860000001,-17.4262634],[-66.3313921,-17.426598000000002],[-66.3313849,-17.4269117],[-66.331383,-17.427205700000002],[-66.33140060000001,-17.427489],[-66.33146690000001,-17.4278853],[-66.33153580000001,-17.4281638],[-66.3316492,-17.428523600000002],[-66.33199210000001,-17.4293623],[-66.3320652,-17.42952],[-66.33214050000001,-17.4296964],[-66.33241570000001,-17.4302965],[-66.33267980000001,-17.430880700000003],[-66.3331229,-17.431921600000003],[-66.3332412,-17.432203400000002],[-66.33330600000001,-17.432357800000002],[-66.33424950000001,-17.434635200000002],[-66.33466600000001,-17.4357271],[-66.3346992,-17.4358174],[-66.33494320000001,-17.4364464],[-66.33566730000001,-17.438261400000002],[-66.3358407,-17.438696],[-66.3361905,-17.4395479],[-66.3372109,-17.4420481],[-66.33738140000001,-17.4422737],[-66.3375261,-17.4424652],[-66.3375558,-17.4425111],[-66.33756960000001,-17.4425633],[-66.3375663,-17.442617100000003],[-66.33757390000001,-17.4429394],[-66.3378062,-17.442892800000003],[-66.3379778,-17.4428026],[-66.3380467,-17.442766000000002],[-66.33826590000001,-17.4425592],[-66.338408,-17.4424664],[-66.33862,-17.442382100000003],[-66.339151,-17.442269600000003],[-66.33936010000001,-17.4422314],[-66.3396654,-17.442203600000003],[-66.34059810000001,-17.441981100000003],[-66.3410111,-17.4419116],[-66.3412254,-17.4418988],[-66.3414041,-17.4419383],[-66.3415573,-17.4419936],[-66.34169320000001,-17.442027000000003],[-66.3418118,-17.4420751],[-66.34206870000001,-17.4421345],[-66.342493,-17.4421006],[-66.3472862,-17.441563300000002],[-66.3475545,-17.4415428],[-66.3477141,-17.441504000000002],[-66.34717810000001,-17.4405894],[-66.3476883,-17.4404806],[-66.34858550000001,-17.4404128],[-66.34924670000001,-17.440345],[-66.3495355,-17.4403189],[-66.3498904,-17.440304],[-66.3501801,-17.4401684],[-66.35072380000001,-17.4400809],[-66.35106560000001,-17.440024700000002],[-66.3515785,-17.4399562],[-66.35196380000001,-17.4399048],[-66.35227420000001,-17.4398534],[-66.352534,-17.4397492],[-66.3527904,-17.439692100000002],[-66.35323460000001,-17.439624900000002],[-66.3535559,-17.43955],[-66.35383660000001,-17.4394554],[-66.3541076,-17.439280800000002],[-66.35426240000001,-17.4391269],[-66.3544743,-17.4388863],[-66.35462460000001,-17.438707200000003],[-66.35477200000001,-17.438558800000003],[-66.35490610000001,-17.4385115],[-66.35507240000001,-17.4384948],[-66.3561882,-17.438443600000003],[-66.3565964,-17.4384644],[-66.3570887,-17.438463600000002],[-66.3575122,-17.438477000000002],[-66.35800760000001,-17.438451500000003],[-66.3584505,-17.438479200000003],[-66.35891600000001,-17.4385084],[-66.3595786,-17.4385537],[-66.3599272,-17.4384872],[-66.36019200000001,-17.4384061],[-66.36051420000001,-17.437416300000002],[-66.3607317,-17.4360335],[-66.3609443,-17.435177900000003],[-66.36135320000001,-17.434059100000002],[-66.3616645,-17.433410700000003],[-66.3618371,-17.433031500000002],[-66.3620025,-17.4323042],[-66.3621366,-17.4319971],[-66.36225540000001,-17.431849200000002],[-66.3628608,-17.431449500000003],[-66.3630869,-17.4312913],[-66.3633176,-17.431183800000003],[-66.3636019,-17.431127500000002],[-66.3638907,-17.431127],[-66.3643583,-17.431153100000003],[-66.36456720000001,-17.431173400000002],[-66.3649913,-17.431214500000003],[-66.3652962,-17.431234500000002],[-66.36587560000001,-17.431255],[-66.36627870000001,-17.4312299],[-66.367137,-17.431066100000002],[-66.3678988,-17.430856300000002],[-66.3684138,-17.430713],[-66.3688367,-17.4306203],[-66.3690253,-17.4306157],[-66.3692659,-17.4306613],[-66.3695993,-17.4306413],[-66.3698121,-17.4306014],[-66.3699265,-17.4305799],[-66.3700745,-17.430496100000003],[-66.370243,-17.4304008],[-66.3706982,-17.430145900000003],[-66.3710501,-17.429957],[-66.37134130000001,-17.429803900000003],[-66.3720679,-17.429463300000002],[-66.37241,-17.429265400000002],[-66.37262700000001,-17.429145400000003],[-66.3739159,-17.4284196],[-66.3748874,-17.427863400000003],[-66.3761886,-17.4270274],[-66.3771605,-17.4264395],[-66.3772814,-17.426360300000002],[-66.3779731,-17.425932600000003],[-66.3782736,-17.425743200000003],[-66.3784452,-17.425533400000003],[-66.37863750000001,-17.4251337],[-66.378861,-17.4245501],[-66.37887470000001,-17.4245376],[-66.37893340000001,-17.4244841],[-66.3790407,-17.4240542],[-66.3791324,-17.423563100000003],[-66.379164,-17.423394000000002],[-66.3792183,-17.4230476],[-66.379266,-17.422749000000003],[-66.3793411,-17.4221195],[-66.37939390000001,-17.421837500000002],[-66.3795771,-17.4215616],[-66.37971040000001,-17.421146500000003],[-66.379807,-17.4208496],[-66.3799518,-17.420496500000002],[-66.3800384,-17.4203332],[-66.3802101,-17.420164300000003],[-66.38068670000001,-17.419872],[-66.38118030000001,-17.4195752],[-66.38160090000001,-17.4193877],[-66.38195560000001,-17.4191849],[-66.3823881,-17.418867000000002],[-66.3826282,-17.4186693],[-66.3830786,-17.4184115],[-66.38333100000001,-17.4183081],[-66.38372650000001,-17.418096900000002],[-66.38412000000001,-17.4179505],[-66.3844875,-17.4178131],[-66.3847092,-17.4177278],[-66.38497620000001,-17.417602600000002],[-66.38513800000001,-17.417524],[-66.38523520000001,-17.417481300000002],[-66.38572040000001,-17.417344],[-66.38619050000001,-17.4172043],[-66.3869567,-17.4169477],[-66.3874988,-17.4167169],[-66.3877348,-17.416527900000002],[-66.38808510000001,-17.416419700000002],[-66.38834510000001,-17.4164405],[-66.3885041,-17.4164551]],"nodes":[8250693116,2031313936,598787553,598787550,702512052,702512053,702512054,9886703803,702512055,9886703805,9886703801,9886703804,702512056,391725774,8250700095,598788350,8090197938,8619110577,598789213,8619110576,8253508695,598787365,8253508693,9886485059,9886485061,11072493720,11072493714,11072493717,2033335336,11072493721,2033335237,11072493722,2033335171,11072493725,11072493716,11072493726,10597422695,2033335103,9886485075,315134805,8584400934,8620183347,303221552,8620183348,315135505,360127104,6178744932,698492429,315031224,6178744933,10566433108,315031223,10566433107,11890924986,10566433102,315031222,9100193270,11890924985,308303680,2586473051,5521290860,8382740888,308303678,308303677,308303676,308303675,10897790427,2361168094,315031145,9339331181,2391341927,10897790426,9816380801,2391341919,360141901,9816380802,10897790429,680034208,360141769,360142453,3238986993,360141438,3360791866,12802743976,360124377,360124948,360124947,360124946,3225868759,360124945,10897781662,10897781661,360124944,2590032660,5224206193,312425454,12062691266,1796486898,12062693672,1796486893,1796486890,2391341689,9047064136,9047064134,602989539,2391341674,9047064103,8379904380,11977928451,1795293265,11081772341,8379904390,1795293379,1795293373,1795293274,1795293317,8385093438,1795293364,1795293348,1795293368,8385093437,1795293310,9007531385,2391341224,2389107311,2466162853,602989599,11081730876,8385093445,8385091887,2389107301,391733772,8373677219,8373677217,8373677221,2590032490,698492587,2590032474,2126674187,2126674171,1785473496,8509264306,10830782194,10830782195,1785473517,9404086355,1785473267,1785473202,8509264301,10830782197,1785473632,8509264302,1785473234,8616654975,2389107122,1785473260,8509264311,1785473441,1785473207,1785473612,1785473544,2126674113,599541226,8370221221,2126674112,4139785894,811023517,11557702162,4139785892,9581425537,808031551,11800461549,5078180975,808031568,9102939275,2126673841,5078180974,811023244,9561464243,2126673510,391737180,2126673484,2126673474,5074930328,2126673457,2126673436,2126673389,2126673375,2126673387,2126673429,2126673453,5074930329,2126673475,2126673485,9676159568,2126673372,2126673352,12883830695,2126673334,470849661,12883830690,10798762471,9112306457,2126672878,11949496227,9112306454,11949496246,676069628,11949496236,11949496245,2126672561,2126672453,10029085282,2126672420,2126672390,2126672361,10035562403,2126672321,2126672267,2126672306,10607483514,10607483515,2126672342,2126672394,10035562401,2126672428,2126672468,2126672499,2126672409,602989962,602989998,2126672397,10740413055,2287827755,2287827747,2126672316,602989749,10810399598,2126672290,11389364091,11389364093,9021398271,2287827726,391739983,598151867,2287827722,10705908998,9731395680,2287827719,845125506,9989015781,843386542,3297692925,10571690334,851594833,598179188,3669330252,2851924358,9875534157,9875534150,2851924356,12478975040,2851924353,2851924355,2851924357,9875534159,2851924360,2851924359,3297629226,2379706732,845125666,3297629224,845125577,391738016,2468433143,2468433127,2468433125,7170944310,2468433123,2468433126,2468433128,2468433137,391738018,7143274059,845125633,7143274060,845125605,9045167332,845125527,845125625,845125600,11836786390,3673525776,11836786406,391738019,11836778763,563279721,3673525775,11836778767,851594971,11836786432,8559139497,10156204490,851594856,3200866267,8559150943,8559150942,8559150941,8559150940,8559150939,3200866320,3673525773,11836786405,563279721,1722458876,11836778762,3673525779,9653104357,9653104360,689437253,9054936643,689437244,9054936640,1723598857,9586883588,599541141,563279716,598179117,11225380292,598179098,12075820914,698492494,698492492,9021457154,9021457144,9021457142,9021457139,598178893,1723598852,12869588262,9021456992,560437507,560437514,12869588265,12869588267,598178891,563279655,3959056590,563279657,8997922791,2381924863,598178887,2869785594,598178885,12652425099,598178870,3959056591,5230827204,9930439817,9930397109,2381925054,2381925093,9930397113,9900785355,2381925164,2379656105,7068040484,7068094786,689437118,2690719181,8474498129,6272592186,6272592187,1445568049,9017927538,689437120,2690719240,8474498125,8474498124,689437115,4398499281,9017927548,6326490902,4398318267,4398499272,2635402927,2354386761,560522361,2292218251,2292218247,2418530992,5581228588,2418530981,2137733242,2137733243,1807038051,12650627924,8235455989,12650627935,1807038048,2354386770,2429829237,6846214146,11084175485,11084175483,6846214133,2417368043,11084175482,8200481419,8235936958,9374958478,5579061862,3641784408,8235936964,8235936932,2418530966,6845809618,11084175480,9241585477,3255507856,2417367882,11084175478,3255507852,11084175476,3255507849,560084503,560084507,3255507830,3255507821,9008269171,4158028115,794269983,4478225458,792630474,5605204668,2354386778,2354386781,794269932,11084175474,794269972,794269961,9008269167,5605232829,5605232823,8627399437,9786116630,9786116627,560084489,9786116634,8627399436,6282778240,794303535,10837430538,794303398,4586486623,794303570,4586487874,4586487873,8317038876,9008269189,8317038875,698491918,9355127775,7150288216,9355127774,792630390,698491877,9008269182,7933924058,698491863,792630233,785868153,6918618956,792630380,792630483,319773758,8630411872,10837513369,792630507,319773759,10837513367,319773760,8630411868,4586488214,8630411830,9008315709,319773761,4586488419,8316478466,7933924071,4317735512,3880715143,319773764,9008315784,9008315770,4650646887,3880715144,4650646888,7933924066,319773765,319773766,8310400080,8316478456,319773767,319773768,8310400066,319773138,10012571188,5870202500,3881280412,785868004,11084165269,4571961269,11031871495,5236806812,8316478290,12091174510,9262757165,8316478299,319772622,8316478289,8316478287,11084165260,785868517,4382907901,785868508,7931999285,11084165256,2138416891,9262757145,5870202368,5870202367,3195120410,785869180,2360589703,617337196,617337194,783869371,783870663,6179669345,3192787627,8048387329,8048387338,8048387339,2140912533,2140912536,9354911916,8048387327,9354911915,617337182,6917120250,8048387326,319771811,12706842541,12487415611,6917120244,783870340,8221419797,7527585416,783869019,8221419828,8221419837,783870788,8221419835,7527591099,7527591095,7527591091,783871023,7527591076,7527591094,7527591103,783871207,8221419844,6852610654,319771168,6852610653,6852610655,319771170,6852610658,3257962988,319771172,7535460542,12530467808,319770860,12530467807,12530441293,8221419852,3192787645,8221419851,5240483086,12530441286,3192787655,3192797868,781813790,782027439,7064468770,4414022403,6583288998,8117851279,10290549755,8221420007,3257962999,8117851278,319770868,782028626,5240483426,319770604,3811531652,11071380853,5242308080,7064447422,780226843,5242307788,5242307792,5242307797,5242307796,5242307790,5242307787,780226551,319770603,3257963026,1723606664,6751636072,4160023105,11393314253,6751636038,6751636043,11393314256,11077846675,7064447975,5242307737,5242307738,3257963027,5242307740,6751605314,6751605321,11877745766,11877737962,11877737958,6751636145,6179474641,5242307727,1723153067,4938882239,11877745773,11877745776,1934708846,7735246970,1934708810,12521648519,7064469387,1722992994,1934708874,1722973535,2533172994,1723140858,4414028794,10583691402,10583709339,319772454,10583709333,5080526123,1723121686,1722973537,6179471243,6352987786,319772448,3825811810,3825811809,319772443,7064462169,1722973542,3825811804,11069727146,12511412528,3825811805,6179873422,1718238719,5070871658,12511412524,6352666607,6298413550,1722885563,4960901270,7064462718,10613336208,3821233282,6352666467,319772429,319772424,3821233355,11069727142,6352666419,7929674776,7064444151,6167540834,6167540835,6298468000,6298468001,5470213996,6167540818,12530294312,6167540837,6167540819,12530294316,6167540821,7735246835,5470214013,5470214017,6167540681,6167540682,6167540683,5470214121,6167540684,6167540785,6167540663,6167540786,6167540787,6167540788,6182218517,7735246464,6167540791,6167540789,7064467405,6113975701,6113975753,6113975759,6113975707,6113975724,6113975761,6113975688,6113975687,6113975764,6113975685,6113975781,6113969182,6113969181,11368023048,6113969180,6113969169,6113969167,6113969166,9488489976,6113969165,9488489974,11368023047,6113969164,6182218512,9488489953,6113969130,6113969131,6113969144,7058945746,3823722762,12271440527,7064470346,6113975818,6172156389,12271404586,6172156397,6172156398,4414048636,6172156392,11069650024,1744586789,1744586781,5179222121,1744586776,1744586739,1744586733,1744586628,6113975862,1744586623,3094084245,1744586638,1744586555,1744586766,3094084248,1744586635,1744586640,1744586740,1744586736,1744586765,1744586753,1744586786,1497972772,1497976262,5179236521,1497976749,1497976559,1497976384,1497976557,1497976312,3804474670,7058952754,1497976546,5179236522,1497976809,7058952768,7058952764,1497976335,1497976623,1497976227,1497976777,5179236523,1497976710,1497976348,5179236524,1497976343,1497976273,3094083520,1497976760,6991085797,1497976430,1497976702,1497976775,1497976579,1497976631,3094083527,1497976336,7058957586,1497976632,1497976455,1497976288,3821246896,1497976784,1497976577,1497976287,1497976294,1497976322,1497976765,1497976699,1497976718,1497976641,6991085735,1497976283,1497976643,1497976446,1497976413,1497976482,1497976484,1497976494,1497976709,1497976337,1497976388,1497976389,7808899758,1497976306,7808899751,1497976790,7808899734,1497976802,1497976646,1497976427,1497976247,7808899719,1497976493,1497976752,1497976285,1497976458,3094082373,1497976667,1497976328,1497976543,1497976535,1497976483,1497976377,7808899808,1497976810,7808899806,1497976352,6988578553,1497976490,1497976486,1497976270,1497976761,1497976467,1497976674,1497976276,1497976445,1497976398,1497976442,1497976708,1497976422,1497976332,1497976743,1497976588,1497976269,1497976420,1497976465,1497976640,9179480580,1497976781,1497976722,1497976317,6988578597,1497976768,9179480583,9179480582,1497976355,1497976243,1497976735,1497976611,3094081986]},"gtfs":{"agency_id":0,"route_id":0,"services":[{"service_id":"Mo-Su","startTime":"06:00","endTime":"22:00","trip_id":11127395}],"filteredStops":{"nodes":[8250693116,2031313936,598787553,598787550,702512052,702512053,702512054,9886703803,702512055,9886703805,9886703801,9886703804,702512056,391725774,8250700095,598788350,8090197938,8619110577,598789213,8619110576,8253508695,598787365,8253508693,9886485059,9886485061,11072493720,11072493714,11072493717,2033335336,11072493721,2033335237,11072493722,2033335171,11072493725,11072493716,11072493726,10597422695,2033335103,9886485075,315134805,8584400934,8620183347,303221552,8620183348,315135505,360127104,6178744932,698492429,315031224,6178744933,10566433108,315031223,10566433107,11890924986,10566433102,315031222,9100193270,11890924985,308303680,2586473051,5521290860,8382740888,308303678,308303677,308303676,308303675,10897790427,2361168094,315031145,9339331181,2391341927,10897790426,9816380801,2391341919,360141901,9816380802,10897790429,680034208,360141769,360142453,3238986993,360141438,3360791866,12802743976,360124377,360124948,360124947,360124946,3225868759,360124945,10897781662,10897781661,360124944,2590032660,5224206193,312425454,12062691266,1796486898,12062693672,1796486893,1796486890,2391341689,9047064136,9047064134,602989539,2391341674,9047064103,8379904380,11977928451,1795293265,11081772341,8379904390,1795293379,1795293373,1795293274,1795293317,8385093438,1795293364,1795293348,1795293368,8385093437,1795293310,9007531385,2391341224,2389107311,2466162853,602989599,11081730876,8385093445,8385091887,2389107301,391733772,8373677219,8373677217,8373677221,2590032490,698492587,2590032474,2126674187,2126674171,1785473496,8509264306,10830782194,10830782195,1785473517,9404086355,1785473267,1785473202,8509264301,10830782197,1785473632,8509264302,1785473234,8616654975,2389107122,1785473260,8509264311,1785473441,1785473207,1785473612,1785473544,2126674113,599541226,8370221221,2126674112,4139785894,811023517,11557702162,4139785892,9581425537,808031551,11800461549,5078180975,808031568,9102939275,2126673841,5078180974,811023244,9561464243,2126673510,391737180,2126673484,2126673474,5074930328,2126673457,2126673436,2126673389,2126673375,2126673387,2126673429,2126673453,5074930329,2126673475,2126673485,9676159568,2126673372,2126673352,12883830695,2126673334,470849661,12883830690,10798762471,9112306457,2126672878,11949496227,9112306454,11949496246,676069628,11949496236,11949496245,2126672561,2126672453,10029085282,2126672420,2126672390,2126672361,10035562403,2126672321,2126672267,2126672306,10607483514,10607483515,2126672342,2126672394,10035562401,2126672428,2126672468,2126672499,2126672409,602989962,602989998,2126672397,10740413055,2287827755,2287827747,2126672316,602989749,10810399598,2126672290,11389364091,11389364093,9021398271,2287827726,391739983,598151867,2287827722,10705908998,9731395680,2287827719,845125506,9989015781,843386542,3297692925,10571690334,851594833,598179188,3669330252,2851924358,9875534157,9875534150,2851924356,12478975040,2851924353,2851924355,2851924357,9875534159,2851924360,2851924359,3297629226,2379706732,845125666,3297629224,845125577,391738016,2468433143,2468433127,2468433125,7170944310,2468433123,2468433126,2468433128,2468433137,391738018,7143274059,845125633,7143274060,845125605,9045167332,845125527,845125625,845125600,11836786390,3673525776,11836786406,391738019,11836778763,563279721,3673525775,11836778767,851594971,11836786432,8559139497,10156204490,851594856,3200866267,8559150943,8559150942,8559150941,8559150940,8559150939,3200866320,3673525773,11836786405,563279721,1722458876,11836778762,3673525779,9653104357,9653104360,689437253,9054936643,689437244,9054936640,1723598857,9586883588,599541141,563279716,598179117,11225380292,598179098,12075820914,698492494,698492492,9021457154,9021457144,9021457142,9021457139,598178893,1723598852,12869588262,9021456992,560437507,560437514,12869588265,12869588267,598178891,563279655,3959056590,563279657,8997922791,2381924863,598178887,2869785594,598178885,12652425099,598178870,3959056591,5230827204,9930439817,9930397109,2381925054,2381925093,9930397113,9900785355,2381925164,2379656105,7068040484,7068094786,689437118,2690719181,8474498129,6272592186,6272592187,1445568049,9017927538,689437120,2690719240,8474498125,8474498124,689437115,4398499281,9017927548,6326490902,4398318267,4398499272,2635402927,2354386761,560522361,2292218251,2292218247,2418530992,5581228588,2418530981,2137733242,2137733243,1807038051,12650627924,8235455989,12650627935,1807038048,2354386770,2429829237,6846214146,11084175485,11084175483,6846214133,2417368043,11084175482,8200481419,8235936958,9374958478,5579061862,3641784408,8235936964,8235936932,2418530966,6845809618,11084175480,9241585477,3255507856,2417367882,11084175478,3255507852,11084175476,3255507849,560084503,560084507,3255507830,3255507821,9008269171,4158028115,794269983,4478225458,792630474,5605204668,2354386778,2354386781,794269932,11084175474,794269972,794269961,9008269167,5605232829,5605232823,8627399437,9786116630,9786116627,560084489,9786116634,8627399436,6282778240,794303535,10837430538,794303398,4586486623,794303570,4586487874,4586487873,8317038876,9008269189,8317038875,698491918,9355127775,7150288216,9355127774,792630390,698491877,9008269182,7933924058,698491863,792630233,785868153,6918618956,792630380,792630483,319773758,8630411872,10837513369,792630507,319773759,10837513367,319773760,8630411868,4586488214,8630411830,9008315709,319773761,4586488419,8316478466,7933924071,4317735512,3880715143,319773764,9008315784,9008315770,4650646887,3880715144,4650646888,7933924066,319773765,319773766,8310400080,8316478456,319773767,319773768,8310400066,319773138,10012571188,5870202500,3881280412,785868004,11084165269,4571961269,11031871495,5236806812,8316478290,12091174510,9262757165,8316478299,319772622,8316478289,8316478287,11084165260,785868517,4382907901,785868508,7931999285,11084165256,2138416891,9262757145,5870202368,5870202367,3195120410,785869180,2360589703,617337196,617337194,783869371,783870663,6179669345,3192787627,8048387329,8048387338,8048387339,2140912533,2140912536,9354911916,8048387327,9354911915,617337182,6917120250,8048387326,319771811,12706842541,12487415611,6917120244,783870340,8221419797,7527585416,783869019,8221419828,8221419837,783870788,8221419835,7527591099,7527591095,7527591091,783871023,7527591076,7527591094,7527591103,783871207,8221419844,6852610654,319771168,6852610653,6852610655,319771170,6852610658,3257962988,319771172,7535460542,12530467808,319770860,12530467807,12530441293,8221419852,3192787645,8221419851,5240483086,12530441286,3192787655,3192797868,781813790,782027439,7064468770,4414022403,6583288998,8117851279,10290549755,8221420007,3257962999,8117851278,319770868,782028626,5240483426,319770604,3811531652,11071380853,5242308080,7064447422,780226843,5242307788,5242307792,5242307797,5242307796,5242307790,5242307787,780226551,319770603,3257963026,1723606664,6751636072,4160023105,11393314253,6751636038,6751636043,11393314256,11077846675,7064447975,5242307737,5242307738,3257963027,5242307740,6751605314,6751605321,11877745766,11877737962,11877737958,6751636145,6179474641,5242307727,1723153067,4938882239,11877745773,11877745776,1934708846,7735246970,1934708810,12521648519,7064469387,1722992994,1934708874,1722973535,2533172994,1723140858,4414028794,10583691402,10583709339,319772454,10583709333,5080526123,1723121686,1722973537,6179471243,6352987786,319772448,3825811810,3825811809,319772443,7064462169,1722973542,3825811804,11069727146,12511412528,3825811805,6179873422,1718238719,5070871658,12511412524,6352666607,6298413550,1722885563,4960901270,7064462718,10613336208,3821233282,6352666467,319772429,319772424,3821233355,11069727142,6352666419,7929674776,7064444151,6167540834,6167540835,6298468000,6298468001,5470213996,6167540818,12530294312,6167540837,6167540819,12530294316,6167540821,7735246835,5470214013,5470214017,6167540681,6167540682,6167540683,5470214121,6167540684,6167540785,6167540663,6167540786,6167540787,6167540788,6182218517,7735246464,6167540791,6167540789,7064467405,6113975701,6113975753,6113975759,6113975707,6113975724,6113975761,6113975688,6113975687,6113975764,6113975685,6113975781,6113969182,6113969181,11368023048,6113969180,6113969169,6113969167,6113969166,9488489976,6113969165,9488489974,11368023047,6113969164,6182218512,9488489953,6113969130,6113969131,6113969144,7058945746,3823722762,12271440527,7064470346,6113975818,6172156389,12271404586,6172156397,6172156398,4414048636,6172156392,11069650024,1744586789,1744586781,5179222121,1744586776,1744586739,1744586733,1744586628,6113975862,1744586623,3094084245,1744586638,1744586555,1744586766,3094084248,1744586635,1744586640,1744586740,1744586736,1744586765,1744586753,1744586786,1497972772,1497976262,5179236521,1497976749,1497976559,1497976384,1497976557,1497976312,3804474670,7058952754,1497976546,5179236522,1497976809,7058952768,7058952764,1497976335,1497976623,1497976227,1497976777,5179236523,1497976710,1497976348,5179236524,1497976343,1497976273,3094083520,1497976760,6991085797,1497976430,1497976702,1497976775,1497976579,1497976631,3094083527,1497976336,7058957586,1497976632,1497976455,1497976288,3821246896,1497976784,1497976577,1497976287,1497976294,1497976322,1497976765,1497976699,1497976718,1497976641,6991085735,1497976283,1497976643,1497976446,1497976413,1497976482,1497976484,1497976494,1497976709,1497976337,1497976388,1497976389,7808899758,1497976306,7808899751,1497976790,7808899734,1497976802,1497976646,1497976427,1497976247,7808899719,1497976493,1497976752,1497976285,1497976458,3094082373,1497976667,1497976328,1497976543,1497976535,1497976483,1497976377,7808899808,1497976810,7808899806,1497976352,6988578553,1497976490,1497976486,1497976270,1497976761,1497976467,1497976674,1497976276,1497976445,1497976398,1497976442,1497976708,1497976422,1497976332,1497976743,1497976588,1497976269,1497976420,1497976465,1497976640,9179480580,1497976781,1497976722,1497976317,6988578597,1497976768,9179480583,9179480582,1497976355,1497976243,1497976735,1497976611,3094081986],"coordinates":[[-66.14295220000001,-17.4001364],[-66.1436979,-17.400251200000003],[-66.14378590000001,-17.4002628],[-66.14397620000001,-17.3992925],[-66.1431728,-17.3991872],[-66.142426,-17.399084700000003],[-66.1419213,-17.399018700000003],[-66.1412178,-17.398923200000002],[-66.1411635,-17.3989158],[-66.14106980000001,-17.398902600000003],[-66.1407435,-17.3988568],[-66.1406343,-17.398841400000002],[-66.1405517,-17.3988298],[-66.13962590000001,-17.398693700000003],[-66.1396562,-17.3986281],[-66.13989330000001,-17.398115200000003],[-66.1399786,-17.397932100000002],[-66.14070770000001,-17.396336400000003],[-66.14073540000001,-17.3962758],[-66.1407681,-17.3962043],[-66.14145420000001,-17.394703200000002],[-66.141484,-17.3946387],[-66.14150590000001,-17.3945896],[-66.14177520000001,-17.3940245],[-66.1418082,-17.3939294],[-66.14178980000001,-17.3939184],[-66.14177620000001,-17.3939047],[-66.1417677,-17.393890900000002],[-66.1417617,-17.393872100000003],[-66.1417608,-17.3938522],[-66.14176520000001,-17.393832800000002],[-66.14177500000001,-17.3938147],[-66.1417888,-17.393800000000002],[-66.1418057,-17.393789400000003],[-66.14182480000001,-17.3937831],[-66.1418395,-17.3937814],[-66.1418543,-17.3937823],[-66.14187790000001,-17.3937896],[-66.1419298,-17.393674700000002],[-66.1423273,-17.3927935],[-66.14234640000001,-17.3927549],[-66.1427214,-17.3919144],[-66.14274520000001,-17.3918573],[-66.14277480000001,-17.3917991],[-66.1432738,-17.390734100000003],[-66.1433968,-17.390456800000003],[-66.14365520000001,-17.3898914],[-66.1436815,-17.3898455],[-66.14372680000001,-17.389761],[-66.14375670000001,-17.38971],[-66.1438823,-17.389169000000003],[-66.1438912,-17.389130700000003],[-66.1438998,-17.3890856],[-66.14401190000001,-17.3885763],[-66.14401810000001,-17.388548],[-66.1440274,-17.3885055],[-66.14403940000001,-17.3884519],[-66.1440445,-17.3884289],[-66.14409280000001,-17.388213800000003],[-66.1441228,-17.388003100000002],[-66.1441303,-17.387871],[-66.14411840000001,-17.3876305],[-66.14409780000001,-17.3874676],[-66.14406720000001,-17.387328],[-66.1440092,-17.387150100000003],[-66.14375170000001,-17.386405],[-66.1434742,-17.385276100000002],[-66.1434619,-17.3852262],[-66.14344150000001,-17.3851592],[-66.14351950000001,-17.385130800000002],[-66.14365620000001,-17.3850793],[-66.1436884,-17.385032600000002],[-66.1437027,-17.385011900000002],[-66.1437269,-17.384959700000003],[-66.1437636,-17.3848644],[-66.143642,-17.3845476],[-66.1435733,-17.3843812],[-66.14355280000001,-17.384331600000003],[-66.1435331,-17.384279000000003],[-66.1433676,-17.383855],[-66.1432156,-17.383461200000003],[-66.1431235,-17.3832227],[-66.1430998,-17.383161400000002],[-66.14302210000001,-17.382966000000003],[-66.1429365,-17.3827505],[-66.1428348,-17.382453700000003],[-66.1428049,-17.3823271],[-66.1428013,-17.382192500000002],[-66.142812,-17.3820759],[-66.1428274,-17.381992200000003],[-66.1428571,-17.3818728],[-66.14286390000001,-17.3818452],[-66.1428932,-17.381785200000003],[-66.14280620000001,-17.3817208],[-66.14276910000001,-17.3816926],[-66.1422567,-17.3813321],[-66.14218190000001,-17.3813062],[-66.1420982,-17.3812524],[-66.14203730000001,-17.381203300000003],[-66.1420076,-17.3811794],[-66.1419204,-17.381094400000002],[-66.141942,-17.3809289],[-66.1419898,-17.3804528],[-66.1420054,-17.3803324],[-66.1420325,-17.380121000000003],[-66.1420751,-17.379981200000003],[-66.14211440000001,-17.379624200000002],[-66.14223080000001,-17.3784013],[-66.1422469,-17.3781314],[-66.14222570000001,-17.377979500000002],[-66.14223430000001,-17.3778571],[-66.14223030000001,-17.377773700000002],[-66.1422199,-17.3776949],[-66.1421909,-17.3776639],[-66.14217310000001,-17.3776255],[-66.14216710000001,-17.377586],[-66.14217070000001,-17.3775543],[-66.1421773,-17.377529600000003],[-66.14219340000001,-17.377495200000002],[-66.142222,-17.3774681],[-66.14225540000001,-17.3774507],[-66.14229470000001,-17.3774383],[-66.1423194,-17.3774203],[-66.14233460000001,-17.3774054],[-66.1423592,-17.3773105],[-66.14246,-17.376944400000003],[-66.1424636,-17.376928900000003],[-66.142464,-17.376924900000002],[-66.1424703,-17.3768683],[-66.1424748,-17.3768274],[-66.142481,-17.3767615],[-66.14251820000001,-17.376325],[-66.1425282,-17.376219600000002],[-66.1425928,-17.375760800000002],[-66.14265420000001,-17.3753253],[-66.1426953,-17.375031],[-66.14270520000001,-17.374962800000002],[-66.14271830000001,-17.3748676],[-66.142819,-17.374184500000002],[-66.1428047,-17.3741261],[-66.1427764,-17.374057200000003],[-66.14268050000001,-17.3739877],[-66.14263460000001,-17.373939500000002],[-66.1426047,-17.373879000000002],[-66.14259750000001,-17.3738446],[-66.1425861,-17.3737841],[-66.1425906,-17.3736961],[-66.1426187,-17.3736122],[-66.14265400000001,-17.3735557],[-66.1426742,-17.373532200000003],[-66.1427001,-17.3735067],[-66.1427463,-17.373472500000002],[-66.14279780000001,-17.373446100000002],[-66.1428532,-17.373428],[-66.14290650000001,-17.373419300000002],[-66.14296060000001,-17.373418400000002],[-66.1430141,-17.3734253],[-66.143066,-17.3734399],[-66.1431441,-17.373479500000002],[-66.14320950000001,-17.3735363],[-66.14325810000001,-17.3736067],[-66.1433648,-17.3736706],[-66.1434091,-17.3736789],[-66.143743,-17.373666],[-66.14381540000001,-17.3736615],[-66.1443457,-17.3736292],[-66.1445029,-17.3736196],[-66.1445734,-17.373616300000002],[-66.1446097,-17.3736146],[-66.14564530000001,-17.373547400000003],[-66.14585340000001,-17.3735342],[-66.1459105,-17.3735302],[-66.1466176,-17.3734812],[-66.1467391,-17.3734727],[-66.1468978,-17.3734617],[-66.14704470000001,-17.3734515],[-66.14716,-17.3734435],[-66.1477354,-17.373403600000003],[-66.1485729,-17.3733532],[-66.1491709,-17.3733174],[-66.1493762,-17.373305900000002],[-66.1494179,-17.3732966],[-66.14946540000001,-17.3732778],[-66.14948290000001,-17.373254000000003],[-66.1495055,-17.3732341],[-66.14952910000001,-17.3732207],[-66.1495551,-17.3732119],[-66.1495828,-17.3732079],[-66.14961690000001,-17.373210200000003],[-66.14965000000001,-17.3732204],[-66.1496795,-17.373237900000003],[-66.14970310000001,-17.3732611],[-66.1497561,-17.3732748],[-66.1497987,-17.3732787],[-66.1505133,-17.3732341],[-66.15095480000001,-17.373206600000003],[-66.1510593,-17.3732],[-66.15117380000001,-17.373193],[-66.15120830000001,-17.3731909],[-66.15144260000001,-17.3731741],[-66.1524613,-17.373111],[-66.15341910000001,-17.3730516],[-66.1535724,-17.373042100000003],[-66.1536725,-17.3730353],[-66.1537516,-17.373029900000002],[-66.15377450000001,-17.373028400000003],[-66.15462020000001,-17.372979200000003],[-66.1546879,-17.3729757],[-66.1547572,-17.3729707],[-66.15479110000001,-17.3729683],[-66.1564764,-17.3728483],[-66.156552,-17.3728389],[-66.15656940000001,-17.3727842],[-66.1565973,-17.3727336],[-66.15663470000001,-17.3726889],[-66.15668020000001,-17.372651700000002],[-66.15673220000001,-17.372623200000003],[-66.1567699,-17.3726096],[-66.15680920000001,-17.372600600000002],[-66.1568493,-17.3725972],[-66.1569111,-17.372604300000003],[-66.15697030000001,-17.372622900000003],[-66.15702440000001,-17.372652300000002],[-66.1570714,-17.372691300000003],[-66.15710940000001,-17.372738400000003],[-66.1571284,-17.3727719],[-66.1571777,-17.372797000000002],[-66.15724,-17.372803],[-66.158928,-17.372691300000003],[-66.15898530000001,-17.372688200000002],[-66.15907010000001,-17.372683400000003],[-66.1591482,-17.372678800000003],[-66.1592834,-17.372671],[-66.159475,-17.3726595],[-66.1597268,-17.3726458],[-66.1604978,-17.3725945],[-66.16058120000001,-17.3725908],[-66.16078270000001,-17.372576300000002],[-66.16079300000001,-17.3725756],[-66.1608853,-17.372569900000002],[-66.16104220000001,-17.3725601],[-66.16166670000001,-17.372521300000002],[-66.1625305,-17.372462000000002],[-66.1626071,-17.3724567],[-66.16272430000001,-17.372448600000002],[-66.16280760000001,-17.372444400000003],[-66.16281930000001,-17.3724437],[-66.1629565,-17.3724339],[-66.16368630000001,-17.3723902],[-66.16377960000001,-17.372384],[-66.1638592,-17.372380600000003],[-66.16504470000001,-17.372305],[-66.1659248,-17.37225],[-66.16601080000001,-17.372244000000002],[-66.1667106,-17.372195400000003],[-66.16762510000001,-17.372139800000003],[-66.1682109,-17.3720994],[-66.1682737,-17.3720962],[-66.16828840000001,-17.3720694],[-66.16830820000001,-17.372048200000002],[-66.16834270000001,-17.3720274],[-66.1683728,-17.3720193],[-66.16840400000001,-17.3720184],[-66.1684443,-17.3720287],[-66.16846190000001,-17.372038],[-66.1684843,-17.372056200000003],[-66.16850400000001,-17.3720828],[-66.16857750000001,-17.3720773],[-66.1690899,-17.3720399],[-66.1693731,-17.3720204],[-66.169897,-17.3719842],[-66.17065840000001,-17.3719374],[-66.1712894,-17.3718971],[-66.1717893,-17.3718609],[-66.17188970000001,-17.371842700000002],[-66.1719161,-17.3718232],[-66.17196290000001,-17.371807500000003],[-66.1720118,-17.371799300000003],[-66.1720614,-17.3717986],[-66.1721105,-17.371805600000002],[-66.1721498,-17.3718258],[-66.17220130000001,-17.371835],[-66.17224300000001,-17.3718393],[-66.1727697,-17.371804800000003],[-66.17286610000001,-17.3717995],[-66.1729274,-17.3717958],[-66.17311760000001,-17.3717843],[-66.17329360000001,-17.371774000000002],[-66.1735962,-17.3717572],[-66.1742529,-17.371712900000002],[-66.1749163,-17.3716633],[-66.17527840000001,-17.3716402],[-66.175621,-17.3716183],[-66.1756587,-17.3716161],[-66.1756964,-17.3716139],[-66.17575400000001,-17.3716106],[-66.17580530000001,-17.3716076],[-66.1758748,-17.371603500000003],[-66.1761305,-17.371589],[-66.1769981,-17.371539900000002],[-66.1769706,-17.371115500000002],[-66.17692860000001,-17.3704679],[-66.17695880000001,-17.3703831],[-66.17692050000001,-17.3703645],[-66.1764454,-17.370134200000003],[-66.17589550000001,-17.3698677],[-66.1758413,-17.3698744],[-66.1757972,-17.369891300000003],[-66.1757685,-17.369916500000002],[-66.1757369,-17.3699629],[-66.1757757,-17.370922200000003],[-66.1758061,-17.371523],[-66.1758056,-17.371579800000003],[-66.17580530000001,-17.3716076],[-66.1758047,-17.371706800000002],[-66.17580450000001,-17.3717733],[-66.1758044,-17.371785000000003],[-66.1758133,-17.372115400000002],[-66.1758209,-17.3723943],[-66.17584930000001,-17.3734398],[-66.1758521,-17.373500500000002],[-66.17588310000001,-17.3741787],[-66.1758843,-17.374238700000003],[-66.17590170000001,-17.3751235],[-66.17592880000001,-17.375939000000002],[-66.17595220000001,-17.376465500000002],[-66.17596230000001,-17.376580800000003],[-66.1760196,-17.3771498],[-66.17608360000001,-17.377663700000003],[-66.17610540000001,-17.377885600000003],[-66.176264,-17.3792693],[-66.1762674,-17.379298600000002],[-66.17628020000001,-17.3794104],[-66.17631580000001,-17.3797514],[-66.1763306,-17.3798925],[-66.1763475,-17.3800545],[-66.17636420000001,-17.3802141],[-66.1764294,-17.380838500000003],[-66.17652290000001,-17.3816166],[-66.1765376,-17.3817425],[-66.17654900000001,-17.3818407],[-66.17655830000001,-17.381925000000003],[-66.17657580000001,-17.382058200000003],[-66.17658270000001,-17.3821239],[-66.17663920000001,-17.3826658],[-66.1766681,-17.382943],[-66.1767045,-17.3833422],[-66.1767372,-17.383557000000003],[-66.17677090000001,-17.383706500000002],[-66.1768296,-17.3838826],[-66.17691400000001,-17.384085300000002],[-66.17718380000001,-17.3845452],[-66.1772825,-17.3847035],[-66.17768600000001,-17.385426300000002],[-66.1781675,-17.3862755],[-66.17865160000001,-17.387129400000003],[-66.17894000000001,-17.387648900000002],[-66.1789694,-17.387717000000002],[-66.17898260000001,-17.3877671],[-66.1789997,-17.3878321],[-66.17901520000001,-17.3878877],[-66.17904650000001,-17.38801],[-66.17906210000001,-17.388069100000003],[-66.17912100000001,-17.3882887],[-66.17916670000001,-17.3884738],[-66.1793907,-17.3892916],[-66.1794021,-17.389339200000002],[-66.1796305,-17.390173800000003],[-66.1801824,-17.3921978],[-66.1802603,-17.392333],[-66.1804695,-17.3930587],[-66.18048080000001,-17.393098300000002],[-66.1805054,-17.393145800000003],[-66.18054430000001,-17.393188700000003],[-66.18057730000001,-17.3932183],[-66.18062970000001,-17.3932667],[-66.18067540000001,-17.393308],[-66.18074960000001,-17.3933579],[-66.1808314,-17.3933852],[-66.18095240000001,-17.3934044],[-66.181751,-17.393372900000003],[-66.1823452,-17.3933444],[-66.1841002,-17.393278300000002],[-66.1844521,-17.3932597],[-66.1864116,-17.3931714],[-66.18663930000001,-17.3931593],[-66.1874124,-17.3931268],[-66.1888567,-17.393062800000003],[-66.18927430000001,-17.3930444],[-66.1911252,-17.3929577],[-66.1921353,-17.3929072],[-66.19389860000001,-17.392841200000003],[-66.19472350000001,-17.3928088],[-66.1969299,-17.392707700000003],[-66.19707530000001,-17.3927008],[-66.1987218,-17.392627],[-66.1989338,-17.392616500000003],[-66.19947400000001,-17.3925896],[-66.19953740000001,-17.392586400000003],[-66.1996008,-17.392583300000002],[-66.1996781,-17.392580000000002],[-66.19981580000001,-17.3925734],[-66.20019090000001,-17.3925553],[-66.2025337,-17.3924534],[-66.2032418,-17.3924227],[-66.203618,-17.3924063],[-66.2050914,-17.3923528],[-66.20721280000001,-17.392253800000002],[-66.2074111,-17.3922446],[-66.20800460000001,-17.3922214],[-66.2080229,-17.3922206],[-66.2080916,-17.3922175],[-66.20818460000001,-17.392214300000003],[-66.20828870000001,-17.392210400000003],[-66.2085114,-17.392202100000002],[-66.2089727,-17.3921849],[-66.2091079,-17.392179000000002],[-66.209809,-17.392142800000002],[-66.2099245,-17.392136800000003],[-66.21032100000001,-17.392123],[-66.2103967,-17.392118],[-66.21112070000001,-17.3920846],[-66.212964,-17.391999700000003],[-66.2136675,-17.3919733],[-66.2143133,-17.391949],[-66.21541520000001,-17.3919077],[-66.21586190000001,-17.3918901],[-66.2168864,-17.3918417],[-66.2182483,-17.391766],[-66.21857410000001,-17.3917538],[-66.2193943,-17.3917164],[-66.2213267,-17.3916517],[-66.2215894,-17.3916389],[-66.2220618,-17.391613600000003],[-66.2233037,-17.3915541],[-66.2242367,-17.3915189],[-66.22459930000001,-17.3915051],[-66.2249474,-17.3914893],[-66.22586360000001,-17.3914462],[-66.2264962,-17.391416500000002],[-66.226663,-17.391409000000003],[-66.22742140000001,-17.391380400000003],[-66.22845140000001,-17.391331500000003],[-66.2287988,-17.3913116],[-66.22916620000001,-17.3912966],[-66.2297343,-17.391273100000003],[-66.2297673,-17.3912717],[-66.2298409,-17.3912687],[-66.23001210000001,-17.3912616],[-66.2305661,-17.3912386],[-66.23202520000001,-17.3911775],[-66.23242710000001,-17.3911635],[-66.23362490000001,-17.3911146],[-66.23459740000001,-17.391074900000003],[-66.2363591,-17.3910045],[-66.2365822,-17.390991800000002],[-66.237921,-17.3909427],[-66.2382125,-17.390907100000003],[-66.23832990000001,-17.390888],[-66.23850750000001,-17.390849900000003],[-66.238539,-17.390845000000002],[-66.23865520000001,-17.3908233],[-66.2386762,-17.390812800000003],[-66.2386987,-17.390805500000003],[-66.2387279,-17.3908011],[-66.23875740000001,-17.390801900000003],[-66.2387863,-17.390808],[-66.2389553,-17.3908324],[-66.2390359,-17.390851700000002],[-66.23918880000001,-17.3908644],[-66.2398993,-17.390842600000003],[-66.24091200000001,-17.3908188],[-66.2411366,-17.390814000000002],[-66.24209880000001,-17.390802200000003],[-66.2427852,-17.3907986],[-66.2435679,-17.390794900000003],[-66.24365250000001,-17.390786000000002],[-66.24371930000001,-17.3907743],[-66.2437568,-17.3907665],[-66.2439573,-17.3907244],[-66.2444481,-17.3907345],[-66.2444669,-17.3907364],[-66.2446218,-17.390762300000002],[-66.2447073,-17.3907855],[-66.2447511,-17.3907996],[-66.2448526,-17.390817600000002],[-66.244949,-17.390826],[-66.24615270000001,-17.390867200000002],[-66.24629010000001,-17.390875700000002],[-66.24800660000001,-17.3909571],[-66.24846360000001,-17.390979700000003],[-66.2490276,-17.391015600000003],[-66.24945770000001,-17.3910255],[-66.24961640000001,-17.391035600000002],[-66.24996320000001,-17.3910579],[-66.25019710000001,-17.3910726],[-66.25024350000001,-17.391075500000003],[-66.2502905,-17.3910784],[-66.25044340000001,-17.391088],[-66.25069140000001,-17.3910616],[-66.25080080000001,-17.3910637],[-66.25089670000001,-17.3910763],[-66.2509344,-17.391085500000003],[-66.2509776,-17.391096100000002],[-66.25121610000001,-17.3911541],[-66.2513818,-17.3911859],[-66.2514689,-17.3911951],[-66.2526672,-17.391312300000003],[-66.25279280000001,-17.3913246],[-66.2542188,-17.391462200000003],[-66.2567501,-17.391716000000002],[-66.2573333,-17.3917803],[-66.2577457,-17.391825700000002],[-66.2579393,-17.391844000000003],[-66.2582763,-17.391875900000002],[-66.25901440000001,-17.391939500000003],[-66.2594909,-17.3919806],[-66.25952000000001,-17.3919831],[-66.2595584,-17.3919864],[-66.25960780000001,-17.3919906],[-66.26010000000001,-17.3920415],[-66.2603304,-17.3920654],[-66.26080250000001,-17.392114300000003],[-66.26200770000001,-17.392239],[-66.2643025,-17.3924716],[-66.2649633,-17.392536800000002],[-66.2662909,-17.392664200000002],[-66.2675492,-17.3927929],[-66.2678247,-17.392819900000003],[-66.2679871,-17.3928392],[-66.26809610000001,-17.392851800000003],[-66.2681726,-17.392859100000003],[-66.2682498,-17.3928669],[-66.2684282,-17.392885000000003],[-66.26878230000001,-17.392921],[-66.2699511,-17.3930396],[-66.2701093,-17.3930492],[-66.2712023,-17.393158000000003],[-66.2722402,-17.3932523],[-66.2723895,-17.3932515],[-66.2725216,-17.393241500000002],[-66.2726698,-17.393238800000002],[-66.272689,-17.393225800000003],[-66.27271540000001,-17.393213000000003],[-66.27273810000001,-17.3932058],[-66.27276160000001,-17.3932016],[-66.2727854,-17.3932003],[-66.27280920000001,-17.393202000000002],[-66.2728326,-17.3932068],[-66.2728551,-17.3932144],[-66.27287630000001,-17.393224800000002],[-66.27289160000001,-17.393234500000002],[-66.27290570000001,-17.3932457],[-66.27315990000001,-17.3932739],[-66.273306,-17.3932901],[-66.27345840000001,-17.393307],[-66.2742772,-17.393387],[-66.2744122,-17.393401100000002],[-66.2749658,-17.393460700000002],[-66.27566250000001,-17.393531900000003],[-66.27617020000001,-17.3935795],[-66.276919,-17.3936497],[-66.27692900000001,-17.3936506],[-66.2770081,-17.393658300000002],[-66.27790560000001,-17.393745900000003],[-66.27801910000001,-17.393757700000002],[-66.2780498,-17.393761],[-66.27810050000001,-17.393757700000002],[-66.27814760000001,-17.393768100000003],[-66.2782028,-17.393773900000003],[-66.27831880000001,-17.3937856],[-66.2793687,-17.3938843],[-66.279509,-17.3938978],[-66.2805328,-17.393996],[-66.28064060000001,-17.394005500000002],[-66.28074860000001,-17.3940124],[-66.2815018,-17.394060500000002],[-66.28160000000001,-17.3940668],[-66.2817091,-17.394076700000003],[-66.281799,-17.394080600000002],[-66.28298910000001,-17.3941538],[-66.28308340000001,-17.394157],[-66.2845815,-17.3942283],[-66.2846215,-17.394230200000003],[-66.2847138,-17.394235400000003],[-66.28608170000001,-17.394313],[-66.2861048,-17.3943143],[-66.2862367,-17.3943285],[-66.2862733,-17.394325100000003],[-66.28630960000001,-17.394330500000002],[-66.2865376,-17.3943356],[-66.286777,-17.394349100000003],[-66.28728570000001,-17.394382200000003],[-66.28868630000001,-17.394460000000002],[-66.2895369,-17.3944924],[-66.28983120000001,-17.394507700000002],[-66.29033910000001,-17.394541],[-66.2906093,-17.394559500000003],[-66.29123700000001,-17.3946027],[-66.29135480000001,-17.39461],[-66.2914228,-17.3946134],[-66.2917477,-17.394626600000002],[-66.29193620000001,-17.394636100000003],[-66.2940367,-17.3947654],[-66.29427530000001,-17.394787200000003],[-66.2947522,-17.394843700000003],[-66.2950412,-17.3948673],[-66.2952138,-17.394874400000003],[-66.29527820000001,-17.394877],[-66.2981362,-17.395047400000003],[-66.29853940000001,-17.395071100000003],[-66.2988629,-17.395089000000002],[-66.30045170000001,-17.395164],[-66.30081120000001,-17.3951837],[-66.3008621,-17.3951865],[-66.30127420000001,-17.3952092],[-66.30133380000001,-17.395212100000002],[-66.3017818,-17.395237],[-66.30251670000001,-17.395273300000003],[-66.30387990000001,-17.395352000000003],[-66.3048334,-17.395401300000003],[-66.3053498,-17.3954291],[-66.30583770000001,-17.395454500000003],[-66.306824,-17.395508000000003],[-66.30759110000001,-17.395548700000003],[-66.3077258,-17.3955559],[-66.3081104,-17.3955756],[-66.30822540000001,-17.3955817],[-66.3089425,-17.3956194],[-66.30912000000001,-17.395628700000003],[-66.31074120000001,-17.3957176],[-66.31099640000001,-17.3957333],[-66.3110565,-17.395736900000003],[-66.31126830000001,-17.3957491],[-66.3119894,-17.395789100000002],[-66.31237030000001,-17.3958093],[-66.312506,-17.3958166],[-66.3133959,-17.395865],[-66.3139572,-17.3958926],[-66.3141226,-17.395898900000002],[-66.31450690000001,-17.3959149],[-66.3146463,-17.395918],[-66.3152319,-17.3958914],[-66.31569320000001,-17.3958984],[-66.3157439,-17.395900800000003],[-66.3161161,-17.3959188],[-66.3161724,-17.3959215],[-66.316247,-17.395925300000002],[-66.31643310000001,-17.3959356],[-66.3165774,-17.395943000000003],[-66.3168443,-17.3959598],[-66.31722930000001,-17.3959826],[-66.3178877,-17.3960833],[-66.3184016,-17.396115100000003],[-66.3193653,-17.396164600000002],[-66.3201386,-17.396217200000002],[-66.32048520000001,-17.3962454],[-66.3207448,-17.3962717],[-66.3207955,-17.396278300000002],[-66.3209654,-17.3963003],[-66.3211098,-17.3963241],[-66.3217274,-17.396450700000003],[-66.32226730000001,-17.396597900000003],[-66.3227172,-17.396734000000002],[-66.3230918,-17.3968838],[-66.3235382,-17.3970786],[-66.32393130000001,-17.3972711],[-66.32403430000001,-17.3973201],[-66.32424350000001,-17.397426900000003],[-66.3247534,-17.397748500000002],[-66.32488000000001,-17.397835200000003],[-66.32543050000001,-17.3981587],[-66.32552910000001,-17.3982223],[-66.32570600000001,-17.398342500000002],[-66.32570980000001,-17.3983451],[-66.3257143,-17.3983481],[-66.32585750000001,-17.398445600000002],[-66.32600120000001,-17.3985485],[-66.3262018,-17.3986957],[-66.32634610000001,-17.398823500000002],[-66.32656080000001,-17.3990137],[-66.326704,-17.3991344],[-66.3270279,-17.3994509],[-66.32716160000001,-17.399579300000003],[-66.32729160000001,-17.3997117],[-66.3274933,-17.399940100000002],[-66.32773730000001,-17.400241700000002],[-66.32802620000001,-17.400662200000003],[-66.32829650000001,-17.401062300000003],[-66.3284704,-17.4013835],[-66.3286958,-17.4018382],[-66.3294231,-17.4033878],[-66.3294365,-17.4034185],[-66.3295154,-17.4035854],[-66.3296873,-17.403928200000003],[-66.3298295,-17.404251300000002],[-66.330492,-17.4056973],[-66.33088070000001,-17.4065532],[-66.33094960000001,-17.406719000000002],[-66.3309777,-17.4067754],[-66.3313895,-17.4076752],[-66.3314986,-17.4079221],[-66.33157390000001,-17.4080927],[-66.3317363,-17.4084603],[-66.3318004,-17.4086053],[-66.3319098,-17.408853],[-66.332244,-17.409589500000003],[-66.332474,-17.4100937],[-66.3329168,-17.41109],[-66.3330354,-17.411365500000002],[-66.33315130000001,-17.4117119],[-66.3332465,-17.4120251],[-66.3333166,-17.412322200000002],[-66.3333915,-17.4127188],[-66.3334509,-17.4131603],[-66.3334794,-17.413522800000003],[-66.3334897,-17.414067300000003],[-66.3334648,-17.414615],[-66.3333709,-17.4153069],[-66.33329450000001,-17.4157167],[-66.33323510000001,-17.4161344],[-66.3332101,-17.416262800000002],[-66.33305610000001,-17.4172383],[-66.33302950000001,-17.4173554],[-66.33284590000001,-17.4184091],[-66.33277960000001,-17.418761800000002],[-66.3327098,-17.419120000000003],[-66.33267260000001,-17.4193414],[-66.33260460000001,-17.419723700000002],[-66.33256820000001,-17.419917100000003],[-66.3325214,-17.4202395],[-66.3320946,-17.4225503],[-66.33190210000001,-17.4236346],[-66.33155950000001,-17.4255928],[-66.33143860000001,-17.4262634],[-66.3313921,-17.426598000000002],[-66.3313849,-17.4269117],[-66.331383,-17.427205700000002],[-66.33140060000001,-17.427489],[-66.33146690000001,-17.4278853],[-66.33153580000001,-17.4281638],[-66.3316492,-17.428523600000002],[-66.33199210000001,-17.4293623],[-66.3320652,-17.42952],[-66.33214050000001,-17.4296964],[-66.33241570000001,-17.4302965],[-66.33267980000001,-17.430880700000003],[-66.3331229,-17.431921600000003],[-66.3332412,-17.432203400000002],[-66.33330600000001,-17.432357800000002],[-66.33424950000001,-17.434635200000002],[-66.33466600000001,-17.4357271],[-66.3346992,-17.4358174],[-66.33494320000001,-17.4364464],[-66.33566730000001,-17.438261400000002],[-66.3358407,-17.438696],[-66.3361905,-17.4395479],[-66.3372109,-17.4420481],[-66.33738140000001,-17.4422737],[-66.3375261,-17.4424652],[-66.3375558,-17.4425111],[-66.33756960000001,-17.4425633],[-66.3375663,-17.442617100000003],[-66.33757390000001,-17.4429394],[-66.3378062,-17.442892800000003],[-66.3379778,-17.4428026],[-66.3380467,-17.442766000000002],[-66.33826590000001,-17.4425592],[-66.338408,-17.4424664],[-66.33862,-17.442382100000003],[-66.339151,-17.442269600000003],[-66.33936010000001,-17.4422314],[-66.3396654,-17.442203600000003],[-66.34059810000001,-17.441981100000003],[-66.3410111,-17.4419116],[-66.3412254,-17.4418988],[-66.3414041,-17.4419383],[-66.3415573,-17.4419936],[-66.34169320000001,-17.442027000000003],[-66.3418118,-17.4420751],[-66.34206870000001,-17.4421345],[-66.342493,-17.4421006],[-66.3472862,-17.441563300000002],[-66.3475545,-17.4415428],[-66.3477141,-17.441504000000002],[-66.34717810000001,-17.4405894],[-66.3476883,-17.4404806],[-66.34858550000001,-17.4404128],[-66.34924670000001,-17.440345],[-66.3495355,-17.4403189],[-66.3498904,-17.440304],[-66.3501801,-17.4401684],[-66.35072380000001,-17.4400809],[-66.35106560000001,-17.440024700000002],[-66.3515785,-17.4399562],[-66.35196380000001,-17.4399048],[-66.35227420000001,-17.4398534],[-66.352534,-17.4397492],[-66.3527904,-17.439692100000002],[-66.35323460000001,-17.439624900000002],[-66.3535559,-17.43955],[-66.35383660000001,-17.4394554],[-66.3541076,-17.439280800000002],[-66.35426240000001,-17.4391269],[-66.3544743,-17.4388863],[-66.35462460000001,-17.438707200000003],[-66.35477200000001,-17.438558800000003],[-66.35490610000001,-17.4385115],[-66.35507240000001,-17.4384948],[-66.3561882,-17.438443600000003],[-66.3565964,-17.4384644],[-66.3570887,-17.438463600000002],[-66.3575122,-17.438477000000002],[-66.35800760000001,-17.438451500000003],[-66.3584505,-17.438479200000003],[-66.35891600000001,-17.4385084],[-66.3595786,-17.4385537],[-66.3599272,-17.4384872],[-66.36019200000001,-17.4384061],[-66.36051420000001,-17.437416300000002],[-66.3607317,-17.4360335],[-66.3609443,-17.435177900000003],[-66.36135320000001,-17.434059100000002],[-66.3616645,-17.433410700000003],[-66.3618371,-17.433031500000002],[-66.3620025,-17.4323042],[-66.3621366,-17.4319971],[-66.36225540000001,-17.431849200000002],[-66.3628608,-17.431449500000003],[-66.3630869,-17.4312913],[-66.3633176,-17.431183800000003],[-66.3636019,-17.431127500000002],[-66.3638907,-17.431127],[-66.3643583,-17.431153100000003],[-66.36456720000001,-17.431173400000002],[-66.3649913,-17.431214500000003],[-66.3652962,-17.431234500000002],[-66.36587560000001,-17.431255],[-66.36627870000001,-17.4312299],[-66.367137,-17.431066100000002],[-66.3678988,-17.430856300000002],[-66.3684138,-17.430713],[-66.3688367,-17.4306203],[-66.3690253,-17.4306157],[-66.3692659,-17.4306613],[-66.3695993,-17.4306413],[-66.3698121,-17.4306014],[-66.3699265,-17.4305799],[-66.3700745,-17.430496100000003],[-66.370243,-17.4304008],[-66.3706982,-17.430145900000003],[-66.3710501,-17.429957],[-66.37134130000001,-17.429803900000003],[-66.3720679,-17.429463300000002],[-66.37241,-17.429265400000002],[-66.37262700000001,-17.429145400000003],[-66.3739159,-17.4284196],[-66.3748874,-17.427863400000003],[-66.3761886,-17.4270274],[-66.3771605,-17.4264395],[-66.3772814,-17.426360300000002],[-66.3779731,-17.425932600000003],[-66.3782736,-17.425743200000003],[-66.3784452,-17.425533400000003],[-66.37863750000001,-17.4251337],[-66.378861,-17.4245501],[-66.37887470000001,-17.4245376],[-66.37893340000001,-17.4244841],[-66.3790407,-17.4240542],[-66.3791324,-17.423563100000003],[-66.379164,-17.423394000000002],[-66.3792183,-17.4230476],[-66.379266,-17.422749000000003],[-66.3793411,-17.4221195],[-66.37939390000001,-17.421837500000002],[-66.3795771,-17.4215616],[-66.37971040000001,-17.421146500000003],[-66.379807,-17.4208496],[-66.3799518,-17.420496500000002],[-66.3800384,-17.4203332],[-66.3802101,-17.420164300000003],[-66.38068670000001,-17.419872],[-66.38118030000001,-17.4195752],[-66.38160090000001,-17.4193877],[-66.38195560000001,-17.4191849],[-66.3823881,-17.418867000000002],[-66.3826282,-17.4186693],[-66.3830786,-17.4184115],[-66.38333100000001,-17.4183081],[-66.38372650000001,-17.418096900000002],[-66.38412000000001,-17.4179505],[-66.3844875,-17.4178131],[-66.3847092,-17.4177278],[-66.38497620000001,-17.417602600000002],[-66.38513800000001,-17.417524],[-66.38523520000001,-17.417481300000002],[-66.38572040000001,-17.417344],[-66.38619050000001,-17.4172043],[-66.3869567,-17.4169477],[-66.3874988,-17.4167169],[-66.3877348,-17.416527900000002],[-66.38808510000001,-17.416419700000002],[-66.38834510000001,-17.4164405],[-66.3885041,-17.4164551]]}}}]}