{"type":"FeatureCollection","features":[{"type":"Feature","properties":{"from":"Siqui Siquia","name":"MiniBus 260: Siqui Siquia → Calle Litoral","network":"BO:CB:Cochabamba","on_demand":"yes","operator":"Sindicato mixto de autotransporte 6 de agosto Sipe Sipe","public_transport:version":"2","ref":"260","route":"bus","to":"Calle Litoral","type":"route","wheelchair":"no","id":11127465},"geometry":{"type":"LineString","coordinates":[[-66.3746296,-17.447645400000003],[-66.3740518,-17.447245300000002],[-66.373288,-17.4466594],[-66.3732093,-17.446776900000003],[-66.37273800000001,-17.447156900000003],[-66.3724765,-17.4469162],[-66.3721347,-17.4466781],[-66.37048530000001,-17.445921100000003],[-66.3703509,-17.4459075],[-66.37030200000001,-17.446173700000003],[-66.37005880000001,-17.446310500000003],[-66.36988740000001,-17.446357300000003],[-66.36971600000001,-17.446386500000003],[-66.36950780000001,-17.4463456],[-66.3694031,-17.4463548],[-66.368711,-17.446112900000003],[-66.3684568,-17.446066700000003],[-66.3679499,-17.446054500000002],[-66.3676284,-17.4460477],[-66.3674263,-17.446042600000002],[-66.36689670000001,-17.445938400000003],[-66.36656930000001,-17.4458862],[-66.36587750000001,-17.4459893],[-66.36576120000001,-17.446024400000002],[-66.3652778,-17.446037500000003],[-66.36479250000001,-17.4459793],[-66.3644706,-17.4458859],[-66.36424960000001,-17.4457673],[-66.364005,-17.4456153],[-66.3638913,-17.4455756],[-66.3637348,-17.445563],[-66.3634164,-17.4453001],[-66.3630308,-17.4450198],[-66.36282870000001,-17.4449322],[-66.36229,-17.4447803],[-66.3616839,-17.444616800000002],[-66.3610472,-17.444459100000003],[-66.3609064,-17.4444182],[-66.3602759,-17.4445292],[-66.3597065,-17.4445292],[-66.35906370000001,-17.4445234],[-66.3583107,-17.4445],[-66.3582262,-17.444488500000002],[-66.35824550000001,-17.444237700000002],[-66.3582547,-17.444149600000003],[-66.35823930000001,-17.4440798],[-66.35822130000001,-17.443998500000003],[-66.35808510000001,-17.444007600000003],[-66.3578428,-17.444062900000002],[-66.3576026,-17.4441224],[-66.3574729,-17.4441394],[-66.3573539,-17.4441522],[-66.3570882,-17.4441947],[-66.3569011,-17.4442053],[-66.35676720000001,-17.4442138],[-66.35665030000001,-17.444241400000003],[-66.35611250000001,-17.444488],[-66.35598710000001,-17.444575200000003],[-66.35587020000001,-17.4446751],[-66.3554429,-17.445266],[-66.3552878,-17.4454679],[-66.3552028,-17.445612500000003],[-66.3550561,-17.4459313],[-66.3550263,-17.4460312],[-66.3549711,-17.4463203],[-66.3549122,-17.446460100000003],[-66.35480940000001,-17.4467107],[-66.3546822,-17.446966],[-66.35444840000001,-17.447104200000002],[-66.35427840000001,-17.4472296],[-66.3541785,-17.447289100000003],[-66.3539638,-17.4474103],[-66.35379370000001,-17.4474762],[-66.3535748,-17.447520800000003],[-66.353358,-17.447552700000003],[-66.35324960000001,-17.447584600000003],[-66.35307320000001,-17.4476398],[-66.352952,-17.4477121],[-66.3527543,-17.4478481],[-66.35260980000001,-17.4479693],[-66.35207790000001,-17.4483257],[-66.3519313,-17.448392600000002],[-66.3519069,-17.4483502],[-66.3518296,-17.4483368],[-66.3516374,-17.4483712],[-66.3514069,-17.448421600000003],[-66.35117530000001,-17.4484564],[-66.35100150000001,-17.4484482],[-66.3504379,-17.4483797],[-66.34941590000001,-17.4481994],[-66.3475434,-17.4479347],[-66.3465244,-17.447785600000003],[-66.3464024,-17.4477797],[-66.34577250000001,-17.4477167],[-66.3448334,-17.4476227],[-66.34406890000001,-17.447530200000003],[-66.343975,-17.447536300000003],[-66.3433481,-17.447681900000003],[-66.3432264,-17.447696],[-66.34305950000001,-17.4476799],[-66.3423659,-17.4475248],[-66.34205270000001,-17.4474266],[-66.3414011,-17.447272100000003],[-66.34043910000001,-17.4470376],[-66.3392828,-17.4467353],[-66.3392369,-17.4467223],[-66.3391955,-17.446710600000003],[-66.339172,-17.446763],[-66.3391278,-17.4468114],[-66.33908410000001,-17.446837900000002],[-66.339045,-17.446851000000002],[-66.33900390000001,-17.4468564],[-66.3389461,-17.4468506],[-66.33889230000001,-17.446829700000002],[-66.3388467,-17.4467953],[-66.338813,-17.446750100000003],[-66.3387938,-17.446697800000003],[-66.3387872,-17.4466532],[-66.3387941,-17.4466085],[-66.33880810000001,-17.4465788],[-66.33875490000001,-17.446301400000003],[-66.3386612,-17.4458121],[-66.3380049,-17.444204600000003],[-66.3376569,-17.443345100000002],[-66.3376381,-17.4432981],[-66.3375603,-17.4431042],[-66.3375017,-17.4429643],[-66.33741230000001,-17.442754500000003],[-66.337283,-17.4424329],[-66.3372422,-17.4423308],[-66.3371367,-17.4420766],[-66.3360973,-17.439585700000002],[-66.33578320000001,-17.4388329],[-66.33557800000001,-17.438291000000003],[-66.33485560000001,-17.4364738],[-66.33463010000001,-17.4358916],[-66.33457320000001,-17.4357487],[-66.3341568,-17.4346694],[-66.3332196,-17.4323896],[-66.33304240000001,-17.4319746],[-66.33293850000001,-17.431704],[-66.33241840000001,-17.4305032],[-66.33206170000001,-17.4297268],[-66.3319757,-17.4295495],[-66.3319084,-17.429407700000002],[-66.3315539,-17.4284995],[-66.33147720000001,-17.428260100000003],[-66.3314091,-17.4280125],[-66.33137210000001,-17.4278364],[-66.3313243,-17.427535600000002],[-66.3313109,-17.4273904],[-66.3312956,-17.426997200000002],[-66.3313102,-17.426605900000002],[-66.33134740000001,-17.426338],[-66.3314679,-17.4256008],[-66.3318033,-17.4236714],[-66.33199760000001,-17.422624600000002],[-66.33241140000001,-17.4202593],[-66.3324815,-17.419903],[-66.33251890000001,-17.4197099],[-66.3325889,-17.4193274],[-66.33262830000001,-17.419106600000003],[-66.3327027,-17.418753900000002],[-66.33293180000001,-17.417423900000003],[-66.3329346,-17.417407400000002],[-66.33306,-17.416682],[-66.3331326,-17.4162448],[-66.3332132,-17.4157033],[-66.33328780000001,-17.415291200000002],[-66.3333731,-17.414610000000003],[-66.33339600000001,-17.414073700000003],[-66.3333892,-17.413557700000002],[-66.3333513,-17.4131763],[-66.33328820000001,-17.412730500000002],[-66.33321360000001,-17.4123407],[-66.3331426,-17.412043],[-66.3330615,-17.411742800000003],[-66.3328869,-17.411328100000002],[-66.3327651,-17.410951],[-66.3323969,-17.4101411],[-66.33203110000001,-17.4093313],[-66.33182330000001,-17.4088731],[-66.3317196,-17.4086456],[-66.331652,-17.4084973],[-66.33148340000001,-17.408127500000003],[-66.33140820000001,-17.4079625],[-66.33129690000001,-17.4077182],[-66.33112910000001,-17.407327300000002],[-66.3308629,-17.406752],[-66.3307886,-17.4065879],[-66.32969480000001,-17.404194],[-66.32963430000001,-17.404056200000003],[-66.32943,-17.4036267],[-66.32935160000001,-17.4034538],[-66.32869520000001,-17.402032300000002],[-66.32842500000001,-17.4014798],[-66.3282504,-17.401172600000002],[-66.32809200000001,-17.400918700000002],[-66.3279593,-17.4007119],[-66.32778590000001,-17.4004647],[-66.32752470000001,-17.400129000000003],[-66.3272391,-17.3997932],[-66.3270839,-17.3996387],[-66.3267728,-17.3993173],[-66.3265049,-17.3991],[-66.32627360000001,-17.398900400000002],[-66.32613280000001,-17.398778800000002],[-66.3257904,-17.3985348],[-66.3256511,-17.3984358],[-66.3256465,-17.3984327],[-66.32564260000001,-17.398430100000002],[-66.32546590000001,-17.398310000000002],[-66.3248873,-17.3979724],[-66.3244736,-17.397705100000003],[-66.3241995,-17.3975401],[-66.3240074,-17.3974325],[-66.3236507,-17.3972547],[-66.32343420000001,-17.3971567],[-66.3231865,-17.397048700000003],[-66.3226743,-17.396845000000003],[-66.32228210000001,-17.3967139],[-66.32194340000001,-17.396614200000002],[-66.32150490000001,-17.3965047],[-66.32094880000001,-17.3964108],[-66.32053020000001,-17.396356],[-66.3201138,-17.3963161],[-66.3193129,-17.3962763],[-66.3183989,-17.396222400000003],[-66.317842,-17.3961982],[-66.3171983,-17.3962396],[-66.31698990000001,-17.396227000000003],[-66.31683740000001,-17.396219000000002],[-66.3165618,-17.3962046],[-66.3164191,-17.396196800000002],[-66.31625840000001,-17.396188600000002],[-66.3162063,-17.396185900000003],[-66.3161086,-17.3961812],[-66.3157328,-17.3961633],[-66.31552690000001,-17.396153400000003],[-66.31523370000001,-17.3961238],[-66.3147895,-17.3960513],[-66.3146377,-17.3960383],[-66.31451170000001,-17.396032100000003],[-66.31410460000001,-17.3960146],[-66.31395540000001,-17.396007700000002],[-66.31299340000001,-17.3959541],[-66.31250610000001,-17.3959282],[-66.31235810000001,-17.3959203],[-66.3119884,-17.395899800000002],[-66.3111731,-17.3958547],[-66.31092120000001,-17.3958452],[-66.31079770000001,-17.395838400000002],[-66.3097618,-17.395781500000002],[-66.3096034,-17.395772800000003],[-66.30927430000001,-17.395754800000002],[-66.30917240000001,-17.395749000000002],[-66.3082255,-17.395695800000002],[-66.3081952,-17.3956941],[-66.3080973,-17.3956893],[-66.30772560000001,-17.395669],[-66.30758150000001,-17.3956607],[-66.3069208,-17.3956224],[-66.30583530000001,-17.3955647],[-66.3054061,-17.3955418],[-66.3039009,-17.395453900000003],[-66.3025274,-17.3953816],[-66.3017652,-17.3953418],[-66.30133260000001,-17.395315],[-66.30127150000001,-17.3953123],[-66.3008526,-17.3952907],[-66.3008051,-17.3952883],[-66.3004458,-17.3952701],[-66.2998539,-17.395240100000002],[-66.2988399,-17.395188700000002],[-66.29862220000001,-17.3951777],[-66.29818540000001,-17.3951555],[-66.29733200000001,-17.3951114],[-66.295275,-17.3949955],[-66.2952254,-17.394991700000002],[-66.2950718,-17.394983],[-66.29472340000001,-17.3949679],[-66.2942737,-17.3949906],[-66.2939085,-17.395000900000003],[-66.2919255,-17.394870400000002],[-66.2918446,-17.394868300000002],[-66.2917805,-17.3948667],[-66.2914583,-17.394858300000003],[-66.29119680000001,-17.3948515],[-66.28997860000001,-17.394796000000003],[-66.2898881,-17.394791],[-66.2888063,-17.394731800000002],[-66.2878859,-17.3946821],[-66.28734630000001,-17.394653100000003],[-66.2865197,-17.3946091],[-66.28637520000001,-17.394561600000003],[-66.28634140000001,-17.3945867],[-66.28630150000001,-17.3946015],[-66.2862588,-17.3946046],[-66.2862169,-17.3945958],[-66.28617960000001,-17.394575900000003],[-66.28603500000001,-17.3945744],[-66.28470030000001,-17.394507800000003],[-66.28460890000001,-17.3945051],[-66.2845654,-17.3945027],[-66.2830692,-17.3944213],[-66.2829966,-17.3944173],[-66.2816911,-17.394348800000003],[-66.2815709,-17.394341700000002],[-66.2814919,-17.3943373],[-66.2807205,-17.3942881],[-66.2806245,-17.394282],[-66.2804969,-17.3942675],[-66.2798815,-17.3942066],[-66.2795033,-17.3941692],[-66.27879770000001,-17.3940994],[-66.27829600000001,-17.3940485],[-66.2782169,-17.394039000000003],[-66.27816890000001,-17.394033200000003],[-66.27814450000001,-17.3940395],[-66.27811790000001,-17.394044500000003],[-66.27806840000001,-17.394044400000002],[-66.2780201,-17.3940285],[-66.2778794,-17.394015300000003],[-66.27738090000001,-17.393965100000003],[-66.27698430000001,-17.393924000000002],[-66.2768911,-17.3939144],[-66.27613620000001,-17.3938363],[-66.27496330000001,-17.3937285],[-66.27453870000001,-17.3936929],[-66.27442020000001,-17.393684200000003],[-66.27325280000001,-17.393565300000002],[-66.2729886,-17.393549],[-66.27289060000001,-17.393511500000002],[-66.27285210000001,-17.393533100000003],[-66.2728074,-17.3935435],[-66.2727806,-17.393545000000003],[-66.2727581,-17.3935427],[-66.2727267,-17.393536],[-66.2726973,-17.3935241],[-66.27266130000001,-17.3934995],[-66.27249690000001,-17.3934548],[-66.27235230000001,-17.3934131],[-66.27222420000001,-17.393386500000002],[-66.272136,-17.393375000000002],[-66.27118340000001,-17.393261600000002],[-66.27011320000001,-17.3931644],[-66.2699556,-17.393150900000002],[-66.26827130000001,-17.392991000000002],[-66.26816210000001,-17.3929793],[-66.26808580000001,-17.392970400000003],[-66.2680632,-17.3929681],[-66.2679799,-17.3929599],[-66.26630990000001,-17.3927856],[-66.26498190000001,-17.3926561],[-66.2620232,-17.3923631],[-66.26103330000001,-17.3922706],[-66.26040300000001,-17.392209700000002],[-66.2600955,-17.3921801],[-66.2597451,-17.392146200000003],[-66.2596815,-17.392140100000002],[-66.2596226,-17.3921344],[-66.25948260000001,-17.3921205],[-66.2589272,-17.392065600000002],[-66.25794470000001,-17.391968400000003],[-66.2577273,-17.391949800000003],[-66.2575312,-17.3919305],[-66.2560565,-17.3917855],[-66.2548029,-17.3916521],[-66.25319800000001,-17.3914884],[-66.2530064,-17.3914702],[-66.2528628,-17.3914565],[-66.2517349,-17.391351800000002],[-66.25130530000001,-17.3913072],[-66.2507894,-17.3912641],[-66.25064590000001,-17.3912553],[-66.25044960000001,-17.391241100000002],[-66.24994980000001,-17.391207700000002],[-66.24902460000001,-17.391148],[-66.24892960000001,-17.3911412],[-66.2483832,-17.391103700000002],[-66.2478983,-17.3910798],[-66.2474718,-17.391058800000003],[-66.24669460000001,-17.3910205],[-66.2463515,-17.3910036],[-66.2462864,-17.391000400000003],[-66.246144,-17.390994300000003],[-66.24609570000001,-17.390992800000003],[-66.2459542,-17.3909884],[-66.2450017,-17.3909622],[-66.2449045,-17.390971200000003],[-66.24474570000001,-17.3910024],[-66.244702,-17.391009200000003],[-66.24461070000001,-17.391030400000002],[-66.2444712,-17.391049600000002],[-66.2443896,-17.3910486],[-66.2440073,-17.391043800000002],[-66.2439758,-17.391043200000002],[-66.2439215,-17.3910349],[-66.24373270000001,-17.390998600000003],[-66.24367640000001,-17.3909884],[-66.24355220000001,-17.3909664],[-66.24346390000001,-17.390956900000003],[-66.2433575,-17.3909534],[-66.2427821,-17.3909552],[-66.24211430000001,-17.3909528],[-66.24113820000001,-17.3909664],[-66.2409403,-17.390969400000003],[-66.2398934,-17.390992100000002],[-66.2393461,-17.391020700000002],[-66.2391427,-17.391038400000003],[-66.23896260000001,-17.391061500000003],[-66.2388277,-17.3910735],[-66.23878500000001,-17.3910956],[-66.23875550000001,-17.391099500000003],[-66.23872490000001,-17.3910999],[-66.2386949,-17.391094600000002],[-66.2385208,-17.391072100000002],[-66.23834480000001,-17.3910467],[-66.2381859,-17.3910491],[-66.23783080000001,-17.3910656],[-66.23636230000001,-17.391125600000002],[-66.23635920000001,-17.3911257],[-66.2338646,-17.3912258],[-66.2324387,-17.3912917],[-66.23202930000001,-17.391311],[-66.2319827,-17.391310100000002],[-66.23130280000001,-17.3913334],[-66.23093850000001,-17.3913516],[-66.23050210000001,-17.3913727],[-66.23003270000001,-17.391397100000002],[-66.23001740000001,-17.3913979],[-66.22988550000001,-17.3914048],[-66.2297415,-17.391410200000003],[-66.2291665,-17.3914316],[-66.228361,-17.3914642],[-66.2274295,-17.3915073],[-66.22662360000001,-17.391544500000002],[-66.22649600000001,-17.391546700000003],[-66.22491930000001,-17.391616900000002],[-66.22209000000001,-17.391740000000002],[-66.2218668,-17.391750700000003],[-66.2215956,-17.391763800000003],[-66.2213351,-17.3917763],[-66.2194094,-17.391851900000002],[-66.2193472,-17.3918506],[-66.21892700000001,-17.391871100000003],[-66.21825530000001,-17.391897200000002],[-66.2154179,-17.392026],[-66.21351650000001,-17.392113300000002],[-66.2125924,-17.3921466],[-66.2125225,-17.392148900000002],[-66.2113164,-17.392203300000002],[-66.2103878,-17.392245600000003],[-66.2103017,-17.392249600000003],[-66.208973,-17.3923041],[-66.20829520000001,-17.3923381],[-66.2082831,-17.3923387],[-66.20819030000001,-17.3923434],[-66.2080961,-17.3923466],[-66.20801010000001,-17.3923501],[-66.2077704,-17.392359900000002],[-66.20562840000001,-17.3924477],[-66.20470830000001,-17.392489100000002],[-66.20430920000001,-17.3925078],[-66.2036195,-17.3925345],[-66.2031084,-17.392554200000003],[-66.2004314,-17.3926766],[-66.2002307,-17.392685800000002],[-66.1998222,-17.392704600000002],[-66.1997525,-17.3927076],[-66.1996829,-17.3927105],[-66.1996077,-17.392714100000003],[-66.19948160000001,-17.392719300000003],[-66.1989358,-17.392742000000002],[-66.1970994,-17.392820500000003],[-66.19696090000001,-17.3928267],[-66.19417130000001,-17.3929516],[-66.19390320000001,-17.3929632],[-66.1918596,-17.3930496],[-66.1892684,-17.393168300000003],[-66.1875821,-17.393243100000003],[-66.18641620000001,-17.393294400000002],[-66.18615430000001,-17.3933053],[-66.1844616,-17.3933742],[-66.18410340000001,-17.3933915],[-66.1818384,-17.393497800000002],[-66.1810597,-17.393529800000003],[-66.1801494,-17.393567700000002],[-66.1795661,-17.393593300000003],[-66.17957770000001,-17.3936946],[-66.17958130000001,-17.3937238],[-66.179647,-17.3946015],[-66.17968570000001,-17.394997500000002],[-66.17994630000001,-17.394991100000002],[-66.1806899,-17.3949724],[-66.1807167,-17.3949721],[-66.18077000000001,-17.394960700000002],[-66.1808122,-17.3949353],[-66.18083530000001,-17.3949098],[-66.18085450000001,-17.394888700000003],[-66.1808639,-17.394873500000003],[-66.1808903,-17.394795000000002],[-66.1808572,-17.394685600000003],[-66.18085280000001,-17.394673],[-66.18073620000001,-17.394334800000003],[-66.18054710000001,-17.3938412],[-66.1803471,-17.3931767],[-66.18020750000001,-17.392697700000003],[-66.18007060000001,-17.392314900000002],[-66.18003540000001,-17.3921753],[-66.1796425,-17.3907506],[-66.1794988,-17.3902028],[-66.179471,-17.3901122],[-66.179415,-17.3899091],[-66.1792882,-17.3894479],[-66.17927870000001,-17.389416800000003],[-66.1792652,-17.389370200000002],[-66.17923160000001,-17.3892375],[-66.17919760000001,-17.389112500000003],[-66.1789923,-17.388356],[-66.17893020000001,-17.3881143],[-66.1789201,-17.388075200000003],[-66.17890600000001,-17.3880199],[-66.17888190000001,-17.387927400000002],[-66.17886920000001,-17.387876600000002],[-66.1788157,-17.387668100000003],[-66.17878920000001,-17.387612500000003],[-66.1785127,-17.3871328],[-66.1775482,-17.3854165],[-66.1770599,-17.384559000000003],[-66.17678690000001,-17.3841012],[-66.176702,-17.3838885],[-66.1766492,-17.3837173],[-66.17660860000001,-17.383542100000003],[-66.17657050000001,-17.383262700000003],[-66.1765314,-17.382900000000003],[-66.1764605,-17.3820921],[-66.17645490000001,-17.382028400000003],[-66.17644250000001,-17.3818874],[-66.1764357,-17.3818103],[-66.1764167,-17.3815937],[-66.17633140000001,-17.380842400000002],[-66.1762817,-17.380372400000002],[-66.17623680000001,-17.379947100000003],[-66.17621790000001,-17.379768300000002],[-66.176184,-17.379447300000002],[-66.1761762,-17.379404700000002],[-66.17616790000001,-17.3793034],[-66.1760436,-17.3782505],[-66.17600580000001,-17.377892300000003],[-66.1759318,-17.377157800000003],[-66.1758588,-17.376582300000003],[-66.1758533,-17.3764664],[-66.1758281,-17.3759412],[-66.17580650000001,-17.3751353],[-66.1757803,-17.374242600000002],[-66.1757786,-17.374183400000003],[-66.1757601,-17.373502400000003],[-66.1757585,-17.3734438],[-66.1757048,-17.371790200000003],[-66.17570230000001,-17.3717405],[-66.1757008,-17.3717118],[-66.1756263,-17.371715400000003],[-66.17492940000001,-17.371759800000003],[-66.17426660000001,-17.3718003],[-66.17360670000001,-17.3718451],[-66.17294030000001,-17.3718855],[-66.17287830000001,-17.3718894],[-66.17278350000001,-17.3718955],[-66.17226190000001,-17.3719344],[-66.17222020000001,-17.371941600000003],[-66.1721735,-17.371952500000003],[-66.1721483,-17.3719742],[-66.1721023,-17.3719931],[-66.1720537,-17.3720043],[-66.1720037,-17.372007500000002],[-66.1719539,-17.372002600000002],[-66.17191460000001,-17.371986600000003],[-66.1718879,-17.3719678],[-66.1718031,-17.3719645],[-66.17131900000001,-17.371996900000003],[-66.1706729,-17.372040100000003],[-66.1699054,-17.372086300000003],[-66.16910060000001,-17.372137000000002],[-66.168587,-17.3721724],[-66.16851150000001,-17.372177100000002],[-66.16849970000001,-17.3722013],[-66.16848250000001,-17.372222400000002],[-66.16845400000001,-17.3722433],[-66.16842790000001,-17.3722539],[-66.16839990000001,-17.372258600000002],[-66.1683785,-17.3722582],[-66.16835420000001,-17.3722533],[-66.16833340000001,-17.3722451],[-66.1683144,-17.372233400000002],[-66.16829410000001,-17.372214500000002],[-66.1682794,-17.372193000000003],[-66.1682184,-17.3721971],[-66.167996,-17.372210600000003],[-66.1676312,-17.3722381],[-66.1667194,-17.372292100000003],[-66.1660179,-17.3723376],[-66.1659353,-17.372343],[-66.16562780000001,-17.3723622],[-66.1651178,-17.372394],[-66.16464380000001,-17.3724236],[-66.1638303,-17.372476000000002],[-66.163746,-17.372479700000003],[-66.1636543,-17.372485100000002],[-66.1632714,-17.372510600000002],[-66.16278480000001,-17.3725451],[-66.16269750000001,-17.372548400000003],[-66.1625774,-17.372555000000002],[-66.16250600000001,-17.3725594],[-66.16249450000001,-17.3725598],[-66.162333,-17.3725692],[-66.1608008,-17.3726716],[-66.1606043,-17.3726825],[-66.16050990000001,-17.3726889],[-66.1605013,-17.372689400000002],[-66.15915670000001,-17.372775800000003],[-66.1590778,-17.3727807],[-66.15899230000001,-17.372786],[-66.1589345,-17.3727896],[-66.1588691,-17.3727936],[-66.1584227,-17.372819900000003],[-66.15787970000001,-17.372851800000003],[-66.15724460000001,-17.372889100000002],[-66.15719990000001,-17.3728991],[-66.1571481,-17.3729298],[-66.157128,-17.3729915],[-66.1570942,-17.373047500000002],[-66.1570483,-17.3730951],[-66.15699930000001,-17.3731282],[-66.1569358,-17.3731547],[-66.1568749,-17.3731659],[-66.15680470000001,-17.3731596],[-66.1567491,-17.3731431],[-66.1567053,-17.373117800000003],[-66.15666540000001,-17.373087400000003],[-66.15663,-17.3730522],[-66.1566075,-17.373024200000003],[-66.15657900000001,-17.3729771],[-66.156563,-17.372941500000003],[-66.1564845,-17.372946300000002],[-66.15574790000001,-17.3729988],[-66.15479660000001,-17.3730645],[-66.15472550000001,-17.373069500000003],[-66.1546618,-17.373072500000003],[-66.1546287,-17.3730741],[-66.1537792,-17.3731143],[-66.15367730000001,-17.373121100000002],[-66.1536062,-17.373125700000003],[-66.1535771,-17.3731276],[-66.152381,-17.3732095],[-66.15170280000001,-17.3732542],[-66.15119320000001,-17.3732875],[-66.1511413,-17.3732909],[-66.1510574,-17.373297],[-66.150952,-17.373305700000003],[-66.1509108,-17.3733086],[-66.1498037,-17.3733757],[-66.1497583,-17.373388600000002],[-66.1497138,-17.373412000000002],[-66.14969880000001,-17.373433700000003],[-66.14968060000001,-17.373448300000003],[-66.149653,-17.3734654],[-66.14962200000001,-17.373475900000003],[-66.14958850000001,-17.3734806],[-66.14955780000001,-17.373475900000003],[-66.149528,-17.373465900000003],[-66.14950130000001,-17.3734499],[-66.1494717,-17.3734192],[-66.14942450000001,-17.373407200000003],[-66.14937920000001,-17.3734028],[-66.1489025,-17.3734314],[-66.1485813,-17.373450700000003],[-66.14775660000001,-17.373501100000002],[-66.14716720000001,-17.373540400000003],[-66.14705430000001,-17.3735481],[-66.1467523,-17.3735688],[-66.1466264,-17.3735773],[-66.1459978,-17.373620300000002],[-66.14586240000001,-17.3736295],[-66.14580430000001,-17.3736332],[-66.14545940000001,-17.3736551],[-66.1451928,-17.3736728],[-66.144613,-17.373710300000003],[-66.14448340000001,-17.3737208],[-66.1443849,-17.373726],[-66.14435180000001,-17.3737277],[-66.1438834,-17.3737566],[-66.1438205,-17.3737609],[-66.1434523,-17.3737837],[-66.1434139,-17.3737873],[-66.14335360000001,-17.3738017],[-66.14328250000001,-17.373844700000003],[-66.1432451,-17.373929200000003],[-66.1431855,-17.374000900000002],[-66.14310780000001,-17.374054800000003],[-66.1430179,-17.3740869],[-66.1429705,-17.374129500000002],[-66.14293140000001,-17.374195800000003],[-66.1428264,-17.374870700000002],[-66.1428132,-17.3749632],[-66.1428008,-17.3750357],[-66.14275260000001,-17.3753405],[-66.14268390000001,-17.375774600000003],[-66.14267360000001,-17.3758395],[-66.14261900000001,-17.376235100000002],[-66.142601,-17.3763647],[-66.1425808,-17.376478600000002],[-66.14254940000001,-17.3767783],[-66.1425426,-17.376843100000002],[-66.14253810000001,-17.376884800000003],[-66.14252920000001,-17.376936500000003],[-66.1425277,-17.3769451],[-66.14252490000001,-17.3769601],[-66.1424276,-17.3773273],[-66.1424039,-17.377419200000002],[-66.14240880000001,-17.377441100000002],[-66.1424219,-17.377476],[-66.14243760000001,-17.3774945],[-66.1424518,-17.377522900000002],[-66.14246010000001,-17.3775508],[-66.14246320000001,-17.377579700000002],[-66.14246100000001,-17.377608600000002],[-66.1424521,-17.3776461],[-66.14243590000001,-17.377670400000003],[-66.14241030000001,-17.3776951],[-66.1423795,-17.377715300000002],[-66.1423542,-17.377744500000002],[-66.14233610000001,-17.377777400000003],[-66.1423295,-17.3778156],[-66.14228030000001,-17.3784047],[-66.1422534,-17.378687300000003],[-66.1422565,-17.3788538],[-66.14217950000001,-17.3796304],[-66.1421414,-17.379980200000002],[-66.14214100000001,-17.380106700000002],[-66.1421085,-17.3803468],[-66.1420921,-17.380467300000003],[-66.1420368,-17.3809286],[-66.14206820000001,-17.381035],[-66.14211470000001,-17.381133400000003],[-66.14212900000001,-17.381155600000003],[-66.1421821,-17.381239400000002],[-66.1422567,-17.3813321],[-66.14276910000001,-17.3816926],[-66.14280620000001,-17.3817208],[-66.1428932,-17.381785200000003],[-66.14286390000001,-17.3818452],[-66.1428571,-17.3818728],[-66.1428274,-17.381992200000003],[-66.142812,-17.3820759],[-66.1428013,-17.382192500000002],[-66.1428049,-17.3823271],[-66.1428348,-17.382453700000003],[-66.1429365,-17.3827505],[-66.14302210000001,-17.382966000000003],[-66.1430998,-17.383161400000002],[-66.1431235,-17.3832227],[-66.1432156,-17.383461200000003],[-66.1433676,-17.383855],[-66.1435331,-17.384279000000003],[-66.14355280000001,-17.384331600000003],[-66.1435733,-17.3843812],[-66.143642,-17.3845476],[-66.1437636,-17.3848644],[-66.1438238,-17.384970000000003],[-66.14385,-17.3850121],[-66.1438748,-17.3850765],[-66.1434619,-17.3852262],[-66.1434742,-17.385276100000002],[-66.14375170000001,-17.386405],[-66.1440092,-17.387150100000003],[-66.14406720000001,-17.387328],[-66.14409780000001,-17.3874676],[-66.14411840000001,-17.3876305],[-66.1441303,-17.387871],[-66.1441228,-17.388003100000002],[-66.14409280000001,-17.388213800000003],[-66.1440445,-17.3884289],[-66.14403940000001,-17.3884519],[-66.1440274,-17.3885055],[-66.14401810000001,-17.388548],[-66.14401190000001,-17.3885763],[-66.1438998,-17.3890856],[-66.1438912,-17.389130700000003],[-66.1438823,-17.389169000000003],[-66.14375670000001,-17.38971],[-66.14372680000001,-17.389761],[-66.1436815,-17.3898455],[-66.14365520000001,-17.3898914],[-66.1433968,-17.390456800000003],[-66.1432738,-17.390734100000003],[-66.14277480000001,-17.3917991],[-66.14274520000001,-17.3918573],[-66.1427214,-17.3919144],[-66.14234640000001,-17.3927549],[-66.1423273,-17.3927935],[-66.1419298,-17.393674700000002],[-66.14187790000001,-17.3937896],[-66.14189300000001,-17.393798800000003],[-66.14190550000001,-17.393811000000003],[-66.141917,-17.393830100000002],[-66.1419226,-17.3938534],[-66.14192050000001,-17.3938773],[-66.14191480000001,-17.393892400000002],[-66.141906,-17.393906100000002],[-66.14189400000001,-17.3939181],[-66.14187290000001,-17.393930400000002],[-66.1418541,-17.3939354],[-66.14183410000001,-17.393936],[-66.1418082,-17.3939294],[-66.14177520000001,-17.3940245],[-66.14150590000001,-17.3945896],[-66.141484,-17.3946387],[-66.14145420000001,-17.394703200000002],[-66.1407681,-17.3962043],[-66.14073540000001,-17.3962758],[-66.14070770000001,-17.396336400000003],[-66.1399786,-17.397932100000002],[-66.13989330000001,-17.398115200000003],[-66.1396562,-17.3986281],[-66.13962590000001,-17.398693700000003],[-66.1405517,-17.3988298],[-66.1406343,-17.398841400000002],[-66.1407435,-17.3988568],[-66.14106980000001,-17.398902600000003],[-66.1411635,-17.3989158],[-66.1412178,-17.398923200000002],[-66.1419213,-17.399018700000003],[-66.142426,-17.399084700000003],[-66.1431728,-17.3991872],[-66.14295220000001,-17.4001364]],"nodes":[7545129750,6988542281,6988542284,6988542283,6988542276,6988542277,6988542278,6988542280,3788604579,3788604595,3788604605,3788604609,3788604610,3788604606,3788604608,3788604597,3788604594,3788604592,3788604588,3788604589,3788604582,3788604581,3788604583,3788604586,3788604590,3788604585,3788604580,3788604578,3788604576,3094084897,3788604575,3788604573,3788604572,3788604571,3788604570,3788604569,3788604563,3788604562,3788604568,3788604567,3788604566,3788604564,3788604565,3094084748,3094084733,6448767226,3094084705,3094084711,3094084721,3094084727,3094084729,3094084734,3094084739,3094084743,3094084744,3094084749,3094084782,3094084796,3094084810,3094084851,3094084876,3094084896,3094084910,3094084916,3094084939,3094085050,3094085057,3094085062,3094085069,3094085073,3094085077,3094085090,3094085097,3094085105,3094085114,3094085120,3094085133,3094085139,3094085142,3094085145,3094085155,3094085160,1744565829,1744565827,1497972776,1497972763,1497972775,1497972768,1497972789,1497972801,6294159667,4158142184,6172156353,6294159679,4158141344,1497972797,3094085101,3094085134,3094085136,1497972790,1497972788,7057320020,3094085072,3094085064,6172156343,6172156351,6172156334,6172156327,6172156328,3823718468,6172156347,319772319,6172156335,6172156336,6172156337,6172156338,6172156346,11069650025,6172156339,6172156340,12270357691,3094084914,7933350601,5179218488,2022078140,2022078138,11069650023,6298572908,6298572911,12271404588,6172156390,12271440524,7064470347,3094083510,3823722763,6182218511,6113969145,1124806722,1124806648,6182218513,9488489821,6113969129,9488489975,1723764609,9488489977,319772331,11395374292,4245439540,6113969174,319772339,6113969175,6113969176,1722951306,3804474427,6113975794,11395374302,3804474331,3804474280,6113975762,6113975723,6113975704,5070871664,6113975749,6113975692,7064467409,3804474206,3804474203,6182218516,319772362,4245445405,319772381,3804474159,319772392,3804474129,5070871662,5070871661,6326422077,5470213999,6182218518,11368023032,5470214002,6167540823,12530294315,6167540820,1722943703,12530294311,6179368734,7735246839,6298468002,6298468003,1722885626,7064444155,7929674777,7929674778,6298413537,6298413539,10613336276,6298413540,6298413541,6298413542,10613336207,7064462724,6298413543,6298413545,6352666608,12511412523,6298413547,6298413549,6352666603,12511412527,11069727145,6352666604,6352666605,10634809673,6352666631,6352666632,6387277809,6352666674,6352666675,6352666672,6352666673,6583297655,6352666676,6352666677,6352666678,6352666679,1723140841,1723140766,6352666682,1722993022,6751636171,7064469393,12521648516,2140772675,7735246972,7735246969,11877745779,11877745783,6179471249,1722992996,11071380857,8048482130,6751636140,6179474642,11877737959,5242307724,11877745768,6751605324,6751605312,4160023715,5242307732,5242307733,10292529781,10292529784,4160023714,7064447979,11393314258,6751636057,6751636044,6751636049,11393314255,4160023721,6751636059,4160023137,5242307772,5242308053,5242307779,5242307791,5242307798,5242307799,5242307793,5242307789,5242308075,5242308076,7064447426,6751636036,6751636027,11071380854,4160023712,5242308084,5240483427,5240483428,3257963010,8117851273,12706776925,3257963018,7068071175,8117851284,781835268,7064468766,781813439,12706842531,781835297,12530441283,5240483101,9352870501,9352870500,9352870499,319770804,5240483093,12530441290,12530467804,319770806,12530467809,7535460543,319771123,6852610657,319771124,6852610656,6852610652,319771126,6728813998,11353309042,8221419846,617198439,7527591106,3192787640,7527591083,11073473498,7527591084,6179669353,7527591077,7527591100,617344406,8221419836,8221419838,781813590,783870512,781813472,8221419798,12487415613,12706842543,2140912563,6917120246,9354944921,319771802,2140912543,8048387332,9354944920,617200550,8048387321,319772517,12706842535,319771957,783869220,617337192,617337190,785869304,5870202365,5870202366,6917120217,9262757144,785868542,785868821,2544242053,5236806811,8316478288,8316478291,9262757164,8316478298,319772617,12091174511,8316478286,786662202,4571961294,11084165261,786662071,786662079,7149699478,10012571191,786662233,786662020,7933924070,8630411911,786662086,4571961312,9008315768,786662289,786662384,4317735514,7933924074,9008315506,9008315507,10572209945,8316478467,319773261,9008315534,9008315509,8316478468,319773262,9008315710,4586488215,10837513366,2594886774,11296265958,10837513370,4586488216,10837513371,10572209994,319773839,8630411836,319773840,8630411835,793568529,793568511,6918618955,793568540,793568550,7933924038,698491866,9008269186,698491852,698491857,9355127785,9355127784,698491894,9008269190,4586487875,8317038874,6836037176,793568534,9025874012,793568542,793568567,6282778241,793568556,5605232830,5605232828,8627399434,9786116626,9786116635,2354386800,9786116631,8627399435,794074995,9008269168,794075099,794075049,794074991,794074975,4340534094,4478225459,794075151,3255507834,4158051956,4158051955,794075132,794075196,794075208,794074982,794075086,794074944,794075201,794075101,6845758237,8235936965,9374958479,2417368094,794081382,8235936959,8235936931,2417368107,2417368139,2417368154,6846214132,2417368183,1807038058,12650627925,2429829239,12650627934,1807038060,1807038065,8235455990,497195296,2339557956,2339557957,2160491572,6282770217,2160491570,2292218255,2635402936,6272592192,9017927575,4398318268,6326490903,698597067,560522669,689437127,800044225,2527702716,2354386735,800044145,800043953,8474498147,2527702828,8474498148,8474498114,5314026294,9017927884,8564652537,5314026295,5595118473,800044208,11081258243,560522660,3152018220,2690719238,560522661,1637437053,2869785600,563279561,7068094787,563279569,9220533317,3959056592,7961288682,7068094785,9220533379,2381925185,9896747493,9930397067,9930397107,2381925127,2381925068,9930397106,6260039419,9930397093,598178872,598178889,598178890,2381924864,3296017874,563279651,3296017871,563279653,598178894,12869588266,560437513,560437508,8997922799,1723598846,598178895,12075820969,12075820981,12075820984,12075820912,698492535,698492542,11070650882,598179102,598179119,391739352,599541142,9586883587,1723598856,9054936641,689437242,9054936644,689437251,3673525780,11836786404,599541152,3673525778,689437274,689437272,689437271,7143274061,689437279,7143274058,599541154,2468433161,7170944313,2468433173,2468433175,2468433177,2468433178,2468433176,9045163354,2468433167,3669330251,689437277,689437275,689437375,689437356,2851924367,2851924369,12478975036,9875534161,2851924370,12478975037,2851924372,2851924373,2851924371,12478975038,9875534154,9875534158,599541191,3669330253,9880128584,599541189,11078784016,10571690331,689437371,2422613369,2422613372,689437386,9989015780,689437391,2287827733,2287827735,2287827736,599541188,599541187,2287827738,10705908992,9731395686,2126672391,2126672395,2126672398,10810399593,2126672463,602989999,599541199,2126672476,9021398369,11968312655,10800510170,2126672644,2126672670,2126672764,10029085283,2126672935,2126673021,2126673080,12813146199,2126673139,12813146198,2126673159,2126673087,2126672991,10810399534,9141778520,11375884725,2126672666,2126672711,676069627,11949496248,676069629,11949496239,11949496247,9112306455,2126673222,11949496232,9112306456,6868766991,3298035202,12883830697,2380942946,676069635,9112306533,8981422630,2126673621,2126673665,5074930330,2126673703,2126673752,2126673798,2126673868,2126673897,2126673880,2126673803,2126673774,2126673721,8459424860,2126673707,10857203214,9561464244,676069649,5078180973,2126674097,2126674060,5078180976,676069648,2126674108,11800562075,8369697992,11080188254,4139785893,698492651,11557702159,4139785895,8370221220,3814200489,2126674127,2126674128,2126674132,2126674142,1785473511,1785473654,1785473340,1785473238,2126674180,2126674191,2590032472,698492585,2590032493,8373677220,8373671016,698492595,8373677218,599541212,8385091871,1637609887,8385091886,8385091900,1637609914,11081730875,8385091876,2389107312,2391341230,8385093441,1795293270,8385093440,1795293321,1795293349,1795293382,11081772340,11081772339,1795293377,1795293388,1795293404,1795293411,1795293330,2391341364,8379904379,3316224545,1636873767,9047064102,2391341675,668478462,9047064133,9047064135,602989556,668478523,2391341735,12062691267,1796486896,312425454,5224206193,2590032660,360124944,10897781661,10897781662,360124945,3225868759,360124946,360124947,360124948,360124377,12802743976,3360791866,360141438,3238986993,360142453,360141769,680034208,10897790429,9816380802,360141901,9368945676,360124378,2391341926,2361168094,10897790427,308303675,308303676,308303677,308303678,8382740888,5521290860,2586473051,308303680,11890924985,9100193270,315031222,10566433102,11890924986,10566433107,315031223,10566433108,6178744933,315031224,698492429,6178744932,360127104,315135505,8620183348,303221552,8620183347,8584400934,315134805,9886485075,2033335103,11072493727,2033335200,2033335257,11072493723,2033335311,11072493724,2033335400,2033335463,11072493713,11072493719,10597422696,9886485061,9886485059,8253508693,598787365,8253508695,8619110576,598789213,8619110577,8090197938,598788350,8250700095,391725774,702512056,9886703804,9886703801,9886703805,702512055,9886703803,702512054,702512053,702512052,8250693116]},"gtfs":{"agency_id":0,"route_id":0,"services":[{"service_id":"Mo-Su","startTime":"06:00","endTime":"22:00","trip_id":11127465}],"filteredStops":{"nodes":[7545129750,6988542281,6988542284,6988542283,6988542276,6988542277,6988542278,6988542280,3788604579,3788604595,3788604605,3788604609,3788604610,3788604606,3788604608,3788604597,3788604594,3788604592,3788604588,3788604589,3788604582,3788604581,3788604583,3788604586,3788604590,3788604585,3788604580,3788604578,3788604576,3094084897,3788604575,3788604573,3788604572,3788604571,3788604570,3788604569,3788604563,3788604562,3788604568,3788604567,3788604566,3788604564,3788604565,3094084748,3094084733,6448767226,3094084705,3094084711,3094084721,3094084727,3094084729,3094084734,3094084739,3094084743,3094084744,3094084749,3094084782,3094084796,3094084810,3094084851,3094084876,3094084896,3094084910,3094084916,3094084939,3094085050,3094085057,3094085062,3094085069,3094085073,3094085077,3094085090,3094085097,3094085105,3094085114,3094085120,3094085133,3094085139,3094085142,3094085145,3094085155,3094085160,1744565829,1744565827,1497972776,1497972763,1497972775,1497972768,1497972789,1497972801,6294159667,4158142184,6172156353,6294159679,4158141344,1497972797,3094085101,3094085134,3094085136,1497972790,1497972788,7057320020,3094085072,3094085064,6172156343,6172156351,6172156334,6172156327,6172156328,3823718468,6172156347,319772319,6172156335,6172156336,6172156337,6172156338,6172156346,11069650025,6172156339,6172156340,12270357691,3094084914,7933350601,5179218488,2022078140,2022078138,11069650023,6298572908,6298572911,12271404588,6172156390,12271440524,7064470347,3094083510,3823722763,6182218511,6113969145,1124806722,1124806648,6182218513,9488489821,6113969129,9488489975,1723764609,9488489977,319772331,11395374292,4245439540,6113969174,319772339,6113969175,6113969176,1722951306,3804474427,6113975794,11395374302,3804474331,3804474280,6113975762,6113975723,6113975704,5070871664,6113975749,6113975692,7064467409,3804474206,3804474203,6182218516,319772362,4245445405,319772381,3804474159,319772392,3804474129,5070871662,5070871661,6326422077,5470213999,6182218518,11368023032,5470214002,6167540823,12530294315,6167540820,1722943703,12530294311,6179368734,7735246839,6298468002,6298468003,1722885626,7064444155,7929674777,7929674778,6298413537,6298413539,10613336276,6298413540,6298413541,6298413542,10613336207,7064462724,6298413543,6298413545,6352666608,12511412523,6298413547,6298413549,6352666603,12511412527,11069727145,6352666604,6352666605,10634809673,6352666631,6352666632,6387277809,6352666674,6352666675,6352666672,6352666673,6583297655,6352666676,6352666677,6352666678,6352666679,1723140841,1723140766,6352666682,1722993022,6751636171,7064469393,12521648516,2140772675,7735246972,7735246969,11877745779,11877745783,6179471249,1722992996,11071380857,8048482130,6751636140,6179474642,11877737959,5242307724,11877745768,6751605324,6751605312,4160023715,5242307732,5242307733,10292529781,10292529784,4160023714,7064447979,11393314258,6751636057,6751636044,6751636049,11393314255,4160023721,6751636059,4160023137,5242307772,5242308053,5242307779,5242307791,5242307798,5242307799,5242307793,5242307789,5242308075,5242308076,7064447426,6751636036,6751636027,11071380854,4160023712,5242308084,5240483427,5240483428,3257963010,8117851273,12706776925,3257963018,7068071175,8117851284,781835268,7064468766,781813439,12706842531,781835297,12530441283,5240483101,9352870501,9352870500,9352870499,319770804,5240483093,12530441290,12530467804,319770806,12530467809,7535460543,319771123,6852610657,319771124,6852610656,6852610652,319771126,6728813998,11353309042,8221419846,617198439,7527591106,3192787640,7527591083,11073473498,7527591084,6179669353,7527591077,7527591100,617344406,8221419836,8221419838,781813590,783870512,781813472,8221419798,12487415613,12706842543,2140912563,6917120246,9354944921,319771802,2140912543,8048387332,9354944920,617200550,8048387321,319772517,12706842535,319771957,783869220,617337192,617337190,785869304,5870202365,5870202366,6917120217,9262757144,785868542,785868821,2544242053,5236806811,8316478288,8316478291,9262757164,8316478298,319772617,12091174511,8316478286,786662202,4571961294,11084165261,786662071,786662079,7149699478,10012571191,786662233,786662020,7933924070,8630411911,786662086,4571961312,9008315768,786662289,786662384,4317735514,7933924074,9008315506,9008315507,10572209945,8316478467,319773261,9008315534,9008315509,8316478468,319773262,9008315710,4586488215,10837513366,2594886774,11296265958,10837513370,4586488216,10837513371,10572209994,319773839,8630411836,319773840,8630411835,793568529,793568511,6918618955,793568540,793568550,7933924038,698491866,9008269186,698491852,698491857,9355127785,9355127784,698491894,9008269190,4586487875,8317038874,6836037176,793568534,9025874012,793568542,793568567,6282778241,793568556,5605232830,5605232828,8627399434,9786116626,9786116635,2354386800,9786116631,8627399435,794074995,9008269168,794075099,794075049,794074991,794074975,4340534094,4478225459,794075151,3255507834,4158051956,4158051955,794075132,794075196,794075208,794074982,794075086,794074944,794075201,794075101,6845758237,8235936965,9374958479,2417368094,794081382,8235936959,8235936931,2417368107,2417368139,2417368154,6846214132,2417368183,1807038058,12650627925,2429829239,12650627934,1807038060,1807038065,8235455990,497195296,2339557956,2339557957,2160491572,6282770217,2160491570,2292218255,2635402936,6272592192,9017927575,4398318268,6326490903,698597067,560522669,689437127,800044225,2527702716,2354386735,800044145,800043953,8474498147,2527702828,8474498148,8474498114,5314026294,9017927884,8564652537,5314026295,5595118473,800044208,11081258243,560522660,3152018220,2690719238,560522661,1637437053,2869785600,563279561,7068094787,563279569,9220533317,3959056592,7961288682,7068094785,9220533379,2381925185,9896747493,9930397067,9930397107,2381925127,2381925068,9930397106,6260039419,9930397093,598178872,598178889,598178890,2381924864,3296017874,563279651,3296017871,563279653,598178894,12869588266,560437513,560437508,8997922799,1723598846,598178895,12075820969,12075820981,12075820984,12075820912,698492535,698492542,11070650882,598179102,598179119,391739352,599541142,9586883587,1723598856,9054936641,689437242,9054936644,689437251,3673525780,11836786404,599541152,3673525778,689437274,689437272,689437271,7143274061,689437279,7143274058,599541154,2468433161,7170944313,2468433173,2468433175,2468433177,2468433178,2468433176,9045163354,2468433167,3669330251,689437277,689437275,689437375,689437356,2851924367,2851924369,12478975036,9875534161,2851924370,12478975037,2851924372,2851924373,2851924371,12478975038,9875534154,9875534158,599541191,3669330253,9880128584,599541189,11078784016,10571690331,689437371,2422613369,2422613372,689437386,9989015780,689437391,2287827733,2287827735,2287827736,599541188,599541187,2287827738,10705908992,9731395686,2126672391,2126672395,2126672398,10810399593,2126672463,602989999,599541199,2126672476,9021398369,11968312655,10800510170,2126672644,2126672670,2126672764,10029085283,2126672935,2126673021,2126673080,12813146199,2126673139,12813146198,2126673159,2126673087,2126672991,10810399534,9141778520,11375884725,2126672666,2126672711,676069627,11949496248,676069629,11949496239,11949496247,9112306455,2126673222,11949496232,9112306456,6868766991,3298035202,12883830697,2380942946,676069635,9112306533,8981422630,2126673621,2126673665,5074930330,2126673703,2126673752,2126673798,2126673868,2126673897,2126673880,2126673803,2126673774,2126673721,8459424860,2126673707,10857203214,9561464244,676069649,5078180973,2126674097,2126674060,5078180976,676069648,2126674108,11800562075,8369697992,11080188254,4139785893,698492651,11557702159,4139785895,8370221220,3814200489,2126674127,2126674128,2126674132,2126674142,1785473511,1785473654,1785473340,1785473238,2126674180,2126674191,2590032472,698492585,2590032493,8373677220,8373671016,698492595,8373677218,599541212,8385091871,1637609887,8385091886,8385091900,1637609914,11081730875,8385091876,2389107312,2391341230,8385093441,1795293270,8385093440,1795293321,1795293349,1795293382,11081772340,11081772339,1795293377,1795293388,1795293404,1795293411,1795293330,2391341364,8379904379,3316224545,1636873767,9047064102,2391341675,668478462,9047064133,9047064135,602989556,668478523,2391341735,12062691267,1796486896,312425454,5224206193,2590032660,360124944,10897781661,10897781662,360124945,3225868759,360124946,360124947,360124948,360124377,12802743976,3360791866,360141438,3238986993,360142453,360141769,680034208,10897790429,9816380802,360141901,9368945676,360124378,2391341926,2361168094,10897790427,308303675,308303676,308303677,308303678,8382740888,5521290860,2586473051,308303680,11890924985,9100193270,315031222,10566433102,11890924986,10566433107,315031223,10566433108,6178744933,315031224,698492429,6178744932,360127104,315135505,8620183348,303221552,8620183347,8584400934,315134805,9886485075,2033335103,11072493727,2033335200,2033335257,11072493723,2033335311,11072493724,2033335400,2033335463,11072493713,11072493719,10597422696,9886485061,9886485059,8253508693,598787365,8253508695,8619110576,598789213,8619110577,8090197938,598788350,8250700095,391725774,702512056,9886703804,9886703801,9886703805,702512055,9886703803,702512054,702512053,702512052,8250693116],"coordinates":[[-66.3746296,-17.447645400000003],[-66.3740518,-17.447245300000002],[-66.373288,-17.4466594],[-66.3732093,-17.446776900000003],[-66.37273800000001,-17.447156900000003],[-66.3724765,-17.4469162],[-66.3721347,-17.4466781],[-66.37048530000001,-17.445921100000003],[-66.3703509,-17.4459075],[-66.37030200000001,-17.446173700000003],[-66.37005880000001,-17.446310500000003],[-66.36988740000001,-17.446357300000003],[-66.36971600000001,-17.446386500000003],[-66.36950780000001,-17.4463456],[-66.3694031,-17.4463548],[-66.368711,-17.446112900000003],[-66.3684568,-17.446066700000003],[-66.3679499,-17.446054500000002],[-66.3676284,-17.4460477],[-66.3674263,-17.446042600000002],[-66.36689670000001,-17.445938400000003],[-66.36656930000001,-17.4458862],[-66.36587750000001,-17.4459893],[-66.36576120000001,-17.446024400000002],[-66.3652778,-17.446037500000003],[-66.36479250000001,-17.4459793],[-66.3644706,-17.4458859],[-66.36424960000001,-17.4457673],[-66.364005,-17.4456153],[-66.3638913,-17.4455756],[-66.3637348,-17.445563],[-66.3634164,-17.4453001],[-66.3630308,-17.4450198],[-66.36282870000001,-17.4449322],[-66.36229,-17.4447803],[-66.3616839,-17.444616800000002],[-66.3610472,-17.444459100000003],[-66.3609064,-17.4444182],[-66.3602759,-17.4445292],[-66.3597065,-17.4445292],[-66.35906370000001,-17.4445234],[-66.3583107,-17.4445],[-66.3582262,-17.444488500000002],[-66.35824550000001,-17.444237700000002],[-66.3582547,-17.444149600000003],[-66.35823930000001,-17.4440798],[-66.35822130000001,-17.443998500000003],[-66.35808510000001,-17.444007600000003],[-66.3578428,-17.444062900000002],[-66.3576026,-17.4441224],[-66.3574729,-17.4441394],[-66.3573539,-17.4441522],[-66.3570882,-17.4441947],[-66.3569011,-17.4442053],[-66.35676720000001,-17.4442138],[-66.35665030000001,-17.444241400000003],[-66.35611250000001,-17.444488],[-66.35598710000001,-17.444575200000003],[-66.35587020000001,-17.4446751],[-66.3554429,-17.445266],[-66.3552878,-17.4454679],[-66.3552028,-17.445612500000003],[-66.3550561,-17.4459313],[-66.3550263,-17.4460312],[-66.3549711,-17.4463203],[-66.3549122,-17.446460100000003],[-66.35480940000001,-17.4467107],[-66.3546822,-17.446966],[-66.35444840000001,-17.447104200000002],[-66.35427840000001,-17.4472296],[-66.3541785,-17.447289100000003],[-66.3539638,-17.4474103],[-66.35379370000001,-17.4474762],[-66.3535748,-17.447520800000003],[-66.353358,-17.447552700000003],[-66.35324960000001,-17.447584600000003],[-66.35307320000001,-17.4476398],[-66.352952,-17.4477121],[-66.3527543,-17.4478481],[-66.35260980000001,-17.4479693],[-66.35207790000001,-17.4483257],[-66.3519313,-17.448392600000002],[-66.3519069,-17.4483502],[-66.3518296,-17.4483368],[-66.3516374,-17.4483712],[-66.3514069,-17.448421600000003],[-66.35117530000001,-17.4484564],[-66.35100150000001,-17.4484482],[-66.3504379,-17.4483797],[-66.34941590000001,-17.4481994],[-66.3475434,-17.4479347],[-66.3465244,-17.447785600000003],[-66.3464024,-17.4477797],[-66.34577250000001,-17.4477167],[-66.3448334,-17.4476227],[-66.34406890000001,-17.447530200000003],[-66.343975,-17.447536300000003],[-66.3433481,-17.447681900000003],[-66.3432264,-17.447696],[-66.34305950000001,-17.4476799],[-66.3423659,-17.4475248],[-66.34205270000001,-17.4474266],[-66.3414011,-17.447272100000003],[-66.34043910000001,-17.4470376],[-66.3392828,-17.4467353],[-66.3392369,-17.4467223],[-66.3391955,-17.446710600000003],[-66.339172,-17.446763],[-66.3391278,-17.4468114],[-66.33908410000001,-17.446837900000002],[-66.339045,-17.446851000000002],[-66.33900390000001,-17.4468564],[-66.3389461,-17.4468506],[-66.33889230000001,-17.446829700000002],[-66.3388467,-17.4467953],[-66.338813,-17.446750100000003],[-66.3387938,-17.446697800000003],[-66.3387872,-17.4466532],[-66.3387941,-17.4466085],[-66.33880810000001,-17.4465788],[-66.33875490000001,-17.446301400000003],[-66.3386612,-17.4458121],[-66.3380049,-17.444204600000003],[-66.3376569,-17.443345100000002],[-66.3376381,-17.4432981],[-66.3375603,-17.4431042],[-66.3375017,-17.4429643],[-66.33741230000001,-17.442754500000003],[-66.337283,-17.4424329],[-66.3372422,-17.4423308],[-66.3371367,-17.4420766],[-66.3360973,-17.439585700000002],[-66.33578320000001,-17.4388329],[-66.33557800000001,-17.438291000000003],[-66.33485560000001,-17.4364738],[-66.33463010000001,-17.4358916],[-66.33457320000001,-17.4357487],[-66.3341568,-17.4346694],[-66.3332196,-17.4323896],[-66.33304240000001,-17.4319746],[-66.33293850000001,-17.431704],[-66.33241840000001,-17.4305032],[-66.33206170000001,-17.4297268],[-66.3319757,-17.4295495],[-66.3319084,-17.429407700000002],[-66.3315539,-17.4284995],[-66.33147720000001,-17.428260100000003],[-66.3314091,-17.4280125],[-66.33137210000001,-17.4278364],[-66.3313243,-17.427535600000002],[-66.3313109,-17.4273904],[-66.3312956,-17.426997200000002],[-66.3313102,-17.426605900000002],[-66.33134740000001,-17.426338],[-66.3314679,-17.4256008],[-66.3318033,-17.4236714],[-66.33199760000001,-17.422624600000002],[-66.33241140000001,-17.4202593],[-66.3324815,-17.419903],[-66.33251890000001,-17.4197099],[-66.3325889,-17.4193274],[-66.33262830000001,-17.419106600000003],[-66.3327027,-17.418753900000002],[-66.33293180000001,-17.417423900000003],[-66.3329346,-17.417407400000002],[-66.33306,-17.416682],[-66.3331326,-17.4162448],[-66.3332132,-17.4157033],[-66.33328780000001,-17.415291200000002],[-66.3333731,-17.414610000000003],[-66.33339600000001,-17.414073700000003],[-66.3333892,-17.413557700000002],[-66.3333513,-17.4131763],[-66.33328820000001,-17.412730500000002],[-66.33321360000001,-17.4123407],[-66.3331426,-17.412043],[-66.3330615,-17.411742800000003],[-66.3328869,-17.411328100000002],[-66.3327651,-17.410951],[-66.3323969,-17.4101411],[-66.33203110000001,-17.4093313],[-66.33182330000001,-17.4088731],[-66.3317196,-17.4086456],[-66.331652,-17.4084973],[-66.33148340000001,-17.408127500000003],[-66.33140820000001,-17.4079625],[-66.33129690000001,-17.4077182],[-66.33112910000001,-17.407327300000002],[-66.3308629,-17.406752],[-66.3307886,-17.4065879],[-66.32969480000001,-17.404194],[-66.32963430000001,-17.404056200000003],[-66.32943,-17.4036267],[-66.32935160000001,-17.4034538],[-66.32869520000001,-17.402032300000002],[-66.32842500000001,-17.4014798],[-66.3282504,-17.401172600000002],[-66.32809200000001,-17.400918700000002],[-66.3279593,-17.4007119],[-66.32778590000001,-17.4004647],[-66.32752470000001,-17.400129000000003],[-66.3272391,-17.3997932],[-66.3270839,-17.3996387],[-66.3267728,-17.3993173],[-66.3265049,-17.3991],[-66.32627360000001,-17.398900400000002],[-66.32613280000001,-17.398778800000002],[-66.3257904,-17.3985348],[-66.3256511,-17.3984358],[-66.3256465,-17.3984327],[-66.32564260000001,-17.398430100000002],[-66.32546590000001,-17.398310000000002],[-66.3248873,-17.3979724],[-66.3244736,-17.397705100000003],[-66.3241995,-17.3975401],[-66.3240074,-17.3974325],[-66.3236507,-17.3972547],[-66.32343420000001,-17.3971567],[-66.3231865,-17.397048700000003],[-66.3226743,-17.396845000000003],[-66.32228210000001,-17.3967139],[-66.32194340000001,-17.396614200000002],[-66.32150490000001,-17.3965047],[-66.32094880000001,-17.3964108],[-66.32053020000001,-17.396356],[-66.3201138,-17.3963161],[-66.3193129,-17.3962763],[-66.3183989,-17.396222400000003],[-66.317842,-17.3961982],[-66.3171983,-17.3962396],[-66.31698990000001,-17.396227000000003],[-66.31683740000001,-17.396219000000002],[-66.3165618,-17.3962046],[-66.3164191,-17.396196800000002],[-66.31625840000001,-17.396188600000002],[-66.3162063,-17.396185900000003],[-66.3161086,-17.3961812],[-66.3157328,-17.3961633],[-66.31552690000001,-17.396153400000003],[-66.31523370000001,-17.3961238],[-66.3147895,-17.3960513],[-66.3146377,-17.3960383],[-66.31451170000001,-17.396032100000003],[-66.31410460000001,-17.3960146],[-66.31395540000001,-17.396007700000002],[-66.31299340000001,-17.3959541],[-66.31250610000001,-17.3959282],[-66.31235810000001,-17.3959203],[-66.3119884,-17.395899800000002],[-66.3111731,-17.3958547],[-66.31092120000001,-17.3958452],[-66.31079770000001,-17.395838400000002],[-66.3097618,-17.395781500000002],[-66.3096034,-17.395772800000003],[-66.30927430000001,-17.395754800000002],[-66.30917240000001,-17.395749000000002],[-66.3082255,-17.395695800000002],[-66.3081952,-17.3956941],[-66.3080973,-17.3956893],[-66.30772560000001,-17.395669],[-66.30758150000001,-17.3956607],[-66.3069208,-17.3956224],[-66.30583530000001,-17.3955647],[-66.3054061,-17.3955418],[-66.3039009,-17.395453900000003],[-66.3025274,-17.3953816],[-66.3017652,-17.3953418],[-66.30133260000001,-17.395315],[-66.30127150000001,-17.3953123],[-66.3008526,-17.3952907],[-66.3008051,-17.3952883],[-66.3004458,-17.3952701],[-66.2998539,-17.395240100000002],[-66.2988399,-17.395188700000002],[-66.29862220000001,-17.3951777],[-66.29818540000001,-17.3951555],[-66.29733200000001,-17.3951114],[-66.295275,-17.3949955],[-66.2952254,-17.394991700000002],[-66.2950718,-17.394983],[-66.29472340000001,-17.3949679],[-66.2942737,-17.3949906],[-66.2939085,-17.395000900000003],[-66.2919255,-17.394870400000002],[-66.2918446,-17.394868300000002],[-66.2917805,-17.3948667],[-66.2914583,-17.394858300000003],[-66.29119680000001,-17.3948515],[-66.28997860000001,-17.394796000000003],[-66.2898881,-17.394791],[-66.2888063,-17.394731800000002],[-66.2878859,-17.3946821],[-66.28734630000001,-17.394653100000003],[-66.2865197,-17.3946091],[-66.28637520000001,-17.394561600000003],[-66.28634140000001,-17.3945867],[-66.28630150000001,-17.3946015],[-66.2862588,-17.3946046],[-66.2862169,-17.3945958],[-66.28617960000001,-17.394575900000003],[-66.28603500000001,-17.3945744],[-66.28470030000001,-17.394507800000003],[-66.28460890000001,-17.3945051],[-66.2845654,-17.3945027],[-66.2830692,-17.3944213],[-66.2829966,-17.3944173],[-66.2816911,-17.394348800000003],[-66.2815709,-17.394341700000002],[-66.2814919,-17.3943373],[-66.2807205,-17.3942881],[-66.2806245,-17.394282],[-66.2804969,-17.3942675],[-66.2798815,-17.3942066],[-66.2795033,-17.3941692],[-66.27879770000001,-17.3940994],[-66.27829600000001,-17.3940485],[-66.2782169,-17.394039000000003],[-66.27816890000001,-17.394033200000003],[-66.27814450000001,-17.3940395],[-66.27811790000001,-17.394044500000003],[-66.27806840000001,-17.394044400000002],[-66.2780201,-17.3940285],[-66.2778794,-17.394015300000003],[-66.27738090000001,-17.393965100000003],[-66.27698430000001,-17.393924000000002],[-66.2768911,-17.3939144],[-66.27613620000001,-17.3938363],[-66.27496330000001,-17.3937285],[-66.27453870000001,-17.3936929],[-66.27442020000001,-17.393684200000003],[-66.27325280000001,-17.393565300000002],[-66.2729886,-17.393549],[-66.27289060000001,-17.393511500000002],[-66.27285210000001,-17.393533100000003],[-66.2728074,-17.3935435],[-66.2727806,-17.393545000000003],[-66.2727581,-17.3935427],[-66.2727267,-17.393536],[-66.2726973,-17.3935241],[-66.27266130000001,-17.3934995],[-66.27249690000001,-17.3934548],[-66.27235230000001,-17.3934131],[-66.27222420000001,-17.393386500000002],[-66.272136,-17.393375000000002],[-66.27118340000001,-17.393261600000002],[-66.27011320000001,-17.3931644],[-66.2699556,-17.393150900000002],[-66.26827130000001,-17.392991000000002],[-66.26816210000001,-17.3929793],[-66.26808580000001,-17.392970400000003],[-66.2680632,-17.3929681],[-66.2679799,-17.3929599],[-66.26630990000001,-17.3927856],[-66.26498190000001,-17.3926561],[-66.2620232,-17.3923631],[-66.26103330000001,-17.3922706],[-66.26040300000001,-17.392209700000002],[-66.2600955,-17.3921801],[-66.2597451,-17.392146200000003],[-66.2596815,-17.392140100000002],[-66.2596226,-17.3921344],[-66.25948260000001,-17.3921205],[-66.2589272,-17.392065600000002],[-66.25794470000001,-17.391968400000003],[-66.2577273,-17.391949800000003],[-66.2575312,-17.3919305],[-66.2560565,-17.3917855],[-66.2548029,-17.3916521],[-66.25319800000001,-17.3914884],[-66.2530064,-17.3914702],[-66.2528628,-17.3914565],[-66.2517349,-17.391351800000002],[-66.25130530000001,-17.3913072],[-66.2507894,-17.3912641],[-66.25064590000001,-17.3912553],[-66.25044960000001,-17.391241100000002],[-66.24994980000001,-17.391207700000002],[-66.24902460000001,-17.391148],[-66.24892960000001,-17.3911412],[-66.2483832,-17.391103700000002],[-66.2478983,-17.3910798],[-66.2474718,-17.391058800000003],[-66.24669460000001,-17.3910205],[-66.2463515,-17.3910036],[-66.2462864,-17.391000400000003],[-66.246144,-17.390994300000003],[-66.24609570000001,-17.390992800000003],[-66.2459542,-17.3909884],[-66.2450017,-17.3909622],[-66.2449045,-17.390971200000003],[-66.24474570000001,-17.3910024],[-66.244702,-17.391009200000003],[-66.24461070000001,-17.391030400000002],[-66.2444712,-17.391049600000002],[-66.2443896,-17.3910486],[-66.2440073,-17.391043800000002],[-66.2439758,-17.391043200000002],[-66.2439215,-17.3910349],[-66.24373270000001,-17.390998600000003],[-66.24367640000001,-17.3909884],[-66.24355220000001,-17.3909664],[-66.24346390000001,-17.390956900000003],[-66.2433575,-17.3909534],[-66.2427821,-17.3909552],[-66.24211430000001,-17.3909528],[-66.24113820000001,-17.3909664],[-66.2409403,-17.390969400000003],[-66.2398934,-17.390992100000002],[-66.2393461,-17.391020700000002],[-66.2391427,-17.391038400000003],[-66.23896260000001,-17.391061500000003],[-66.2388277,-17.3910735],[-66.23878500000001,-17.3910956],[-66.23875550000001,-17.391099500000003],[-66.23872490000001,-17.3910999],[-66.2386949,-17.391094600000002],[-66.2385208,-17.391072100000002],[-66.23834480000001,-17.3910467],[-66.2381859,-17.3910491],[-66.23783080000001,-17.3910656],[-66.23636230000001,-17.391125600000002],[-66.23635920000001,-17.3911257],[-66.2338646,-17.3912258],[-66.2324387,-17.3912917],[-66.23202930000001,-17.391311],[-66.2319827,-17.391310100000002],[-66.23130280000001,-17.3913334],[-66.23093850000001,-17.3913516],[-66.23050210000001,-17.3913727],[-66.23003270000001,-17.391397100000002],[-66.23001740000001,-17.3913979],[-66.22988550000001,-17.3914048],[-66.2297415,-17.391410200000003],[-66.2291665,-17.3914316],[-66.228361,-17.3914642],[-66.2274295,-17.3915073],[-66.22662360000001,-17.391544500000002],[-66.22649600000001,-17.391546700000003],[-66.22491930000001,-17.391616900000002],[-66.22209000000001,-17.391740000000002],[-66.2218668,-17.391750700000003],[-66.2215956,-17.391763800000003],[-66.2213351,-17.3917763],[-66.2194094,-17.391851900000002],[-66.2193472,-17.3918506],[-66.21892700000001,-17.391871100000003],[-66.21825530000001,-17.391897200000002],[-66.2154179,-17.392026],[-66.21351650000001,-17.392113300000002],[-66.2125924,-17.3921466],[-66.2125225,-17.392148900000002],[-66.2113164,-17.392203300000002],[-66.2103878,-17.392245600000003],[-66.2103017,-17.392249600000003],[-66.208973,-17.3923041],[-66.20829520000001,-17.3923381],[-66.2082831,-17.3923387],[-66.20819030000001,-17.3923434],[-66.2080961,-17.3923466],[-66.20801010000001,-17.3923501],[-66.2077704,-17.392359900000002],[-66.20562840000001,-17.3924477],[-66.20470830000001,-17.392489100000002],[-66.20430920000001,-17.3925078],[-66.2036195,-17.3925345],[-66.2031084,-17.392554200000003],[-66.2004314,-17.3926766],[-66.2002307,-17.392685800000002],[-66.1998222,-17.392704600000002],[-66.1997525,-17.3927076],[-66.1996829,-17.3927105],[-66.1996077,-17.392714100000003],[-66.19948160000001,-17.392719300000003],[-66.1989358,-17.392742000000002],[-66.1970994,-17.392820500000003],[-66.19696090000001,-17.3928267],[-66.19417130000001,-17.3929516],[-66.19390320000001,-17.3929632],[-66.1918596,-17.3930496],[-66.1892684,-17.393168300000003],[-66.1875821,-17.393243100000003],[-66.18641620000001,-17.393294400000002],[-66.18615430000001,-17.3933053],[-66.1844616,-17.3933742],[-66.18410340000001,-17.3933915],[-66.1818384,-17.393497800000002],[-66.1810597,-17.393529800000003],[-66.1801494,-17.393567700000002],[-66.1795661,-17.393593300000003],[-66.17957770000001,-17.3936946],[-66.17958130000001,-17.3937238],[-66.179647,-17.3946015],[-66.17968570000001,-17.394997500000002],[-66.17994630000001,-17.394991100000002],[-66.1806899,-17.3949724],[-66.1807167,-17.3949721],[-66.18077000000001,-17.394960700000002],[-66.1808122,-17.3949353],[-66.18083530000001,-17.3949098],[-66.18085450000001,-17.394888700000003],[-66.1808639,-17.394873500000003],[-66.1808903,-17.394795000000002],[-66.1808572,-17.394685600000003],[-66.18085280000001,-17.394673],[-66.18073620000001,-17.394334800000003],[-66.18054710000001,-17.3938412],[-66.1803471,-17.3931767],[-66.18020750000001,-17.392697700000003],[-66.18007060000001,-17.392314900000002],[-66.18003540000001,-17.3921753],[-66.1796425,-17.3907506],[-66.1794988,-17.3902028],[-66.179471,-17.3901122],[-66.179415,-17.3899091],[-66.1792882,-17.3894479],[-66.17927870000001,-17.389416800000003],[-66.1792652,-17.389370200000002],[-66.17923160000001,-17.3892375],[-66.17919760000001,-17.389112500000003],[-66.1789923,-17.388356],[-66.17893020000001,-17.3881143],[-66.1789201,-17.388075200000003],[-66.17890600000001,-17.3880199],[-66.17888190000001,-17.387927400000002],[-66.17886920000001,-17.387876600000002],[-66.1788157,-17.387668100000003],[-66.17878920000001,-17.387612500000003],[-66.1785127,-17.3871328],[-66.1775482,-17.3854165],[-66.1770599,-17.384559000000003],[-66.17678690000001,-17.3841012],[-66.176702,-17.3838885],[-66.1766492,-17.3837173],[-66.17660860000001,-17.383542100000003],[-66.17657050000001,-17.383262700000003],[-66.1765314,-17.382900000000003],[-66.1764605,-17.3820921],[-66.17645490000001,-17.382028400000003],[-66.17644250000001,-17.3818874],[-66.1764357,-17.3818103],[-66.1764167,-17.3815937],[-66.17633140000001,-17.380842400000002],[-66.1762817,-17.380372400000002],[-66.17623680000001,-17.379947100000003],[-66.17621790000001,-17.379768300000002],[-66.176184,-17.379447300000002],[-66.1761762,-17.379404700000002],[-66.17616790000001,-17.3793034],[-66.1760436,-17.3782505],[-66.17600580000001,-17.377892300000003],[-66.1759318,-17.377157800000003],[-66.1758588,-17.376582300000003],[-66.1758533,-17.3764664],[-66.1758281,-17.3759412],[-66.17580650000001,-17.3751353],[-66.1757803,-17.374242600000002],[-66.1757786,-17.374183400000003],[-66.1757601,-17.373502400000003],[-66.1757585,-17.3734438],[-66.1757048,-17.371790200000003],[-66.17570230000001,-17.3717405],[-66.1757008,-17.3717118],[-66.1756263,-17.371715400000003],[-66.17492940000001,-17.371759800000003],[-66.17426660000001,-17.3718003],[-66.17360670000001,-17.3718451],[-66.17294030000001,-17.3718855],[-66.17287830000001,-17.3718894],[-66.17278350000001,-17.3718955],[-66.17226190000001,-17.3719344],[-66.17222020000001,-17.371941600000003],[-66.1721735,-17.371952500000003],[-66.1721483,-17.3719742],[-66.1721023,-17.3719931],[-66.1720537,-17.3720043],[-66.1720037,-17.372007500000002],[-66.1719539,-17.372002600000002],[-66.17191460000001,-17.371986600000003],[-66.1718879,-17.3719678],[-66.1718031,-17.3719645],[-66.17131900000001,-17.371996900000003],[-66.1706729,-17.372040100000003],[-66.1699054,-17.372086300000003],[-66.16910060000001,-17.372137000000002],[-66.168587,-17.3721724],[-66.16851150000001,-17.372177100000002],[-66.16849970000001,-17.3722013],[-66.16848250000001,-17.372222400000002],[-66.16845400000001,-17.3722433],[-66.16842790000001,-17.3722539],[-66.16839990000001,-17.372258600000002],[-66.1683785,-17.3722582],[-66.16835420000001,-17.3722533],[-66.16833340000001,-17.3722451],[-66.1683144,-17.372233400000002],[-66.16829410000001,-17.372214500000002],[-66.1682794,-17.372193000000003],[-66.1682184,-17.3721971],[-66.167996,-17.372210600000003],[-66.1676312,-17.3722381],[-66.1667194,-17.372292100000003],[-66.1660179,-17.3723376],[-66.1659353,-17.372343],[-66.16562780000001,-17.3723622],[-66.1651178,-17.372394],[-66.16464380000001,-17.3724236],[-66.1638303,-17.372476000000002],[-66.163746,-17.372479700000003],[-66.1636543,-17.372485100000002],[-66.1632714,-17.372510600000002],[-66.16278480000001,-17.3725451],[-66.16269750000001,-17.372548400000003],[-66.1625774,-17.372555000000002],[-66.16250600000001,-17.3725594],[-66.16249450000001,-17.3725598],[-66.162333,-17.3725692],[-66.1608008,-17.3726716],[-66.1606043,-17.3726825],[-66.16050990000001,-17.3726889],[-66.1605013,-17.372689400000002],[-66.15915670000001,-17.372775800000003],[-66.1590778,-17.3727807],[-66.15899230000001,-17.372786],[-66.1589345,-17.3727896],[-66.1588691,-17.3727936],[-66.1584227,-17.372819900000003],[-66.15787970000001,-17.372851800000003],[-66.15724460000001,-17.372889100000002],[-66.15719990000001,-17.3728991],[-66.1571481,-17.3729298],[-66.157128,-17.3729915],[-66.1570942,-17.373047500000002],[-66.1570483,-17.3730951],[-66.15699930000001,-17.3731282],[-66.1569358,-17.3731547],[-66.1568749,-17.3731659],[-66.15680470000001,-17.3731596],[-66.1567491,-17.3731431],[-66.1567053,-17.373117800000003],[-66.15666540000001,-17.373087400000003],[-66.15663,-17.3730522],[-66.1566075,-17.373024200000003],[-66.15657900000001,-17.3729771],[-66.156563,-17.372941500000003],[-66.1564845,-17.372946300000002],[-66.15574790000001,-17.3729988],[-66.15479660000001,-17.3730645],[-66.15472550000001,-17.373069500000003],[-66.1546618,-17.373072500000003],[-66.1546287,-17.3730741],[-66.1537792,-17.3731143],[-66.15367730000001,-17.373121100000002],[-66.1536062,-17.373125700000003],[-66.1535771,-17.3731276],[-66.152381,-17.3732095],[-66.15170280000001,-17.3732542],[-66.15119320000001,-17.3732875],[-66.1511413,-17.3732909],[-66.1510574,-17.373297],[-66.150952,-17.373305700000003],[-66.1509108,-17.3733086],[-66.1498037,-17.3733757],[-66.1497583,-17.373388600000002],[-66.1497138,-17.373412000000002],[-66.14969880000001,-17.373433700000003],[-66.14968060000001,-17.373448300000003],[-66.149653,-17.3734654],[-66.14962200000001,-17.373475900000003],[-66.14958850000001,-17.3734806],[-66.14955780000001,-17.373475900000003],[-66.149528,-17.373465900000003],[-66.14950130000001,-17.3734499],[-66.1494717,-17.3734192],[-66.14942450000001,-17.373407200000003],[-66.14937920000001,-17.3734028],[-66.1489025,-17.3734314],[-66.1485813,-17.373450700000003],[-66.14775660000001,-17.373501100000002],[-66.14716720000001,-17.373540400000003],[-66.14705430000001,-17.3735481],[-66.1467523,-17.3735688],[-66.1466264,-17.3735773],[-66.1459978,-17.373620300000002],[-66.14586240000001,-17.3736295],[-66.14580430000001,-17.3736332],[-66.14545940000001,-17.3736551],[-66.1451928,-17.3736728],[-66.144613,-17.373710300000003],[-66.14448340000001,-17.3737208],[-66.1443849,-17.373726],[-66.14435180000001,-17.3737277],[-66.1438834,-17.3737566],[-66.1438205,-17.3737609],[-66.1434523,-17.3737837],[-66.1434139,-17.3737873],[-66.14335360000001,-17.3738017],[-66.14328250000001,-17.373844700000003],[-66.1432451,-17.373929200000003],[-66.1431855,-17.374000900000002],[-66.14310780000001,-17.374054800000003],[-66.1430179,-17.3740869],[-66.1429705,-17.374129500000002],[-66.14293140000001,-17.374195800000003],[-66.1428264,-17.374870700000002],[-66.1428132,-17.3749632],[-66.1428008,-17.3750357],[-66.14275260000001,-17.3753405],[-66.14268390000001,-17.375774600000003],[-66.14267360000001,-17.3758395],[-66.14261900000001,-17.376235100000002],[-66.142601,-17.3763647],[-66.1425808,-17.376478600000002],[-66.14254940000001,-17.3767783],[-66.1425426,-17.376843100000002],[-66.14253810000001,-17.376884800000003],[-66.14252920000001,-17.376936500000003],[-66.1425277,-17.3769451],[-66.14252490000001,-17.3769601],[-66.1424276,-17.3773273],[-66.1424039,-17.377419200000002],[-66.14240880000001,-17.377441100000002],[-66.1424219,-17.377476],[-66.14243760000001,-17.3774945],[-66.1424518,-17.377522900000002],[-66.14246010000001,-17.3775508],[-66.14246320000001,-17.377579700000002],[-66.14246100000001,-17.377608600000002],[-66.1424521,-17.3776461],[-66.14243590000001,-17.377670400000003],[-66.14241030000001,-17.3776951],[-66.1423795,-17.377715300000002],[-66.1423542,-17.377744500000002],[-66.14233610000001,-17.377777400000003],[-66.1423295,-17.3778156],[-66.14228030000001,-17.3784047],[-66.1422534,-17.378687300000003],[-66.1422565,-17.3788538],[-66.14217950000001,-17.3796304],[-66.1421414,-17.379980200000002],[-66.14214100000001,-17.380106700000002],[-66.1421085,-17.3803468],[-66.1420921,-17.380467300000003],[-66.1420368,-17.3809286],[-66.14206820000001,-17.381035],[-66.14211470000001,-17.381133400000003],[-66.14212900000001,-17.381155600000003],[-66.1421821,-17.381239400000002],[-66.1422567,-17.3813321],[-66.14276910000001,-17.3816926],[-66.14280620000001,-17.3817208],[-66.1428932,-17.381785200000003],[-66.14286390000001,-17.3818452],[-66.1428571,-17.3818728],[-66.1428274,-17.381992200000003],[-66.142812,-17.3820759],[-66.1428013,-17.382192500000002],[-66.1428049,-17.3823271],[-66.1428348,-17.382453700000003],[-66.1429365,-17.3827505],[-66.14302210000001,-17.382966000000003],[-66.1430998,-17.383161400000002],[-66.1431235,-17.3832227],[-66.1432156,-17.383461200000003],[-66.1433676,-17.383855],[-66.1435331,-17.384279000000003],[-66.14355280000001,-17.384331600000003],[-66.1435733,-17.3843812],[-66.143642,-17.3845476],[-66.1437636,-17.3848644],[-66.1438238,-17.384970000000003],[-66.14385,-17.3850121],[-66.1438748,-17.3850765],[-66.1434619,-17.3852262],[-66.1434742,-17.385276100000002],[-66.14375170000001,-17.386405],[-66.1440092,-17.387150100000003],[-66.14406720000001,-17.387328],[-66.14409780000001,-17.3874676],[-66.14411840000001,-17.3876305],[-66.1441303,-17.387871],[-66.1441228,-17.388003100000002],[-66.14409280000001,-17.388213800000003],[-66.1440445,-17.3884289],[-66.14403940000001,-17.3884519],[-66.1440274,-17.3885055],[-66.14401810000001,-17.388548],[-66.14401190000001,-17.3885763],[-66.1438998,-17.3890856],[-66.1438912,-17.389130700000003],[-66.1438823,-17.389169000000003],[-66.14375670000001,-17.38971],[-66.14372680000001,-17.389761],[-66.1436815,-17.3898455],[-66.14365520000001,-17.3898914],[-66.1433968,-17.390456800000003],[-66.1432738,-17.390734100000003],[-66.14277480000001,-17.3917991],[-66.14274520000001,-17.3918573],[-66.1427214,-17.3919144],[-66.14234640000001,-17.3927549],[-66.1423273,-17.3927935],[-66.1419298,-17.393674700000002],[-66.14187790000001,-17.3937896],[-66.14189300000001,-17.393798800000003],[-66.14190550000001,-17.393811000000003],[-66.141917,-17.393830100000002],[-66.1419226,-17.3938534],[-66.14192050000001,-17.3938773],[-66.14191480000001,-17.393892400000002],[-66.141906,-17.393906100000002],[-66.14189400000001,-17.3939181],[-66.14187290000001,-17.393930400000002],[-66.1418541,-17.3939354],[-66.14183410000001,-17.393936],[-66.1418082,-17.3939294],[-66.14177520000001,-17.3940245],[-66.14150590000001,-17.3945896],[-66.141484,-17.3946387],[-66.14145420000001,-17.394703200000002],[-66.1407681,-17.3962043],[-66.14073540000001,-17.3962758],[-66.14070770000001,-17.396336400000003],[-66.1399786,-17.397932100000002],[-66.13989330000001,-17.398115200000003],[-66.1396562,-17.3986281],[-66.13962590000001,-17.398693700000003],[-66.1405517,-17.3988298],[-66.1406343,-17.398841400000002],[-66.1407435,-17.3988568],[-66.14106980000001,-17.398902600000003],[-66.1411635,-17.3989158],[-66.1412178,-17.398923200000002],[-66.1419213,-17.399018700000003],[-66.142426,-17.399084700000003],[-66.1431728,-17.3991872],[-66.14295220000001,-17.4001364]]}}},{"type":"Feature","properties":{"bus":"yes","highway":"bus_stop","name":"Parada 260","public_transport":"platform","id":7545129748},"geometry":{"type":"Point","coordinates":[-66.37459150000001,-17.447680100000003]}},{"type":"Feature","properties":{"bin":"no","bus":"yes","departures_board":"no","highway":"bus_stop","informal":"yes","kerb":"raised","level":"0","lit":"no","name":"d'Orbigny","public_transport":"platform","shelter":"no","tactile_paving":"no","wheelchair":"no","id":7961288733},"geometry":{"type":"Point","coordinates":[-66.1789469,-17.3884234]}},{"type":"Feature","properties":{"bench":"no","bin":"no","bus":"yes","departures_board":"no","highway":"bus_stop","level":"0","lit":"no","loc_name":"Huayculi","name":"German Busch","pole":"yes","public_transport":"platform","shelter":"no","tactile_paving":"no","id":5744018988},"geometry":{"type":"Point","coordinates":[-66.2704535,-17.3932933]}},{"type":"Feature","properties":{"bench":"yes","bin":"no","bus":"yes","departures_board":"no","highway":"bus_stop","level":"0","lit":"no","name":"Antonio Montes","operator":"Administradora Boliviana de Carreteras","operator:short":"ABC","operator:type":"public","public_transport":"platform","shelter":"yes","tactile_paving":"no","wheelchair":"no","id":2418530998},"geometry":{"type":"Point","coordinates":[-66.1952478,-17.392992000000003]}},{"type":"Feature","properties":{"bench":"no","bin":"no","bus":"yes","departures_board":"no","highway":"bus_stop","lit":"no","name":"Piscina Victoria","operator":"Gobierno Autónomo Municipal de Cochabamba","pole":"yes","public_transport":"platform","shelter":"no","tactile_paving":"no","wheelchair":"no","id":2590032465},"geometry":{"type":"Point","coordinates":[-66.142891,-17.3748074]}},{"type":"Feature","properties":{"addr:city":"Cochabamba","bench":"no","bus":"yes","covered":"no","departures_board":"no","highway":"bus_stop","name":"Mercado Campesino","public_transport":"platform","shelter":"no","id":702512045},"geometry":{"type":"Point","coordinates":[-66.14288350000001,-17.4000965]}},{"type":"Feature","properties":{"bench":"no","bin":"no","bus":"yes","departures_board":"no","highway":"bus_stop","informal":"yes","kerb":"lowered","level":"0","lit":"no","name":"Libertador Simón Bolívar","public_transport":"platform","shelter":"no","tactile_paving":"no","wheelchair":"yes","id":10705911006},"geometry":{"type":"Point","coordinates":[-66.1628333,-17.3725944]}},{"type":"Feature","properties":{"bench":"yes","bin":"no","bus":"yes","departures_board":"no","highway":"bus_stop","level":"0","lit":"yes","name":"Demetrio Canelas","operator":"Gobierno Autónomo Municipal de Cochabamba","operator:short":"GAMC","operator:type":"government","public_transport":"platform","shelter":"yes","tactile_paving":"no","wheelchair":"no","id":12075820991},"geometry":{"type":"Point","coordinates":[-66.17616170000001,-17.3795733]}},{"type":"Feature","properties":{"bench":"no","bin":"no","bus":"yes","departures_board":"no","highway":"bus_stop","level":"0","lit":"no","name":"Phankuruma","public_transport":"platform","shelter":"no","tactile_paving":"no","wheelchair":"no","id":6182218508},"geometry":{"type":"Point","coordinates":[-66.3357069,-17.438907500000003]}}]}