{"type":"FeatureCollection","features":[{"type":"Feature","properties":{"check_date":"29/12/2025","from":"Avenida Tunel","name":"MiniBus 233: Avenida Tunel → Calle Manuel P. Laredo","network":"BO:CB:Cochabamba","on_demand":"yes","operator":"Sindicato mixto de autotransporte Sacaba","public_transport:version":"2","ref":"233","route":"bus","to":"Calle Manuel P. Laredo","type":"route","wheelchair":"no","id":11138764},"geometry":{"type":"LineString","coordinates":[[-66.0808341,-17.406347],[-66.0809171,-17.4058896],[-66.0809382,-17.4057733],[-66.0810364,-17.4052833],[-66.0812084,-17.4042807],[-66.0812358,-17.4041442],[-66.0799634,-17.4039545],[-66.0801675,-17.4028469],[-66.0803565,-17.4018998],[-66.0804101,-17.4016681],[-66.0804583,-17.4014777],[-66.0806003,-17.4007274],[-66.0806894,-17.4002018],[-66.080829,-17.3993443],[-66.0809435,-17.3987414],[-66.081073,-17.3982427],[-66.0812773,-17.397637],[-66.081407,-17.3972545],[-66.0816986,-17.3963944],[-66.0818722,-17.3958815],[-66.0820337,-17.3953684],[-66.0820538,-17.3952637],[-66.0820675,-17.3951555],[-66.0821041,-17.39485],[-66.0820936,-17.3946664],[-66.082027,-17.3941044],[-66.0820305,-17.3940286],[-66.0821465,-17.3938664],[-66.0824848,-17.3934718],[-66.0826136,-17.3932834],[-66.0826504,-17.3931746],[-66.0826568,-17.3930422],[-66.0825774,-17.3925726],[-66.0823682,-17.3911353],[-66.0822244,-17.3903029],[-66.0820859,-17.3894473],[-66.0813482,-17.3895983],[-66.0808946,-17.3896963],[-66.0803105,-17.3898149],[-66.080234,-17.3898303],[-66.079584,-17.3899732],[-66.0792634,-17.3900308],[-66.0780453,-17.3902691],[-66.0773656,-17.3904108],[-66.0770864,-17.3904761],[-66.0768163,-17.3905539],[-66.0766657,-17.3906048],[-66.0763239,-17.3906852],[-66.0762133,-17.3907068],[-66.0759061,-17.3907668],[-66.0758353,-17.3907806],[-66.0757194,-17.3908062],[-66.0756092,-17.3907949],[-66.0755475,-17.3907693],[-66.0754907,-17.3907102],[-66.0754825,-17.3906461],[-66.0755826,-17.3906245],[-66.0757982,-17.3905782],[-66.0758646,-17.3905643],[-66.076533,-17.3904238],[-66.0768302,-17.3903769],[-66.0770707,-17.3903531],[-66.0772479,-17.3903355],[-66.0774177,-17.3903076],[-66.0780455,-17.3901832],[-66.0802003,-17.3897314],[-66.0803046,-17.3897147],[-66.0820898,-17.3893414],[-66.0823607,-17.3892907],[-66.0830522,-17.3891565],[-66.0833489,-17.3890954],[-66.0837257,-17.3889837],[-66.0840269,-17.388896],[-66.0841533,-17.3888665],[-66.0844998,-17.3888],[-66.0846441,-17.3887723],[-66.0847114,-17.3887594],[-66.0848268,-17.3887348],[-66.0849636,-17.3887475],[-66.0850052,-17.388762],[-66.0850432,-17.3887876],[-66.0850814,-17.3888223],[-66.0851015,-17.3888805],[-66.0851071,-17.3889241],[-66.0850881,-17.3889888],[-66.0850543,-17.3890258],[-66.0850277,-17.389111],[-66.0850248,-17.3891712],[-66.0850238,-17.3891979],[-66.085198,-17.3907172],[-66.0853328,-17.3915871],[-66.0853952,-17.3919573],[-66.085562,-17.3928231],[-66.0861367,-17.3928157],[-66.0862684,-17.392814],[-66.0867688,-17.3928075],[-66.0871038,-17.3928032],[-66.0879028,-17.392793],[-66.0880077,-17.3927916],[-66.0880693,-17.3927908],[-66.0886512,-17.3927834],[-66.088794,-17.3927815],[-66.0890501,-17.3927782],[-66.0895694,-17.3927716],[-66.0901494,-17.3927608],[-66.0902745,-17.3927625],[-66.091247,-17.3927466],[-66.0928553,-17.3927293],[-66.0935026,-17.392721],[-66.0936444,-17.3926915],[-66.0944338,-17.3926928],[-66.095234,-17.3926644],[-66.0960138,-17.3926048],[-66.0967803,-17.3925319],[-66.097902,-17.3924808],[-66.0991904,-17.3924732],[-66.0993086,-17.3924673],[-66.0993862,-17.392452],[-66.1021143,-17.3917265],[-66.1036263,-17.3913327],[-66.1037274,-17.3913063],[-66.1051072,-17.3908977],[-66.105794,-17.3906365],[-66.1060711,-17.390493],[-66.1068198,-17.3898574],[-66.1070525,-17.3896858],[-66.1071904,-17.3896107],[-66.1073652,-17.3895561],[-66.1085089,-17.3893483],[-66.1090861,-17.3892373],[-66.1095415,-17.3891497],[-66.1107904,-17.3889095],[-66.1108596,-17.3888907],[-66.1119406,-17.3886173],[-66.1125009,-17.3884329],[-66.1130635,-17.3882339],[-66.1141567,-17.3875386],[-66.1151195,-17.3868968],[-66.1151797,-17.3868594],[-66.1152505,-17.3868127],[-66.1162442,-17.386153],[-66.1163301,-17.3860961],[-66.1164043,-17.3860471],[-66.1168672,-17.385753],[-66.1175577,-17.3852761],[-66.1176283,-17.3852239],[-66.11763,-17.3852073],[-66.1176353,-17.3851915],[-66.1176441,-17.3851772],[-66.1176559,-17.3851651],[-66.1176701,-17.3851557],[-66.1176862,-17.3851495],[-66.1176964,-17.3851474],[-66.1177829,-17.3850157],[-66.1180496,-17.3846268],[-66.1181053,-17.3845457],[-66.119051,-17.3831956],[-66.1192407,-17.3829301],[-66.1196199,-17.3824002],[-66.1196511,-17.3823542],[-66.1197411,-17.3822287],[-66.1201244,-17.3816792],[-66.1201376,-17.381657],[-66.1201483,-17.3816307],[-66.120154,-17.3816064],[-66.1201547,-17.3815824],[-66.1201496,-17.3815523],[-66.1201385,-17.3815167],[-66.1201251,-17.3814847],[-66.1201128,-17.3814608],[-66.1200839,-17.3814655],[-66.1200043,-17.3813848],[-66.1199861,-17.3813592],[-66.1199723,-17.381334],[-66.1199657,-17.3813129],[-66.1199599,-17.3812902],[-66.1199586,-17.3812655],[-66.119969,-17.3812178],[-66.119997,-17.3811668],[-66.1202601,-17.3810155],[-66.1208017,-17.3806715],[-66.1208417,-17.3806461],[-66.1216824,-17.3800861],[-66.1217698,-17.3800293],[-66.1218317,-17.3799878],[-66.1221658,-17.3797745],[-66.1224305,-17.3795986],[-66.1224694,-17.3795763],[-66.122742,-17.3793899],[-66.1236093,-17.3788174],[-66.1242133,-17.3784409],[-66.12471,-17.3781074],[-66.1253598,-17.3776556],[-66.1257746,-17.377356],[-66.1269581,-17.3765211],[-66.1270244,-17.376476],[-66.1271995,-17.3763545],[-66.1275504,-17.3761126],[-66.1279626,-17.3758313],[-66.1281352,-17.37571],[-66.1282882,-17.3756033],[-66.1288149,-17.3752302],[-66.1288741,-17.375188],[-66.128931,-17.3751503],[-66.1289543,-17.3751348],[-66.1289841,-17.3751153],[-66.1291394,-17.3750181],[-66.1292574,-17.3749494],[-66.1292821,-17.3749351],[-66.129327,-17.3749113],[-66.1294482,-17.3748504],[-66.1296174,-17.3747803],[-66.1298412,-17.3747014],[-66.1300549,-17.3746383],[-66.1302801,-17.37459],[-66.1305217,-17.3745502],[-66.1307689,-17.3745291],[-66.1313669,-17.3745232],[-66.1313916,-17.374523],[-66.1319101,-17.3745287],[-66.1321407,-17.3745275],[-66.132369,-17.3745257],[-66.1331657,-17.3745288],[-66.1332276,-17.374529],[-66.1336639,-17.3745303],[-66.1345247,-17.374534],[-66.1346749,-17.3745448],[-66.1348695,-17.3745687],[-66.1349714,-17.3745873],[-66.1350574,-17.3746031],[-66.1352388,-17.3746459],[-66.1354291,-17.3747002],[-66.1355865,-17.3747547],[-66.1357657,-17.3748287],[-66.1359602,-17.3749201],[-66.1361757,-17.3750446],[-66.1366294,-17.3753417],[-66.1371488,-17.3756925],[-66.1371768,-17.3757114],[-66.1375633,-17.3759426],[-66.137902,-17.3761238],[-66.1382558,-17.376282],[-66.138489,-17.3763838],[-66.1387412,-17.3764855],[-66.1389497,-17.3765576],[-66.1392113,-17.3766371],[-66.1396414,-17.3767716],[-66.1403943,-17.3769468],[-66.1408419,-17.3770223],[-66.1410415,-17.3770506],[-66.1411913,-17.3770792],[-66.1414646,-17.3771422],[-66.1420069,-17.3772685],[-66.1422247,-17.3773187],[-66.1422829,-17.3773512],[-66.1423113,-17.377371],[-66.1423373,-17.3773952],[-66.1423637,-17.3774238],[-66.1423853,-17.3774579],[-66.142406,-17.3774992],[-66.1424178,-17.3775385],[-66.1424231,-17.3775785],[-66.1424229,-17.3776065],[-66.142421,-17.3776344],[-66.1424051,-17.3777627],[-66.1423809,-17.3780515],[-66.1423777,-17.3782277],[-66.142358,-17.3784481],[-66.1423561,-17.3786003],[-66.1423592,-17.3786717],[-66.1423772,-17.3787495],[-66.1423857,-17.3787904],[-66.1424117,-17.378833],[-66.1424539,-17.3788802],[-66.1425271,-17.3789172],[-66.1427305,-17.3789834],[-66.1429971,-17.3790674],[-66.1430493,-17.3790829],[-66.1430678,-17.379109],[-66.1430837,-17.3791368],[-66.1430966,-17.3791658],[-66.1431016,-17.3791891],[-66.1431024,-17.3792129],[-66.1430994,-17.3792366],[-66.1430676,-17.3793728],[-66.1430688,-17.3794137],[-66.1430776,-17.379442],[-66.1430937,-17.379472],[-66.1432028,-17.3796329],[-66.1441031,-17.3809425],[-66.1441407,-17.3809972],[-66.1442263,-17.3811247],[-66.1443213,-17.3812621],[-66.1443343,-17.3812809],[-66.1443962,-17.3813704],[-66.1450554,-17.3823239],[-66.1451665,-17.3824805],[-66.145265,-17.3826252],[-66.1462641,-17.3840939],[-66.1462906,-17.3841328],[-66.1463324,-17.3841942],[-66.1463585,-17.3842326],[-66.147463,-17.385856],[-66.1475139,-17.3859308],[-66.1475669,-17.3860074],[-66.147678,-17.3861681],[-66.1477159,-17.3862228],[-66.148064,-17.3867233],[-66.1483646,-17.3871554],[-66.1484094,-17.3872198],[-66.1485012,-17.3873491],[-66.1485192,-17.3873745],[-66.1486427,-17.3875508],[-66.1488419,-17.3878325],[-66.14901,-17.38807],[-66.1491698,-17.3882995],[-66.1493366,-17.3885389],[-66.1493179,-17.3886449],[-66.149276,-17.3888535],[-66.1491994,-17.3892544],[-66.1491441,-17.3895439],[-66.1490107,-17.3902306],[-66.148919,-17.390703],[-66.1489091,-17.3907458],[-66.1488943,-17.3908244],[-66.1488864,-17.3908667],[-66.1487038,-17.3917663],[-66.1486906,-17.3918339],[-66.148651,-17.3919282],[-66.1486418,-17.3919718],[-66.1485877,-17.3922279],[-66.1485432,-17.392443],[-66.1485231,-17.3925402],[-66.1484738,-17.3927788],[-66.1484626,-17.3928329],[-66.147939,-17.3927435],[-66.1474334,-17.3926589],[-66.1473167,-17.3926404],[-66.1468937,-17.3925734],[-66.1468343,-17.3925626],[-66.146649,-17.3925276],[-66.1458099,-17.3923619],[-66.1453273,-17.392282],[-66.1451071,-17.3922456],[-66.1448295,-17.3921996],[-66.1445767,-17.3921581],[-66.1444097,-17.3921307],[-66.1443707,-17.3921243],[-66.1442415,-17.392103],[-66.1441346,-17.3920855],[-66.143713,-17.3920162],[-66.1436259,-17.3920019],[-66.1430857,-17.3919132],[-66.142807,-17.3918675],[-66.1427452,-17.3918573],[-66.1427214,-17.3919144],[-66.1423464,-17.3927549],[-66.1423273,-17.3927935],[-66.1419298,-17.3936747],[-66.1418779,-17.3937896],[-66.141893,-17.3937988],[-66.1419055,-17.393811],[-66.141917,-17.3938301],[-66.1419226,-17.3938534],[-66.1419205,-17.3938773],[-66.1419595,-17.3939217],[-66.1425597,-17.3946913],[-66.1429237,-17.3951433],[-66.1431094,-17.3953528],[-66.1432772,-17.3955556],[-66.1434016,-17.3956819],[-66.1437902,-17.3960495],[-66.1440656,-17.3962608],[-66.1443118,-17.3964434],[-66.1445746,-17.3966099],[-66.1448217,-17.3967514],[-66.1451356,-17.3969281],[-66.1453947,-17.3970572],[-66.1457425,-17.3972348],[-66.1467847,-17.3977645],[-66.1474569,-17.3981037],[-66.1476723,-17.3982059],[-66.1478288,-17.398264],[-66.1480011,-17.3983085],[-66.1481566,-17.3983362],[-66.1483155,-17.3983579],[-66.148511,-17.3983678],[-66.148558,-17.3983726],[-66.1499487,-17.3984764],[-66.1505885,-17.398518],[-66.1510902,-17.3984566],[-66.1519487,-17.3984139],[-66.1520104,-17.3984159],[-66.1520931,-17.3984305],[-66.1522191,-17.398466],[-66.1523644,-17.398521],[-66.1526616,-17.3986303],[-66.1527528,-17.3986605],[-66.1527737,-17.3986674],[-66.1531067,-17.3987465],[-66.1531945,-17.3987646],[-66.15417,-17.39898],[-66.1542283,-17.3989929],[-66.1542956,-17.3990088],[-66.1552473,-17.3992338],[-66.1553036,-17.3992471],[-66.1553477,-17.3992567],[-66.156378,-17.399481],[-66.1564374,-17.3994887],[-66.1564991,-17.3994953],[-66.1567559,-17.3994948],[-66.1569636,-17.399463],[-66.1571541,-17.3994401],[-66.1575712,-17.3993743],[-66.1576356,-17.3993655],[-66.157638,-17.3993118],[-66.1576443,-17.3992052],[-66.1576879,-17.3989051],[-66.1565799,-17.3986551],[-66.1564374,-17.3994887],[-66.1564225,-17.3995781],[-66.1561989,-17.4007931],[-66.1567358,-17.4008781],[-66.1573928,-17.4009738],[-66.1574786,-17.4009863],[-66.1575885,-17.4010023],[-66.1575752,-17.4011537],[-66.157522,-17.4015753],[-66.1574818,-17.4020121],[-66.1574693,-17.4021498],[-66.1574602,-17.4022501],[-66.1574143,-17.4026402],[-66.1573804,-17.4029274],[-66.1573057,-17.4034308],[-66.1571981,-17.4039846],[-66.1571744,-17.4040293],[-66.1571494,-17.4040811],[-66.1569751,-17.4051438],[-66.156929,-17.4053964],[-66.1567149,-17.4065683],[-66.1566752,-17.4068311],[-66.1566081,-17.4073735],[-66.1565791,-17.4075962],[-66.1565643,-17.407672],[-66.1565522,-17.4077489],[-66.1563919,-17.408892],[-66.1564986,-17.4095365],[-66.1565315,-17.4097021],[-66.1565518,-17.4097727],[-66.1567026,-17.4099988],[-66.1567559,-17.4101323],[-66.1568092,-17.4102167],[-66.1568837,-17.410479],[-66.15688,-17.4105169],[-66.1568561,-17.4105997],[-66.1568638,-17.4106283],[-66.156869,-17.4106472],[-66.1569174,-17.4108259],[-66.1569262,-17.4108774],[-66.1569326,-17.41091],[-66.1569354,-17.4109286],[-66.1569386,-17.4109476],[-66.1569456,-17.4109636],[-66.1569526,-17.4109796],[-66.1569673,-17.4110131],[-66.1569848,-17.4110404],[-66.1570022,-17.4110676],[-66.1570417,-17.4111222],[-66.1570794,-17.4111663],[-66.1571423,-17.41123],[-66.1573365,-17.4114047],[-66.1575192,-17.4115684],[-66.1576313,-17.4116577],[-66.1578284,-17.4117712],[-66.1580895,-17.4118811],[-66.1583986,-17.4119835],[-66.1585739,-17.4120653],[-66.15866,-17.4120908],[-66.1594257,-17.4126993],[-66.1594626,-17.4127178],[-66.1594935,-17.4127351],[-66.1595124,-17.4127409],[-66.1595416,-17.4127311],[-66.1595808,-17.4127277],[-66.1596116,-17.4127318],[-66.159633,-17.4127385],[-66.159653,-17.4127483],[-66.1596712,-17.4127609],[-66.1596871,-17.412776],[-66.1597084,-17.4128068],[-66.1597729,-17.4129333],[-66.1598239,-17.4129968],[-66.1598721,-17.4130547],[-66.1607022,-17.4136959],[-66.1615085,-17.4143315],[-66.1616711,-17.4144458],[-66.1617887,-17.4145078],[-66.1619089,-17.4145602],[-66.1620436,-17.4145979],[-66.1621718,-17.4146234],[-66.1622021,-17.4146284],[-66.1623906,-17.4146598],[-66.1624593,-17.4146521],[-66.1625265,-17.4146533],[-66.1626058,-17.4146657],[-66.1626819,-17.4146899],[-66.1627532,-17.4147253],[-66.1628177,-17.4147709],[-66.1628739,-17.4148256],[-66.1629204,-17.4148881],[-66.1629465,-17.4149354],[-66.1629669,-17.4149852],[-66.1629815,-17.4150369],[-66.1629909,-17.4150996],[-66.1629924,-17.4151402],[-66.1629848,-17.4152205],[-66.1629634,-17.4152985],[-66.1629287,-17.415372],[-66.1628818,-17.415439],[-66.1628239,-17.4154977],[-66.1627554,-17.4155474],[-66.1626818,-17.4155839],[-66.1626016,-17.415609],[-66.1625234,-17.4156207],[-66.1623206,-17.4157067],[-66.1621663,-17.4157663],[-66.162029,-17.4158433],[-66.1619207,-17.4159191],[-66.1618028,-17.4160163],[-66.1616767,-17.4161445],[-66.160809,-17.4171887],[-66.1605469,-17.4174966],[-66.1599958,-17.4181609],[-66.159821,-17.418361],[-66.1597317,-17.418473],[-66.1597441,-17.418531],[-66.1598348,-17.418993],[-66.1599651,-17.4197113],[-66.1600405,-17.4201201],[-66.1601058,-17.4204421],[-66.1601144,-17.4204845],[-66.1601776,-17.4208351],[-66.1602486,-17.4212141],[-66.1603031,-17.4213302],[-66.1603843,-17.4218735],[-66.1603856,-17.4219681],[-66.1603625,-17.4220639],[-66.1603015,-17.4221618],[-66.1602214,-17.4222627],[-66.1601573,-17.4223759],[-66.1601316,-17.4225136],[-66.1601248,-17.4227271]],"nodes":[7554585134,5430084325,2028828187,8399666589,1610493383,1610493204,1609200016,1609200089,1609200113,1609200033,8400342651,3562573507,4251839271,1609200271,8400342652,1609200254,1609200325,10102435932,1609200180,1609200143,1613896834,10102435922,2735650792,1609199982,4251839260,1609200129,4251839254,4251839250,4251839246,4251839243,4251839242,1609200014,1609200119,1609200001,5647827630,1609200141,5779625002,5779625006,5739405784,1609200044,2320007420,2894870494,4224950937,497167881,2320095629,497167883,2894872060,497167884,2894872092,12472745654,2894872097,4784971295,4784971296,4784971297,4784971298,2894872069,4784971294,2894872054,12472745657,2320007426,497167565,4224990396,2894872009,497167945,1609296391,1609199990,4938009626,1609200312,4251839205,497167946,3238982971,3238982963,3238981557,497167948,8486768377,8486768346,1609200055,4938009400,4938009401,4938009402,4938009403,4938009404,1609200071,3238981560,3238982964,3238982966,4251839185,4251839194,3238982972,1609296448,3238065181,5168410062,1609200157,5168410060,5739405613,5739405757,4251839238,3238983023,1609199960,5739405539,1613902001,2319580443,3238052843,3238057634,2319580440,8454769087,1609200035,11074350998,2319580441,1609200027,2319580442,2319580439,1609199959,7874304993,1609200047,11074354010,1609199996,9911189153,3301987254,11074350971,1609366057,3301987252,3941912006,3759896917,1609200088,1609200060,5595170030,4620215209,1609365975,3784907783,1609200025,5027942696,5027942697,1609366304,7555355038,1609200319,1609365741,4620212883,1609221066,4620212881,4620215192,1609221028,4620212879,1609199951,2857544429,4620212856,4620212855,8064696260,10830368557,4620212854,10830368554,10830368558,2857544427,4620212847,5095403874,2857544424,3784773639,2857544412,6618250898,4967266999,8064696273,1609200238,2398626867,11081598006,11081598005,11081598007,11081598008,2398626861,11081598009,11081592003,2398626850,8162958920,8162958919,8162958918,2398626842,2398626834,2398626828,8162958917,2398626816,1609200081,8162958911,8162958910,7033772018,1609200049,8162958914,497169501,497169504,1485097031,1485097020,1485097014,9366321723,3877506232,1044379733,9366321725,8455317281,1009167683,8455317287,3290785083,11074088806,8162958964,1008238435,9012647241,497170001,9364555678,12952456793,1008238205,12952456779,12952456795,1008238230,8455639761,9364555682,7070768690,497170007,1008238537,497170008,497170010,1008238793,9364556031,497169979,497169953,6818591873,3316224538,12565837684,9359800374,9359800375,497169954,497169957,1044379345,12565837681,1009166481,497169958,6331635756,1009167549,497169962,6331635762,1044379589,1044379213,7965603739,598266521,598266518,1044379730,1044379735,1796486751,7965587281,1796486753,6331635754,1796486765,1044378919,9049714571,8385091906,598266493,8385091908,8385091907,602989551,8385091909,8385091914,5298602495,8385091913,1795293284,1795293323,8385091911,8385091910,8385091912,1795293424,1795293286,1795293393,1796486808,1795293430,2391341448,2391341465,1795293437,1795293264,1795293299,1795293277,8385093431,1795293338,2391341613,1795293296,8379904343,11081763605,2391341643,8379904342,1795293405,2391341655,2391341667,1795293432,9890903488,1795293389,602989537,9890903489,8388301598,312425917,9584233890,3676912941,9584233886,10854297122,312425660,8390961546,9930862751,1807100710,2361168089,9930862749,6179473101,312425828,6179473096,11310743156,9031318855,9028209372,6179473247,9031318856,2141431944,6179473241,6179473238,9034180378,5353339454,11310645817,312425956,315096054,3201986227,11827172367,308306729,11827181890,2524491857,303214819,698492415,2524491860,2524491871,310256064,2892642950,11909190787,8686638951,8686638950,9852140997,3924761818,303215163,2296580941,3201986249,12153256567,8674788834,2089612819,360129540,3232582109,8978596850,3740735352,8978596851,8623738790,5096122271,303215031,2702743907,8661106030,303221553,3578038899,8620183423,8620183345,303221552,8620183347,8584400934,315134805,9886485075,2033335103,11072493727,2033335200,2033335257,11072493723,2033335311,2033335550,8619283530,8253508719,315031289,598789073,598789071,8253508706,315031292,315031293,315031294,8250070339,598789057,391727105,2033336773,702512026,315031513,315031514,315031515,315031516,315031517,8250061916,315031543,8004756950,1727306399,598789381,1727306395,2765190357,2765190359,9121680511,1727306396,8241198663,8238783261,8238783233,2765190377,8238783242,3269819960,12081159183,1727306400,12081159182,3674274541,1727306404,3674274542,12081159193,1727306401,2398944652,2398944653,11679558744,7767900404,4929965568,1727306403,2398944628,10044108858,310262704,310501000,1727306401,310502881,310502882,323978402,4929965587,310262504,648543481,8637329085,2577975115,2577975131,9090462298,648542366,9652874528,702511644,2577975282,2577975307,9090462294,648542369,648542365,9131177339,323972806,2763553535,702511613,2763553554,2763553563,8226219195,319762950,9131083908,4477790775,702721240,2576698538,13448698824,13448698823,3218389503,9653012720,2576698592,13448698821,13448698822,10892572063,10046249670,7902420007,10046249667,4477791070,10046445902,2576698674,1527822562,10046445903,10046406799,10046249653,10046406800,7947239539,10046406798,702721236,2716726766,702721233,702721232,707336838,702721231,12100035080,702721228,3303558644,9438085274,9438085262,2716726787,9438085260,2716726788,9438085273,2716726791,9438085272,2716726793,2716726797,2716726806,702721154,9438085222,497189303,497188705,1762869395,9203487809,497188924,5540948696,497188933,10752482122,497187811,11086439377,11086439378,6351767103,497187812,497187813,9203537851,1762869440,10752482126,497187815,9203487806,497187816,11086439375,11086439376,497187819,497187820,9203487800,1762869479,9203487801,3017385100,9203487802,11114802785,497187800,9203537840,9203487799,497188639,9203487798,1762869495,497188549,1638809217,1865112155,1866239317,4898988812,1497947914,4898988816,1865124246,1865124261,7767883930,7767883937,7767883935,7767891607,1865124209,1638809230,1638807806,1638809234,1638809237,1638809250,1638809252,1638809256,1638809258,1865124212]},"gtfs":{"agency_id":15,"route_id":61,"services":[{"service_id":"Mo-Su","startTime":"06:00","endTime":"22:00","trip_id":11138764}],"filteredStops":{"nodes":[7554585134,5430084325,2028828187,8399666589,1610493383,1610493204,1609200016,1609200089,1609200113,1609200033,8400342651,3562573507,4251839271,1609200271,8400342652,1609200254,1609200325,10102435932,1609200180,1609200143,1613896834,10102435922,2735650792,1609199982,4251839260,1609200129,4251839254,4251839250,4251839246,4251839243,4251839242,1609200014,1609200119,1609200001,5647827630,1609200141,5779625002,5779625006,5739405784,1609200044,2320007420,2894870494,4224950937,497167881,2320095629,497167883,2894872060,497167884,2894872092,12472745654,2894872097,4784971295,4784971296,4784971297,4784971298,2894872069,4784971294,2894872054,12472745657,2320007426,497167565,4224990396,2894872009,497167945,1609296391,1609199990,4938009626,1609200312,4251839205,497167946,3238982971,3238982963,3238981557,497167948,8486768377,8486768346,1609200055,4938009400,4938009401,4938009402,4938009403,4938009404,1609200071,3238981560,3238982964,3238982966,4251839185,4251839194,3238982972,1609296448,3238065181,5168410062,1609200157,5168410060,5739405613,5739405757,4251839238,3238983023,1609199960,5739405539,1613902001,2319580443,3238052843,3238057634,2319580440,8454769087,1609200035,11074350998,2319580441,1609200027,2319580442,2319580439,1609199959,7874304993,1609200047,11074354010,1609199996,9911189153,3301987254,11074350971,1609366057,3301987252,3941912006,3759896917,1609200088,1609200060,5595170030,4620215209,1609365975,3784907783,1609200025,5027942696,5027942697,1609366304,7555355038,1609200319,1609365741,4620212883,1609221066,4620212881,4620215192,1609221028,4620212879,1609199951,2857544429,4620212856,4620212855,8064696260,10830368557,4620212854,10830368554,10830368558,2857544427,4620212847,5095403874,2857544424,3784773639,2857544412,6618250898,4967266999,8064696273,1609200238,2398626867,11081598006,11081598005,11081598007,11081598008,2398626861,11081598009,11081592003,2398626850,8162958920,8162958919,8162958918,2398626842,2398626834,2398626828,8162958917,2398626816,1609200081,8162958911,8162958910,7033772018,1609200049,8162958914,497169501,497169504,1485097031,1485097020,1485097014,9366321723,3877506232,1044379733,9366321725,8455317281,1009167683,8455317287,3290785083,11074088806,8162958964,1008238435,9012647241,497170001,9364555678,12952456793,1008238205,12952456779,12952456795,1008238230,8455639761,9364555682,7070768690,497170007,1008238537,497170008,497170010,1008238793,9364556031,497169979,497169953,6818591873,3316224538,12565837684,9359800374,9359800375,497169954,497169957,1044379345,12565837681,1009166481,497169958,6331635756,1009167549,497169962,6331635762,1044379589,1044379213,7965603739,598266521,598266518,1044379730,1044379735,1796486751,7965587281,1796486753,6331635754,1796486765,1044378919,9049714571,8385091906,598266493,8385091908,8385091907,602989551,8385091909,8385091914,5298602495,8385091913,1795293284,1795293323,8385091911,8385091910,8385091912,1795293424,1795293286,1795293393,1796486808,1795293430,2391341448,2391341465,1795293437,1795293264,1795293299,1795293277,8385093431,1795293338,2391341613,1795293296,8379904343,11081763605,2391341643,8379904342,1795293405,2391341655,2391341667,1795293432,9890903488,1795293389,602989537,9890903489,8388301598,312425917,9584233890,3676912941,9584233886,10854297122,312425660,8390961546,9930862751,1807100710,2361168089,9930862749,6179473101,312425828,6179473096,11310743156,9031318855,9028209372,6179473247,9031318856,2141431944,6179473241,6179473238,9034180378,5353339454,11310645817,312425956,315096054,3201986227,11827172367,308306729,11827181890,2524491857,303214819,698492415,2524491860,2524491871,310256064,2892642950,11909190787,8686638951,8686638950,9852140997,3924761818,303215163,2296580941,3201986249,12153256567,8674788834,2089612819,360129540,3232582109,8978596850,3740735352,8978596851,8623738790,5096122271,303215031,2702743907,8661106030,303221553,3578038899,8620183423,8620183345,303221552,8620183347,8584400934,315134805,9886485075,2033335103,11072493727,2033335200,2033335257,11072493723,2033335311,2033335550,8619283530,8253508719,315031289,598789073,598789071,8253508706,315031292,315031293,315031294,8250070339,598789057,391727105,2033336773,702512026,315031513,315031514,315031515,315031516,315031517,8250061916,315031543,8004756950,1727306399,598789381,1727306395,2765190357,2765190359,9121680511,1727306396,8241198663,8238783261,8238783233,2765190377,8238783242,3269819960,12081159183,1727306400,12081159182,3674274541,1727306404,3674274542,12081159193,1727306401,2398944652,2398944653,11679558744,7767900404,4929965568,1727306403,2398944628,10044108858,310262704,310501000,1727306401,310502881,310502882,323978402,4929965587,310262504,648543481,8637329085,2577975115,2577975131,9090462298,648542366,9652874528,702511644,2577975282,2577975307,9090462294,648542369,648542365,9131177339,323972806,2763553535,702511613,2763553554,2763553563,8226219195,319762950,9131083908,4477790775,702721240,2576698538,13448698824,13448698823,3218389503,9653012720,2576698592,13448698821,13448698822,10892572063,10046249670,7902420007,10046249667,4477791070,10046445902,2576698674,1527822562,10046445903,10046406799,10046249653,10046406800,7947239539,10046406798,702721236,2716726766,702721233,702721232,707336838,702721231,12100035080,702721228,3303558644,9438085274,9438085262,2716726787,9438085260,2716726788,9438085273,2716726791,9438085272,2716726793,2716726797,2716726806,702721154,9438085222,497189303,497188705,1762869395,9203487809,497188924,5540948696,497188933,10752482122,497187811,11086439377,11086439378,6351767103,497187812,497187813,9203537851,1762869440,10752482126,497187815,9203487806,497187816,11086439375,11086439376,497187819,497187820,9203487800,1762869479,9203487801,3017385100,9203487802,11114802785,497187800,9203537840,9203487799,497188639,9203487798,1762869495,497188549,1638809217,1865112155,1866239317,4898988812,1497947914,4898988816,1865124246,1865124261,7767883930,7767883937,7767883935,7767891607,1865124209,1638809230,1638807806,1638809234,1638809237,1638809250,1638809252,1638809256,1638809258,1865124212],"coordinates":[[-66.0808341,-17.406347],[-66.0809171,-17.4058896],[-66.0809382,-17.4057733],[-66.0810364,-17.4052833],[-66.0812084,-17.4042807],[-66.0812358,-17.4041442],[-66.0799634,-17.4039545],[-66.0801675,-17.4028469],[-66.0803565,-17.4018998],[-66.0804101,-17.4016681],[-66.0804583,-17.4014777],[-66.0806003,-17.4007274],[-66.0806894,-17.4002018],[-66.080829,-17.3993443],[-66.0809435,-17.3987414],[-66.081073,-17.3982427],[-66.0812773,-17.397637],[-66.081407,-17.3972545],[-66.0816986,-17.3963944],[-66.0818722,-17.3958815],[-66.0820337,-17.3953684],[-66.0820538,-17.3952637],[-66.0820675,-17.3951555],[-66.0821041,-17.39485],[-66.0820936,-17.3946664],[-66.082027,-17.3941044],[-66.0820305,-17.3940286],[-66.0821465,-17.3938664],[-66.0824848,-17.3934718],[-66.0826136,-17.3932834],[-66.0826504,-17.3931746],[-66.0826568,-17.3930422],[-66.0825774,-17.3925726],[-66.0823682,-17.3911353],[-66.0822244,-17.3903029],[-66.0820859,-17.3894473],[-66.0813482,-17.3895983],[-66.0808946,-17.3896963],[-66.0803105,-17.3898149],[-66.080234,-17.3898303],[-66.079584,-17.3899732],[-66.0792634,-17.3900308],[-66.0780453,-17.3902691],[-66.0773656,-17.3904108],[-66.0770864,-17.3904761],[-66.0768163,-17.3905539],[-66.0766657,-17.3906048],[-66.0763239,-17.3906852],[-66.0762133,-17.3907068],[-66.0759061,-17.3907668],[-66.0758353,-17.3907806],[-66.0757194,-17.3908062],[-66.0756092,-17.3907949],[-66.0755475,-17.3907693],[-66.0754907,-17.3907102],[-66.0754825,-17.3906461],[-66.0755826,-17.3906245],[-66.0757982,-17.3905782],[-66.0758646,-17.3905643],[-66.076533,-17.3904238],[-66.0768302,-17.3903769],[-66.0770707,-17.3903531],[-66.0772479,-17.3903355],[-66.0774177,-17.3903076],[-66.0780455,-17.3901832],[-66.0802003,-17.3897314],[-66.0803046,-17.3897147],[-66.0820898,-17.3893414],[-66.0823607,-17.3892907],[-66.0830522,-17.3891565],[-66.0833489,-17.3890954],[-66.0837257,-17.3889837],[-66.0840269,-17.388896],[-66.0841533,-17.3888665],[-66.0844998,-17.3888],[-66.0846441,-17.3887723],[-66.0847114,-17.3887594],[-66.0848268,-17.3887348],[-66.0849636,-17.3887475],[-66.0850052,-17.388762],[-66.0850432,-17.3887876],[-66.0850814,-17.3888223],[-66.0851015,-17.3888805],[-66.0851071,-17.3889241],[-66.0850881,-17.3889888],[-66.0850543,-17.3890258],[-66.0850277,-17.389111],[-66.0850248,-17.3891712],[-66.0850238,-17.3891979],[-66.085198,-17.3907172],[-66.0853328,-17.3915871],[-66.0853952,-17.3919573],[-66.085562,-17.3928231],[-66.0861367,-17.3928157],[-66.0862684,-17.392814],[-66.0867688,-17.3928075],[-66.0871038,-17.3928032],[-66.0879028,-17.392793],[-66.0880077,-17.3927916],[-66.0880693,-17.3927908],[-66.0886512,-17.3927834],[-66.088794,-17.3927815],[-66.0890501,-17.3927782],[-66.0895694,-17.3927716],[-66.0901494,-17.3927608],[-66.0902745,-17.3927625],[-66.091247,-17.3927466],[-66.0928553,-17.3927293],[-66.0935026,-17.392721],[-66.0936444,-17.3926915],[-66.0944338,-17.3926928],[-66.095234,-17.3926644],[-66.0960138,-17.3926048],[-66.0967803,-17.3925319],[-66.097902,-17.3924808],[-66.0991904,-17.3924732],[-66.0993086,-17.3924673],[-66.0993862,-17.392452],[-66.1021143,-17.3917265],[-66.1036263,-17.3913327],[-66.1037274,-17.3913063],[-66.1051072,-17.3908977],[-66.105794,-17.3906365],[-66.1060711,-17.390493],[-66.1068198,-17.3898574],[-66.1070525,-17.3896858],[-66.1071904,-17.3896107],[-66.1073652,-17.3895561],[-66.1085089,-17.3893483],[-66.1090861,-17.3892373],[-66.1095415,-17.3891497],[-66.1107904,-17.3889095],[-66.1108596,-17.3888907],[-66.1119406,-17.3886173],[-66.1125009,-17.3884329],[-66.1130635,-17.3882339],[-66.1141567,-17.3875386],[-66.1151195,-17.3868968],[-66.1151797,-17.3868594],[-66.1152505,-17.3868127],[-66.1162442,-17.386153],[-66.1163301,-17.3860961],[-66.1164043,-17.3860471],[-66.1168672,-17.385753],[-66.1175577,-17.3852761],[-66.1176283,-17.3852239],[-66.11763,-17.3852073],[-66.1176353,-17.3851915],[-66.1176441,-17.3851772],[-66.1176559,-17.3851651],[-66.1176701,-17.3851557],[-66.1176862,-17.3851495],[-66.1176964,-17.3851474],[-66.1177829,-17.3850157],[-66.1180496,-17.3846268],[-66.1181053,-17.3845457],[-66.119051,-17.3831956],[-66.1192407,-17.3829301],[-66.1196199,-17.3824002],[-66.1196511,-17.3823542],[-66.1197411,-17.3822287],[-66.1201244,-17.3816792],[-66.1201376,-17.381657],[-66.1201483,-17.3816307],[-66.120154,-17.3816064],[-66.1201547,-17.3815824],[-66.1201496,-17.3815523],[-66.1201385,-17.3815167],[-66.1201251,-17.3814847],[-66.1201128,-17.3814608],[-66.1200839,-17.3814655],[-66.1200043,-17.3813848],[-66.1199861,-17.3813592],[-66.1199723,-17.381334],[-66.1199657,-17.3813129],[-66.1199599,-17.3812902],[-66.1199586,-17.3812655],[-66.119969,-17.3812178],[-66.119997,-17.3811668],[-66.1202601,-17.3810155],[-66.1208017,-17.3806715],[-66.1208417,-17.3806461],[-66.1216824,-17.3800861],[-66.1217698,-17.3800293],[-66.1218317,-17.3799878],[-66.1221658,-17.3797745],[-66.1224305,-17.3795986],[-66.1224694,-17.3795763],[-66.122742,-17.3793899],[-66.1236093,-17.3788174],[-66.1242133,-17.3784409],[-66.12471,-17.3781074],[-66.1253598,-17.3776556],[-66.1257746,-17.377356],[-66.1269581,-17.3765211],[-66.1270244,-17.376476],[-66.1271995,-17.3763545],[-66.1275504,-17.3761126],[-66.1279626,-17.3758313],[-66.1281352,-17.37571],[-66.1282882,-17.3756033],[-66.1288149,-17.3752302],[-66.1288741,-17.375188],[-66.128931,-17.3751503],[-66.1289543,-17.3751348],[-66.1289841,-17.3751153],[-66.1291394,-17.3750181],[-66.1292574,-17.3749494],[-66.1292821,-17.3749351],[-66.129327,-17.3749113],[-66.1294482,-17.3748504],[-66.1296174,-17.3747803],[-66.1298412,-17.3747014],[-66.1300549,-17.3746383],[-66.1302801,-17.37459],[-66.1305217,-17.3745502],[-66.1307689,-17.3745291],[-66.1313669,-17.3745232],[-66.1313916,-17.374523],[-66.1319101,-17.3745287],[-66.1321407,-17.3745275],[-66.132369,-17.3745257],[-66.1331657,-17.3745288],[-66.1332276,-17.374529],[-66.1336639,-17.3745303],[-66.1345247,-17.374534],[-66.1346749,-17.3745448],[-66.1348695,-17.3745687],[-66.1349714,-17.3745873],[-66.1350574,-17.3746031],[-66.1352388,-17.3746459],[-66.1354291,-17.3747002],[-66.1355865,-17.3747547],[-66.1357657,-17.3748287],[-66.1359602,-17.3749201],[-66.1361757,-17.3750446],[-66.1366294,-17.3753417],[-66.1371488,-17.3756925],[-66.1371768,-17.3757114],[-66.1375633,-17.3759426],[-66.137902,-17.3761238],[-66.1382558,-17.376282],[-66.138489,-17.3763838],[-66.1387412,-17.3764855],[-66.1389497,-17.3765576],[-66.1392113,-17.3766371],[-66.1396414,-17.3767716],[-66.1403943,-17.3769468],[-66.1408419,-17.3770223],[-66.1410415,-17.3770506],[-66.1411913,-17.3770792],[-66.1414646,-17.3771422],[-66.1420069,-17.3772685],[-66.1422247,-17.3773187],[-66.1422829,-17.3773512],[-66.1423113,-17.377371],[-66.1423373,-17.3773952],[-66.1423637,-17.3774238],[-66.1423853,-17.3774579],[-66.142406,-17.3774992],[-66.1424178,-17.3775385],[-66.1424231,-17.3775785],[-66.1424229,-17.3776065],[-66.142421,-17.3776344],[-66.1424051,-17.3777627],[-66.1423809,-17.3780515],[-66.1423777,-17.3782277],[-66.142358,-17.3784481],[-66.1423561,-17.3786003],[-66.1423592,-17.3786717],[-66.1423772,-17.3787495],[-66.1423857,-17.3787904],[-66.1424117,-17.378833],[-66.1424539,-17.3788802],[-66.1425271,-17.3789172],[-66.1427305,-17.3789834],[-66.1429971,-17.3790674],[-66.1430493,-17.3790829],[-66.1430678,-17.379109],[-66.1430837,-17.3791368],[-66.1430966,-17.3791658],[-66.1431016,-17.3791891],[-66.1431024,-17.3792129],[-66.1430994,-17.3792366],[-66.1430676,-17.3793728],[-66.1430688,-17.3794137],[-66.1430776,-17.379442],[-66.1430937,-17.379472],[-66.1432028,-17.3796329],[-66.1441031,-17.3809425],[-66.1441407,-17.3809972],[-66.1442263,-17.3811247],[-66.1443213,-17.3812621],[-66.1443343,-17.3812809],[-66.1443962,-17.3813704],[-66.1450554,-17.3823239],[-66.1451665,-17.3824805],[-66.145265,-17.3826252],[-66.1462641,-17.3840939],[-66.1462906,-17.3841328],[-66.1463324,-17.3841942],[-66.1463585,-17.3842326],[-66.147463,-17.385856],[-66.1475139,-17.3859308],[-66.1475669,-17.3860074],[-66.147678,-17.3861681],[-66.1477159,-17.3862228],[-66.148064,-17.3867233],[-66.1483646,-17.3871554],[-66.1484094,-17.3872198],[-66.1485012,-17.3873491],[-66.1485192,-17.3873745],[-66.1486427,-17.3875508],[-66.1488419,-17.3878325],[-66.14901,-17.38807],[-66.1491698,-17.3882995],[-66.1493366,-17.3885389],[-66.1493179,-17.3886449],[-66.149276,-17.3888535],[-66.1491994,-17.3892544],[-66.1491441,-17.3895439],[-66.1490107,-17.3902306],[-66.148919,-17.390703],[-66.1489091,-17.3907458],[-66.1488943,-17.3908244],[-66.1488864,-17.3908667],[-66.1487038,-17.3917663],[-66.1486906,-17.3918339],[-66.148651,-17.3919282],[-66.1486418,-17.3919718],[-66.1485877,-17.3922279],[-66.1485432,-17.392443],[-66.1485231,-17.3925402],[-66.1484738,-17.3927788],[-66.1484626,-17.3928329],[-66.147939,-17.3927435],[-66.1474334,-17.3926589],[-66.1473167,-17.3926404],[-66.1468937,-17.3925734],[-66.1468343,-17.3925626],[-66.146649,-17.3925276],[-66.1458099,-17.3923619],[-66.1453273,-17.392282],[-66.1451071,-17.3922456],[-66.1448295,-17.3921996],[-66.1445767,-17.3921581],[-66.1444097,-17.3921307],[-66.1443707,-17.3921243],[-66.1442415,-17.392103],[-66.1441346,-17.3920855],[-66.143713,-17.3920162],[-66.1436259,-17.3920019],[-66.1430857,-17.3919132],[-66.142807,-17.3918675],[-66.1427452,-17.3918573],[-66.1427214,-17.3919144],[-66.1423464,-17.3927549],[-66.1423273,-17.3927935],[-66.1419298,-17.3936747],[-66.1418779,-17.3937896],[-66.141893,-17.3937988],[-66.1419055,-17.393811],[-66.141917,-17.3938301],[-66.1419226,-17.3938534],[-66.1419205,-17.3938773],[-66.1419595,-17.3939217],[-66.1425597,-17.3946913],[-66.1429237,-17.3951433],[-66.1431094,-17.3953528],[-66.1432772,-17.3955556],[-66.1434016,-17.3956819],[-66.1437902,-17.3960495],[-66.1440656,-17.3962608],[-66.1443118,-17.3964434],[-66.1445746,-17.3966099],[-66.1448217,-17.3967514],[-66.1451356,-17.3969281],[-66.1453947,-17.3970572],[-66.1457425,-17.3972348],[-66.1467847,-17.3977645],[-66.1474569,-17.3981037],[-66.1476723,-17.3982059],[-66.1478288,-17.398264],[-66.1480011,-17.3983085],[-66.1481566,-17.3983362],[-66.1483155,-17.3983579],[-66.148511,-17.3983678],[-66.148558,-17.3983726],[-66.1499487,-17.3984764],[-66.1505885,-17.398518],[-66.1510902,-17.3984566],[-66.1519487,-17.3984139],[-66.1520104,-17.3984159],[-66.1520931,-17.3984305],[-66.1522191,-17.398466],[-66.1523644,-17.398521],[-66.1526616,-17.3986303],[-66.1527528,-17.3986605],[-66.1527737,-17.3986674],[-66.1531067,-17.3987465],[-66.1531945,-17.3987646],[-66.15417,-17.39898],[-66.1542283,-17.3989929],[-66.1542956,-17.3990088],[-66.1552473,-17.3992338],[-66.1553036,-17.3992471],[-66.1553477,-17.3992567],[-66.156378,-17.399481],[-66.1564374,-17.3994887],[-66.1564991,-17.3994953],[-66.1567559,-17.3994948],[-66.1569636,-17.399463],[-66.1571541,-17.3994401],[-66.1575712,-17.3993743],[-66.1576356,-17.3993655],[-66.157638,-17.3993118],[-66.1576443,-17.3992052],[-66.1576879,-17.3989051],[-66.1565799,-17.3986551],[-66.1564374,-17.3994887],[-66.1564225,-17.3995781],[-66.1561989,-17.4007931],[-66.1567358,-17.4008781],[-66.1573928,-17.4009738],[-66.1574786,-17.4009863],[-66.1575885,-17.4010023],[-66.1575752,-17.4011537],[-66.157522,-17.4015753],[-66.1574818,-17.4020121],[-66.1574693,-17.4021498],[-66.1574602,-17.4022501],[-66.1574143,-17.4026402],[-66.1573804,-17.4029274],[-66.1573057,-17.4034308],[-66.1571981,-17.4039846],[-66.1571744,-17.4040293],[-66.1571494,-17.4040811],[-66.1569751,-17.4051438],[-66.156929,-17.4053964],[-66.1567149,-17.4065683],[-66.1566752,-17.4068311],[-66.1566081,-17.4073735],[-66.1565791,-17.4075962],[-66.1565643,-17.407672],[-66.1565522,-17.4077489],[-66.1563919,-17.408892],[-66.1564986,-17.4095365],[-66.1565315,-17.4097021],[-66.1565518,-17.4097727],[-66.1567026,-17.4099988],[-66.1567559,-17.4101323],[-66.1568092,-17.4102167],[-66.1568837,-17.410479],[-66.15688,-17.4105169],[-66.1568561,-17.4105997],[-66.1568638,-17.4106283],[-66.156869,-17.4106472],[-66.1569174,-17.4108259],[-66.1569262,-17.4108774],[-66.1569326,-17.41091],[-66.1569354,-17.4109286],[-66.1569386,-17.4109476],[-66.1569456,-17.4109636],[-66.1569526,-17.4109796],[-66.1569673,-17.4110131],[-66.1569848,-17.4110404],[-66.1570022,-17.4110676],[-66.1570417,-17.4111222],[-66.1570794,-17.4111663],[-66.1571423,-17.41123],[-66.1573365,-17.4114047],[-66.1575192,-17.4115684],[-66.1576313,-17.4116577],[-66.1578284,-17.4117712],[-66.1580895,-17.4118811],[-66.1583986,-17.4119835],[-66.1585739,-17.4120653],[-66.15866,-17.4120908],[-66.1594257,-17.4126993],[-66.1594626,-17.4127178],[-66.1594935,-17.4127351],[-66.1595124,-17.4127409],[-66.1595416,-17.4127311],[-66.1595808,-17.4127277],[-66.1596116,-17.4127318],[-66.159633,-17.4127385],[-66.159653,-17.4127483],[-66.1596712,-17.4127609],[-66.1596871,-17.412776],[-66.1597084,-17.4128068],[-66.1597729,-17.4129333],[-66.1598239,-17.4129968],[-66.1598721,-17.4130547],[-66.1607022,-17.4136959],[-66.1615085,-17.4143315],[-66.1616711,-17.4144458],[-66.1617887,-17.4145078],[-66.1619089,-17.4145602],[-66.1620436,-17.4145979],[-66.1621718,-17.4146234],[-66.1622021,-17.4146284],[-66.1623906,-17.4146598],[-66.1624593,-17.4146521],[-66.1625265,-17.4146533],[-66.1626058,-17.4146657],[-66.1626819,-17.4146899],[-66.1627532,-17.4147253],[-66.1628177,-17.4147709],[-66.1628739,-17.4148256],[-66.1629204,-17.4148881],[-66.1629465,-17.4149354],[-66.1629669,-17.4149852],[-66.1629815,-17.4150369],[-66.1629909,-17.4150996],[-66.1629924,-17.4151402],[-66.1629848,-17.4152205],[-66.1629634,-17.4152985],[-66.1629287,-17.415372],[-66.1628818,-17.415439],[-66.1628239,-17.4154977],[-66.1627554,-17.4155474],[-66.1626818,-17.4155839],[-66.1626016,-17.415609],[-66.1625234,-17.4156207],[-66.1623206,-17.4157067],[-66.1621663,-17.4157663],[-66.162029,-17.4158433],[-66.1619207,-17.4159191],[-66.1618028,-17.4160163],[-66.1616767,-17.4161445],[-66.160809,-17.4171887],[-66.1605469,-17.4174966],[-66.1599958,-17.4181609],[-66.159821,-17.418361],[-66.1597317,-17.418473],[-66.1597441,-17.418531],[-66.1598348,-17.418993],[-66.1599651,-17.4197113],[-66.1600405,-17.4201201],[-66.1601058,-17.4204421],[-66.1601144,-17.4204845],[-66.1601776,-17.4208351],[-66.1602486,-17.4212141],[-66.1603031,-17.4213302],[-66.1603843,-17.4218735],[-66.1603856,-17.4219681],[-66.1603625,-17.4220639],[-66.1603015,-17.4221618],[-66.1602214,-17.4222627],[-66.1601573,-17.4223759],[-66.1601316,-17.4225136],[-66.1601248,-17.4227271]]}}}]}