{"type":"FeatureCollection","features":[{"type":"Feature","properties":{"check_date":"29/12/2025","from":"Tutimayo","name":"MiniBus 241: Tutimayo → Avenida Pedro deToledo","network":"BO:CB:Cochabamba","on_demand":"yes","operator":"Sindicato mixto de autotransporte Sacaba","public_transport:version":"2","ref":"241","route":"bus","to":"Avenida Pedro deToledo","type":"route","wheelchair":"no","id":11140123},"geometry":{"type":"LineString","coordinates":[[-65.95005130000001,-17.415785900000003],[-65.95151270000001,-17.415494000000002],[-65.95245240000001,-17.415322800000002],[-65.9526721,-17.4153293],[-65.954762,-17.4150126],[-65.95492560000001,-17.4149494],[-65.9546936,-17.4160079],[-65.95469170000001,-17.4161302],[-65.9551028,-17.4160334],[-65.9553748,-17.4160416],[-65.95662100000001,-17.4162323],[-65.9568637,-17.4162624],[-65.95725850000001,-17.416311500000003],[-65.9574903,-17.416311500000003],[-65.9576981,-17.416249200000003],[-65.9577907,-17.4162214],[-65.95800530000001,-17.4162378],[-65.9584087,-17.416377],[-65.9587822,-17.416562000000003],[-65.959885,-17.415787400000003],[-65.96063170000001,-17.415263200000002],[-65.9608958,-17.4150193],[-65.96116380000001,-17.4147718],[-65.96155870000001,-17.4143624],[-65.96243410000001,-17.4130766],[-65.9627775,-17.4126753],[-65.96317230000001,-17.4123559],[-65.9635757,-17.4121266],[-65.96440820000001,-17.411749800000003],[-65.9648116,-17.4114714],[-65.9655326,-17.410799800000003],[-65.9659189,-17.4105132],[-65.96623790000001,-17.4103333],[-65.96629650000001,-17.410300200000002],[-65.9672063,-17.4099317],[-65.96762340000001,-17.4097365],[-65.9681848,-17.4094075],[-65.96862250000001,-17.409055400000003],[-65.9687547,-17.4089187],[-65.9690345,-17.4086295],[-65.96934350000001,-17.4081954],[-65.9698546,-17.4073834],[-65.9704435,-17.4063595],[-65.9707439,-17.4058937],[-65.97099580000001,-17.4055603],[-65.97140130000001,-17.405127200000003],[-65.9716614,-17.4048871],[-65.97186690000001,-17.404744400000002],[-65.9720101,-17.404638100000003],[-65.9723567,-17.4044095],[-65.9726912,-17.4042147],[-65.9729379,-17.4040816],[-65.97326100000001,-17.403957600000002],[-65.97337080000001,-17.4039214],[-65.9738978,-17.403755200000003],[-65.97444660000001,-17.403648500000003],[-65.9746922,-17.403619300000003],[-65.9747629,-17.4036109],[-65.97513860000001,-17.403595900000003],[-65.9755531,-17.403601000000002],[-65.9759734,-17.4036301],[-65.97634450000001,-17.4037009],[-65.976635,-17.403768300000003],[-65.97686820000001,-17.4038465],[-65.9772782,-17.4039882],[-65.9785892,-17.404485],[-65.97898520000001,-17.4046214],[-65.97910270000001,-17.404661800000003],[-65.9793812,-17.4047577],[-65.97967680000001,-17.4048692],[-65.97999610000001,-17.404986700000002],[-65.9803856,-17.4050589],[-65.98064400000001,-17.405130500000002],[-65.9809577,-17.405243900000002],[-65.9811346,-17.405307500000003],[-65.9816401,-17.4054964],[-65.9819045,-17.405601],[-65.98203450000001,-17.4056602],[-65.98250540000001,-17.405851700000003],[-65.9827173,-17.4059296],[-65.9840135,-17.406405900000003],[-65.985194,-17.406839700000003],[-65.98623070000001,-17.407199600000002],[-65.98685900000001,-17.4073755],[-65.98710270000001,-17.407442900000003],[-65.9876203,-17.4075653],[-65.9884025,-17.407725900000003],[-65.98912390000001,-17.407833500000002],[-65.9898301,-17.4079111],[-65.9901669,-17.4079395],[-65.9908108,-17.4079939],[-65.9913782,-17.4080042],[-65.99165330000001,-17.4080058],[-65.99227350000001,-17.407993400000002],[-65.99272810000001,-17.407964500000002],[-65.99286120000001,-17.4079558],[-65.993758,-17.4078717],[-65.99521270000001,-17.407685800000003],[-65.9966662,-17.4074978],[-65.99707910000001,-17.407453800000003],[-65.99904620000001,-17.407166800000002],[-65.99998160000001,-17.406958600000003],[-66.0002055,-17.406903800000002],[-66.00151650000001,-17.406582800000002],[-66.0046456,-17.405831600000003],[-66.00528050000001,-17.4057542],[-66.00558640000001,-17.4057262],[-66.0059932,-17.4057324],[-66.0064868,-17.405764100000003],[-66.0076145,-17.405853800000003],[-66.0082897,-17.4059065],[-66.00856440000001,-17.405919500000003],[-66.0092508,-17.405928600000003],[-66.0097551,-17.405921600000003],[-66.0102143,-17.4058998],[-66.01061820000001,-17.405877],[-66.0110514,-17.40583],[-66.01157620000001,-17.4057643],[-66.0121723,-17.405683800000002],[-66.01245800000001,-17.4056369],[-66.01383890000001,-17.4054091],[-66.01546490000001,-17.405148],[-66.0158646,-17.4050838],[-66.01617610000001,-17.405035400000003],[-66.01913540000001,-17.404577300000003],[-66.01951070000001,-17.4045144],[-66.02148860000001,-17.404194200000003],[-66.0225927,-17.4040184],[-66.02340620000001,-17.403890500000003],[-66.0235098,-17.403872900000003],[-66.02381100000001,-17.4038244],[-66.0244868,-17.4037261],[-66.0255047,-17.403565],[-66.0271766,-17.403292500000003],[-66.0287193,-17.4030513],[-66.03003190000001,-17.402837100000003],[-66.0304445,-17.4027616],[-66.03051310000001,-17.4027478],[-66.0306893,-17.4027245],[-66.03213980000001,-17.4025004],[-66.0322986,-17.402470800000003],[-66.03253450000001,-17.4024283],[-66.03280720000001,-17.4023651],[-66.0333054,-17.402235700000002],[-66.0338672,-17.402045],[-66.03440230000001,-17.401826600000003],[-66.0352043,-17.401495800000003],[-66.0358199,-17.401242500000002],[-66.03616600000001,-17.401100000000003],[-66.03693840000001,-17.4007806],[-66.03721700000001,-17.400659],[-66.0377667,-17.4004191],[-66.03786190000001,-17.4003775],[-66.037852,-17.4003282],[-66.03787000000001,-17.400277900000003],[-66.0379384,-17.4002416],[-66.0380118,-17.400254500000003],[-66.0380382,-17.400273000000002],[-66.03805750000001,-17.4002984],[-66.0381107,-17.4003985],[-66.0381064,-17.4004383],[-66.03809500000001,-17.400471200000002],[-66.0380827,-17.4004863],[-66.03860270000001,-17.401477800000002],[-66.03852970000001,-17.4015115],[-66.03825590000001,-17.401637700000002],[-66.0376008,-17.4019397],[-66.03797390000001,-17.402621800000002],[-66.03806990000001,-17.40275],[-66.0383901,-17.403379100000002],[-66.0386373,-17.403978000000002],[-66.0390364,-17.404828300000002],[-66.0392731,-17.405351600000003],[-66.0396628,-17.405222900000002],[-66.0403891,-17.405010800000003],[-66.0409729,-17.404843600000003],[-66.04153860000001,-17.404705900000003],[-66.04200180000001,-17.4045729],[-66.0431202,-17.4042025],[-66.0435039,-17.404059],[-66.04306650000001,-17.403027],[-66.04284990000001,-17.4025076],[-66.0444234,-17.401918300000002],[-66.0440542,-17.401112400000002],[-66.0436909,-17.4003586],[-66.04368290000001,-17.400335400000003],[-66.0436676,-17.4002912],[-66.0435588,-17.399996100000003],[-66.0435341,-17.399901200000002],[-66.04352340000001,-17.3998147],[-66.0435403,-17.399690200000002],[-66.04354190000001,-17.399583500000002],[-66.0437412,-17.399585300000002],[-66.04564160000001,-17.399601800000003],[-66.04736650000001,-17.3996329],[-66.04788040000001,-17.3996394],[-66.04791820000001,-17.3996375],[-66.04815070000001,-17.399614000000003],[-66.0484055,-17.3996013],[-66.0486844,-17.399605400000002],[-66.0488449,-17.399607800000002],[-66.04904900000001,-17.3996089],[-66.0494817,-17.3996113],[-66.049524,-17.399611500000002],[-66.0495724,-17.399607800000002],[-66.0498642,-17.399587200000003],[-66.0504956,-17.399515700000002],[-66.0506926,-17.399486600000003],[-66.0509268,-17.3994266],[-66.05099720000001,-17.3994086],[-66.05111400000001,-17.399368600000003],[-66.05142310000001,-17.3992627],[-66.0519831,-17.399083800000003],[-66.0522284,-17.398982800000002],[-66.05228360000001,-17.3989601],[-66.05249420000001,-17.3988559],[-66.0527431,-17.398712600000003],[-66.0529757,-17.398569000000002],[-66.05350580000001,-17.3982424],[-66.0535801,-17.3981971],[-66.05365160000001,-17.3981576],[-66.0538193,-17.3980554],[-66.0545955,-17.3975864],[-66.05471490000001,-17.3975095],[-66.0551652,-17.3972358],[-66.0555916,-17.3969644],[-66.05585830000001,-17.396807300000003],[-66.05612140000001,-17.3966236],[-66.0567891,-17.3961979],[-66.0574423,-17.3958313],[-66.0578983,-17.3955959],[-66.05806190000001,-17.3954986],[-66.0591133,-17.394848500000002],[-66.0593894,-17.3946958],[-66.0595624,-17.394588900000002],[-66.05990990000001,-17.394375],[-66.0603828,-17.3941032],[-66.0607787,-17.3939093],[-66.0611288,-17.393716400000002],[-66.0613148,-17.393627700000003],[-66.0615427,-17.393538900000003],[-66.06192250000001,-17.3934356],[-66.0619582,-17.393426100000003],[-66.06201730000001,-17.393410000000003],[-66.062589,-17.393270400000002],[-66.06264300000001,-17.3932591],[-66.0634217,-17.3930969],[-66.0636984,-17.3930489],[-66.0641365,-17.3930022],[-66.064548,-17.392923200000002],[-66.065224,-17.392787300000002],[-66.0656417,-17.3927033],[-66.0659643,-17.392638400000003],[-66.06670150000001,-17.3924901],[-66.0674233,-17.3923449],[-66.0674647,-17.3923366],[-66.06794980000001,-17.392239],[-66.0682132,-17.3921861],[-66.0691034,-17.392007300000003],[-66.06941950000001,-17.3919399],[-66.0701842,-17.3917819],[-66.07104480000001,-17.391616300000003],[-66.07223610000001,-17.391378800000002],[-66.07313380000001,-17.3911865],[-66.0737974,-17.391044400000002],[-66.07388920000001,-17.391027100000002],[-66.0741326,-17.390971200000003],[-66.0746708,-17.390814900000002],[-66.074837,-17.3907698],[-66.07508650000001,-17.390726],[-66.0754156,-17.390659600000003],[-66.0754419,-17.3906537],[-66.07546430000001,-17.3906488],[-66.0756041,-17.390618500000002],[-66.07578980000001,-17.3905782],[-66.0758598,-17.390565300000002],[-66.07653300000001,-17.3904238],[-66.0768302,-17.390376900000003],[-66.07707070000001,-17.390353100000002],[-66.0772479,-17.390335500000003],[-66.07733280000001,-17.3903216],[-66.07741770000001,-17.3903076],[-66.0780455,-17.390183200000003],[-66.0802003,-17.389731400000002],[-66.0803046,-17.389714700000003],[-66.0820898,-17.389341400000003],[-66.08236070000001,-17.3892907],[-66.08305220000001,-17.389156500000002],[-66.0833489,-17.389095400000002],[-66.0837257,-17.3889837],[-66.08402690000001,-17.388896000000003],[-66.0842295,-17.3888508],[-66.0846442,-17.388772300000003],[-66.08468850000001,-17.3887615],[-66.08471750000001,-17.3887545],[-66.08488320000001,-17.3887189],[-66.0849965,-17.3886946],[-66.08502510000001,-17.3886885],[-66.08512470000001,-17.388669],[-66.0857666,-17.388528700000002],[-66.0860536,-17.388474600000002],[-66.086256,-17.388453700000003],[-66.08641890000001,-17.3884499],[-66.08664780000001,-17.3884115],[-66.0871412,-17.3883204],[-66.087247,-17.3882987],[-66.0903304,-17.387665700000003],[-66.0935805,-17.387006500000002],[-66.09477770000001,-17.3867611],[-66.0956062,-17.3865942],[-66.09572680000001,-17.3865699],[-66.0959866,-17.3865176],[-66.0964055,-17.386431],[-66.09672780000001,-17.386354400000002],[-66.09712130000001,-17.3862287],[-66.0975463,-17.386137],[-66.0978999,-17.3860594],[-66.09793900000001,-17.386050800000003],[-66.0979734,-17.3860433],[-66.09812760000001,-17.386010900000002],[-66.0982462,-17.385986000000003],[-66.0982886,-17.385977],[-66.0983451,-17.3859657],[-66.09884170000001,-17.385865600000002],[-66.0992957,-17.385774100000003],[-66.09953420000001,-17.385747400000003],[-66.0998677,-17.385717000000003],[-66.1007361,-17.3855545],[-66.1012826,-17.3854502],[-66.101487,-17.3854052],[-66.1016661,-17.3853729],[-66.1020273,-17.3852949],[-66.1034053,-17.3849957],[-66.10474330000001,-17.384737700000002],[-66.10558300000001,-17.384569600000003],[-66.10681860000001,-17.3843223],[-66.1083887,-17.384008],[-66.10887290000001,-17.383911100000002],[-66.1093147,-17.383822600000002],[-66.1094935,-17.383784600000002],[-66.10970130000001,-17.3837404],[-66.1101186,-17.3836522],[-66.11055110000001,-17.383561500000003],[-66.1116279,-17.383341],[-66.1126895,-17.383117600000002],[-66.1137491,-17.382897800000002],[-66.11474120000001,-17.3826937],[-66.1160978,-17.3824143],[-66.1166355,-17.3823048],[-66.1167504,-17.382281600000002],[-66.1172233,-17.3821833],[-66.1178158,-17.3820392],[-66.11826740000001,-17.3819014],[-66.1185475,-17.381807000000002],[-66.1187728,-17.381719800000003],[-66.11928180000001,-17.381503600000002],[-66.11950370000001,-17.381410000000002],[-66.11999700000001,-17.381166800000003],[-66.12026010000001,-17.3810155],[-66.1208017,-17.380671500000002],[-66.1208417,-17.3806461],[-66.12168240000001,-17.3800861],[-66.12176980000001,-17.3800293],[-66.1218317,-17.379987800000002],[-66.1221658,-17.3797745],[-66.12243050000001,-17.3795986],[-66.1224694,-17.3795763],[-66.122742,-17.379389900000003],[-66.12360930000001,-17.378817400000003],[-66.12421330000001,-17.3784409],[-66.12471000000001,-17.3781074],[-66.12535460000001,-17.377652400000002],[-66.1257746,-17.377356000000002],[-66.12695810000001,-17.3765211],[-66.12702440000001,-17.376476],[-66.1271995,-17.3763545],[-66.1275504,-17.376112600000003],[-66.1279614,-17.3758297],[-66.1281352,-17.37571],[-66.1282882,-17.3756033],[-66.12881490000001,-17.3752302],[-66.1288741,-17.375188],[-66.12893100000001,-17.3751503],[-66.1289543,-17.3751348],[-66.12898750000001,-17.3751147],[-66.1291381,-17.375016300000002],[-66.12925580000001,-17.374947000000002],[-66.1292707,-17.3749377],[-66.129327,-17.374909300000002],[-66.1294482,-17.374850400000003],[-66.1296174,-17.3747803],[-66.1298412,-17.374701400000003],[-66.1300549,-17.3746383],[-66.13028010000001,-17.37459],[-66.1305217,-17.3745502],[-66.1307689,-17.3745291],[-66.1313669,-17.374523200000002],[-66.1313916,-17.374523],[-66.1319101,-17.374528700000003],[-66.13214070000001,-17.374527500000003],[-66.13236900000001,-17.374525700000003],[-66.1331657,-17.3745288],[-66.13322760000001,-17.374529000000003],[-66.1336639,-17.3745303],[-66.1345247,-17.374534],[-66.13467490000001,-17.374544800000002],[-66.13486950000001,-17.3745687],[-66.13497140000001,-17.3745873],[-66.13505740000001,-17.3746031],[-66.13523880000001,-17.3746459],[-66.13542910000001,-17.374700200000003],[-66.1355865,-17.3747547],[-66.13576570000001,-17.374828700000002],[-66.1359602,-17.3749201],[-66.13617570000001,-17.375044600000003],[-66.1366294,-17.3753417],[-66.1371488,-17.375692500000003],[-66.1371768,-17.3757114],[-66.13756330000001,-17.375942600000002],[-66.13790200000001,-17.376123800000002],[-66.13825580000001,-17.376282],[-66.138489,-17.376383800000003],[-66.13874120000001,-17.3764855],[-66.13894970000001,-17.3765576],[-66.1392113,-17.3766371],[-66.1396414,-17.3767716],[-66.14039430000001,-17.376946800000002],[-66.14084190000001,-17.3770223],[-66.1410415,-17.3770506],[-66.1411913,-17.3770792],[-66.1414646,-17.3771422],[-66.14200690000001,-17.377268500000003],[-66.1422247,-17.3773187],[-66.14228290000001,-17.377351200000003],[-66.1423113,-17.377371],[-66.14233730000001,-17.377395200000002],[-66.1423637,-17.377423800000003],[-66.1423853,-17.377457900000003],[-66.14240600000001,-17.377499200000003],[-66.1424178,-17.3775385],[-66.1424231,-17.377578500000002],[-66.1424229,-17.377606500000002],[-66.142421,-17.3776344],[-66.1424051,-17.3777627],[-66.1423809,-17.3780515],[-66.14237770000001,-17.3782277],[-66.142358,-17.3784481],[-66.1423561,-17.378600300000002],[-66.1423592,-17.3786717],[-66.14237720000001,-17.3787495],[-66.1423857,-17.3787904],[-66.14241170000001,-17.378833],[-66.1424539,-17.3788802],[-66.14252710000001,-17.3789172],[-66.1427305,-17.378983400000003],[-66.1429971,-17.3790674],[-66.1430493,-17.3790829],[-66.14306780000001,-17.379109000000003],[-66.1430837,-17.3791368],[-66.1430966,-17.379165800000003],[-66.14310160000001,-17.3791891],[-66.1431024,-17.379212900000002],[-66.14309940000001,-17.379236600000002],[-66.14306760000001,-17.379372800000002],[-66.14306880000001,-17.3794137],[-66.14307760000001,-17.379442],[-66.14309370000001,-17.379472],[-66.14320280000001,-17.3796329],[-66.14410310000001,-17.3809425],[-66.14414070000001,-17.380997200000003],[-66.1442263,-17.3811247],[-66.1443213,-17.3812621],[-66.14433430000001,-17.3812809],[-66.1443962,-17.3813704],[-66.1450554,-17.382323900000003],[-66.1451665,-17.3824805],[-66.14526500000001,-17.382625200000003],[-66.14626410000001,-17.3840939],[-66.1462906,-17.384132800000003],[-66.1463324,-17.384194200000003],[-66.1463585,-17.3842326],[-66.147463,-17.385856],[-66.1475139,-17.3859308],[-66.1475669,-17.3860074],[-66.147678,-17.386168100000003],[-66.14771590000001,-17.386222800000002],[-66.148064,-17.3867233],[-66.14836460000001,-17.3871554],[-66.1484094,-17.3872198],[-66.14850120000001,-17.3873491],[-66.14851920000001,-17.3873745],[-66.14864270000001,-17.387550800000003],[-66.14884190000001,-17.387832500000002],[-66.14901,-17.388070000000003],[-66.14916980000001,-17.388299500000002],[-66.14933660000001,-17.3885389],[-66.1493179,-17.388644900000003],[-66.149276,-17.3888535],[-66.1491994,-17.389254400000002],[-66.1491441,-17.389543900000003],[-66.1490107,-17.390230600000002],[-66.148919,-17.390703000000002],[-66.14890910000001,-17.3907458],[-66.14889430000001,-17.390824400000003],[-66.14888640000001,-17.3908667],[-66.1487038,-17.3917663],[-66.14869060000001,-17.3918339],[-66.148651,-17.391928200000002],[-66.14864180000001,-17.3919718],[-66.14858770000001,-17.3922279],[-66.1485432,-17.392443],[-66.1485231,-17.392540200000003],[-66.1484738,-17.392778800000002],[-66.1484626,-17.392832900000002],[-66.14793900000001,-17.3927435],[-66.14743340000001,-17.3926589],[-66.1473167,-17.3926404],[-66.1468937,-17.3925734],[-66.14683430000001,-17.3925626],[-66.14664900000001,-17.3925276],[-66.1458099,-17.3923619],[-66.1453273,-17.392282],[-66.1451071,-17.392245600000003],[-66.1448295,-17.3921996],[-66.1445767,-17.392158100000003],[-66.14440970000001,-17.392130700000003],[-66.14437070000001,-17.392124300000003],[-66.1442415,-17.392103000000002],[-66.1441346,-17.3920855],[-66.143713,-17.3920162],[-66.1436259,-17.3920019],[-66.1430857,-17.3919132],[-66.142807,-17.3918675],[-66.14274520000001,-17.3918573],[-66.1427214,-17.3919144],[-66.14234640000001,-17.3927549],[-66.1423273,-17.3927935],[-66.1419298,-17.393674700000002],[-66.14187790000001,-17.3937896],[-66.14189300000001,-17.393798800000003],[-66.14190550000001,-17.393811000000003],[-66.141917,-17.393830100000002],[-66.1419226,-17.3938534],[-66.14192050000001,-17.3938773],[-66.1419595,-17.3939217],[-66.1425597,-17.3946913],[-66.14292370000001,-17.3951433],[-66.1431094,-17.3953528],[-66.1432772,-17.3955556],[-66.1434016,-17.395681900000003],[-66.14379020000001,-17.3960495],[-66.1440656,-17.3962608],[-66.14431180000001,-17.396443400000003],[-66.14457460000001,-17.3966099],[-66.14482170000001,-17.396751400000003],[-66.1451356,-17.3969281],[-66.14539470000001,-17.397057200000003],[-66.14574250000001,-17.397234800000003],[-66.14678470000001,-17.3977645],[-66.14745690000001,-17.3981037],[-66.1474343,-17.3982059],[-66.14736160000001,-17.398568400000002],[-66.1471965,-17.3993918],[-66.1471293,-17.399726700000002],[-66.1471925,-17.399734000000002],[-66.14821160000001,-17.399872900000002],[-66.14829800000001,-17.3998478],[-66.14883130000001,-17.3998543],[-66.14933400000001,-17.399860500000003],[-66.14984940000001,-17.3998668],[-66.14984550000001,-17.3999622],[-66.1497827,-17.400028900000002],[-66.1497047,-17.4001275],[-66.1490538,-17.4008033],[-66.14898570000001,-17.400932200000003],[-66.14895750000001,-17.401046200000003],[-66.1489528,-17.4011432],[-66.14891990000001,-17.401287200000002],[-66.1488898,-17.401389100000003],[-66.1488399,-17.4015357],[-66.1487501,-17.4017537],[-66.14870260000001,-17.4018377],[-66.1486934,-17.401853900000003],[-66.1486247,-17.401979700000002],[-66.1485157,-17.402123800000002],[-66.14840170000001,-17.4022469],[-66.14829010000001,-17.402353100000003],[-66.14815320000001,-17.402464600000002],[-66.1479772,-17.402583500000002],[-66.14779320000001,-17.4027075],[-66.1476973,-17.4027543],[-66.1473024,-17.402947],[-66.14709060000001,-17.403044],[-66.14705230000001,-17.403077300000003],[-66.14688650000001,-17.4032334],[-66.14673540000001,-17.4033443],[-66.14656020000001,-17.4035453],[-66.14625690000001,-17.403881300000002],[-66.1460246,-17.4041685],[-66.14591150000001,-17.404335800000002],[-66.1457908,-17.4045641],[-66.14565250000001,-17.4048461],[-66.14557470000001,-17.405032700000003],[-66.1455511,-17.405179500000003],[-66.1454776,-17.4054015],[-66.1454593,-17.4054669],[-66.1454202,-17.405601500000003],[-66.14538850000001,-17.405745900000003],[-66.1453712,-17.405859200000002],[-66.1453613,-17.4060238],[-66.1453676,-17.4061437],[-66.1453688,-17.4061755],[-66.14537320000001,-17.4062835],[-66.1453779,-17.406306700000002],[-66.1453793,-17.406330200000003],[-66.1454109,-17.406443200000002],[-66.14544310000001,-17.406527200000003],[-66.145499,-17.4066268],[-66.1455531,-17.406712600000002],[-66.14562620000001,-17.406780700000002],[-66.1460493,-17.4070827],[-66.14657550000001,-17.4074482],[-66.14688670000001,-17.4076105],[-66.14731,-17.407844500000003],[-66.14768930000001,-17.4081522],[-66.1477828,-17.4082396],[-66.1479561,-17.408399000000003],[-66.1496415,-17.4094939],[-66.14985850000001,-17.4096343],[-66.15002460000001,-17.4097407],[-66.1501985,-17.4097331],[-66.1506602,-17.4097207],[-66.1507081,-17.409710500000003],[-66.1508331,-17.409705000000002],[-66.1508634,-17.4097134],[-66.15088370000001,-17.4097253],[-66.15091550000001,-17.4100167],[-66.1509578,-17.410250100000003],[-66.1509726,-17.4103016],[-66.1509989,-17.4103512],[-66.1510319,-17.4103847],[-66.1517886,-17.410890300000002],[-66.15266770000001,-17.4114626],[-66.15326920000001,-17.4118284],[-66.1533627,-17.41188],[-66.15339850000001,-17.411893000000003],[-66.15344520000001,-17.411901200000003],[-66.1535029,-17.4119093],[-66.1535753,-17.4119369],[-66.15364100000001,-17.41197],[-66.15365030000001,-17.4120075],[-66.15367690000001,-17.412039800000002],[-66.15373600000001,-17.412074],[-66.1538757,-17.412151400000003],[-66.1538685,-17.4121989],[-66.1538467,-17.4122579],[-66.1537674,-17.4123862],[-66.15374270000001,-17.412427700000002],[-66.1536868,-17.412526000000003],[-66.1536839,-17.4126246],[-66.1536942,-17.413664800000003],[-66.15368240000001,-17.4139342],[-66.153631,-17.414165],[-66.1536085,-17.4142805],[-66.1535746,-17.4144176],[-66.15353420000001,-17.4145618],[-66.1534764,-17.4147132],[-66.15339750000001,-17.4149022],[-66.1533333,-17.4150564],[-66.1532442,-17.4152278],[-66.1531408,-17.4153927],[-66.15278620000001,-17.415849100000003],[-66.15262290000001,-17.416055500000002],[-66.1521519,-17.4166518],[-66.1521024,-17.416727400000003],[-66.1520187,-17.416870600000003],[-66.1519866,-17.416922500000002],[-66.1519342,-17.417056600000002],[-66.15192760000001,-17.4171072],[-66.15190600000001,-17.417153900000002],[-66.1518712,-17.4172508],[-66.15185860000001,-17.4172879],[-66.15182920000001,-17.4174036],[-66.15180570000001,-17.4175262],[-66.15180000000001,-17.4176977],[-66.1518083,-17.4179208],[-66.1518491,-17.4181743],[-66.1518959,-17.4183445],[-66.1519944,-17.4185447],[-66.15230770000001,-17.4190842],[-66.1524139,-17.4192688],[-66.15270790000001,-17.4198248],[-66.1528768,-17.4201687],[-66.153126,-17.4207496],[-66.1533093,-17.421245000000003],[-66.1533668,-17.421416800000003],[-66.15337960000001,-17.4214552],[-66.15343990000001,-17.4216339],[-66.1535235,-17.4218879],[-66.15360980000001,-17.422226100000003],[-66.1536372,-17.4223372],[-66.15371300000001,-17.422695100000002],[-66.1537519,-17.422916800000003],[-66.1537741,-17.4230437],[-66.1538258,-17.423403200000003],[-66.1538376,-17.4235541],[-66.15384250000001,-17.4236404],[-66.15385900000001,-17.423928500000002],[-66.153884,-17.4242503],[-66.15389800000001,-17.4246525],[-66.1538754,-17.425012000000002],[-66.15387050000001,-17.425088900000002],[-66.1538582,-17.425322400000002],[-66.1538354,-17.4255217],[-66.1537437,-17.4258741],[-66.15352890000001,-17.4266501],[-66.1534788,-17.426799900000002],[-66.15341160000001,-17.4269633],[-66.15329870000001,-17.4272023],[-66.15318740000001,-17.4273926],[-66.15308660000001,-17.4275744],[-66.1529395,-17.4277881],[-66.1527384,-17.4280326],[-66.1524617,-17.4283122],[-66.1516869,-17.4290518],[-66.1515746,-17.4291674],[-66.1514885,-17.429273300000002],[-66.1514322,-17.4293622],[-66.15141290000001,-17.4293926],[-66.15134370000001,-17.4295368],[-66.15122170000001,-17.429854600000002],[-66.15115460000001,-17.4300071],[-66.1511043,-17.4301117],[-66.15099760000001,-17.430303300000002],[-66.15094500000001,-17.430394600000003],[-66.150789,-17.4306762],[-66.15063450000001,-17.430935400000003],[-66.1506004,-17.430992500000002],[-66.1502801,-17.4314649],[-66.150135,-17.4316622],[-66.1500936,-17.4317166],[-66.1498155,-17.432099700000002],[-66.14966410000001,-17.4323082],[-66.1488863,-17.4333528],[-66.14852370000001,-17.4338383],[-66.1482313,-17.434234500000002],[-66.14799190000001,-17.434548000000003],[-66.1475408,-17.4351592],[-66.1472387,-17.4355684],[-66.14675220000001,-17.4362226],[-66.14603770000001,-17.437183400000002],[-66.1458844,-17.4374059],[-66.1458164,-17.4375177],[-66.14568560000001,-17.4377986],[-66.1456591,-17.4378575],[-66.1455681,-17.43802],[-66.145516,-17.438107600000002],[-66.1454212,-17.4382336],[-66.14523430000001,-17.4384832],[-66.14514430000001,-17.438604100000003],[-66.1450507,-17.438747300000003],[-66.1449104,-17.4389937],[-66.14415100000001,-17.4403279],[-66.1439442,-17.4406448],[-66.14372440000001,-17.4409369],[-66.14359080000001,-17.441086000000002],[-66.14330530000001,-17.4413912],[-66.1430945,-17.4415835],[-66.14293380000001,-17.441761000000003],[-66.1428343,-17.441874900000002],[-66.1427773,-17.441935800000003],[-66.14269180000001,-17.4420173],[-66.14235690000001,-17.4422815],[-66.14214120000001,-17.442467200000003],[-66.14114040000001,-17.443400200000003],[-66.1408851,-17.4436313],[-66.14084170000001,-17.4436743],[-66.14049220000001,-17.4439415],[-66.140133,-17.4441917],[-66.13969540000001,-17.444458400000002],[-66.1396471,-17.444485],[-66.13920780000001,-17.4447273],[-66.13889400000001,-17.4449004],[-66.1371378,-17.445871500000003],[-66.1362388,-17.4463779],[-66.1353746,-17.4468512],[-66.1352792,-17.4468983],[-66.13521010000001,-17.4469314],[-66.13511070000001,-17.4469952],[-66.13495110000001,-17.4471287],[-66.13487740000001,-17.447187000000003],[-66.1347861,-17.4472565],[-66.1346633,-17.4473263],[-66.1346178,-17.447321300000002],[-66.1345855,-17.447308500000002],[-66.13455920000001,-17.4472865],[-66.1345416,-17.4472576],[-66.1345314,-17.447231000000002],[-66.13452640000001,-17.4471968],[-66.13453080000001,-17.447159600000003],[-66.13463560000001,-17.4470981],[-66.13476290000001,-17.447030100000003],[-66.13488070000001,-17.4469715],[-66.1352121,-17.4468129],[-66.1354716,-17.446696300000003],[-66.1354482,-17.446663800000003],[-66.1354218,-17.446647600000002],[-66.135377,-17.4466313],[-66.13526390000001,-17.446594400000002],[-66.135069,-17.4465097],[-66.13484410000001,-17.4463744],[-66.13464280000001,-17.4462823],[-66.1345591,-17.446250300000003],[-66.1334788,-17.4459681],[-66.1333719,-17.4458942],[-66.1333161,-17.445835000000002],[-66.13309410000001,-17.445610300000002],[-66.13298320000001,-17.445512800000003],[-66.1329747,-17.4454096],[-66.1330669,-17.444906600000003],[-66.13309220000001,-17.4445751],[-66.1331598,-17.444028000000003],[-66.132362,-17.4439224],[-66.13243680000001,-17.4435255],[-66.13254540000001,-17.442981000000003]],"nodes":[11314392126,7063990275,7063990276,5163143555,5163143556,5163143557,1745129391,1723114143,1723114256,1723114195,7063990512,497167141,497167143,497167146,4322755921,497167149,497167153,497167155,497166926,497166232,497166239,3821010259,497166244,497166248,497166254,497166264,497166271,497166276,497166288,497166292,497166295,497166298,8757234237,497166301,497166306,497166309,497166310,497166311,9209089173,497166313,497166315,8757234317,11671634878,11671634877,497166318,497166322,7852067908,497166326,7852067916,497166330,11671634921,11671634887,497166334,497166339,497164737,497164738,13351387933,2982139698,497164739,497164740,4279518446,497164741,4279518452,497164744,3226345168,13351387908,13351387909,13351387954,497164735,497164679,5673496420,5673496529,5673496530,5673496522,5673496567,5673496531,5673496534,5673496532,5673496533,13351388039,13351388045,5673496563,6601256730,9384328623,6601256729,6601256728,6601256727,6601256726,9384301710,6601256725,9384301709,6601256724,9446325924,6601256723,11069967071,6601256718,6601256722,5673496004,7068100528,6601256720,6601256719,5673062018,7243257868,4210188539,497164695,497164697,497164698,4210188550,5673062066,497164699,5673062108,4669953804,497164701,5673062037,497164702,13206076113,2320136093,497164703,5673062039,4669953807,2320136086,12530002306,5673062119,5673062020,4414037367,4414037372,4210163635,1545732100,1545732091,11079581777,7241553262,1544967286,1544967188,2320136077,5017108956,8484023263,13597126305,6133430619,13597126306,1545731982,8484023268,6133430622,6133430623,6133430624,6133430625,12534274229,6133430626,8189128447,6133430627,6133430629,1545731631,12529927153,6133430589,6133430610,4308310794,4308310793,6133430616,6133430617,6133430618,1544965868,6133430601,6133430602,4308310796,1544966231,1544966265,1545731752,1544966484,1544966688,1544966841,1544967110,1544967352,1544967612,1544967857,1544967791,1544967716,1544967630,1544967589,1544967554,1544967426,1544967366,1544967019,1544966662,1544966470,1544966027,12512646882,3839744307,1544965847,7243278736,12512646879,2879457942,1544965636,3917324685,6913320854,6133430597,6133430598,6133430585,12512863046,497147700,3839744316,12512656458,1544965631,12512808673,12512863072,1544965625,12512863073,497147705,3839755178,497147712,11081223539,1544965517,12512862902,4067009931,497147725,12512862991,3839755183,497147728,12512656396,3839755190,6301185915,1545731175,5276246606,497147731,497147734,3764806757,5158314412,2320095710,497147737,7352860819,2320095709,497147741,3764806636,2320095703,2320095698,4267227991,4267227990,497147744,2320095683,1721557143,8303818078,497147747,497147749,12529856291,8303818131,1551434932,497147762,12529856286,497147765,497147768,497147773,2320095667,2320095661,2894872170,7243278751,1609341587,11069359136,1609342101,2894872156,2320007441,11069359130,1609295567,2320007440,1609295565,1609296300,13747021035,4224992293,497167550,2894872126,497167560,2894872095,2894872077,12472745649,2894872069,13535410954,13535410946,13535410955,12472745657,2320007426,497167565,4224990396,2894872009,13535410956,497167945,1609296391,1609199990,4938009626,1609200312,4251839205,497167946,3238982971,3238982963,3238981557,497167948,8486768346,13585208204,1609200055,4938009400,13585208205,3238981548,13585165599,4251839058,497167949,13585208264,13585208263,3238981535,497167950,11069373691,1609199954,1609295515,1609295472,8641990308,8641990305,3593760407,4251838854,497168021,3301986359,3301986345,13585208312,13585208313,3593760363,13585208296,13585208314,3593760348,13585208306,1715114773,3301986324,497168023,4251838707,11081145121,7243278757,11081145119,4251838692,3445610560,3445515644,1609295488,497168363,1609295335,1609295524,2956787636,2508868828,13535744069,2508868825,12529903869,1609295397,1609366183,1609295440,1609221020,1609221140,1609200185,9156300405,2450079042,7436412015,1609221063,497168741,9156300398,2398626869,1609200177,2398626833,2398626816,1609200081,8162958911,8162958910,7033772018,1609200049,8162958914,497169501,497169504,1485097031,1485097020,1485097014,9366321723,3877506232,1044379733,9366321725,8455317281,1009167683,8455317287,3290785083,11074088806,8162958964,1008238435,9012647241,497170001,9364555678,12952456793,1008238205,12952456779,12952456795,1008238230,8455639761,9364555682,7070768690,497170007,1008238537,497170008,497170010,1008238793,9364556031,497169979,497169953,6818591873,3316224538,12565837684,9359800374,9359800375,497169954,497169957,1044379345,12565837681,1009166481,497169958,6331635756,1009167549,497169962,6331635762,1044379589,1044379213,7965603739,598266521,598266518,1044379730,1044379735,1796486751,7965587281,1796486753,6331635754,1796486765,1044378919,9049714571,8385091906,598266493,8385091908,8385091907,602989551,8385091909,8385091914,5298602495,8385091913,1795293284,1795293323,8385091911,8385091910,8385091912,1795293424,1795293286,1795293393,1796486808,1795293430,2391341448,2391341465,1795293437,1795293264,1795293299,1795293277,8385093431,1795293338,2391341613,1795293296,8379904343,11081763605,2391341643,8379904342,1795293405,2391341655,2391341667,1795293432,9890903488,1795293389,602989537,9890903489,8388301598,312425917,9584233890,3676912941,9584233886,10854297122,312425660,8390961546,9930862751,1807100710,2361168089,9930862749,6179473101,312425828,6179473096,11310743156,9031318855,9028209372,6179473247,9031318856,2141431944,6179473241,6179473238,9034180378,5353339454,11310645817,312425956,315096054,3201986227,11827172367,308306729,11827181890,2524491857,303214819,698492415,2524491860,2524491871,310256064,2892642950,11909190787,8686638951,8686638950,9852140997,3924761818,303215163,2296580941,3201986249,12153256567,8674788834,2089612819,360129540,3232582109,8978596850,3740735352,8978596851,8623738790,5096122271,303215031,2702743907,8661106030,303221553,3578038899,8620183423,8620183345,303221552,8620183347,8584400934,315134805,9886485075,2033335103,11072493727,2033335200,2033335257,11072493723,2033335311,2033335550,8619283530,8253508719,315031289,598789073,598789071,8253508706,315031292,315031293,315031294,8250070339,598789057,391727105,2033336773,702512026,315031513,1745102852,8250061913,8250061914,598789376,2031313826,308297683,11072042765,12313136886,12313136883,323985741,2768898982,659962343,3322574444,659962345,3322575565,3322575573,659962347,3322575610,9928262328,2236815648,659962348,9928262350,702512015,659962349,659962350,659962351,659962352,10677663187,843385840,659962353,10677663192,8192368871,598789683,324015374,12777576114,8192377531,324015376,843385352,2674328752,3325466473,5227462564,2031079515,12777576108,12777576113,6166733751,2031079516,2031079519,6166733752,6166733753,2031079525,2031079532,12777576109,5726438855,9352225513,2031079567,2031079607,3325466501,653082865,2240937799,646072448,2240937957,2240938091,646072467,2240938122,2240938174,646072472,3325694967,3674274549,646072437,646072487,9435142281,9111746098,659960353,9432624646,9413017890,6336963276,7546627579,5610210843,5610210842,9432624647,5610210828,8996505329,5610210465,5610210830,5610210833,9435142305,5610210835,5610210483,9139129396,5610210508,9435142306,5610210509,5610210510,5610210494,9599957654,9599957653,5610210466,5610210493,5610210492,5610210491,5610210489,5610210488,648538880,648538882,3315367362,6338367055,648538883,698491821,3315367381,3315367383,648538885,3017385094,3017385091,3315367422,648538886,3017385085,648538888,646061117,702511571,646061119,3675745346,3315367694,646061192,646061196,3017385067,646061199,3315367744,646061203,646061207,3017385080,646061209,3315367875,646061211,646061214,3675745350,646061217,646061453,3675745352,3315367967,10040986819,646061462,646061466,10040977407,2778806417,2778806418,3315367999,10040814091,646061470,3315368009,2778806424,646061474,9189235735,646061482,2778806428,1638830109,3307473548,10038471648,3307473553,2778806436,3307473558,646061488,2778806439,2778806440,646061493,2778806469,646061497,2778806475,10038420084,646061502,2778806477,2778806482,648538234,2778806495,3307473814,2778806499,648536541,10038420076,2778806501,319754134,2778806504,5781854853,10040814054,2778806508,3308828365,9188521971,2778806523,2778806528,10032606930,2778806532,10032606929,319754141,8462994882,2778806542,1637648629,1637648635,1637648656,2778806566,2778806574,6471362209,2778806576,1637648666,10030867293,319754148,2778806589,3577187562,1637668078,2778806596,2778806597,3669248189,2778806608,319754154,3669248190,9188496080,2778806629,6290495137,10028610987,1617344981,319754164,2528680442,319764160,10028610970,10028610973,6185969483,2528680502,2528680551,10030867228,10028610940,6734000394,8462984257,2528680683,8462984278,2528680692,627239865,2528680708,2528680702,8462984306,2528680694,2528680679,10028602190,2528680664,2528680635,8462984275,2528680609,6326510336,1499941832,10028602193,10028602194,10028602192,2528680570,2528680563,2528680553,2528680544,2528680539,2528680525,2528680521,2677410802,2528680492,2528680491,3539626851,2677410764,2677410759,2677410742,2677410737,2677410726,1637668276]},"gtfs":{"agency_id":19,"route_id":109,"services":[{"service_id":"Mo-Su","startTime":"06:00","endTime":"22:00","trip_id":11140123}],"filteredStops":{"nodes":[11314392126,7063990275,7063990276,5163143555,5163143556,5163143557,1745129391,1723114143,1723114256,1723114195,7063990512,497167141,497167143,497167146,4322755921,497167149,497167153,497167155,497166926,497166232,497166239,3821010259,497166244,497166248,497166254,497166264,497166271,497166276,497166288,497166292,497166295,497166298,8757234237,497166301,497166306,497166309,497166310,497166311,9209089173,497166313,497166315,8757234317,11671634878,11671634877,497166318,497166322,7852067908,497166326,7852067916,497166330,11671634921,11671634887,497166334,497166339,497164737,497164738,13351387933,2982139698,497164739,497164740,4279518446,497164741,4279518452,497164744,3226345168,13351387908,13351387909,13351387954,497164735,497164679,5673496420,5673496529,5673496530,5673496522,5673496567,5673496531,5673496534,5673496532,5673496533,13351388039,13351388045,5673496563,6601256730,9384328623,6601256729,6601256728,6601256727,6601256726,9384301710,6601256725,9384301709,6601256724,9446325924,6601256723,11069967071,6601256718,6601256722,5673496004,7068100528,6601256720,6601256719,5673062018,7243257868,4210188539,497164695,497164697,497164698,4210188550,5673062066,497164699,5673062108,4669953804,497164701,5673062037,497164702,13206076113,2320136093,497164703,5673062039,4669953807,2320136086,12530002306,5673062119,5673062020,4414037367,4414037372,4210163635,1545732100,1545732091,11079581777,7241553262,1544967286,1544967188,2320136077,5017108956,8484023263,13597126305,6133430619,13597126306,1545731982,8484023268,6133430622,6133430623,6133430624,6133430625,12534274229,6133430626,8189128447,6133430627,6133430629,1545731631,12529927153,6133430589,6133430610,4308310794,4308310793,6133430616,6133430617,6133430618,1544965868,6133430601,6133430602,4308310796,1544966231,1544966265,1545731752,1544966484,1544966688,1544966841,1544967110,1544967352,1544967612,1544967857,1544967791,1544967716,1544967630,1544967589,1544967554,1544967426,1544967366,1544967019,1544966662,1544966470,1544966027,12512646882,3839744307,1544965847,7243278736,12512646879,2879457942,1544965636,3917324685,6913320854,6133430597,6133430598,6133430585,12512863046,497147700,3839744316,12512656458,1544965631,12512808673,12512863072,1544965625,12512863073,497147705,3839755178,497147712,11081223539,1544965517,12512862902,4067009931,497147725,12512862991,3839755183,497147728,12512656396,3839755190,6301185915,1545731175,5276246606,497147731,497147734,3764806757,5158314412,2320095710,497147737,7352860819,2320095709,497147741,3764806636,2320095703,2320095698,4267227991,4267227990,497147744,2320095683,1721557143,8303818078,497147747,497147749,12529856291,8303818131,1551434932,497147762,12529856286,497147765,497147768,497147773,2320095667,2320095661,2894872170,7243278751,1609341587,11069359136,1609342101,2894872156,2320007441,11069359130,1609295567,2320007440,1609295565,1609296300,13747021035,4224992293,497167550,2894872126,497167560,2894872095,2894872077,12472745649,2894872069,13535410954,13535410946,13535410955,12472745657,2320007426,497167565,4224990396,2894872009,13535410956,497167945,1609296391,1609199990,4938009626,1609200312,4251839205,497167946,3238982971,3238982963,3238981557,497167948,8486768346,13585208204,1609200055,4938009400,13585208205,3238981548,13585165599,4251839058,497167949,13585208264,13585208263,3238981535,497167950,11069373691,1609199954,1609295515,1609295472,8641990308,8641990305,3593760407,4251838854,497168021,3301986359,3301986345,13585208312,13585208313,3593760363,13585208296,13585208314,3593760348,13585208306,1715114773,3301986324,497168023,4251838707,11081145121,7243278757,11081145119,4251838692,3445610560,3445515644,1609295488,497168363,1609295335,1609295524,2956787636,2508868828,13535744069,2508868825,12529903869,1609295397,1609366183,1609295440,1609221020,1609221140,1609200185,9156300405,2450079042,7436412015,1609221063,497168741,9156300398,2398626869,1609200177,2398626833,2398626816,1609200081,8162958911,8162958910,7033772018,1609200049,8162958914,497169501,497169504,1485097031,1485097020,1485097014,9366321723,3877506232,1044379733,9366321725,8455317281,1009167683,8455317287,3290785083,11074088806,8162958964,1008238435,9012647241,497170001,9364555678,12952456793,1008238205,12952456779,12952456795,1008238230,8455639761,9364555682,7070768690,497170007,1008238537,497170008,497170010,1008238793,9364556031,497169979,497169953,6818591873,3316224538,12565837684,9359800374,9359800375,497169954,497169957,1044379345,12565837681,1009166481,497169958,6331635756,1009167549,497169962,6331635762,1044379589,1044379213,7965603739,598266521,598266518,1044379730,1044379735,1796486751,7965587281,1796486753,6331635754,1796486765,1044378919,9049714571,8385091906,598266493,8385091908,8385091907,602989551,8385091909,8385091914,5298602495,8385091913,1795293284,1795293323,8385091911,8385091910,8385091912,1795293424,1795293286,1795293393,1796486808,1795293430,2391341448,2391341465,1795293437,1795293264,1795293299,1795293277,8385093431,1795293338,2391341613,1795293296,8379904343,11081763605,2391341643,8379904342,1795293405,2391341655,2391341667,1795293432,9890903488,1795293389,602989537,9890903489,8388301598,312425917,9584233890,3676912941,9584233886,10854297122,312425660,8390961546,9930862751,1807100710,2361168089,9930862749,6179473101,312425828,6179473096,11310743156,9031318855,9028209372,6179473247,9031318856,2141431944,6179473241,6179473238,9034180378,5353339454,11310645817,312425956,315096054,3201986227,11827172367,308306729,11827181890,2524491857,303214819,698492415,2524491860,2524491871,310256064,2892642950,11909190787,8686638951,8686638950,9852140997,3924761818,303215163,2296580941,3201986249,12153256567,8674788834,2089612819,360129540,3232582109,8978596850,3740735352,8978596851,8623738790,5096122271,303215031,2702743907,8661106030,303221553,3578038899,8620183423,8620183345,303221552,8620183347,8584400934,315134805,9886485075,2033335103,11072493727,2033335200,2033335257,11072493723,2033335311,2033335550,8619283530,8253508719,315031289,598789073,598789071,8253508706,315031292,315031293,315031294,8250070339,598789057,391727105,2033336773,702512026,315031513,1745102852,8250061913,8250061914,598789376,2031313826,308297683,11072042765,12313136886,12313136883,323985741,2768898982,659962343,3322574444,659962345,3322575565,3322575573,659962347,3322575610,9928262328,2236815648,659962348,9928262350,702512015,659962349,659962350,659962351,659962352,10677663187,843385840,659962353,10677663192,8192368871,598789683,324015374,12777576114,8192377531,324015376,843385352,2674328752,3325466473,5227462564,2031079515,12777576108,12777576113,6166733751,2031079516,2031079519,6166733752,6166733753,2031079525,2031079532,12777576109,5726438855,9352225513,2031079567,2031079607,3325466501,653082865,2240937799,646072448,2240937957,2240938091,646072467,2240938122,2240938174,646072472,3325694967,3674274549,646072437,646072487,9435142281,9111746098,659960353,9432624646,9413017890,6336963276,7546627579,5610210843,5610210842,9432624647,5610210828,8996505329,5610210465,5610210830,5610210833,9435142305,5610210835,5610210483,9139129396,5610210508,9435142306,5610210509,5610210510,5610210494,9599957654,9599957653,5610210466,5610210493,5610210492,5610210491,5610210489,5610210488,648538880,648538882,3315367362,6338367055,648538883,698491821,3315367381,3315367383,648538885,3017385094,3017385091,3315367422,648538886,3017385085,648538888,646061117,702511571,646061119,3675745346,3315367694,646061192,646061196,3017385067,646061199,3315367744,646061203,646061207,3017385080,646061209,3315367875,646061211,646061214,3675745350,646061217,646061453,3675745352,3315367967,10040986819,646061462,646061466,10040977407,2778806417,2778806418,3315367999,10040814091,646061470,3315368009,2778806424,646061474,9189235735,646061482,2778806428,1638830109,3307473548,10038471648,3307473553,2778806436,3307473558,646061488,2778806439,2778806440,646061493,2778806469,646061497,2778806475,10038420084,646061502,2778806477,2778806482,648538234,2778806495,3307473814,2778806499,648536541,10038420076,2778806501,319754134,2778806504,5781854853,10040814054,2778806508,3308828365,9188521971,2778806523,2778806528,10032606930,2778806532,10032606929,319754141,8462994882,2778806542,1637648629,1637648635,1637648656,2778806566,2778806574,6471362209,2778806576,1637648666,10030867293,319754148,2778806589,3577187562,1637668078,2778806596,2778806597,3669248189,2778806608,319754154,3669248190,9188496080,2778806629,6290495137,10028610987,1617344981,319754164,2528680442,319764160,10028610970,10028610973,6185969483,2528680502,2528680551,10030867228,10028610940,6734000394,8462984257,2528680683,8462984278,2528680692,627239865,2528680708,2528680702,8462984306,2528680694,2528680679,10028602190,2528680664,2528680635,8462984275,2528680609,6326510336,1499941832,10028602193,10028602194,10028602192,2528680570,2528680563,2528680553,2528680544,2528680539,2528680525,2528680521,2677410802,2528680492,2528680491,3539626851,2677410764,2677410759,2677410742,2677410737,2677410726,1637668276],"coordinates":[[-65.95005130000001,-17.415785900000003],[-65.95151270000001,-17.415494000000002],[-65.95245240000001,-17.415322800000002],[-65.9526721,-17.4153293],[-65.954762,-17.4150126],[-65.95492560000001,-17.4149494],[-65.9546936,-17.4160079],[-65.95469170000001,-17.4161302],[-65.9551028,-17.4160334],[-65.9553748,-17.4160416],[-65.95662100000001,-17.4162323],[-65.9568637,-17.4162624],[-65.95725850000001,-17.416311500000003],[-65.9574903,-17.416311500000003],[-65.9576981,-17.416249200000003],[-65.9577907,-17.4162214],[-65.95800530000001,-17.4162378],[-65.9584087,-17.416377],[-65.9587822,-17.416562000000003],[-65.959885,-17.415787400000003],[-65.96063170000001,-17.415263200000002],[-65.9608958,-17.4150193],[-65.96116380000001,-17.4147718],[-65.96155870000001,-17.4143624],[-65.96243410000001,-17.4130766],[-65.9627775,-17.4126753],[-65.96317230000001,-17.4123559],[-65.9635757,-17.4121266],[-65.96440820000001,-17.411749800000003],[-65.9648116,-17.4114714],[-65.9655326,-17.410799800000003],[-65.9659189,-17.4105132],[-65.96623790000001,-17.4103333],[-65.96629650000001,-17.410300200000002],[-65.9672063,-17.4099317],[-65.96762340000001,-17.4097365],[-65.9681848,-17.4094075],[-65.96862250000001,-17.409055400000003],[-65.9687547,-17.4089187],[-65.9690345,-17.4086295],[-65.96934350000001,-17.4081954],[-65.9698546,-17.4073834],[-65.9704435,-17.4063595],[-65.9707439,-17.4058937],[-65.97099580000001,-17.4055603],[-65.97140130000001,-17.405127200000003],[-65.9716614,-17.4048871],[-65.97186690000001,-17.404744400000002],[-65.9720101,-17.404638100000003],[-65.9723567,-17.4044095],[-65.9726912,-17.4042147],[-65.9729379,-17.4040816],[-65.97326100000001,-17.403957600000002],[-65.97337080000001,-17.4039214],[-65.9738978,-17.403755200000003],[-65.97444660000001,-17.403648500000003],[-65.9746922,-17.403619300000003],[-65.9747629,-17.4036109],[-65.97513860000001,-17.403595900000003],[-65.9755531,-17.403601000000002],[-65.9759734,-17.4036301],[-65.97634450000001,-17.4037009],[-65.976635,-17.403768300000003],[-65.97686820000001,-17.4038465],[-65.9772782,-17.4039882],[-65.9785892,-17.404485],[-65.97898520000001,-17.4046214],[-65.97910270000001,-17.404661800000003],[-65.9793812,-17.4047577],[-65.97967680000001,-17.4048692],[-65.97999610000001,-17.404986700000002],[-65.9803856,-17.4050589],[-65.98064400000001,-17.405130500000002],[-65.9809577,-17.405243900000002],[-65.9811346,-17.405307500000003],[-65.9816401,-17.4054964],[-65.9819045,-17.405601],[-65.98203450000001,-17.4056602],[-65.98250540000001,-17.405851700000003],[-65.9827173,-17.4059296],[-65.9840135,-17.406405900000003],[-65.985194,-17.406839700000003],[-65.98623070000001,-17.407199600000002],[-65.98685900000001,-17.4073755],[-65.98710270000001,-17.407442900000003],[-65.9876203,-17.4075653],[-65.9884025,-17.407725900000003],[-65.98912390000001,-17.407833500000002],[-65.9898301,-17.4079111],[-65.9901669,-17.4079395],[-65.9908108,-17.4079939],[-65.9913782,-17.4080042],[-65.99165330000001,-17.4080058],[-65.99227350000001,-17.407993400000002],[-65.99272810000001,-17.407964500000002],[-65.99286120000001,-17.4079558],[-65.993758,-17.4078717],[-65.99521270000001,-17.407685800000003],[-65.9966662,-17.4074978],[-65.99707910000001,-17.407453800000003],[-65.99904620000001,-17.407166800000002],[-65.99998160000001,-17.406958600000003],[-66.0002055,-17.406903800000002],[-66.00151650000001,-17.406582800000002],[-66.0046456,-17.405831600000003],[-66.00528050000001,-17.4057542],[-66.00558640000001,-17.4057262],[-66.0059932,-17.4057324],[-66.0064868,-17.405764100000003],[-66.0076145,-17.405853800000003],[-66.0082897,-17.4059065],[-66.00856440000001,-17.405919500000003],[-66.0092508,-17.405928600000003],[-66.0097551,-17.405921600000003],[-66.0102143,-17.4058998],[-66.01061820000001,-17.405877],[-66.0110514,-17.40583],[-66.01157620000001,-17.4057643],[-66.0121723,-17.405683800000002],[-66.01245800000001,-17.4056369],[-66.01383890000001,-17.4054091],[-66.01546490000001,-17.405148],[-66.0158646,-17.4050838],[-66.01617610000001,-17.405035400000003],[-66.01913540000001,-17.404577300000003],[-66.01951070000001,-17.4045144],[-66.02148860000001,-17.404194200000003],[-66.0225927,-17.4040184],[-66.02340620000001,-17.403890500000003],[-66.0235098,-17.403872900000003],[-66.02381100000001,-17.4038244],[-66.0244868,-17.4037261],[-66.0255047,-17.403565],[-66.0271766,-17.403292500000003],[-66.0287193,-17.4030513],[-66.03003190000001,-17.402837100000003],[-66.0304445,-17.4027616],[-66.03051310000001,-17.4027478],[-66.0306893,-17.4027245],[-66.03213980000001,-17.4025004],[-66.0322986,-17.402470800000003],[-66.03253450000001,-17.4024283],[-66.03280720000001,-17.4023651],[-66.0333054,-17.402235700000002],[-66.0338672,-17.402045],[-66.03440230000001,-17.401826600000003],[-66.0352043,-17.401495800000003],[-66.0358199,-17.401242500000002],[-66.03616600000001,-17.401100000000003],[-66.03693840000001,-17.4007806],[-66.03721700000001,-17.400659],[-66.0377667,-17.4004191],[-66.03786190000001,-17.4003775],[-66.037852,-17.4003282],[-66.03787000000001,-17.400277900000003],[-66.0379384,-17.4002416],[-66.0380118,-17.400254500000003],[-66.0380382,-17.400273000000002],[-66.03805750000001,-17.4002984],[-66.0381107,-17.4003985],[-66.0381064,-17.4004383],[-66.03809500000001,-17.400471200000002],[-66.0380827,-17.4004863],[-66.03860270000001,-17.401477800000002],[-66.03852970000001,-17.4015115],[-66.03825590000001,-17.401637700000002],[-66.0376008,-17.4019397],[-66.03797390000001,-17.402621800000002],[-66.03806990000001,-17.40275],[-66.0383901,-17.403379100000002],[-66.0386373,-17.403978000000002],[-66.0390364,-17.404828300000002],[-66.0392731,-17.405351600000003],[-66.0396628,-17.405222900000002],[-66.0403891,-17.405010800000003],[-66.0409729,-17.404843600000003],[-66.04153860000001,-17.404705900000003],[-66.04200180000001,-17.4045729],[-66.0431202,-17.4042025],[-66.0435039,-17.404059],[-66.04306650000001,-17.403027],[-66.04284990000001,-17.4025076],[-66.0444234,-17.401918300000002],[-66.0440542,-17.401112400000002],[-66.0436909,-17.4003586],[-66.04368290000001,-17.400335400000003],[-66.0436676,-17.4002912],[-66.0435588,-17.399996100000003],[-66.0435341,-17.399901200000002],[-66.04352340000001,-17.3998147],[-66.0435403,-17.399690200000002],[-66.04354190000001,-17.399583500000002],[-66.0437412,-17.399585300000002],[-66.04564160000001,-17.399601800000003],[-66.04736650000001,-17.3996329],[-66.04788040000001,-17.3996394],[-66.04791820000001,-17.3996375],[-66.04815070000001,-17.399614000000003],[-66.0484055,-17.3996013],[-66.0486844,-17.399605400000002],[-66.0488449,-17.399607800000002],[-66.04904900000001,-17.3996089],[-66.0494817,-17.3996113],[-66.049524,-17.399611500000002],[-66.0495724,-17.399607800000002],[-66.0498642,-17.399587200000003],[-66.0504956,-17.399515700000002],[-66.0506926,-17.399486600000003],[-66.0509268,-17.3994266],[-66.05099720000001,-17.3994086],[-66.05111400000001,-17.399368600000003],[-66.05142310000001,-17.3992627],[-66.0519831,-17.399083800000003],[-66.0522284,-17.398982800000002],[-66.05228360000001,-17.3989601],[-66.05249420000001,-17.3988559],[-66.0527431,-17.398712600000003],[-66.0529757,-17.398569000000002],[-66.05350580000001,-17.3982424],[-66.0535801,-17.3981971],[-66.05365160000001,-17.3981576],[-66.0538193,-17.3980554],[-66.0545955,-17.3975864],[-66.05471490000001,-17.3975095],[-66.0551652,-17.3972358],[-66.0555916,-17.3969644],[-66.05585830000001,-17.396807300000003],[-66.05612140000001,-17.3966236],[-66.0567891,-17.3961979],[-66.0574423,-17.3958313],[-66.0578983,-17.3955959],[-66.05806190000001,-17.3954986],[-66.0591133,-17.394848500000002],[-66.0593894,-17.3946958],[-66.0595624,-17.394588900000002],[-66.05990990000001,-17.394375],[-66.0603828,-17.3941032],[-66.0607787,-17.3939093],[-66.0611288,-17.393716400000002],[-66.0613148,-17.393627700000003],[-66.0615427,-17.393538900000003],[-66.06192250000001,-17.3934356],[-66.0619582,-17.393426100000003],[-66.06201730000001,-17.393410000000003],[-66.062589,-17.393270400000002],[-66.06264300000001,-17.3932591],[-66.0634217,-17.3930969],[-66.0636984,-17.3930489],[-66.0641365,-17.3930022],[-66.064548,-17.392923200000002],[-66.065224,-17.392787300000002],[-66.0656417,-17.3927033],[-66.0659643,-17.392638400000003],[-66.06670150000001,-17.3924901],[-66.0674233,-17.3923449],[-66.0674647,-17.3923366],[-66.06794980000001,-17.392239],[-66.0682132,-17.3921861],[-66.0691034,-17.392007300000003],[-66.06941950000001,-17.3919399],[-66.0701842,-17.3917819],[-66.07104480000001,-17.391616300000003],[-66.07223610000001,-17.391378800000002],[-66.07313380000001,-17.3911865],[-66.0737974,-17.391044400000002],[-66.07388920000001,-17.391027100000002],[-66.0741326,-17.390971200000003],[-66.0746708,-17.390814900000002],[-66.074837,-17.3907698],[-66.07508650000001,-17.390726],[-66.0754156,-17.390659600000003],[-66.0754419,-17.3906537],[-66.07546430000001,-17.3906488],[-66.0756041,-17.390618500000002],[-66.07578980000001,-17.3905782],[-66.0758598,-17.390565300000002],[-66.07653300000001,-17.3904238],[-66.0768302,-17.390376900000003],[-66.07707070000001,-17.390353100000002],[-66.0772479,-17.390335500000003],[-66.07733280000001,-17.3903216],[-66.07741770000001,-17.3903076],[-66.0780455,-17.390183200000003],[-66.0802003,-17.389731400000002],[-66.0803046,-17.389714700000003],[-66.0820898,-17.389341400000003],[-66.08236070000001,-17.3892907],[-66.08305220000001,-17.389156500000002],[-66.0833489,-17.389095400000002],[-66.0837257,-17.3889837],[-66.08402690000001,-17.388896000000003],[-66.0842295,-17.3888508],[-66.0846442,-17.388772300000003],[-66.08468850000001,-17.3887615],[-66.08471750000001,-17.3887545],[-66.08488320000001,-17.3887189],[-66.0849965,-17.3886946],[-66.08502510000001,-17.3886885],[-66.08512470000001,-17.388669],[-66.0857666,-17.388528700000002],[-66.0860536,-17.388474600000002],[-66.086256,-17.388453700000003],[-66.08641890000001,-17.3884499],[-66.08664780000001,-17.3884115],[-66.0871412,-17.3883204],[-66.087247,-17.3882987],[-66.0903304,-17.387665700000003],[-66.0935805,-17.387006500000002],[-66.09477770000001,-17.3867611],[-66.0956062,-17.3865942],[-66.09572680000001,-17.3865699],[-66.0959866,-17.3865176],[-66.0964055,-17.386431],[-66.09672780000001,-17.386354400000002],[-66.09712130000001,-17.3862287],[-66.0975463,-17.386137],[-66.0978999,-17.3860594],[-66.09793900000001,-17.386050800000003],[-66.0979734,-17.3860433],[-66.09812760000001,-17.386010900000002],[-66.0982462,-17.385986000000003],[-66.0982886,-17.385977],[-66.0983451,-17.3859657],[-66.09884170000001,-17.385865600000002],[-66.0992957,-17.385774100000003],[-66.09953420000001,-17.385747400000003],[-66.0998677,-17.385717000000003],[-66.1007361,-17.3855545],[-66.1012826,-17.3854502],[-66.101487,-17.3854052],[-66.1016661,-17.3853729],[-66.1020273,-17.3852949],[-66.1034053,-17.3849957],[-66.10474330000001,-17.384737700000002],[-66.10558300000001,-17.384569600000003],[-66.10681860000001,-17.3843223],[-66.1083887,-17.384008],[-66.10887290000001,-17.383911100000002],[-66.1093147,-17.383822600000002],[-66.1094935,-17.383784600000002],[-66.10970130000001,-17.3837404],[-66.1101186,-17.3836522],[-66.11055110000001,-17.383561500000003],[-66.1116279,-17.383341],[-66.1126895,-17.383117600000002],[-66.1137491,-17.382897800000002],[-66.11474120000001,-17.3826937],[-66.1160978,-17.3824143],[-66.1166355,-17.3823048],[-66.1167504,-17.382281600000002],[-66.1172233,-17.3821833],[-66.1178158,-17.3820392],[-66.11826740000001,-17.3819014],[-66.1185475,-17.381807000000002],[-66.1187728,-17.381719800000003],[-66.11928180000001,-17.381503600000002],[-66.11950370000001,-17.381410000000002],[-66.11999700000001,-17.381166800000003],[-66.12026010000001,-17.3810155],[-66.1208017,-17.380671500000002],[-66.1208417,-17.3806461],[-66.12168240000001,-17.3800861],[-66.12176980000001,-17.3800293],[-66.1218317,-17.379987800000002],[-66.1221658,-17.3797745],[-66.12243050000001,-17.3795986],[-66.1224694,-17.3795763],[-66.122742,-17.379389900000003],[-66.12360930000001,-17.378817400000003],[-66.12421330000001,-17.3784409],[-66.12471000000001,-17.3781074],[-66.12535460000001,-17.377652400000002],[-66.1257746,-17.377356000000002],[-66.12695810000001,-17.3765211],[-66.12702440000001,-17.376476],[-66.1271995,-17.3763545],[-66.1275504,-17.376112600000003],[-66.1279614,-17.3758297],[-66.1281352,-17.37571],[-66.1282882,-17.3756033],[-66.12881490000001,-17.3752302],[-66.1288741,-17.375188],[-66.12893100000001,-17.3751503],[-66.1289543,-17.3751348],[-66.12898750000001,-17.3751147],[-66.1291381,-17.375016300000002],[-66.12925580000001,-17.374947000000002],[-66.1292707,-17.3749377],[-66.129327,-17.374909300000002],[-66.1294482,-17.374850400000003],[-66.1296174,-17.3747803],[-66.1298412,-17.374701400000003],[-66.1300549,-17.3746383],[-66.13028010000001,-17.37459],[-66.1305217,-17.3745502],[-66.1307689,-17.3745291],[-66.1313669,-17.374523200000002],[-66.1313916,-17.374523],[-66.1319101,-17.374528700000003],[-66.13214070000001,-17.374527500000003],[-66.13236900000001,-17.374525700000003],[-66.1331657,-17.3745288],[-66.13322760000001,-17.374529000000003],[-66.1336639,-17.3745303],[-66.1345247,-17.374534],[-66.13467490000001,-17.374544800000002],[-66.13486950000001,-17.3745687],[-66.13497140000001,-17.3745873],[-66.13505740000001,-17.3746031],[-66.13523880000001,-17.3746459],[-66.13542910000001,-17.374700200000003],[-66.1355865,-17.3747547],[-66.13576570000001,-17.374828700000002],[-66.1359602,-17.3749201],[-66.13617570000001,-17.375044600000003],[-66.1366294,-17.3753417],[-66.1371488,-17.375692500000003],[-66.1371768,-17.3757114],[-66.13756330000001,-17.375942600000002],[-66.13790200000001,-17.376123800000002],[-66.13825580000001,-17.376282],[-66.138489,-17.376383800000003],[-66.13874120000001,-17.3764855],[-66.13894970000001,-17.3765576],[-66.1392113,-17.3766371],[-66.1396414,-17.3767716],[-66.14039430000001,-17.376946800000002],[-66.14084190000001,-17.3770223],[-66.1410415,-17.3770506],[-66.1411913,-17.3770792],[-66.1414646,-17.3771422],[-66.14200690000001,-17.377268500000003],[-66.1422247,-17.3773187],[-66.14228290000001,-17.377351200000003],[-66.1423113,-17.377371],[-66.14233730000001,-17.377395200000002],[-66.1423637,-17.377423800000003],[-66.1423853,-17.377457900000003],[-66.14240600000001,-17.377499200000003],[-66.1424178,-17.3775385],[-66.1424231,-17.377578500000002],[-66.1424229,-17.377606500000002],[-66.142421,-17.3776344],[-66.1424051,-17.3777627],[-66.1423809,-17.3780515],[-66.14237770000001,-17.3782277],[-66.142358,-17.3784481],[-66.1423561,-17.378600300000002],[-66.1423592,-17.3786717],[-66.14237720000001,-17.3787495],[-66.1423857,-17.3787904],[-66.14241170000001,-17.378833],[-66.1424539,-17.3788802],[-66.14252710000001,-17.3789172],[-66.1427305,-17.378983400000003],[-66.1429971,-17.3790674],[-66.1430493,-17.3790829],[-66.14306780000001,-17.379109000000003],[-66.1430837,-17.3791368],[-66.1430966,-17.379165800000003],[-66.14310160000001,-17.3791891],[-66.1431024,-17.379212900000002],[-66.14309940000001,-17.379236600000002],[-66.14306760000001,-17.379372800000002],[-66.14306880000001,-17.3794137],[-66.14307760000001,-17.379442],[-66.14309370000001,-17.379472],[-66.14320280000001,-17.3796329],[-66.14410310000001,-17.3809425],[-66.14414070000001,-17.380997200000003],[-66.1442263,-17.3811247],[-66.1443213,-17.3812621],[-66.14433430000001,-17.3812809],[-66.1443962,-17.3813704],[-66.1450554,-17.382323900000003],[-66.1451665,-17.3824805],[-66.14526500000001,-17.382625200000003],[-66.14626410000001,-17.3840939],[-66.1462906,-17.384132800000003],[-66.1463324,-17.384194200000003],[-66.1463585,-17.3842326],[-66.147463,-17.385856],[-66.1475139,-17.3859308],[-66.1475669,-17.3860074],[-66.147678,-17.386168100000003],[-66.14771590000001,-17.386222800000002],[-66.148064,-17.3867233],[-66.14836460000001,-17.3871554],[-66.1484094,-17.3872198],[-66.14850120000001,-17.3873491],[-66.14851920000001,-17.3873745],[-66.14864270000001,-17.387550800000003],[-66.14884190000001,-17.387832500000002],[-66.14901,-17.388070000000003],[-66.14916980000001,-17.388299500000002],[-66.14933660000001,-17.3885389],[-66.1493179,-17.388644900000003],[-66.149276,-17.3888535],[-66.1491994,-17.389254400000002],[-66.1491441,-17.389543900000003],[-66.1490107,-17.390230600000002],[-66.148919,-17.390703000000002],[-66.14890910000001,-17.3907458],[-66.14889430000001,-17.390824400000003],[-66.14888640000001,-17.3908667],[-66.1487038,-17.3917663],[-66.14869060000001,-17.3918339],[-66.148651,-17.391928200000002],[-66.14864180000001,-17.3919718],[-66.14858770000001,-17.3922279],[-66.1485432,-17.392443],[-66.1485231,-17.392540200000003],[-66.1484738,-17.392778800000002],[-66.1484626,-17.392832900000002],[-66.14793900000001,-17.3927435],[-66.14743340000001,-17.3926589],[-66.1473167,-17.3926404],[-66.1468937,-17.3925734],[-66.14683430000001,-17.3925626],[-66.14664900000001,-17.3925276],[-66.1458099,-17.3923619],[-66.1453273,-17.392282],[-66.1451071,-17.392245600000003],[-66.1448295,-17.3921996],[-66.1445767,-17.392158100000003],[-66.14440970000001,-17.392130700000003],[-66.14437070000001,-17.392124300000003],[-66.1442415,-17.392103000000002],[-66.1441346,-17.3920855],[-66.143713,-17.3920162],[-66.1436259,-17.3920019],[-66.1430857,-17.3919132],[-66.142807,-17.3918675],[-66.14274520000001,-17.3918573],[-66.1427214,-17.3919144],[-66.14234640000001,-17.3927549],[-66.1423273,-17.3927935],[-66.1419298,-17.393674700000002],[-66.14187790000001,-17.3937896],[-66.14189300000001,-17.393798800000003],[-66.14190550000001,-17.393811000000003],[-66.141917,-17.393830100000002],[-66.1419226,-17.3938534],[-66.14192050000001,-17.3938773],[-66.1419595,-17.3939217],[-66.1425597,-17.3946913],[-66.14292370000001,-17.3951433],[-66.1431094,-17.3953528],[-66.1432772,-17.3955556],[-66.1434016,-17.395681900000003],[-66.14379020000001,-17.3960495],[-66.1440656,-17.3962608],[-66.14431180000001,-17.396443400000003],[-66.14457460000001,-17.3966099],[-66.14482170000001,-17.396751400000003],[-66.1451356,-17.3969281],[-66.14539470000001,-17.397057200000003],[-66.14574250000001,-17.397234800000003],[-66.14678470000001,-17.3977645],[-66.14745690000001,-17.3981037],[-66.1474343,-17.3982059],[-66.14736160000001,-17.398568400000002],[-66.1471965,-17.3993918],[-66.1471293,-17.399726700000002],[-66.1471925,-17.399734000000002],[-66.14821160000001,-17.399872900000002],[-66.14829800000001,-17.3998478],[-66.14883130000001,-17.3998543],[-66.14933400000001,-17.399860500000003],[-66.14984940000001,-17.3998668],[-66.14984550000001,-17.3999622],[-66.1497827,-17.400028900000002],[-66.1497047,-17.4001275],[-66.1490538,-17.4008033],[-66.14898570000001,-17.400932200000003],[-66.14895750000001,-17.401046200000003],[-66.1489528,-17.4011432],[-66.14891990000001,-17.401287200000002],[-66.1488898,-17.401389100000003],[-66.1488399,-17.4015357],[-66.1487501,-17.4017537],[-66.14870260000001,-17.4018377],[-66.1486934,-17.401853900000003],[-66.1486247,-17.401979700000002],[-66.1485157,-17.402123800000002],[-66.14840170000001,-17.4022469],[-66.14829010000001,-17.402353100000003],[-66.14815320000001,-17.402464600000002],[-66.1479772,-17.402583500000002],[-66.14779320000001,-17.4027075],[-66.1476973,-17.4027543],[-66.1473024,-17.402947],[-66.14709060000001,-17.403044],[-66.14705230000001,-17.403077300000003],[-66.14688650000001,-17.4032334],[-66.14673540000001,-17.4033443],[-66.14656020000001,-17.4035453],[-66.14625690000001,-17.403881300000002],[-66.1460246,-17.4041685],[-66.14591150000001,-17.404335800000002],[-66.1457908,-17.4045641],[-66.14565250000001,-17.4048461],[-66.14557470000001,-17.405032700000003],[-66.1455511,-17.405179500000003],[-66.1454776,-17.4054015],[-66.1454593,-17.4054669],[-66.1454202,-17.405601500000003],[-66.14538850000001,-17.405745900000003],[-66.1453712,-17.405859200000002],[-66.1453613,-17.4060238],[-66.1453676,-17.4061437],[-66.1453688,-17.4061755],[-66.14537320000001,-17.4062835],[-66.1453779,-17.406306700000002],[-66.1453793,-17.406330200000003],[-66.1454109,-17.406443200000002],[-66.14544310000001,-17.406527200000003],[-66.145499,-17.4066268],[-66.1455531,-17.406712600000002],[-66.14562620000001,-17.406780700000002],[-66.1460493,-17.4070827],[-66.14657550000001,-17.4074482],[-66.14688670000001,-17.4076105],[-66.14731,-17.407844500000003],[-66.14768930000001,-17.4081522],[-66.1477828,-17.4082396],[-66.1479561,-17.408399000000003],[-66.1496415,-17.4094939],[-66.14985850000001,-17.4096343],[-66.15002460000001,-17.4097407],[-66.1501985,-17.4097331],[-66.1506602,-17.4097207],[-66.1507081,-17.409710500000003],[-66.1508331,-17.409705000000002],[-66.1508634,-17.4097134],[-66.15088370000001,-17.4097253],[-66.15091550000001,-17.4100167],[-66.1509578,-17.410250100000003],[-66.1509726,-17.4103016],[-66.1509989,-17.4103512],[-66.1510319,-17.4103847],[-66.1517886,-17.410890300000002],[-66.15266770000001,-17.4114626],[-66.15326920000001,-17.4118284],[-66.1533627,-17.41188],[-66.15339850000001,-17.411893000000003],[-66.15344520000001,-17.411901200000003],[-66.1535029,-17.4119093],[-66.1535753,-17.4119369],[-66.15364100000001,-17.41197],[-66.15365030000001,-17.4120075],[-66.15367690000001,-17.412039800000002],[-66.15373600000001,-17.412074],[-66.1538757,-17.412151400000003],[-66.1538685,-17.4121989],[-66.1538467,-17.4122579],[-66.1537674,-17.4123862],[-66.15374270000001,-17.412427700000002],[-66.1536868,-17.412526000000003],[-66.1536839,-17.4126246],[-66.1536942,-17.413664800000003],[-66.15368240000001,-17.4139342],[-66.153631,-17.414165],[-66.1536085,-17.4142805],[-66.1535746,-17.4144176],[-66.15353420000001,-17.4145618],[-66.1534764,-17.4147132],[-66.15339750000001,-17.4149022],[-66.1533333,-17.4150564],[-66.1532442,-17.4152278],[-66.1531408,-17.4153927],[-66.15278620000001,-17.415849100000003],[-66.15262290000001,-17.416055500000002],[-66.1521519,-17.4166518],[-66.1521024,-17.416727400000003],[-66.1520187,-17.416870600000003],[-66.1519866,-17.416922500000002],[-66.1519342,-17.417056600000002],[-66.15192760000001,-17.4171072],[-66.15190600000001,-17.417153900000002],[-66.1518712,-17.4172508],[-66.15185860000001,-17.4172879],[-66.15182920000001,-17.4174036],[-66.15180570000001,-17.4175262],[-66.15180000000001,-17.4176977],[-66.1518083,-17.4179208],[-66.1518491,-17.4181743],[-66.1518959,-17.4183445],[-66.1519944,-17.4185447],[-66.15230770000001,-17.4190842],[-66.1524139,-17.4192688],[-66.15270790000001,-17.4198248],[-66.1528768,-17.4201687],[-66.153126,-17.4207496],[-66.1533093,-17.421245000000003],[-66.1533668,-17.421416800000003],[-66.15337960000001,-17.4214552],[-66.15343990000001,-17.4216339],[-66.1535235,-17.4218879],[-66.15360980000001,-17.422226100000003],[-66.1536372,-17.4223372],[-66.15371300000001,-17.422695100000002],[-66.1537519,-17.422916800000003],[-66.1537741,-17.4230437],[-66.1538258,-17.423403200000003],[-66.1538376,-17.4235541],[-66.15384250000001,-17.4236404],[-66.15385900000001,-17.423928500000002],[-66.153884,-17.4242503],[-66.15389800000001,-17.4246525],[-66.1538754,-17.425012000000002],[-66.15387050000001,-17.425088900000002],[-66.1538582,-17.425322400000002],[-66.1538354,-17.4255217],[-66.1537437,-17.4258741],[-66.15352890000001,-17.4266501],[-66.1534788,-17.426799900000002],[-66.15341160000001,-17.4269633],[-66.15329870000001,-17.4272023],[-66.15318740000001,-17.4273926],[-66.15308660000001,-17.4275744],[-66.1529395,-17.4277881],[-66.1527384,-17.4280326],[-66.1524617,-17.4283122],[-66.1516869,-17.4290518],[-66.1515746,-17.4291674],[-66.1514885,-17.429273300000002],[-66.1514322,-17.4293622],[-66.15141290000001,-17.4293926],[-66.15134370000001,-17.4295368],[-66.15122170000001,-17.429854600000002],[-66.15115460000001,-17.4300071],[-66.1511043,-17.4301117],[-66.15099760000001,-17.430303300000002],[-66.15094500000001,-17.430394600000003],[-66.150789,-17.4306762],[-66.15063450000001,-17.430935400000003],[-66.1506004,-17.430992500000002],[-66.1502801,-17.4314649],[-66.150135,-17.4316622],[-66.1500936,-17.4317166],[-66.1498155,-17.432099700000002],[-66.14966410000001,-17.4323082],[-66.1488863,-17.4333528],[-66.14852370000001,-17.4338383],[-66.1482313,-17.434234500000002],[-66.14799190000001,-17.434548000000003],[-66.1475408,-17.4351592],[-66.1472387,-17.4355684],[-66.14675220000001,-17.4362226],[-66.14603770000001,-17.437183400000002],[-66.1458844,-17.4374059],[-66.1458164,-17.4375177],[-66.14568560000001,-17.4377986],[-66.1456591,-17.4378575],[-66.1455681,-17.43802],[-66.145516,-17.438107600000002],[-66.1454212,-17.4382336],[-66.14523430000001,-17.4384832],[-66.14514430000001,-17.438604100000003],[-66.1450507,-17.438747300000003],[-66.1449104,-17.4389937],[-66.14415100000001,-17.4403279],[-66.1439442,-17.4406448],[-66.14372440000001,-17.4409369],[-66.14359080000001,-17.441086000000002],[-66.14330530000001,-17.4413912],[-66.1430945,-17.4415835],[-66.14293380000001,-17.441761000000003],[-66.1428343,-17.441874900000002],[-66.1427773,-17.441935800000003],[-66.14269180000001,-17.4420173],[-66.14235690000001,-17.4422815],[-66.14214120000001,-17.442467200000003],[-66.14114040000001,-17.443400200000003],[-66.1408851,-17.4436313],[-66.14084170000001,-17.4436743],[-66.14049220000001,-17.4439415],[-66.140133,-17.4441917],[-66.13969540000001,-17.444458400000002],[-66.1396471,-17.444485],[-66.13920780000001,-17.4447273],[-66.13889400000001,-17.4449004],[-66.1371378,-17.445871500000003],[-66.1362388,-17.4463779],[-66.1353746,-17.4468512],[-66.1352792,-17.4468983],[-66.13521010000001,-17.4469314],[-66.13511070000001,-17.4469952],[-66.13495110000001,-17.4471287],[-66.13487740000001,-17.447187000000003],[-66.1347861,-17.4472565],[-66.1346633,-17.4473263],[-66.1346178,-17.447321300000002],[-66.1345855,-17.447308500000002],[-66.13455920000001,-17.4472865],[-66.1345416,-17.4472576],[-66.1345314,-17.447231000000002],[-66.13452640000001,-17.4471968],[-66.13453080000001,-17.447159600000003],[-66.13463560000001,-17.4470981],[-66.13476290000001,-17.447030100000003],[-66.13488070000001,-17.4469715],[-66.1352121,-17.4468129],[-66.1354716,-17.446696300000003],[-66.1354482,-17.446663800000003],[-66.1354218,-17.446647600000002],[-66.135377,-17.4466313],[-66.13526390000001,-17.446594400000002],[-66.135069,-17.4465097],[-66.13484410000001,-17.4463744],[-66.13464280000001,-17.4462823],[-66.1345591,-17.446250300000003],[-66.1334788,-17.4459681],[-66.1333719,-17.4458942],[-66.1333161,-17.445835000000002],[-66.13309410000001,-17.445610300000002],[-66.13298320000001,-17.445512800000003],[-66.1329747,-17.4454096],[-66.1330669,-17.444906600000003],[-66.13309220000001,-17.4445751],[-66.1331598,-17.444028000000003],[-66.132362,-17.4439224],[-66.13243680000001,-17.4435255],[-66.13254540000001,-17.442981000000003]]}}},{"type":"Feature","properties":{"bus":"yes","highway":"bus_stop","name":"Parada 241","public_transport":"platform","id":7063990492},"geometry":{"type":"Point","coordinates":[-65.95005130000001,-17.415785900000003]}},{"type":"Feature","properties":{"bench":"no","bin":"no","bus":"yes","departures_board":"no","highway":"bus_stop","level":"0","lit":"no","name":"Avenida Décima","operator":"Administradora Boliviana de Carreteras","pole":"yes","public_transport":"platform","shelter":"no","tactile_paving":"no","wheelchair":"no","id":4251839105},"geometry":{"type":"Point","coordinates":[-66.0844182,-17.388737300000003]}},{"type":"Feature","properties":{"bench":"yes","bin":"no","bus":"yes","departures_board":"no","highway":"bus_stop","level":"0","lit":"no","name":"Servicio de Caminos","public_transport":"platform","shelter":"yes","tactile_paving":"no","wheelchair":"no","id":8455639762},"geometry":{"type":"Point","coordinates":[-66.12932070000001,-17.3748332]}},{"type":"Feature","properties":{"bus":"yes","departures_board":"no","highway":"bus_stop","name":"Puente Hernando Siles","public_transport":"platform","shelter":"no","id":7965603633},"geometry":{"type":"Point","coordinates":[-66.1334983,-17.3744456]}},{"type":"Feature","properties":{"bench":"yes","bus":"yes","departures_board":"no","highway":"bus_stop","name":"Irlandés","public_transport":"platform","shelter":"yes","id":9049714548},"geometry":{"type":"Point","coordinates":[-66.1375835,-17.375869]}},{"type":"Feature","properties":{"bench":"yes","bin":"no","bus":"yes","departures_board":"no","highway":"bus_stop","lit":"no","name":"Puente Muyurina","public_transport":"platform","shelter":"yes","id":8600947271},"geometry":{"type":"Point","coordinates":[-66.1405244,-17.376922]}},{"type":"Feature","properties":{"bench":"no","bin":"no","bus":"yes","departures_board":"no","highway":"bus_stop","kerb":"raised","level":"0","lit":"no","name":"Escuela de Sargentos","operator":"Gobierno Autónomo Municipal de Cochabamba","pole":"yes","public_transport":"platform","shelter":"no","tactile_paving":"no","wheelchair":"no","id":8388301542},"geometry":{"type":"Point","coordinates":[-66.14333350000001,-17.3797563]}},{"type":"Feature","properties":{"bench":"no","bin":"no","bus":"yes","departures_board":"no","highway":"bus_stop","kerb":"raised","level":"0","lit":"no","name":"Papa Paulo","public_transport":"platform","shelter":"no","tactile_paving":"no","wheelchair":"no","id":6299491685},"geometry":{"type":"Point","coordinates":[-66.1462664,-17.3840179]}},{"type":"Feature","properties":{"bench":"yes","bin":"no","bus":"yes","departures_board":"no","highway":"bus_stop","kerb":"raised","level":"0","lit":"no","name":"Hospital Materno Infantil Germán Urquidi","operator":"Gobierno Autónomo Municipal de Cochabamba","public_transport":"platform","shelter":"yes","tactile_paving":"no","wheelchair":"no","id":2892512813},"geometry":{"type":"Point","coordinates":[-66.1484657,-17.387225100000002]}},{"type":"Feature","properties":{"bench":"yes","bin":"no","bus":"yes","departures_board":"no","highway":"bus_stop","kerb":"raised","lit":"no","name":"SEDES","operator":"Gobierno Autónomo Municipal de Cochabamba","public_transport":"platform","shelter":"yes","tactile_paving":"no","id":3264544592},"geometry":{"type":"Point","coordinates":[-66.1492259,-17.388328400000002]}},{"type":"Feature","properties":{"bench":"no","bin":"no","bus":"yes","departures_board":"no","highway":"bus_stop","kerb":"raised","level":"0","lit":"no","name":"Plaza Sucre","operator":"Gobierno Autónomo Municipal de Cochabamba","pole":"yes","public_transport":"platform","shelter":"no","tactile_paving":"no","wheelchair":"no","id":3924761820},"geometry":{"type":"Point","coordinates":[-66.1485425,-17.392770300000002]}},{"type":"Feature","properties":{"bench":"no","bin":"no","bus":"yes","departures_board":"no","highway":"bus_stop","level":"0","lit":"no","name":"Plaza Sucre","operator":"Gobierno Autónomo Municipal de Cochabamba","public_transport":"platform","shelter":"no","tactile_paving":"no","wheelchair":"yes","id":3255507872},"geometry":{"type":"Point","coordinates":[-66.1479977,-17.392825700000003]}},{"type":"Feature","properties":{"bench":"yes","bin":"no","bus":"yes","departures_board":"no","highway":"bus_stop","kerb":"raised","level":"0","lit":"no","name":"Coliseo UMSS","public_transport":"platform","shelter":"yes","tactile_paving":"no","wheelchair":"no","id":8581169584},"geometry":{"type":"Point","coordinates":[-66.1433069,-17.3955142]}},{"type":"Feature","properties":{"bus":"yes","departures_board":"no","highway":"bus_stop","name":"Moxos","pole":"yes","public_transport":"platform","shelter":"no","id":4747363511},"geometry":{"type":"Point","coordinates":[-66.1496651,-17.4094717]}},{"type":"Feature","properties":{"bench":"yes","bin":"no","bus":"yes","departures_board":"no","highway":"bus_stop","level":"0","lit":"no","name":"Copacabana","public_transport":"platform","shelter":"yes","tactile_paving":"no","wheelchair":"no","id":9191719940},"geometry":{"type":"Point","coordinates":[-66.1539649,-17.4250732]}},{"type":"Feature","properties":{"bench":"yes","bin":"no","bus":"yes","departures_board":"no","highway":"bus_stop","kerb":"raised","level":"0","lit":"no","name":"Ballivián","public_transport":"platform","shelter":"yes","tactile_paving":"no","wheelchair":"no","id":8477746609},"geometry":{"type":"Point","coordinates":[-66.14873750000001,-17.4337014]}},{"type":"Feature","properties":{"bench":"no","bin":"no","bus":"yes","departures_board":"no","highway":"bus_stop","kerb":"raised","level":"0","lit":"no","name":"Montevideo","public_transport":"platform","shelter":"no","tactile_paving":"no","wheelchair":"no","id":6185973485},"geometry":{"type":"Point","coordinates":[-66.13931090000001,-17.444722000000002]}},{"type":"Feature","properties":{"bus":"yes","highway":"bus_stop","name":"Parada MiniBus 241","public_transport":"platform","id":9184434016},"geometry":{"type":"Point","coordinates":[-66.13260310000001,-17.443050300000003]}},{"type":"Feature","properties":{"bench":"yes","bin":"no","bus":"yes","departures_board":"no","highway":"bus_stop","level":"0","lit":"no","name":"Cerámica COBOCE","public_transport":"platform","shelter":"yes","tactile_paving":"no","wheelchair":"no","id":4294001213},"geometry":{"type":"Point","coordinates":[-66.0494649,-17.399544900000002]}}]}