{"type":"FeatureCollection","features":[{"type":"Feature","properties":{"bicycle":"no","check_date":"29/12/2025","from":"Apote","name":"Trufi 120: Apote → Cerro San Miguel","network":"BO:CB:Cochabamba","on_demand":"yes","operator":"Sindicato mixto de transportistas Tiquipaya","public_transport:version":"2","ref":"120","roundtrip":"no","route":"bus","to":"Cerro San Miguel","type":"route","via":"4 Esquinas","wheelchair":"no","id":11148102},"geometry":{"type":"LineString","coordinates":[[-66.2422873,-17.3293194],[-66.2422149,-17.3293466],[-66.2416559,-17.3296716],[-66.2412223,-17.3299422],[-66.2410985,-17.3300253],[-66.2408625,-17.3301838],[-66.2406044,-17.3303153],[-66.2405462,-17.3303629],[-66.2404956,-17.3304438],[-66.2404565,-17.3306042],[-66.2404922,-17.3312342],[-66.240472,-17.3312901],[-66.2404473,-17.3313647],[-66.2403515,-17.3315312],[-66.2400885,-17.3318117],[-66.2399128,-17.3319634],[-66.239684,-17.332028],[-66.2393834,-17.3320442],[-66.2391672,-17.3320176],[-66.2388159,-17.3319627],[-66.238737,-17.3319777],[-66.238605,-17.3320104],[-66.2384792,-17.3320459],[-66.2380072,-17.3323686],[-66.2375193,-17.3327186],[-66.237378,-17.3328504],[-66.237288,-17.3329367],[-66.2372534,-17.3329783],[-66.2370291,-17.3332695],[-66.2369763,-17.3333226],[-66.2365536,-17.3336652],[-66.2364768,-17.3337151],[-66.2363523,-17.3338001],[-66.236161,-17.3339488],[-66.2358403,-17.3341783],[-66.235674,-17.3342973],[-66.2354593,-17.3344105],[-66.2349772,-17.3346405],[-66.2341526,-17.3349685],[-66.2340255,-17.3350186],[-66.2336531,-17.3351148],[-66.2325018,-17.3353825],[-66.231486,-17.3357944],[-66.2309404,-17.3360118],[-66.2308968,-17.3360291],[-66.2308077,-17.3360665],[-66.2307475,-17.3360918],[-66.2306862,-17.3361135],[-66.2305428,-17.336173],[-66.2300428,-17.336123],[-66.2299588,-17.3361103],[-66.2298748,-17.3360976],[-66.2297536,-17.336087],[-66.2296734,-17.3360828],[-66.229604,-17.3360846],[-66.2295169,-17.336096],[-66.2293789,-17.3361151],[-66.2290702,-17.3362109],[-66.2290111,-17.3362292],[-66.2289795,-17.3362393],[-66.2287543,-17.3363267],[-66.2279052,-17.3367483],[-66.227459,-17.33691],[-66.2270302,-17.3370872],[-66.226886,-17.3371418],[-66.2265007,-17.3372591],[-66.2262982,-17.3372768],[-66.2261548,-17.3372828],[-66.2259232,-17.337294],[-66.2256747,-17.3373136],[-66.2254528,-17.3373563],[-66.2245677,-17.3376286],[-66.2240422,-17.3377871],[-66.2238733,-17.3378384],[-66.2237942,-17.3378614],[-66.2236885,-17.3378923],[-66.2236493,-17.3379022],[-66.2235488,-17.3379299],[-66.2234973,-17.3379419],[-66.222548,-17.3382684],[-66.2223622,-17.3383347],[-66.2213502,-17.3386482],[-66.2199955,-17.3390451],[-66.2192686,-17.3393338],[-66.2191844,-17.3393698],[-66.2188832,-17.3394682],[-66.2182882,-17.3396164],[-66.2177894,-17.3397553],[-66.2177617,-17.339763],[-66.2177173,-17.3397757],[-66.2176541,-17.3397969],[-66.2166279,-17.3401738],[-66.2166067,-17.340181],[-66.2165754,-17.3401915],[-66.2165304,-17.3402085],[-66.2155828,-17.3405503],[-66.215498,-17.3405854],[-66.2154262,-17.3406101],[-66.2143901,-17.3409911],[-66.2142614,-17.3410308],[-66.2141093,-17.3410933],[-66.2140047,-17.3411716],[-66.213821,-17.3412418],[-66.2137916,-17.3412532],[-66.2137019,-17.3412961],[-66.2136206,-17.3413254],[-66.2134291,-17.3413925],[-66.2133654,-17.3414171],[-66.213119,-17.3415124],[-66.212918,-17.3415901],[-66.2124306,-17.3418024],[-66.212404,-17.341814],[-66.212223,-17.3419047],[-66.2121759,-17.3419282],[-66.2112055,-17.3424478],[-66.2110347,-17.3425321],[-66.2086319,-17.3436059],[-66.2085626,-17.3436348],[-66.2079192,-17.3439025],[-66.2078418,-17.3439374],[-66.2072476,-17.3441831],[-66.2069779,-17.3443003],[-66.2068557,-17.3443524],[-66.2064436,-17.3445009],[-66.2062535,-17.3445722],[-66.2061959,-17.3446008],[-66.2061006,-17.3446431],[-66.2058889,-17.3447398],[-66.2054994,-17.3449178],[-66.2050749,-17.3450618],[-66.2049133,-17.3451279],[-66.2043116,-17.3453634],[-66.2042144,-17.3453991],[-66.2041561,-17.3454287],[-66.2036611,-17.345667],[-66.2033826,-17.3458024],[-66.2029937,-17.3459914],[-66.2027057,-17.3461282],[-66.2025158,-17.3462099],[-66.2023733,-17.3462723],[-66.2022868,-17.3463085],[-66.2011817,-17.3467548],[-66.2005236,-17.347033],[-66.2003118,-17.3471131],[-66.1999673,-17.3472561],[-66.1999066,-17.3472805],[-66.1998019,-17.3473211],[-66.1996959,-17.3473615],[-66.1986244,-17.3478087],[-66.1983887,-17.3479038],[-66.1975452,-17.3482488],[-66.1969189,-17.3485083],[-66.1966774,-17.3486211],[-66.1965222,-17.3486977],[-66.1959066,-17.3490435],[-66.1946996,-17.3496712],[-66.1941674,-17.3499621],[-66.1939153,-17.3500999],[-66.1935202,-17.3503159],[-66.193244,-17.3504752],[-66.1929365,-17.3506544],[-66.1926213,-17.3508604],[-66.1923719,-17.3510234],[-66.1922896,-17.3510787],[-66.1920062,-17.351265],[-66.1917342,-17.3514518],[-66.1915437,-17.3515827],[-66.1913324,-17.3517395],[-66.1907466,-17.3521766],[-66.1907138,-17.3522011],[-66.1899628,-17.3528104],[-66.1898741,-17.3528787],[-66.1897727,-17.352958],[-66.1889861,-17.3535872],[-66.1889207,-17.3536392],[-66.1880863,-17.3542805],[-66.1878493,-17.354472],[-66.1877648,-17.3545343],[-66.1877324,-17.3545599],[-66.1876662,-17.3546102],[-66.1876366,-17.3546327],[-66.1875869,-17.3546705],[-66.1875266,-17.3547178],[-66.187126,-17.3550327],[-66.1866871,-17.3553771],[-66.185658,-17.3561774],[-66.1856109,-17.356214],[-66.1850746,-17.3565958],[-66.184936,-17.3567105],[-66.1848006,-17.3568306],[-66.1847301,-17.3569011],[-66.1846468,-17.3570138],[-66.1840773,-17.3578876],[-66.1833082,-17.3589644],[-66.1832508,-17.3590284],[-66.1831977,-17.3590967],[-66.1831341,-17.3591824],[-66.1830695,-17.3592918],[-66.1826633,-17.3601208],[-66.1821207,-17.3612509],[-66.1820694,-17.3613293],[-66.1817636,-17.3618311],[-66.1814995,-17.36224],[-66.1814453,-17.3623112],[-66.1813907,-17.3623714],[-66.1812461,-17.3625434],[-66.1810592,-17.3627734],[-66.1808856,-17.3629293],[-66.1806538,-17.3631396],[-66.1804759,-17.3632776],[-66.1799864,-17.3636602],[-66.1796769,-17.3638997],[-66.1794633,-17.364045],[-66.1793056,-17.3641448],[-66.1790011,-17.3643096],[-66.178873,-17.3643769],[-66.1787583,-17.3644371],[-66.1786344,-17.3644825],[-66.1785679,-17.3645046],[-66.1785234,-17.3645185],[-66.178408,-17.3645546],[-66.1783719,-17.3645654],[-66.178284,-17.3645885],[-66.1779812,-17.3646935],[-66.1767955,-17.3650514],[-66.1767575,-17.3650629],[-66.1766743,-17.3650875],[-66.1765439,-17.3651266],[-66.1764768,-17.3651467],[-66.1751548,-17.3655435],[-66.1750141,-17.3655887],[-66.1749184,-17.3656146],[-66.1748031,-17.3656383],[-66.1733237,-17.3657397],[-66.1718641,-17.365821],[-66.1717966,-17.3658248],[-66.1715775,-17.3658391],[-66.1714925,-17.3658447],[-66.1714101,-17.3658491],[-66.1712985,-17.3658629],[-66.1711497,-17.3658979],[-66.171117,-17.3659059],[-66.1709461,-17.3659562],[-66.1706407,-17.3660461],[-66.1704853,-17.3660898],[-66.1703409,-17.3661184],[-66.1702301,-17.3661286],[-66.1701006,-17.3661299],[-66.1699469,-17.3661229],[-66.1697832,-17.3661045],[-66.1696172,-17.3660766],[-66.1694981,-17.3660445],[-66.1694323,-17.3660214],[-66.1693403,-17.3659874],[-66.1690477,-17.3658885],[-66.1688934,-17.3658519],[-66.1687179,-17.3658213],[-66.1686355,-17.3658171],[-66.1685651,-17.3658135],[-66.1682722,-17.3657976],[-66.1679002,-17.3657773],[-66.1678124,-17.3657801],[-66.167736,-17.3657875],[-66.16768,-17.365801],[-66.1676156,-17.3658199],[-66.1675492,-17.3658444],[-66.167449,-17.3658858],[-66.1672959,-17.3659658],[-66.1670355,-17.3661164],[-66.1669496,-17.366166],[-66.1668968,-17.3661974],[-66.1666857,-17.366323],[-66.1665063,-17.3664424],[-66.1661032,-17.3667279],[-66.1658913,-17.366882],[-66.1658373,-17.3669237],[-66.1651421,-17.3674257],[-66.1642493,-17.3680575],[-66.1641573,-17.3681314],[-66.1640875,-17.3681998],[-66.1640592,-17.3682405],[-66.1640437,-17.368284],[-66.164057,-17.3683599],[-66.1640552,-17.3684238],[-66.1640528,-17.3684526],[-66.1640639,-17.368665],[-66.1640677,-17.3688272],[-66.1640694,-17.3690235],[-66.1640724,-17.3693495],[-66.1640738,-17.3695031],[-66.1640827,-17.3704323],[-66.1640844,-17.370569],[-66.164069,-17.371045],[-66.1640361,-17.3712965],[-66.1639411,-17.3718124],[-66.1637796,-17.372384],[-66.163746,-17.3724797],[-66.1636543,-17.3724851],[-66.1632714,-17.3725106],[-66.1627848,-17.3725451],[-66.1626975,-17.3725484],[-66.1625774,-17.372555],[-66.162506,-17.3725594],[-66.1624945,-17.3725598],[-66.162333,-17.3725692],[-66.1608008,-17.3726716],[-66.1606043,-17.3726825],[-66.1605099,-17.3726889],[-66.1605013,-17.3726894],[-66.1591567,-17.3727758],[-66.1590778,-17.3727807],[-66.1589923,-17.372786],[-66.1589345,-17.3727896],[-66.1588691,-17.3727936],[-66.1584227,-17.3728199],[-66.1578797,-17.3728518],[-66.1572446,-17.3728891],[-66.1571999,-17.3728991],[-66.1571481,-17.3729298],[-66.157128,-17.3729915],[-66.1570942,-17.3730475],[-66.1570483,-17.3730951],[-66.1569993,-17.3731282],[-66.1569358,-17.3731547],[-66.1568749,-17.3731659],[-66.1568835,-17.3734259],[-66.1568923,-17.3738058],[-66.1568939,-17.3738764],[-66.1568958,-17.3739372],[-66.1569051,-17.3742412],[-66.1569136,-17.3745156],[-66.156915,-17.3748036],[-66.156918,-17.37488],[-66.1569207,-17.374959],[-66.156923,-17.3750577],[-66.1569255,-17.3751091],[-66.1569368,-17.3755094],[-66.1569628,-17.3763095],[-66.1569647,-17.376371],[-66.1569655,-17.3764221],[-66.156977,-17.3769453],[-66.1569782,-17.3770234],[-66.1569803,-17.3770764],[-66.1570123,-17.3780292],[-66.1570174,-17.3781195],[-66.1570188,-17.3781946],[-66.1570357,-17.3791248],[-66.15705,-17.3799079],[-66.1570831,-17.3800277],[-66.1570866,-17.3800805],[-66.1570916,-17.3802733],[-66.1570933,-17.3803383],[-66.1570956,-17.3804297],[-66.1570763,-17.3805206],[-66.1569922,-17.3808875],[-66.1569773,-17.3809665],[-66.1568482,-17.3816394],[-66.1568381,-17.3817045],[-66.1568313,-17.3817807],[-66.1568221,-17.3818415],[-66.1568054,-17.3819095],[-66.1567818,-17.381949],[-66.1567098,-17.3820418],[-66.1566328,-17.3821412],[-66.156522,-17.3822842],[-66.1564707,-17.3823165],[-66.1561734,-17.3826982],[-66.156046,-17.3828618],[-66.15603,-17.3828823],[-66.1555527,-17.383495],[-66.1556202,-17.3835315],[-66.1558678,-17.3836967],[-66.1564308,-17.3840714],[-66.1564803,-17.3841048],[-66.1564438,-17.3841533],[-66.1558312,-17.3849738],[-66.1552685,-17.3857276],[-66.15466,-17.3865221],[-66.1546042,-17.3866004],[-66.1545695,-17.3866828],[-66.1543149,-17.3872702],[-66.1542768,-17.3873272],[-66.1542551,-17.3873875],[-66.1541807,-17.3877356],[-66.1541533,-17.3878639],[-66.1541408,-17.3879222],[-66.1540332,-17.3884258],[-66.1529838,-17.388202],[-66.1518364,-17.3879394],[-66.1517708,-17.3879252],[-66.1517588,-17.3879999],[-66.1516101,-17.388925],[-66.151604,-17.3889628],[-66.1515995,-17.3889879],[-66.1515922,-17.3890291],[-66.1514143,-17.390025],[-66.1512469,-17.3911242],[-66.1512362,-17.3911812],[-66.1512194,-17.3912742],[-66.1512104,-17.3913248],[-66.1511296,-17.3917295],[-66.1510383,-17.3921922],[-66.151028,-17.3922446],[-66.1510205,-17.3922844],[-66.1508421,-17.3932269],[-66.150834,-17.3932743],[-66.1508222,-17.3933342],[-66.1506546,-17.3943283],[-66.1504423,-17.3953552],[-66.1503862,-17.3956441],[-66.1502362,-17.3964175],[-66.1500348,-17.3975665],[-66.150021,-17.3976385],[-66.1500136,-17.3976877],[-66.1499487,-17.3984764],[-66.1499407,-17.3985529],[-66.1499065,-17.3990035],[-66.1498494,-17.3998668],[-66.1498455,-17.3999622],[-66.1497827,-17.4000289],[-66.1498026,-17.400102],[-66.1498239,-17.4001805],[-66.1499017,-17.4004668],[-66.1498937,-17.4005316],[-66.1498609,-17.4005847],[-66.149775,-17.4006681],[-66.1494422,-17.4009714],[-66.1493706,-17.4010595],[-66.149319,-17.4011365],[-66.149269,-17.4012475],[-66.1492708,-17.4013042],[-66.1493754,-17.4017517],[-66.1493766,-17.4018376],[-66.1493899,-17.4018833],[-66.1494074,-17.4019461],[-66.1494072,-17.4019767],[-66.1494001,-17.4020081],[-66.1493665,-17.4020731],[-66.149365,-17.4021126],[-66.1493916,-17.4021463],[-66.1494415,-17.4020872],[-66.1495007,-17.4019987],[-66.1495634,-17.4018758],[-66.1496062,-17.4017305],[-66.1496651,-17.4014827],[-66.1496972,-17.4013956],[-66.1497453,-17.4013201],[-66.1497967,-17.401271],[-66.1498751,-17.4012271],[-66.1499571,-17.401217],[-66.1499793,-17.4012193],[-66.1500309,-17.4012248],[-66.1500922,-17.4012466],[-66.1501424,-17.4012804],[-66.1501737,-17.4013168],[-66.1502239,-17.4013965],[-66.1502407,-17.4014466],[-66.1502508,-17.4015292],[-66.1502487,-17.4015792],[-66.1502416,-17.4016655],[-66.1502242,-17.4017332],[-66.1502032,-17.4018011],[-66.1500983,-17.4020873],[-66.1500631,-17.4021549],[-66.1500269,-17.4022327],[-66.1499912,-17.4022929],[-66.1499624,-17.4023414],[-66.1500946,-17.4023836],[-66.1501721,-17.4024063],[-66.150428,-17.4024026],[-66.1507616,-17.4024063],[-66.1508098,-17.4024175],[-66.1508417,-17.4024377]],"nodes":[783870536,2981937098,2981937104,10817709776,10817709782,6407741484,2981937110,5852304235,783870701,5852304234,785461700,5852304232,5852304233,3139524543,5852304231,785462425,785461940,5852304230,3137832328,785461591,3137832326,5852304229,785462338,5981393002,5852303982,785461875,12031386978,3139524558,785462689,3139524562,4012877364,6991210247,785462530,11953310109,11953310107,785462016,5676566960,4012877365,785461555,10595817775,2459025856,785462303,3137832371,11953310134,3283363595,11953310137,2459025917,2459025918,785461948,10173070425,12032271955,3137832377,3137832375,785461483,3137832374,12032271952,2459025919,785462228,12364355075,4143105645,5411561631,786837353,3137832397,785462382,4143105649,785461916,786837251,12639720439,785462755,3137832402,785462194,786837262,12639720438,3139141372,12639720437,5673237538,3137832407,3137832408,3139141375,4113102044,786837442,786697457,786837342,8920823238,786837409,786837164,786837315,9206550817,7212444522,786837085,7212444521,7212444524,7212444528,786837263,7212444527,7212444519,789378943,7212444518,7212444517,786837367,6335462521,3139141416,3139141422,6335462522,3139141424,786837132,3139141426,4583308780,9903373357,789429412,4143105665,786837419,786837304,4231190578,3139141532,786837158,3139141541,12639791582,8921352622,8542797897,4319053283,8228333119,8228327808,4232319967,8921352624,3139141548,786837049,12639797709,786837335,10286957085,786837188,8921352626,851595223,4092054738,4826368371,9421257730,5423606637,1849462822,4826368384,4092053658,1573956127,11079404847,2317801102,2938504605,2938504607,3281552574,3281552575,8336001235,1573955997,5395813233,1577578193,2317801105,851594958,2317801107,1849462862,2938504639,4293894336,4293894903,3549077680,2555201623,1574086933,4293894917,1849462889,5040236968,5040236973,1577578151,3283363688,1849462895,11296295738,1849462897,4092054740,1865014746,1849462899,4503707176,1849462903,2160400899,11535045442,11707600500,851594766,11707600508,11707600537,1849462931,11707600531,2160400887,11071395285,11071395287,2160399194,1849462952,1849462955,3267779271,851594781,1849462957,11071450643,1849462968,2468432986,851594784,3267779294,1849462970,1849462977,851594885,2555201638,1849462984,851595399,11071450645,11070168865,1849462988,851595224,1849462993,3267790091,851595009,1849462996,1849462999,851595124,8927805091,851595343,11071300152,851594756,3658380318,2468433001,11069861999,11069861998,851594726,9175127262,851595044,5262484220,3658380321,851594788,12551721135,3658380322,563279735,563279728,1849463009,1849463010,851595235,10774545005,2331301978,10774545014,3296125249,9845867331,851594830,2290559025,9531771391,9768692252,9529353644,3300171298,2851923904,9768692251,3300171307,2851923908,3300171306,7304392738,9482805073,13161542286,851595381,7304392739,851595065,3275133584,9875778017,851594888,9948774394,2851923697,851595095,9482805148,9875772987,851594793,3275133586,9768692260,9768692261,9875778108,851594812,9875778128,9875778124,2331301984,4929965582,9875778078,851594894,851595276,3674260515,2331302074,2331302094,9655177095,2331302104,7436801323,4261955416,11071382475,2331302149,4728105053,9003433491,9003433529,4728105054,6534497611,845118731,2331302194,845125496,2331302267,845125506,689437391,2287827733,2287827735,2287827736,599541188,599541187,2287827738,10705908992,9731395686,2126672391,2126672395,2126672398,10810399593,2126672463,602989999,599541199,2126672476,9021398369,11968312655,10800510170,2126672644,2126672670,2126672764,10029085283,2126672935,2126673021,2126673080,12813146199,2126673139,10810399530,13527623045,601508607,13527623044,12879432102,2282808507,9925978505,10595711853,676069615,676069616,5448974512,2380943039,10595711839,676069612,10595711840,10685222866,391753903,10685222867,4341961467,391745658,4341961466,9936630991,8337099517,8337099530,4603130105,8337099535,8337099531,4603130107,8337099502,315902855,8337099542,11294671616,2296981945,312424909,311356811,2296981961,8337099519,10857165589,10857165588,8337099518,310501374,8343523392,2364044105,13353688846,310501326,9612259298,9531168716,8344129670,310501322,8344129672,12899694804,310501344,4341961456,310503101,4341961457,4341946257,310501355,2317965895,11885983267,12874237771,11886036004,310501186,310501187,4341946253,310501188,4341946255,3952902739,310501176,7919097328,3952902747,308306728,2289661502,303214821,698492410,2289661567,1851061867,2318884993,310256065,8515866939,8686453437,303215161,8686453438,310287558,310500687,8398265856,310500993,9121686991,310501008,9121686993,1727306399,648548725,311361483,323985741,2768898982,659962343,12313136868,12313136867,3322574455,3322574457,2236815538,8089836050,2236815592,2236815597,3322575583,702511997,3322575607,702511999,702511981,3322575658,2236815706,3322575763,3322575767,9928232795,3322575773,702511983,2236815741,3322575764,702511985,9928232794,9928232793,702512005,2236815607,3322575606,2236815601,2236815599,8192846569,3322575591,3322575604,2236815606,3322575618,2236815617,702511973,3322575639,3322575641,3322575648,3322575651,2236815694,702511967,3322575780,3322575789,8192846546,2236815836,6129312138,702511825,702511827,12313146805,12313146806,6129312152]},"gtfs":{"agency_id":18,"route_id":102,"services":[{"service_id":"Mo-Su","startTime":"06:00","endTime":"22:00","trip_id":11148102}],"filteredStops":{"nodes":[783870536,2981937098,2981937104,10817709776,10817709782,6407741484,2981937110,5852304235,783870701,5852304234,785461700,5852304232,5852304233,3139524543,5852304231,785462425,785461940,5852304230,3137832328,785461591,3137832326,5852304229,785462338,5981393002,5852303982,785461875,12031386978,3139524558,785462689,3139524562,4012877364,6991210247,785462530,11953310109,11953310107,785462016,5676566960,4012877365,785461555,10595817775,2459025856,785462303,3137832371,11953310134,3283363595,11953310137,2459025917,2459025918,785461948,10173070425,12032271955,3137832377,3137832375,785461483,3137832374,12032271952,2459025919,785462228,12364355075,4143105645,5411561631,786837353,3137832397,785462382,4143105649,785461916,786837251,12639720439,785462755,3137832402,785462194,786837262,12639720438,3139141372,12639720437,5673237538,3137832407,3137832408,3139141375,4113102044,786837442,786697457,786837342,8920823238,786837409,786837164,786837315,9206550817,7212444522,786837085,7212444521,7212444524,7212444528,786837263,7212444527,7212444519,789378943,7212444518,7212444517,786837367,6335462521,3139141416,3139141422,6335462522,3139141424,786837132,3139141426,4583308780,9903373357,789429412,4143105665,786837419,786837304,4231190578,3139141532,786837158,3139141541,12639791582,8921352622,8542797897,4319053283,8228333119,8228327808,4232319967,8921352624,3139141548,786837049,12639797709,786837335,10286957085,786837188,8921352626,851595223,4092054738,4826368371,9421257730,5423606637,1849462822,4826368384,4092053658,1573956127,11079404847,2317801102,2938504605,2938504607,3281552574,3281552575,8336001235,1573955997,5395813233,1577578193,2317801105,851594958,2317801107,1849462862,2938504639,4293894336,4293894903,3549077680,2555201623,1574086933,4293894917,1849462889,5040236968,5040236973,1577578151,3283363688,1849462895,11296295738,1849462897,4092054740,1865014746,1849462899,4503707176,1849462903,2160400899,11535045442,11707600500,851594766,11707600508,11707600537,1849462931,11707600531,2160400887,11071395285,11071395287,2160399194,1849462952,1849462955,3267779271,851594781,1849462957,11071450643,1849462968,2468432986,851594784,3267779294,1849462970,1849462977,851594885,2555201638,1849462984,851595399,11071450645,11070168865,1849462988,851595224,1849462993,3267790091,851595009,1849462996,1849462999,851595124,8927805091,851595343,11071300152,851594756,3658380318,2468433001,11069861999,11069861998,851594726,9175127262,851595044,5262484220,3658380321,851594788,12551721135,3658380322,563279735,563279728,1849463009,1849463010,851595235,10774545005,2331301978,10774545014,3296125249,9845867331,851594830,2290559025,9531771391,9768692252,9529353644,3300171298,2851923904,9768692251,3300171307,2851923908,3300171306,7304392738,9482805073,13161542286,851595381,7304392739,851595065,3275133584,9875778017,851594888,9948774394,2851923697,851595095,9482805148,9875772987,851594793,3275133586,9768692260,9768692261,9875778108,851594812,9875778128,9875778124,2331301984,4929965582,9875778078,851594894,851595276,3674260515,2331302074,2331302094,9655177095,2331302104,7436801323,4261955416,11071382475,2331302149,4728105053,9003433491,9003433529,4728105054,6534497611,845118731,2331302194,845125496,2331302267,845125506,689437391,2287827733,2287827735,2287827736,599541188,599541187,2287827738,10705908992,9731395686,2126672391,2126672395,2126672398,10810399593,2126672463,602989999,599541199,2126672476,9021398369,11968312655,10800510170,2126672644,2126672670,2126672764,10029085283,2126672935,2126673021,2126673080,12813146199,2126673139,10810399530,13527623045,601508607,13527623044,12879432102,2282808507,9925978505,10595711853,676069615,676069616,5448974512,2380943039,10595711839,676069612,10595711840,10685222866,391753903,10685222867,4341961467,391745658,4341961466,9936630991,8337099517,8337099530,4603130105,8337099535,8337099531,4603130107,8337099502,315902855,8337099542,11294671616,2296981945,312424909,311356811,2296981961,8337099519,10857165589,10857165588,8337099518,310501374,8343523392,2364044105,13353688846,310501326,9612259298,9531168716,8344129670,310501322,8344129672,12899694804,310501344,4341961456,310503101,4341961457,4341946257,310501355,2317965895,11885983267,12874237771,11886036004,310501186,310501187,4341946253,310501188,4341946255,3952902739,310501176,7919097328,3952902747,308306728,2289661502,303214821,698492410,2289661567,1851061867,2318884993,310256065,8515866939,8686453437,303215161,8686453438,310287558,310500687,8398265856,310500993,9121686991,310501008,9121686993,1727306399,648548725,311361483,323985741,2768898982,659962343,12313136868,12313136867,3322574455,3322574457,2236815538,8089836050,2236815592,2236815597,3322575583,702511997,3322575607,702511999,702511981,3322575658,2236815706,3322575763,3322575767,9928232795,3322575773,702511983,2236815741,3322575764,702511985,9928232794,9928232793,702512005,2236815607,3322575606,2236815601,2236815599,8192846569,3322575591,3322575604,2236815606,3322575618,2236815617,702511973,3322575639,3322575641,3322575648,3322575651,2236815694,702511967,3322575780,3322575789,8192846546,2236815836,6129312138,702511825,702511827,12313146805,12313146806,6129312152],"coordinates":[[-66.2422873,-17.3293194],[-66.2422149,-17.3293466],[-66.2416559,-17.3296716],[-66.2412223,-17.3299422],[-66.2410985,-17.3300253],[-66.2408625,-17.3301838],[-66.2406044,-17.3303153],[-66.2405462,-17.3303629],[-66.2404956,-17.3304438],[-66.2404565,-17.3306042],[-66.2404922,-17.3312342],[-66.240472,-17.3312901],[-66.2404473,-17.3313647],[-66.2403515,-17.3315312],[-66.2400885,-17.3318117],[-66.2399128,-17.3319634],[-66.239684,-17.332028],[-66.2393834,-17.3320442],[-66.2391672,-17.3320176],[-66.2388159,-17.3319627],[-66.238737,-17.3319777],[-66.238605,-17.3320104],[-66.2384792,-17.3320459],[-66.2380072,-17.3323686],[-66.2375193,-17.3327186],[-66.237378,-17.3328504],[-66.237288,-17.3329367],[-66.2372534,-17.3329783],[-66.2370291,-17.3332695],[-66.2369763,-17.3333226],[-66.2365536,-17.3336652],[-66.2364768,-17.3337151],[-66.2363523,-17.3338001],[-66.236161,-17.3339488],[-66.2358403,-17.3341783],[-66.235674,-17.3342973],[-66.2354593,-17.3344105],[-66.2349772,-17.3346405],[-66.2341526,-17.3349685],[-66.2340255,-17.3350186],[-66.2336531,-17.3351148],[-66.2325018,-17.3353825],[-66.231486,-17.3357944],[-66.2309404,-17.3360118],[-66.2308968,-17.3360291],[-66.2308077,-17.3360665],[-66.2307475,-17.3360918],[-66.2306862,-17.3361135],[-66.2305428,-17.336173],[-66.2300428,-17.336123],[-66.2299588,-17.3361103],[-66.2298748,-17.3360976],[-66.2297536,-17.336087],[-66.2296734,-17.3360828],[-66.229604,-17.3360846],[-66.2295169,-17.336096],[-66.2293789,-17.3361151],[-66.2290702,-17.3362109],[-66.2290111,-17.3362292],[-66.2289795,-17.3362393],[-66.2287543,-17.3363267],[-66.2279052,-17.3367483],[-66.227459,-17.33691],[-66.2270302,-17.3370872],[-66.226886,-17.3371418],[-66.2265007,-17.3372591],[-66.2262982,-17.3372768],[-66.2261548,-17.3372828],[-66.2259232,-17.337294],[-66.2256747,-17.3373136],[-66.2254528,-17.3373563],[-66.2245677,-17.3376286],[-66.2240422,-17.3377871],[-66.2238733,-17.3378384],[-66.2237942,-17.3378614],[-66.2236885,-17.3378923],[-66.2236493,-17.3379022],[-66.2235488,-17.3379299],[-66.2234973,-17.3379419],[-66.222548,-17.3382684],[-66.2223622,-17.3383347],[-66.2213502,-17.3386482],[-66.2199955,-17.3390451],[-66.2192686,-17.3393338],[-66.2191844,-17.3393698],[-66.2188832,-17.3394682],[-66.2182882,-17.3396164],[-66.2177894,-17.3397553],[-66.2177617,-17.339763],[-66.2177173,-17.3397757],[-66.2176541,-17.3397969],[-66.2166279,-17.3401738],[-66.2166067,-17.340181],[-66.2165754,-17.3401915],[-66.2165304,-17.3402085],[-66.2155828,-17.3405503],[-66.215498,-17.3405854],[-66.2154262,-17.3406101],[-66.2143901,-17.3409911],[-66.2142614,-17.3410308],[-66.2141093,-17.3410933],[-66.2140047,-17.3411716],[-66.213821,-17.3412418],[-66.2137916,-17.3412532],[-66.2137019,-17.3412961],[-66.2136206,-17.3413254],[-66.2134291,-17.3413925],[-66.2133654,-17.3414171],[-66.213119,-17.3415124],[-66.212918,-17.3415901],[-66.2124306,-17.3418024],[-66.212404,-17.341814],[-66.212223,-17.3419047],[-66.2121759,-17.3419282],[-66.2112055,-17.3424478],[-66.2110347,-17.3425321],[-66.2086319,-17.3436059],[-66.2085626,-17.3436348],[-66.2079192,-17.3439025],[-66.2078418,-17.3439374],[-66.2072476,-17.3441831],[-66.2069779,-17.3443003],[-66.2068557,-17.3443524],[-66.2064436,-17.3445009],[-66.2062535,-17.3445722],[-66.2061959,-17.3446008],[-66.2061006,-17.3446431],[-66.2058889,-17.3447398],[-66.2054994,-17.3449178],[-66.2050749,-17.3450618],[-66.2049133,-17.3451279],[-66.2043116,-17.3453634],[-66.2042144,-17.3453991],[-66.2041561,-17.3454287],[-66.2036611,-17.345667],[-66.2033826,-17.3458024],[-66.2029937,-17.3459914],[-66.2027057,-17.3461282],[-66.2025158,-17.3462099],[-66.2023733,-17.3462723],[-66.2022868,-17.3463085],[-66.2011817,-17.3467548],[-66.2005236,-17.347033],[-66.2003118,-17.3471131],[-66.1999673,-17.3472561],[-66.1999066,-17.3472805],[-66.1998019,-17.3473211],[-66.1996959,-17.3473615],[-66.1986244,-17.3478087],[-66.1983887,-17.3479038],[-66.1975452,-17.3482488],[-66.1969189,-17.3485083],[-66.1966774,-17.3486211],[-66.1965222,-17.3486977],[-66.1959066,-17.3490435],[-66.1946996,-17.3496712],[-66.1941674,-17.3499621],[-66.1939153,-17.3500999],[-66.1935202,-17.3503159],[-66.193244,-17.3504752],[-66.1929365,-17.3506544],[-66.1926213,-17.3508604],[-66.1923719,-17.3510234],[-66.1922896,-17.3510787],[-66.1920062,-17.351265],[-66.1917342,-17.3514518],[-66.1915437,-17.3515827],[-66.1913324,-17.3517395],[-66.1907466,-17.3521766],[-66.1907138,-17.3522011],[-66.1899628,-17.3528104],[-66.1898741,-17.3528787],[-66.1897727,-17.352958],[-66.1889861,-17.3535872],[-66.1889207,-17.3536392],[-66.1880863,-17.3542805],[-66.1878493,-17.354472],[-66.1877648,-17.3545343],[-66.1877324,-17.3545599],[-66.1876662,-17.3546102],[-66.1876366,-17.3546327],[-66.1875869,-17.3546705],[-66.1875266,-17.3547178],[-66.187126,-17.3550327],[-66.1866871,-17.3553771],[-66.185658,-17.3561774],[-66.1856109,-17.356214],[-66.1850746,-17.3565958],[-66.184936,-17.3567105],[-66.1848006,-17.3568306],[-66.1847301,-17.3569011],[-66.1846468,-17.3570138],[-66.1840773,-17.3578876],[-66.1833082,-17.3589644],[-66.1832508,-17.3590284],[-66.1831977,-17.3590967],[-66.1831341,-17.3591824],[-66.1830695,-17.3592918],[-66.1826633,-17.3601208],[-66.1821207,-17.3612509],[-66.1820694,-17.3613293],[-66.1817636,-17.3618311],[-66.1814995,-17.36224],[-66.1814453,-17.3623112],[-66.1813907,-17.3623714],[-66.1812461,-17.3625434],[-66.1810592,-17.3627734],[-66.1808856,-17.3629293],[-66.1806538,-17.3631396],[-66.1804759,-17.3632776],[-66.1799864,-17.3636602],[-66.1796769,-17.3638997],[-66.1794633,-17.364045],[-66.1793056,-17.3641448],[-66.1790011,-17.3643096],[-66.178873,-17.3643769],[-66.1787583,-17.3644371],[-66.1786344,-17.3644825],[-66.1785679,-17.3645046],[-66.1785234,-17.3645185],[-66.178408,-17.3645546],[-66.1783719,-17.3645654],[-66.178284,-17.3645885],[-66.1779812,-17.3646935],[-66.1767955,-17.3650514],[-66.1767575,-17.3650629],[-66.1766743,-17.3650875],[-66.1765439,-17.3651266],[-66.1764768,-17.3651467],[-66.1751548,-17.3655435],[-66.1750141,-17.3655887],[-66.1749184,-17.3656146],[-66.1748031,-17.3656383],[-66.1733237,-17.3657397],[-66.1718641,-17.365821],[-66.1717966,-17.3658248],[-66.1715775,-17.3658391],[-66.1714925,-17.3658447],[-66.1714101,-17.3658491],[-66.1712985,-17.3658629],[-66.1711497,-17.3658979],[-66.171117,-17.3659059],[-66.1709461,-17.3659562],[-66.1706407,-17.3660461],[-66.1704853,-17.3660898],[-66.1703409,-17.3661184],[-66.1702301,-17.3661286],[-66.1701006,-17.3661299],[-66.1699469,-17.3661229],[-66.1697832,-17.3661045],[-66.1696172,-17.3660766],[-66.1694981,-17.3660445],[-66.1694323,-17.3660214],[-66.1693403,-17.3659874],[-66.1690477,-17.3658885],[-66.1688934,-17.3658519],[-66.1687179,-17.3658213],[-66.1686355,-17.3658171],[-66.1685651,-17.3658135],[-66.1682722,-17.3657976],[-66.1679002,-17.3657773],[-66.1678124,-17.3657801],[-66.167736,-17.3657875],[-66.16768,-17.365801],[-66.1676156,-17.3658199],[-66.1675492,-17.3658444],[-66.167449,-17.3658858],[-66.1672959,-17.3659658],[-66.1670355,-17.3661164],[-66.1669496,-17.366166],[-66.1668968,-17.3661974],[-66.1666857,-17.366323],[-66.1665063,-17.3664424],[-66.1661032,-17.3667279],[-66.1658913,-17.366882],[-66.1658373,-17.3669237],[-66.1651421,-17.3674257],[-66.1642493,-17.3680575],[-66.1641573,-17.3681314],[-66.1640875,-17.3681998],[-66.1640592,-17.3682405],[-66.1640437,-17.368284],[-66.164057,-17.3683599],[-66.1640552,-17.3684238],[-66.1640528,-17.3684526],[-66.1640639,-17.368665],[-66.1640677,-17.3688272],[-66.1640694,-17.3690235],[-66.1640724,-17.3693495],[-66.1640738,-17.3695031],[-66.1640827,-17.3704323],[-66.1640844,-17.370569],[-66.164069,-17.371045],[-66.1640361,-17.3712965],[-66.1639411,-17.3718124],[-66.1637796,-17.372384],[-66.163746,-17.3724797],[-66.1636543,-17.3724851],[-66.1632714,-17.3725106],[-66.1627848,-17.3725451],[-66.1626975,-17.3725484],[-66.1625774,-17.372555],[-66.162506,-17.3725594],[-66.1624945,-17.3725598],[-66.162333,-17.3725692],[-66.1608008,-17.3726716],[-66.1606043,-17.3726825],[-66.1605099,-17.3726889],[-66.1605013,-17.3726894],[-66.1591567,-17.3727758],[-66.1590778,-17.3727807],[-66.1589923,-17.372786],[-66.1589345,-17.3727896],[-66.1588691,-17.3727936],[-66.1584227,-17.3728199],[-66.1578797,-17.3728518],[-66.1572446,-17.3728891],[-66.1571999,-17.3728991],[-66.1571481,-17.3729298],[-66.157128,-17.3729915],[-66.1570942,-17.3730475],[-66.1570483,-17.3730951],[-66.1569993,-17.3731282],[-66.1569358,-17.3731547],[-66.1568749,-17.3731659],[-66.1568835,-17.3734259],[-66.1568923,-17.3738058],[-66.1568939,-17.3738764],[-66.1568958,-17.3739372],[-66.1569051,-17.3742412],[-66.1569136,-17.3745156],[-66.156915,-17.3748036],[-66.156918,-17.37488],[-66.1569207,-17.374959],[-66.156923,-17.3750577],[-66.1569255,-17.3751091],[-66.1569368,-17.3755094],[-66.1569628,-17.3763095],[-66.1569647,-17.376371],[-66.1569655,-17.3764221],[-66.156977,-17.3769453],[-66.1569782,-17.3770234],[-66.1569803,-17.3770764],[-66.1570123,-17.3780292],[-66.1570174,-17.3781195],[-66.1570188,-17.3781946],[-66.1570357,-17.3791248],[-66.15705,-17.3799079],[-66.1570831,-17.3800277],[-66.1570866,-17.3800805],[-66.1570916,-17.3802733],[-66.1570933,-17.3803383],[-66.1570956,-17.3804297],[-66.1570763,-17.3805206],[-66.1569922,-17.3808875],[-66.1569773,-17.3809665],[-66.1568482,-17.3816394],[-66.1568381,-17.3817045],[-66.1568313,-17.3817807],[-66.1568221,-17.3818415],[-66.1568054,-17.3819095],[-66.1567818,-17.381949],[-66.1567098,-17.3820418],[-66.1566328,-17.3821412],[-66.156522,-17.3822842],[-66.1564707,-17.3823165],[-66.1561734,-17.3826982],[-66.156046,-17.3828618],[-66.15603,-17.3828823],[-66.1555527,-17.383495],[-66.1556202,-17.3835315],[-66.1558678,-17.3836967],[-66.1564308,-17.3840714],[-66.1564803,-17.3841048],[-66.1564438,-17.3841533],[-66.1558312,-17.3849738],[-66.1552685,-17.3857276],[-66.15466,-17.3865221],[-66.1546042,-17.3866004],[-66.1545695,-17.3866828],[-66.1543149,-17.3872702],[-66.1542768,-17.3873272],[-66.1542551,-17.3873875],[-66.1541807,-17.3877356],[-66.1541533,-17.3878639],[-66.1541408,-17.3879222],[-66.1540332,-17.3884258],[-66.1529838,-17.388202],[-66.1518364,-17.3879394],[-66.1517708,-17.3879252],[-66.1517588,-17.3879999],[-66.1516101,-17.388925],[-66.151604,-17.3889628],[-66.1515995,-17.3889879],[-66.1515922,-17.3890291],[-66.1514143,-17.390025],[-66.1512469,-17.3911242],[-66.1512362,-17.3911812],[-66.1512194,-17.3912742],[-66.1512104,-17.3913248],[-66.1511296,-17.3917295],[-66.1510383,-17.3921922],[-66.151028,-17.3922446],[-66.1510205,-17.3922844],[-66.1508421,-17.3932269],[-66.150834,-17.3932743],[-66.1508222,-17.3933342],[-66.1506546,-17.3943283],[-66.1504423,-17.3953552],[-66.1503862,-17.3956441],[-66.1502362,-17.3964175],[-66.1500348,-17.3975665],[-66.150021,-17.3976385],[-66.1500136,-17.3976877],[-66.1499487,-17.3984764],[-66.1499407,-17.3985529],[-66.1499065,-17.3990035],[-66.1498494,-17.3998668],[-66.1498455,-17.3999622],[-66.1497827,-17.4000289],[-66.1498026,-17.400102],[-66.1498239,-17.4001805],[-66.1499017,-17.4004668],[-66.1498937,-17.4005316],[-66.1498609,-17.4005847],[-66.149775,-17.4006681],[-66.1494422,-17.4009714],[-66.1493706,-17.4010595],[-66.149319,-17.4011365],[-66.149269,-17.4012475],[-66.1492708,-17.4013042],[-66.1493754,-17.4017517],[-66.1493766,-17.4018376],[-66.1493899,-17.4018833],[-66.1494074,-17.4019461],[-66.1494072,-17.4019767],[-66.1494001,-17.4020081],[-66.1493665,-17.4020731],[-66.149365,-17.4021126],[-66.1493916,-17.4021463],[-66.1494415,-17.4020872],[-66.1495007,-17.4019987],[-66.1495634,-17.4018758],[-66.1496062,-17.4017305],[-66.1496651,-17.4014827],[-66.1496972,-17.4013956],[-66.1497453,-17.4013201],[-66.1497967,-17.401271],[-66.1498751,-17.4012271],[-66.1499571,-17.401217],[-66.1499793,-17.4012193],[-66.1500309,-17.4012248],[-66.1500922,-17.4012466],[-66.1501424,-17.4012804],[-66.1501737,-17.4013168],[-66.1502239,-17.4013965],[-66.1502407,-17.4014466],[-66.1502508,-17.4015292],[-66.1502487,-17.4015792],[-66.1502416,-17.4016655],[-66.1502242,-17.4017332],[-66.1502032,-17.4018011],[-66.1500983,-17.4020873],[-66.1500631,-17.4021549],[-66.1500269,-17.4022327],[-66.1499912,-17.4022929],[-66.1499624,-17.4023414],[-66.1500946,-17.4023836],[-66.1501721,-17.4024063],[-66.150428,-17.4024026],[-66.1507616,-17.4024063],[-66.1508098,-17.4024175],[-66.1508417,-17.4024377]]}}},{"type":"Feature","properties":{"bench":"no","bin":"no","bus":"yes","highway":"bus_stop","lit":"no","name":"Parada Apote","public_transport":"platform","shelter":"yes","id":6644653786},"geometry":{"type":"Point","coordinates":[-66.2425033,-17.3292296]}},{"type":"Feature","properties":{"addr:city":"Cochabamba","bench":"no","bin":"no","bus":"yes","covered":"no","departures_board":"no","highway":"bus_stop","lit":"no","name":"Parada Cerro San Miguel","public_transport":"platform","shelter":"no","id":7217558280},"geometry":{"type":"Point","coordinates":[-66.1507876,-17.4023755]}},{"type":"Feature","properties":{"bench":"no","bin":"no","bus":"yes","departures_board":"no","highway":"bus_stop","informal":"yes","kerb":"lowered","level":"0","lit":"no","name":"Libertador Simón Bolívar","public_transport":"platform","shelter":"no","tactile_paving":"no","wheelchair":"yes","id":10705911006},"geometry":{"type":"Point","coordinates":[-66.1628333,-17.3725944]}},{"type":"Feature","properties":{"bench":"no","bin":"no","bus":"yes","departures_board":"no","highway":"bus_stop","informal":"yes","level":"0","lit":"no","name":"Cruce Taquiña","operator":"Gobierno Autónomo Municipal de Cochabamba","public_transport":"platform","shelter":"no","tactile_paving":"no","wheelchair":"no","id":4710462982},"geometry":{"type":"Point","coordinates":[-66.187902,-17.3545067]}},{"type":"Feature","properties":{"bench":"no","bin":"no","bus":"yes","departures_board":"no","highway":"bus_stop","kerb":"raised","level":"0","lit":"no","name":"Bolívar","operator":"Gobierno Autónomo Municipal de Cochabamba","operator:short":"GAMC","operator:type":"government","pole":"yes","public_transport":"platform","shelter":"no","tactile_paving":"no","wheelchair":"no","id":6546789744},"geometry":{"type":"Point","coordinates":[-66.1510837,-17.3921487]}}]}