{"type":"FeatureCollection","features":[{"type":"Feature","properties":{"air_conditioning":"yes","bicycle":"yes","charge":"3.5 BOB/person;2.5 BOB/person inter stops;2 BOB/child;2 BOB/university student;2 BOB/senior;2 BOB/disabled;1 BOB/student","check_date":"29/12/2025","colour":"#ff0000","distance":"5.48","duration":"00:17","fee":"yes","from":"Kiñiloma","internet_access":"wlan","internet_access:fee":"no","interval":"00:30","maxspeed":"80","name":"Tranvía Roja: Kiñiloma → Cochabamba","network":"Mi Tren","note":"Tras la prolongación hacia el sur, falta actualizar la etiqueta distance y duration.","opening_hours":"Mo-Su,PH 07:30-20:00","operator":"Mi Tren","operator:type":"public","passenger":"suburban","payment:coins":"yes","payment:notes":"yes","power_supply":"yes","public_transport:version":"2","ref":"Roja","reservation":"no","roundtrip":"no","route":"light_rail","socket:device:USB-A":"yes","socket:device:USB-A:voltage":"5","socket:multi":"yes","socket:multi:voltage":"220","source":"Mi Tren","start_date":"2022-09-13","surveillance":"indoor","to":"Cochabamba","type":"route","via":"San Antonio","wheelchair":"yes","wikidata":"Q114312991","id":14576927},"geometry":{"type":"LineString","coordinates":[[-66.1182778,-17.4664549],[-66.1185014,-17.4663876],[-66.118613,-17.4663415],[-66.118704,-17.4662917],[-66.1189266,-17.4661722],[-66.1191465,-17.4660437],[-66.1193858,-17.4658919],[-66.1196539,-17.4656901],[-66.1198882,-17.4654883],[-66.1202611,-17.465058],[-66.1206655,-17.4645369],[-66.1210614,-17.4639943],[-66.1214413,-17.4635032],[-66.1215322,-17.4633923],[-66.1221908,-17.4624249],[-66.1222831,-17.4622791],[-66.1226993,-17.4616801],[-66.1230341,-17.4611879],[-66.1231663,-17.4609534],[-66.1235218,-17.4603142],[-66.1235577,-17.4602179],[-66.1235854,-17.4601146],[-66.1236135,-17.4600148],[-66.1236598,-17.4599144],[-66.1236684,-17.4598993],[-66.1238542,-17.4595695],[-66.1239134,-17.4594645],[-66.123924,-17.4594462],[-66.1241677,-17.4591353],[-66.1245317,-17.4584527],[-66.1256629,-17.4563686],[-66.1258088,-17.4561232],[-66.1259574,-17.4558958],[-66.1263296,-17.45533],[-66.1265081,-17.4550686],[-66.1269244,-17.4545599],[-66.1282598,-17.4530618],[-66.1286616,-17.4526166],[-66.1290727,-17.4521514],[-66.1292446,-17.45196],[-66.1295501,-17.451637],[-66.1296508,-17.4515442],[-66.1297626,-17.4514246],[-66.1298995,-17.4512671],[-66.1299806,-17.4511739],[-66.1300964,-17.4510406],[-66.1301873,-17.4508845],[-66.1302749,-17.4507822],[-66.1305546,-17.4504969],[-66.1311017,-17.4500404],[-66.1314543,-17.4497368],[-66.1320862,-17.4491488],[-66.1322863,-17.4489582],[-66.132491,-17.4487894],[-66.1327806,-17.448576],[-66.1331072,-17.4483545],[-66.133976,-17.4478469],[-66.134409,-17.4476066],[-66.1344778,-17.4475686],[-66.1347245,-17.4474216],[-66.1349388,-17.447291],[-66.1351444,-17.4471657],[-66.1353685,-17.44704],[-66.1358603,-17.446764],[-66.1363136,-17.4464907],[-66.1381021,-17.4454642],[-66.1389166,-17.4449998],[-66.1392675,-17.4448574],[-66.1393296,-17.4448204],[-66.1395141,-17.4447103],[-66.1397284,-17.4445869],[-66.1400296,-17.4443456],[-66.1403471,-17.4441609],[-66.1405074,-17.4440641],[-66.1406506,-17.4439629],[-66.1407596,-17.4438762],[-66.140904,-17.4437507],[-66.1409582,-17.4436987],[-66.1415545,-17.4431673],[-66.1419845,-17.4427708],[-66.1424465,-17.4423702],[-66.1430182,-17.4418421],[-66.1433913,-17.4415128],[-66.1435152,-17.4413897],[-66.1436527,-17.4412331],[-66.1438103,-17.4410309],[-66.1440647,-17.4406676],[-66.1443015,-17.4404138],[-66.1444271,-17.440201],[-66.1445307,-17.4400183],[-66.1445434,-17.4399958],[-66.1446088,-17.4397896],[-66.1446361,-17.4397033],[-66.1448383,-17.4393681],[-66.1450117,-17.4390648],[-66.1452709,-17.4386973],[-66.145696,-17.4380649],[-66.1457472,-17.437988],[-66.1458044,-17.4379085],[-66.1458471,-17.437847],[-66.1462994,-17.4371992],[-66.1467167,-17.4365955],[-66.1479625,-17.4348077],[-66.1481107,-17.4346056],[-66.1482632,-17.4344322],[-66.1483749,-17.4343245],[-66.148432,-17.4342695],[-66.1486122,-17.4340962],[-66.1487703,-17.433944],[-66.1489638,-17.4336785],[-66.1491196,-17.4335386],[-66.1494374,-17.4332179],[-66.1495228,-17.433112],[-66.1495977,-17.4330172],[-66.1496593,-17.4329171],[-66.1497272,-17.4327765],[-66.1499941,-17.4322163],[-66.1501275,-17.4319675],[-66.1502342,-17.4317789],[-66.1504411,-17.4314315],[-66.1507989,-17.4308624],[-66.1508618,-17.430759],[-66.151031,-17.4304645],[-66.1511628,-17.4301965],[-66.1512355,-17.4300356],[-66.1512978,-17.4298834],[-66.1513093,-17.4298443],[-66.1513841,-17.4296623],[-66.1514478,-17.4295244],[-66.1515162,-17.4294191],[-66.1516269,-17.4292884],[-66.1517086,-17.4291989],[-66.1520469,-17.4289646],[-66.1522416,-17.428772],[-66.1524025,-17.4286176],[-66.1526255,-17.4283245],[-66.1528534,-17.4280971],[-66.1530111,-17.4279233],[-66.1531061,-17.4277874],[-66.1532873,-17.4274772],[-66.1534183,-17.4272072],[-66.1535238,-17.4269583],[-66.1536709,-17.4265346],[-66.1538246,-17.4261238],[-66.1539182,-17.4258186],[-66.153996,-17.4255342],[-66.1540153,-17.4254281],[-66.1540363,-17.4253129],[-66.1540836,-17.4250258],[-66.1541026,-17.4247596],[-66.1541083,-17.4246553],[-66.1541113,-17.4246142],[-66.1541134,-17.424567],[-66.1541281,-17.4242332],[-66.1542113,-17.4238609],[-66.1542235,-17.4235534],[-66.1542332,-17.4232634],[-66.1541859,-17.422917],[-66.1541877,-17.4228684],[-66.1542025,-17.4224745],[-66.1542912,-17.4216363],[-66.1544118,-17.4185804],[-66.1544678,-17.4173887],[-66.1545326,-17.4156913],[-66.1545169,-17.4154283],[-66.1545211,-17.4148376],[-66.1545366,-17.4144747],[-66.154566,-17.4137943],[-66.154566,-17.4136002],[-66.1545669,-17.4133634],[-66.1545599,-17.4130929],[-66.1545502,-17.4128746],[-66.1544955,-17.4123655],[-66.1544443,-17.4118046],[-66.1544276,-17.4116223],[-66.1543025,-17.4101708],[-66.1542959,-17.4100765],[-66.1542922,-17.4100228],[-66.1542608,-17.4096435],[-66.1542703,-17.4095265],[-66.1542763,-17.4094193],[-66.1542773,-17.4093634],[-66.1542944,-17.4092718],[-66.1543157,-17.409214],[-66.1543541,-17.4091327],[-66.1544431,-17.4089184],[-66.1544621,-17.4088171],[-66.1544144,-17.4071115],[-66.1544139,-17.4070951],[-66.1543972,-17.4066281],[-66.1543901,-17.4065168],[-66.1543787,-17.4064054],[-66.1543485,-17.4062918],[-66.1541309,-17.4056388],[-66.1539677,-17.405116],[-66.1539559,-17.4050429],[-66.1539059,-17.4039404]],"nodes":[12623661843,12846578776,12846578789,3620629426,12846578775,3620629418,549671983,12846578778,3640222593,549671982,3640222423,549671981,2735294108,10008002010,6186229530,10008002001,1492625509,549671991,8301471677,12846597748,12846597757,12846597756,12846597755,12846597749,12846597758,12846597759,12846597751,12846597750,549671989,11832607167,7904043725,10466415030,549671995,6185973527,2686184588,549671992,2528681051,11823845334,11832607165,11832607164,11823845333,12846597747,8498666145,11278240671,11278240670,7904043751,7904043748,549671994,6734000398,6121732567,549671993,1627109236,10028486927,2528680871,9036572374,533685240,549672000,2528680745,10028486968,2528680718,10028610943,8498666139,10028610941,7904043756,9036572218,6734000400,7904043771,8507179598,10030867231,8498666132,7904043769,549671999,8507179589,2528680445,8507179586,6185973502,1617345018,10028610989,8507179581,2528680438,2528680435,8462994740,549671997,8507179577,2778806591,1638835972,549672004,8507179533,8498666128,10030867275,8507179529,10030867256,2778806582,549672003,8507179538,1637648667,10030867359,6558501287,549672002,10030867347,2778806535,1637648620,2778806534,2053283009,10043800276,8498666148,10035468047,8498666152,8507179543,2778806518,3573537493,549672010,8507179548,2778806513,8507179552,549672008,8507179553,8507179554,8477746597,549672007,10038420078,2778806500,8507179574,8507179572,2778806494,2778806483,3307473783,8507179557,8507179559,10038420086,2778806473,549672011,8495281471,8495281484,8495281474,549672012,8495281467,646061293,8495281465,8495281466,8495281461,646061289,549672014,313875569,2778806430,8495281459,10040758781,2576698706,8495281458,8495281456,3315368025,9189235739,10040814100,8495281437,8495281446,8495281455,8495281438,8495281432,10040814046,10040814045,313875567,2576698702,2576698700,8495281428,8226236186,9131107961,313875566,8495281425,8495281427,8495281426,2576698696,313875565,10040986902,9189488138,8495281424,6471356639,10923297944,9131106003,8507215180,9131107936,8495265964,8236165778,8495265963,7902420058,8495265979,8236165779,8236165771,10800784039,7902420020,10800813589,12654241562,10923297982,10923297981,10800813591,12654241556,10923297978,11399410998]},"gtfs":{"agency_id":7,"route_id":19,"services":[],"filteredStops":{"nodes":[12623661843,12846578776,12846578789,3620629426,12846578775,3620629418,549671983,12846578778,3640222593,549671982,3640222423,549671981,2735294108,10008002010,6186229530,10008002001,1492625509,549671991,8301471677,12846597748,12846597757,12846597756,12846597755,12846597749,12846597758,12846597759,12846597751,12846597750,549671989,11832607167,7904043725,10466415030,549671995,6185973527,2686184588,549671992,2528681051,11823845334,11832607165,11832607164,11823845333,12846597747,8498666145,11278240671,11278240670,7904043751,7904043748,549671994,6734000398,6121732567,549671993,1627109236,10028486927,2528680871,9036572374,533685240,549672000,2528680745,10028486968,2528680718,10028610943,8498666139,10028610941,7904043756,9036572218,6734000400,7904043771,8507179598,10030867231,8498666132,7904043769,549671999,8507179589,2528680445,8507179586,6185973502,1617345018,10028610989,8507179581,2528680438,2528680435,8462994740,549671997,8507179577,2778806591,1638835972,549672004,8507179533,8498666128,10030867275,8507179529,10030867256,2778806582,549672003,8507179538,1637648667,10030867359,6558501287,549672002,10030867347,2778806535,1637648620,2778806534,2053283009,10043800276,8498666148,10035468047,8498666152,8507179543,2778806518,3573537493,549672010,8507179548,2778806513,8507179552,549672008,8507179553,8507179554,8477746597,549672007,10038420078,2778806500,8507179574,8507179572,2778806494,2778806483,3307473783,8507179557,8507179559,10038420086,2778806473,549672011,8495281471,8495281484,8495281474,549672012,8495281467,646061293,8495281465,8495281466,8495281461,646061289,549672014,313875569,2778806430,8495281459,10040758781,2576698706,8495281458,8495281456,3315368025,9189235739,10040814100,8495281437,8495281446,8495281455,8495281438,8495281432,10040814046,10040814045,313875567,2576698702,2576698700,8495281428,8226236186,9131107961,313875566,8495281425,8495281427,8495281426,2576698696,313875565,10040986902,9189488138,8495281424,6471356639,10923297944,9131106003,8507215180,9131107936,8495265964,8236165778,8495265963,7902420058,8495265979,8236165779,8236165771,10800784039,7902420020,10800813589,12654241562,10923297982,10923297981,10800813591,12654241556,10923297978,11399410998],"coordinates":[[-66.1182778,-17.4664549],[-66.1185014,-17.4663876],[-66.118613,-17.4663415],[-66.118704,-17.4662917],[-66.1189266,-17.4661722],[-66.1191465,-17.4660437],[-66.1193858,-17.4658919],[-66.1196539,-17.4656901],[-66.1198882,-17.4654883],[-66.1202611,-17.465058],[-66.1206655,-17.4645369],[-66.1210614,-17.4639943],[-66.1214413,-17.4635032],[-66.1215322,-17.4633923],[-66.1221908,-17.4624249],[-66.1222831,-17.4622791],[-66.1226993,-17.4616801],[-66.1230341,-17.4611879],[-66.1231663,-17.4609534],[-66.1235218,-17.4603142],[-66.1235577,-17.4602179],[-66.1235854,-17.4601146],[-66.1236135,-17.4600148],[-66.1236598,-17.4599144],[-66.1236684,-17.4598993],[-66.1238542,-17.4595695],[-66.1239134,-17.4594645],[-66.123924,-17.4594462],[-66.1241677,-17.4591353],[-66.1245317,-17.4584527],[-66.1256629,-17.4563686],[-66.1258088,-17.4561232],[-66.1259574,-17.4558958],[-66.1263296,-17.45533],[-66.1265081,-17.4550686],[-66.1269244,-17.4545599],[-66.1282598,-17.4530618],[-66.1286616,-17.4526166],[-66.1290727,-17.4521514],[-66.1292446,-17.45196],[-66.1295501,-17.451637],[-66.1296508,-17.4515442],[-66.1297626,-17.4514246],[-66.1298995,-17.4512671],[-66.1299806,-17.4511739],[-66.1300964,-17.4510406],[-66.1301873,-17.4508845],[-66.1302749,-17.4507822],[-66.1305546,-17.4504969],[-66.1311017,-17.4500404],[-66.1314543,-17.4497368],[-66.1320862,-17.4491488],[-66.1322863,-17.4489582],[-66.132491,-17.4487894],[-66.1327806,-17.448576],[-66.1331072,-17.4483545],[-66.133976,-17.4478469],[-66.134409,-17.4476066],[-66.1344778,-17.4475686],[-66.1347245,-17.4474216],[-66.1349388,-17.447291],[-66.1351444,-17.4471657],[-66.1353685,-17.44704],[-66.1358603,-17.446764],[-66.1363136,-17.4464907],[-66.1381021,-17.4454642],[-66.1389166,-17.4449998],[-66.1392675,-17.4448574],[-66.1393296,-17.4448204],[-66.1395141,-17.4447103],[-66.1397284,-17.4445869],[-66.1400296,-17.4443456],[-66.1403471,-17.4441609],[-66.1405074,-17.4440641],[-66.1406506,-17.4439629],[-66.1407596,-17.4438762],[-66.140904,-17.4437507],[-66.1409582,-17.4436987],[-66.1415545,-17.4431673],[-66.1419845,-17.4427708],[-66.1424465,-17.4423702],[-66.1430182,-17.4418421],[-66.1433913,-17.4415128],[-66.1435152,-17.4413897],[-66.1436527,-17.4412331],[-66.1438103,-17.4410309],[-66.1440647,-17.4406676],[-66.1443015,-17.4404138],[-66.1444271,-17.440201],[-66.1445307,-17.4400183],[-66.1445434,-17.4399958],[-66.1446088,-17.4397896],[-66.1446361,-17.4397033],[-66.1448383,-17.4393681],[-66.1450117,-17.4390648],[-66.1452709,-17.4386973],[-66.145696,-17.4380649],[-66.1457472,-17.437988],[-66.1458044,-17.4379085],[-66.1458471,-17.437847],[-66.1462994,-17.4371992],[-66.1467167,-17.4365955],[-66.1479625,-17.4348077],[-66.1481107,-17.4346056],[-66.1482632,-17.4344322],[-66.1483749,-17.4343245],[-66.148432,-17.4342695],[-66.1486122,-17.4340962],[-66.1487703,-17.433944],[-66.1489638,-17.4336785],[-66.1491196,-17.4335386],[-66.1494374,-17.4332179],[-66.1495228,-17.433112],[-66.1495977,-17.4330172],[-66.1496593,-17.4329171],[-66.1497272,-17.4327765],[-66.1499941,-17.4322163],[-66.1501275,-17.4319675],[-66.1502342,-17.4317789],[-66.1504411,-17.4314315],[-66.1507989,-17.4308624],[-66.1508618,-17.430759],[-66.151031,-17.4304645],[-66.1511628,-17.4301965],[-66.1512355,-17.4300356],[-66.1512978,-17.4298834],[-66.1513093,-17.4298443],[-66.1513841,-17.4296623],[-66.1514478,-17.4295244],[-66.1515162,-17.4294191],[-66.1516269,-17.4292884],[-66.1517086,-17.4291989],[-66.1520469,-17.4289646],[-66.1522416,-17.428772],[-66.1524025,-17.4286176],[-66.1526255,-17.4283245],[-66.1528534,-17.4280971],[-66.1530111,-17.4279233],[-66.1531061,-17.4277874],[-66.1532873,-17.4274772],[-66.1534183,-17.4272072],[-66.1535238,-17.4269583],[-66.1536709,-17.4265346],[-66.1538246,-17.4261238],[-66.1539182,-17.4258186],[-66.153996,-17.4255342],[-66.1540153,-17.4254281],[-66.1540363,-17.4253129],[-66.1540836,-17.4250258],[-66.1541026,-17.4247596],[-66.1541083,-17.4246553],[-66.1541113,-17.4246142],[-66.1541134,-17.424567],[-66.1541281,-17.4242332],[-66.1542113,-17.4238609],[-66.1542235,-17.4235534],[-66.1542332,-17.4232634],[-66.1541859,-17.422917],[-66.1541877,-17.4228684],[-66.1542025,-17.4224745],[-66.1542912,-17.4216363],[-66.1544118,-17.4185804],[-66.1544678,-17.4173887],[-66.1545326,-17.4156913],[-66.1545169,-17.4154283],[-66.1545211,-17.4148376],[-66.1545366,-17.4144747],[-66.154566,-17.4137943],[-66.154566,-17.4136002],[-66.1545669,-17.4133634],[-66.1545599,-17.4130929],[-66.1545502,-17.4128746],[-66.1544955,-17.4123655],[-66.1544443,-17.4118046],[-66.1544276,-17.4116223],[-66.1543025,-17.4101708],[-66.1542959,-17.4100765],[-66.1542922,-17.4100228],[-66.1542608,-17.4096435],[-66.1542703,-17.4095265],[-66.1542763,-17.4094193],[-66.1542773,-17.4093634],[-66.1542944,-17.4092718],[-66.1543157,-17.409214],[-66.1543541,-17.4091327],[-66.1544431,-17.4089184],[-66.1544621,-17.4088171],[-66.1544144,-17.4071115],[-66.1544139,-17.4070951],[-66.1543972,-17.4066281],[-66.1543901,-17.4065168],[-66.1543787,-17.4064054],[-66.1543485,-17.4062918],[-66.1541309,-17.4056388],[-66.1539677,-17.405116],[-66.1539559,-17.4050429],[-66.1539059,-17.4039404]]}}},{"type":"Feature","properties":{"light_rail":"yes","name":"Kiñiloma","network":"Mi Tren","operator":"Mi Tren","public_transport":"stop_position","railway":"stop","id":12623661843},"geometry":{"type":"Point","coordinates":[-66.1182778,-17.4664549]}},{"type":"Feature","properties":{"light_rail":"yes","name":"Santa Veracruz","network":"Mi Tren","operator":"Mi Tren","public_transport":"stop_position","railway":"stop","start_date":"2024-04-26","id":12846597759},"geometry":{"type":"Point","coordinates":[-66.1238542,-17.4595695]}},{"type":"Feature","properties":{"light_rail":"yes","name":"Agronomía","network":"Mi Tren","operator":"Mi Tren","operator:type":"public","public_transport":"stop_position","railway":"light_rail","shelter":"yes","start_date":"2022-09-13","id":11278240671},"geometry":{"type":"Point","coordinates":[-66.1298995,-17.4512671]}},{"type":"Feature","properties":{"light_rail":"yes","name":"El Molino","network":"Mi Tren","operator":"Mi Tren","operator:type":"public","public_transport":"stop_position","railway":"tram_stop","shelter":"yes","start_date":"2022-09-13","id":8498666139},"geometry":{"type":"Point","coordinates":[-66.1351444,-17.4471657]}},{"type":"Feature","properties":{"light_rail":"yes","name":"Politécnico","network":"Mi Tren","operator":"Mi Tren","operator:type":"public","public_transport":"stop_position","railway":"tram_stop","shelter":"yes","start_date":"2022-09-13","id":8498666132},"geometry":{"type":"Point","coordinates":[-66.1395141,-17.4447103]}},{"type":"Feature","properties":{"light_rail":"yes","name":"OTB Universitario","network":"Mi Tren","operator":"Mi Tren","operator:type":"public","public_transport":"stop_position","railway":"tram_stop","shelter":"yes","start_date":"2022-09-13","id":8498666128},"geometry":{"type":"Point","coordinates":[-66.1444271,-17.440201]}},{"type":"Feature","properties":{"light_rail":"yes","name":"Alejo Calatayud","network":"Mi Tren","operator":"Mi Tren","operator:type":"public","public_transport":"stop_position","railway":"tram_stop","shelter":"yes","start_date":"2022-09-13","id":8498666152},"geometry":{"type":"Point","coordinates":[-66.1486122,-17.4340962]}},{"type":"Feature","properties":{"light_rail":"yes","name":"Santa Bárbara","network":"Mi Tren","operator":"Mi Tren","operator:type":"public","public_transport":"stop_position","railway":"light_rail","shelter":"yes","start_date":"2022-09-13","id":8495281484},"geometry":{"type":"Point","coordinates":[-66.1522416,-17.428772]}},{"type":"Feature","properties":{"light_rail":"yes","name":"El Arco","network":"Mi Tren","operator":"Mi Tren","operator:type":"public","public_transport":"stop_position","railway":"light_rail","shelter":"yes","start_date":"2022-09-13","id":8495281455},"geometry":{"type":"Point","coordinates":[-66.1542235,-17.4235534]}},{"type":"Feature","properties":{"covered":"yes","level":"1","light_rail":"yes","name":"San Antonio","network":"Mi Tren","operator":"Mi Tren","operator:type":"public","public_transport":"stop_position","railway":"light_rail","shelter":"no","start_date":"2022-09-13","id":9189488138},"geometry":{"type":"Point","coordinates":[-66.1544443,-17.4118046]}},{"type":"Feature","properties":{"covered":"yes","level":"1","light_rail":"yes","name":"Cochabamba","network":"Mi Tren","operator":"Mi Tren","operator:type":"public","public_transport":"stop_position","railway":"stop","shelter":"no","start_date":"2023-09-11","tactile_paving":"yes","id":11399410998},"geometry":{"type":"Point","coordinates":[-66.1539059,-17.4039404]}}]}