{"type":"FeatureCollection","features":[{"type":"Feature","properties":{"check_date":"29/12/2025","from":"OTB 27 de Mayo","name":"MiniBus 43: OTB 27 de Mayo → Avenida Humberto Asín Rivero","network":"BO:CB:Cochabamba","on_demand":"yes","operator":"Sindicato mixto de transporte público 6 de mayo","public_transport:version":"2","ref":"43","route":"bus","to":"Avenida Humberto Asín Rivero","type":"route","wheelchair":"no","id":15749404},"geometry":{"type":"LineString","coordinates":[[-66.1184621,-17.3922634],[-66.1184176,-17.3922059],[-66.1183373,-17.3920986],[-66.1179685,-17.3923589],[-66.1176066,-17.3925802],[-66.1173283,-17.3927088],[-66.1172079,-17.3923706],[-66.1171858,-17.3923086],[-66.1170379,-17.3918931],[-66.1168184,-17.3912764],[-66.1167988,-17.3912212],[-66.1165103,-17.3904108],[-66.116459,-17.3902666],[-66.116285,-17.3898056],[-66.116117,-17.3893384],[-66.1159522,-17.3888906],[-66.1151341,-17.3891819],[-66.1147471,-17.3893162],[-66.1139946,-17.3896162],[-66.1138906,-17.3896576],[-66.1135686,-17.3898199],[-66.1137353,-17.3903474],[-66.1140582,-17.3913891],[-66.1140885,-17.391471],[-66.1143237,-17.3922217],[-66.1145764,-17.3930531],[-66.1132792,-17.3933892],[-66.1127125,-17.3935315],[-66.1119507,-17.393722],[-66.1119117,-17.3935532],[-66.1115286,-17.3920616],[-66.1115053,-17.3919655],[-66.1110957,-17.3903363],[-66.1107953,-17.3890023],[-66.1107904,-17.3889095],[-66.1104384,-17.3876462],[-66.1102732,-17.3870149],[-66.1100949,-17.3863352],[-66.1100525,-17.3861789],[-66.1100117,-17.3860307],[-66.1098363,-17.3853335],[-66.1097353,-17.384932],[-66.1095437,-17.3841041],[-66.1094987,-17.3840253],[-66.1094262,-17.3840082],[-66.1093644,-17.3839682],[-66.109321,-17.3839102],[-66.1093003,-17.3838204],[-66.1093117,-17.3837573],[-66.1093432,-17.3837008],[-66.1093915,-17.3836564],[-66.1094726,-17.3836238],[-66.1095605,-17.3836253],[-66.1096207,-17.3836482],[-66.1096709,-17.3836873],[-66.1097063,-17.3837391],[-66.1101186,-17.3836571],[-66.1105542,-17.3835704],[-66.1116279,-17.383347],[-66.1126926,-17.3831087],[-66.1137366,-17.3828918],[-66.1147412,-17.3826937],[-66.1160937,-17.3824299],[-66.1166355,-17.3823204],[-66.1167504,-17.3822972],[-66.1172233,-17.382195],[-66.1178158,-17.3820392],[-66.1182674,-17.3819014],[-66.1185475,-17.381807],[-66.1187728,-17.3817198],[-66.1192818,-17.3815036],[-66.1195037,-17.38141],[-66.119997,-17.3811668],[-66.1202601,-17.3810155],[-66.1208017,-17.3806715],[-66.1208417,-17.3806461],[-66.1216824,-17.3800861],[-66.1217698,-17.3800293],[-66.1218317,-17.3799878],[-66.1221658,-17.3797745],[-66.1224305,-17.3795986],[-66.1224694,-17.3795763],[-66.122742,-17.3793899],[-66.1236093,-17.3788174],[-66.1242133,-17.3784409],[-66.12471,-17.3781074],[-66.1253598,-17.3776556],[-66.1257746,-17.377356],[-66.1269581,-17.3765211],[-66.1270244,-17.376476],[-66.1271995,-17.3763545],[-66.1275504,-17.3761126],[-66.1279626,-17.3758313],[-66.1281352,-17.37571],[-66.1282882,-17.3756033],[-66.1288149,-17.3752302],[-66.1288741,-17.375188],[-66.128931,-17.3751503],[-66.1289543,-17.3751348],[-66.1289841,-17.3751153],[-66.1291394,-17.3750181],[-66.1292574,-17.3749494],[-66.1292821,-17.3749351],[-66.129327,-17.3749113],[-66.1294482,-17.3748504],[-66.1296174,-17.3747803],[-66.1298412,-17.3747014],[-66.1300549,-17.3746383],[-66.1302801,-17.37459],[-66.1305217,-17.3745502],[-66.1307689,-17.3745291],[-66.1313669,-17.3745232],[-66.1313916,-17.374523],[-66.1319101,-17.3745287],[-66.1321407,-17.3745275],[-66.132369,-17.3745257],[-66.1331657,-17.3745288],[-66.1332276,-17.374529],[-66.1336639,-17.3745303],[-66.1345247,-17.374534],[-66.1346749,-17.3745448],[-66.1348695,-17.3745687],[-66.1349714,-17.3745873],[-66.1350574,-17.3746031],[-66.1352388,-17.3746459],[-66.1354291,-17.3747002],[-66.1355865,-17.3747547],[-66.1357657,-17.3748287],[-66.1359602,-17.3749201],[-66.1361757,-17.3750446],[-66.1366294,-17.3753417],[-66.1371488,-17.3756925],[-66.1371768,-17.3757114],[-66.1375633,-17.3759426],[-66.137902,-17.3761238],[-66.1382558,-17.376282],[-66.138489,-17.3763838],[-66.1387412,-17.3764855],[-66.1389497,-17.3765576],[-66.1392113,-17.3766371],[-66.1396414,-17.3767716],[-66.1403943,-17.3769468],[-66.1408419,-17.3770223],[-66.1410415,-17.3770506],[-66.1411913,-17.3770792],[-66.1414646,-17.3771422],[-66.1420069,-17.3772685],[-66.1422247,-17.3773187],[-66.1422829,-17.3773512],[-66.1423113,-17.377371],[-66.1423373,-17.3773952],[-66.1423637,-17.3774238],[-66.1423853,-17.3774579],[-66.142406,-17.3774992],[-66.1424178,-17.3775385],[-66.1424231,-17.3775785],[-66.1424229,-17.3776065],[-66.142421,-17.3776344],[-66.1424051,-17.3777627],[-66.1423809,-17.3780515],[-66.1423777,-17.3782277],[-66.142358,-17.3784481],[-66.1423561,-17.3786003],[-66.1423592,-17.3786717],[-66.1423772,-17.3787495],[-66.1423857,-17.3787904],[-66.1424117,-17.378833],[-66.1424539,-17.3788802],[-66.1425271,-17.3789172],[-66.1427305,-17.3789834],[-66.1429971,-17.3790674],[-66.1430493,-17.3790829],[-66.1430678,-17.379109],[-66.1430837,-17.3791368],[-66.1430966,-17.3791658],[-66.1431016,-17.3791891],[-66.1431024,-17.3792129],[-66.1430994,-17.3792366],[-66.1430676,-17.3793728],[-66.1430688,-17.3794137],[-66.1430776,-17.379442],[-66.1430937,-17.379472],[-66.1432028,-17.3796329],[-66.1441031,-17.3809425],[-66.1441407,-17.3809972],[-66.1442263,-17.3811247],[-66.1443213,-17.3812621],[-66.1443343,-17.3812809],[-66.1443962,-17.3813704],[-66.1450554,-17.3823239],[-66.1451665,-17.3824805],[-66.145265,-17.3826252],[-66.1462641,-17.3840939],[-66.1462906,-17.3841328],[-66.1463324,-17.3841942],[-66.1463585,-17.3842326],[-66.147463,-17.385856],[-66.1475139,-17.3859308],[-66.1475669,-17.3860074],[-66.147678,-17.3861681],[-66.1477159,-17.3862228],[-66.148064,-17.3867233],[-66.1483646,-17.3871554],[-66.1484094,-17.3872198],[-66.1485012,-17.3873491],[-66.1485192,-17.3873745],[-66.1486427,-17.3875508],[-66.1488419,-17.3878325],[-66.14901,-17.38807],[-66.1491698,-17.3882995],[-66.1493366,-17.3885389],[-66.1495508,-17.388829],[-66.149579,-17.3888607],[-66.1496122,-17.3888799],[-66.1496641,-17.3888936],[-66.1497336,-17.3889095],[-66.1498927,-17.3889164],[-66.1500084,-17.3889161],[-66.1500814,-17.3889065],[-66.1501945,-17.3888808],[-66.1503144,-17.3888425],[-66.1504324,-17.3888061],[-66.1505282,-17.3887821],[-66.1515473,-17.3889527],[-66.151604,-17.3889628],[-66.1515995,-17.3889879],[-66.1515922,-17.3890291],[-66.1514143,-17.390025],[-66.1512469,-17.3911242],[-66.1512362,-17.3911812],[-66.1512194,-17.3912742],[-66.1512104,-17.3913248],[-66.1511296,-17.3917295],[-66.1510383,-17.3921922],[-66.151028,-17.3922446],[-66.1510205,-17.3922844],[-66.1508421,-17.3932269],[-66.150834,-17.3932743],[-66.1508222,-17.3933342],[-66.1506546,-17.3943283],[-66.1504423,-17.3953552],[-66.1503862,-17.3956441],[-66.1502362,-17.3964175],[-66.1500348,-17.3975665],[-66.150021,-17.3976385],[-66.1500136,-17.3976877],[-66.1499487,-17.3984764],[-66.1499407,-17.3985529],[-66.1499065,-17.3990035],[-66.1498494,-17.3998668],[-66.1500222,-17.3998728],[-66.1501395,-17.3998796],[-66.1502575,-17.399903],[-66.1503592,-17.3999303],[-66.1504801,-17.3999711],[-66.1506108,-17.4000341],[-66.1507434,-17.4001219],[-66.1508693,-17.4002252],[-66.150939,-17.4002895],[-66.1510132,-17.4003714],[-66.1510832,-17.4004668],[-66.1511583,-17.4005867],[-66.1512403,-17.4007535],[-66.1512896,-17.400901],[-66.1513107,-17.4010414],[-66.1513179,-17.401207],[-66.1513116,-17.4013496],[-66.1512901,-17.4014743],[-66.1512351,-17.4016052],[-66.1510926,-17.4019104],[-66.1510363,-17.4020268],[-66.1510003,-17.4021361],[-66.1509697,-17.4022563],[-66.1509643,-17.4023812],[-66.1509743,-17.4025874],[-66.1510012,-17.4031363],[-66.1510151,-17.403494],[-66.151025,-17.4038341],[-66.1510241,-17.4039937],[-66.1510096,-17.4041425],[-66.1509707,-17.4044188],[-66.1509247,-17.404686],[-66.1508784,-17.4048938],[-66.1508636,-17.4049278],[-66.1508695,-17.4049354],[-66.1508738,-17.4049439],[-66.1508769,-17.4049564],[-66.1508767,-17.4049692],[-66.1508731,-17.4049816],[-66.1508664,-17.4049928],[-66.150857,-17.405002],[-66.1508595,-17.405027],[-66.1508603,-17.4050958],[-66.1508022,-17.4076298],[-66.1508067,-17.4084116],[-66.1508401,-17.4087688],[-66.1508837,-17.4097253],[-66.1509155,-17.4100167],[-66.1509578,-17.4102501],[-66.1509477,-17.410293],[-66.1509332,-17.4103263],[-66.150906,-17.4103611],[-66.150863,-17.4103974],[-66.1508232,-17.4104205],[-66.150773,-17.4104394],[-66.1499783,-17.4105039],[-66.149993,-17.4106532],[-66.1494903,-17.4110939],[-66.1489432,-17.4115718],[-66.1482611,-17.4121871],[-66.1480119,-17.4128511],[-66.1480992,-17.4129028],[-66.1481735,-17.412958],[-66.1486116,-17.413426],[-66.1489405,-17.4137771],[-66.1493566,-17.4142422],[-66.1495903,-17.4144938],[-66.149785,-17.4146895],[-66.1499164,-17.4148808],[-66.1500479,-17.4150891],[-66.1501472,-17.4152684],[-66.1502225,-17.4154568],[-66.1502789,-17.4156198],[-66.1503116,-17.4157882],[-66.1503329,-17.4159361],[-66.150362,-17.4162014],[-66.1503703,-17.4164868],[-66.1503649,-17.4165848],[-66.150343,-17.4167342],[-66.1502777,-17.417102],[-66.150174,-17.4176537],[-66.1501324,-17.4179158],[-66.1500836,-17.4180577],[-66.1500316,-17.4181772],[-66.1498087,-17.4185285],[-66.1492609,-17.4193039],[-66.1493015,-17.4193352],[-66.1493218,-17.4193665],[-66.1493834,-17.4196166],[-66.1493075,-17.4196369],[-66.149243,-17.4196464],[-66.149203,-17.4196354],[-66.1489045,-17.4195144],[-66.1488555,-17.4194958],[-66.1487969,-17.4194859],[-66.1487551,-17.4194825],[-66.1486578,-17.4194823],[-66.1482426,-17.4195059],[-66.1476294,-17.4195424],[-66.147289,-17.4195627],[-66.14703,-17.4195757],[-66.1465061,-17.419609],[-66.1464101,-17.4196151],[-66.1460215,-17.4196391],[-66.1447007,-17.4197207],[-66.1445939,-17.4197273],[-66.1439634,-17.4197669],[-66.1433615,-17.4197995],[-66.1427602,-17.4198335],[-66.1426926,-17.4198372],[-66.1421339,-17.419868],[-66.141976,-17.4198781],[-66.1416177,-17.419901],[-66.1415139,-17.4199076],[-66.1409078,-17.4199408],[-66.1405463,-17.4199618],[-66.1402894,-17.4199767],[-66.1399925,-17.4199918],[-66.1397568,-17.4199991],[-66.1397276,-17.4200019],[-66.1396656,-17.419998],[-66.1396145,-17.4199887],[-66.1395681,-17.4199707],[-66.1395221,-17.4199389],[-66.1394899,-17.4199027],[-66.1393969,-17.4198309],[-66.1393663,-17.4198179],[-66.1393315,-17.419813],[-66.139304,-17.4198146],[-66.1392694,-17.4198258],[-66.1392586,-17.4198323],[-66.1392443,-17.4198408],[-66.138494,-17.4206265],[-66.1380647,-17.4210334],[-66.1377763,-17.4213571],[-66.1371534,-17.4219799],[-66.1368421,-17.4223089],[-66.1368179,-17.4222873],[-66.1367942,-17.4222662],[-66.1362898,-17.4218092],[-66.1360027,-17.4215552],[-66.1357584,-17.4213325],[-66.1352704,-17.4208877],[-66.1347676,-17.4204362],[-66.134008,-17.4197634],[-66.133936,-17.4202481],[-66.1336117,-17.4202241],[-66.1332723,-17.4202067],[-66.1326009,-17.4201762],[-66.1319537,-17.4201399],[-66.1311843,-17.4200909],[-66.1311819,-17.4201412],[-66.1311804,-17.4201717],[-66.131161,-17.4205743],[-66.1311599,-17.4205977],[-66.1311571,-17.4206563],[-66.1311545,-17.4207031],[-66.1311537,-17.4207186],[-66.1311527,-17.420737],[-66.1311323,-17.4211074],[-66.1310763,-17.422035],[-66.1310748,-17.42206],[-66.1310688,-17.4221338],[-66.1310659,-17.4221884],[-66.1310646,-17.4222132],[-66.1310345,-17.4227776],[-66.1310151,-17.42343],[-66.1310121,-17.4234922],[-66.1310087,-17.4235454],[-66.1309463,-17.4245607],[-66.1308539,-17.4259256],[-66.1308603,-17.425984],[-66.1308781,-17.4260369],[-66.1300361,-17.4259884],[-66.1287245,-17.4259214],[-66.1286948,-17.4265874],[-66.1286688,-17.4271717],[-66.1286604,-17.4272976],[-66.1286385,-17.4273783],[-66.1286037,-17.4274687],[-66.1285539,-17.4275667],[-66.1284926,-17.4276787],[-66.1280724,-17.4284711],[-66.1276296,-17.4283411],[-66.1273338,-17.4282566],[-66.1272496,-17.4282531],[-66.1272281,-17.4283134],[-66.1269034,-17.42908],[-66.1262305,-17.42904],[-66.1255114,-17.4290058],[-66.125417,-17.4290135],[-66.1243853,-17.4298011],[-66.124315,-17.4298166],[-66.1243093,-17.4299256],[-66.1242742,-17.4305922],[-66.1242437,-17.4311737],[-66.1242417,-17.4312122],[-66.1242143,-17.4317307],[-66.1241905,-17.4321849],[-66.1241636,-17.4326982],[-66.1236461,-17.4326738],[-66.1228433,-17.4326359],[-66.1221215,-17.4325797],[-66.121656,-17.4325675],[-66.1213945,-17.4325536],[-66.1208689,-17.4325258],[-66.1201993,-17.4324819],[-66.1199148,-17.4324751],[-66.1189285,-17.4324228],[-66.1188084,-17.4330163],[-66.1187058,-17.4335525],[-66.1186399,-17.4339001],[-66.1185901,-17.4342178],[-66.1184113,-17.4340881],[-66.1182106,-17.433983],[-66.1179526,-17.4338807],[-66.1175866,-17.4337521],[-66.1175578,-17.4339273],[-66.1175234,-17.4340031],[-66.1175238,-17.4341134],[-66.1174983,-17.4343077],[-66.117412,-17.4345946],[-66.1172994,-17.4347482],[-66.1171475,-17.4349344],[-66.1170164,-17.435169],[-66.1169307,-17.4355816],[-66.1168966,-17.4357206],[-66.1168212,-17.4358215],[-66.1166562,-17.4360748],[-66.1164788,-17.4363169],[-66.1164343,-17.4363502],[-66.1163844,-17.436368],[-66.1164136,-17.4369751],[-66.1164479,-17.4377689],[-66.116472,-17.4384126],[-66.1165026,-17.4389409],[-66.1165202,-17.4393538],[-66.1165479,-17.4398542],[-66.1165539,-17.4399648],[-66.1165631,-17.440135],[-66.1165872,-17.440772],[-66.1166113,-17.4412543],[-66.1166163,-17.4413587],[-66.1166279,-17.4415864],[-66.1166484,-17.4420405],[-66.1166763,-17.4425739],[-66.1166979,-17.4429651],[-66.1167235,-17.4437184],[-66.1167321,-17.443926],[-66.1167638,-17.4446614],[-66.1167965,-17.4452227],[-66.1168087,-17.4455193],[-66.1168264,-17.4458517],[-66.116839,-17.4460357],[-66.1168459,-17.4463656],[-66.1168867,-17.4474555],[-66.1169023,-17.4476772],[-66.1169112,-17.4479314],[-66.1169406,-17.4485737],[-66.1169463,-17.4486978],[-66.1169793,-17.449404],[-66.1170352,-17.449499],[-66.1171027,-17.449564]],"nodes":[7156570491,4113368699,2320160191,2320160194,2320160198,2320160200,2524990505,2524990504,2524990497,7863092632,2320160169,1609221139,1609221071,2320160143,2410113164,1609221094,2410113179,1609221154,7352625592,7863092644,1609366058,2320160148,2320160173,2524990469,7863092628,1609365813,1609366300,2424303992,1609365901,2320160208,2320160187,4059209929,1609366215,4620215205,5027942696,5027942688,5027942687,5027942653,5027940181,2956787648,5027940179,2956787647,2956787645,2508868851,2508868850,2508868846,2508868838,2508868828,2508868827,2508868824,2508868818,2508868813,2508868814,2508868816,2508868821,2508868825,12529903869,1609295397,1609366183,1609295440,1609221020,1609221140,1609200185,9156300405,2450079042,7436412015,1609221063,497168741,9156300398,2398626869,1609200177,2398626833,2398626816,1609200081,8162958911,8162958910,7033772018,1609200049,8162958914,497169501,497169504,1485097031,1485097020,1485097014,9366321723,3877506232,1044379733,9366321725,8455317281,1009167683,8455317287,3290785083,11074088806,8162958964,1008238435,9012647241,497170001,9364555678,12952456793,1008238205,12952456779,12952456795,1008238230,8455639761,9364555682,7070768690,497170007,1008238537,497170008,497170010,1008238793,9364556031,497169979,497169953,6818591873,3316224538,12565837684,9359800374,9359800375,497169954,497169957,1044379345,12565837681,1009166481,497169958,6331635756,1009167549,497169962,6331635762,1044379589,1044379213,7965603739,598266521,598266518,1044379730,1044379735,1796486751,7965587281,1796486753,6331635754,1796486765,1044378919,9049714571,8385091906,598266493,8385091908,8385091907,602989551,8385091909,8385091914,5298602495,8385091913,1795293284,1795293323,8385091911,8385091910,8385091912,1795293424,1795293286,1795293393,1796486808,1795293430,2391341448,2391341465,1795293437,1795293264,1795293299,1795293277,8385093431,1795293338,2391341613,1795293296,8379904343,11081763605,2391341643,8379904342,1795293405,2391341655,2391341667,1795293432,9890903488,1795293389,602989537,9890903489,8388301598,312425917,9584233890,3676912941,9584233886,10854297122,312425660,8390961546,9930862751,1807100710,2361168089,9930862749,6179473101,312425828,6179473096,11310743156,9031318855,9028209372,6179473247,9031318856,2141431944,6179473241,6179473238,9034180378,5353339454,11310645817,312425956,312425955,8568166653,2295135831,2327853066,2164166202,2295135834,312425953,2470422187,315032383,315032382,303217665,6199916313,3952902742,310501176,7919097328,3952902747,308306728,2289661502,303214821,698492410,2289661567,1851061867,2318884993,310256065,8515866939,8686453437,303215161,8686453438,310287558,310500687,8398265856,310500993,9121686991,310501008,9121686993,1727306399,648548725,311361483,323985741,8089836059,3322574432,8089836057,2236815474,323985099,3322574439,323985098,3322574447,12313136860,3322574450,323985733,323985728,323985094,3322575566,3322575582,323985091,3322575621,702511972,323985713,323985089,323985705,323985934,6129312154,6129312155,2768899033,6129316905,659960390,659960389,12313146774,2768899066,659960388,659960387,8208190713,2768899084,9343198168,9343198169,9343198167,9343198163,9343198164,9343198165,2768899087,8208190715,8208190714,659960380,5610210856,5610210857,6336963276,7546627579,5610210843,6336962378,9435142295,6336962379,6336962380,9435142294,5610210463,2768899232,2032952128,3329495400,3017384630,2032951861,2032951796,3329495441,2032952100,3329495455,2032952060,2032952251,3017377551,2032952104,3331947177,3017377431,3331947185,8945406894,2032951784,3017377429,2032952190,2032952152,3017377428,3331947244,2032951903,3017377426,1737906678,2032952249,2032951979,2032952227,3331947272,4871222807,12484607544,12484607543,2032951962,12484607546,2032952053,12484607548,12484607547,1600426582,8748098570,8748098571,4871222802,2033020660,2033020734,2032986866,8748098537,12484607563,2032951848,12484607565,12484607567,2032986775,2033020706,2033020723,2032986701,13203351571,2032987055,13203309791,13203309787,2032986980,2033020625,8729962104,3017315878,8945388382,7149422538,3017315881,9378197652,10258381346,2674329381,10258381349,3337319110,3337319105,8729962073,8729962055,3337319106,8729961987,12524765850,3337319108,3337319132,3337319136,3337319139,3337319152,3337319160,3337374323,2266514654,2272230199,2272230110,2272230064,2272229924,2272229888,2272229856,1610526991,2272229866,2272229862,2272229861,2272229860,2266514648,13056685911,13056685912,13056685907,13056685906,2035868701,13056685905,9309456903,13056685908,2035868741,12924969237,4868982738,2035868767,12924969235,12924969238,2043334399,1610527022,3338058926,3337374342,2675803077,2675803231,8689525308,2675803243,2675803241,2675803235,12470580828,2675803360,2675803366,3357267099,2675803378,2675803387,2675803394,2266514661,3357267138,12470449492,2266514674,4346765626,2675803466,2675803460,3017315875,2675803456,11596787843,2675803501,2675803505,2675803547,3365228154,2675803568,2675803591,3017315868,3017315869,2675803620,2032749230,2675803618,3017315865,2032749231,2675803616,2675803614,2675803611,2675803609,2675803630,3017320700,2675803664,2032749237,3365328323,3365328318,2032749271,11384823784,11384823785,1600599585,3412877997,3412878000,1600599599,1600599660,3412878016,1600599868,1600599602,3412878038,1600599837,1600599496,11384823777,11384823782,1600599486,1600599806,1600599679,1600628542,1600623805,3017320716,5019083433,1600623810,1600623780,1600623800,1600641399,1600641403,7154517490,1600623807,1600623788,1600599548,12290979272,1706129766,1706129767,1600599682,1600599687,3423729552,1600641450,3017320709,2677221078,1600641461,1600641445,10839040260,3423729691,8301906142,10839040259,10839040251]},"gtfs":{"agency_id":8,"route_id":116,"services":[{"service_id":"Mo-Su","startTime":"06:00","endTime":"22:00","trip_id":15749404}],"filteredStops":{"nodes":[7156570491,4113368699,2320160191,2320160194,2320160198,2320160200,2524990505,2524990504,2524990497,7863092632,2320160169,1609221139,1609221071,2320160143,2410113164,1609221094,2410113179,1609221154,7352625592,7863092644,1609366058,2320160148,2320160173,2524990469,7863092628,1609365813,1609366300,2424303992,1609365901,2320160208,2320160187,4059209929,1609366215,4620215205,5027942696,5027942688,5027942687,5027942653,5027940181,2956787648,5027940179,2956787647,2956787645,2508868851,2508868850,2508868846,2508868838,2508868828,2508868827,2508868824,2508868818,2508868813,2508868814,2508868816,2508868821,2508868825,12529903869,1609295397,1609366183,1609295440,1609221020,1609221140,1609200185,9156300405,2450079042,7436412015,1609221063,497168741,9156300398,2398626869,1609200177,2398626833,2398626816,1609200081,8162958911,8162958910,7033772018,1609200049,8162958914,497169501,497169504,1485097031,1485097020,1485097014,9366321723,3877506232,1044379733,9366321725,8455317281,1009167683,8455317287,3290785083,11074088806,8162958964,1008238435,9012647241,497170001,9364555678,12952456793,1008238205,12952456779,12952456795,1008238230,8455639761,9364555682,7070768690,497170007,1008238537,497170008,497170010,1008238793,9364556031,497169979,497169953,6818591873,3316224538,12565837684,9359800374,9359800375,497169954,497169957,1044379345,12565837681,1009166481,497169958,6331635756,1009167549,497169962,6331635762,1044379589,1044379213,7965603739,598266521,598266518,1044379730,1044379735,1796486751,7965587281,1796486753,6331635754,1796486765,1044378919,9049714571,8385091906,598266493,8385091908,8385091907,602989551,8385091909,8385091914,5298602495,8385091913,1795293284,1795293323,8385091911,8385091910,8385091912,1795293424,1795293286,1795293393,1796486808,1795293430,2391341448,2391341465,1795293437,1795293264,1795293299,1795293277,8385093431,1795293338,2391341613,1795293296,8379904343,11081763605,2391341643,8379904342,1795293405,2391341655,2391341667,1795293432,9890903488,1795293389,602989537,9890903489,8388301598,312425917,9584233890,3676912941,9584233886,10854297122,312425660,8390961546,9930862751,1807100710,2361168089,9930862749,6179473101,312425828,6179473096,11310743156,9031318855,9028209372,6179473247,9031318856,2141431944,6179473241,6179473238,9034180378,5353339454,11310645817,312425956,312425955,8568166653,2295135831,2327853066,2164166202,2295135834,312425953,2470422187,315032383,315032382,303217665,6199916313,3952902742,310501176,7919097328,3952902747,308306728,2289661502,303214821,698492410,2289661567,1851061867,2318884993,310256065,8515866939,8686453437,303215161,8686453438,310287558,310500687,8398265856,310500993,9121686991,310501008,9121686993,1727306399,648548725,311361483,323985741,8089836059,3322574432,8089836057,2236815474,323985099,3322574439,323985098,3322574447,12313136860,3322574450,323985733,323985728,323985094,3322575566,3322575582,323985091,3322575621,702511972,323985713,323985089,323985705,323985934,6129312154,6129312155,2768899033,6129316905,659960390,659960389,12313146774,2768899066,659960388,659960387,8208190713,2768899084,9343198168,9343198169,9343198167,9343198163,9343198164,9343198165,2768899087,8208190715,8208190714,659960380,5610210856,5610210857,6336963276,7546627579,5610210843,6336962378,9435142295,6336962379,6336962380,9435142294,5610210463,2768899232,2032952128,3329495400,3017384630,2032951861,2032951796,3329495441,2032952100,3329495455,2032952060,2032952251,3017377551,2032952104,3331947177,3017377431,3331947185,8945406894,2032951784,3017377429,2032952190,2032952152,3017377428,3331947244,2032951903,3017377426,1737906678,2032952249,2032951979,2032952227,3331947272,4871222807,12484607544,12484607543,2032951962,12484607546,2032952053,12484607548,12484607547,1600426582,8748098570,8748098571,4871222802,2033020660,2033020734,2032986866,8748098537,12484607563,2032951848,12484607565,12484607567,2032986775,2033020706,2033020723,2032986701,13203351571,2032987055,13203309791,13203309787,2032986980,2033020625,8729962104,3017315878,8945388382,7149422538,3017315881,9378197652,10258381346,2674329381,10258381349,3337319110,3337319105,8729962073,8729962055,3337319106,8729961987,12524765850,3337319108,3337319132,3337319136,3337319139,3337319152,3337319160,3337374323,2266514654,2272230199,2272230110,2272230064,2272229924,2272229888,2272229856,1610526991,2272229866,2272229862,2272229861,2272229860,2266514648,13056685911,13056685912,13056685907,13056685906,2035868701,13056685905,9309456903,13056685908,2035868741,12924969237,4868982738,2035868767,12924969235,12924969238,2043334399,1610527022,3338058926,3337374342,2675803077,2675803231,8689525308,2675803243,2675803241,2675803235,12470580828,2675803360,2675803366,3357267099,2675803378,2675803387,2675803394,2266514661,3357267138,12470449492,2266514674,4346765626,2675803466,2675803460,3017315875,2675803456,11596787843,2675803501,2675803505,2675803547,3365228154,2675803568,2675803591,3017315868,3017315869,2675803620,2032749230,2675803618,3017315865,2032749231,2675803616,2675803614,2675803611,2675803609,2675803630,3017320700,2675803664,2032749237,3365328323,3365328318,2032749271,11384823784,11384823785,1600599585,3412877997,3412878000,1600599599,1600599660,3412878016,1600599868,1600599602,3412878038,1600599837,1600599496,11384823777,11384823782,1600599486,1600599806,1600599679,1600628542,1600623805,3017320716,5019083433,1600623810,1600623780,1600623800,1600641399,1600641403,7154517490,1600623807,1600623788,1600599548,12290979272,1706129766,1706129767,1600599682,1600599687,3423729552,1600641450,3017320709,2677221078,1600641461,1600641445,10839040260,3423729691,8301906142,10839040259,10839040251],"coordinates":[[-66.1184621,-17.3922634],[-66.1184176,-17.3922059],[-66.1183373,-17.3920986],[-66.1179685,-17.3923589],[-66.1176066,-17.3925802],[-66.1173283,-17.3927088],[-66.1172079,-17.3923706],[-66.1171858,-17.3923086],[-66.1170379,-17.3918931],[-66.1168184,-17.3912764],[-66.1167988,-17.3912212],[-66.1165103,-17.3904108],[-66.116459,-17.3902666],[-66.116285,-17.3898056],[-66.116117,-17.3893384],[-66.1159522,-17.3888906],[-66.1151341,-17.3891819],[-66.1147471,-17.3893162],[-66.1139946,-17.3896162],[-66.1138906,-17.3896576],[-66.1135686,-17.3898199],[-66.1137353,-17.3903474],[-66.1140582,-17.3913891],[-66.1140885,-17.391471],[-66.1143237,-17.3922217],[-66.1145764,-17.3930531],[-66.1132792,-17.3933892],[-66.1127125,-17.3935315],[-66.1119507,-17.393722],[-66.1119117,-17.3935532],[-66.1115286,-17.3920616],[-66.1115053,-17.3919655],[-66.1110957,-17.3903363],[-66.1107953,-17.3890023],[-66.1107904,-17.3889095],[-66.1104384,-17.3876462],[-66.1102732,-17.3870149],[-66.1100949,-17.3863352],[-66.1100525,-17.3861789],[-66.1100117,-17.3860307],[-66.1098363,-17.3853335],[-66.1097353,-17.384932],[-66.1095437,-17.3841041],[-66.1094987,-17.3840253],[-66.1094262,-17.3840082],[-66.1093644,-17.3839682],[-66.109321,-17.3839102],[-66.1093003,-17.3838204],[-66.1093117,-17.3837573],[-66.1093432,-17.3837008],[-66.1093915,-17.3836564],[-66.1094726,-17.3836238],[-66.1095605,-17.3836253],[-66.1096207,-17.3836482],[-66.1096709,-17.3836873],[-66.1097063,-17.3837391],[-66.1101186,-17.3836571],[-66.1105542,-17.3835704],[-66.1116279,-17.383347],[-66.1126926,-17.3831087],[-66.1137366,-17.3828918],[-66.1147412,-17.3826937],[-66.1160937,-17.3824299],[-66.1166355,-17.3823204],[-66.1167504,-17.3822972],[-66.1172233,-17.382195],[-66.1178158,-17.3820392],[-66.1182674,-17.3819014],[-66.1185475,-17.381807],[-66.1187728,-17.3817198],[-66.1192818,-17.3815036],[-66.1195037,-17.38141],[-66.119997,-17.3811668],[-66.1202601,-17.3810155],[-66.1208017,-17.3806715],[-66.1208417,-17.3806461],[-66.1216824,-17.3800861],[-66.1217698,-17.3800293],[-66.1218317,-17.3799878],[-66.1221658,-17.3797745],[-66.1224305,-17.3795986],[-66.1224694,-17.3795763],[-66.122742,-17.3793899],[-66.1236093,-17.3788174],[-66.1242133,-17.3784409],[-66.12471,-17.3781074],[-66.1253598,-17.3776556],[-66.1257746,-17.377356],[-66.1269581,-17.3765211],[-66.1270244,-17.376476],[-66.1271995,-17.3763545],[-66.1275504,-17.3761126],[-66.1279626,-17.3758313],[-66.1281352,-17.37571],[-66.1282882,-17.3756033],[-66.1288149,-17.3752302],[-66.1288741,-17.375188],[-66.128931,-17.3751503],[-66.1289543,-17.3751348],[-66.1289841,-17.3751153],[-66.1291394,-17.3750181],[-66.1292574,-17.3749494],[-66.1292821,-17.3749351],[-66.129327,-17.3749113],[-66.1294482,-17.3748504],[-66.1296174,-17.3747803],[-66.1298412,-17.3747014],[-66.1300549,-17.3746383],[-66.1302801,-17.37459],[-66.1305217,-17.3745502],[-66.1307689,-17.3745291],[-66.1313669,-17.3745232],[-66.1313916,-17.374523],[-66.1319101,-17.3745287],[-66.1321407,-17.3745275],[-66.132369,-17.3745257],[-66.1331657,-17.3745288],[-66.1332276,-17.374529],[-66.1336639,-17.3745303],[-66.1345247,-17.374534],[-66.1346749,-17.3745448],[-66.1348695,-17.3745687],[-66.1349714,-17.3745873],[-66.1350574,-17.3746031],[-66.1352388,-17.3746459],[-66.1354291,-17.3747002],[-66.1355865,-17.3747547],[-66.1357657,-17.3748287],[-66.1359602,-17.3749201],[-66.1361757,-17.3750446],[-66.1366294,-17.3753417],[-66.1371488,-17.3756925],[-66.1371768,-17.3757114],[-66.1375633,-17.3759426],[-66.137902,-17.3761238],[-66.1382558,-17.376282],[-66.138489,-17.3763838],[-66.1387412,-17.3764855],[-66.1389497,-17.3765576],[-66.1392113,-17.3766371],[-66.1396414,-17.3767716],[-66.1403943,-17.3769468],[-66.1408419,-17.3770223],[-66.1410415,-17.3770506],[-66.1411913,-17.3770792],[-66.1414646,-17.3771422],[-66.1420069,-17.3772685],[-66.1422247,-17.3773187],[-66.1422829,-17.3773512],[-66.1423113,-17.377371],[-66.1423373,-17.3773952],[-66.1423637,-17.3774238],[-66.1423853,-17.3774579],[-66.142406,-17.3774992],[-66.1424178,-17.3775385],[-66.1424231,-17.3775785],[-66.1424229,-17.3776065],[-66.142421,-17.3776344],[-66.1424051,-17.3777627],[-66.1423809,-17.3780515],[-66.1423777,-17.3782277],[-66.142358,-17.3784481],[-66.1423561,-17.3786003],[-66.1423592,-17.3786717],[-66.1423772,-17.3787495],[-66.1423857,-17.3787904],[-66.1424117,-17.378833],[-66.1424539,-17.3788802],[-66.1425271,-17.3789172],[-66.1427305,-17.3789834],[-66.1429971,-17.3790674],[-66.1430493,-17.3790829],[-66.1430678,-17.379109],[-66.1430837,-17.3791368],[-66.1430966,-17.3791658],[-66.1431016,-17.3791891],[-66.1431024,-17.3792129],[-66.1430994,-17.3792366],[-66.1430676,-17.3793728],[-66.1430688,-17.3794137],[-66.1430776,-17.379442],[-66.1430937,-17.379472],[-66.1432028,-17.3796329],[-66.1441031,-17.3809425],[-66.1441407,-17.3809972],[-66.1442263,-17.3811247],[-66.1443213,-17.3812621],[-66.1443343,-17.3812809],[-66.1443962,-17.3813704],[-66.1450554,-17.3823239],[-66.1451665,-17.3824805],[-66.145265,-17.3826252],[-66.1462641,-17.3840939],[-66.1462906,-17.3841328],[-66.1463324,-17.3841942],[-66.1463585,-17.3842326],[-66.147463,-17.385856],[-66.1475139,-17.3859308],[-66.1475669,-17.3860074],[-66.147678,-17.3861681],[-66.1477159,-17.3862228],[-66.148064,-17.3867233],[-66.1483646,-17.3871554],[-66.1484094,-17.3872198],[-66.1485012,-17.3873491],[-66.1485192,-17.3873745],[-66.1486427,-17.3875508],[-66.1488419,-17.3878325],[-66.14901,-17.38807],[-66.1491698,-17.3882995],[-66.1493366,-17.3885389],[-66.1495508,-17.388829],[-66.149579,-17.3888607],[-66.1496122,-17.3888799],[-66.1496641,-17.3888936],[-66.1497336,-17.3889095],[-66.1498927,-17.3889164],[-66.1500084,-17.3889161],[-66.1500814,-17.3889065],[-66.1501945,-17.3888808],[-66.1503144,-17.3888425],[-66.1504324,-17.3888061],[-66.1505282,-17.3887821],[-66.1515473,-17.3889527],[-66.151604,-17.3889628],[-66.1515995,-17.3889879],[-66.1515922,-17.3890291],[-66.1514143,-17.390025],[-66.1512469,-17.3911242],[-66.1512362,-17.3911812],[-66.1512194,-17.3912742],[-66.1512104,-17.3913248],[-66.1511296,-17.3917295],[-66.1510383,-17.3921922],[-66.151028,-17.3922446],[-66.1510205,-17.3922844],[-66.1508421,-17.3932269],[-66.150834,-17.3932743],[-66.1508222,-17.3933342],[-66.1506546,-17.3943283],[-66.1504423,-17.3953552],[-66.1503862,-17.3956441],[-66.1502362,-17.3964175],[-66.1500348,-17.3975665],[-66.150021,-17.3976385],[-66.1500136,-17.3976877],[-66.1499487,-17.3984764],[-66.1499407,-17.3985529],[-66.1499065,-17.3990035],[-66.1498494,-17.3998668],[-66.1500222,-17.3998728],[-66.1501395,-17.3998796],[-66.1502575,-17.399903],[-66.1503592,-17.3999303],[-66.1504801,-17.3999711],[-66.1506108,-17.4000341],[-66.1507434,-17.4001219],[-66.1508693,-17.4002252],[-66.150939,-17.4002895],[-66.1510132,-17.4003714],[-66.1510832,-17.4004668],[-66.1511583,-17.4005867],[-66.1512403,-17.4007535],[-66.1512896,-17.400901],[-66.1513107,-17.4010414],[-66.1513179,-17.401207],[-66.1513116,-17.4013496],[-66.1512901,-17.4014743],[-66.1512351,-17.4016052],[-66.1510926,-17.4019104],[-66.1510363,-17.4020268],[-66.1510003,-17.4021361],[-66.1509697,-17.4022563],[-66.1509643,-17.4023812],[-66.1509743,-17.4025874],[-66.1510012,-17.4031363],[-66.1510151,-17.403494],[-66.151025,-17.4038341],[-66.1510241,-17.4039937],[-66.1510096,-17.4041425],[-66.1509707,-17.4044188],[-66.1509247,-17.404686],[-66.1508784,-17.4048938],[-66.1508636,-17.4049278],[-66.1508695,-17.4049354],[-66.1508738,-17.4049439],[-66.1508769,-17.4049564],[-66.1508767,-17.4049692],[-66.1508731,-17.4049816],[-66.1508664,-17.4049928],[-66.150857,-17.405002],[-66.1508595,-17.405027],[-66.1508603,-17.4050958],[-66.1508022,-17.4076298],[-66.1508067,-17.4084116],[-66.1508401,-17.4087688],[-66.1508837,-17.4097253],[-66.1509155,-17.4100167],[-66.1509578,-17.4102501],[-66.1509477,-17.410293],[-66.1509332,-17.4103263],[-66.150906,-17.4103611],[-66.150863,-17.4103974],[-66.1508232,-17.4104205],[-66.150773,-17.4104394],[-66.1499783,-17.4105039],[-66.149993,-17.4106532],[-66.1494903,-17.4110939],[-66.1489432,-17.4115718],[-66.1482611,-17.4121871],[-66.1480119,-17.4128511],[-66.1480992,-17.4129028],[-66.1481735,-17.412958],[-66.1486116,-17.413426],[-66.1489405,-17.4137771],[-66.1493566,-17.4142422],[-66.1495903,-17.4144938],[-66.149785,-17.4146895],[-66.1499164,-17.4148808],[-66.1500479,-17.4150891],[-66.1501472,-17.4152684],[-66.1502225,-17.4154568],[-66.1502789,-17.4156198],[-66.1503116,-17.4157882],[-66.1503329,-17.4159361],[-66.150362,-17.4162014],[-66.1503703,-17.4164868],[-66.1503649,-17.4165848],[-66.150343,-17.4167342],[-66.1502777,-17.417102],[-66.150174,-17.4176537],[-66.1501324,-17.4179158],[-66.1500836,-17.4180577],[-66.1500316,-17.4181772],[-66.1498087,-17.4185285],[-66.1492609,-17.4193039],[-66.1493015,-17.4193352],[-66.1493218,-17.4193665],[-66.1493834,-17.4196166],[-66.1493075,-17.4196369],[-66.149243,-17.4196464],[-66.149203,-17.4196354],[-66.1489045,-17.4195144],[-66.1488555,-17.4194958],[-66.1487969,-17.4194859],[-66.1487551,-17.4194825],[-66.1486578,-17.4194823],[-66.1482426,-17.4195059],[-66.1476294,-17.4195424],[-66.147289,-17.4195627],[-66.14703,-17.4195757],[-66.1465061,-17.419609],[-66.1464101,-17.4196151],[-66.1460215,-17.4196391],[-66.1447007,-17.4197207],[-66.1445939,-17.4197273],[-66.1439634,-17.4197669],[-66.1433615,-17.4197995],[-66.1427602,-17.4198335],[-66.1426926,-17.4198372],[-66.1421339,-17.419868],[-66.141976,-17.4198781],[-66.1416177,-17.419901],[-66.1415139,-17.4199076],[-66.1409078,-17.4199408],[-66.1405463,-17.4199618],[-66.1402894,-17.4199767],[-66.1399925,-17.4199918],[-66.1397568,-17.4199991],[-66.1397276,-17.4200019],[-66.1396656,-17.419998],[-66.1396145,-17.4199887],[-66.1395681,-17.4199707],[-66.1395221,-17.4199389],[-66.1394899,-17.4199027],[-66.1393969,-17.4198309],[-66.1393663,-17.4198179],[-66.1393315,-17.419813],[-66.139304,-17.4198146],[-66.1392694,-17.4198258],[-66.1392586,-17.4198323],[-66.1392443,-17.4198408],[-66.138494,-17.4206265],[-66.1380647,-17.4210334],[-66.1377763,-17.4213571],[-66.1371534,-17.4219799],[-66.1368421,-17.4223089],[-66.1368179,-17.4222873],[-66.1367942,-17.4222662],[-66.1362898,-17.4218092],[-66.1360027,-17.4215552],[-66.1357584,-17.4213325],[-66.1352704,-17.4208877],[-66.1347676,-17.4204362],[-66.134008,-17.4197634],[-66.133936,-17.4202481],[-66.1336117,-17.4202241],[-66.1332723,-17.4202067],[-66.1326009,-17.4201762],[-66.1319537,-17.4201399],[-66.1311843,-17.4200909],[-66.1311819,-17.4201412],[-66.1311804,-17.4201717],[-66.131161,-17.4205743],[-66.1311599,-17.4205977],[-66.1311571,-17.4206563],[-66.1311545,-17.4207031],[-66.1311537,-17.4207186],[-66.1311527,-17.420737],[-66.1311323,-17.4211074],[-66.1310763,-17.422035],[-66.1310748,-17.42206],[-66.1310688,-17.4221338],[-66.1310659,-17.4221884],[-66.1310646,-17.4222132],[-66.1310345,-17.4227776],[-66.1310151,-17.42343],[-66.1310121,-17.4234922],[-66.1310087,-17.4235454],[-66.1309463,-17.4245607],[-66.1308539,-17.4259256],[-66.1308603,-17.425984],[-66.1308781,-17.4260369],[-66.1300361,-17.4259884],[-66.1287245,-17.4259214],[-66.1286948,-17.4265874],[-66.1286688,-17.4271717],[-66.1286604,-17.4272976],[-66.1286385,-17.4273783],[-66.1286037,-17.4274687],[-66.1285539,-17.4275667],[-66.1284926,-17.4276787],[-66.1280724,-17.4284711],[-66.1276296,-17.4283411],[-66.1273338,-17.4282566],[-66.1272496,-17.4282531],[-66.1272281,-17.4283134],[-66.1269034,-17.42908],[-66.1262305,-17.42904],[-66.1255114,-17.4290058],[-66.125417,-17.4290135],[-66.1243853,-17.4298011],[-66.124315,-17.4298166],[-66.1243093,-17.4299256],[-66.1242742,-17.4305922],[-66.1242437,-17.4311737],[-66.1242417,-17.4312122],[-66.1242143,-17.4317307],[-66.1241905,-17.4321849],[-66.1241636,-17.4326982],[-66.1236461,-17.4326738],[-66.1228433,-17.4326359],[-66.1221215,-17.4325797],[-66.121656,-17.4325675],[-66.1213945,-17.4325536],[-66.1208689,-17.4325258],[-66.1201993,-17.4324819],[-66.1199148,-17.4324751],[-66.1189285,-17.4324228],[-66.1188084,-17.4330163],[-66.1187058,-17.4335525],[-66.1186399,-17.4339001],[-66.1185901,-17.4342178],[-66.1184113,-17.4340881],[-66.1182106,-17.433983],[-66.1179526,-17.4338807],[-66.1175866,-17.4337521],[-66.1175578,-17.4339273],[-66.1175234,-17.4340031],[-66.1175238,-17.4341134],[-66.1174983,-17.4343077],[-66.117412,-17.4345946],[-66.1172994,-17.4347482],[-66.1171475,-17.4349344],[-66.1170164,-17.435169],[-66.1169307,-17.4355816],[-66.1168966,-17.4357206],[-66.1168212,-17.4358215],[-66.1166562,-17.4360748],[-66.1164788,-17.4363169],[-66.1164343,-17.4363502],[-66.1163844,-17.436368],[-66.1164136,-17.4369751],[-66.1164479,-17.4377689],[-66.116472,-17.4384126],[-66.1165026,-17.4389409],[-66.1165202,-17.4393538],[-66.1165479,-17.4398542],[-66.1165539,-17.4399648],[-66.1165631,-17.440135],[-66.1165872,-17.440772],[-66.1166113,-17.4412543],[-66.1166163,-17.4413587],[-66.1166279,-17.4415864],[-66.1166484,-17.4420405],[-66.1166763,-17.4425739],[-66.1166979,-17.4429651],[-66.1167235,-17.4437184],[-66.1167321,-17.443926],[-66.1167638,-17.4446614],[-66.1167965,-17.4452227],[-66.1168087,-17.4455193],[-66.1168264,-17.4458517],[-66.116839,-17.4460357],[-66.1168459,-17.4463656],[-66.1168867,-17.4474555],[-66.1169023,-17.4476772],[-66.1169112,-17.4479314],[-66.1169406,-17.4485737],[-66.1169463,-17.4486978],[-66.1169793,-17.449404],[-66.1170352,-17.449499],[-66.1171027,-17.449564]]}}}]}