{"type":"FeatureCollection","features":[{"type":"Feature","properties":{"check_date":"29/12/2025","from":"Avenida Túnel","name":"MiniBus 212: Avenida Túnel → Calle La Cascada","network":"BO:CB:Cochabamba","on_demand":"yes","operator":"Sindicato mixto de transportistas Santa Rosa de Lima","public_transport:version":"2","ref":"212","route":"bus","to":"Calle La Cascada","type":"route","wheelchair":"no","id":16147024},"geometry":{"type":"LineString","coordinates":[[-66.03806990000001,-17.40275],[-66.0383901,-17.403379100000002],[-66.0386373,-17.403978000000002],[-66.0390364,-17.404828300000002],[-66.0392731,-17.405351600000003],[-66.0396027,-17.4060801],[-66.0402483,-17.4074399],[-66.04079630000001,-17.4085582],[-66.0408443,-17.408656200000003],[-66.04114100000001,-17.409275700000002],[-66.0411775,-17.409354800000003],[-66.04143160000001,-17.409905600000002],[-66.0414789,-17.4100076],[-66.04155,-17.4101804],[-66.0415553,-17.4102815],[-66.04153380000001,-17.4104889],[-66.0415687,-17.4109392],[-66.04158790000001,-17.411242400000003],[-66.0416144,-17.411749200000003],[-66.04168010000001,-17.4118746],[-66.0416419,-17.412144400000003],[-66.04158930000001,-17.4123476],[-66.04144640000001,-17.4129729],[-66.0413577,-17.413362000000003],[-66.04127100000001,-17.413625500000002],[-66.04117860000001,-17.413844500000003],[-66.041121,-17.413950200000002],[-66.0410779,-17.414083700000003],[-66.0410458,-17.414267900000002],[-66.04107540000001,-17.4145101],[-66.0411701,-17.414793600000003],[-66.04124920000001,-17.4149478],[-66.04131220000001,-17.4150707],[-66.041404,-17.415262700000003],[-66.0415299,-17.4157529],[-66.0425221,-17.415630500000002],[-66.04331490000001,-17.415526500000002],[-66.0434527,-17.4155084],[-66.04356100000001,-17.4154938],[-66.04431410000001,-17.4153896],[-66.0450838,-17.415231900000002],[-66.0460551,-17.4149785],[-66.0467856,-17.4148539],[-66.0473525,-17.4148198],[-66.04773700000001,-17.4148046],[-66.0487214,-17.4147624],[-66.0496409,-17.414701500000003],[-66.0511726,-17.4145667],[-66.052058,-17.4144805],[-66.05218810000001,-17.4144657],[-66.0523572,-17.4144332],[-66.0526475,-17.414377400000003],[-66.0528639,-17.414310800000003],[-66.0532819,-17.414148700000002],[-66.05393400000001,-17.4139021],[-66.0541142,-17.413849900000002],[-66.05446970000001,-17.4137971],[-66.0547581,-17.4137574],[-66.0554395,-17.4136685],[-66.056352,-17.4135104],[-66.056476,-17.413493300000003],[-66.05657590000001,-17.413479300000002],[-66.0573964,-17.4133706],[-66.0577997,-17.413374800000003],[-66.0590463,-17.413471100000002],[-66.0591952,-17.413465300000002],[-66.0595102,-17.4134512],[-66.06168530000001,-17.4133785],[-66.0618455,-17.4133736],[-66.06194740000001,-17.413376300000003],[-66.0647478,-17.4131596],[-66.06575310000001,-17.4130818],[-66.06632540000001,-17.4130395],[-66.0676844,-17.4129101],[-66.06916670000001,-17.412746700000003],[-66.0699819,-17.4126569],[-66.0703299,-17.4126167],[-66.0708733,-17.4125514],[-66.07107780000001,-17.4125239],[-66.0713448,-17.412481500000002],[-66.0716209,-17.412443600000003],[-66.07197000000001,-17.412398200000002],[-66.07238500000001,-17.4123316],[-66.07285470000001,-17.412258700000002],[-66.0740232,-17.4120899],[-66.07485790000001,-17.412008200000002],[-66.0750893,-17.4119847],[-66.0751656,-17.411978700000002],[-66.07562,-17.411928600000003],[-66.0758522,-17.411902700000002],[-66.0769746,-17.4118041],[-66.07887620000001,-17.411624200000002],[-66.07987150000001,-17.411519000000002],[-66.0809826,-17.411396800000002],[-66.08155620000001,-17.4113338],[-66.0820467,-17.4112799],[-66.0826208,-17.4112344],[-66.0831091,-17.4111958],[-66.0842193,-17.411108000000002],[-66.08492550000001,-17.4110522],[-66.08563960000001,-17.410987300000002],[-66.08626720000001,-17.4109303],[-66.0867597,-17.4108856],[-66.0873332,-17.410833500000003],[-66.0883847,-17.410738000000002],[-66.08889660000001,-17.4107372],[-66.089433,-17.410754200000003],[-66.0899364,-17.4107662],[-66.0901384,-17.410778200000003],[-66.0911258,-17.4108671],[-66.09164000000001,-17.4109392],[-66.09187750000001,-17.411006],[-66.0928329,-17.411417],[-66.0936013,-17.411740400000003],[-66.09397120000001,-17.411887500000002],[-66.09416590000001,-17.411937],[-66.09448640000001,-17.411972000000002],[-66.0953099,-17.4120306],[-66.0953958,-17.412040700000002],[-66.09555850000001,-17.4120482],[-66.0957193,-17.412049800000002],[-66.0963045,-17.4120831],[-66.0965767,-17.412106400000003],[-66.0968572,-17.4121534],[-66.0974803,-17.4122695],[-66.098084,-17.4123784],[-66.09845250000001,-17.4124573],[-66.09910230000001,-17.4125979],[-66.0992712,-17.412633300000003],[-66.09946070000001,-17.412679200000003],[-66.0997081,-17.4127332],[-66.1010275,-17.412860400000003],[-66.10152240000001,-17.4129268],[-66.1024189,-17.4129937],[-66.1028452,-17.4130256],[-66.1030252,-17.413039],[-66.10330680000001,-17.4130493],[-66.1040871,-17.4130988],[-66.10472680000001,-17.413135],[-66.1054015,-17.413170700000002],[-66.1054079,-17.4126888],[-66.1055584,-17.412064100000002],[-66.1055628,-17.411426300000002],[-66.10558160000001,-17.4106048],[-66.10558900000001,-17.4105214],[-66.1056983,-17.4101497],[-66.1058052,-17.4099217],[-66.10598630000001,-17.409553900000002],[-66.10626660000001,-17.4089883],[-66.10631550000001,-17.4088879],[-66.1071481,-17.409029200000003],[-66.10739210000001,-17.409095500000003],[-66.1078765,-17.409227100000003],[-66.10901100000001,-17.4095353],[-66.1097381,-17.4097329],[-66.1097708,-17.4088096],[-66.1106079,-17.408528],[-66.11089600000001,-17.408436700000003],[-66.11157770000001,-17.4082206],[-66.11258690000001,-17.407909200000002],[-66.11346370000001,-17.4076284],[-66.1140998,-17.4074214],[-66.1149122,-17.4070858],[-66.1146853,-17.406645],[-66.1144658,-17.4062187],[-66.11416580000001,-17.405635800000002],[-66.11351210000001,-17.404410600000002],[-66.1134452,-17.404463900000003],[-66.11304700000001,-17.4033859],[-66.1129586,-17.4031467],[-66.1129025,-17.402985],[-66.1126313,-17.4021347],[-66.11248780000001,-17.4016594],[-66.1115673,-17.401799800000003],[-66.1115714,-17.401720500000003],[-66.112381,-17.4000106],[-66.11264650000001,-17.399416900000002],[-66.1128204,-17.399054300000003],[-66.1128243,-17.398955],[-66.1128207,-17.398845100000003],[-66.1128013,-17.398573900000002],[-66.1127776,-17.3982765],[-66.1127208,-17.3976016],[-66.112645,-17.396963300000003],[-66.1126138,-17.3967005],[-66.1125708,-17.396339],[-66.11254650000001,-17.396154600000003],[-66.1124874,-17.395913500000002],[-66.11241890000001,-17.395633500000002],[-66.11217400000001,-17.3946337],[-66.11214650000001,-17.394521400000002],[-66.11210750000001,-17.394362100000002],[-66.11195070000001,-17.393722],[-66.11191170000001,-17.393553200000003],[-66.1115286,-17.3920616],[-66.1115053,-17.3919655],[-66.1110957,-17.3903363],[-66.11080150000001,-17.3890017],[-66.1107904,-17.3889095],[-66.1104384,-17.387646200000002],[-66.11027320000001,-17.3870149],[-66.1100949,-17.3863352],[-66.11005250000001,-17.3861789],[-66.1100117,-17.386030700000003],[-66.10983630000001,-17.3853335],[-66.10973530000001,-17.384932000000003],[-66.1095288,-17.3840183],[-66.1094846,-17.3840161],[-66.1094346,-17.3840018],[-66.10940330000001,-17.3839852],[-66.1093756,-17.3839636],[-66.1093524,-17.3839377],[-66.1093342,-17.3839083],[-66.10931930000001,-17.3838665],[-66.1093147,-17.383822600000002],[-66.1093257,-17.3837626],[-66.10935570000001,-17.3837088],[-66.10939110000001,-17.3836742],[-66.1094343,-17.383649100000003],[-66.1094999,-17.383632900000002],[-66.10956200000001,-17.383637],[-66.1096198,-17.3836589],[-66.1096675,-17.3836961],[-66.10970130000001,-17.3837404],[-66.1101186,-17.3836522],[-66.11055110000001,-17.383561500000003],[-66.1116279,-17.383341],[-66.1126895,-17.383117600000002],[-66.1137491,-17.382897800000002],[-66.11474120000001,-17.3826937],[-66.1160978,-17.3824143],[-66.1166355,-17.3823048],[-66.1167504,-17.382281600000002],[-66.1172233,-17.3821833],[-66.1178158,-17.3820392],[-66.11826740000001,-17.3819014],[-66.1185475,-17.381807000000002],[-66.1187728,-17.381719800000003],[-66.11928180000001,-17.381503600000002],[-66.11950370000001,-17.381410000000002],[-66.11999700000001,-17.381166800000003],[-66.12026010000001,-17.3810155],[-66.1208017,-17.380671500000002],[-66.1208417,-17.3806461],[-66.12168240000001,-17.3800861],[-66.12176980000001,-17.3800293],[-66.1218317,-17.379987800000002],[-66.1221658,-17.3797745],[-66.12243050000001,-17.3795986],[-66.1224694,-17.3795763],[-66.122742,-17.379389900000003],[-66.12360930000001,-17.378817400000003],[-66.12421330000001,-17.3784409],[-66.12471000000001,-17.3781074],[-66.12535460000001,-17.377652400000002],[-66.1257746,-17.377356000000002],[-66.12695810000001,-17.3765211],[-66.12702440000001,-17.376476],[-66.1271995,-17.3763545],[-66.1275504,-17.376112600000003],[-66.1279614,-17.3758297],[-66.1281352,-17.37571],[-66.1282882,-17.3756033],[-66.12881490000001,-17.3752302],[-66.1288741,-17.375188],[-66.12893100000001,-17.3751503],[-66.1289543,-17.3751348],[-66.12898750000001,-17.3751147],[-66.1291381,-17.375016300000002],[-66.12925580000001,-17.374947000000002],[-66.1292707,-17.3749377],[-66.129327,-17.374909300000002],[-66.1294482,-17.374850400000003],[-66.1296174,-17.3747803],[-66.1298412,-17.374701400000003],[-66.1300549,-17.3746383],[-66.13028010000001,-17.37459],[-66.1305217,-17.3745502],[-66.1307689,-17.3745291],[-66.1313669,-17.374523200000002],[-66.1313916,-17.374523],[-66.1319101,-17.374528700000003],[-66.13214070000001,-17.374527500000003],[-66.13236900000001,-17.374525700000003],[-66.1331657,-17.3745288],[-66.13322760000001,-17.374529000000003],[-66.1336639,-17.3745303],[-66.1345247,-17.374534],[-66.13467490000001,-17.374544800000002],[-66.13486950000001,-17.3745687],[-66.13497140000001,-17.3745873],[-66.13505740000001,-17.3746031],[-66.13523880000001,-17.3746459],[-66.13542910000001,-17.374700200000003],[-66.1355865,-17.3747547],[-66.13576570000001,-17.374828700000002],[-66.1359602,-17.3749201],[-66.13617570000001,-17.375044600000003],[-66.1366294,-17.3753417],[-66.1371488,-17.375692500000003],[-66.1371768,-17.3757114],[-66.13756330000001,-17.375942600000002],[-66.13790200000001,-17.376123800000002],[-66.13825580000001,-17.376282],[-66.138489,-17.376383800000003],[-66.13874120000001,-17.3764855],[-66.13894970000001,-17.3765576],[-66.1392113,-17.3766371],[-66.1396414,-17.3767716],[-66.14039430000001,-17.376946800000002],[-66.14084190000001,-17.3770223],[-66.1410415,-17.3770506],[-66.1411913,-17.3770792],[-66.1414646,-17.3771422],[-66.14200690000001,-17.377268500000003],[-66.1422247,-17.3773187],[-66.14228290000001,-17.377351200000003],[-66.1423113,-17.377371],[-66.14233730000001,-17.377395200000002],[-66.1423637,-17.377423800000003],[-66.1423853,-17.377457900000003],[-66.14240600000001,-17.377499200000003],[-66.1424178,-17.3775385],[-66.1424231,-17.377578500000002],[-66.1424229,-17.377606500000002],[-66.142421,-17.3776344],[-66.1424051,-17.3777627],[-66.1423809,-17.3780515],[-66.14237770000001,-17.3782277],[-66.142358,-17.3784481],[-66.1423561,-17.378600300000002],[-66.1423592,-17.3786717],[-66.14237720000001,-17.3787495],[-66.1423857,-17.3787904],[-66.14241170000001,-17.378833],[-66.1424539,-17.3788802],[-66.14252710000001,-17.3789172],[-66.1427305,-17.378983400000003],[-66.1429971,-17.3790674],[-66.1430493,-17.3790829],[-66.14306780000001,-17.379109000000003],[-66.1430837,-17.3791368],[-66.1430966,-17.379165800000003],[-66.14310160000001,-17.3791891],[-66.1431024,-17.379212900000002],[-66.14309940000001,-17.379236600000002],[-66.14306760000001,-17.379372800000002],[-66.14306880000001,-17.3794137],[-66.14307760000001,-17.379442],[-66.14309370000001,-17.379472],[-66.14320280000001,-17.3796329],[-66.14410310000001,-17.3809425],[-66.14414070000001,-17.380997200000003],[-66.1442263,-17.3811247],[-66.1443213,-17.3812621],[-66.14433430000001,-17.3812809],[-66.1443962,-17.3813704],[-66.1450554,-17.382323900000003],[-66.1451665,-17.3824805],[-66.14526500000001,-17.382625200000003],[-66.14626410000001,-17.3840939],[-66.1462906,-17.384132800000003],[-66.1463324,-17.384194200000003],[-66.1463585,-17.3842326],[-66.147463,-17.385856],[-66.1475139,-17.3859308],[-66.1475669,-17.3860074],[-66.147678,-17.386168100000003],[-66.14771590000001,-17.386222800000002],[-66.148064,-17.3867233],[-66.14836460000001,-17.3871554],[-66.1484094,-17.3872198],[-66.14850120000001,-17.3873491],[-66.14851920000001,-17.3873745],[-66.14864270000001,-17.387550800000003],[-66.14884190000001,-17.387832500000002],[-66.14901,-17.388070000000003],[-66.14916980000001,-17.388299500000002],[-66.14933660000001,-17.3885389],[-66.1493179,-17.388644900000003],[-66.149276,-17.3888535],[-66.1491994,-17.389254400000002],[-66.1491441,-17.389543900000003],[-66.1490107,-17.390230600000002],[-66.148919,-17.390703000000002],[-66.14890910000001,-17.3907458],[-66.14889430000001,-17.390824400000003],[-66.14888640000001,-17.3908667],[-66.1487038,-17.3917663],[-66.14869060000001,-17.3918339],[-66.148651,-17.391928200000002],[-66.14864180000001,-17.3919718],[-66.14858770000001,-17.3922279],[-66.1485432,-17.392443],[-66.1485231,-17.392540200000003],[-66.1484738,-17.392778800000002],[-66.1484626,-17.392832900000002],[-66.14793900000001,-17.3927435],[-66.14743340000001,-17.3926589],[-66.1473167,-17.3926404],[-66.1468937,-17.3925734],[-66.14683430000001,-17.3925626],[-66.14664900000001,-17.3925276],[-66.1458099,-17.3923619],[-66.1453273,-17.392282],[-66.1451071,-17.392245600000003],[-66.1448295,-17.3921996],[-66.1445767,-17.392158100000003],[-66.14440970000001,-17.392130700000003],[-66.14437070000001,-17.392124300000003],[-66.1442415,-17.392103000000002],[-66.1441346,-17.3920855],[-66.143713,-17.3920162],[-66.1436259,-17.3920019],[-66.1430857,-17.3919132],[-66.142807,-17.3918675],[-66.14274520000001,-17.3918573],[-66.1427214,-17.3919144],[-66.14234640000001,-17.3927549],[-66.1423273,-17.3927935],[-66.1419298,-17.393674700000002],[-66.14187790000001,-17.3937896],[-66.14189300000001,-17.393798800000003],[-66.14190550000001,-17.393811000000003],[-66.141917,-17.393830100000002],[-66.1419226,-17.3938534],[-66.14192050000001,-17.3938773],[-66.1419595,-17.3939217],[-66.1425597,-17.3946913],[-66.14292370000001,-17.3951433],[-66.1431094,-17.3953528],[-66.1432772,-17.3955556],[-66.1434016,-17.395681900000003],[-66.14379020000001,-17.3960495],[-66.1440656,-17.3962608],[-66.14431180000001,-17.396443400000003],[-66.14457460000001,-17.3966099],[-66.14482170000001,-17.396751400000003],[-66.1451356,-17.3969281],[-66.14539470000001,-17.397057200000003],[-66.14574250000001,-17.397234800000003],[-66.14678470000001,-17.3977645],[-66.14745690000001,-17.3981037],[-66.14767230000001,-17.3982059],[-66.1478288,-17.398264],[-66.1480011,-17.398308500000002],[-66.14815660000001,-17.398336200000003],[-66.14831550000001,-17.3983579],[-66.148511,-17.398367800000003],[-66.14855800000001,-17.398372600000002],[-66.14994870000001,-17.3984764],[-66.15058850000001,-17.398518000000003],[-66.1510902,-17.398456600000003],[-66.1519487,-17.3984139],[-66.15201040000001,-17.3984159],[-66.1520931,-17.3984305],[-66.15221910000001,-17.398466000000003],[-66.15236440000001,-17.398521000000002],[-66.1526616,-17.3986303],[-66.1527528,-17.398660500000002],[-66.15277370000001,-17.3986674],[-66.15310670000001,-17.3987465],[-66.15319450000001,-17.3987646],[-66.15417000000001,-17.39898],[-66.1542283,-17.398992900000003],[-66.15429560000001,-17.3990088],[-66.1552473,-17.3992338],[-66.15530360000001,-17.3992471],[-66.15534770000001,-17.399256700000002],[-66.156378,-17.399481],[-66.1564374,-17.399488700000003],[-66.1564991,-17.3994953],[-66.15675590000001,-17.399494800000003],[-66.15696360000001,-17.399463],[-66.1571541,-17.399440100000003],[-66.1575712,-17.3993743],[-66.1576356,-17.399365500000002],[-66.1577347,-17.399351900000003],[-66.1578434,-17.3993362],[-66.15843930000001,-17.399245200000003],[-66.1584983,-17.3992362],[-66.15861500000001,-17.399227200000002],[-66.1587124,-17.399228800000003],[-66.158764,-17.399232100000003],[-66.1591739,-17.399257700000003],[-66.1592816,-17.3992705],[-66.1593653,-17.399274400000003],[-66.15999670000001,-17.399303200000002],[-66.16006630000001,-17.399313600000003],[-66.1601608,-17.399337300000003],[-66.1603302,-17.3993931],[-66.16043300000001,-17.399426700000003],[-66.16099530000001,-17.3995906],[-66.16109110000001,-17.399618500000003],[-66.16109730000001,-17.399575900000002],[-66.1612631,-17.398436800000002],[-66.1612698,-17.3983892],[-66.1613313,-17.398401],[-66.1624747,-17.39862],[-66.1637645,-17.398865500000003],[-66.16379690000001,-17.3988662],[-66.16382610000001,-17.398849000000002],[-66.16389980000001,-17.3987912],[-66.1639911,-17.3987325],[-66.164129,-17.398670600000003],[-66.1641697,-17.398657],[-66.1642092,-17.398658700000002],[-66.164243,-17.398671500000003],[-66.16427370000001,-17.3986993],[-66.1643942,-17.3988577],[-66.1644471,-17.3989273],[-66.16450880000001,-17.399008400000003],[-66.164578,-17.399099500000002],[-66.16462410000001,-17.399160000000002],[-66.1646934,-17.3992511],[-66.164738,-17.399295000000002],[-66.1647915,-17.3993255],[-66.1648722,-17.3993398],[-66.16504060000001,-17.399366500000003],[-66.1654311,-17.3994275],[-66.1657648,-17.399486600000003],[-66.1662891,-17.399568600000002],[-66.16648350000001,-17.3995973],[-66.16648880000001,-17.399720400000003],[-66.1664925,-17.399802400000002],[-66.1665164,-17.4003349],[-66.16651970000001,-17.400389200000003],[-66.16658910000001,-17.401549300000003],[-66.1666344,-17.4024012],[-66.166638,-17.4024575],[-66.1666405,-17.4025196],[-66.166655,-17.402763],[-66.1666739,-17.4030825],[-66.1666831,-17.403236500000002],[-66.1667154,-17.4038158],[-66.16674640000001,-17.4044588],[-66.1668066,-17.4051158],[-66.1669535,-17.4058634],[-66.1669834,-17.406006400000003],[-66.1670114,-17.406105500000002],[-66.16732900000001,-17.4069554],[-66.16735870000001,-17.4070316],[-66.1676776,-17.4076577],[-66.16901940000001,-17.407033100000003],[-66.1690844,-17.407002900000002],[-66.1699665,-17.406596],[-66.17000150000001,-17.4065799],[-66.170079,-17.4065467],[-66.17008790000001,-17.406678900000003],[-66.170106,-17.406710800000003],[-66.1701548,-17.4067967],[-66.1708102,-17.4077823],[-66.1708443,-17.407834100000002],[-66.17090010000001,-17.407907700000003],[-66.1709565,-17.407988300000003],[-66.17102360000001,-17.4080842],[-66.17138480000001,-17.408617800000002],[-66.1715794,-17.4088959],[-66.17160510000001,-17.4089327],[-66.1717759,-17.4091768],[-66.17189710000001,-17.409354],[-66.1722474,-17.409866100000002],[-66.1722457,-17.4100399],[-66.17273970000001,-17.410046100000002],[-66.1729464,-17.410044600000003],[-66.1730618,-17.4100213],[-66.17318,-17.4099787],[-66.1732927,-17.409920800000002],[-66.173438,-17.4098225],[-66.17364420000001,-17.4097197],[-66.1738198,-17.4096322],[-66.1738684,-17.4096073],[-66.1739273,-17.409575200000003],[-66.17403820000001,-17.4095081],[-66.1740778,-17.409480900000002],[-66.1741171,-17.4094476],[-66.17413280000001,-17.409434400000002],[-66.1744597,-17.4090773],[-66.1744685,-17.4090662],[-66.1744815,-17.409049800000002],[-66.17450550000001,-17.409019400000002],[-66.1745262,-17.4089931],[-66.17460390000001,-17.408894800000002],[-66.17465290000001,-17.4088329],[-66.17497940000001,-17.408401],[-66.1755849,-17.4076111],[-66.1760306,-17.407040300000002],[-66.17639890000001,-17.4067298],[-66.17647170000001,-17.4066657],[-66.17656090000001,-17.4065911],[-66.1766285,-17.406538400000002],[-66.17699110000001,-17.4062556],[-66.1772711,-17.406075],[-66.177559,-17.4059102],[-66.1780533,-17.405653100000002],[-66.1791604,-17.4050747],[-66.17918920000001,-17.405059700000002],[-66.179218,-17.4050446],[-66.1792865,-17.405007700000002],[-66.1794318,-17.4049295],[-66.179682,-17.4047796],[-66.17995160000001,-17.4045728],[-66.1801623,-17.4043959],[-66.1802712,-17.404300000000003],[-66.1803392,-17.4042354],[-66.1803924,-17.404184100000002],[-66.18051870000001,-17.404057700000003],[-66.1805741,-17.404002300000002],[-66.1807237,-17.4038401],[-66.1813573,-17.4030062],[-66.18236510000001,-17.4017154],[-66.1824608,-17.4015929],[-66.1826034,-17.401412200000003],[-66.1827209,-17.401278400000002],[-66.18277470000001,-17.401220400000003],[-66.18276990000001,-17.4012068],[-66.18276540000001,-17.4011876],[-66.18276390000001,-17.4011536],[-66.18277020000001,-17.4011201],[-66.18278400000001,-17.4010888],[-66.1828047,-17.401061000000002],[-66.18278430000001,-17.400948000000003],[-66.18277450000001,-17.400894700000002],[-66.1827628,-17.400844300000003],[-66.18275630000001,-17.400815100000003],[-66.18274430000001,-17.4007615],[-66.18263040000001,-17.400343600000003],[-66.1824426,-17.3996393],[-66.1824175,-17.3995433],[-66.18237970000001,-17.3994114],[-66.1820701,-17.3983238],[-66.18205060000001,-17.3982528],[-66.1819153,-17.397747300000002],[-66.1818973,-17.39768],[-66.1818788,-17.397615100000003],[-66.18169750000001,-17.396980000000003],[-66.1816321,-17.3967177],[-66.18153810000001,-17.396399300000002],[-66.18151630000001,-17.396325500000003],[-66.1814887,-17.3962532],[-66.18164010000001,-17.3962469],[-66.18185340000001,-17.396239700000002],[-66.1825446,-17.3962259],[-66.18321390000001,-17.396211100000002],[-66.1839346,-17.3961958],[-66.1844878,-17.396189300000003],[-66.1847642,-17.396186],[-66.18481720000001,-17.3961794],[-66.1848662,-17.3961654],[-66.18489670000001,-17.3961566],[-66.18501710000001,-17.3961234],[-66.18504490000001,-17.3960894],[-66.1850716,-17.396068800000002],[-66.185102,-17.396053600000002],[-66.18513490000001,-17.3960443],[-66.18516910000001,-17.396041200000003],[-66.1852032,-17.3960446],[-66.185236,-17.396054300000003],[-66.1852662,-17.3960699],[-66.185291,-17.396089200000002],[-66.18531200000001,-17.396113000000003],[-66.18532800000001,-17.396140000000003],[-66.18533860000001,-17.3961694],[-66.1853432,-17.396200200000003],[-66.18534220000001,-17.396229],[-66.18533590000001,-17.3962572],[-66.18532470000001,-17.3962839],[-66.18535530000001,-17.3963213],[-66.18537180000001,-17.396356],[-66.18555880000001,-17.3969272],[-66.1856707,-17.397269100000003],[-66.1857882,-17.397620500000002],[-66.18583860000001,-17.3977711],[-66.18585510000001,-17.3978204],[-66.18593150000001,-17.3980479],[-66.1860187,-17.3983071],[-66.1860506,-17.398402100000002],[-66.1860674,-17.3984522],[-66.18619100000001,-17.3988191],[-66.1862885,-17.3991098],[-66.18630990000001,-17.399140300000003],[-66.18632790000001,-17.399186800000003],[-66.18632910000001,-17.399237000000003],[-66.1863727,-17.3993587],[-66.1864101,-17.399469800000002],[-66.18643610000001,-17.3995518],[-66.18652560000001,-17.399833700000002],[-66.1866001,-17.400068400000002],[-66.1866232,-17.4001413],[-66.186648,-17.4002152],[-66.1866696,-17.4002911],[-66.1867323,-17.4004933],[-66.1867426,-17.400547600000003],[-66.1867684,-17.400704100000002],[-66.1868062,-17.4009369],[-66.1868151,-17.4009974],[-66.1869666,-17.402157300000002],[-66.1880922,-17.402167300000002],[-66.1887435,-17.402171300000003],[-66.18957080000001,-17.4021784],[-66.1896189,-17.4024435],[-66.1897314,-17.4032856],[-66.1897539,-17.403434200000003],[-66.1897642,-17.4035538],[-66.1897654,-17.403567000000002],[-66.18982740000001,-17.4040271],[-66.1899082,-17.4045929],[-66.18999860000001,-17.4052244],[-66.1900875,-17.4059047],[-66.1902196,-17.406934600000003],[-66.1903968,-17.406954600000002],[-66.1905816,-17.4069906],[-66.1907316,-17.407037600000002],[-66.19086750000001,-17.407100800000002],[-66.1909663,-17.40717],[-66.1911079,-17.407304800000002],[-66.1930729,-17.4095884],[-66.1930433,-17.4096127],[-66.1929611,-17.409680400000003],[-66.1899703,-17.4122415],[-66.19002760000001,-17.4122886],[-66.1901078,-17.4123172],[-66.1906431,-17.41243],[-66.1907788,-17.4124643],[-66.1909845,-17.4125148],[-66.19112390000001,-17.412528000000002],[-66.19166560000001,-17.4124537],[-66.1919154,-17.412438],[-66.1921604,-17.412451500000003],[-66.1922871,-17.412472],[-66.1923806,-17.4124988],[-66.19307040000001,-17.412799200000002],[-66.19346850000001,-17.4129864],[-66.1936003,-17.413065600000003],[-66.1936934,-17.413089600000003],[-66.19389190000001,-17.4131751],[-66.19438000000001,-17.413363],[-66.194575,-17.413452200000002],[-66.1947382,-17.413524600000002],[-66.1948564,-17.4135679],[-66.1949507,-17.4135762],[-66.19506670000001,-17.4135771],[-66.19557010000001,-17.4135528],[-66.1957129,-17.413554400000002],[-66.19583560000001,-17.4135728],[-66.1959528,-17.413600900000002],[-66.19639000000001,-17.413768700000002],[-66.19685480000001,-17.4139653],[-66.19801120000001,-17.414450600000002],[-66.1990208,-17.4148181],[-66.1992479,-17.414923100000003],[-66.19931530000001,-17.4149622],[-66.1995347,-17.415276700000003],[-66.19958860000001,-17.4153303],[-66.19964370000001,-17.4153564],[-66.20003650000001,-17.415377300000003],[-66.2003229,-17.4153878],[-66.2004883,-17.4154115],[-66.20071060000001,-17.415454200000003],[-66.2013558,-17.4156501],[-66.201662,-17.4157458],[-66.2036302,-17.4164084],[-66.2037464,-17.4164557],[-66.20383340000001,-17.416500000000003],[-66.20411250000001,-17.416672700000003],[-66.2045125,-17.4169321],[-66.20529850000001,-17.417441800000002],[-66.20538540000001,-17.4174903],[-66.2054883,-17.4175274],[-66.2068856,-17.4177088],[-66.20800940000001,-17.417854700000003],[-66.20821860000001,-17.4178818],[-66.20833180000001,-17.4178868],[-66.20843040000001,-17.4178773],[-66.2085299,-17.4178499],[-66.2086271,-17.417805700000002],[-66.20869210000001,-17.417761900000002],[-66.2088104,-17.4176399],[-66.21003080000001,-17.416277400000002],[-66.21012560000001,-17.416189000000003],[-66.21022160000001,-17.416122400000003],[-66.21032310000001,-17.4160703],[-66.2109578,-17.4157991]],"nodes":[1544966841,1544967110,1544967352,1544967612,1544967857,1544968200,1544968583,13520789299,1544969054,1544969187,13520805465,13520805403,3839566056,3839566055,1544969424,1544969467,2320095800,3839566037,3839566036,1544969503,1544969524,4279518924,4067021361,2320095836,1544969583,7243790325,1544969621,2320095840,1544969629,1544969654,4670258209,7243767893,2320095842,2320095843,4154867320,4154867318,8400356093,4097911367,8400356092,4067021339,7243790315,4154867313,4154867311,4154867309,5163143265,4154867308,4066933556,4154867305,8400356072,4154867304,8400356070,9339292264,8400356073,4066933562,5429286886,4154867295,5163143262,5163143263,4154867291,8400356055,3956123675,8400356053,4154863783,4154863780,5378907537,3956136713,2028803038,8400356023,2028803058,8400356021,12175924226,7243764106,4308134198,2028805607,11890286428,4154863775,2028803105,2028803074,8400356004,2028805615,8400356003,2028803059,2028803043,10957700940,8400355988,2028803060,8400355985,6132757183,6132757181,8400355984,2028803047,3562574108,2028803095,3562574095,12174222017,3562574086,3562574084,2028828257,3562574079,3562574075,3562574071,8399666578,3562574066,10102435960,8399666574,3562574057,11073903779,5378907572,12087529527,2028828299,5163143258,12087529526,6132756665,3562574114,12087529525,6132756663,3424332543,8400647414,11273306533,3562574131,8400647394,6132756658,12087983529,3424332549,3562574153,3562574163,3424332553,11404901603,8400647396,3562574180,3424332561,3562574194,3424332562,7243693331,8400650819,3562574200,8400650820,3562574203,3562574206,3562574209,3424332558,3424332545,3424332526,3424332480,3424332468,3424332453,3424332439,3424332432,7555355078,3416984484,1610493465,3424332421,3416984481,3416984898,1610492644,2449097543,6132756649,7555360492,2449097532,2448368760,2448368759,2449097526,2448368757,13061293095,13061293097,7243687036,1610492845,2450079102,13061293063,9938416957,7499502653,2450079045,1609366192,1609365855,10303763660,1609365878,4620215220,3429571615,12446462827,1609365830,4620215216,11078353455,3429571560,12446593131,13351462155,1609365798,3429571526,3429571522,2320160218,7863085758,1609366101,2424302494,1609365901,2320160208,2320160187,4059209929,1609366215,4620215205,5027942696,5027942688,5027942687,5027942653,5027940181,2956787648,5027940179,2956787647,2508868851,13535744054,2508868850,13535744055,2508868846,13535744056,2508868838,13535744057,2508868828,2508868827,2508868824,13535744058,2508868818,2508868813,13535744059,2508868816,2508868821,2508868825,12529903869,1609295397,1609366183,1609295440,1609221020,1609221140,1609200185,9156300405,2450079042,7436412015,1609221063,497168741,9156300398,2398626869,1609200177,2398626833,2398626816,1609200081,8162958911,8162958910,7033772018,1609200049,8162958914,497169501,497169504,1485097031,1485097020,1485097014,9366321723,3877506232,1044379733,9366321725,8455317281,1009167683,8455317287,3290785083,11074088806,8162958964,1008238435,9012647241,497170001,9364555678,12952456793,1008238205,12952456779,12952456795,1008238230,8455639761,9364555682,7070768690,497170007,1008238537,497170008,497170010,1008238793,9364556031,497169979,497169953,6818591873,3316224538,12565837684,9359800374,9359800375,497169954,497169957,1044379345,12565837681,1009166481,497169958,6331635756,1009167549,497169962,6331635762,1044379589,1044379213,7965603739,598266521,598266518,1044379730,1044379735,1796486751,7965587281,1796486753,6331635754,1796486765,1044378919,9049714571,8385091906,598266493,8385091908,8385091907,602989551,8385091909,8385091914,5298602495,8385091913,1795293284,1795293323,8385091911,8385091910,8385091912,1795293424,1795293286,1795293393,1796486808,1795293430,2391341448,2391341465,1795293437,1795293264,1795293299,1795293277,8385093431,1795293338,2391341613,1795293296,8379904343,11081763605,2391341643,8379904342,1795293405,2391341655,2391341667,1795293432,9890903488,1795293389,602989537,9890903489,8388301598,312425917,9584233890,3676912941,9584233886,10854297122,312425660,8390961546,9930862751,1807100710,2361168089,9930862749,6179473101,312425828,6179473096,11310743156,9031318855,9028209372,6179473247,9031318856,2141431944,6179473241,6179473238,9034180378,5353339454,11310645817,312425956,315096054,3201986227,11827172367,308306729,11827181890,2524491857,303214819,698492415,2524491860,2524491871,310256064,2892642950,11909190787,8686638951,8686638950,9852140997,3924761818,303215163,2296580941,3201986249,12153256567,8674788834,2089612819,360129540,3232582109,8978596850,3740735352,8978596851,8623738790,5096122271,303215031,2702743907,8661106030,303221553,3578038899,8620183423,8620183345,303221552,8620183347,8584400934,315134805,9886485075,2033335103,11072493727,2033335200,2033335257,11072493723,2033335311,2033335550,8619283530,8253508719,315031289,598789073,598789071,8253508706,315031292,315031293,315031294,8250070339,598789057,391727105,2033336773,702512026,315031513,315031514,315031515,315031516,315031517,8250061916,315031543,8004756950,1727306399,598789381,1727306395,2765190357,2765190359,9121680511,1727306396,8241198663,8238783261,8238783233,2765190377,8238783242,3269819960,12081159183,1727306400,12081159182,3674274541,1727306404,3674274542,12081159193,1727306401,2398944652,2398944653,11679558744,7767900404,4929965568,1727306403,1865095006,2398944637,10921117778,2398944625,9566992862,315111204,9593572452,323969382,9593572449,10921117799,676069596,8099810036,9593560545,323969927,2266470191,9598863723,315111364,9955760904,9175513399,310500788,9955760905,8015423502,2280517742,9944330592,2477244609,315112908,6839750781,8015423519,315112910,9944330590,9944330591,5560363749,8015423530,315112528,800044152,9944330589,9003535375,2684641186,9025561505,9025561504,9025561510,9025561511,9025561323,2477244643,8667184707,800044270,8667184708,9025561487,800044175,9025561288,800044096,4318761060,707336807,4318761061,8188905963,8188905955,707336806,707336803,707336801,707336787,800043964,707336785,9849379127,707336784,9920249713,707336797,10048384458,800044057,13510062033,707336798,10048384463,9025561180,9025561178,1638040943,13185347128,2420519840,2420519843,13185347108,8067883393,707336695,2420519852,843384122,707336699,12391372538,707336691,660004714,9022475857,560522307,7711660462,1638041068,3301399299,8543055888,12391372505,5574621531,12391328996,2420519863,8543061750,9024034047,12391328953,560522294,648571007,12538679971,12391372566,12391328962,560522301,2780334024,660004014,560522303,844969856,800044315,11821516120,800044289,560522315,11821516118,800044142,560522316,11081950882,843534485,12874271840,12874271876,800043991,12874271837,8046380062,560522320,800044169,8046390993,8046390986,12874271852,560522321,800044031,12874271857,560522325,800044160,12849430833,2812625180,800043973,2812625165,2812625154,11081939527,12849430781,12849430778,10052457205,9856963631,4012103522,800044345,8984475621,2800230319,2800230317,2800230316,800044093,7144349799,800044197,7144349796,9506951553,5562434949,7144349793,800044100,7144349795,800044278,5539017882,2869785618,560522655,660012891,660012892,6621278940,698597065,660012866,800044016,9506951519,3262573329,6639012129,660012893,8564652538,9336206540,6617483718,2900514448,9336206522,2900514441,9336206523,4012103519,9336206524,6617483717,660012845,9336206521,6326480502,9336206525,5869420103,9336206526,9336206534,9336206533,13433504131,6639012136,11081947316,8975254911,11081947326,12300697137,1583410623,11081947325,11081595198,2334089676,11081947322,11081947321,2900514489,12300697134,660012887,2900514510,8581421897,6621278908,8581421893,8581421908,8581421905,2196149276,8581421890,8581421889,2812624191,2812624199,2812625105,8984475646,1737902968,1583414243,1583410636,2334089732,1583410635,9213180214,5117479589,2334089717,9213180211,3679646768,2334089741,2334094089,9852042566,1583414286,1583414257,9852042517,792692877,792692756,792692632,3263808264,9852037213,1629156424,10837785684,2421399594,792692960,3679649459,3679649460,792692919,3679649463,792692793,9236592946,792692669,3679649462,3679649461,3684250621,3679649464,3679649467,792692712,3684250692,792692607,3684250701,792692946,3684250722,792692830,3679649478,3679649479,3679649480,1629156665,792692768,792692642,3684250734,3684250748,792692977,1629156702,3684250833,792692893,3679649489,3679649494,792692691,792693015,3679649495,3679649496,792692934,792692873,792692753,1583410843,792692591,792692965,3684250950,792692923,3684250958,3684250972,792692799,1583410863,3684250977,3684542878,3684250980,792693002,3684250979,792692955,3684250978,792692844,792692675,3684250935,792693054,792692991,792692916,8439419910]},"gtfs":{"agency_id":18,"route_id":53,"services":[{"service_id":"Mo-Su","startTime":"06:00","endTime":"22:00","trip_id":16147024}],"filteredStops":{"nodes":[1544966841,1544967110,1544967352,1544967612,1544967857,1544968200,1544968583,13520789299,1544969054,1544969187,13520805465,13520805403,3839566056,3839566055,1544969424,1544969467,2320095800,3839566037,3839566036,1544969503,1544969524,4279518924,4067021361,2320095836,1544969583,7243790325,1544969621,2320095840,1544969629,1544969654,4670258209,7243767893,2320095842,2320095843,4154867320,4154867318,8400356093,4097911367,8400356092,4067021339,7243790315,4154867313,4154867311,4154867309,5163143265,4154867308,4066933556,4154867305,8400356072,4154867304,8400356070,9339292264,8400356073,4066933562,5429286886,4154867295,5163143262,5163143263,4154867291,8400356055,3956123675,8400356053,4154863783,4154863780,5378907537,3956136713,2028803038,8400356023,2028803058,8400356021,12175924226,7243764106,4308134198,2028805607,11890286428,4154863775,2028803105,2028803074,8400356004,2028805615,8400356003,2028803059,2028803043,10957700940,8400355988,2028803060,8400355985,6132757183,6132757181,8400355984,2028803047,3562574108,2028803095,3562574095,12174222017,3562574086,3562574084,2028828257,3562574079,3562574075,3562574071,8399666578,3562574066,10102435960,8399666574,3562574057,11073903779,5378907572,12087529527,2028828299,5163143258,12087529526,6132756665,3562574114,12087529525,6132756663,3424332543,8400647414,11273306533,3562574131,8400647394,6132756658,12087983529,3424332549,3562574153,3562574163,3424332553,11404901603,8400647396,3562574180,3424332561,3562574194,3424332562,7243693331,8400650819,3562574200,8400650820,3562574203,3562574206,3562574209,3424332558,3424332545,3424332526,3424332480,3424332468,3424332453,3424332439,3424332432,7555355078,3416984484,1610493465,3424332421,3416984481,3416984898,1610492644,2449097543,6132756649,7555360492,2449097532,2448368760,2448368759,2449097526,2448368757,13061293095,13061293097,7243687036,1610492845,2450079102,13061293063,9938416957,7499502653,2450079045,1609366192,1609365855,10303763660,1609365878,4620215220,3429571615,12446462827,1609365830,4620215216,11078353455,3429571560,12446593131,13351462155,1609365798,3429571526,3429571522,2320160218,7863085758,1609366101,2424302494,1609365901,2320160208,2320160187,4059209929,1609366215,4620215205,5027942696,5027942688,5027942687,5027942653,5027940181,2956787648,5027940179,2956787647,2508868851,13535744054,2508868850,13535744055,2508868846,13535744056,2508868838,13535744057,2508868828,2508868827,2508868824,13535744058,2508868818,2508868813,13535744059,2508868816,2508868821,2508868825,12529903869,1609295397,1609366183,1609295440,1609221020,1609221140,1609200185,9156300405,2450079042,7436412015,1609221063,497168741,9156300398,2398626869,1609200177,2398626833,2398626816,1609200081,8162958911,8162958910,7033772018,1609200049,8162958914,497169501,497169504,1485097031,1485097020,1485097014,9366321723,3877506232,1044379733,9366321725,8455317281,1009167683,8455317287,3290785083,11074088806,8162958964,1008238435,9012647241,497170001,9364555678,12952456793,1008238205,12952456779,12952456795,1008238230,8455639761,9364555682,7070768690,497170007,1008238537,497170008,497170010,1008238793,9364556031,497169979,497169953,6818591873,3316224538,12565837684,9359800374,9359800375,497169954,497169957,1044379345,12565837681,1009166481,497169958,6331635756,1009167549,497169962,6331635762,1044379589,1044379213,7965603739,598266521,598266518,1044379730,1044379735,1796486751,7965587281,1796486753,6331635754,1796486765,1044378919,9049714571,8385091906,598266493,8385091908,8385091907,602989551,8385091909,8385091914,5298602495,8385091913,1795293284,1795293323,8385091911,8385091910,8385091912,1795293424,1795293286,1795293393,1796486808,1795293430,2391341448,2391341465,1795293437,1795293264,1795293299,1795293277,8385093431,1795293338,2391341613,1795293296,8379904343,11081763605,2391341643,8379904342,1795293405,2391341655,2391341667,1795293432,9890903488,1795293389,602989537,9890903489,8388301598,312425917,9584233890,3676912941,9584233886,10854297122,312425660,8390961546,9930862751,1807100710,2361168089,9930862749,6179473101,312425828,6179473096,11310743156,9031318855,9028209372,6179473247,9031318856,2141431944,6179473241,6179473238,9034180378,5353339454,11310645817,312425956,315096054,3201986227,11827172367,308306729,11827181890,2524491857,303214819,698492415,2524491860,2524491871,310256064,2892642950,11909190787,8686638951,8686638950,9852140997,3924761818,303215163,2296580941,3201986249,12153256567,8674788834,2089612819,360129540,3232582109,8978596850,3740735352,8978596851,8623738790,5096122271,303215031,2702743907,8661106030,303221553,3578038899,8620183423,8620183345,303221552,8620183347,8584400934,315134805,9886485075,2033335103,11072493727,2033335200,2033335257,11072493723,2033335311,2033335550,8619283530,8253508719,315031289,598789073,598789071,8253508706,315031292,315031293,315031294,8250070339,598789057,391727105,2033336773,702512026,315031513,315031514,315031515,315031516,315031517,8250061916,315031543,8004756950,1727306399,598789381,1727306395,2765190357,2765190359,9121680511,1727306396,8241198663,8238783261,8238783233,2765190377,8238783242,3269819960,12081159183,1727306400,12081159182,3674274541,1727306404,3674274542,12081159193,1727306401,2398944652,2398944653,11679558744,7767900404,4929965568,1727306403,1865095006,2398944637,10921117778,2398944625,9566992862,315111204,9593572452,323969382,9593572449,10921117799,676069596,8099810036,9593560545,323969927,2266470191,9598863723,315111364,9955760904,9175513399,310500788,9955760905,8015423502,2280517742,9944330592,2477244609,315112908,6839750781,8015423519,315112910,9944330590,9944330591,5560363749,8015423530,315112528,800044152,9944330589,9003535375,2684641186,9025561505,9025561504,9025561510,9025561511,9025561323,2477244643,8667184707,800044270,8667184708,9025561487,800044175,9025561288,800044096,4318761060,707336807,4318761061,8188905963,8188905955,707336806,707336803,707336801,707336787,800043964,707336785,9849379127,707336784,9920249713,707336797,10048384458,800044057,13510062033,707336798,10048384463,9025561180,9025561178,1638040943,13185347128,2420519840,2420519843,13185347108,8067883393,707336695,2420519852,843384122,707336699,12391372538,707336691,660004714,9022475857,560522307,7711660462,1638041068,3301399299,8543055888,12391372505,5574621531,12391328996,2420519863,8543061750,9024034047,12391328953,560522294,648571007,12538679971,12391372566,12391328962,560522301,2780334024,660004014,560522303,844969856,800044315,11821516120,800044289,560522315,11821516118,800044142,560522316,11081950882,843534485,12874271840,12874271876,800043991,12874271837,8046380062,560522320,800044169,8046390993,8046390986,12874271852,560522321,800044031,12874271857,560522325,800044160,12849430833,2812625180,800043973,2812625165,2812625154,11081939527,12849430781,12849430778,10052457205,9856963631,4012103522,800044345,8984475621,2800230319,2800230317,2800230316,800044093,7144349799,800044197,7144349796,9506951553,5562434949,7144349793,800044100,7144349795,800044278,5539017882,2869785618,560522655,660012891,660012892,6621278940,698597065,660012866,800044016,9506951519,3262573329,6639012129,660012893,8564652538,9336206540,6617483718,2900514448,9336206522,2900514441,9336206523,4012103519,9336206524,6617483717,660012845,9336206521,6326480502,9336206525,5869420103,9336206526,9336206534,9336206533,13433504131,6639012136,11081947316,8975254911,11081947326,12300697137,1583410623,11081947325,11081595198,2334089676,11081947322,11081947321,2900514489,12300697134,660012887,2900514510,8581421897,6621278908,8581421893,8581421908,8581421905,2196149276,8581421890,8581421889,2812624191,2812624199,2812625105,8984475646,1737902968,1583414243,1583410636,2334089732,1583410635,9213180214,5117479589,2334089717,9213180211,3679646768,2334089741,2334094089,9852042566,1583414286,1583414257,9852042517,792692877,792692756,792692632,3263808264,9852037213,1629156424,10837785684,2421399594,792692960,3679649459,3679649460,792692919,3679649463,792692793,9236592946,792692669,3679649462,3679649461,3684250621,3679649464,3679649467,792692712,3684250692,792692607,3684250701,792692946,3684250722,792692830,3679649478,3679649479,3679649480,1629156665,792692768,792692642,3684250734,3684250748,792692977,1629156702,3684250833,792692893,3679649489,3679649494,792692691,792693015,3679649495,3679649496,792692934,792692873,792692753,1583410843,792692591,792692965,3684250950,792692923,3684250958,3684250972,792692799,1583410863,3684250977,3684542878,3684250980,792693002,3684250979,792692955,3684250978,792692844,792692675,3684250935,792693054,792692991,792692916,8439419910],"coordinates":[[-66.03806990000001,-17.40275],[-66.0383901,-17.403379100000002],[-66.0386373,-17.403978000000002],[-66.0390364,-17.404828300000002],[-66.0392731,-17.405351600000003],[-66.0396027,-17.4060801],[-66.0402483,-17.4074399],[-66.04079630000001,-17.4085582],[-66.0408443,-17.408656200000003],[-66.04114100000001,-17.409275700000002],[-66.0411775,-17.409354800000003],[-66.04143160000001,-17.409905600000002],[-66.0414789,-17.4100076],[-66.04155,-17.4101804],[-66.0415553,-17.4102815],[-66.04153380000001,-17.4104889],[-66.0415687,-17.4109392],[-66.04158790000001,-17.411242400000003],[-66.0416144,-17.411749200000003],[-66.04168010000001,-17.4118746],[-66.0416419,-17.412144400000003],[-66.04158930000001,-17.4123476],[-66.04144640000001,-17.4129729],[-66.0413577,-17.413362000000003],[-66.04127100000001,-17.413625500000002],[-66.04117860000001,-17.413844500000003],[-66.041121,-17.413950200000002],[-66.0410779,-17.414083700000003],[-66.0410458,-17.414267900000002],[-66.04107540000001,-17.4145101],[-66.0411701,-17.414793600000003],[-66.04124920000001,-17.4149478],[-66.04131220000001,-17.4150707],[-66.041404,-17.415262700000003],[-66.0415299,-17.4157529],[-66.0425221,-17.415630500000002],[-66.04331490000001,-17.415526500000002],[-66.0434527,-17.4155084],[-66.04356100000001,-17.4154938],[-66.04431410000001,-17.4153896],[-66.0450838,-17.415231900000002],[-66.0460551,-17.4149785],[-66.0467856,-17.4148539],[-66.0473525,-17.4148198],[-66.04773700000001,-17.4148046],[-66.0487214,-17.4147624],[-66.0496409,-17.414701500000003],[-66.0511726,-17.4145667],[-66.052058,-17.4144805],[-66.05218810000001,-17.4144657],[-66.0523572,-17.4144332],[-66.0526475,-17.414377400000003],[-66.0528639,-17.414310800000003],[-66.0532819,-17.414148700000002],[-66.05393400000001,-17.4139021],[-66.0541142,-17.413849900000002],[-66.05446970000001,-17.4137971],[-66.0547581,-17.4137574],[-66.0554395,-17.4136685],[-66.056352,-17.4135104],[-66.056476,-17.413493300000003],[-66.05657590000001,-17.413479300000002],[-66.0573964,-17.4133706],[-66.0577997,-17.413374800000003],[-66.0590463,-17.413471100000002],[-66.0591952,-17.413465300000002],[-66.0595102,-17.4134512],[-66.06168530000001,-17.4133785],[-66.0618455,-17.4133736],[-66.06194740000001,-17.413376300000003],[-66.0647478,-17.4131596],[-66.06575310000001,-17.4130818],[-66.06632540000001,-17.4130395],[-66.0676844,-17.4129101],[-66.06916670000001,-17.412746700000003],[-66.0699819,-17.4126569],[-66.0703299,-17.4126167],[-66.0708733,-17.4125514],[-66.07107780000001,-17.4125239],[-66.0713448,-17.412481500000002],[-66.0716209,-17.412443600000003],[-66.07197000000001,-17.412398200000002],[-66.07238500000001,-17.4123316],[-66.07285470000001,-17.412258700000002],[-66.0740232,-17.4120899],[-66.07485790000001,-17.412008200000002],[-66.0750893,-17.4119847],[-66.0751656,-17.411978700000002],[-66.07562,-17.411928600000003],[-66.0758522,-17.411902700000002],[-66.0769746,-17.4118041],[-66.07887620000001,-17.411624200000002],[-66.07987150000001,-17.411519000000002],[-66.0809826,-17.411396800000002],[-66.08155620000001,-17.4113338],[-66.0820467,-17.4112799],[-66.0826208,-17.4112344],[-66.0831091,-17.4111958],[-66.0842193,-17.411108000000002],[-66.08492550000001,-17.4110522],[-66.08563960000001,-17.410987300000002],[-66.08626720000001,-17.4109303],[-66.0867597,-17.4108856],[-66.0873332,-17.410833500000003],[-66.0883847,-17.410738000000002],[-66.08889660000001,-17.4107372],[-66.089433,-17.410754200000003],[-66.0899364,-17.4107662],[-66.0901384,-17.410778200000003],[-66.0911258,-17.4108671],[-66.09164000000001,-17.4109392],[-66.09187750000001,-17.411006],[-66.0928329,-17.411417],[-66.0936013,-17.411740400000003],[-66.09397120000001,-17.411887500000002],[-66.09416590000001,-17.411937],[-66.09448640000001,-17.411972000000002],[-66.0953099,-17.4120306],[-66.0953958,-17.412040700000002],[-66.09555850000001,-17.4120482],[-66.0957193,-17.412049800000002],[-66.0963045,-17.4120831],[-66.0965767,-17.412106400000003],[-66.0968572,-17.4121534],[-66.0974803,-17.4122695],[-66.098084,-17.4123784],[-66.09845250000001,-17.4124573],[-66.09910230000001,-17.4125979],[-66.0992712,-17.412633300000003],[-66.09946070000001,-17.412679200000003],[-66.0997081,-17.4127332],[-66.1010275,-17.412860400000003],[-66.10152240000001,-17.4129268],[-66.1024189,-17.4129937],[-66.1028452,-17.4130256],[-66.1030252,-17.413039],[-66.10330680000001,-17.4130493],[-66.1040871,-17.4130988],[-66.10472680000001,-17.413135],[-66.1054015,-17.413170700000002],[-66.1054079,-17.4126888],[-66.1055584,-17.412064100000002],[-66.1055628,-17.411426300000002],[-66.10558160000001,-17.4106048],[-66.10558900000001,-17.4105214],[-66.1056983,-17.4101497],[-66.1058052,-17.4099217],[-66.10598630000001,-17.409553900000002],[-66.10626660000001,-17.4089883],[-66.10631550000001,-17.4088879],[-66.1071481,-17.409029200000003],[-66.10739210000001,-17.409095500000003],[-66.1078765,-17.409227100000003],[-66.10901100000001,-17.4095353],[-66.1097381,-17.4097329],[-66.1097708,-17.4088096],[-66.1106079,-17.408528],[-66.11089600000001,-17.408436700000003],[-66.11157770000001,-17.4082206],[-66.11258690000001,-17.407909200000002],[-66.11346370000001,-17.4076284],[-66.1140998,-17.4074214],[-66.1149122,-17.4070858],[-66.1146853,-17.406645],[-66.1144658,-17.4062187],[-66.11416580000001,-17.405635800000002],[-66.11351210000001,-17.404410600000002],[-66.1134452,-17.404463900000003],[-66.11304700000001,-17.4033859],[-66.1129586,-17.4031467],[-66.1129025,-17.402985],[-66.1126313,-17.4021347],[-66.11248780000001,-17.4016594],[-66.1115673,-17.401799800000003],[-66.1115714,-17.401720500000003],[-66.112381,-17.4000106],[-66.11264650000001,-17.399416900000002],[-66.1128204,-17.399054300000003],[-66.1128243,-17.398955],[-66.1128207,-17.398845100000003],[-66.1128013,-17.398573900000002],[-66.1127776,-17.3982765],[-66.1127208,-17.3976016],[-66.112645,-17.396963300000003],[-66.1126138,-17.3967005],[-66.1125708,-17.396339],[-66.11254650000001,-17.396154600000003],[-66.1124874,-17.395913500000002],[-66.11241890000001,-17.395633500000002],[-66.11217400000001,-17.3946337],[-66.11214650000001,-17.394521400000002],[-66.11210750000001,-17.394362100000002],[-66.11195070000001,-17.393722],[-66.11191170000001,-17.393553200000003],[-66.1115286,-17.3920616],[-66.1115053,-17.3919655],[-66.1110957,-17.3903363],[-66.11080150000001,-17.3890017],[-66.1107904,-17.3889095],[-66.1104384,-17.387646200000002],[-66.11027320000001,-17.3870149],[-66.1100949,-17.3863352],[-66.11005250000001,-17.3861789],[-66.1100117,-17.386030700000003],[-66.10983630000001,-17.3853335],[-66.10973530000001,-17.384932000000003],[-66.1095288,-17.3840183],[-66.1094846,-17.3840161],[-66.1094346,-17.3840018],[-66.10940330000001,-17.3839852],[-66.1093756,-17.3839636],[-66.1093524,-17.3839377],[-66.1093342,-17.3839083],[-66.10931930000001,-17.3838665],[-66.1093147,-17.383822600000002],[-66.1093257,-17.3837626],[-66.10935570000001,-17.3837088],[-66.10939110000001,-17.3836742],[-66.1094343,-17.383649100000003],[-66.1094999,-17.383632900000002],[-66.10956200000001,-17.383637],[-66.1096198,-17.3836589],[-66.1096675,-17.3836961],[-66.10970130000001,-17.3837404],[-66.1101186,-17.3836522],[-66.11055110000001,-17.383561500000003],[-66.1116279,-17.383341],[-66.1126895,-17.383117600000002],[-66.1137491,-17.382897800000002],[-66.11474120000001,-17.3826937],[-66.1160978,-17.3824143],[-66.1166355,-17.3823048],[-66.1167504,-17.382281600000002],[-66.1172233,-17.3821833],[-66.1178158,-17.3820392],[-66.11826740000001,-17.3819014],[-66.1185475,-17.381807000000002],[-66.1187728,-17.381719800000003],[-66.11928180000001,-17.381503600000002],[-66.11950370000001,-17.381410000000002],[-66.11999700000001,-17.381166800000003],[-66.12026010000001,-17.3810155],[-66.1208017,-17.380671500000002],[-66.1208417,-17.3806461],[-66.12168240000001,-17.3800861],[-66.12176980000001,-17.3800293],[-66.1218317,-17.379987800000002],[-66.1221658,-17.3797745],[-66.12243050000001,-17.3795986],[-66.1224694,-17.3795763],[-66.122742,-17.379389900000003],[-66.12360930000001,-17.378817400000003],[-66.12421330000001,-17.3784409],[-66.12471000000001,-17.3781074],[-66.12535460000001,-17.377652400000002],[-66.1257746,-17.377356000000002],[-66.12695810000001,-17.3765211],[-66.12702440000001,-17.376476],[-66.1271995,-17.3763545],[-66.1275504,-17.376112600000003],[-66.1279614,-17.3758297],[-66.1281352,-17.37571],[-66.1282882,-17.3756033],[-66.12881490000001,-17.3752302],[-66.1288741,-17.375188],[-66.12893100000001,-17.3751503],[-66.1289543,-17.3751348],[-66.12898750000001,-17.3751147],[-66.1291381,-17.375016300000002],[-66.12925580000001,-17.374947000000002],[-66.1292707,-17.3749377],[-66.129327,-17.374909300000002],[-66.1294482,-17.374850400000003],[-66.1296174,-17.3747803],[-66.1298412,-17.374701400000003],[-66.1300549,-17.3746383],[-66.13028010000001,-17.37459],[-66.1305217,-17.3745502],[-66.1307689,-17.3745291],[-66.1313669,-17.374523200000002],[-66.1313916,-17.374523],[-66.1319101,-17.374528700000003],[-66.13214070000001,-17.374527500000003],[-66.13236900000001,-17.374525700000003],[-66.1331657,-17.3745288],[-66.13322760000001,-17.374529000000003],[-66.1336639,-17.3745303],[-66.1345247,-17.374534],[-66.13467490000001,-17.374544800000002],[-66.13486950000001,-17.3745687],[-66.13497140000001,-17.3745873],[-66.13505740000001,-17.3746031],[-66.13523880000001,-17.3746459],[-66.13542910000001,-17.374700200000003],[-66.1355865,-17.3747547],[-66.13576570000001,-17.374828700000002],[-66.1359602,-17.3749201],[-66.13617570000001,-17.375044600000003],[-66.1366294,-17.3753417],[-66.1371488,-17.375692500000003],[-66.1371768,-17.3757114],[-66.13756330000001,-17.375942600000002],[-66.13790200000001,-17.376123800000002],[-66.13825580000001,-17.376282],[-66.138489,-17.376383800000003],[-66.13874120000001,-17.3764855],[-66.13894970000001,-17.3765576],[-66.1392113,-17.3766371],[-66.1396414,-17.3767716],[-66.14039430000001,-17.376946800000002],[-66.14084190000001,-17.3770223],[-66.1410415,-17.3770506],[-66.1411913,-17.3770792],[-66.1414646,-17.3771422],[-66.14200690000001,-17.377268500000003],[-66.1422247,-17.3773187],[-66.14228290000001,-17.377351200000003],[-66.1423113,-17.377371],[-66.14233730000001,-17.377395200000002],[-66.1423637,-17.377423800000003],[-66.1423853,-17.377457900000003],[-66.14240600000001,-17.377499200000003],[-66.1424178,-17.3775385],[-66.1424231,-17.377578500000002],[-66.1424229,-17.377606500000002],[-66.142421,-17.3776344],[-66.1424051,-17.3777627],[-66.1423809,-17.3780515],[-66.14237770000001,-17.3782277],[-66.142358,-17.3784481],[-66.1423561,-17.378600300000002],[-66.1423592,-17.3786717],[-66.14237720000001,-17.3787495],[-66.1423857,-17.3787904],[-66.14241170000001,-17.378833],[-66.1424539,-17.3788802],[-66.14252710000001,-17.3789172],[-66.1427305,-17.378983400000003],[-66.1429971,-17.3790674],[-66.1430493,-17.3790829],[-66.14306780000001,-17.379109000000003],[-66.1430837,-17.3791368],[-66.1430966,-17.379165800000003],[-66.14310160000001,-17.3791891],[-66.1431024,-17.379212900000002],[-66.14309940000001,-17.379236600000002],[-66.14306760000001,-17.379372800000002],[-66.14306880000001,-17.3794137],[-66.14307760000001,-17.379442],[-66.14309370000001,-17.379472],[-66.14320280000001,-17.3796329],[-66.14410310000001,-17.3809425],[-66.14414070000001,-17.380997200000003],[-66.1442263,-17.3811247],[-66.1443213,-17.3812621],[-66.14433430000001,-17.3812809],[-66.1443962,-17.3813704],[-66.1450554,-17.382323900000003],[-66.1451665,-17.3824805],[-66.14526500000001,-17.382625200000003],[-66.14626410000001,-17.3840939],[-66.1462906,-17.384132800000003],[-66.1463324,-17.384194200000003],[-66.1463585,-17.3842326],[-66.147463,-17.385856],[-66.1475139,-17.3859308],[-66.1475669,-17.3860074],[-66.147678,-17.386168100000003],[-66.14771590000001,-17.386222800000002],[-66.148064,-17.3867233],[-66.14836460000001,-17.3871554],[-66.1484094,-17.3872198],[-66.14850120000001,-17.3873491],[-66.14851920000001,-17.3873745],[-66.14864270000001,-17.387550800000003],[-66.14884190000001,-17.387832500000002],[-66.14901,-17.388070000000003],[-66.14916980000001,-17.388299500000002],[-66.14933660000001,-17.3885389],[-66.1493179,-17.388644900000003],[-66.149276,-17.3888535],[-66.1491994,-17.389254400000002],[-66.1491441,-17.389543900000003],[-66.1490107,-17.390230600000002],[-66.148919,-17.390703000000002],[-66.14890910000001,-17.3907458],[-66.14889430000001,-17.390824400000003],[-66.14888640000001,-17.3908667],[-66.1487038,-17.3917663],[-66.14869060000001,-17.3918339],[-66.148651,-17.391928200000002],[-66.14864180000001,-17.3919718],[-66.14858770000001,-17.3922279],[-66.1485432,-17.392443],[-66.1485231,-17.392540200000003],[-66.1484738,-17.392778800000002],[-66.1484626,-17.392832900000002],[-66.14793900000001,-17.3927435],[-66.14743340000001,-17.3926589],[-66.1473167,-17.3926404],[-66.1468937,-17.3925734],[-66.14683430000001,-17.3925626],[-66.14664900000001,-17.3925276],[-66.1458099,-17.3923619],[-66.1453273,-17.392282],[-66.1451071,-17.392245600000003],[-66.1448295,-17.3921996],[-66.1445767,-17.392158100000003],[-66.14440970000001,-17.392130700000003],[-66.14437070000001,-17.392124300000003],[-66.1442415,-17.392103000000002],[-66.1441346,-17.3920855],[-66.143713,-17.3920162],[-66.1436259,-17.3920019],[-66.1430857,-17.3919132],[-66.142807,-17.3918675],[-66.14274520000001,-17.3918573],[-66.1427214,-17.3919144],[-66.14234640000001,-17.3927549],[-66.1423273,-17.3927935],[-66.1419298,-17.393674700000002],[-66.14187790000001,-17.3937896],[-66.14189300000001,-17.393798800000003],[-66.14190550000001,-17.393811000000003],[-66.141917,-17.393830100000002],[-66.1419226,-17.3938534],[-66.14192050000001,-17.3938773],[-66.1419595,-17.3939217],[-66.1425597,-17.3946913],[-66.14292370000001,-17.3951433],[-66.1431094,-17.3953528],[-66.1432772,-17.3955556],[-66.1434016,-17.395681900000003],[-66.14379020000001,-17.3960495],[-66.1440656,-17.3962608],[-66.14431180000001,-17.396443400000003],[-66.14457460000001,-17.3966099],[-66.14482170000001,-17.396751400000003],[-66.1451356,-17.3969281],[-66.14539470000001,-17.397057200000003],[-66.14574250000001,-17.397234800000003],[-66.14678470000001,-17.3977645],[-66.14745690000001,-17.3981037],[-66.14767230000001,-17.3982059],[-66.1478288,-17.398264],[-66.1480011,-17.398308500000002],[-66.14815660000001,-17.398336200000003],[-66.14831550000001,-17.3983579],[-66.148511,-17.398367800000003],[-66.14855800000001,-17.398372600000002],[-66.14994870000001,-17.3984764],[-66.15058850000001,-17.398518000000003],[-66.1510902,-17.398456600000003],[-66.1519487,-17.3984139],[-66.15201040000001,-17.3984159],[-66.1520931,-17.3984305],[-66.15221910000001,-17.398466000000003],[-66.15236440000001,-17.398521000000002],[-66.1526616,-17.3986303],[-66.1527528,-17.398660500000002],[-66.15277370000001,-17.3986674],[-66.15310670000001,-17.3987465],[-66.15319450000001,-17.3987646],[-66.15417000000001,-17.39898],[-66.1542283,-17.398992900000003],[-66.15429560000001,-17.3990088],[-66.1552473,-17.3992338],[-66.15530360000001,-17.3992471],[-66.15534770000001,-17.399256700000002],[-66.156378,-17.399481],[-66.1564374,-17.399488700000003],[-66.1564991,-17.3994953],[-66.15675590000001,-17.399494800000003],[-66.15696360000001,-17.399463],[-66.1571541,-17.399440100000003],[-66.1575712,-17.3993743],[-66.1576356,-17.399365500000002],[-66.1577347,-17.399351900000003],[-66.1578434,-17.3993362],[-66.15843930000001,-17.399245200000003],[-66.1584983,-17.3992362],[-66.15861500000001,-17.399227200000002],[-66.1587124,-17.399228800000003],[-66.158764,-17.399232100000003],[-66.1591739,-17.399257700000003],[-66.1592816,-17.3992705],[-66.1593653,-17.399274400000003],[-66.15999670000001,-17.399303200000002],[-66.16006630000001,-17.399313600000003],[-66.1601608,-17.399337300000003],[-66.1603302,-17.3993931],[-66.16043300000001,-17.399426700000003],[-66.16099530000001,-17.3995906],[-66.16109110000001,-17.399618500000003],[-66.16109730000001,-17.399575900000002],[-66.1612631,-17.398436800000002],[-66.1612698,-17.3983892],[-66.1613313,-17.398401],[-66.1624747,-17.39862],[-66.1637645,-17.398865500000003],[-66.16379690000001,-17.3988662],[-66.16382610000001,-17.398849000000002],[-66.16389980000001,-17.3987912],[-66.1639911,-17.3987325],[-66.164129,-17.398670600000003],[-66.1641697,-17.398657],[-66.1642092,-17.398658700000002],[-66.164243,-17.398671500000003],[-66.16427370000001,-17.3986993],[-66.1643942,-17.3988577],[-66.1644471,-17.3989273],[-66.16450880000001,-17.399008400000003],[-66.164578,-17.399099500000002],[-66.16462410000001,-17.399160000000002],[-66.1646934,-17.3992511],[-66.164738,-17.399295000000002],[-66.1647915,-17.3993255],[-66.1648722,-17.3993398],[-66.16504060000001,-17.399366500000003],[-66.1654311,-17.3994275],[-66.1657648,-17.399486600000003],[-66.1662891,-17.399568600000002],[-66.16648350000001,-17.3995973],[-66.16648880000001,-17.399720400000003],[-66.1664925,-17.399802400000002],[-66.1665164,-17.4003349],[-66.16651970000001,-17.400389200000003],[-66.16658910000001,-17.401549300000003],[-66.1666344,-17.4024012],[-66.166638,-17.4024575],[-66.1666405,-17.4025196],[-66.166655,-17.402763],[-66.1666739,-17.4030825],[-66.1666831,-17.403236500000002],[-66.1667154,-17.4038158],[-66.16674640000001,-17.4044588],[-66.1668066,-17.4051158],[-66.1669535,-17.4058634],[-66.1669834,-17.406006400000003],[-66.1670114,-17.406105500000002],[-66.16732900000001,-17.4069554],[-66.16735870000001,-17.4070316],[-66.1676776,-17.4076577],[-66.16901940000001,-17.407033100000003],[-66.1690844,-17.407002900000002],[-66.1699665,-17.406596],[-66.17000150000001,-17.4065799],[-66.170079,-17.4065467],[-66.17008790000001,-17.406678900000003],[-66.170106,-17.406710800000003],[-66.1701548,-17.4067967],[-66.1708102,-17.4077823],[-66.1708443,-17.407834100000002],[-66.17090010000001,-17.407907700000003],[-66.1709565,-17.407988300000003],[-66.17102360000001,-17.4080842],[-66.17138480000001,-17.408617800000002],[-66.1715794,-17.4088959],[-66.17160510000001,-17.4089327],[-66.1717759,-17.4091768],[-66.17189710000001,-17.409354],[-66.1722474,-17.409866100000002],[-66.1722457,-17.4100399],[-66.17273970000001,-17.410046100000002],[-66.1729464,-17.410044600000003],[-66.1730618,-17.4100213],[-66.17318,-17.4099787],[-66.1732927,-17.409920800000002],[-66.173438,-17.4098225],[-66.17364420000001,-17.4097197],[-66.1738198,-17.4096322],[-66.1738684,-17.4096073],[-66.1739273,-17.409575200000003],[-66.17403820000001,-17.4095081],[-66.1740778,-17.409480900000002],[-66.1741171,-17.4094476],[-66.17413280000001,-17.409434400000002],[-66.1744597,-17.4090773],[-66.1744685,-17.4090662],[-66.1744815,-17.409049800000002],[-66.17450550000001,-17.409019400000002],[-66.1745262,-17.4089931],[-66.17460390000001,-17.408894800000002],[-66.17465290000001,-17.4088329],[-66.17497940000001,-17.408401],[-66.1755849,-17.4076111],[-66.1760306,-17.407040300000002],[-66.17639890000001,-17.4067298],[-66.17647170000001,-17.4066657],[-66.17656090000001,-17.4065911],[-66.1766285,-17.406538400000002],[-66.17699110000001,-17.4062556],[-66.1772711,-17.406075],[-66.177559,-17.4059102],[-66.1780533,-17.405653100000002],[-66.1791604,-17.4050747],[-66.17918920000001,-17.405059700000002],[-66.179218,-17.4050446],[-66.1792865,-17.405007700000002],[-66.1794318,-17.4049295],[-66.179682,-17.4047796],[-66.17995160000001,-17.4045728],[-66.1801623,-17.4043959],[-66.1802712,-17.404300000000003],[-66.1803392,-17.4042354],[-66.1803924,-17.404184100000002],[-66.18051870000001,-17.404057700000003],[-66.1805741,-17.404002300000002],[-66.1807237,-17.4038401],[-66.1813573,-17.4030062],[-66.18236510000001,-17.4017154],[-66.1824608,-17.4015929],[-66.1826034,-17.401412200000003],[-66.1827209,-17.401278400000002],[-66.18277470000001,-17.401220400000003],[-66.18276990000001,-17.4012068],[-66.18276540000001,-17.4011876],[-66.18276390000001,-17.4011536],[-66.18277020000001,-17.4011201],[-66.18278400000001,-17.4010888],[-66.1828047,-17.401061000000002],[-66.18278430000001,-17.400948000000003],[-66.18277450000001,-17.400894700000002],[-66.1827628,-17.400844300000003],[-66.18275630000001,-17.400815100000003],[-66.18274430000001,-17.4007615],[-66.18263040000001,-17.400343600000003],[-66.1824426,-17.3996393],[-66.1824175,-17.3995433],[-66.18237970000001,-17.3994114],[-66.1820701,-17.3983238],[-66.18205060000001,-17.3982528],[-66.1819153,-17.397747300000002],[-66.1818973,-17.39768],[-66.1818788,-17.397615100000003],[-66.18169750000001,-17.396980000000003],[-66.1816321,-17.3967177],[-66.18153810000001,-17.396399300000002],[-66.18151630000001,-17.396325500000003],[-66.1814887,-17.3962532],[-66.18164010000001,-17.3962469],[-66.18185340000001,-17.396239700000002],[-66.1825446,-17.3962259],[-66.18321390000001,-17.396211100000002],[-66.1839346,-17.3961958],[-66.1844878,-17.396189300000003],[-66.1847642,-17.396186],[-66.18481720000001,-17.3961794],[-66.1848662,-17.3961654],[-66.18489670000001,-17.3961566],[-66.18501710000001,-17.3961234],[-66.18504490000001,-17.3960894],[-66.1850716,-17.396068800000002],[-66.185102,-17.396053600000002],[-66.18513490000001,-17.3960443],[-66.18516910000001,-17.396041200000003],[-66.1852032,-17.3960446],[-66.185236,-17.396054300000003],[-66.1852662,-17.3960699],[-66.185291,-17.396089200000002],[-66.18531200000001,-17.396113000000003],[-66.18532800000001,-17.396140000000003],[-66.18533860000001,-17.3961694],[-66.1853432,-17.396200200000003],[-66.18534220000001,-17.396229],[-66.18533590000001,-17.3962572],[-66.18532470000001,-17.3962839],[-66.18535530000001,-17.3963213],[-66.18537180000001,-17.396356],[-66.18555880000001,-17.3969272],[-66.1856707,-17.397269100000003],[-66.1857882,-17.397620500000002],[-66.18583860000001,-17.3977711],[-66.18585510000001,-17.3978204],[-66.18593150000001,-17.3980479],[-66.1860187,-17.3983071],[-66.1860506,-17.398402100000002],[-66.1860674,-17.3984522],[-66.18619100000001,-17.3988191],[-66.1862885,-17.3991098],[-66.18630990000001,-17.399140300000003],[-66.18632790000001,-17.399186800000003],[-66.18632910000001,-17.399237000000003],[-66.1863727,-17.3993587],[-66.1864101,-17.399469800000002],[-66.18643610000001,-17.3995518],[-66.18652560000001,-17.399833700000002],[-66.1866001,-17.400068400000002],[-66.1866232,-17.4001413],[-66.186648,-17.4002152],[-66.1866696,-17.4002911],[-66.1867323,-17.4004933],[-66.1867426,-17.400547600000003],[-66.1867684,-17.400704100000002],[-66.1868062,-17.4009369],[-66.1868151,-17.4009974],[-66.1869666,-17.402157300000002],[-66.1880922,-17.402167300000002],[-66.1887435,-17.402171300000003],[-66.18957080000001,-17.4021784],[-66.1896189,-17.4024435],[-66.1897314,-17.4032856],[-66.1897539,-17.403434200000003],[-66.1897642,-17.4035538],[-66.1897654,-17.403567000000002],[-66.18982740000001,-17.4040271],[-66.1899082,-17.4045929],[-66.18999860000001,-17.4052244],[-66.1900875,-17.4059047],[-66.1902196,-17.406934600000003],[-66.1903968,-17.406954600000002],[-66.1905816,-17.4069906],[-66.1907316,-17.407037600000002],[-66.19086750000001,-17.407100800000002],[-66.1909663,-17.40717],[-66.1911079,-17.407304800000002],[-66.1930729,-17.4095884],[-66.1930433,-17.4096127],[-66.1929611,-17.409680400000003],[-66.1899703,-17.4122415],[-66.19002760000001,-17.4122886],[-66.1901078,-17.4123172],[-66.1906431,-17.41243],[-66.1907788,-17.4124643],[-66.1909845,-17.4125148],[-66.19112390000001,-17.412528000000002],[-66.19166560000001,-17.4124537],[-66.1919154,-17.412438],[-66.1921604,-17.412451500000003],[-66.1922871,-17.412472],[-66.1923806,-17.4124988],[-66.19307040000001,-17.412799200000002],[-66.19346850000001,-17.4129864],[-66.1936003,-17.413065600000003],[-66.1936934,-17.413089600000003],[-66.19389190000001,-17.4131751],[-66.19438000000001,-17.413363],[-66.194575,-17.413452200000002],[-66.1947382,-17.413524600000002],[-66.1948564,-17.4135679],[-66.1949507,-17.4135762],[-66.19506670000001,-17.4135771],[-66.19557010000001,-17.4135528],[-66.1957129,-17.413554400000002],[-66.19583560000001,-17.4135728],[-66.1959528,-17.413600900000002],[-66.19639000000001,-17.413768700000002],[-66.19685480000001,-17.4139653],[-66.19801120000001,-17.414450600000002],[-66.1990208,-17.4148181],[-66.1992479,-17.414923100000003],[-66.19931530000001,-17.4149622],[-66.1995347,-17.415276700000003],[-66.19958860000001,-17.4153303],[-66.19964370000001,-17.4153564],[-66.20003650000001,-17.415377300000003],[-66.2003229,-17.4153878],[-66.2004883,-17.4154115],[-66.20071060000001,-17.415454200000003],[-66.2013558,-17.4156501],[-66.201662,-17.4157458],[-66.2036302,-17.4164084],[-66.2037464,-17.4164557],[-66.20383340000001,-17.416500000000003],[-66.20411250000001,-17.416672700000003],[-66.2045125,-17.4169321],[-66.20529850000001,-17.417441800000002],[-66.20538540000001,-17.4174903],[-66.2054883,-17.4175274],[-66.2068856,-17.4177088],[-66.20800940000001,-17.417854700000003],[-66.20821860000001,-17.4178818],[-66.20833180000001,-17.4178868],[-66.20843040000001,-17.4178773],[-66.2085299,-17.4178499],[-66.2086271,-17.417805700000002],[-66.20869210000001,-17.417761900000002],[-66.2088104,-17.4176399],[-66.21003080000001,-17.416277400000002],[-66.21012560000001,-17.416189000000003],[-66.21022160000001,-17.416122400000003],[-66.21032310000001,-17.4160703],[-66.2109578,-17.4157991]]}}},{"type":"Feature","properties":{"bus":"yes","departures_board":"no","highway":"bus_stop","name":"Parada 212","public_transport":"platform","shelter":"no","id":11168934466},"geometry":{"type":"Point","coordinates":[-66.0380585,-17.4028697]}},{"type":"Feature","properties":{"bus":"yes","departures_board":"no","highway":"bus_stop","name":"Uyuni","public_transport":"platform","shelter":"no","id":4447024420},"geometry":{"type":"Point","coordinates":[-66.13656920000001,-17.3726281]}},{"type":"Feature","properties":{"bench":"no","bin":"no","bus":"yes","departures_board":"no","highway":"bus_stop","kerb":"raised","level":"0","lit":"no","name":"Escuela de Sargentos","operator":"Gobierno Autónomo Municipal de Cochabamba","pole":"yes","public_transport":"platform","shelter":"no","tactile_paving":"no","wheelchair":"no","id":8388301542},"geometry":{"type":"Point","coordinates":[-66.14333350000001,-17.3797563]}},{"type":"Feature","properties":{"bench":"no","bin":"no","bus":"yes","departures_board":"no","highway":"bus_stop","kerb":"raised","level":"0","lit":"no","name":"Papa Paulo","public_transport":"platform","shelter":"no","tactile_paving":"no","wheelchair":"no","id":6299491685},"geometry":{"type":"Point","coordinates":[-66.1462664,-17.3840179]}},{"type":"Feature","properties":{"bench":"yes","bin":"no","bus":"yes","departures_board":"no","highway":"bus_stop","kerb":"raised","level":"0","lit":"no","name":"Hospital Materno Infantil Germán Urquidi","operator":"Gobierno Autónomo Municipal de Cochabamba","public_transport":"platform","shelter":"yes","tactile_paving":"no","wheelchair":"no","id":2892512813},"geometry":{"type":"Point","coordinates":[-66.1484657,-17.387225100000002]}},{"type":"Feature","properties":{"bench":"yes","bin":"no","bus":"yes","departures_board":"no","highway":"bus_stop","kerb":"raised","lit":"no","name":"SEDES","operator":"Gobierno Autónomo Municipal de Cochabamba","public_transport":"platform","shelter":"yes","tactile_paving":"no","id":3264544592},"geometry":{"type":"Point","coordinates":[-66.1492259,-17.388328400000002]}},{"type":"Feature","properties":{"bench":"no","bin":"no","bus":"yes","departures_board":"no","highway":"bus_stop","kerb":"raised","level":"0","lit":"no","name":"Plaza Sucre","operator":"Gobierno Autónomo Municipal de Cochabamba","pole":"yes","public_transport":"platform","shelter":"no","tactile_paving":"no","wheelchair":"no","id":3924761820},"geometry":{"type":"Point","coordinates":[-66.1485425,-17.392770300000002]}},{"type":"Feature","properties":{"bench":"no","bin":"no","bus":"yes","departures_board":"no","highway":"bus_stop","level":"0","lit":"no","name":"Plaza Sucre","operator":"Gobierno Autónomo Municipal de Cochabamba","public_transport":"platform","shelter":"no","tactile_paving":"no","wheelchair":"yes","id":3255507872},"geometry":{"type":"Point","coordinates":[-66.1479977,-17.392825700000003]}},{"type":"Feature","properties":{"bench":"yes","bin":"no","bus":"yes","departures_board":"no","highway":"bus_stop","kerb":"raised","level":"0","lit":"no","name":"Coliseo UMSS","public_transport":"platform","shelter":"yes","tactile_paving":"no","wheelchair":"no","id":8581169584},"geometry":{"type":"Point","coordinates":[-66.1433069,-17.3955142]}},{"type":"Feature","properties":{"bench":"no","bin":"no","bus":"yes","departures_board":"no","highway":"bus_stop","informal":"yes","kerb":"raised","level":"0","lit":"no","name":"Plaza Reforma Agraria","public_transport":"platform","shelter":"no","tactile_paving":"no","wheelchair":"no","id":8015423520},"geometry":{"type":"Point","coordinates":[-66.16441970000001,-17.3988018]}},{"type":"Feature","properties":{"bus":"yes","departures_board":"no","highway":"bus_stop","name":"Parada 212","public_transport":"platform","shelter":"no","id":1583410878},"geometry":{"type":"Point","coordinates":[-66.2108706,-17.415751800000002]}},{"type":"Feature","properties":{"bench":"yes","bus":"yes","departures_board":"no","highway":"bus_stop","name":"Irlandés","public_transport":"platform","shelter":"yes","id":9049714548},"geometry":{"type":"Point","coordinates":[-66.1375835,-17.375869]}}]}