{"type":"FeatureCollection","features":[{"type":"Feature","properties":{"check_date":"29/12/2025","from":"Avenida Blanco Galindo","name":"MiniBus 270: Avenida Blanco Galindo → Calle Jose Martinez","on_demand":"yes","operator":"Sindicato mixto de autotransporte 6 de agosto Sipe Sipe","public_transport:version":"2","ref":"270","route":"bus","to":"Calle Jose Martinez","type":"route","wheelchair":"no","id":16306422},"geometry":{"type":"LineString","coordinates":[[-66.2804969,-17.3942675],[-66.2798815,-17.3942066],[-66.2795033,-17.3941692],[-66.2787977,-17.3940994],[-66.278296,-17.3940485],[-66.2782169,-17.394039],[-66.2781689,-17.3940332],[-66.2781445,-17.3940395],[-66.2781179,-17.3940445],[-66.2780684,-17.3940444],[-66.2780201,-17.3940285],[-66.2778794,-17.3940153],[-66.2773809,-17.3939651],[-66.2769843,-17.393924],[-66.2768911,-17.3939144],[-66.2761362,-17.3938363],[-66.2749633,-17.3937285],[-66.2745387,-17.3936929],[-66.2744202,-17.3936842],[-66.2732528,-17.3935653],[-66.2729886,-17.393549],[-66.2728906,-17.3935115],[-66.2728521,-17.3935331],[-66.2728074,-17.3935435],[-66.2727806,-17.393545],[-66.2727581,-17.3935427],[-66.2727267,-17.393536],[-66.2726973,-17.3935241],[-66.2726613,-17.3934995],[-66.2724969,-17.3934548],[-66.2723523,-17.3934131],[-66.2722242,-17.3933865],[-66.272136,-17.393375],[-66.2711834,-17.3932616],[-66.2701132,-17.3931644],[-66.2699556,-17.3931509],[-66.2682713,-17.392991],[-66.2681621,-17.3929793],[-66.2680858,-17.3929704],[-66.2680632,-17.3929681],[-66.2679799,-17.3929599],[-66.2663099,-17.3927856],[-66.2649819,-17.3926561],[-66.2620232,-17.3923631],[-66.2610333,-17.3922706],[-66.260403,-17.3922097],[-66.2600955,-17.3921801],[-66.2597451,-17.3921462],[-66.2596815,-17.3921401],[-66.2596413,-17.3921346],[-66.2594826,-17.3921205],[-66.2589272,-17.3920656],[-66.2579447,-17.3919684],[-66.2577273,-17.3919498],[-66.2575312,-17.3919305],[-66.2560565,-17.3917855],[-66.2548029,-17.3916521],[-66.253198,-17.3914884],[-66.2530064,-17.3914702],[-66.2528628,-17.3914565],[-66.2517349,-17.3913518],[-66.2513053,-17.3913072],[-66.2507894,-17.3912641],[-66.2506459,-17.3912553],[-66.2504496,-17.3912411],[-66.2499498,-17.3912077],[-66.2490246,-17.391148],[-66.2489296,-17.3911412],[-66.2483832,-17.3911037],[-66.2478983,-17.3910798],[-66.2474718,-17.3910588],[-66.2466946,-17.3910205],[-66.2463515,-17.3910036],[-66.2462864,-17.3910004],[-66.246144,-17.3909943],[-66.2460957,-17.3909928],[-66.2459542,-17.3909884],[-66.2450017,-17.3909622],[-66.2449045,-17.3909712],[-66.2447457,-17.3910024],[-66.244702,-17.3910092],[-66.2446107,-17.3910304],[-66.2444712,-17.3910496],[-66.2443896,-17.3910486],[-66.2440073,-17.3910438],[-66.2439758,-17.3910432],[-66.2439215,-17.3910349],[-66.2437327,-17.3909986],[-66.2436764,-17.3909884],[-66.2435522,-17.3909664],[-66.2434639,-17.3909569],[-66.2433575,-17.3909534],[-66.2427821,-17.3909552],[-66.2421143,-17.3909528],[-66.2411382,-17.3909664],[-66.2409403,-17.3909694],[-66.2398934,-17.3909921],[-66.2393461,-17.3910207],[-66.2391427,-17.3910384],[-66.2389626,-17.3910615],[-66.2388277,-17.3910735],[-66.238785,-17.3910956],[-66.2387555,-17.3910995],[-66.2387249,-17.3910999],[-66.2386949,-17.3910946],[-66.2385208,-17.3910721],[-66.2383448,-17.3910467],[-66.2381859,-17.3910491],[-66.2378308,-17.3910656],[-66.2363623,-17.3911256],[-66.2363592,-17.3911257],[-66.2338646,-17.3912258],[-66.2324387,-17.3912917],[-66.2320293,-17.391311],[-66.2319827,-17.3913101],[-66.2313028,-17.3913334],[-66.2309385,-17.3913516],[-66.2305021,-17.3913727],[-66.2300327,-17.3913971],[-66.2300174,-17.3913979],[-66.2298855,-17.3914048],[-66.2297415,-17.3914102],[-66.2291665,-17.3914316],[-66.228361,-17.3914642],[-66.2274295,-17.3915073],[-66.2266236,-17.3915445],[-66.226496,-17.3915467],[-66.2249193,-17.3916169],[-66.22209,-17.39174],[-66.2218668,-17.3917507],[-66.2215956,-17.3917638],[-66.2213351,-17.3917763],[-66.2194094,-17.3918519],[-66.2193472,-17.3918506],[-66.218927,-17.3918711],[-66.2182553,-17.3918972],[-66.2154179,-17.392026],[-66.2135165,-17.3921133],[-66.2125924,-17.3921466],[-66.2125225,-17.3921489],[-66.2113164,-17.3922033],[-66.2103878,-17.3922456],[-66.2103017,-17.3922496],[-66.208973,-17.3923041],[-66.2082952,-17.3923381],[-66.2082831,-17.3923387],[-66.2081903,-17.3923434],[-66.2080961,-17.3923466],[-66.2080101,-17.3923501],[-66.2077704,-17.3923599],[-66.2056284,-17.3924477],[-66.2047083,-17.3924891],[-66.2043092,-17.3925078],[-66.2036195,-17.3925345],[-66.2031084,-17.3925542],[-66.2031114,-17.3926625],[-66.2031133,-17.3926969],[-66.2031972,-17.3945599],[-66.2032262,-17.3952025],[-66.2032478,-17.3956826],[-66.2024531,-17.3956747],[-66.2015965,-17.3956664],[-66.2015286,-17.3956665],[-66.2009177,-17.395667],[-66.2005305,-17.3956662],[-66.1998907,-17.3956693],[-66.1998424,-17.3956695],[-66.1997587,-17.3956729],[-66.1997543,-17.3955729],[-66.1997154,-17.3946931],[-66.1996749,-17.3940234],[-66.1996702,-17.3939316],[-66.1996188,-17.392929],[-66.199617,-17.3928937],[-66.1996152,-17.3928584],[-66.1996136,-17.3928279],[-66.1996077,-17.3927141],[-66.1996008,-17.3925833],[-66.1995955,-17.3924807],[-66.1995933,-17.392438],[-66.1995888,-17.3923526],[-66.1995543,-17.3916918],[-66.1995236,-17.3912699],[-66.1994512,-17.3902715],[-66.1994429,-17.3901531],[-66.1993814,-17.3894029],[-66.1993385,-17.388905],[-66.1992688,-17.3880847],[-66.1992128,-17.3874389],[-66.1991593,-17.3867837],[-66.199116,-17.3861513],[-66.1990714,-17.3861189],[-66.1990273,-17.3860929],[-66.1989832,-17.3860836],[-66.1989446,-17.3860851],[-66.1988798,-17.386093],[-66.1980579,-17.3865033],[-66.1979284,-17.3865705],[-66.1976982,-17.3866731],[-66.1973102,-17.386849],[-66.1970625,-17.3869559],[-66.196898,-17.3870065],[-66.1966102,-17.3870875],[-66.196543,-17.3871023],[-66.1964558,-17.3871091],[-66.1963971,-17.3871078],[-66.1963086,-17.3870862],[-66.195837,-17.3869571],[-66.1956529,-17.3869067],[-66.195564,-17.3868823],[-66.1954212,-17.3868698],[-66.1954046,-17.3868684],[-66.1950256,-17.3868764],[-66.1949018,-17.3868763],[-66.1939251,-17.3868975],[-66.193812,-17.3868999],[-66.1935602,-17.3869023],[-66.1933891,-17.3868798],[-66.1931897,-17.3868398],[-66.1928895,-17.3867542],[-66.1923963,-17.3866303],[-66.1923407,-17.3866163],[-66.19158,-17.3864254],[-66.1915174,-17.3864097],[-66.1906464,-17.3861682],[-66.1903103,-17.386075],[-66.1899984,-17.3859936],[-66.1898932,-17.3859713],[-66.1892689,-17.3859293],[-66.1891055,-17.3859183],[-66.1890594,-17.3859154],[-66.1887202,-17.3858983],[-66.1885797,-17.385893],[-66.1884209,-17.385911],[-66.1883411,-17.3859301],[-66.1882792,-17.3859555],[-66.1882081,-17.3859973],[-66.1881529,-17.3860426],[-66.1881282,-17.3860563],[-66.1880632,-17.3861026],[-66.1879632,-17.3861578],[-66.1878663,-17.3861858],[-66.1877602,-17.3861909],[-66.1876679,-17.3861846],[-66.1874997,-17.3861635],[-66.1873422,-17.3861446],[-66.1872982,-17.3861377],[-66.1872707,-17.3861342],[-66.1868642,-17.3860842],[-66.1867245,-17.3860759],[-66.1865707,-17.386078],[-66.1864336,-17.3860851],[-66.1858967,-17.3861217],[-66.1857383,-17.3861372],[-66.1854834,-17.38616],[-66.1856957,-17.3859059],[-66.1857613,-17.3858127],[-66.1857811,-17.3857829],[-66.1857909,-17.385749],[-66.1857907,-17.3856966],[-66.1857072,-17.3853648],[-66.1856496,-17.3850955],[-66.185628,-17.3849499],[-66.1856161,-17.384768],[-66.1856201,-17.3845949],[-66.1856254,-17.3845155],[-66.1856326,-17.3844362],[-66.1856779,-17.3842195],[-66.1857554,-17.3838587],[-66.1858386,-17.3834382],[-66.1859225,-17.3830139],[-66.1859346,-17.3829171],[-66.1859378,-17.3828912],[-66.1859411,-17.382817],[-66.1859425,-17.38274],[-66.1859476,-17.382692],[-66.1859698,-17.3826448],[-66.1859908,-17.3825923],[-66.1860022,-17.382552],[-66.1861579,-17.3817211],[-66.1861986,-17.3816158],[-66.1862619,-17.3815039],[-66.1863308,-17.3814132],[-66.1863917,-17.3813483],[-66.1864264,-17.3813113],[-66.1876636,-17.3800831],[-66.1877383,-17.3800086],[-66.1882978,-17.3794405],[-66.1883743,-17.3793442],[-66.1882237,-17.3786421],[-66.1881294,-17.3782472],[-66.1880908,-17.3780845],[-66.1879265,-17.3773594],[-66.1875135,-17.3755013],[-66.1875011,-17.3754454],[-66.1874817,-17.375363],[-66.1873911,-17.3749779],[-66.1873742,-17.374906],[-66.187205,-17.3741609],[-66.187184,-17.3740699],[-66.187147,-17.3739028],[-66.1870932,-17.3736597],[-66.1870887,-17.3736248],[-66.1870962,-17.3735981],[-66.18731,-17.3731996],[-66.1873612,-17.3731043],[-66.1874811,-17.3728838],[-66.1876934,-17.3725207],[-66.1878813,-17.3721866],[-66.1882027,-17.3716029],[-66.1882264,-17.3715585],[-66.1885727,-17.370924],[-66.1870037,-17.3710136],[-66.1855896,-17.3711046],[-66.1847769,-17.3711516],[-66.1846805,-17.3711598],[-66.1844961,-17.3711797],[-66.1843919,-17.3712006],[-66.18412,-17.3712888],[-66.1840488,-17.3713086],[-66.183987,-17.3713251],[-66.1839131,-17.3713471],[-66.1838569,-17.3713622],[-66.1838007,-17.3713739],[-66.1837107,-17.3713793],[-66.1836246,-17.3713737],[-66.1835979,-17.371368],[-66.1835476,-17.3713572],[-66.1834936,-17.3713396],[-66.1834583,-17.3713259],[-66.1834456,-17.3712996],[-66.1833822,-17.3712786],[-66.1833084,-17.3712574],[-66.1832406,-17.3712465],[-66.1831719,-17.3712427],[-66.1830932,-17.3712456],[-66.1812031,-17.3713708],[-66.180272,-17.371435],[-66.1802059,-17.3714388],[-66.1798972,-17.3714563],[-66.1793683,-17.3714867],[-66.1790971,-17.3715026],[-66.1782694,-17.371551],[-66.1776982,-17.3715877],[-66.1770052,-17.3716323],[-66.176711,-17.3716506],[-66.1758802,-17.3717021],[-66.1758424,-17.3717045],[-66.1758047,-17.3717068],[-66.1757552,-17.3717092],[-66.1757008,-17.3717118],[-66.1756263,-17.3717154],[-66.1749294,-17.3717598],[-66.1742666,-17.3718003],[-66.1736067,-17.3718451],[-66.1729403,-17.3718855],[-66.1728783,-17.3718894],[-66.1727835,-17.3718955],[-66.1722619,-17.3719344],[-66.1722202,-17.3719416],[-66.1721735,-17.3719525],[-66.1721483,-17.3719742],[-66.1721023,-17.3719931],[-66.1720537,-17.3720043],[-66.1720037,-17.3720075],[-66.1719539,-17.3720026],[-66.1719146,-17.3719866],[-66.1718879,-17.3719678],[-66.1718031,-17.3719645],[-66.171319,-17.3719969],[-66.1706729,-17.3720401],[-66.1699054,-17.3720863],[-66.1691006,-17.372137],[-66.168587,-17.3721724],[-66.1685115,-17.3721771],[-66.1684997,-17.3722013],[-66.1684825,-17.3722224],[-66.168454,-17.3722433],[-66.1684279,-17.3722539],[-66.1683999,-17.3722586],[-66.1683785,-17.3722582],[-66.1683542,-17.3722533],[-66.1683334,-17.3722451],[-66.1683144,-17.3722334],[-66.1682941,-17.3722145],[-66.1682794,-17.372193],[-66.1682184,-17.3721971],[-66.167996,-17.3722106],[-66.1676312,-17.3722381],[-66.1667194,-17.3722921],[-66.1660179,-17.3723376],[-66.1659353,-17.372343],[-66.1656278,-17.3723622],[-66.1651178,-17.372394],[-66.1646438,-17.3724236],[-66.1638303,-17.372476],[-66.163746,-17.3724797],[-66.1636543,-17.3724851],[-66.1632714,-17.3725106],[-66.1627848,-17.3725451],[-66.1626975,-17.3725484],[-66.1625774,-17.372555],[-66.162506,-17.3725594],[-66.1624945,-17.3725598],[-66.162333,-17.3725692],[-66.1608008,-17.3726716],[-66.1606043,-17.3726825],[-66.1605099,-17.3726889],[-66.1605013,-17.3726894],[-66.1591567,-17.3727758],[-66.1590778,-17.3727807],[-66.1589923,-17.372786],[-66.1589345,-17.3727896],[-66.1588691,-17.3727936],[-66.1584227,-17.3728199],[-66.1578797,-17.3728518],[-66.1572446,-17.3728891],[-66.1571999,-17.3728991],[-66.1571481,-17.3729298],[-66.157128,-17.3729915],[-66.1570942,-17.3730475],[-66.1570483,-17.3730951],[-66.1569993,-17.3731282],[-66.1569358,-17.3731547],[-66.1568749,-17.3731659],[-66.1568047,-17.3731596],[-66.1567491,-17.3731431],[-66.1567053,-17.3731178],[-66.1566654,-17.3730874],[-66.15663,-17.3730522],[-66.1566075,-17.3730242],[-66.156579,-17.3729771],[-66.156563,-17.3729415],[-66.1564845,-17.3729463],[-66.1557479,-17.3729988],[-66.1547966,-17.3730645],[-66.1547255,-17.3730695],[-66.1546618,-17.3730725],[-66.1546287,-17.3730741],[-66.1537792,-17.3731143],[-66.1536773,-17.3731211],[-66.1536062,-17.3731257],[-66.1535771,-17.3731276],[-66.152381,-17.3732095],[-66.1517028,-17.3732542],[-66.1511932,-17.3732875],[-66.1511413,-17.3732909],[-66.1510574,-17.373297],[-66.150952,-17.3733057],[-66.1509108,-17.3733086],[-66.1498037,-17.3733757],[-66.1497583,-17.3733886],[-66.1497138,-17.373412],[-66.1496988,-17.3734337],[-66.1496806,-17.3734483],[-66.149653,-17.3734654],[-66.149622,-17.3734759],[-66.1495885,-17.3734806],[-66.1495578,-17.3734759],[-66.149528,-17.3734659],[-66.1495013,-17.3734499],[-66.1494717,-17.3734192],[-66.1494245,-17.3734072],[-66.1493792,-17.3734028],[-66.1489025,-17.3734314],[-66.1485813,-17.3734507],[-66.1477566,-17.3735011],[-66.1471672,-17.3735404],[-66.1470543,-17.3735481],[-66.1467523,-17.3735688],[-66.1466779,-17.3735739],[-66.1459978,-17.3736203],[-66.1458624,-17.3736295],[-66.1454594,-17.3736551],[-66.1451928,-17.3736728],[-66.144613,-17.3737103],[-66.1445584,-17.3737138],[-66.1444795,-17.373719],[-66.1443518,-17.3737277],[-66.1438834,-17.3737566],[-66.1438205,-17.3737609],[-66.1434523,-17.3737837],[-66.1434139,-17.3737873],[-66.1433536,-17.3738017],[-66.1432825,-17.3738447],[-66.1432451,-17.3739292],[-66.1431855,-17.3740009],[-66.1431078,-17.3740548],[-66.1430179,-17.3740869],[-66.1429357,-17.3740952],[-66.1428537,-17.3740851],[-66.1427764,-17.3740572],[-66.1426805,-17.3739877],[-66.1426346,-17.3739395],[-66.1426047,-17.373879],[-66.1425975,-17.3738446],[-66.1424952,-17.3738329],[-66.1424073,-17.3738288],[-66.1423138,-17.3738299],[-66.1416102,-17.3738708],[-66.1413547,-17.3738847],[-66.1406024,-17.3739258],[-66.1405803,-17.3739272],[-66.1397774,-17.3739795],[-66.1396797,-17.3739858],[-66.1388488,-17.3740376],[-66.1388077,-17.3740401],[-66.1385992,-17.3740531],[-66.1385662,-17.374055],[-66.1384337,-17.3740626],[-66.1383137,-17.3740694],[-66.1381326,-17.3740798],[-66.1381031,-17.3740815],[-66.1380704,-17.3740833],[-66.1377613,-17.374101],[-66.1374497,-17.3741239],[-66.137285,-17.3741516],[-66.1372099,-17.3741736],[-66.1371383,-17.3741975],[-66.1371065,-17.3742074],[-66.1370353,-17.3742265],[-66.1370292,-17.3742406],[-66.1370216,-17.3742507],[-66.1370104,-17.3742654],[-66.1369859,-17.3742852],[-66.1369614,-17.3742973],[-66.1369348,-17.3743043],[-66.1369073,-17.3743059],[-66.13688,-17.3743021],[-66.1368541,-17.3742931],[-66.1368307,-17.3742791],[-66.1368109,-17.3742608],[-66.1367954,-17.374239],[-66.1367849,-17.3742146],[-66.1367564,-17.3741062],[-66.1367514,-17.3740803],[-66.1367521,-17.374054],[-66.1367585,-17.3740284],[-66.1367891,-17.3735156],[-66.1368302,-17.3731041],[-66.1368334,-17.3730179],[-66.1368191,-17.3729512],[-66.1367915,-17.3729032],[-66.1367573,-17.3728696],[-66.1367036,-17.3728297],[-66.1366337,-17.372782],[-66.1365427,-17.3727975],[-66.1361547,-17.3728417],[-66.1360835,-17.3728479],[-66.1359771,-17.3728572],[-66.1358602,-17.3728656],[-66.1357817,-17.3728684],[-66.1356853,-17.3728603],[-66.1354966,-17.3728322],[-66.1351908,-17.3727806],[-66.1351489,-17.3727703],[-66.1350753,-17.3727563],[-66.1347435,-17.3726933],[-66.134217,-17.3725934],[-66.1341675,-17.372584],[-66.1341027,-17.3725714],[-66.1337319,-17.3724992],[-66.1334855,-17.3724558],[-66.1333839,-17.3724325],[-66.1333491,-17.3724273],[-66.1331936,-17.3724201],[-66.1330653,-17.3724275],[-66.1326272,-17.3725546],[-66.1319916,-17.3727297],[-66.1318806,-17.3727555],[-66.1316408,-17.3728345],[-66.1311463,-17.3730495],[-66.1309399,-17.3731471],[-66.130845,-17.3731819],[-66.1307188,-17.3732067],[-66.1305431,-17.3732203],[-66.1302763,-17.3732331],[-66.1300836,-17.3732479],[-66.1298549,-17.3732694],[-66.1298225,-17.3732756],[-66.1296782,-17.3733032],[-66.1294941,-17.3733506],[-66.1293598,-17.3733943],[-66.1292169,-17.3734493],[-66.1290806,-17.3735027],[-66.1289941,-17.3735261],[-66.1288841,-17.3735513],[-66.1287924,-17.3735624],[-66.1286912,-17.3735699],[-66.1277564,-17.3735584],[-66.1276188,-17.3735546],[-66.1271409,-17.3735386],[-66.1266958,-17.3735226],[-66.1262345,-17.3735091],[-66.1258166,-17.3734922],[-66.1253243,-17.3734704],[-66.1247261,-17.3734433],[-66.1244463,-17.3734314],[-66.1239717,-17.3734181],[-66.1239031,-17.3734159],[-66.1237105,-17.3734139],[-66.1235774,-17.3734137],[-66.1235218,-17.3734136],[-66.1231056,-17.373411],[-66.1229097,-17.3734072],[-66.1228347,-17.3734077],[-66.1228232,-17.3734198],[-66.1228062,-17.373432],[-66.122787,-17.3734405],[-66.1227663,-17.3734451],[-66.1227451,-17.3734454],[-66.1227242,-17.3734414],[-66.1227047,-17.3734334],[-66.1226839,-17.3734186],[-66.122538,-17.3733991],[-66.1223499,-17.3733872],[-66.1212455,-17.3733427],[-66.1203049,-17.3732981],[-66.1203091,-17.3731907],[-66.120334,-17.3727076]],"nodes":[6728813998,11353309042,8221419846,617198439,7527591106,3192787640,7527591083,11073473498,7527591084,6179669353,7527591077,7527591100,617344406,8221419836,8221419838,781813590,783870512,781813472,8221419798,12487415613,12706842543,2140912563,6917120246,9354944921,319771802,2140912543,8048387332,9354944920,617200550,8048387321,319772517,12706842535,319771957,783869220,617337192,617337190,785869304,5870202365,5870202366,6917120217,9262757144,785868542,785868821,2544242053,5236806811,8316478288,8316478291,9262757164,8316478298,319772617,12091174511,8316478286,786662202,4571961294,11084165261,786662071,786662079,7149699478,10012571191,786662233,786662020,7933924070,8630411911,786662086,4571961312,9008315768,786662289,786662384,4317735514,7933924074,9008315506,9008315507,10572209945,8316478467,319773261,9008315534,9008315509,8316478468,319773262,9008315710,4586488215,10837513366,2594886774,11296265958,10837513370,4586488216,10837513371,10572209994,319773839,8630411836,319773840,8630411835,793568529,793568511,6918618955,793568540,793568550,7933924038,698491866,9008269186,698491852,698491857,9355127785,9355127784,698491894,9008269190,4586487875,8317038874,6836037176,793568534,9025874012,793568542,793568567,6282778241,793568556,5605232830,5605232828,8627399434,9786116626,9786116635,2354386800,9786116631,8627399435,794074995,9008269168,794075099,794075049,794074991,794074975,4340534094,4478225459,794075151,3255507834,4158051956,4158051955,794075132,794075196,794075208,794074982,794075086,794074944,794075201,794075101,6845758237,8235936965,9374958479,2417368094,794081382,8235936959,8235936931,2417368107,2417368139,2417368154,6846214132,2417368183,2417368231,809705435,10055314627,10055314630,794081366,10055314629,809705451,11135474003,2635402989,2635402988,13081089685,809705253,3443971298,11135482315,809705336,809705280,11135474000,3255507876,12650627933,497195306,2418530984,1807038065,1807038048,2418530968,1807038042,3255507866,5553183049,560084586,560522387,4266872276,9316729760,560522388,560522390,560522389,560084595,2357127468,2357127469,8670188784,2357127471,8670188808,8049172532,7070781700,560522417,560522418,9316680358,560084601,2357133921,560084602,9316680362,560522419,9316680363,6376331863,3265422158,9701699242,560522420,9701699245,3265422156,560522435,560522430,7957525165,560522434,560522431,3265422157,7957525145,2137733244,7957525169,2137447521,7957525143,7957525144,7957525153,3265528130,560522479,3265528128,7956617289,7956617291,2137737519,560522515,560522499,560522501,7956609165,2265578409,8051906136,7956609179,9000104324,2265578424,560522503,2265578462,560522505,2265578464,5869436078,7956609158,7956609160,560522511,2265578451,2265578443,5869436081,560522629,5869436892,3040552982,560522633,7956617358,698492101,10675446284,2265578395,2265578393,9018989703,698492103,3040552984,698492099,3265599866,10675462371,3265599865,698492121,698492132,8997922814,9018656440,9630553877,698492129,9018656463,560437485,5353045235,2544300021,9018989662,7143106017,2544300017,698492165,2544300016,9019031869,10798484788,698492168,9019031921,2147353042,9019031924,698492220,1723594028,698492234,809705455,682384952,13520261324,698492251,10672725615,10672725616,809705550,682384953,2938510370,10672282909,10672282932,10672282908,682384954,10672282970,2938510369,809705205,809705449,2938510368,2938510364,809705601,682384955,721099133,721099137,8562130440,721099139,721099141,2518322651,8562130495,2518322698,8562130452,8562130427,9918289474,8562130444,8562130456,8562130457,9948558257,8562130458,9740540992,8562130470,11070207792,599541125,8562130468,2518322667,2518322658,2518322669,1713523734,4104356371,2196149240,602391949,689437234,11836778685,689437236,689437238,689437240,11836778716,3673525777,11836786407,1722458876,11836778761,599541152,3673525778,689437274,689437272,689437271,7143274061,689437279,7143274058,599541154,2468433161,7170944313,2468433173,2468433175,2468433177,2468433178,2468433176,9045163354,2468433167,3669330251,689437277,689437275,689437375,689437356,2851924367,2851924369,12478975036,9875534161,2851924370,12478975037,2851924372,2851924373,2851924371,12478975038,9875534154,9875534158,599541191,3669330253,9880128584,599541189,11078784016,10571690331,689437371,2422613369,2422613372,689437386,9989015780,689437391,2287827733,2287827735,2287827736,599541188,599541187,2287827738,10705908992,9731395686,2126672391,2126672395,2126672398,10810399593,2126672463,602989999,599541199,2126672476,9021398369,11968312655,10800510170,2126672644,2126672670,2126672764,10029085283,2126672935,2126673021,2126673080,12813146199,2126673139,12813146198,2126673159,2126673087,2126672991,10810399534,9141778520,11375884725,2126672666,2126672711,676069627,11949496248,676069629,11949496239,11949496247,9112306455,2126673222,11949496232,9112306456,6868766991,3298035202,12883830697,2380942946,676069635,9112306533,8981422630,2126673621,2126673665,5074930330,2126673703,2126673752,2126673798,2126673868,2126673897,2126673880,2126673803,2126673774,2126673721,8459424860,2126673707,10857203214,9561464244,676069649,5078180973,2126674097,2126674060,5078180976,676069648,2126674108,8369697992,11080188254,4139785893,13556304142,13556304143,4139785895,8370221220,3814200489,2126674127,2126674128,2126674132,2126674142,1785473511,1785473654,1785473340,1785473238,1785473615,8509264303,1785473496,8509264306,10830782194,10830782195,1785473517,2126674144,1785473607,599541230,1785473274,12096329275,1785473349,12096329260,9973573073,1796486551,9276752239,2520618594,698492664,9973573057,9973573056,9973573055,8509264252,8509264251,8509264023,2520618597,11987099430,1796486592,1796486602,9371548102,5605165996,7965603619,11987099445,11079121784,11987099446,11079121783,7965603620,11987099440,7965603621,7965603622,11987099441,2394199631,7965603623,7965603624,11987099442,11987099434,11079121781,11987099435,2394199611,3287025576,5605166012,5605167421,2394199565,5605166011,8596958449,5605166013,602990144,8596958447,602990147,11987099418,602990148,2394199566,8596958446,602990149,8596958433,6835289597,1171504754,13368859873,9366321575,13368859876,8596958571,13368859879,9366321572,1171504659,13299770220,602990150,602990151,602990152,602990153,3287025570,602990155,602990157,602990158,602990159,3287949026,2795698767,602990160,602990161,3287949028,602990163,13299770233,2795698873,1044379840,602990164,11081424005,602990165,1008238282,11071563642,5734888010,8455678873,1008238540,1489808324,1044378998,1044379796,1489808320,1044379444,1046715733,1489808318,1046717327,9015711403,1044378872,8455428839,3287949036,8430586570,8430310237,8430310239,9355061611,9355061610,9355061609,9355061608,8430310195,9355061607,9355061615,9355061614,1726100933,3291832292,8430310220,1486245936,1486245920,1489808291,8430310188]},"gtfs":{"agency_id":0,"route_id":0,"services":[{"service_id":"Mo-Su","startTime":"06:00","endTime":"22:00","trip_id":16306422}],"filteredStops":{"nodes":[6728813998,11353309042,8221419846,617198439,7527591106,3192787640,7527591083,11073473498,7527591084,6179669353,7527591077,7527591100,617344406,8221419836,8221419838,781813590,783870512,781813472,8221419798,12487415613,12706842543,2140912563,6917120246,9354944921,319771802,2140912543,8048387332,9354944920,617200550,8048387321,319772517,12706842535,319771957,783869220,617337192,617337190,785869304,5870202365,5870202366,6917120217,9262757144,785868542,785868821,2544242053,5236806811,8316478288,8316478291,9262757164,8316478298,319772617,12091174511,8316478286,786662202,4571961294,11084165261,786662071,786662079,7149699478,10012571191,786662233,786662020,7933924070,8630411911,786662086,4571961312,9008315768,786662289,786662384,4317735514,7933924074,9008315506,9008315507,10572209945,8316478467,319773261,9008315534,9008315509,8316478468,319773262,9008315710,4586488215,10837513366,2594886774,11296265958,10837513370,4586488216,10837513371,10572209994,319773839,8630411836,319773840,8630411835,793568529,793568511,6918618955,793568540,793568550,7933924038,698491866,9008269186,698491852,698491857,9355127785,9355127784,698491894,9008269190,4586487875,8317038874,6836037176,793568534,9025874012,793568542,793568567,6282778241,793568556,5605232830,5605232828,8627399434,9786116626,9786116635,2354386800,9786116631,8627399435,794074995,9008269168,794075099,794075049,794074991,794074975,4340534094,4478225459,794075151,3255507834,4158051956,4158051955,794075132,794075196,794075208,794074982,794075086,794074944,794075201,794075101,6845758237,8235936965,9374958479,2417368094,794081382,8235936959,8235936931,2417368107,2417368139,2417368154,6846214132,2417368183,2417368231,809705435,10055314627,10055314630,794081366,10055314629,809705451,11135474003,2635402989,2635402988,13081089685,809705253,3443971298,11135482315,809705336,809705280,11135474000,3255507876,12650627933,497195306,2418530984,1807038065,1807038048,2418530968,1807038042,3255507866,5553183049,560084586,560522387,4266872276,9316729760,560522388,560522390,560522389,560084595,2357127468,2357127469,8670188784,2357127471,8670188808,8049172532,7070781700,560522417,560522418,9316680358,560084601,2357133921,560084602,9316680362,560522419,9316680363,6376331863,3265422158,9701699242,560522420,9701699245,3265422156,560522435,560522430,7957525165,560522434,560522431,3265422157,7957525145,2137733244,7957525169,2137447521,7957525143,7957525144,7957525153,3265528130,560522479,3265528128,7956617289,7956617291,2137737519,560522515,560522499,560522501,7956609165,2265578409,8051906136,7956609179,9000104324,2265578424,560522503,2265578462,560522505,2265578464,5869436078,7956609158,7956609160,560522511,2265578451,2265578443,5869436081,560522629,5869436892,3040552982,560522633,7956617358,698492101,10675446284,2265578395,2265578393,9018989703,698492103,3040552984,698492099,3265599866,10675462371,3265599865,698492121,698492132,8997922814,9018656440,9630553877,698492129,9018656463,560437485,5353045235,2544300021,9018989662,7143106017,2544300017,698492165,2544300016,9019031869,10798484788,698492168,9019031921,2147353042,9019031924,698492220,1723594028,698492234,809705455,682384952,13520261324,698492251,10672725615,10672725616,809705550,682384953,2938510370,10672282909,10672282932,10672282908,682384954,10672282970,2938510369,809705205,809705449,2938510368,2938510364,809705601,682384955,721099133,721099137,8562130440,721099139,721099141,2518322651,8562130495,2518322698,8562130452,8562130427,9918289474,8562130444,8562130456,8562130457,9948558257,8562130458,9740540992,8562130470,11070207792,599541125,8562130468,2518322667,2518322658,2518322669,1713523734,4104356371,2196149240,602391949,689437234,11836778685,689437236,689437238,689437240,11836778716,3673525777,11836786407,1722458876,11836778761,599541152,3673525778,689437274,689437272,689437271,7143274061,689437279,7143274058,599541154,2468433161,7170944313,2468433173,2468433175,2468433177,2468433178,2468433176,9045163354,2468433167,3669330251,689437277,689437275,689437375,689437356,2851924367,2851924369,12478975036,9875534161,2851924370,12478975037,2851924372,2851924373,2851924371,12478975038,9875534154,9875534158,599541191,3669330253,9880128584,599541189,11078784016,10571690331,689437371,2422613369,2422613372,689437386,9989015780,689437391,2287827733,2287827735,2287827736,599541188,599541187,2287827738,10705908992,9731395686,2126672391,2126672395,2126672398,10810399593,2126672463,602989999,599541199,2126672476,9021398369,11968312655,10800510170,2126672644,2126672670,2126672764,10029085283,2126672935,2126673021,2126673080,12813146199,2126673139,12813146198,2126673159,2126673087,2126672991,10810399534,9141778520,11375884725,2126672666,2126672711,676069627,11949496248,676069629,11949496239,11949496247,9112306455,2126673222,11949496232,9112306456,6868766991,3298035202,12883830697,2380942946,676069635,9112306533,8981422630,2126673621,2126673665,5074930330,2126673703,2126673752,2126673798,2126673868,2126673897,2126673880,2126673803,2126673774,2126673721,8459424860,2126673707,10857203214,9561464244,676069649,5078180973,2126674097,2126674060,5078180976,676069648,2126674108,8369697992,11080188254,4139785893,13556304142,13556304143,4139785895,8370221220,3814200489,2126674127,2126674128,2126674132,2126674142,1785473511,1785473654,1785473340,1785473238,1785473615,8509264303,1785473496,8509264306,10830782194,10830782195,1785473517,2126674144,1785473607,599541230,1785473274,12096329275,1785473349,12096329260,9973573073,1796486551,9276752239,2520618594,698492664,9973573057,9973573056,9973573055,8509264252,8509264251,8509264023,2520618597,11987099430,1796486592,1796486602,9371548102,5605165996,7965603619,11987099445,11079121784,11987099446,11079121783,7965603620,11987099440,7965603621,7965603622,11987099441,2394199631,7965603623,7965603624,11987099442,11987099434,11079121781,11987099435,2394199611,3287025576,5605166012,5605167421,2394199565,5605166011,8596958449,5605166013,602990144,8596958447,602990147,11987099418,602990148,2394199566,8596958446,602990149,8596958433,6835289597,1171504754,13368859873,9366321575,13368859876,8596958571,13368859879,9366321572,1171504659,13299770220,602990150,602990151,602990152,602990153,3287025570,602990155,602990157,602990158,602990159,3287949026,2795698767,602990160,602990161,3287949028,602990163,13299770233,2795698873,1044379840,602990164,11081424005,602990165,1008238282,11071563642,5734888010,8455678873,1008238540,1489808324,1044378998,1044379796,1489808320,1044379444,1046715733,1489808318,1046717327,9015711403,1044378872,8455428839,3287949036,8430586570,8430310237,8430310239,9355061611,9355061610,9355061609,9355061608,8430310195,9355061607,9355061615,9355061614,1726100933,3291832292,8430310220,1486245936,1486245920,1489808291,8430310188],"coordinates":[[-66.2804969,-17.3942675],[-66.2798815,-17.3942066],[-66.2795033,-17.3941692],[-66.2787977,-17.3940994],[-66.278296,-17.3940485],[-66.2782169,-17.394039],[-66.2781689,-17.3940332],[-66.2781445,-17.3940395],[-66.2781179,-17.3940445],[-66.2780684,-17.3940444],[-66.2780201,-17.3940285],[-66.2778794,-17.3940153],[-66.2773809,-17.3939651],[-66.2769843,-17.393924],[-66.2768911,-17.3939144],[-66.2761362,-17.3938363],[-66.2749633,-17.3937285],[-66.2745387,-17.3936929],[-66.2744202,-17.3936842],[-66.2732528,-17.3935653],[-66.2729886,-17.393549],[-66.2728906,-17.3935115],[-66.2728521,-17.3935331],[-66.2728074,-17.3935435],[-66.2727806,-17.393545],[-66.2727581,-17.3935427],[-66.2727267,-17.393536],[-66.2726973,-17.3935241],[-66.2726613,-17.3934995],[-66.2724969,-17.3934548],[-66.2723523,-17.3934131],[-66.2722242,-17.3933865],[-66.272136,-17.393375],[-66.2711834,-17.3932616],[-66.2701132,-17.3931644],[-66.2699556,-17.3931509],[-66.2682713,-17.392991],[-66.2681621,-17.3929793],[-66.2680858,-17.3929704],[-66.2680632,-17.3929681],[-66.2679799,-17.3929599],[-66.2663099,-17.3927856],[-66.2649819,-17.3926561],[-66.2620232,-17.3923631],[-66.2610333,-17.3922706],[-66.260403,-17.3922097],[-66.2600955,-17.3921801],[-66.2597451,-17.3921462],[-66.2596815,-17.3921401],[-66.2596413,-17.3921346],[-66.2594826,-17.3921205],[-66.2589272,-17.3920656],[-66.2579447,-17.3919684],[-66.2577273,-17.3919498],[-66.2575312,-17.3919305],[-66.2560565,-17.3917855],[-66.2548029,-17.3916521],[-66.253198,-17.3914884],[-66.2530064,-17.3914702],[-66.2528628,-17.3914565],[-66.2517349,-17.3913518],[-66.2513053,-17.3913072],[-66.2507894,-17.3912641],[-66.2506459,-17.3912553],[-66.2504496,-17.3912411],[-66.2499498,-17.3912077],[-66.2490246,-17.391148],[-66.2489296,-17.3911412],[-66.2483832,-17.3911037],[-66.2478983,-17.3910798],[-66.2474718,-17.3910588],[-66.2466946,-17.3910205],[-66.2463515,-17.3910036],[-66.2462864,-17.3910004],[-66.246144,-17.3909943],[-66.2460957,-17.3909928],[-66.2459542,-17.3909884],[-66.2450017,-17.3909622],[-66.2449045,-17.3909712],[-66.2447457,-17.3910024],[-66.244702,-17.3910092],[-66.2446107,-17.3910304],[-66.2444712,-17.3910496],[-66.2443896,-17.3910486],[-66.2440073,-17.3910438],[-66.2439758,-17.3910432],[-66.2439215,-17.3910349],[-66.2437327,-17.3909986],[-66.2436764,-17.3909884],[-66.2435522,-17.3909664],[-66.2434639,-17.3909569],[-66.2433575,-17.3909534],[-66.2427821,-17.3909552],[-66.2421143,-17.3909528],[-66.2411382,-17.3909664],[-66.2409403,-17.3909694],[-66.2398934,-17.3909921],[-66.2393461,-17.3910207],[-66.2391427,-17.3910384],[-66.2389626,-17.3910615],[-66.2388277,-17.3910735],[-66.238785,-17.3910956],[-66.2387555,-17.3910995],[-66.2387249,-17.3910999],[-66.2386949,-17.3910946],[-66.2385208,-17.3910721],[-66.2383448,-17.3910467],[-66.2381859,-17.3910491],[-66.2378308,-17.3910656],[-66.2363623,-17.3911256],[-66.2363592,-17.3911257],[-66.2338646,-17.3912258],[-66.2324387,-17.3912917],[-66.2320293,-17.391311],[-66.2319827,-17.3913101],[-66.2313028,-17.3913334],[-66.2309385,-17.3913516],[-66.2305021,-17.3913727],[-66.2300327,-17.3913971],[-66.2300174,-17.3913979],[-66.2298855,-17.3914048],[-66.2297415,-17.3914102],[-66.2291665,-17.3914316],[-66.228361,-17.3914642],[-66.2274295,-17.3915073],[-66.2266236,-17.3915445],[-66.226496,-17.3915467],[-66.2249193,-17.3916169],[-66.22209,-17.39174],[-66.2218668,-17.3917507],[-66.2215956,-17.3917638],[-66.2213351,-17.3917763],[-66.2194094,-17.3918519],[-66.2193472,-17.3918506],[-66.218927,-17.3918711],[-66.2182553,-17.3918972],[-66.2154179,-17.392026],[-66.2135165,-17.3921133],[-66.2125924,-17.3921466],[-66.2125225,-17.3921489],[-66.2113164,-17.3922033],[-66.2103878,-17.3922456],[-66.2103017,-17.3922496],[-66.208973,-17.3923041],[-66.2082952,-17.3923381],[-66.2082831,-17.3923387],[-66.2081903,-17.3923434],[-66.2080961,-17.3923466],[-66.2080101,-17.3923501],[-66.2077704,-17.3923599],[-66.2056284,-17.3924477],[-66.2047083,-17.3924891],[-66.2043092,-17.3925078],[-66.2036195,-17.3925345],[-66.2031084,-17.3925542],[-66.2031114,-17.3926625],[-66.2031133,-17.3926969],[-66.2031972,-17.3945599],[-66.2032262,-17.3952025],[-66.2032478,-17.3956826],[-66.2024531,-17.3956747],[-66.2015965,-17.3956664],[-66.2015286,-17.3956665],[-66.2009177,-17.395667],[-66.2005305,-17.3956662],[-66.1998907,-17.3956693],[-66.1998424,-17.3956695],[-66.1997587,-17.3956729],[-66.1997543,-17.3955729],[-66.1997154,-17.3946931],[-66.1996749,-17.3940234],[-66.1996702,-17.3939316],[-66.1996188,-17.392929],[-66.199617,-17.3928937],[-66.1996152,-17.3928584],[-66.1996136,-17.3928279],[-66.1996077,-17.3927141],[-66.1996008,-17.3925833],[-66.1995955,-17.3924807],[-66.1995933,-17.392438],[-66.1995888,-17.3923526],[-66.1995543,-17.3916918],[-66.1995236,-17.3912699],[-66.1994512,-17.3902715],[-66.1994429,-17.3901531],[-66.1993814,-17.3894029],[-66.1993385,-17.388905],[-66.1992688,-17.3880847],[-66.1992128,-17.3874389],[-66.1991593,-17.3867837],[-66.199116,-17.3861513],[-66.1990714,-17.3861189],[-66.1990273,-17.3860929],[-66.1989832,-17.3860836],[-66.1989446,-17.3860851],[-66.1988798,-17.386093],[-66.1980579,-17.3865033],[-66.1979284,-17.3865705],[-66.1976982,-17.3866731],[-66.1973102,-17.386849],[-66.1970625,-17.3869559],[-66.196898,-17.3870065],[-66.1966102,-17.3870875],[-66.196543,-17.3871023],[-66.1964558,-17.3871091],[-66.1963971,-17.3871078],[-66.1963086,-17.3870862],[-66.195837,-17.3869571],[-66.1956529,-17.3869067],[-66.195564,-17.3868823],[-66.1954212,-17.3868698],[-66.1954046,-17.3868684],[-66.1950256,-17.3868764],[-66.1949018,-17.3868763],[-66.1939251,-17.3868975],[-66.193812,-17.3868999],[-66.1935602,-17.3869023],[-66.1933891,-17.3868798],[-66.1931897,-17.3868398],[-66.1928895,-17.3867542],[-66.1923963,-17.3866303],[-66.1923407,-17.3866163],[-66.19158,-17.3864254],[-66.1915174,-17.3864097],[-66.1906464,-17.3861682],[-66.1903103,-17.386075],[-66.1899984,-17.3859936],[-66.1898932,-17.3859713],[-66.1892689,-17.3859293],[-66.1891055,-17.3859183],[-66.1890594,-17.3859154],[-66.1887202,-17.3858983],[-66.1885797,-17.385893],[-66.1884209,-17.385911],[-66.1883411,-17.3859301],[-66.1882792,-17.3859555],[-66.1882081,-17.3859973],[-66.1881529,-17.3860426],[-66.1881282,-17.3860563],[-66.1880632,-17.3861026],[-66.1879632,-17.3861578],[-66.1878663,-17.3861858],[-66.1877602,-17.3861909],[-66.1876679,-17.3861846],[-66.1874997,-17.3861635],[-66.1873422,-17.3861446],[-66.1872982,-17.3861377],[-66.1872707,-17.3861342],[-66.1868642,-17.3860842],[-66.1867245,-17.3860759],[-66.1865707,-17.386078],[-66.1864336,-17.3860851],[-66.1858967,-17.3861217],[-66.1857383,-17.3861372],[-66.1854834,-17.38616],[-66.1856957,-17.3859059],[-66.1857613,-17.3858127],[-66.1857811,-17.3857829],[-66.1857909,-17.385749],[-66.1857907,-17.3856966],[-66.1857072,-17.3853648],[-66.1856496,-17.3850955],[-66.185628,-17.3849499],[-66.1856161,-17.384768],[-66.1856201,-17.3845949],[-66.1856254,-17.3845155],[-66.1856326,-17.3844362],[-66.1856779,-17.3842195],[-66.1857554,-17.3838587],[-66.1858386,-17.3834382],[-66.1859225,-17.3830139],[-66.1859346,-17.3829171],[-66.1859378,-17.3828912],[-66.1859411,-17.382817],[-66.1859425,-17.38274],[-66.1859476,-17.382692],[-66.1859698,-17.3826448],[-66.1859908,-17.3825923],[-66.1860022,-17.382552],[-66.1861579,-17.3817211],[-66.1861986,-17.3816158],[-66.1862619,-17.3815039],[-66.1863308,-17.3814132],[-66.1863917,-17.3813483],[-66.1864264,-17.3813113],[-66.1876636,-17.3800831],[-66.1877383,-17.3800086],[-66.1882978,-17.3794405],[-66.1883743,-17.3793442],[-66.1882237,-17.3786421],[-66.1881294,-17.3782472],[-66.1880908,-17.3780845],[-66.1879265,-17.3773594],[-66.1875135,-17.3755013],[-66.1875011,-17.3754454],[-66.1874817,-17.375363],[-66.1873911,-17.3749779],[-66.1873742,-17.374906],[-66.187205,-17.3741609],[-66.187184,-17.3740699],[-66.187147,-17.3739028],[-66.1870932,-17.3736597],[-66.1870887,-17.3736248],[-66.1870962,-17.3735981],[-66.18731,-17.3731996],[-66.1873612,-17.3731043],[-66.1874811,-17.3728838],[-66.1876934,-17.3725207],[-66.1878813,-17.3721866],[-66.1882027,-17.3716029],[-66.1882264,-17.3715585],[-66.1885727,-17.370924],[-66.1870037,-17.3710136],[-66.1855896,-17.3711046],[-66.1847769,-17.3711516],[-66.1846805,-17.3711598],[-66.1844961,-17.3711797],[-66.1843919,-17.3712006],[-66.18412,-17.3712888],[-66.1840488,-17.3713086],[-66.183987,-17.3713251],[-66.1839131,-17.3713471],[-66.1838569,-17.3713622],[-66.1838007,-17.3713739],[-66.1837107,-17.3713793],[-66.1836246,-17.3713737],[-66.1835979,-17.371368],[-66.1835476,-17.3713572],[-66.1834936,-17.3713396],[-66.1834583,-17.3713259],[-66.1834456,-17.3712996],[-66.1833822,-17.3712786],[-66.1833084,-17.3712574],[-66.1832406,-17.3712465],[-66.1831719,-17.3712427],[-66.1830932,-17.3712456],[-66.1812031,-17.3713708],[-66.180272,-17.371435],[-66.1802059,-17.3714388],[-66.1798972,-17.3714563],[-66.1793683,-17.3714867],[-66.1790971,-17.3715026],[-66.1782694,-17.371551],[-66.1776982,-17.3715877],[-66.1770052,-17.3716323],[-66.176711,-17.3716506],[-66.1758802,-17.3717021],[-66.1758424,-17.3717045],[-66.1758047,-17.3717068],[-66.1757552,-17.3717092],[-66.1757008,-17.3717118],[-66.1756263,-17.3717154],[-66.1749294,-17.3717598],[-66.1742666,-17.3718003],[-66.1736067,-17.3718451],[-66.1729403,-17.3718855],[-66.1728783,-17.3718894],[-66.1727835,-17.3718955],[-66.1722619,-17.3719344],[-66.1722202,-17.3719416],[-66.1721735,-17.3719525],[-66.1721483,-17.3719742],[-66.1721023,-17.3719931],[-66.1720537,-17.3720043],[-66.1720037,-17.3720075],[-66.1719539,-17.3720026],[-66.1719146,-17.3719866],[-66.1718879,-17.3719678],[-66.1718031,-17.3719645],[-66.171319,-17.3719969],[-66.1706729,-17.3720401],[-66.1699054,-17.3720863],[-66.1691006,-17.372137],[-66.168587,-17.3721724],[-66.1685115,-17.3721771],[-66.1684997,-17.3722013],[-66.1684825,-17.3722224],[-66.168454,-17.3722433],[-66.1684279,-17.3722539],[-66.1683999,-17.3722586],[-66.1683785,-17.3722582],[-66.1683542,-17.3722533],[-66.1683334,-17.3722451],[-66.1683144,-17.3722334],[-66.1682941,-17.3722145],[-66.1682794,-17.372193],[-66.1682184,-17.3721971],[-66.167996,-17.3722106],[-66.1676312,-17.3722381],[-66.1667194,-17.3722921],[-66.1660179,-17.3723376],[-66.1659353,-17.372343],[-66.1656278,-17.3723622],[-66.1651178,-17.372394],[-66.1646438,-17.3724236],[-66.1638303,-17.372476],[-66.163746,-17.3724797],[-66.1636543,-17.3724851],[-66.1632714,-17.3725106],[-66.1627848,-17.3725451],[-66.1626975,-17.3725484],[-66.1625774,-17.372555],[-66.162506,-17.3725594],[-66.1624945,-17.3725598],[-66.162333,-17.3725692],[-66.1608008,-17.3726716],[-66.1606043,-17.3726825],[-66.1605099,-17.3726889],[-66.1605013,-17.3726894],[-66.1591567,-17.3727758],[-66.1590778,-17.3727807],[-66.1589923,-17.372786],[-66.1589345,-17.3727896],[-66.1588691,-17.3727936],[-66.1584227,-17.3728199],[-66.1578797,-17.3728518],[-66.1572446,-17.3728891],[-66.1571999,-17.3728991],[-66.1571481,-17.3729298],[-66.157128,-17.3729915],[-66.1570942,-17.3730475],[-66.1570483,-17.3730951],[-66.1569993,-17.3731282],[-66.1569358,-17.3731547],[-66.1568749,-17.3731659],[-66.1568047,-17.3731596],[-66.1567491,-17.3731431],[-66.1567053,-17.3731178],[-66.1566654,-17.3730874],[-66.15663,-17.3730522],[-66.1566075,-17.3730242],[-66.156579,-17.3729771],[-66.156563,-17.3729415],[-66.1564845,-17.3729463],[-66.1557479,-17.3729988],[-66.1547966,-17.3730645],[-66.1547255,-17.3730695],[-66.1546618,-17.3730725],[-66.1546287,-17.3730741],[-66.1537792,-17.3731143],[-66.1536773,-17.3731211],[-66.1536062,-17.3731257],[-66.1535771,-17.3731276],[-66.152381,-17.3732095],[-66.1517028,-17.3732542],[-66.1511932,-17.3732875],[-66.1511413,-17.3732909],[-66.1510574,-17.373297],[-66.150952,-17.3733057],[-66.1509108,-17.3733086],[-66.1498037,-17.3733757],[-66.1497583,-17.3733886],[-66.1497138,-17.373412],[-66.1496988,-17.3734337],[-66.1496806,-17.3734483],[-66.149653,-17.3734654],[-66.149622,-17.3734759],[-66.1495885,-17.3734806],[-66.1495578,-17.3734759],[-66.149528,-17.3734659],[-66.1495013,-17.3734499],[-66.1494717,-17.3734192],[-66.1494245,-17.3734072],[-66.1493792,-17.3734028],[-66.1489025,-17.3734314],[-66.1485813,-17.3734507],[-66.1477566,-17.3735011],[-66.1471672,-17.3735404],[-66.1470543,-17.3735481],[-66.1467523,-17.3735688],[-66.1466779,-17.3735739],[-66.1459978,-17.3736203],[-66.1458624,-17.3736295],[-66.1454594,-17.3736551],[-66.1451928,-17.3736728],[-66.144613,-17.3737103],[-66.1445584,-17.3737138],[-66.1444795,-17.373719],[-66.1443518,-17.3737277],[-66.1438834,-17.3737566],[-66.1438205,-17.3737609],[-66.1434523,-17.3737837],[-66.1434139,-17.3737873],[-66.1433536,-17.3738017],[-66.1432825,-17.3738447],[-66.1432451,-17.3739292],[-66.1431855,-17.3740009],[-66.1431078,-17.3740548],[-66.1430179,-17.3740869],[-66.1429357,-17.3740952],[-66.1428537,-17.3740851],[-66.1427764,-17.3740572],[-66.1426805,-17.3739877],[-66.1426346,-17.3739395],[-66.1426047,-17.373879],[-66.1425975,-17.3738446],[-66.1424952,-17.3738329],[-66.1424073,-17.3738288],[-66.1423138,-17.3738299],[-66.1416102,-17.3738708],[-66.1413547,-17.3738847],[-66.1406024,-17.3739258],[-66.1405803,-17.3739272],[-66.1397774,-17.3739795],[-66.1396797,-17.3739858],[-66.1388488,-17.3740376],[-66.1388077,-17.3740401],[-66.1385992,-17.3740531],[-66.1385662,-17.374055],[-66.1384337,-17.3740626],[-66.1383137,-17.3740694],[-66.1381326,-17.3740798],[-66.1381031,-17.3740815],[-66.1380704,-17.3740833],[-66.1377613,-17.374101],[-66.1374497,-17.3741239],[-66.137285,-17.3741516],[-66.1372099,-17.3741736],[-66.1371383,-17.3741975],[-66.1371065,-17.3742074],[-66.1370353,-17.3742265],[-66.1370292,-17.3742406],[-66.1370216,-17.3742507],[-66.1370104,-17.3742654],[-66.1369859,-17.3742852],[-66.1369614,-17.3742973],[-66.1369348,-17.3743043],[-66.1369073,-17.3743059],[-66.13688,-17.3743021],[-66.1368541,-17.3742931],[-66.1368307,-17.3742791],[-66.1368109,-17.3742608],[-66.1367954,-17.374239],[-66.1367849,-17.3742146],[-66.1367564,-17.3741062],[-66.1367514,-17.3740803],[-66.1367521,-17.374054],[-66.1367585,-17.3740284],[-66.1367891,-17.3735156],[-66.1368302,-17.3731041],[-66.1368334,-17.3730179],[-66.1368191,-17.3729512],[-66.1367915,-17.3729032],[-66.1367573,-17.3728696],[-66.1367036,-17.3728297],[-66.1366337,-17.372782],[-66.1365427,-17.3727975],[-66.1361547,-17.3728417],[-66.1360835,-17.3728479],[-66.1359771,-17.3728572],[-66.1358602,-17.3728656],[-66.1357817,-17.3728684],[-66.1356853,-17.3728603],[-66.1354966,-17.3728322],[-66.1351908,-17.3727806],[-66.1351489,-17.3727703],[-66.1350753,-17.3727563],[-66.1347435,-17.3726933],[-66.134217,-17.3725934],[-66.1341675,-17.372584],[-66.1341027,-17.3725714],[-66.1337319,-17.3724992],[-66.1334855,-17.3724558],[-66.1333839,-17.3724325],[-66.1333491,-17.3724273],[-66.1331936,-17.3724201],[-66.1330653,-17.3724275],[-66.1326272,-17.3725546],[-66.1319916,-17.3727297],[-66.1318806,-17.3727555],[-66.1316408,-17.3728345],[-66.1311463,-17.3730495],[-66.1309399,-17.3731471],[-66.130845,-17.3731819],[-66.1307188,-17.3732067],[-66.1305431,-17.3732203],[-66.1302763,-17.3732331],[-66.1300836,-17.3732479],[-66.1298549,-17.3732694],[-66.1298225,-17.3732756],[-66.1296782,-17.3733032],[-66.1294941,-17.3733506],[-66.1293598,-17.3733943],[-66.1292169,-17.3734493],[-66.1290806,-17.3735027],[-66.1289941,-17.3735261],[-66.1288841,-17.3735513],[-66.1287924,-17.3735624],[-66.1286912,-17.3735699],[-66.1277564,-17.3735584],[-66.1276188,-17.3735546],[-66.1271409,-17.3735386],[-66.1266958,-17.3735226],[-66.1262345,-17.3735091],[-66.1258166,-17.3734922],[-66.1253243,-17.3734704],[-66.1247261,-17.3734433],[-66.1244463,-17.3734314],[-66.1239717,-17.3734181],[-66.1239031,-17.3734159],[-66.1237105,-17.3734139],[-66.1235774,-17.3734137],[-66.1235218,-17.3734136],[-66.1231056,-17.373411],[-66.1229097,-17.3734072],[-66.1228347,-17.3734077],[-66.1228232,-17.3734198],[-66.1228062,-17.373432],[-66.122787,-17.3734405],[-66.1227663,-17.3734451],[-66.1227451,-17.3734454],[-66.1227242,-17.3734414],[-66.1227047,-17.3734334],[-66.1226839,-17.3734186],[-66.122538,-17.3733991],[-66.1223499,-17.3733872],[-66.1212455,-17.3733427],[-66.1203049,-17.3732981],[-66.1203091,-17.3731907],[-66.120334,-17.3727076]]}}},{"type":"Feature","properties":{"bench":"no","bus":"yes","departures_board":"no","highway":"bus_stop","informal":"yes","level":"0","lit":"no","name":"Villavicencio","public_transport":"platform","shelter":"no","tactile_paving":"no","wheelchair":"no","id":7956617376},"geometry":{"type":"Point","coordinates":[-66.278294,-17.3957803]}},{"type":"Feature","properties":{"bench":"no","bin":"no","bus":"yes","departures_board":"no","highway":"bus_stop","informal":"yes","kerb":"lowered","level":"0","lit":"no","name":"Libertador Simón Bolívar","public_transport":"platform","shelter":"no","tactile_paving":"no","wheelchair":"yes","id":10705911006},"geometry":{"type":"Point","coordinates":[-66.1628333,-17.3725944]}},{"type":"Feature","properties":{"bus":"yes","highway":"bus_stop","name":"Parada MiniBus 265","public_transport":"platform","id":9188336167},"geometry":{"type":"Point","coordinates":[-66.1202811,-17.3727325]}}]}