{"type":"FeatureCollection","features":[{"type":"Feature","properties":{"bicycle":"no","bus":"minibus","check_date":"46167","direction":"south","fee":"yes","from":"Cochabamba","name":"Trufi Santiváñez: Cochabamba → Santiváñez","network":"BO:C:Cochabamba;BO:C:Santiváñez","passenger":"regional","public_transport:version":"2","ref":"Santiváñez","roundtrip":"no","route":"bus","to":"Santiváñez","type":"route","wheelchair":"no","id":20141710},"geometry":{"type":"LineString","coordinates":[[-66.1516917,-17.407712200000002],[-66.1516888,-17.4075963],[-66.1515162,-17.407603400000003],[-66.1508022,-17.407629800000002],[-66.1508067,-17.4084116],[-66.1507991,-17.4087701],[-66.1508148,-17.409363300000003],[-66.15102850000001,-17.4114067],[-66.1510873,-17.411899700000003],[-66.1511538,-17.412364200000003],[-66.15119460000001,-17.4126857],[-66.1512648,-17.413213600000002],[-66.1513371,-17.4138784],[-66.1513709,-17.4140012],[-66.15154220000001,-17.4154689],[-66.1515476,-17.415533200000002],[-66.15163670000001,-17.416372600000003],[-66.1516634,-17.4165411],[-66.1516744,-17.4166098],[-66.1516945,-17.4166741],[-66.1517309,-17.416735000000003],[-66.15176740000001,-17.416789400000003],[-66.15181050000001,-17.4168418],[-66.1518807,-17.416937700000002],[-66.1519028,-17.4169632],[-66.1519195,-17.416992200000003],[-66.15193000000001,-17.4170237],[-66.1519342,-17.417056600000002],[-66.15192760000001,-17.4171072],[-66.15190600000001,-17.417153900000002],[-66.1518712,-17.4172508],[-66.15185860000001,-17.4172879],[-66.15182920000001,-17.4174036],[-66.15180570000001,-17.4175262],[-66.15180000000001,-17.4176977],[-66.1518083,-17.4179208],[-66.1518491,-17.4181743],[-66.1518959,-17.4183445],[-66.1519944,-17.4185447],[-66.15230770000001,-17.4190842],[-66.1524139,-17.4192688],[-66.15270790000001,-17.4198248],[-66.1528768,-17.4201687],[-66.153126,-17.4207496],[-66.1533093,-17.421245000000003],[-66.1533668,-17.421416800000003],[-66.15337960000001,-17.4214552],[-66.15343990000001,-17.4216339],[-66.1535235,-17.4218879],[-66.15360980000001,-17.422226100000003],[-66.1536372,-17.4223372],[-66.15371300000001,-17.422695100000002],[-66.1537519,-17.422916800000003],[-66.1537741,-17.4230437],[-66.1538258,-17.423403200000003],[-66.1538376,-17.4235541],[-66.15384250000001,-17.4236404],[-66.15385900000001,-17.423928500000002],[-66.153884,-17.4242503],[-66.15389800000001,-17.4246525],[-66.1538754,-17.425012000000002],[-66.15387050000001,-17.425088900000002],[-66.1538582,-17.425322400000002],[-66.1538354,-17.4255217],[-66.1537437,-17.4258741],[-66.15352890000001,-17.4266501],[-66.1534788,-17.426799900000002],[-66.15341160000001,-17.4269633],[-66.15329870000001,-17.4272023],[-66.15318740000001,-17.4273926],[-66.15308660000001,-17.4275744],[-66.1529395,-17.4277881],[-66.1527384,-17.4280326],[-66.1524617,-17.4283122],[-66.1516869,-17.4290518],[-66.1515746,-17.4291674],[-66.1514885,-17.429273300000002],[-66.1514322,-17.4293622],[-66.15141290000001,-17.4293926],[-66.15134370000001,-17.4295368],[-66.15122170000001,-17.429854600000002],[-66.15115460000001,-17.4300071],[-66.1511043,-17.4301117],[-66.15099760000001,-17.430303300000002],[-66.15094500000001,-17.430394600000003],[-66.150789,-17.4306762],[-66.15063450000001,-17.430935400000003],[-66.1506004,-17.430992500000002],[-66.1502801,-17.4314649],[-66.150135,-17.4316622],[-66.1500936,-17.4317166],[-66.1498155,-17.432099700000002],[-66.14966410000001,-17.4323082],[-66.1488863,-17.4333528],[-66.14852370000001,-17.4338383],[-66.1482313,-17.434234500000002],[-66.14799190000001,-17.434548000000003],[-66.1475408,-17.4351592],[-66.1472387,-17.4355684],[-66.14675220000001,-17.4362226],[-66.14603770000001,-17.437183400000002],[-66.1458844,-17.4374059],[-66.1458164,-17.4375177],[-66.14568560000001,-17.4377986],[-66.1456591,-17.4378575],[-66.1458044,-17.437908500000002],[-66.14583040000001,-17.4379379],[-66.14586800000001,-17.437976000000003],[-66.1461855,-17.4381044],[-66.146287,-17.437959000000003],[-66.14641870000001,-17.438024300000002],[-66.14655590000001,-17.438101900000003],[-66.14657670000001,-17.438114000000002],[-66.1471578,-17.4384504],[-66.14762640000001,-17.4387332],[-66.14811390000001,-17.439027600000003],[-66.1484544,-17.4392269],[-66.14851030000001,-17.4392634],[-66.1486381,-17.4393822],[-66.1487431,-17.4394804],[-66.1491795,-17.4397276],[-66.1497994,-17.440035400000003],[-66.15028360000001,-17.440326300000002],[-66.1507457,-17.4406035],[-66.15083510000001,-17.4406573],[-66.15122020000001,-17.4408889],[-66.15141050000001,-17.441003300000002],[-66.1521019,-17.441404400000003],[-66.15265600000001,-17.441728700000002],[-66.15291850000001,-17.441872200000002],[-66.15307800000001,-17.441944000000003],[-66.15323810000001,-17.4419986],[-66.15336110000001,-17.4420776],[-66.15345160000001,-17.4422414],[-66.1536071,-17.442389900000002],[-66.1538258,-17.4426084],[-66.1538945,-17.442646800000002],[-66.15395260000001,-17.44266],[-66.1540356,-17.4426723],[-66.15439570000001,-17.4426917],[-66.1544276,-17.442706400000002],[-66.15443570000001,-17.4427439],[-66.15474730000001,-17.442751100000002],[-66.15529310000001,-17.442758400000002],[-66.15607270000001,-17.442622],[-66.1565619,-17.4425469],[-66.1567078,-17.4425053],[-66.1568469,-17.4424569],[-66.15746460000001,-17.4422031],[-66.1578721,-17.4420396],[-66.1582549,-17.441882500000002],[-66.1583324,-17.441849700000002],[-66.15878350000001,-17.441658800000003],[-66.1598833,-17.4411986],[-66.16017040000001,-17.4410746],[-66.1607153,-17.4408613],[-66.1607479,-17.4408485],[-66.1608202,-17.4408202],[-66.1608877,-17.440795400000003],[-66.160919,-17.440783900000003],[-66.16111500000001,-17.440712],[-66.1612953,-17.440632800000003],[-66.1621595,-17.4402103],[-66.16229080000001,-17.440162800000003],[-66.1624242,-17.4401331],[-66.16254640000001,-17.440109300000003],[-66.1625726,-17.4401042],[-66.16265720000001,-17.440086700000002],[-66.1628069,-17.440788100000002],[-66.162857,-17.440984500000003],[-66.1629144,-17.441141700000003],[-66.1634197,-17.4423163],[-66.1635294,-17.442591200000003],[-66.1636148,-17.4428661],[-66.1636835,-17.443163700000003],[-66.16374300000001,-17.443476200000003],[-66.1638516,-17.4438302],[-66.1639603,-17.444157],[-66.1641999,-17.444916000000003],[-66.1645422,-17.445993100000003],[-66.1645853,-17.4461312],[-66.16480630000001,-17.4468542],[-66.1649778,-17.447323800000003],[-66.1650357,-17.4474823],[-66.1650505,-17.4475473],[-66.1650712,-17.4476383],[-66.16511600000001,-17.4479766],[-66.1652598,-17.448702200000003],[-66.1654498,-17.4494395],[-66.16567110000001,-17.450206],[-66.16586480000001,-17.450846000000002],[-66.1660904,-17.4516332],[-66.1662155,-17.451952600000002],[-66.1662513,-17.4520492],[-66.16634350000001,-17.452348200000003],[-66.1665531,-17.453135800000002],[-66.1666086,-17.4533503],[-66.1667201,-17.453735100000003],[-66.16705230000001,-17.454726400000002],[-66.1670847,-17.4548232],[-66.16709230000001,-17.4548546],[-66.1671135,-17.454954700000002],[-66.16727920000001,-17.4557387],[-66.1674248,-17.456340700000002],[-66.16746350000001,-17.456553200000002],[-66.167568,-17.4571273],[-66.1675819,-17.4571983],[-66.16766000000001,-17.457596900000002],[-66.1677161,-17.4578832],[-66.1677844,-17.458247500000002],[-66.1679761,-17.459016000000002],[-66.16804300000001,-17.4593077],[-66.16825080000001,-17.460091000000002],[-66.1684189,-17.460724600000002],[-66.16849400000001,-17.461030500000003],[-66.1686404,-17.461626900000002],[-66.16873770000001,-17.462031300000003],[-66.16881430000001,-17.462533200000003],[-66.1688348,-17.462703700000002],[-66.168873,-17.463198700000003],[-66.1688838,-17.463326100000003],[-66.168898,-17.463455200000002],[-66.1689439,-17.4637524],[-66.1690184,-17.4639966],[-66.16918410000001,-17.464435400000003],[-66.1692946,-17.464728100000002],[-66.16945600000001,-17.465366000000003],[-66.16971810000001,-17.466546400000002],[-66.1697719,-17.4668053],[-66.1698063,-17.4669804],[-66.17017750000001,-17.468856300000002],[-66.1702764,-17.469272200000002],[-66.1705987,-17.4702954],[-66.1706242,-17.470468800000003],[-66.17063610000001,-17.4705781],[-66.1706017,-17.471217000000003],[-66.1705982,-17.471473800000002],[-66.17061260000001,-17.471670200000002],[-66.17065310000001,-17.4718632],[-66.1709328,-17.472624800000002],[-66.1710379,-17.4730913],[-66.17112440000001,-17.473464200000002],[-66.17117560000001,-17.4737052],[-66.1713117,-17.474429400000002],[-66.17168330000001,-17.4761366],[-66.17192170000001,-17.4772135],[-66.1719685,-17.4774259],[-66.1721777,-17.478356100000003],[-66.17237580000001,-17.4791779],[-66.17255800000001,-17.4799206],[-66.17259200000001,-17.480073800000003],[-66.1728303,-17.4811061],[-66.1730069,-17.4818752],[-66.1730148,-17.481954700000003],[-66.17302160000001,-17.4820721],[-66.17301730000001,-17.4821855],[-66.1728521,-17.483416400000003],[-66.17266280000001,-17.484774],[-66.17260490000001,-17.485188800000003],[-66.17249840000001,-17.4861207],[-66.1724358,-17.4862359],[-66.1724231,-17.486315100000002],[-66.1723884,-17.486611],[-66.17229250000001,-17.48731],[-66.1721699,-17.4884953],[-66.17210080000001,-17.489022900000002],[-66.1720288,-17.4896335],[-66.1720269,-17.4898102],[-66.1720317,-17.4899917],[-66.1720379,-17.490116200000003],[-66.1720832,-17.4903945],[-66.1721108,-17.490525100000003],[-66.17234280000001,-17.491408200000002],[-66.17236790000001,-17.491503700000003],[-66.1724379,-17.4917698],[-66.1726448,-17.4924582],[-66.1728114,-17.4930755],[-66.17285620000001,-17.493391900000002],[-66.17287280000001,-17.4937396],[-66.172826,-17.494087800000003],[-66.1727663,-17.494312700000002],[-66.17264300000001,-17.4946173],[-66.17259150000001,-17.494746000000003],[-66.17207300000001,-17.4956661],[-66.17188130000001,-17.496124100000003],[-66.1717979,-17.496506200000002],[-66.1717768,-17.496901],[-66.1717759,-17.4969481],[-66.17177980000001,-17.4974108],[-66.17177720000001,-17.4975507],[-66.17175350000001,-17.499133200000003],[-66.1717378,-17.499821800000003],[-66.17175900000001,-17.5003776],[-66.17177020000001,-17.5006692],[-66.17179200000001,-17.5008653],[-66.1718281,-17.501354300000003],[-66.1718905,-17.5024787],[-66.171951,-17.5029587],[-66.1719963,-17.503201400000002],[-66.1720452,-17.5033952],[-66.1721242,-17.503618000000003],[-66.1723171,-17.503974200000002],[-66.1724226,-17.5041969],[-66.1725232,-17.504344600000003],[-66.1726749,-17.504526700000003],[-66.1728071,-17.5046523],[-66.1730938,-17.504873200000002],[-66.1732568,-17.5050074],[-66.1733349,-17.5050944],[-66.1734112,-17.505203700000003],[-66.17346660000001,-17.5053093],[-66.1735015,-17.505397900000002],[-66.1735307,-17.5055027],[-66.1735716,-17.5056876],[-66.17357820000001,-17.5057173],[-66.17361840000001,-17.5059204],[-66.17367060000001,-17.506188400000003],[-66.17372900000001,-17.506574200000003],[-66.17383120000001,-17.507221400000002],[-66.17391810000001,-17.5076481],[-66.17432260000001,-17.509029700000003],[-66.1744007,-17.5092633],[-66.1746804,-17.510254600000003],[-66.17490450000001,-17.510959200000002],[-66.1749977,-17.5112352],[-66.1750928,-17.5114604],[-66.17551130000001,-17.512069800000003],[-66.17607310000001,-17.513104400000003],[-66.1765012,-17.5140092],[-66.1774225,-17.5163151],[-66.177687,-17.516908100000002],[-66.17833250000001,-17.518340700000003],[-66.1784001,-17.518531000000003],[-66.17842350000001,-17.5186603],[-66.17843350000001,-17.5187665],[-66.1784332,-17.5188726],[-66.17842040000001,-17.518987300000003],[-66.17839310000001,-17.5191009],[-66.1782936,-17.519310400000002],[-66.17772400000001,-17.520039500000003],[-66.17750170000001,-17.5203291],[-66.17740930000001,-17.5205111],[-66.17739,-17.520623],[-66.1773967,-17.520817700000002],[-66.17750480000001,-17.521306000000003],[-66.1776404,-17.521626700000002],[-66.1777644,-17.5218157],[-66.1779707,-17.5220027],[-66.1781838,-17.522164],[-66.1789718,-17.5225331],[-66.1809539,-17.523526200000003],[-66.181196,-17.523607700000003],[-66.1814075,-17.523668800000003],[-66.1816426,-17.5237124],[-66.18353730000001,-17.5239449],[-66.18393590000001,-17.5239972],[-66.1842158,-17.524034],[-66.1847161,-17.524101400000003],[-66.18508250000001,-17.524166400000002],[-66.1853744,-17.524226300000002],[-66.18546280000001,-17.5242444],[-66.18566270000001,-17.5243022],[-66.18582760000001,-17.524353400000003],[-66.1860403,-17.5244299],[-66.18629700000001,-17.5245448],[-66.18665100000001,-17.524713700000003],[-66.1870761,-17.5249291],[-66.1873585,-17.5250795],[-66.1882135,-17.5254601],[-66.1892373,-17.5259159],[-66.18937790000001,-17.525989900000003],[-66.18983890000001,-17.5262323],[-66.19028540000001,-17.526471500000003],[-66.1905684,-17.526668700000002],[-66.191311,-17.5272864],[-66.1925736,-17.528354200000003],[-66.19344310000001,-17.5291001],[-66.1936118,-17.529214200000002],[-66.19378160000001,-17.529303600000002],[-66.19404540000001,-17.529404900000003],[-66.1945383,-17.529579100000003],[-66.19657160000001,-17.5302535],[-66.1968238,-17.530378300000002],[-66.1970225,-17.5305439],[-66.197682,-17.5313729],[-66.19784270000001,-17.531503],[-66.19807220000001,-17.531597],[-66.1982972,-17.531635100000003],[-66.19855940000001,-17.531619000000003],[-66.19881020000001,-17.531534100000002],[-66.19899620000001,-17.531378800000002],[-66.19929300000001,-17.5310893],[-66.1994604,-17.5309691],[-66.1996659,-17.530863800000002],[-66.19982680000001,-17.530793300000003],[-66.20007380000001,-17.5307633],[-66.20031300000001,-17.530830100000003],[-66.2004938,-17.530921900000003],[-66.200659,-17.531071200000003],[-66.20118950000001,-17.531845800000003],[-66.20238610000001,-17.533640700000003],[-66.20263600000001,-17.533997300000003],[-66.2028331,-17.5342063],[-66.2030204,-17.534365100000002],[-66.2033128,-17.534516800000002],[-66.2034601,-17.534588600000003],[-66.20378500000001,-17.5346721],[-66.2041284,-17.5347092],[-66.20468290000001,-17.5346885],[-66.2050325,-17.534667900000002],[-66.2061932,-17.5345793],[-66.206399,-17.5345799],[-66.2065776,-17.534617700000002],[-66.2068955,-17.5346951],[-66.20720010000001,-17.5347866],[-66.2074264,-17.534907500000003],[-66.2077029,-17.535154700000003],[-66.2079645,-17.535398500000003],[-66.20810460000001,-17.535567],[-66.20841080000001,-17.5360836],[-66.20869420000001,-17.536510500000002],[-66.20882850000001,-17.5366928],[-66.2089689,-17.5368071],[-66.20914230000001,-17.536904600000003],[-66.2093255,-17.5369752],[-66.2098203,-17.537155400000003],[-66.2099481,-17.5372254],[-66.2100532,-17.5373175],[-66.2101385,-17.5374871],[-66.2101081,-17.5376876],[-66.2099403,-17.538085600000002],[-66.20961840000001,-17.5388509],[-66.2094198,-17.5390592],[-66.2089131,-17.5392854],[-66.2085442,-17.539492000000003],[-66.2082038,-17.539625400000002],[-66.20784570000001,-17.539741900000003],[-66.20740620000001,-17.539846700000002],[-66.2072227,-17.539952000000003],[-66.2070755,-17.5400747],[-66.20696930000001,-17.540260800000002],[-66.20698340000001,-17.54044],[-66.2070331,-17.5405768],[-66.20748970000001,-17.5412326],[-66.20758710000001,-17.541368700000003],[-66.20763120000001,-17.541555600000002],[-66.2076344,-17.5416956],[-66.20761990000001,-17.541844],[-66.20745330000001,-17.5421546],[-66.2072553,-17.542429000000002],[-66.2072024,-17.542535200000003],[-66.2071949,-17.5426803],[-66.2073292,-17.543003000000002],[-66.20737670000001,-17.5431695],[-66.207397,-17.5433619],[-66.20739760000001,-17.543982600000003],[-66.2073603,-17.544346700000002],[-66.20724530000001,-17.5449671],[-66.20709430000001,-17.5453425],[-66.20698300000001,-17.5454517],[-66.2067856,-17.5455608],[-66.206505,-17.545700800000002],[-66.20631750000001,-17.5457696],[-66.2062271,-17.5458384],[-66.20616360000001,-17.5459484],[-66.2061274,-17.546058400000003],[-66.20612820000001,-17.5461807],[-66.2061654,-17.5462944],[-66.2063466,-17.546467200000002],[-66.2065118,-17.5465325],[-66.20804050000001,-17.5470298],[-66.208543,-17.547192000000003],[-66.2096755,-17.547552800000002],[-66.2112816,-17.5480799],[-66.21232810000001,-17.5484121],[-66.21289700000001,-17.548594100000003],[-66.21490920000001,-17.549243200000003],[-66.2155793,-17.5494363],[-66.2160309,-17.549504600000002],[-66.2167009,-17.5495196],[-66.217246,-17.549498200000002],[-66.21756380000001,-17.5494783],[-66.2178614,-17.5494673],[-66.2180687,-17.549475800000003],[-66.2182732,-17.5494962],[-66.2185348,-17.549542600000002],[-66.2188148,-17.549614300000002],[-66.21898230000001,-17.5496662],[-66.2190774,-17.549695500000002],[-66.2191562,-17.5497212],[-66.2192239,-17.5497446],[-66.2195744,-17.5498575],[-66.2199432,-17.550030500000002],[-66.22015180000001,-17.5501416],[-66.2205105,-17.5503013],[-66.2207576,-17.5503919],[-66.2210194,-17.5504609],[-66.221293,-17.550511200000003],[-66.2214515,-17.550536100000002],[-66.2224511,-17.5506423],[-66.2241449,-17.550842900000003],[-66.2248198,-17.550924400000003],[-66.22516870000001,-17.550984200000002],[-66.2255109,-17.551073000000002],[-66.22884780000001,-17.552045800000002],[-66.2311904,-17.552757600000003],[-66.2318645,-17.552972800000003],[-66.2321337,-17.5530902],[-66.23238660000001,-17.5532214],[-66.2324911,-17.553281400000003],[-66.232653,-17.5533691],[-66.2336499,-17.553908],[-66.2351163,-17.5547611],[-66.2366312,-17.5555923],[-66.23677760000001,-17.5556778],[-66.23810010000001,-17.5564074],[-66.23844270000001,-17.556593900000003],[-66.2414949,-17.558305800000003],[-66.24228880000001,-17.5587431],[-66.243836,-17.5596019],[-66.24419060000001,-17.559797300000003],[-66.24447040000001,-17.5599515],[-66.24644350000001,-17.561047300000002],[-66.2474213,-17.561568400000002],[-66.24864450000001,-17.562308700000003],[-66.2489596,-17.5624065],[-66.2491423,-17.562404200000003],[-66.2492948,-17.562381300000002],[-66.2494793,-17.562338500000003],[-66.2496878,-17.562235],[-66.24986530000001,-17.562098600000002],[-66.2500763,-17.5618954],[-66.25029160000001,-17.5616233],[-66.25028320000001,-17.561327100000003],[-66.2502429,-17.560632100000003],[-66.25022390000001,-17.560259300000002],[-66.25009490000001,-17.5574371],[-66.2500603,-17.556147300000003],[-66.2500438,-17.5559632],[-66.25001610000001,-17.5554367],[-66.2499978,-17.555245600000003],[-66.2498566,-17.5547499],[-66.2495892,-17.553810700000003],[-66.2493177,-17.552873400000003],[-66.2491507,-17.5522533],[-66.2491025,-17.5520777],[-66.2490671,-17.551935],[-66.24905290000001,-17.5518699],[-66.2488625,-17.550993700000003],[-66.2487881,-17.5506274],[-66.2487358,-17.550515100000002]],"nodes":[13502985980,702511667,8208217821,659960380,5610210856,659960379,659960354,3315366893,5610210853,5610210870,646065231,2545423147,3675745337,646065234,3017372526,3675745339,646061102,3315367417,8236159656,3315367423,646061104,3675745343,3315367447,3315367661,646061115,3315367669,9153399870,646061117,702511571,646061119,3675745346,3315367694,646061192,646061196,3017385067,646061199,3315367744,646061203,646061207,3017385080,646061209,3315367875,646061211,646061214,3675745350,646061217,646061453,3675745352,3315367967,10040986819,646061462,646061466,10040977407,2778806417,2778806418,3315367999,10040814091,646061470,3315368009,2778806424,646061474,9189235735,646061482,2778806428,1638830109,3307473548,10038471648,3307473553,2778806436,3307473558,646061488,2778806439,2778806440,646061493,2778806469,646061497,2778806475,10038420084,646061502,2778806477,2778806482,648538234,2778806495,3307473814,2778806499,648536541,10038420076,2778806501,319754134,2778806504,5781854853,10040814054,2778806508,3308828365,9188521971,2778806523,2778806528,10032606930,2778806532,10032606929,319754141,8462994882,2778806542,1637648629,1637648635,549672002,10032549108,8507179539,3308828704,1638807029,8462994866,9189235776,10032567192,2104228963,9189235758,2104229096,1638807034,1638807036,6563833844,8465159282,2440975725,1617351988,3310577797,1638808033,8989252154,11086085804,3310577802,2395889480,3017399393,6133714756,8989252155,1617351897,5314086293,5314086260,5314086259,5314086258,5314086257,5314086256,6133714729,13336382371,8098634987,3647863392,3647863390,1617351930,3647863388,6133714648,13159081820,3647863382,3647863353,13159081827,6133714647,13159081825,13159081823,3647861716,13159081830,13159081855,13159081852,3647861711,13159081853,13159081856,13159081845,3647861707,3647861706,3647861705,8262483504,13159081801,3647861704,3677945705,3311611299,10566746270,1496873837,1626959170,12647051488,8262483497,1807317102,8262483496,12647051487,8256587110,1496874003,11069724704,8256587111,11058061007,3647863721,1496873915,13456965440,3677947756,11496491518,8261043752,8261043751,8261043750,3679282420,8261043747,8261043746,8261043745,8261043743,8261043742,8256587038,8256587039,13456965416,8267521656,8261043630,13456965419,8261043610,13456965405,13904877779,8261043592,13904877778,13904877781,8261043591,13456965413,12421401486,8261043584,12421401488,3679283205,12421401503,8261043583,8261043582,8261043581,8261043580,8261043537,8261043538,8261043536,8261043535,1629103103,11124478076,8261043533,8261043531,8261043530,8261043532,8261043529,8261012363,8261012362,8261012361,8261012360,12212934833,8261012359,8261012358,8261012357,8261012356,8261012355,8261012354,10869951617,8260827416,8260827417,8260827418,3679340418,8260827419,12202344183,8261012344,8260827420,8261012342,8260827421,8260827422,8260827423,3679343860,8260827426,8260827424,9976399782,3679343918,12200702560,1617352063,3675710694,8260827405,1496873806,1617603683,12202344126,1496873994,3668010086,3668010087,3668010088,8260813975,3675710741,3679344123,8260827402,3675710762,3675710771,3675710782,3675710792,1496873954,3675710826,3675710828,1496874001,1496874002,3675710886,2756141377,8260813974,3675710943,3675710946,3675710959,3675710966,3675711090,3675711118,3675711235,8262483232,1163862376,3675711322,3675711365,1163864094,3675711377,3675711381,3675711384,3675711388,3675711392,3675711394,1163863886,3675711398,3675711401,3675711402,3675711404,1163863161,3675711405,3675711406,3675711407,9880336213,3676484821,8262483231,3676484960,3675711410,8262483229,3675711412,8262483205,8262483206,3679344277,3675711416,1163863924,3675711421,3675711423,8262483119,3675711425,3675711426,3675711427,3675711428,1163862985,3675711429,3675711430,3675711431,3675711432,1163862784,3675711434,3675711435,3675711437,3675711438,1163864299,3675711439,1163863564,3675711443,3675711444,3675711446,1163863602,3675711448,1163862841,3722343240,3722343248,1163862597,3722343254,9459421022,3722343257,3722343259,3722343261,8260160610,1163864348,3722343263,3722343264,3722343266,1163864129,9318487727,9318487728,3741782264,13829815659,4464356682,9880250846,3741782300,3741782304,3741782312,3741782346,4464356675,3741782369,3741782370,3741782371,1130861274,1130861327,1130861175,4464356674,1130861246,1130861081,4464356672,1130861151,4464356673,1130860992,1130860971,1130861228,1130861294,8260160494,1130861130,1130861213,9880250935,8260160493,1130861040,1130861101,4464356670,8260160492,1130860942,4464356668,1130861161,4464356669,1130861008,6127433078,1130861068,4465690033,1131024618,1130861323,11094566993,5433999142,8260160491,1130860986,1130861241,5433999143,8260160490,1130861299,1130861137,1130861127,1130860967,1130861035,1130861291,9880336108,4465690032,1130860936,1130861192,1130861269,1126872876,1126876156,1126874372,1126877197,1126875413,1126873387,4465690031,1126876456,1126874665,5468549536,1126872240,1126875698,4465690030,1126873819,1126876809,4465690029,1126874966,4465690028,1126872625,1126875975,1126874153,5468549537,1126877069,1126875256,5468549538,1126873132,4465690027,1126876285,1126874500,1126877334,12662075701,1126873276,1126876356,10844678152,1126874611,5468549539,1126872143,5468549540,1126875664,1126873732,12662021000,1126908715,6985943741,3802182527,11699276098,6135849727,9896404039,1126874914,1126872550,1126875937,1126908661,12662020983,13902811156,1126874094,13902811157,1126877018,13902811189,6993817492,1126875215,1126908529,1126908717,13902811128,1126873041,1126908653,1126874452,6127452553,6127452554,12662020987,1126877294,6127452556,6993817516,12662020988,1126876560,8972680382,1126874754,8972726719,1126872321,8972726635,1126875794,1126873891,3802210555,8972726637,1126876875,4127346592,3955384350,3955384351,4127346609,3955313665,1126874196,5161985724,11074179650,11074179647,1126876864,8819150556,9146784075,1126872727,12662075891,1126876081,12662075892,1641570610,1641570603,12662075893,1126874232,940914011,1126877290,1126875911,4127346639,9150367640,1126875588,7919723301,1126874444,4960802693,12662075904,4127346572,8816313544,1126875419,3802210553,4127346558,10844705132,1126876468,1126874558,1126872399]},"gtfs":{"agency_id":40,"route_id":135,"services":[{"service_id":"Mo-Su","startTime":"06:00","endTime":"22:00","trip_id":20141710}],"filteredStops":{"nodes":[13502985980,8208217821,659960380,659960379,659960354,5610210853,646065231,2545423147,3017372526,3315367417,646061104,3315367661,9153399870,702511571,3315367694,3017385067,646061203,646061209,646061214,646061453,10040986819,10040977407,3315367999,3315368009,646061474,2778806428,10038471648,3307473558,2778806440,646061497,646061502,648538234,2778806499,2778806501,5781854853,2778806508,2778806523,2778806532,8462994882,1637648635,8507179539,8462994866,2104228963,1638807034,8465159282,3310577797,8989252154,2395889480,8989252155,5314086260,5314086257,13336382371,3647863390,6133714648,3647863353,13159081825,3647861716,13159081852,13159081856,3647861706,13159081801,3311611299,1626959170,1807317102,8256587110,8256587111,1496873915,3677947756,8261043751,8261043747,8261043743,8256587039,8261043630,13456965405,13904877778,13456965413,12421401488,8261043583,8261043581,8261043538,1629103103,8261043531,8261043529,8261012361,8261012359,8261012356,10869951617,8260827418,12202344183,8260827420,8260827422,8260827426,3679343918,3675710694,1617603683,3668010086,8260813975,8260827402,3675710782,3675710826,1496874001,2756141377,3675710946,3675711090,8262483232,3675711365,3675711381,3675711392,3675711398,3675711404,3675711406,9880336213,3676484960,3675711412,3679344277,3675711421,3675711425,3675711428,3675711430,1163862784,3675711437,3675711439,3675711443,1163863602,3722343240,3722343254,3722343259,1163864348,3722343266,9318487728,4464356682,3741782304,4464356675,3741782370,1130861327,1130861246,1130861151,1130860971,8260160494,9880250935,1130861101,1130860942,4464356669,1130861068,1131024618,5433999142,1130861241,1130861299,1130860967,9880336108,1130861192,1126876156,1126875413,1126876456,5468549536,4465690030,4465690029,1126872625,5468549537,5468549538,1126876285,12662075701,10844678152,1126872143,1126873732,1126908715,11699276098,1126874914,1126908661,1126874094,13902811189,1126908529,1126873041,6127452553,1126877294,12662020988,8972680382,1126872321,1126873891,1126876875,3955384351,1126874196,11074179647,9146784075,1126876081,1641570603,940914011,1126875911,1126875588,4960802693,8816313544,4127346558,1126872399],"coordinates":[[-66.1516917,-17.407712200000002],[-66.1515162,-17.407603400000003],[-66.1508022,-17.407629800000002],[-66.1507991,-17.4087701],[-66.1508148,-17.409363300000003],[-66.1510873,-17.411899700000003],[-66.15119460000001,-17.4126857],[-66.1512648,-17.413213600000002],[-66.15154220000001,-17.4154689],[-66.1516634,-17.4165411],[-66.1517309,-17.416735000000003],[-66.1518807,-17.416937700000002],[-66.15193000000001,-17.4170237],[-66.15192760000001,-17.4171072],[-66.15185860000001,-17.4172879],[-66.15180000000001,-17.4176977],[-66.1518959,-17.4183445],[-66.1524139,-17.4192688],[-66.153126,-17.4207496],[-66.15337960000001,-17.4214552],[-66.15360980000001,-17.422226100000003],[-66.1537519,-17.422916800000003],[-66.1538376,-17.4235541],[-66.153884,-17.4242503],[-66.1538754,-17.425012000000002],[-66.1538354,-17.4255217],[-66.1534788,-17.426799900000002],[-66.15318740000001,-17.4273926],[-66.1527384,-17.4280326],[-66.1515746,-17.4291674],[-66.15141290000001,-17.4293926],[-66.15115460000001,-17.4300071],[-66.15094500000001,-17.430394600000003],[-66.1506004,-17.430992500000002],[-66.1500936,-17.4317166],[-66.14966410000001,-17.4323082],[-66.1482313,-17.434234500000002],[-66.1472387,-17.4355684],[-66.1458844,-17.4374059],[-66.1456591,-17.4378575],[-66.14586800000001,-17.437976000000003],[-66.14641870000001,-17.438024300000002],[-66.1471578,-17.4384504],[-66.1484544,-17.4392269],[-66.1487431,-17.4394804],[-66.15028360000001,-17.440326300000002],[-66.15083510000001,-17.4406573],[-66.1521019,-17.441404400000003],[-66.15307800000001,-17.441944000000003],[-66.15345160000001,-17.4422414],[-66.1538945,-17.442646800000002],[-66.15439570000001,-17.4426917],[-66.15474730000001,-17.442751100000002],[-66.1565619,-17.4425469],[-66.15746460000001,-17.4422031],[-66.1583324,-17.441849700000002],[-66.1598833,-17.4411986],[-66.1607479,-17.4408485],[-66.160919,-17.440783900000003],[-66.1621595,-17.4402103],[-66.16254640000001,-17.440109300000003],[-66.1628069,-17.440788100000002],[-66.1634197,-17.4423163],[-66.1636835,-17.443163700000003],[-66.1639603,-17.444157],[-66.1645853,-17.4461312],[-66.1650357,-17.4474823],[-66.1650712,-17.4476383],[-66.1654498,-17.4494395],[-66.1660904,-17.4516332],[-66.16634350000001,-17.452348200000003],[-66.1667201,-17.453735100000003],[-66.16709230000001,-17.4548546],[-66.1674248,-17.456340700000002],[-66.1675819,-17.4571983],[-66.1677844,-17.458247500000002],[-66.16825080000001,-17.460091000000002],[-66.1686404,-17.461626900000002],[-66.16881430000001,-17.462533200000003],[-66.1688838,-17.463326100000003],[-66.1690184,-17.4639966],[-66.16945600000001,-17.465366000000003],[-66.1698063,-17.4669804],[-66.1705987,-17.4702954],[-66.1706017,-17.471217000000003],[-66.17065310000001,-17.4718632],[-66.17112440000001,-17.473464200000002],[-66.17168330000001,-17.4761366],[-66.1721777,-17.478356100000003],[-66.17255800000001,-17.4799206],[-66.1730069,-17.4818752],[-66.17301730000001,-17.4821855],[-66.17260490000001,-17.485188800000003],[-66.1724231,-17.486315100000002],[-66.1721699,-17.4884953],[-66.1720269,-17.4898102],[-66.1720832,-17.4903945],[-66.17236790000001,-17.491503700000003],[-66.1728114,-17.4930755],[-66.172826,-17.494087800000003],[-66.17264300000001,-17.4946173],[-66.17188130000001,-17.496124100000003],[-66.1717759,-17.4969481],[-66.17175350000001,-17.499133200000003],[-66.17177020000001,-17.5006692],[-66.1718905,-17.5024787],[-66.1720452,-17.5033952],[-66.1724226,-17.5041969],[-66.1728071,-17.5046523],[-66.1733349,-17.5050944],[-66.1735015,-17.505397900000002],[-66.1735716,-17.5056876],[-66.17367060000001,-17.506188400000003],[-66.17391810000001,-17.5076481],[-66.1746804,-17.510254600000003],[-66.1750928,-17.5114604],[-66.1765012,-17.5140092],[-66.17833250000001,-17.518340700000003],[-66.17843350000001,-17.5187665],[-66.17839310000001,-17.5191009],[-66.17750170000001,-17.5203291],[-66.1773967,-17.520817700000002],[-66.1776404,-17.521626700000002],[-66.1781838,-17.522164],[-66.181196,-17.523607700000003],[-66.18353730000001,-17.5239449],[-66.1847161,-17.524101400000003],[-66.18546280000001,-17.5242444],[-66.1860403,-17.5244299],[-66.1870761,-17.5249291],[-66.1892373,-17.5259159],[-66.19028540000001,-17.526471500000003],[-66.1925736,-17.528354200000003],[-66.1936118,-17.529214200000002],[-66.1945383,-17.529579100000003],[-66.1970225,-17.5305439],[-66.19807220000001,-17.531597],[-66.19881020000001,-17.531534100000002],[-66.1994604,-17.5309691],[-66.20007380000001,-17.5307633],[-66.200659,-17.531071200000003],[-66.20263600000001,-17.533997300000003],[-66.2033128,-17.534516800000002],[-66.2041284,-17.5347092],[-66.2050325,-17.534667900000002],[-66.2065776,-17.534617700000002],[-66.2074264,-17.534907500000003],[-66.20810460000001,-17.535567],[-66.20882850000001,-17.5366928],[-66.2093255,-17.5369752],[-66.2100532,-17.5373175],[-66.2099403,-17.538085600000002],[-66.2089131,-17.5392854],[-66.20784570000001,-17.539741900000003],[-66.2072227,-17.539952000000003],[-66.20698340000001,-17.54044],[-66.20758710000001,-17.541368700000003],[-66.20761990000001,-17.541844],[-66.2072024,-17.542535200000003],[-66.20737670000001,-17.5431695],[-66.2073603,-17.544346700000002],[-66.20698300000001,-17.5454517],[-66.20631750000001,-17.5457696],[-66.2061274,-17.546058400000003],[-66.2063466,-17.546467200000002],[-66.20804050000001,-17.5470298],[-66.2112816,-17.5480799],[-66.21490920000001,-17.549243200000003],[-66.2167009,-17.5495196],[-66.2178614,-17.5494673],[-66.2185348,-17.549542600000002],[-66.2190774,-17.549695500000002],[-66.2195744,-17.5498575],[-66.2205105,-17.5503013],[-66.221293,-17.550511200000003],[-66.2241449,-17.550842900000003],[-66.22516870000001,-17.550984200000002],[-66.2311904,-17.552757600000003],[-66.23238660000001,-17.5532214],[-66.2336499,-17.553908],[-66.23677760000001,-17.5556778],[-66.2414949,-17.558305800000003],[-66.24419060000001,-17.559797300000003],[-66.2474213,-17.561568400000002],[-66.2491423,-17.562404200000003],[-66.2496878,-17.562235],[-66.25029160000001,-17.5616233],[-66.2502429,-17.560632100000003],[-66.2500603,-17.556147300000003],[-66.2499978,-17.555245600000003],[-66.2493177,-17.552873400000003],[-66.2490671,-17.551935],[-66.2487358,-17.550515100000002]]}}}]}