{"type":"FeatureCollection","features":[{"type":"Feature","properties":{"check_date":"29/12/2025","from":"Calle Carmela Serruto","name":"Trufi 265-liriuni: Calle Carmela Serruto → Liriuni","operator":"Sindicato mixto de trufibuses 3 de noviembre","public_transport:version":"2","ref":"265-liriuni","route":"bus","to":"Liriuni","type":"route","id":20288687},"geometry":{"type":"LineString","coordinates":[[-66.2834367,-17.3931175],[-66.2828923,-17.3930765],[-66.2829766,-17.3924497],[-66.2830373,-17.3918708],[-66.2834421,-17.390676],[-66.2835174,-17.390417],[-66.2836065,-17.3900004],[-66.2836402,-17.3896963],[-66.2836469,-17.3894036],[-66.283624,-17.3882664],[-66.2836442,-17.3874668],[-66.2837516,-17.3870607],[-66.2838212,-17.3867387],[-66.2838103,-17.3859974],[-66.2838349,-17.3846494],[-66.2838661,-17.3843116],[-66.2839841,-17.3834355],[-66.2839953,-17.3833404],[-66.2837081,-17.3821168],[-66.2836679,-17.3818968],[-66.2836363,-17.3816792],[-66.2835936,-17.3808928],[-66.2835529,-17.3799138],[-66.283534,-17.3795048],[-66.2834553,-17.3780004],[-66.2834345,-17.3776023],[-66.283413,-17.3770654],[-66.2833967,-17.3768127],[-66.2833907,-17.3766476],[-66.2833758,-17.3764355],[-66.2833217,-17.3758763],[-66.2832941,-17.3755557],[-66.2832725,-17.3751981],[-66.2832007,-17.3745807],[-66.2831842,-17.3744139],[-66.2831511,-17.3737587],[-66.2830647,-17.3726536],[-66.2830428,-17.3724011],[-66.2830386,-17.3723507],[-66.2830355,-17.3722981],[-66.282976,-17.3710839],[-66.282901,-17.3695421],[-66.2828781,-17.368955],[-66.2828649,-17.3685041],[-66.2828647,-17.3684369],[-66.2828598,-17.3672395],[-66.2828732,-17.3669261],[-66.2828779,-17.3665773],[-66.2828612,-17.3662824],[-66.282785,-17.3658945],[-66.2827358,-17.365625],[-66.2827042,-17.365354],[-66.2827183,-17.3652527],[-66.282761,-17.3651517],[-66.2828402,-17.3650243],[-66.283041,-17.3647823],[-66.2835083,-17.3642162],[-66.2840192,-17.3635974],[-66.2842905,-17.3633146],[-66.284612,-17.3630227],[-66.2849628,-17.3627156],[-66.2850799,-17.362543],[-66.2858147,-17.361091],[-66.2860762,-17.358692],[-66.2863423,-17.3562517],[-66.2867377,-17.3531101],[-66.2872165,-17.3507815],[-66.2874389,-17.3496648],[-66.2874774,-17.3494338],[-66.2874846,-17.3493352],[-66.287486,-17.3492661],[-66.2874833,-17.3491983],[-66.2874697,-17.3491407],[-66.2872453,-17.3482165],[-66.2871808,-17.3479483],[-66.2868801,-17.346784],[-66.2865425,-17.3455062],[-66.2865203,-17.3454177],[-66.2861491,-17.343974],[-66.2861385,-17.3439319],[-66.2860289,-17.3434967],[-66.2859845,-17.3433206],[-66.2857179,-17.342262],[-66.2857061,-17.3422343],[-66.2854723,-17.3413711],[-66.2852496,-17.3405146],[-66.2851357,-17.3400687],[-66.2850472,-17.3397225],[-66.2848261,-17.3389586],[-66.2848177,-17.3389247],[-66.2846512,-17.3382496],[-66.2844554,-17.3374753],[-66.2840889,-17.3360041],[-66.2840765,-17.335954],[-66.283832,-17.3349726],[-66.2837107,-17.3345089],[-66.2835385,-17.333851],[-66.283189,-17.3324678],[-66.2831588,-17.3323553],[-66.2830807,-17.3320263],[-66.2829645,-17.3311937],[-66.2829615,-17.3311707],[-66.2827871,-17.3299646],[-66.2820733,-17.3247687],[-66.2819792,-17.3240347],[-66.2819301,-17.3236513],[-66.2818296,-17.3228669],[-66.2817197,-17.3220912],[-66.281666,-17.3216789],[-66.2815821,-17.321003],[-66.2815516,-17.3206693],[-66.2815416,-17.3203943],[-66.2815852,-17.3200064],[-66.2816113,-17.3198308],[-66.2817228,-17.3192144],[-66.2818687,-17.3187392],[-66.2820662,-17.3182967],[-66.2822979,-17.3179116],[-66.2825811,-17.3175265],[-66.2829158,-17.3171747],[-66.2833536,-17.3168136],[-66.283748,-17.3165493],[-66.2840231,-17.3163301],[-66.2841627,-17.3161779],[-66.2842699,-17.3160505],[-66.2843649,-17.3159061],[-66.2844608,-17.3157074],[-66.2845866,-17.3153335],[-66.284684,-17.3150437],[-66.2847805,-17.3149228],[-66.2848213,-17.3148142],[-66.2850617,-17.3145684],[-66.2851611,-17.3145047],[-66.2853728,-17.3143781],[-66.2857264,-17.3141899],[-66.2861019,-17.3139923],[-66.2871296,-17.3134517],[-66.2880887,-17.3129138],[-66.2895495,-17.3121337],[-66.2901246,-17.3117773],[-66.2907179,-17.3113071],[-66.2910695,-17.310956],[-66.2915232,-17.3105457],[-66.2920912,-17.3101927],[-66.2922571,-17.3100901],[-66.2923873,-17.3100216],[-66.2925378,-17.3099466],[-66.2926809,-17.3099033],[-66.2928231,-17.3098833],[-66.2929913,-17.3098737],[-66.2931032,-17.3098836],[-66.293258,-17.3099335],[-66.2933272,-17.3099756],[-66.2933887,-17.3100232],[-66.2935764,-17.31024],[-66.293879,-17.3106449],[-66.2939598,-17.3107335],[-66.2940267,-17.3107915],[-66.2940657,-17.3107978],[-66.2941171,-17.3108061],[-66.2941961,-17.310795],[-66.294277,-17.3107608],[-66.2943311,-17.3107053],[-66.2943753,-17.3106076],[-66.2943818,-17.3104462],[-66.2943153,-17.3101595],[-66.2943103,-17.3101123],[-66.2941941,-17.3097336],[-66.2941486,-17.3094796],[-66.294123,-17.3087582],[-66.2941091,-17.3084644],[-66.2941481,-17.3081928],[-66.2943695,-17.3075602],[-66.2943725,-17.3072307],[-66.2943737,-17.3071011],[-66.294529,-17.3063342],[-66.2945745,-17.3053326],[-66.2945818,-17.3050574],[-66.2945909,-17.3047978],[-66.2946465,-17.3046565],[-66.2947366,-17.3045181],[-66.294818,-17.3044487],[-66.2949524,-17.3043604],[-66.2950536,-17.3042616],[-66.2952408,-17.3040261],[-66.2953069,-17.3039],[-66.2955993,-17.3032338],[-66.295705,-17.3029542],[-66.2957636,-17.3027616],[-66.2957855,-17.3022472],[-66.2957688,-17.3019867],[-66.2957439,-17.3019096],[-66.2957087,-17.3018496],[-66.2955711,-17.3016296],[-66.2955337,-17.3014866],[-66.2955182,-17.3012995],[-66.2955271,-17.3009841],[-66.2955645,-17.3007382],[-66.2956944,-17.3002],[-66.2958001,-17.3000024],[-66.2959586,-17.2997732],[-66.29617,-17.2995188],[-66.2963241,-17.2993591],[-66.2965509,-17.2991089],[-66.2966126,-17.2990143],[-66.2966434,-17.2988923],[-66.2966434,-17.2987242],[-66.2965245,-17.2982848],[-66.2964563,-17.2978979],[-66.2964629,-17.2977487],[-66.2964805,-17.2976667],[-66.2965245,-17.297591],[-66.2966104,-17.2974985],[-66.2967645,-17.2973303],[-66.2968878,-17.2971747],[-66.2969891,-17.2970024],[-66.297075,-17.2968215],[-66.2971146,-17.2966681],[-66.2971543,-17.2965041],[-66.2972005,-17.2964305],[-66.2972468,-17.2963843],[-66.2973128,-17.2963548],[-66.2973855,-17.2963527],[-66.2974515,-17.2963716],[-66.2977114,-17.2965251],[-66.2977928,-17.2965567],[-66.2978523,-17.2965546],[-66.2979294,-17.2965543],[-66.2979798,-17.296524],[-66.2980227,-17.2964517],[-66.2981384,-17.2959328],[-66.2980804,-17.2959003],[-66.2980547,-17.2957812],[-66.29805,-17.2956645],[-66.2980436,-17.2955195],[-66.2980376,-17.2953224],[-66.2980409,-17.2951073],[-66.2980593,-17.2947585],[-66.2980313,-17.2944754],[-66.2980299,-17.2944612],[-66.2980262,-17.2942152],[-66.2981226,-17.293884],[-66.2981694,-17.2937233],[-66.298162,-17.2934112],[-66.2981366,-17.2931751],[-66.2981375,-17.2931189],[-66.2981391,-17.2930289],[-66.2981442,-17.2929193],[-66.2981391,-17.2928316],[-66.2981391,-17.2926878],[-66.2981366,-17.2925392],[-66.298111,-17.2924125],[-66.2980779,-17.2923126],[-66.2979993,-17.2922632],[-66.2979477,-17.2922834],[-66.2979197,-17.2923492],[-66.2978737,-17.2924418],[-66.2977897,-17.2925141],[-66.2976045,-17.2926722],[-66.297464,-17.2927779],[-66.297398,-17.2928653],[-66.2973405,-17.2928937],[-66.2973171,-17.2928754],[-66.2973171,-17.2927962],[-66.2973554,-17.2926539],[-66.2975427,-17.2923531],[-66.2975605,-17.2922965],[-66.2975683,-17.2922718],[-66.2975689,-17.2921821],[-66.2973984,-17.2923246],[-66.2972516,-17.2924567],[-66.2971121,-17.2925301],[-66.2969763,-17.2925545],[-66.2968635,-17.2925055],[-66.2968147,-17.2924389],[-66.2967964,-17.2923723],[-66.2971382,-17.2910154],[-66.2973317,-17.2903856],[-66.2975938,-17.2897454],[-66.2978484,-17.2893602],[-66.2980079,-17.2890462],[-66.2981033,-17.288903],[-66.298085,-17.2888259],[-66.2980482,-17.2887929],[-66.2979822,-17.2888149],[-66.2978794,-17.2889324],[-66.2976628,-17.2891086],[-66.2974241,-17.2892775],[-66.2973405,-17.2893832],[-66.2972993,-17.2894353],[-66.2969469,-17.2896997],[-66.2967119,-17.2899089],[-66.2965247,-17.2901439],[-66.2963962,-17.2903568],[-66.2962787,-17.2904376],[-66.2960805,-17.2904853],[-66.2959593,-17.2905844],[-66.2957941,-17.2905367],[-66.295706,-17.2903972],[-66.2956289,-17.2901732],[-66.2955812,-17.2899126],[-66.2955115,-17.2897878],[-66.2952104,-17.2895712],[-66.2947442,-17.2893142],[-66.2946561,-17.2892518],[-66.29459,-17.289171],[-66.2945056,-17.2890315],[-66.2944395,-17.2889067],[-66.2943918,-17.2887635],[-66.2943,-17.2886571],[-66.2942229,-17.2884772],[-66.2941311,-17.2881871],[-66.2940687,-17.288044],[-66.2939879,-17.2879742],[-66.293848,-17.2879003],[-66.2936245,-17.2877943],[-66.2933969,-17.2876585],[-66.2932794,-17.2876475],[-66.2931876,-17.2877136],[-66.2930164,-17.2877682],[-66.2927841,-17.287722],[-66.2926731,-17.2877012],[-66.2925748,-17.2876957],[-66.292483,-17.2876619],[-66.2924297,-17.2876254],[-66.2923628,-17.287615],[-66.2922911,-17.287629],[-66.2922567,-17.2876591],[-66.2922402,-17.2876962],[-66.2922376,-17.2877351],[-66.2922649,-17.2877909],[-66.2922927,-17.2878426]],"nodes":[8082619557,309139637,617337157,782026929,783870487,617337204,617337203,4265472484,617337207,783869230,783869032,783870497,617337210,617337216,617337215,617337214,309139579,11353342875,5920871555,8623670580,783869214,3677020789,5483940732,309139577,783870877,5920871511,3677020788,5866174808,5866174809,782027459,7061283281,7943415838,7943415836,7943415834,3677020780,7943415844,3677020782,782028428,11815812138,7943415846,5920871566,5195630449,309139575,783870549,11815803316,7061283302,783871224,11071728009,782027950,782027708,11071728010,782025806,309139574,782026707,783870171,309139573,7061283314,3677020775,309139572,11071728012,782027174,309139571,309139570,7245348241,309139569,782026923,9246680297,309139566,3677020727,11071521042,11071493259,11071521043,309139565,782026297,782026975,782028230,9246680296,4573876017,782026739,11071521044,4573876022,7245348225,782026794,11071521045,4573876025,782027307,9246680272,4573876034,4312210028,11268525908,4312210012,782027145,11268525946,11268525947,5854784237,309139562,8943098175,4573876551,6991201157,782026398,8943095160,5854784086,9343618662,5249627757,5858076226,5858076239,3915743456,782028309,309141108,309139560,2336577936,497213099,497213094,2336577933,497213090,497213074,497213067,497213059,497213045,497213038,497213028,782028381,497213022,11071449965,782026824,497213015,497213008,5854720692,497213002,782026293,497212997,497212993,5854720690,497212987,7927194162,7927194170,782028655,782026740,497212983,497212977,497212971,782027730,497212965,497212958,7918586925,497212950,7918586924,497212946,7918586923,497212935,497212931,497212926,7918586967,497212920,497212914,497212905,497212899,497212884,9234703486,497212876,9234703484,7918586922,497212860,497212850,497212844,9234703487,497212835,497212827,497212820,497212815,497212801,497212797,497212792,7927142964,497212767,7927142919,497212761,3558314262,3558314261,3558314260,3558314259,3558314258,3558314257,3558314256,3558314255,3558314254,3558314253,3558314252,3558314251,3558314250,3558314249,7929624091,3558314248,3558314247,3558314246,3558314245,3558314244,3558314243,3558314242,3558314241,3558314240,3558314239,3558314238,3558314237,3558314236,3558314235,3558314234,3558314233,3558314232,3558314231,3558314230,3558314229,3558314228,3558314227,3558314226,3558314225,3558314224,3558314223,3558314217,3558314215,3558314214,3558314212,3558314211,3558314213,3558314219,3558314222,3558314221,3558314220,3558314218,3558314216,851437604,4129394826,4129394820,4129394813,4129394807,4129394802,4129394794,4129394669,7926531003,4129394648,4129394638,7926530969,4129394618,4129394603,9234703331,9234703535,9234703330,9234703329,9234703328,9234703327,9234703326,9234703325,9234703324,9234703323,9234703322,9234703321,9234703320,9155429120,9155429121,9155429122,9155429123,9155429124,9155429125,9155429126,9155429127,9155429128,9234703319,9155429129,9155429130,4129394435,4129394443,4129394450,4129394449,4129394445,9234703312,4129394439,4129394391,9234703332,4129394122,4129394107,4129394092,4129393986,4129393981,4129393978,4129393979,4129394089,4129394094,4129394100,4234374556,4129394105,4129394113,4129394120,4129394131,4129394141,4129394148,4129394150,4129394156,4129394153,4129394145,4129394132,4129394121,4129394117,4129394109,4129394101,4129394098,4129394096,4129394091,4129393987,4129393977,4129393973,4129393957,4129393930,4129393902,4129393788,4129393782,4129393763,4129393740,4129393736,4129393748,4129393759,4129393758,4129393754,4129393752,4129393746,4129393737,4129393735,4129393739,4236736769,4129393745,4129393753,4129393761,4129393771]},"gtfs":{"agency_id":37,"route_id":138,"services":[{"service_id":"Mo-Su","startTime":"06:00","endTime":"22:00","trip_id":20288687}],"filteredStops":{"nodes":[8082619557,309139637,617337157,782026929,783870487,617337204,617337203,4265472484,617337207,783869230,783869032,783870497,617337210,617337216,617337215,617337214,309139579,11353342875,5920871555,8623670580,783869214,3677020789,5483940732,309139577,783870877,5920871511,3677020788,5866174808,5866174809,782027459,7061283281,7943415838,7943415836,7943415834,3677020780,7943415844,3677020782,782028428,11815812138,7943415846,5920871566,5195630449,309139575,783870549,11815803316,7061283302,783871224,11071728009,782027950,782027708,11071728010,782025806,309139574,782026707,783870171,309139573,7061283314,3677020775,309139572,11071728012,782027174,309139571,309139570,7245348241,309139569,782026923,9246680297,309139566,3677020727,11071521042,11071493259,11071521043,309139565,782026297,782026975,782028230,9246680296,4573876017,782026739,11071521044,4573876022,7245348225,782026794,11071521045,4573876025,782027307,9246680272,4573876034,4312210028,11268525908,4312210012,782027145,11268525946,11268525947,5854784237,309139562,8943098175,4573876551,6991201157,782026398,8943095160,5854784086,9343618662,5249627757,5858076226,5858076239,3915743456,782028309,309141108,309139560,2336577936,497213099,497213094,2336577933,497213090,497213074,497213067,497213059,497213045,497213038,497213028,782028381,497213022,11071449965,782026824,497213015,497213008,5854720692,497213002,782026293,497212997,497212993,5854720690,497212987,7927194162,7927194170,782028655,782026740,497212983,497212977,497212971,782027730,497212965,497212958,7918586925,497212950,7918586924,497212946,7918586923,497212935,497212931,497212926,7918586967,497212920,497212914,497212905,497212899,497212884,9234703486,497212876,9234703484,7918586922,497212860,497212850,497212844,9234703487,497212835,497212827,497212820,497212815,497212801,497212797,497212792,7927142964,497212767,7927142919,497212761,3558314262,3558314261,3558314260,3558314259,3558314258,3558314257,3558314256,3558314255,3558314254,3558314253,3558314252,3558314251,3558314250,3558314249,7929624091,3558314248,3558314247,3558314246,3558314245,3558314244,3558314243,3558314242,3558314241,3558314240,3558314239,3558314238,3558314237,3558314236,3558314235,3558314234,3558314233,3558314232,3558314231,3558314230,3558314229,3558314228,3558314227,3558314226,3558314225,3558314224,3558314223,3558314217,3558314215,3558314214,3558314212,3558314211,3558314213,3558314219,3558314222,3558314221,3558314220,3558314218,3558314216,851437604,4129394826,4129394820,4129394813,4129394807,4129394802,4129394794,4129394669,7926531003,4129394648,4129394638,7926530969,4129394618,4129394603,9234703331,9234703535,9234703330,9234703329,9234703328,9234703327,9234703326,9234703325,9234703324,9234703323,9234703322,9234703321,9234703320,9155429120,9155429121,9155429122,9155429123,9155429124,9155429125,9155429126,9155429127,9155429128,9234703319,9155429129,9155429130,4129394435,4129394443,4129394450,4129394449,4129394445,9234703312,4129394439,4129394391,9234703332,4129394122,4129394107,4129394092,4129393986,4129393981,4129393978,4129393979,4129394089,4129394094,4129394100,4234374556,4129394105,4129394113,4129394120,4129394131,4129394141,4129394148,4129394150,4129394156,4129394153,4129394145,4129394132,4129394121,4129394117,4129394109,4129394101,4129394098,4129394096,4129394091,4129393987,4129393977,4129393973,4129393957,4129393930,4129393902,4129393788,4129393782,4129393763,4129393740,4129393736,4129393748,4129393759,4129393758,4129393754,4129393752,4129393746,4129393737,4129393735,4129393739,4236736769,4129393745,4129393753,4129393761,4129393771],"coordinates":[[-66.2834367,-17.3931175],[-66.2828923,-17.3930765],[-66.2829766,-17.3924497],[-66.2830373,-17.3918708],[-66.2834421,-17.390676],[-66.2835174,-17.390417],[-66.2836065,-17.3900004],[-66.2836402,-17.3896963],[-66.2836469,-17.3894036],[-66.283624,-17.3882664],[-66.2836442,-17.3874668],[-66.2837516,-17.3870607],[-66.2838212,-17.3867387],[-66.2838103,-17.3859974],[-66.2838349,-17.3846494],[-66.2838661,-17.3843116],[-66.2839841,-17.3834355],[-66.2839953,-17.3833404],[-66.2837081,-17.3821168],[-66.2836679,-17.3818968],[-66.2836363,-17.3816792],[-66.2835936,-17.3808928],[-66.2835529,-17.3799138],[-66.283534,-17.3795048],[-66.2834553,-17.3780004],[-66.2834345,-17.3776023],[-66.283413,-17.3770654],[-66.2833967,-17.3768127],[-66.2833907,-17.3766476],[-66.2833758,-17.3764355],[-66.2833217,-17.3758763],[-66.2832941,-17.3755557],[-66.2832725,-17.3751981],[-66.2832007,-17.3745807],[-66.2831842,-17.3744139],[-66.2831511,-17.3737587],[-66.2830647,-17.3726536],[-66.2830428,-17.3724011],[-66.2830386,-17.3723507],[-66.2830355,-17.3722981],[-66.282976,-17.3710839],[-66.282901,-17.3695421],[-66.2828781,-17.368955],[-66.2828649,-17.3685041],[-66.2828647,-17.3684369],[-66.2828598,-17.3672395],[-66.2828732,-17.3669261],[-66.2828779,-17.3665773],[-66.2828612,-17.3662824],[-66.282785,-17.3658945],[-66.2827358,-17.365625],[-66.2827042,-17.365354],[-66.2827183,-17.3652527],[-66.282761,-17.3651517],[-66.2828402,-17.3650243],[-66.283041,-17.3647823],[-66.2835083,-17.3642162],[-66.2840192,-17.3635974],[-66.2842905,-17.3633146],[-66.284612,-17.3630227],[-66.2849628,-17.3627156],[-66.2850799,-17.362543],[-66.2858147,-17.361091],[-66.2860762,-17.358692],[-66.2863423,-17.3562517],[-66.2867377,-17.3531101],[-66.2872165,-17.3507815],[-66.2874389,-17.3496648],[-66.2874774,-17.3494338],[-66.2874846,-17.3493352],[-66.287486,-17.3492661],[-66.2874833,-17.3491983],[-66.2874697,-17.3491407],[-66.2872453,-17.3482165],[-66.2871808,-17.3479483],[-66.2868801,-17.346784],[-66.2865425,-17.3455062],[-66.2865203,-17.3454177],[-66.2861491,-17.343974],[-66.2861385,-17.3439319],[-66.2860289,-17.3434967],[-66.2859845,-17.3433206],[-66.2857179,-17.342262],[-66.2857061,-17.3422343],[-66.2854723,-17.3413711],[-66.2852496,-17.3405146],[-66.2851357,-17.3400687],[-66.2850472,-17.3397225],[-66.2848261,-17.3389586],[-66.2848177,-17.3389247],[-66.2846512,-17.3382496],[-66.2844554,-17.3374753],[-66.2840889,-17.3360041],[-66.2840765,-17.335954],[-66.283832,-17.3349726],[-66.2837107,-17.3345089],[-66.2835385,-17.333851],[-66.283189,-17.3324678],[-66.2831588,-17.3323553],[-66.2830807,-17.3320263],[-66.2829645,-17.3311937],[-66.2829615,-17.3311707],[-66.2827871,-17.3299646],[-66.2820733,-17.3247687],[-66.2819792,-17.3240347],[-66.2819301,-17.3236513],[-66.2818296,-17.3228669],[-66.2817197,-17.3220912],[-66.281666,-17.3216789],[-66.2815821,-17.321003],[-66.2815516,-17.3206693],[-66.2815416,-17.3203943],[-66.2815852,-17.3200064],[-66.2816113,-17.3198308],[-66.2817228,-17.3192144],[-66.2818687,-17.3187392],[-66.2820662,-17.3182967],[-66.2822979,-17.3179116],[-66.2825811,-17.3175265],[-66.2829158,-17.3171747],[-66.2833536,-17.3168136],[-66.283748,-17.3165493],[-66.2840231,-17.3163301],[-66.2841627,-17.3161779],[-66.2842699,-17.3160505],[-66.2843649,-17.3159061],[-66.2844608,-17.3157074],[-66.2845866,-17.3153335],[-66.284684,-17.3150437],[-66.2847805,-17.3149228],[-66.2848213,-17.3148142],[-66.2850617,-17.3145684],[-66.2851611,-17.3145047],[-66.2853728,-17.3143781],[-66.2857264,-17.3141899],[-66.2861019,-17.3139923],[-66.2871296,-17.3134517],[-66.2880887,-17.3129138],[-66.2895495,-17.3121337],[-66.2901246,-17.3117773],[-66.2907179,-17.3113071],[-66.2910695,-17.310956],[-66.2915232,-17.3105457],[-66.2920912,-17.3101927],[-66.2922571,-17.3100901],[-66.2923873,-17.3100216],[-66.2925378,-17.3099466],[-66.2926809,-17.3099033],[-66.2928231,-17.3098833],[-66.2929913,-17.3098737],[-66.2931032,-17.3098836],[-66.293258,-17.3099335],[-66.2933272,-17.3099756],[-66.2933887,-17.3100232],[-66.2935764,-17.31024],[-66.293879,-17.3106449],[-66.2939598,-17.3107335],[-66.2940267,-17.3107915],[-66.2940657,-17.3107978],[-66.2941171,-17.3108061],[-66.2941961,-17.310795],[-66.294277,-17.3107608],[-66.2943311,-17.3107053],[-66.2943753,-17.3106076],[-66.2943818,-17.3104462],[-66.2943153,-17.3101595],[-66.2943103,-17.3101123],[-66.2941941,-17.3097336],[-66.2941486,-17.3094796],[-66.294123,-17.3087582],[-66.2941091,-17.3084644],[-66.2941481,-17.3081928],[-66.2943695,-17.3075602],[-66.2943725,-17.3072307],[-66.2943737,-17.3071011],[-66.294529,-17.3063342],[-66.2945745,-17.3053326],[-66.2945818,-17.3050574],[-66.2945909,-17.3047978],[-66.2946465,-17.3046565],[-66.2947366,-17.3045181],[-66.294818,-17.3044487],[-66.2949524,-17.3043604],[-66.2950536,-17.3042616],[-66.2952408,-17.3040261],[-66.2953069,-17.3039],[-66.2955993,-17.3032338],[-66.295705,-17.3029542],[-66.2957636,-17.3027616],[-66.2957855,-17.3022472],[-66.2957688,-17.3019867],[-66.2957439,-17.3019096],[-66.2957087,-17.3018496],[-66.2955711,-17.3016296],[-66.2955337,-17.3014866],[-66.2955182,-17.3012995],[-66.2955271,-17.3009841],[-66.2955645,-17.3007382],[-66.2956944,-17.3002],[-66.2958001,-17.3000024],[-66.2959586,-17.2997732],[-66.29617,-17.2995188],[-66.2963241,-17.2993591],[-66.2965509,-17.2991089],[-66.2966126,-17.2990143],[-66.2966434,-17.2988923],[-66.2966434,-17.2987242],[-66.2965245,-17.2982848],[-66.2964563,-17.2978979],[-66.2964629,-17.2977487],[-66.2964805,-17.2976667],[-66.2965245,-17.297591],[-66.2966104,-17.2974985],[-66.2967645,-17.2973303],[-66.2968878,-17.2971747],[-66.2969891,-17.2970024],[-66.297075,-17.2968215],[-66.2971146,-17.2966681],[-66.2971543,-17.2965041],[-66.2972005,-17.2964305],[-66.2972468,-17.2963843],[-66.2973128,-17.2963548],[-66.2973855,-17.2963527],[-66.2974515,-17.2963716],[-66.2977114,-17.2965251],[-66.2977928,-17.2965567],[-66.2978523,-17.2965546],[-66.2979294,-17.2965543],[-66.2979798,-17.296524],[-66.2980227,-17.2964517],[-66.2981384,-17.2959328],[-66.2980804,-17.2959003],[-66.2980547,-17.2957812],[-66.29805,-17.2956645],[-66.2980436,-17.2955195],[-66.2980376,-17.2953224],[-66.2980409,-17.2951073],[-66.2980593,-17.2947585],[-66.2980313,-17.2944754],[-66.2980299,-17.2944612],[-66.2980262,-17.2942152],[-66.2981226,-17.293884],[-66.2981694,-17.2937233],[-66.298162,-17.2934112],[-66.2981366,-17.2931751],[-66.2981375,-17.2931189],[-66.2981391,-17.2930289],[-66.2981442,-17.2929193],[-66.2981391,-17.2928316],[-66.2981391,-17.2926878],[-66.2981366,-17.2925392],[-66.298111,-17.2924125],[-66.2980779,-17.2923126],[-66.2979993,-17.2922632],[-66.2979477,-17.2922834],[-66.2979197,-17.2923492],[-66.2978737,-17.2924418],[-66.2977897,-17.2925141],[-66.2976045,-17.2926722],[-66.297464,-17.2927779],[-66.297398,-17.2928653],[-66.2973405,-17.2928937],[-66.2973171,-17.2928754],[-66.2973171,-17.2927962],[-66.2973554,-17.2926539],[-66.2975427,-17.2923531],[-66.2975605,-17.2922965],[-66.2975683,-17.2922718],[-66.2975689,-17.2921821],[-66.2973984,-17.2923246],[-66.2972516,-17.2924567],[-66.2971121,-17.2925301],[-66.2969763,-17.2925545],[-66.2968635,-17.2925055],[-66.2968147,-17.2924389],[-66.2967964,-17.2923723],[-66.2971382,-17.2910154],[-66.2973317,-17.2903856],[-66.2975938,-17.2897454],[-66.2978484,-17.2893602],[-66.2980079,-17.2890462],[-66.2981033,-17.288903],[-66.298085,-17.2888259],[-66.2980482,-17.2887929],[-66.2979822,-17.2888149],[-66.2978794,-17.2889324],[-66.2976628,-17.2891086],[-66.2974241,-17.2892775],[-66.2973405,-17.2893832],[-66.2972993,-17.2894353],[-66.2969469,-17.2896997],[-66.2967119,-17.2899089],[-66.2965247,-17.2901439],[-66.2963962,-17.2903568],[-66.2962787,-17.2904376],[-66.2960805,-17.2904853],[-66.2959593,-17.2905844],[-66.2957941,-17.2905367],[-66.295706,-17.2903972],[-66.2956289,-17.2901732],[-66.2955812,-17.2899126],[-66.2955115,-17.2897878],[-66.2952104,-17.2895712],[-66.2947442,-17.2893142],[-66.2946561,-17.2892518],[-66.29459,-17.289171],[-66.2945056,-17.2890315],[-66.2944395,-17.2889067],[-66.2943918,-17.2887635],[-66.2943,-17.2886571],[-66.2942229,-17.2884772],[-66.2941311,-17.2881871],[-66.2940687,-17.288044],[-66.2939879,-17.2879742],[-66.293848,-17.2879003],[-66.2936245,-17.2877943],[-66.2933969,-17.2876585],[-66.2932794,-17.2876475],[-66.2931876,-17.2877136],[-66.2930164,-17.2877682],[-66.2927841,-17.287722],[-66.2926731,-17.2877012],[-66.2925748,-17.2876957],[-66.292483,-17.2876619],[-66.2924297,-17.2876254],[-66.2923628,-17.287615],[-66.2922911,-17.287629],[-66.2922567,-17.2876591],[-66.2922402,-17.2876962],[-66.2922376,-17.2877351],[-66.2922649,-17.2877909],[-66.2922927,-17.2878426]]}}}]}