{"type":"FeatureCollection","features":[{"type":"Feature","properties":{"check_date":"29/12/2025","description":"Liriuni","from":"Liriuni","name":"Trufi 265: Liriuni → Calle Carmela Serruto","operator":"Sindicato mixto de trufibuses 3 de noviembre","public_transport:version":"2","ref":"265","route":"bus","to":"Calle Carmela Serruto","type":"route","id":20288697},"geometry":{"type":"LineString","coordinates":[[-66.2922927,-17.2878426],[-66.2922649,-17.2877909],[-66.2922376,-17.287735100000003],[-66.29224020000001,-17.287696200000003],[-66.29225670000001,-17.287659100000003],[-66.2922911,-17.287629000000003],[-66.2923628,-17.287615000000002],[-66.2924297,-17.287625400000003],[-66.292483,-17.2876619],[-66.29257480000001,-17.2876957],[-66.2926731,-17.2877012],[-66.2927841,-17.287722000000002],[-66.2930164,-17.287768200000002],[-66.29318760000001,-17.2877136],[-66.2932794,-17.287647500000002],[-66.2933969,-17.287658500000003],[-66.2936245,-17.2877943],[-66.29384800000001,-17.2879003],[-66.2939879,-17.2879742],[-66.29406870000001,-17.288044000000003],[-66.2941311,-17.288187100000002],[-66.29422290000001,-17.288477200000003],[-66.2943,-17.2886571],[-66.2943918,-17.2887635],[-66.29443950000001,-17.288906700000002],[-66.29450560000001,-17.2890315],[-66.29459,-17.289171000000003],[-66.29465610000001,-17.289251800000002],[-66.29474420000001,-17.2893142],[-66.2952104,-17.2895712],[-66.2955115,-17.289787800000003],[-66.2955812,-17.2899126],[-66.29562890000001,-17.2901732],[-66.29570600000001,-17.2903972],[-66.29579410000001,-17.2905367],[-66.2959593,-17.2905844],[-66.2960805,-17.2904853],[-66.2962787,-17.2904376],[-66.2963962,-17.2903568],[-66.2965247,-17.2901439],[-66.2967119,-17.2899089],[-66.29694690000001,-17.2896997],[-66.2972993,-17.2894353],[-66.2973405,-17.289383200000003],[-66.2974241,-17.2892775],[-66.29766280000001,-17.289108600000002],[-66.2978794,-17.2889324],[-66.2979822,-17.288814900000002],[-66.29804820000001,-17.2887929],[-66.298085,-17.288825900000003],[-66.29810330000001,-17.288903],[-66.2980079,-17.2890462],[-66.2978484,-17.2893602],[-66.2975938,-17.2897454],[-66.2973317,-17.2903856],[-66.2971382,-17.291015400000003],[-66.296839,-17.292308400000003],[-66.2968573,-17.292375],[-66.2969061,-17.2924416],[-66.29701890000001,-17.2924906],[-66.29715470000001,-17.2924662],[-66.29729420000001,-17.292392800000002],[-66.297441,-17.2922607],[-66.2974959,-17.2921647],[-66.29752350000001,-17.2921227],[-66.29759650000001,-17.292105300000003],[-66.29759650000001,-17.2921692],[-66.29759650000001,-17.292250600000003],[-66.2974078,-17.2924888],[-66.29734090000001,-17.2926632],[-66.2973226,-17.2927387],[-66.297353,-17.292791],[-66.29742,-17.2927445],[-66.29752950000001,-17.292558600000003],[-66.2976208,-17.2924888],[-66.2977365,-17.2924772],[-66.2978339,-17.292483],[-66.29807120000001,-17.2925876],[-66.2981199,-17.2926399],[-66.29812600000001,-17.292709700000003],[-66.29811380000001,-17.2929014],[-66.29811380000001,-17.2930235],[-66.29816860000001,-17.293174500000003],[-66.298162,-17.2934112],[-66.2981694,-17.2937233],[-66.2981226,-17.293884000000002],[-66.29802620000001,-17.2942152],[-66.2980299,-17.2944612],[-66.2980313,-17.294475400000003],[-66.2980593,-17.2947585],[-66.2980409,-17.2951073],[-66.2980376,-17.2953224],[-66.2980436,-17.2955195],[-66.29805,-17.2956645],[-66.29805470000001,-17.2957812],[-66.2980804,-17.295900300000003],[-66.2981384,-17.295932800000003],[-66.2980227,-17.296451700000002],[-66.29797980000001,-17.296524],[-66.2979294,-17.2965543],[-66.2978523,-17.2965546],[-66.29779280000001,-17.2965567],[-66.29771140000001,-17.2965251],[-66.29745150000001,-17.2963716],[-66.2973855,-17.2963527],[-66.2973128,-17.296354800000003],[-66.29724680000001,-17.296384300000003],[-66.2972005,-17.296430500000003],[-66.2971543,-17.2965041],[-66.2971146,-17.2966681],[-66.297075,-17.2968215],[-66.2969891,-17.2970024],[-66.29688780000001,-17.297174700000003],[-66.29676450000001,-17.297330300000002],[-66.2966104,-17.297498500000003],[-66.2965245,-17.297591],[-66.2964805,-17.2976667],[-66.29646290000001,-17.297748700000003],[-66.2964563,-17.297897900000002],[-66.2965245,-17.2982848],[-66.29664340000001,-17.298724200000002],[-66.29664340000001,-17.298892300000002],[-66.2966126,-17.299014300000003],[-66.2965509,-17.2991089],[-66.2963241,-17.2993591],[-66.29617,-17.2995188],[-66.2959586,-17.2997732],[-66.29580010000001,-17.3000024],[-66.2956944,-17.3002],[-66.29556450000001,-17.3007382],[-66.2955271,-17.3009841],[-66.2955182,-17.301299500000002],[-66.29553370000001,-17.3014866],[-66.2955711,-17.301629600000002],[-66.2957087,-17.3018496],[-66.2957439,-17.301909600000002],[-66.2957688,-17.3019867],[-66.29578550000001,-17.3022472],[-66.2957636,-17.3027616],[-66.29570500000001,-17.302954200000002],[-66.2955993,-17.3032338],[-66.2953069,-17.303900000000002],[-66.2952408,-17.3040261],[-66.2950536,-17.3042616],[-66.2949524,-17.3043604],[-66.294818,-17.304448700000002],[-66.29473660000001,-17.304518100000003],[-66.2946465,-17.3046565],[-66.2945909,-17.304797800000003],[-66.2945818,-17.305057400000003],[-66.29457450000001,-17.3053326],[-66.29452900000001,-17.306334200000002],[-66.29437370000001,-17.3071011],[-66.29437250000001,-17.3072307],[-66.2943695,-17.3075602],[-66.2941481,-17.3081928],[-66.2941091,-17.308464400000002],[-66.294123,-17.3087582],[-66.2941486,-17.309479600000003],[-66.29419410000001,-17.3097336],[-66.2943103,-17.3101123],[-66.29431530000001,-17.3101595],[-66.29438180000001,-17.3104462],[-66.2943753,-17.3106076],[-66.29433110000001,-17.310705300000002],[-66.29427700000001,-17.3107608],[-66.29419610000001,-17.310795000000002],[-66.29411710000001,-17.3108061],[-66.2940657,-17.310797800000003],[-66.2940267,-17.3107915],[-66.29395980000001,-17.3107335],[-66.293879,-17.3106449],[-66.2935764,-17.31024],[-66.29338870000001,-17.3100232],[-66.29332720000001,-17.3099756],[-66.29325800000001,-17.309933500000003],[-66.2931032,-17.309883600000003],[-66.29299130000001,-17.3098737],[-66.2928231,-17.309883300000003],[-66.29268090000001,-17.309903300000002],[-66.2925378,-17.3099466],[-66.2923873,-17.310021600000002],[-66.2922571,-17.3100901],[-66.2920912,-17.3101927],[-66.2915232,-17.310545700000002],[-66.2910695,-17.310956],[-66.2907179,-17.3113071],[-66.29012460000001,-17.311777300000003],[-66.2895495,-17.3121337],[-66.2880887,-17.3129138],[-66.2871296,-17.3134517],[-66.2861019,-17.313992300000002],[-66.2857264,-17.314189900000002],[-66.2853728,-17.314378100000003],[-66.28516110000001,-17.3145047],[-66.2850617,-17.314568400000002],[-66.2848213,-17.3148142],[-66.28478050000001,-17.3149228],[-66.28468400000001,-17.3150437],[-66.28458660000001,-17.3153335],[-66.2844608,-17.3157074],[-66.2843649,-17.315906100000003],[-66.28426990000001,-17.316050500000003],[-66.28416270000001,-17.316177900000003],[-66.2840231,-17.316330100000002],[-66.283748,-17.316549300000002],[-66.28335360000001,-17.316813600000003],[-66.28291580000001,-17.317174700000002],[-66.2825811,-17.317526500000003],[-66.2822979,-17.317911600000002],[-66.2820662,-17.3182967],[-66.2818687,-17.318739200000003],[-66.28172280000001,-17.3192144],[-66.28161130000001,-17.319830800000002],[-66.28158520000001,-17.3200064],[-66.28154160000001,-17.3203943],[-66.2815516,-17.320669300000002],[-66.28158210000001,-17.321003],[-66.281666,-17.321678900000002],[-66.28171970000001,-17.322091200000003],[-66.28182960000001,-17.3228669],[-66.28193010000001,-17.3236513],[-66.28197920000001,-17.324034700000002],[-66.28207330000001,-17.3247687],[-66.28278710000001,-17.3299646],[-66.2829615,-17.3311707],[-66.2829645,-17.3311937],[-66.2830807,-17.332026300000003],[-66.28315880000001,-17.332355300000003],[-66.28318900000001,-17.3324678],[-66.2835385,-17.333851000000003],[-66.2837107,-17.334508900000003],[-66.283832,-17.3349726],[-66.28407650000001,-17.335954],[-66.2840889,-17.3360041],[-66.2844554,-17.3374753],[-66.2846512,-17.3382496],[-66.2848177,-17.3389247],[-66.2848261,-17.3389586],[-66.28504720000001,-17.3397225],[-66.28513570000001,-17.3400687],[-66.2852496,-17.340514600000002],[-66.28547230000001,-17.3413711],[-66.2857061,-17.3422343],[-66.28571790000001,-17.342262],[-66.28598450000001,-17.343320600000002],[-66.2860289,-17.343496700000003],[-66.2861385,-17.3439319],[-66.2861491,-17.343974000000003],[-66.2865203,-17.345417700000002],[-66.28654250000001,-17.345506200000003],[-66.2868801,-17.346784000000003],[-66.2871808,-17.347948300000002],[-66.28724530000001,-17.348216500000003],[-66.2874697,-17.349140700000003],[-66.2874833,-17.3491983],[-66.287486,-17.3492661],[-66.2874846,-17.349335200000002],[-66.2874774,-17.3494338],[-66.28743890000001,-17.349664800000003],[-66.2872165,-17.3507815],[-66.2867377,-17.353110100000002],[-66.2867301,-17.353170700000003],[-66.2863614,-17.3562835],[-66.2861316,-17.3582246],[-66.28607620000001,-17.358692],[-66.2858147,-17.361091000000002],[-66.2850799,-17.362543000000002],[-66.2849628,-17.3627156],[-66.28461200000001,-17.363022700000002],[-66.28429050000001,-17.363314600000002],[-66.2840192,-17.3635974],[-66.28350830000001,-17.3642162],[-66.28304100000001,-17.3647823],[-66.28284020000001,-17.3650243],[-66.28276100000001,-17.365151700000002],[-66.2827183,-17.365252700000003],[-66.28270420000001,-17.365354],[-66.28273580000001,-17.365625],[-66.282785,-17.365894500000003],[-66.2828612,-17.366282400000003],[-66.2828779,-17.366577300000003],[-66.28287320000001,-17.3669261],[-66.28285980000001,-17.3672395],[-66.2828647,-17.368436900000003],[-66.2828649,-17.368504100000003],[-66.2828781,-17.368955000000003],[-66.28290100000001,-17.3695421],[-66.282976,-17.371083900000002],[-66.28303860000001,-17.372350700000002],[-66.28303960000001,-17.3723743],[-66.2830428,-17.3724512],[-66.28306470000001,-17.3727315],[-66.2831393,-17.373781700000002],[-66.2831896,-17.374435700000003],[-66.28320070000001,-17.374580700000003],[-66.28326150000001,-17.375215800000003],[-66.2832941,-17.3755729],[-66.28332540000001,-17.375903800000003],[-66.2833736,-17.3764524],[-66.28339070000001,-17.376647600000002],[-66.28339670000001,-17.376812700000002],[-66.28341300000001,-17.377065400000003],[-66.28343450000001,-17.377602300000003],[-66.2834553,-17.3780004],[-66.283534,-17.379504800000003],[-66.2835529,-17.3799138],[-66.2835936,-17.3808928],[-66.28363630000001,-17.3816792],[-66.28366790000001,-17.3818968],[-66.28370810000001,-17.382116800000002],[-66.2839953,-17.3833404],[-66.28398410000001,-17.3834355],[-66.28386610000001,-17.3843116],[-66.2838349,-17.3846494],[-66.2838103,-17.3859974],[-66.2838212,-17.386738700000002],[-66.2837516,-17.387060700000003],[-66.28364420000001,-17.387466800000002],[-66.283624,-17.388266400000003],[-66.2836355,-17.389429],[-66.28422350000001,-17.389448700000003],[-66.28471760000001,-17.389481],[-66.2847301,-17.3900678],[-66.2847093,-17.3907853],[-66.28469340000001,-17.391977200000003],[-66.2846597,-17.393044900000003],[-66.2846576,-17.393209300000002],[-66.28343670000001,-17.393117500000002],[-66.2828923,-17.393076500000003]],"nodes":[4129393771,4129393761,4129393753,4129393745,4236736769,4129393739,4129393735,4129393737,4129393746,4129393752,4129393754,4129393758,4129393759,4129393748,4129393736,4129393740,4129393763,4129393782,4129393788,4129393902,4129393930,4129393957,4129393973,4129393977,4129393987,4129394091,4129394096,4129394098,4129394101,4129394109,4129394117,4129394121,4129394132,4129394145,4129394153,4129394156,4129394150,4129394148,4129394141,4129394131,4129394120,4129394113,4129394105,4234374556,4129394100,4129394094,4129394089,4129393979,4129393978,4129393981,4129393986,4129394092,4129394107,4129394122,9234703332,4129394391,4129394439,9234703312,4129394445,4129394449,4129394450,4129394443,4129394435,9155429130,13746214059,13746214060,13746214061,13746214062,13746214063,13746214064,13746214065,13746214066,13746214067,13746214068,13746214069,13746214070,13746214071,13746214072,13746214073,13746214074,13746214075,13746214076,13746214077,4129394603,4129394618,7926530969,4129394638,4129394648,7926531003,4129394669,4129394794,4129394802,4129394807,4129394813,4129394820,4129394826,851437604,3558314216,3558314218,3558314220,3558314221,3558314222,3558314219,3558314213,3558314211,3558314212,3558314214,3558314215,3558314217,3558314223,3558314224,3558314225,3558314226,3558314227,3558314228,3558314229,3558314230,3558314231,3558314232,3558314233,3558314234,3558314235,3558314236,3558314237,3558314238,3558314239,3558314240,3558314241,3558314242,3558314243,3558314244,3558314245,3558314246,3558314247,3558314248,7929624091,3558314249,3558314250,3558314251,3558314252,3558314253,3558314254,3558314255,3558314256,3558314257,3558314258,3558314259,3558314260,3558314261,3558314262,497212761,7927142919,497212767,7927142964,497212792,497212797,497212801,497212815,497212820,497212827,497212835,9234703487,497212844,497212850,497212860,7918586922,9234703484,497212876,9234703486,497212884,497212899,497212905,497212914,497212920,7918586967,497212926,497212931,497212935,7918586923,497212946,7918586924,497212950,7918586925,497212958,497212965,782027730,497212971,497212977,497212983,782026740,782028655,7927194170,7927194162,497212987,5854720690,497212993,497212997,782026293,497213002,5854720692,497213008,497213015,782026824,11071449965,497213022,782028381,497213028,497213038,497213045,497213059,497213067,497213074,497213090,2336577933,497213094,497213099,2336577936,309139560,309141108,782028309,3915743456,5858076239,5858076226,5249627757,9343618662,5854784086,8943095160,782026398,6991201157,4573876551,8943098175,309139562,5854784237,11268525947,11268525946,782027145,4312210012,11268525908,4312210028,4573876034,9246680272,782027307,4573876025,11071521045,782026794,7245348225,4573876022,11071521044,782026739,4573876017,9246680296,782028230,782026975,782026297,309139565,11071521043,11071493259,11071521042,3677020727,309139566,9246680297,782026923,13725916221,309139569,13725916235,7245348241,309139570,309139571,782027174,11071728012,309139572,3677020775,7061283314,309139573,783870171,782026707,309139574,782025806,11071728010,782027708,782027950,11071728009,783871224,7061283302,11815803316,783870549,309139575,5195630449,5920871566,11815812138,7943415846,782028428,3677020782,7943415844,3677020780,7943415834,7943415836,7943415838,7061283281,782027459,5866174809,5866174808,3677020788,5920871511,783870877,309139577,5483940732,3677020789,783869214,8623670580,5920871555,11353342875,309139579,617337214,617337215,617337216,617337210,783870497,783869032,783869230,617337207,4265472487,617337206,8221419719,783871061,782026427,783869201,309139587,8082619557,309139637]},"gtfs":{"agency_id":38,"route_id":112,"services":[{"service_id":"Mo-Su","startTime":"06:00","endTime":"22:00","trip_id":20288697}],"filteredStops":{"nodes":[4129393771,4129393761,4129393753,4129393745,4236736769,4129393739,4129393735,4129393737,4129393746,4129393752,4129393754,4129393758,4129393759,4129393748,4129393736,4129393740,4129393763,4129393782,4129393788,4129393902,4129393930,4129393957,4129393973,4129393977,4129393987,4129394091,4129394096,4129394098,4129394101,4129394109,4129394117,4129394121,4129394132,4129394145,4129394153,4129394156,4129394150,4129394148,4129394141,4129394131,4129394120,4129394113,4129394105,4234374556,4129394100,4129394094,4129394089,4129393979,4129393978,4129393981,4129393986,4129394092,4129394107,4129394122,9234703332,4129394391,4129394439,9234703312,4129394445,4129394449,4129394450,4129394443,4129394435,9155429130,13746214059,13746214060,13746214061,13746214062,13746214063,13746214064,13746214065,13746214066,13746214067,13746214068,13746214069,13746214070,13746214071,13746214072,13746214073,13746214074,13746214075,13746214076,13746214077,4129394603,4129394618,7926530969,4129394638,4129394648,7926531003,4129394669,4129394794,4129394802,4129394807,4129394813,4129394820,4129394826,851437604,3558314216,3558314218,3558314220,3558314221,3558314222,3558314219,3558314213,3558314211,3558314212,3558314214,3558314215,3558314217,3558314223,3558314224,3558314225,3558314226,3558314227,3558314228,3558314229,3558314230,3558314231,3558314232,3558314233,3558314234,3558314235,3558314236,3558314237,3558314238,3558314239,3558314240,3558314241,3558314242,3558314243,3558314244,3558314245,3558314246,3558314247,3558314248,7929624091,3558314249,3558314250,3558314251,3558314252,3558314253,3558314254,3558314255,3558314256,3558314257,3558314258,3558314259,3558314260,3558314261,3558314262,497212761,7927142919,497212767,7927142964,497212792,497212797,497212801,497212815,497212820,497212827,497212835,9234703487,497212844,497212850,497212860,7918586922,9234703484,497212876,9234703486,497212884,497212899,497212905,497212914,497212920,7918586967,497212926,497212931,497212935,7918586923,497212946,7918586924,497212950,7918586925,497212958,497212965,782027730,497212971,497212977,497212983,782026740,782028655,7927194170,7927194162,497212987,5854720690,497212993,497212997,782026293,497213002,5854720692,497213008,497213015,782026824,11071449965,497213022,782028381,497213028,497213038,497213045,497213059,497213067,497213074,497213090,2336577933,497213094,497213099,2336577936,309139560,309141108,782028309,3915743456,5858076239,5858076226,5249627757,9343618662,5854784086,8943095160,782026398,6991201157,4573876551,8943098175,309139562,5854784237,11268525947,11268525946,782027145,4312210012,11268525908,4312210028,4573876034,9246680272,782027307,4573876025,11071521045,782026794,7245348225,4573876022,11071521044,782026739,4573876017,9246680296,782028230,782026975,782026297,309139565,11071521043,11071493259,11071521042,3677020727,309139566,9246680297,782026923,13725916221,309139569,13725916235,7245348241,309139570,309139571,782027174,11071728012,309139572,3677020775,7061283314,309139573,783870171,782026707,309139574,782025806,11071728010,782027708,782027950,11071728009,783871224,7061283302,11815803316,783870549,309139575,5195630449,5920871566,11815812138,7943415846,782028428,3677020782,7943415844,3677020780,7943415834,7943415836,7943415838,7061283281,782027459,5866174809,5866174808,3677020788,5920871511,783870877,309139577,5483940732,3677020789,783869214,8623670580,5920871555,11353342875,309139579,617337214,617337215,617337216,617337210,783870497,783869032,783869230,617337207,4265472487,617337206,8221419719,783871061,782026427,783869201,309139587,8082619557,309139637],"coordinates":[[-66.2922927,-17.2878426],[-66.2922649,-17.2877909],[-66.2922376,-17.287735100000003],[-66.29224020000001,-17.287696200000003],[-66.29225670000001,-17.287659100000003],[-66.2922911,-17.287629000000003],[-66.2923628,-17.287615000000002],[-66.2924297,-17.287625400000003],[-66.292483,-17.2876619],[-66.29257480000001,-17.2876957],[-66.2926731,-17.2877012],[-66.2927841,-17.287722000000002],[-66.2930164,-17.287768200000002],[-66.29318760000001,-17.2877136],[-66.2932794,-17.287647500000002],[-66.2933969,-17.287658500000003],[-66.2936245,-17.2877943],[-66.29384800000001,-17.2879003],[-66.2939879,-17.2879742],[-66.29406870000001,-17.288044000000003],[-66.2941311,-17.288187100000002],[-66.29422290000001,-17.288477200000003],[-66.2943,-17.2886571],[-66.2943918,-17.2887635],[-66.29443950000001,-17.288906700000002],[-66.29450560000001,-17.2890315],[-66.29459,-17.289171000000003],[-66.29465610000001,-17.289251800000002],[-66.29474420000001,-17.2893142],[-66.2952104,-17.2895712],[-66.2955115,-17.289787800000003],[-66.2955812,-17.2899126],[-66.29562890000001,-17.2901732],[-66.29570600000001,-17.2903972],[-66.29579410000001,-17.2905367],[-66.2959593,-17.2905844],[-66.2960805,-17.2904853],[-66.2962787,-17.2904376],[-66.2963962,-17.2903568],[-66.2965247,-17.2901439],[-66.2967119,-17.2899089],[-66.29694690000001,-17.2896997],[-66.2972993,-17.2894353],[-66.2973405,-17.289383200000003],[-66.2974241,-17.2892775],[-66.29766280000001,-17.289108600000002],[-66.2978794,-17.2889324],[-66.2979822,-17.288814900000002],[-66.29804820000001,-17.2887929],[-66.298085,-17.288825900000003],[-66.29810330000001,-17.288903],[-66.2980079,-17.2890462],[-66.2978484,-17.2893602],[-66.2975938,-17.2897454],[-66.2973317,-17.2903856],[-66.2971382,-17.291015400000003],[-66.296839,-17.292308400000003],[-66.2968573,-17.292375],[-66.2969061,-17.2924416],[-66.29701890000001,-17.2924906],[-66.29715470000001,-17.2924662],[-66.29729420000001,-17.292392800000002],[-66.297441,-17.2922607],[-66.2974959,-17.2921647],[-66.29752350000001,-17.2921227],[-66.29759650000001,-17.292105300000003],[-66.29759650000001,-17.2921692],[-66.29759650000001,-17.292250600000003],[-66.2974078,-17.2924888],[-66.29734090000001,-17.2926632],[-66.2973226,-17.2927387],[-66.297353,-17.292791],[-66.29742,-17.2927445],[-66.29752950000001,-17.292558600000003],[-66.2976208,-17.2924888],[-66.2977365,-17.2924772],[-66.2978339,-17.292483],[-66.29807120000001,-17.2925876],[-66.2981199,-17.2926399],[-66.29812600000001,-17.292709700000003],[-66.29811380000001,-17.2929014],[-66.29811380000001,-17.2930235],[-66.29816860000001,-17.293174500000003],[-66.298162,-17.2934112],[-66.2981694,-17.2937233],[-66.2981226,-17.293884000000002],[-66.29802620000001,-17.2942152],[-66.2980299,-17.2944612],[-66.2980313,-17.294475400000003],[-66.2980593,-17.2947585],[-66.2980409,-17.2951073],[-66.2980376,-17.2953224],[-66.2980436,-17.2955195],[-66.29805,-17.2956645],[-66.29805470000001,-17.2957812],[-66.2980804,-17.295900300000003],[-66.2981384,-17.295932800000003],[-66.2980227,-17.296451700000002],[-66.29797980000001,-17.296524],[-66.2979294,-17.2965543],[-66.2978523,-17.2965546],[-66.29779280000001,-17.2965567],[-66.29771140000001,-17.2965251],[-66.29745150000001,-17.2963716],[-66.2973855,-17.2963527],[-66.2973128,-17.296354800000003],[-66.29724680000001,-17.296384300000003],[-66.2972005,-17.296430500000003],[-66.2971543,-17.2965041],[-66.2971146,-17.2966681],[-66.297075,-17.2968215],[-66.2969891,-17.2970024],[-66.29688780000001,-17.297174700000003],[-66.29676450000001,-17.297330300000002],[-66.2966104,-17.297498500000003],[-66.2965245,-17.297591],[-66.2964805,-17.2976667],[-66.29646290000001,-17.297748700000003],[-66.2964563,-17.297897900000002],[-66.2965245,-17.2982848],[-66.29664340000001,-17.298724200000002],[-66.29664340000001,-17.298892300000002],[-66.2966126,-17.299014300000003],[-66.2965509,-17.2991089],[-66.2963241,-17.2993591],[-66.29617,-17.2995188],[-66.2959586,-17.2997732],[-66.29580010000001,-17.3000024],[-66.2956944,-17.3002],[-66.29556450000001,-17.3007382],[-66.2955271,-17.3009841],[-66.2955182,-17.301299500000002],[-66.29553370000001,-17.3014866],[-66.2955711,-17.301629600000002],[-66.2957087,-17.3018496],[-66.2957439,-17.301909600000002],[-66.2957688,-17.3019867],[-66.29578550000001,-17.3022472],[-66.2957636,-17.3027616],[-66.29570500000001,-17.302954200000002],[-66.2955993,-17.3032338],[-66.2953069,-17.303900000000002],[-66.2952408,-17.3040261],[-66.2950536,-17.3042616],[-66.2949524,-17.3043604],[-66.294818,-17.304448700000002],[-66.29473660000001,-17.304518100000003],[-66.2946465,-17.3046565],[-66.2945909,-17.304797800000003],[-66.2945818,-17.305057400000003],[-66.29457450000001,-17.3053326],[-66.29452900000001,-17.306334200000002],[-66.29437370000001,-17.3071011],[-66.29437250000001,-17.3072307],[-66.2943695,-17.3075602],[-66.2941481,-17.3081928],[-66.2941091,-17.308464400000002],[-66.294123,-17.3087582],[-66.2941486,-17.309479600000003],[-66.29419410000001,-17.3097336],[-66.2943103,-17.3101123],[-66.29431530000001,-17.3101595],[-66.29438180000001,-17.3104462],[-66.2943753,-17.3106076],[-66.29433110000001,-17.310705300000002],[-66.29427700000001,-17.3107608],[-66.29419610000001,-17.310795000000002],[-66.29411710000001,-17.3108061],[-66.2940657,-17.310797800000003],[-66.2940267,-17.3107915],[-66.29395980000001,-17.3107335],[-66.293879,-17.3106449],[-66.2935764,-17.31024],[-66.29338870000001,-17.3100232],[-66.29332720000001,-17.3099756],[-66.29325800000001,-17.309933500000003],[-66.2931032,-17.309883600000003],[-66.29299130000001,-17.3098737],[-66.2928231,-17.309883300000003],[-66.29268090000001,-17.309903300000002],[-66.2925378,-17.3099466],[-66.2923873,-17.310021600000002],[-66.2922571,-17.3100901],[-66.2920912,-17.3101927],[-66.2915232,-17.310545700000002],[-66.2910695,-17.310956],[-66.2907179,-17.3113071],[-66.29012460000001,-17.311777300000003],[-66.2895495,-17.3121337],[-66.2880887,-17.3129138],[-66.2871296,-17.3134517],[-66.2861019,-17.313992300000002],[-66.2857264,-17.314189900000002],[-66.2853728,-17.314378100000003],[-66.28516110000001,-17.3145047],[-66.2850617,-17.314568400000002],[-66.2848213,-17.3148142],[-66.28478050000001,-17.3149228],[-66.28468400000001,-17.3150437],[-66.28458660000001,-17.3153335],[-66.2844608,-17.3157074],[-66.2843649,-17.315906100000003],[-66.28426990000001,-17.316050500000003],[-66.28416270000001,-17.316177900000003],[-66.2840231,-17.316330100000002],[-66.283748,-17.316549300000002],[-66.28335360000001,-17.316813600000003],[-66.28291580000001,-17.317174700000002],[-66.2825811,-17.317526500000003],[-66.2822979,-17.317911600000002],[-66.2820662,-17.3182967],[-66.2818687,-17.318739200000003],[-66.28172280000001,-17.3192144],[-66.28161130000001,-17.319830800000002],[-66.28158520000001,-17.3200064],[-66.28154160000001,-17.3203943],[-66.2815516,-17.320669300000002],[-66.28158210000001,-17.321003],[-66.281666,-17.321678900000002],[-66.28171970000001,-17.322091200000003],[-66.28182960000001,-17.3228669],[-66.28193010000001,-17.3236513],[-66.28197920000001,-17.324034700000002],[-66.28207330000001,-17.3247687],[-66.28278710000001,-17.3299646],[-66.2829615,-17.3311707],[-66.2829645,-17.3311937],[-66.2830807,-17.332026300000003],[-66.28315880000001,-17.332355300000003],[-66.28318900000001,-17.3324678],[-66.2835385,-17.333851000000003],[-66.2837107,-17.334508900000003],[-66.283832,-17.3349726],[-66.28407650000001,-17.335954],[-66.2840889,-17.3360041],[-66.2844554,-17.3374753],[-66.2846512,-17.3382496],[-66.2848177,-17.3389247],[-66.2848261,-17.3389586],[-66.28504720000001,-17.3397225],[-66.28513570000001,-17.3400687],[-66.2852496,-17.340514600000002],[-66.28547230000001,-17.3413711],[-66.2857061,-17.3422343],[-66.28571790000001,-17.342262],[-66.28598450000001,-17.343320600000002],[-66.2860289,-17.343496700000003],[-66.2861385,-17.3439319],[-66.2861491,-17.343974000000003],[-66.2865203,-17.345417700000002],[-66.28654250000001,-17.345506200000003],[-66.2868801,-17.346784000000003],[-66.2871808,-17.347948300000002],[-66.28724530000001,-17.348216500000003],[-66.2874697,-17.349140700000003],[-66.2874833,-17.3491983],[-66.287486,-17.3492661],[-66.2874846,-17.349335200000002],[-66.2874774,-17.3494338],[-66.28743890000001,-17.349664800000003],[-66.2872165,-17.3507815],[-66.2867377,-17.353110100000002],[-66.2867301,-17.353170700000003],[-66.2863614,-17.3562835],[-66.2861316,-17.3582246],[-66.28607620000001,-17.358692],[-66.2858147,-17.361091000000002],[-66.2850799,-17.362543000000002],[-66.2849628,-17.3627156],[-66.28461200000001,-17.363022700000002],[-66.28429050000001,-17.363314600000002],[-66.2840192,-17.3635974],[-66.28350830000001,-17.3642162],[-66.28304100000001,-17.3647823],[-66.28284020000001,-17.3650243],[-66.28276100000001,-17.365151700000002],[-66.2827183,-17.365252700000003],[-66.28270420000001,-17.365354],[-66.28273580000001,-17.365625],[-66.282785,-17.365894500000003],[-66.2828612,-17.366282400000003],[-66.2828779,-17.366577300000003],[-66.28287320000001,-17.3669261],[-66.28285980000001,-17.3672395],[-66.2828647,-17.368436900000003],[-66.2828649,-17.368504100000003],[-66.2828781,-17.368955000000003],[-66.28290100000001,-17.3695421],[-66.282976,-17.371083900000002],[-66.28303860000001,-17.372350700000002],[-66.28303960000001,-17.3723743],[-66.2830428,-17.3724512],[-66.28306470000001,-17.3727315],[-66.2831393,-17.373781700000002],[-66.2831896,-17.374435700000003],[-66.28320070000001,-17.374580700000003],[-66.28326150000001,-17.375215800000003],[-66.2832941,-17.3755729],[-66.28332540000001,-17.375903800000003],[-66.2833736,-17.3764524],[-66.28339070000001,-17.376647600000002],[-66.28339670000001,-17.376812700000002],[-66.28341300000001,-17.377065400000003],[-66.28343450000001,-17.377602300000003],[-66.2834553,-17.3780004],[-66.283534,-17.379504800000003],[-66.2835529,-17.3799138],[-66.2835936,-17.3808928],[-66.28363630000001,-17.3816792],[-66.28366790000001,-17.3818968],[-66.28370810000001,-17.382116800000002],[-66.2839953,-17.3833404],[-66.28398410000001,-17.3834355],[-66.28386610000001,-17.3843116],[-66.2838349,-17.3846494],[-66.2838103,-17.3859974],[-66.2838212,-17.386738700000002],[-66.2837516,-17.387060700000003],[-66.28364420000001,-17.387466800000002],[-66.283624,-17.388266400000003],[-66.2836355,-17.389429],[-66.28422350000001,-17.389448700000003],[-66.28471760000001,-17.389481],[-66.2847301,-17.3900678],[-66.2847093,-17.3907853],[-66.28469340000001,-17.391977200000003],[-66.2846597,-17.393044900000003],[-66.2846576,-17.393209300000002],[-66.28343670000001,-17.393117500000002],[-66.2828923,-17.393076500000003]]}}},{"type":"Feature","properties":{"highway":"bus_stop","name":"Parada 265","public_transport":"platform","id":13757300081},"geometry":{"type":"Point","coordinates":[-66.29225960000001,-17.2878493]}},{"type":"Feature","properties":{"highway":"bus_stop","name":"Parada 265","public_transport":"platform","id":13757300082},"geometry":{"type":"Point","coordinates":[-66.28295100000001,-17.393112300000002]}}]}