{"type":"FeatureCollection","features":[{"type":"Feature","properties":{"check_date":"29/12/2025","description":"Reducto","from":"Reducto","name":"Trufi 250: Reducto → La Tamborada","operator":"Sindicato mixto de transportistas Tiquipaya","public_transport:version":"2","ref":"250","route":"bus","to":"La Tamborada","type":"route","id":20353089},"geometry":{"type":"LineString","coordinates":[[-66.2210728,-17.3378443],[-66.2213502,-17.3386482],[-66.2216891,-17.339787],[-66.22217690000001,-17.3412788],[-66.22240570000001,-17.3419257],[-66.22258590000001,-17.342420100000002],[-66.22290620000001,-17.3434102],[-66.2232893,-17.3444861],[-66.2235562,-17.345193400000003],[-66.2236244,-17.3453878],[-66.2236417,-17.345426500000002],[-66.22374450000001,-17.3456784],[-66.22399970000001,-17.3464746],[-66.2246954,-17.3488061],[-66.22476900000001,-17.349000800000002],[-66.2251573,-17.3500142],[-66.2254168,-17.3506816],[-66.2258436,-17.3519122],[-66.22591510000001,-17.3521196],[-66.2259315,-17.352169200000002],[-66.2267302,-17.3545798],[-66.2269727,-17.3553041],[-66.22697620000001,-17.3553159],[-66.22699150000001,-17.355365300000003],[-66.2270014,-17.3553964],[-66.2270359,-17.355504],[-66.228024,-17.358406900000002],[-66.2287927,-17.360714400000003],[-66.22967480000001,-17.363410700000003],[-66.229838,-17.363909600000003],[-66.23033760000001,-17.365436600000002],[-66.2305164,-17.365983],[-66.23065290000001,-17.366400300000002],[-66.23090930000001,-17.3671839],[-66.2312965,-17.368422600000002],[-66.23186530000001,-17.370128],[-66.2321519,-17.3709165],[-66.23229950000001,-17.3713897],[-66.2324717,-17.371896300000003],[-66.2339901,-17.376363],[-66.2345437,-17.3780509],[-66.234654,-17.378389400000003],[-66.2358155,-17.381920700000002],[-66.23587420000001,-17.3820841],[-66.23609280000001,-17.382752],[-66.2363097,-17.383375200000003],[-66.23638220000001,-17.3836164],[-66.2363991,-17.383668],[-66.23645400000001,-17.3838192],[-66.2367603,-17.384751400000003],[-66.23679580000001,-17.384856900000003],[-66.23717210000001,-17.386044700000003],[-66.2372026,-17.3861299],[-66.23784970000001,-17.3881045],[-66.23811140000001,-17.3890017],[-66.23813840000001,-17.3890844],[-66.23817190000001,-17.389187300000003],[-66.23846060000001,-17.390056],[-66.23848810000001,-17.3901405],[-66.2385115,-17.3902123],[-66.2386826,-17.3907488],[-66.2386987,-17.390805500000003],[-66.2387279,-17.3908011],[-66.23875740000001,-17.390801900000003],[-66.2387863,-17.390808],[-66.2388157,-17.390822200000002],[-66.2388397,-17.3908364],[-66.2388617,-17.390858400000003],[-66.2388787,-17.3908841],[-66.23888980000001,-17.3909126],[-66.2388947,-17.390942600000002],[-66.2388932,-17.390973000000002],[-66.2388853,-17.3910024],[-66.2388713,-17.3910297],[-66.2388518,-17.3910537],[-66.2388277,-17.3910735],[-66.23878500000001,-17.3910956],[-66.23875550000001,-17.391099500000003],[-66.23872490000001,-17.3910999],[-66.2386949,-17.391094600000002],[-66.2385208,-17.391072100000002],[-66.23834480000001,-17.3910467],[-66.2381859,-17.3910491],[-66.23783080000001,-17.3910656],[-66.23636230000001,-17.391125600000002],[-66.23635920000001,-17.3911257],[-66.2338646,-17.3912258],[-66.2324387,-17.3912917],[-66.23202930000001,-17.391311],[-66.2319827,-17.391310100000002],[-66.23130280000001,-17.3913334],[-66.23093850000001,-17.3913516],[-66.23050210000001,-17.3913727],[-66.23003270000001,-17.391397100000002],[-66.23001740000001,-17.3913979],[-66.22988550000001,-17.3914048],[-66.2298409,-17.3912687]],"nodes":[786837198,786697457,786837371,786837129,3957625487,11078281935,786837274,786837346,7244081884,7244081883,7619165688,11842576898,8282051200,1576392014,4012877368,4012877369,4257977334,10786061698,3957625541,10786061699,7244081874,10803766458,785461568,785461841,10803766459,7553152371,6836009050,1577578145,7244081842,7244081838,4113102065,7244081845,4113102053,4113102054,2340084702,13361779775,7539084657,4113102802,13361779774,792630473,7550103541,10577863295,794303544,792630351,4586486654,792630420,11079137603,9008269151,4586488382,2340084696,6918695296,2354388561,10783741678,794303404,9008315760,792630451,7245257580,794303411,6918680884,792630375,3649896051,7150288216,9355127774,792630390,698491877,9786123322,698491880,9355127783,698491883,9355127782,698491886,9355127781,698491888,9355127780,698491890,698491852,698491857,9355127785,9355127784,698491894,9008269190,4586487875,8317038874,6836037176,793568534,9025874012,793568542,793568567,6282778241,793568556,5605232830,5605232828,8627399434,9786116626,9786116635,2354386800,560084489]},"gtfs":{"agency_id":17,"route_id":128,"services":[{"service_id":"Mo-Su","startTime":"06:00","endTime":"22:00","trip_id":20353089}],"filteredStops":{"nodes":[786837198,786697457,786837371,786837129,3957625487,11078281935,786837274,786837346,7244081884,7244081883,7619165688,11842576898,8282051200,1576392014,4012877368,4012877369,4257977334,10786061698,3957625541,10786061699,7244081874,10803766458,785461568,785461841,10803766459,7553152371,6836009050,1577578145,7244081842,7244081838,4113102065,7244081845,4113102053,4113102054,2340084702,13361779775,7539084657,4113102802,13361779774,792630473,7550103541,10577863295,794303544,792630351,4586486654,792630420,11079137603,9008269151,4586488382,2340084696,6918695296,2354388561,10783741678,794303404,9008315760,792630451,7245257580,794303411,6918680884,792630375,3649896051,7150288216,9355127774,792630390,698491877,9786123322,698491880,9355127783,698491883,9355127782,698491886,9355127781,698491888,9355127780,698491890,698491852,698491857,9355127785,9355127784,698491894,9008269190,4586487875,8317038874,6836037176,793568534,9025874012,793568542,793568567,6282778241,793568556,5605232830,5605232828,8627399434,9786116626,9786116635,2354386800,560084489],"coordinates":[[-66.2210728,-17.3378443],[-66.2213502,-17.3386482],[-66.2216891,-17.339787],[-66.22217690000001,-17.3412788],[-66.22240570000001,-17.3419257],[-66.22258590000001,-17.342420100000002],[-66.22290620000001,-17.3434102],[-66.2232893,-17.3444861],[-66.2235562,-17.345193400000003],[-66.2236244,-17.3453878],[-66.2236417,-17.345426500000002],[-66.22374450000001,-17.3456784],[-66.22399970000001,-17.3464746],[-66.2246954,-17.3488061],[-66.22476900000001,-17.349000800000002],[-66.2251573,-17.3500142],[-66.2254168,-17.3506816],[-66.2258436,-17.3519122],[-66.22591510000001,-17.3521196],[-66.2259315,-17.352169200000002],[-66.2267302,-17.3545798],[-66.2269727,-17.3553041],[-66.22697620000001,-17.3553159],[-66.22699150000001,-17.355365300000003],[-66.2270014,-17.3553964],[-66.2270359,-17.355504],[-66.228024,-17.358406900000002],[-66.2287927,-17.360714400000003],[-66.22967480000001,-17.363410700000003],[-66.229838,-17.363909600000003],[-66.23033760000001,-17.365436600000002],[-66.2305164,-17.365983],[-66.23065290000001,-17.366400300000002],[-66.23090930000001,-17.3671839],[-66.2312965,-17.368422600000002],[-66.23186530000001,-17.370128],[-66.2321519,-17.3709165],[-66.23229950000001,-17.3713897],[-66.2324717,-17.371896300000003],[-66.2339901,-17.376363],[-66.2345437,-17.3780509],[-66.234654,-17.378389400000003],[-66.2358155,-17.381920700000002],[-66.23587420000001,-17.3820841],[-66.23609280000001,-17.382752],[-66.2363097,-17.383375200000003],[-66.23638220000001,-17.3836164],[-66.2363991,-17.383668],[-66.23645400000001,-17.3838192],[-66.2367603,-17.384751400000003],[-66.23679580000001,-17.384856900000003],[-66.23717210000001,-17.386044700000003],[-66.2372026,-17.3861299],[-66.23784970000001,-17.3881045],[-66.23811140000001,-17.3890017],[-66.23813840000001,-17.3890844],[-66.23817190000001,-17.389187300000003],[-66.23846060000001,-17.390056],[-66.23848810000001,-17.3901405],[-66.2385115,-17.3902123],[-66.2386826,-17.3907488],[-66.2386987,-17.390805500000003],[-66.2387279,-17.3908011],[-66.23875740000001,-17.390801900000003],[-66.2387863,-17.390808],[-66.2388157,-17.390822200000002],[-66.2388397,-17.3908364],[-66.2388617,-17.390858400000003],[-66.2388787,-17.3908841],[-66.23888980000001,-17.3909126],[-66.2388947,-17.390942600000002],[-66.2388932,-17.390973000000002],[-66.2388853,-17.3910024],[-66.2388713,-17.3910297],[-66.2388518,-17.3910537],[-66.2388277,-17.3910735],[-66.23878500000001,-17.3910956],[-66.23875550000001,-17.391099500000003],[-66.23872490000001,-17.3910999],[-66.2386949,-17.391094600000002],[-66.2385208,-17.391072100000002],[-66.23834480000001,-17.3910467],[-66.2381859,-17.3910491],[-66.23783080000001,-17.3910656],[-66.23636230000001,-17.391125600000002],[-66.23635920000001,-17.3911257],[-66.2338646,-17.3912258],[-66.2324387,-17.3912917],[-66.23202930000001,-17.391311],[-66.2319827,-17.391310100000002],[-66.23130280000001,-17.3913334],[-66.23093850000001,-17.3913516],[-66.23050210000001,-17.3913727],[-66.23003270000001,-17.391397100000002],[-66.23001740000001,-17.3913979],[-66.22988550000001,-17.3914048],[-66.2298409,-17.3912687]]}}}]}