{"type":"FeatureCollection","features":[{"type":"Feature","properties":{"check_date":"29/12/2025","description":"Olmedo","fixme":"add tags","from":"Esquilan Grande","name":"Trufi 46: Esquilan Grande → Av. Oquendo (UMSS)","operator":"Asociación de taxi trufis 1ro de mayo","public_transport:version":"2","ref":"46","route":"bus","to":"Av. Oquendo (UMSS)","type":"route","id":20389307},"geometry":{"type":"LineString","coordinates":[[-66.2447664,-17.4269542],[-66.24443210000001,-17.4267593],[-66.2439519,-17.426480400000003],[-66.24379130000001,-17.426387100000003],[-66.2434583,-17.4257452],[-66.24326160000001,-17.425855000000002],[-66.2429934,-17.4259881],[-66.2429099,-17.426044],[-66.24282620000001,-17.4261002],[-66.24273020000001,-17.4261646],[-66.24260340000001,-17.4261756],[-66.242373,-17.426182],[-66.24206410000001,-17.426224700000002],[-66.2418816,-17.4263234],[-66.2417439,-17.426458500000003],[-66.24140870000001,-17.4267128],[-66.24095910000001,-17.4269909],[-66.2407853,-17.4271147],[-66.24066230000001,-17.4272023],[-66.2405442,-17.427326500000003],[-66.2403893,-17.427458],[-66.240048,-17.427621700000003],[-66.23988870000001,-17.427734800000003],[-66.23972180000001,-17.427886800000003],[-66.2395762,-17.4280475],[-66.23945950000001,-17.428209600000002],[-66.23942330000001,-17.4283691],[-66.23938220000001,-17.4285037],[-66.2392774,-17.4286555],[-66.23913180000001,-17.428792400000003],[-66.2389194,-17.428879100000003],[-66.23870090000001,-17.428898500000003],[-66.23857740000001,-17.428977600000003],[-66.2384662,-17.4290664],[-66.23842140000001,-17.4292997],[-66.2384827,-17.4294407],[-66.2386761,-17.4297468],[-66.2385952,-17.429846100000002],[-66.23820280000001,-17.430325800000002],[-66.2380445,-17.4304743],[-66.2380201,-17.4305075],[-66.2378125,-17.4307899],[-66.23750910000001,-17.431206900000003],[-66.23718740000001,-17.4314848],[-66.2369237,-17.4317096],[-66.23614590000001,-17.432259300000002],[-66.23592190000001,-17.4324],[-66.2356103,-17.4325678],[-66.23549150000001,-17.4326878],[-66.2354418,-17.4328024],[-66.23532060000001,-17.4330815],[-66.23520500000001,-17.433716500000003],[-66.2350538,-17.4342633],[-66.23496460000001,-17.4346609],[-66.2349112,-17.434864800000003],[-66.2337634,-17.436242500000002],[-66.23358320000001,-17.436460800000003],[-66.2328009,-17.437452800000003],[-66.2327312,-17.4375012],[-66.2320045,-17.4378421],[-66.23185550000001,-17.4379209],[-66.2305568,-17.438551500000003],[-66.2293841,-17.4391208],[-66.22833800000001,-17.439639300000003],[-66.22822740000001,-17.4396887],[-66.2280741,-17.439780300000002],[-66.2279342,-17.4398848],[-66.2278022,-17.440177000000002],[-66.22750540000001,-17.441104000000003],[-66.2273019,-17.4416547],[-66.227148,-17.442071300000002],[-66.2269777,-17.442598200000003],[-66.22645220000001,-17.4422783],[-66.2261342,-17.4420791],[-66.2258073,-17.4418787],[-66.225431,-17.4416683],[-66.2251232,-17.441517400000002],[-66.224721,-17.4413534],[-66.22327680000001,-17.440811500000002],[-66.2226138,-17.440566],[-66.22228580000001,-17.4404471],[-66.22121750000001,-17.4400686],[-66.2192826,-17.439358000000002],[-66.21815400000001,-17.4390171],[-66.2169219,-17.4386531],[-66.2163946,-17.438500400000002],[-66.21605480000001,-17.438402],[-66.2146062,-17.4380232],[-66.21263490000001,-17.437464900000002],[-66.21190700000001,-17.437250600000002],[-66.211208,-17.437044800000002],[-66.2108058,-17.436936900000003],[-66.210414,-17.4368495],[-66.2096133,-17.436673900000002],[-66.20771640000001,-17.4362774],[-66.205854,-17.435893],[-66.2045389,-17.435628],[-66.20367320000001,-17.435449000000002],[-66.2022527,-17.4351591],[-66.2012055,-17.4349358],[-66.20108900000001,-17.434912500000003],[-66.20006620000001,-17.4347095],[-66.192711,-17.4332004],[-66.19266680000001,-17.433190500000002],[-66.19174960000001,-17.4330076],[-66.1907609,-17.432809000000002],[-66.19029130000001,-17.4327076],[-66.18891430000001,-17.4324243],[-66.18651790000001,-17.4319366],[-66.1856745,-17.431762900000003],[-66.18550130000001,-17.4317272],[-66.1852375,-17.4316864],[-66.185084,-17.4316818],[-66.1845854,-17.431735800000002],[-66.18448020000001,-17.4317472],[-66.18424970000001,-17.431734600000002],[-66.18411520000001,-17.431717600000002],[-66.183986,-17.431691100000002],[-66.18395240000001,-17.4316831],[-66.18370990000001,-17.4316177],[-66.183554,-17.431554600000002],[-66.183447,-17.431505],[-66.18332980000001,-17.431443700000003],[-66.1832083,-17.4313617],[-66.18302,-17.431297400000002],[-66.1823284,-17.4307613],[-66.18159610000001,-17.4301865],[-66.18116780000001,-17.429849400000002],[-66.1806062,-17.429411],[-66.1802172,-17.4291066],[-66.1795934,-17.4286184],[-66.1795769,-17.4286055],[-66.1795402,-17.428576900000003],[-66.17950350000001,-17.4285484],[-66.1794375,-17.428571],[-66.1793085,-17.4286154],[-66.1790665,-17.4286937],[-66.1789414,-17.428737400000003],[-66.1788666,-17.4287765],[-66.1787841,-17.428834600000002],[-66.1787255,-17.428897300000003],[-66.17866740000001,-17.4289843],[-66.17858430000001,-17.4290737],[-66.17850440000001,-17.429139900000003],[-66.1784028,-17.429194900000002],[-66.1783817,-17.429199500000003],[-66.17826620000001,-17.429224700000002],[-66.1781644,-17.4292261],[-66.1780945,-17.429211300000002],[-66.1780389,-17.4291918],[-66.1778577,-17.429128600000002],[-66.177805,-17.4291102],[-66.17776660000001,-17.4290968],[-66.1775545,-17.429029800000002],[-66.1772919,-17.428957],[-66.1770654,-17.4288989],[-66.17679980000001,-17.428850200000003],[-66.1765721,-17.4288206],[-66.1762595,-17.4288019],[-66.17600610000001,-17.4287986],[-66.1757709,-17.4288059],[-66.17558340000001,-17.428821000000003],[-66.1753295,-17.428855000000002],[-66.1752366,-17.4288706],[-66.17493420000001,-17.4289355],[-66.17443130000001,-17.429057500000003],[-66.17426920000001,-17.4291054],[-66.17411270000001,-17.4291696],[-66.1739623,-17.4292477],[-66.173806,-17.429352700000003],[-66.1736247,-17.4294909],[-66.17336350000001,-17.429696200000002],[-66.1731925,-17.4298453],[-66.1730247,-17.4300226],[-66.17294220000001,-17.4301208],[-66.1728298,-17.430284],[-66.1727101,-17.4304761],[-66.1726417,-17.430622200000002],[-66.17258340000001,-17.430761500000003],[-66.17253260000001,-17.430924500000003],[-66.1723784,-17.4315672],[-66.1722957,-17.4319354],[-66.1721864,-17.4323865],[-66.1721325,-17.432561300000003],[-66.1720507,-17.432731],[-66.1718233,-17.433143100000002],[-66.1715521,-17.4336518],[-66.1710043,-17.434665600000002],[-66.1709814,-17.434707900000003],[-66.1707683,-17.4350984],[-66.17064280000001,-17.4353257],[-66.170561,-17.435453000000003],[-66.1704806,-17.4355578],[-66.1703866,-17.435669800000003],[-66.1702968,-17.435754600000003],[-66.17017170000001,-17.4358587],[-66.1700114,-17.435971300000002],[-66.16989120000001,-17.4360557],[-66.16948930000001,-17.4363354],[-66.1690525,-17.436659300000002],[-66.1690102,-17.436690600000002],[-66.1689516,-17.4367351],[-66.1689104,-17.436766300000002],[-66.16876400000001,-17.436860000000003],[-66.16865510000001,-17.4369139],[-66.1685216,-17.4369602],[-66.168372,-17.4369942],[-66.16822040000001,-17.437012300000003],[-66.1676875,-17.4370066],[-66.1675347,-17.4370219],[-66.1673813,-17.4370581],[-66.16726340000001,-17.4370958],[-66.1671439,-17.437148],[-66.1670014,-17.4372319],[-66.1664763,-17.4375299],[-66.1656437,-17.438018900000003],[-66.1655817,-17.438055300000002],[-66.16553590000001,-17.437986300000002],[-66.16552650000001,-17.437959600000003],[-66.16552250000001,-17.437830700000003],[-66.1654949,-17.437435200000003],[-66.16422080000001,-17.4374879],[-66.16273190000001,-17.4375904],[-66.1627448,-17.436931400000002],[-66.16276810000001,-17.4363038],[-66.16276140000001,-17.435652700000002],[-66.1627627,-17.435018200000002],[-66.16281380000001,-17.43403],[-66.16268520000001,-17.4340136],[-66.1626006,-17.434009900000003],[-66.1623831,-17.434024800000003],[-66.1622797,-17.434029600000002],[-66.16218540000001,-17.4340042],[-66.1621222,-17.4339635],[-66.1620608,-17.4339057],[-66.16201450000001,-17.4338474],[-66.16199920000001,-17.4337908],[-66.162014,-17.433229],[-66.1620292,-17.432531700000002],[-66.1620809,-17.431265900000003],[-66.16213350000001,-17.430174500000003],[-66.1621442,-17.4299727],[-66.1621611,-17.4298542],[-66.16212,-17.4298542],[-66.1615867,-17.429810800000002],[-66.16141680000001,-17.429797200000003],[-66.16128830000001,-17.4297836],[-66.1611318,-17.4297606],[-66.16097690000001,-17.4297265],[-66.1606685,-17.429660100000003],[-66.16028370000001,-17.4295605],[-66.1598824,-17.429448700000002],[-66.15977240000001,-17.4294201],[-66.1596691,-17.4294012],[-66.1596591,-17.4293668],[-66.15965220000001,-17.4293377],[-66.1592806,-17.428081600000002],[-66.1592069,-17.427828700000003],[-66.1591867,-17.427743900000003],[-66.159143,-17.427560000000003],[-66.1589821,-17.4269791],[-66.1586595,-17.425793000000002],[-66.15864400000001,-17.4257254],[-66.1584892,-17.4250012],[-66.158388,-17.4245278],[-66.1582127,-17.4235733],[-66.1580844,-17.4227889],[-66.15806640000001,-17.4226868],[-66.15793020000001,-17.4218446],[-66.1579202,-17.4217826],[-66.15786390000001,-17.421693],[-66.1575823,-17.421272300000002],[-66.1575037,-17.4211406],[-66.15746750000001,-17.4210563],[-66.15742660000001,-17.420942800000002],[-66.1574399,-17.4205262],[-66.1574408,-17.4204939],[-66.1574454,-17.420344200000002],[-66.1574461,-17.4203231],[-66.15744910000001,-17.420225100000003],[-66.1574669,-17.419824700000003],[-66.15746800000001,-17.4198008],[-66.1574726,-17.4196975],[-66.15747470000001,-17.419645600000003],[-66.15749890000001,-17.4190587],[-66.15745150000001,-17.418701600000002],[-66.15728130000001,-17.417648600000003],[-66.15712830000001,-17.4167263],[-66.1571127,-17.4166415],[-66.1571052,-17.4165892],[-66.15693250000001,-17.4157097],[-66.1569187,-17.4156285],[-66.1568994,-17.415553600000003],[-66.1567407,-17.414597200000003],[-66.15672550000001,-17.414505600000002],[-66.1567196,-17.4143602],[-66.1567186,-17.4142572],[-66.15664120000001,-17.4138349],[-66.1566016,-17.4136172],[-66.1565082,-17.413103200000002],[-66.15647890000001,-17.4129417],[-66.15643220000001,-17.412667300000003],[-66.1564168,-17.4125769],[-66.1563821,-17.412511900000002],[-66.1563418,-17.4124215],[-66.1562645,-17.412016400000002],[-66.15617130000001,-17.4117384],[-66.15603780000001,-17.4113203],[-66.1560072,-17.411224500000003],[-66.1559541,-17.411042700000003],[-66.15597260000001,-17.410806700000002],[-66.15599390000001,-17.410651],[-66.15606650000001,-17.410112400000003],[-66.15619650000001,-17.409290400000003],[-66.15632450000001,-17.4083979],[-66.1563907,-17.407897100000003],[-66.1564025,-17.4077582],[-66.1564075,-17.4076741],[-66.1564172,-17.407578500000003],[-66.15641910000001,-17.4074706],[-66.15645110000001,-17.4073074],[-66.15656840000001,-17.406874900000002],[-66.1566275,-17.406555100000002],[-66.15667470000001,-17.406292200000003],[-66.1568802,-17.4051487],[-66.15698090000001,-17.404591800000002],[-66.1570686,-17.4040687],[-66.15707730000001,-17.404014],[-66.1572388,-17.4029048],[-66.1572759,-17.402622],[-66.15732700000001,-17.402232100000003],[-66.1573377,-17.4021346],[-66.15741440000001,-17.4015643],[-66.1574614,-17.401138300000003],[-66.1574786,-17.400986300000003],[-66.15748430000001,-17.4009417],[-66.1576275,-17.3996977],[-66.1576328,-17.3995669],[-66.1576362,-17.3994821],[-66.1576356,-17.399365500000002],[-66.157638,-17.399311800000003],[-66.1576443,-17.3992052],[-66.1576879,-17.3989051],[-66.15657990000001,-17.398655100000003],[-66.15622570000001,-17.398577300000003],[-66.1554698,-17.398410000000002],[-66.15438900000001,-17.3982226],[-66.15332190000001,-17.398064100000003],[-66.1535317,-17.397006],[-66.15373170000001,-17.3959471],[-66.1526171,-17.3957535],[-66.15150530000001,-17.395542600000002],[-66.15044230000001,-17.3953552],[-66.14962680000001,-17.3952107],[-66.1492527,-17.395144400000003],[-66.14921100000001,-17.395137000000002],[-66.149167,-17.395129200000003],[-66.1491829,-17.395060400000002],[-66.1492372,-17.394778300000002],[-66.1493039,-17.394431500000003],[-66.1493561,-17.3941416],[-66.1493544,-17.394092500000003]],"nodes":[12770621333,12770621335,12770621341,12770621334,10608801958,10608801957,7505286792,12770621350,10608801956,7505286791,7505286790,7505286789,7505286788,10608801939,7505286787,7505286786,7505286785,12812271536,7505272184,12812271540,7505272183,12814462995,8860322074,8860322075,8860322076,8860322077,12812271573,8860322078,8860322079,8860322080,8860322081,8860322082,8860322083,8860322084,8860322085,8109550177,8860322059,8860322057,12813313706,13511212584,8860322056,8860322055,8860322054,8860322053,9555652291,8860322052,3685893914,3685893915,9555652301,12812272329,9555652302,9555652303,9555652304,9555652305,3685894366,4470374593,3685894608,3685894675,3685894676,3685894688,3685894692,4470374845,3685894715,4470375006,3685894724,3685894725,792692696,8961952481,1617619728,3684932092,3684932094,780226967,3690560414,3684932095,780227675,3684932093,780226784,3684932084,780227526,3690560407,3690560406,1629156334,780226647,780227389,3684932064,3684932061,780226503,3684932057,780227231,9006177079,1629156309,780227876,3684932039,3684932034,3690440600,3684932008,7783155515,9006177074,7783155522,2976928537,9612559782,2976928305,1617619516,1626959297,2976928027,12616586650,1626959210,11054281929,1626958487,13088482153,3684931901,780226870,3684931900,13055658876,3684931903,1626959127,10803337065,10803337069,3313353256,780226729,11943965404,11943965405,8766456978,3313353244,8995040994,8995042869,740520282,12458052679,8995040993,7965690216,12564375413,12564375411,13157256886,13149493546,13157256884,13149493547,13149493548,13149493549,13149493550,13153414843,13149493551,13153414842,13149493552,13157367503,13149493553,13157367583,13149493554,13149493555,13157367505,13149511518,13157367507,5314055030,13149493557,13149493558,13149493559,13149493560,13149493561,13149493562,13149493563,13149493564,13157367538,13149493566,13157367534,13149493567,13149493568,13149493569,13149493570,13157367546,13149493571,13149493572,13149493573,13149493574,13149493575,13157367552,13149493576,13149493577,13149493578,13149493579,13157367609,13149493580,13149493581,13149493582,13153414838,13149493583,13149493584,13149493585,13149493586,13336382338,13149493590,13149493591,13149493592,13149493593,13149493594,13157367616,13157367617,13149493595,13157367630,13149493596,13149493597,13157367621,13153414839,13157367637,13149493598,13157367635,13149493599,13149493600,13157367634,13149511501,13149511502,13149511503,13149511504,13149511505,13157367633,13149511506,13149511507,13157367656,13149511508,3017390033,12564375466,12564375467,3017399338,3017399339,3017399340,3017404319,3017405734,8995043186,3017405738,740520299,13140654986,1637702802,3313353373,13140654984,8263292315,7072704938,7072704941,7072704942,7072704944,7072704945,7072704946,7072704947,8995043217,11897484183,3306545378,9944025030,1638041157,9944025023,3306545374,9944025024,1638041145,1638041137,1638041133,1638041128,740519939,13440855942,1499934350,13440855943,5359565138,3307473564,3307473565,1499934256,2149916017,3307354191,1638831967,9191720004,2022073888,1499934157,1499934196,3306658845,12519463516,7768396064,7768396069,1637408408,12519463518,12519463519,1499573838,7768396132,13383715983,12519463525,12519463520,1497953244,13067849852,13067849842,4679599408,13067849850,3307231669,1499934219,1499934269,5433895293,1499934359,5433895295,5433999185,1499934373,5433999188,13764559500,1499934251,3709607020,13764586811,3709607014,13764586828,13764586827,497187494,13764586839,13674975944,13764586810,3709606817,1499934277,1527822563,13674975942,6563373032,1499934333,2763553621,2763553615,560101173,843386144,2763553572,8226219193,2636956076,2763553565,2763553549,2763553542,702511616,2763553534,2763553531,8637299570,843383240,4127346519,310262303,9090462295,310262502,9652874529,310262503,9090462299,9652874536,8637329086,310262504,9593572483,8099780503,2398944655,315111095,1727306403,2398944628,10044108858,310262704,310501000,10003317744,310501001,310501002,308300470,308300469,308300467,310500613,310500614,310500687,9934878052,13410939033,8004756947,303217532,5018719458,2303485397,2303485390,9121465671,303217533]},"gtfs":{"agency_id":2,"route_id":82,"services":[{"service_id":"Mo-Su","startTime":"06:00","endTime":"22:00","trip_id":20389307}],"filteredStops":{"nodes":[12770621333,12770621335,12770621341,12770621334,10608801958,10608801957,7505286792,12770621350,10608801956,7505286791,7505286790,7505286789,7505286788,10608801939,7505286787,7505286786,7505286785,12812271536,7505272184,12812271540,7505272183,12814462995,8860322074,8860322075,8860322076,8860322077,12812271573,8860322078,8860322079,8860322080,8860322081,8860322082,8860322083,8860322084,8860322085,8109550177,8860322059,8860322057,12813313706,13511212584,8860322056,8860322055,8860322054,8860322053,9555652291,8860322052,3685893914,3685893915,9555652301,12812272329,9555652302,9555652303,9555652304,9555652305,3685894366,4470374593,3685894608,3685894675,3685894676,3685894688,3685894692,4470374845,3685894715,4470375006,3685894724,3685894725,792692696,8961952481,1617619728,3684932092,3684932094,780226967,3690560414,3684932095,780227675,3684932093,780226784,3684932084,780227526,3690560407,3690560406,1629156334,780226647,780227389,3684932064,3684932061,780226503,3684932057,780227231,9006177079,1629156309,780227876,3684932039,3684932034,3690440600,3684932008,7783155515,9006177074,7783155522,2976928537,9612559782,2976928305,1617619516,1626959297,2976928027,12616586650,1626959210,11054281929,1626958487,13088482153,3684931901,780226870,3684931900,13055658876,3684931903,1626959127,10803337065,10803337069,3313353256,780226729,11943965404,11943965405,8766456978,3313353244,8995040994,8995042869,740520282,12458052679,8995040993,7965690216,12564375413,12564375411,13157256886,13149493546,13157256884,13149493547,13149493548,13149493549,13149493550,13153414843,13149493551,13153414842,13149493552,13157367503,13149493553,13157367583,13149493554,13149493555,13157367505,13149511518,13157367507,5314055030,13149493557,13149493558,13149493559,13149493560,13149493561,13149493562,13149493563,13149493564,13157367538,13149493566,13157367534,13149493567,13149493568,13149493569,13149493570,13157367546,13149493571,13149493572,13149493573,13149493574,13149493575,13157367552,13149493576,13149493577,13149493578,13149493579,13157367609,13149493580,13149493581,13149493582,13153414838,13149493583,13149493584,13149493585,13149493586,13336382338,13149493590,13149493591,13149493592,13149493593,13149493594,13157367616,13157367617,13149493595,13157367630,13149493596,13149493597,13157367621,13153414839,13157367637,13149493598,13157367635,13149493599,13149493600,13157367634,13149511501,13149511502,13149511503,13149511504,13149511505,13157367633,13149511506,13149511507,13157367656,13149511508,3017390033,12564375466,12564375467,3017399338,3017399339,3017399340,3017404319,3017405734,8995043186,3017405738,740520299,13140654986,1637702802,3313353373,13140654984,8263292315,7072704938,7072704941,7072704942,7072704944,7072704945,7072704946,7072704947,8995043217,11897484183,3306545378,9944025030,1638041157,9944025023,3306545374,9944025024,1638041145,1638041137,1638041133,1638041128,740519939,13440855942,1499934350,13440855943,5359565138,3307473564,3307473565,1499934256,2149916017,3307354191,1638831967,9191720004,2022073888,1499934157,1499934196,3306658845,12519463516,7768396064,7768396069,1637408408,12519463518,12519463519,1499573838,7768396132,13383715983,12519463525,12519463520,1497953244,13067849852,13067849842,4679599408,13067849850,3307231669,1499934219,1499934269,5433895293,1499934359,5433895295,5433999185,1499934373,5433999188,13764559500,1499934251,3709607020,13764586811,3709607014,13764586828,13764586827,497187494,13764586839,13674975944,13764586810,3709606817,1499934277,1527822563,13674975942,6563373032,1499934333,2763553621,2763553615,560101173,843386144,2763553572,8226219193,2636956076,2763553565,2763553549,2763553542,702511616,2763553534,2763553531,8637299570,843383240,4127346519,310262303,9090462295,310262502,9652874529,310262503,9090462299,9652874536,8637329086,310262504,9593572483,8099780503,2398944655,315111095,1727306403,2398944628,10044108858,310262704,310501000,10003317744,310501001,310501002,308300470,308300469,308300467,310500613,310500614,310500687,9934878052,13410939033,8004756947,303217532,5018719458,2303485397,2303485390,9121465671,303217533],"coordinates":[[-66.2447664,-17.4269542],[-66.24443210000001,-17.4267593],[-66.2439519,-17.426480400000003],[-66.24379130000001,-17.426387100000003],[-66.2434583,-17.4257452],[-66.24326160000001,-17.425855000000002],[-66.2429934,-17.4259881],[-66.2429099,-17.426044],[-66.24282620000001,-17.4261002],[-66.24273020000001,-17.4261646],[-66.24260340000001,-17.4261756],[-66.242373,-17.426182],[-66.24206410000001,-17.426224700000002],[-66.2418816,-17.4263234],[-66.2417439,-17.426458500000003],[-66.24140870000001,-17.4267128],[-66.24095910000001,-17.4269909],[-66.2407853,-17.4271147],[-66.24066230000001,-17.4272023],[-66.2405442,-17.427326500000003],[-66.2403893,-17.427458],[-66.240048,-17.427621700000003],[-66.23988870000001,-17.427734800000003],[-66.23972180000001,-17.427886800000003],[-66.2395762,-17.4280475],[-66.23945950000001,-17.428209600000002],[-66.23942330000001,-17.4283691],[-66.23938220000001,-17.4285037],[-66.2392774,-17.4286555],[-66.23913180000001,-17.428792400000003],[-66.2389194,-17.428879100000003],[-66.23870090000001,-17.428898500000003],[-66.23857740000001,-17.428977600000003],[-66.2384662,-17.4290664],[-66.23842140000001,-17.4292997],[-66.2384827,-17.4294407],[-66.2386761,-17.4297468],[-66.2385952,-17.429846100000002],[-66.23820280000001,-17.430325800000002],[-66.2380445,-17.4304743],[-66.2380201,-17.4305075],[-66.2378125,-17.4307899],[-66.23750910000001,-17.431206900000003],[-66.23718740000001,-17.4314848],[-66.2369237,-17.4317096],[-66.23614590000001,-17.432259300000002],[-66.23592190000001,-17.4324],[-66.2356103,-17.4325678],[-66.23549150000001,-17.4326878],[-66.2354418,-17.4328024],[-66.23532060000001,-17.4330815],[-66.23520500000001,-17.433716500000003],[-66.2350538,-17.4342633],[-66.23496460000001,-17.4346609],[-66.2349112,-17.434864800000003],[-66.2337634,-17.436242500000002],[-66.23358320000001,-17.436460800000003],[-66.2328009,-17.437452800000003],[-66.2327312,-17.4375012],[-66.2320045,-17.4378421],[-66.23185550000001,-17.4379209],[-66.2305568,-17.438551500000003],[-66.2293841,-17.4391208],[-66.22833800000001,-17.439639300000003],[-66.22822740000001,-17.4396887],[-66.2280741,-17.439780300000002],[-66.2279342,-17.4398848],[-66.2278022,-17.440177000000002],[-66.22750540000001,-17.441104000000003],[-66.2273019,-17.4416547],[-66.227148,-17.442071300000002],[-66.2269777,-17.442598200000003],[-66.22645220000001,-17.4422783],[-66.2261342,-17.4420791],[-66.2258073,-17.4418787],[-66.225431,-17.4416683],[-66.2251232,-17.441517400000002],[-66.224721,-17.4413534],[-66.22327680000001,-17.440811500000002],[-66.2226138,-17.440566],[-66.22228580000001,-17.4404471],[-66.22121750000001,-17.4400686],[-66.2192826,-17.439358000000002],[-66.21815400000001,-17.4390171],[-66.2169219,-17.4386531],[-66.2163946,-17.438500400000002],[-66.21605480000001,-17.438402],[-66.2146062,-17.4380232],[-66.21263490000001,-17.437464900000002],[-66.21190700000001,-17.437250600000002],[-66.211208,-17.437044800000002],[-66.2108058,-17.436936900000003],[-66.210414,-17.4368495],[-66.2096133,-17.436673900000002],[-66.20771640000001,-17.4362774],[-66.205854,-17.435893],[-66.2045389,-17.435628],[-66.20367320000001,-17.435449000000002],[-66.2022527,-17.4351591],[-66.2012055,-17.4349358],[-66.20108900000001,-17.434912500000003],[-66.20006620000001,-17.4347095],[-66.192711,-17.4332004],[-66.19266680000001,-17.433190500000002],[-66.19174960000001,-17.4330076],[-66.1907609,-17.432809000000002],[-66.19029130000001,-17.4327076],[-66.18891430000001,-17.4324243],[-66.18651790000001,-17.4319366],[-66.1856745,-17.431762900000003],[-66.18550130000001,-17.4317272],[-66.1852375,-17.4316864],[-66.185084,-17.4316818],[-66.1845854,-17.431735800000002],[-66.18448020000001,-17.4317472],[-66.18424970000001,-17.431734600000002],[-66.18411520000001,-17.431717600000002],[-66.183986,-17.431691100000002],[-66.18395240000001,-17.4316831],[-66.18370990000001,-17.4316177],[-66.183554,-17.431554600000002],[-66.183447,-17.431505],[-66.18332980000001,-17.431443700000003],[-66.1832083,-17.4313617],[-66.18302,-17.431297400000002],[-66.1823284,-17.4307613],[-66.18159610000001,-17.4301865],[-66.18116780000001,-17.429849400000002],[-66.1806062,-17.429411],[-66.1802172,-17.4291066],[-66.1795934,-17.4286184],[-66.1795769,-17.4286055],[-66.1795402,-17.428576900000003],[-66.17950350000001,-17.4285484],[-66.1794375,-17.428571],[-66.1793085,-17.4286154],[-66.1790665,-17.4286937],[-66.1789414,-17.428737400000003],[-66.1788666,-17.4287765],[-66.1787841,-17.428834600000002],[-66.1787255,-17.428897300000003],[-66.17866740000001,-17.4289843],[-66.17858430000001,-17.4290737],[-66.17850440000001,-17.429139900000003],[-66.1784028,-17.429194900000002],[-66.1783817,-17.429199500000003],[-66.17826620000001,-17.429224700000002],[-66.1781644,-17.4292261],[-66.1780945,-17.429211300000002],[-66.1780389,-17.4291918],[-66.1778577,-17.429128600000002],[-66.177805,-17.4291102],[-66.17776660000001,-17.4290968],[-66.1775545,-17.429029800000002],[-66.1772919,-17.428957],[-66.1770654,-17.4288989],[-66.17679980000001,-17.428850200000003],[-66.1765721,-17.4288206],[-66.1762595,-17.4288019],[-66.17600610000001,-17.4287986],[-66.1757709,-17.4288059],[-66.17558340000001,-17.428821000000003],[-66.1753295,-17.428855000000002],[-66.1752366,-17.4288706],[-66.17493420000001,-17.4289355],[-66.17443130000001,-17.429057500000003],[-66.17426920000001,-17.4291054],[-66.17411270000001,-17.4291696],[-66.1739623,-17.4292477],[-66.173806,-17.429352700000003],[-66.1736247,-17.4294909],[-66.17336350000001,-17.429696200000002],[-66.1731925,-17.4298453],[-66.1730247,-17.4300226],[-66.17294220000001,-17.4301208],[-66.1728298,-17.430284],[-66.1727101,-17.4304761],[-66.1726417,-17.430622200000002],[-66.17258340000001,-17.430761500000003],[-66.17253260000001,-17.430924500000003],[-66.1723784,-17.4315672],[-66.1722957,-17.4319354],[-66.1721864,-17.4323865],[-66.1721325,-17.432561300000003],[-66.1720507,-17.432731],[-66.1718233,-17.433143100000002],[-66.1715521,-17.4336518],[-66.1710043,-17.434665600000002],[-66.1709814,-17.434707900000003],[-66.1707683,-17.4350984],[-66.17064280000001,-17.4353257],[-66.170561,-17.435453000000003],[-66.1704806,-17.4355578],[-66.1703866,-17.435669800000003],[-66.1702968,-17.435754600000003],[-66.17017170000001,-17.4358587],[-66.1700114,-17.435971300000002],[-66.16989120000001,-17.4360557],[-66.16948930000001,-17.4363354],[-66.1690525,-17.436659300000002],[-66.1690102,-17.436690600000002],[-66.1689516,-17.4367351],[-66.1689104,-17.436766300000002],[-66.16876400000001,-17.436860000000003],[-66.16865510000001,-17.4369139],[-66.1685216,-17.4369602],[-66.168372,-17.4369942],[-66.16822040000001,-17.437012300000003],[-66.1676875,-17.4370066],[-66.1675347,-17.4370219],[-66.1673813,-17.4370581],[-66.16726340000001,-17.4370958],[-66.1671439,-17.437148],[-66.1670014,-17.4372319],[-66.1664763,-17.4375299],[-66.1656437,-17.438018900000003],[-66.1655817,-17.438055300000002],[-66.16553590000001,-17.437986300000002],[-66.16552650000001,-17.437959600000003],[-66.16552250000001,-17.437830700000003],[-66.1654949,-17.437435200000003],[-66.16422080000001,-17.4374879],[-66.16273190000001,-17.4375904],[-66.1627448,-17.436931400000002],[-66.16276810000001,-17.4363038],[-66.16276140000001,-17.435652700000002],[-66.1627627,-17.435018200000002],[-66.16281380000001,-17.43403],[-66.16268520000001,-17.4340136],[-66.1626006,-17.434009900000003],[-66.1623831,-17.434024800000003],[-66.1622797,-17.434029600000002],[-66.16218540000001,-17.4340042],[-66.1621222,-17.4339635],[-66.1620608,-17.4339057],[-66.16201450000001,-17.4338474],[-66.16199920000001,-17.4337908],[-66.162014,-17.433229],[-66.1620292,-17.432531700000002],[-66.1620809,-17.431265900000003],[-66.16213350000001,-17.430174500000003],[-66.1621442,-17.4299727],[-66.1621611,-17.4298542],[-66.16212,-17.4298542],[-66.1615867,-17.429810800000002],[-66.16141680000001,-17.429797200000003],[-66.16128830000001,-17.4297836],[-66.1611318,-17.4297606],[-66.16097690000001,-17.4297265],[-66.1606685,-17.429660100000003],[-66.16028370000001,-17.4295605],[-66.1598824,-17.429448700000002],[-66.15977240000001,-17.4294201],[-66.1596691,-17.4294012],[-66.1596591,-17.4293668],[-66.15965220000001,-17.4293377],[-66.1592806,-17.428081600000002],[-66.1592069,-17.427828700000003],[-66.1591867,-17.427743900000003],[-66.159143,-17.427560000000003],[-66.1589821,-17.4269791],[-66.1586595,-17.425793000000002],[-66.15864400000001,-17.4257254],[-66.1584892,-17.4250012],[-66.158388,-17.4245278],[-66.1582127,-17.4235733],[-66.1580844,-17.4227889],[-66.15806640000001,-17.4226868],[-66.15793020000001,-17.4218446],[-66.1579202,-17.4217826],[-66.15786390000001,-17.421693],[-66.1575823,-17.421272300000002],[-66.1575037,-17.4211406],[-66.15746750000001,-17.4210563],[-66.15742660000001,-17.420942800000002],[-66.1574399,-17.4205262],[-66.1574408,-17.4204939],[-66.1574454,-17.420344200000002],[-66.1574461,-17.4203231],[-66.15744910000001,-17.420225100000003],[-66.1574669,-17.419824700000003],[-66.15746800000001,-17.4198008],[-66.1574726,-17.4196975],[-66.15747470000001,-17.419645600000003],[-66.15749890000001,-17.4190587],[-66.15745150000001,-17.418701600000002],[-66.15728130000001,-17.417648600000003],[-66.15712830000001,-17.4167263],[-66.1571127,-17.4166415],[-66.1571052,-17.4165892],[-66.15693250000001,-17.4157097],[-66.1569187,-17.4156285],[-66.1568994,-17.415553600000003],[-66.1567407,-17.414597200000003],[-66.15672550000001,-17.414505600000002],[-66.1567196,-17.4143602],[-66.1567186,-17.4142572],[-66.15664120000001,-17.4138349],[-66.1566016,-17.4136172],[-66.1565082,-17.413103200000002],[-66.15647890000001,-17.4129417],[-66.15643220000001,-17.412667300000003],[-66.1564168,-17.4125769],[-66.1563821,-17.412511900000002],[-66.1563418,-17.4124215],[-66.1562645,-17.412016400000002],[-66.15617130000001,-17.4117384],[-66.15603780000001,-17.4113203],[-66.1560072,-17.411224500000003],[-66.1559541,-17.411042700000003],[-66.15597260000001,-17.410806700000002],[-66.15599390000001,-17.410651],[-66.15606650000001,-17.410112400000003],[-66.15619650000001,-17.409290400000003],[-66.15632450000001,-17.4083979],[-66.1563907,-17.407897100000003],[-66.1564025,-17.4077582],[-66.1564075,-17.4076741],[-66.1564172,-17.407578500000003],[-66.15641910000001,-17.4074706],[-66.15645110000001,-17.4073074],[-66.15656840000001,-17.406874900000002],[-66.1566275,-17.406555100000002],[-66.15667470000001,-17.406292200000003],[-66.1568802,-17.4051487],[-66.15698090000001,-17.404591800000002],[-66.1570686,-17.4040687],[-66.15707730000001,-17.404014],[-66.1572388,-17.4029048],[-66.1572759,-17.402622],[-66.15732700000001,-17.402232100000003],[-66.1573377,-17.4021346],[-66.15741440000001,-17.4015643],[-66.1574614,-17.401138300000003],[-66.1574786,-17.400986300000003],[-66.15748430000001,-17.4009417],[-66.1576275,-17.3996977],[-66.1576328,-17.3995669],[-66.1576362,-17.3994821],[-66.1576356,-17.399365500000002],[-66.157638,-17.399311800000003],[-66.1576443,-17.3992052],[-66.1576879,-17.3989051],[-66.15657990000001,-17.398655100000003],[-66.15622570000001,-17.398577300000003],[-66.1554698,-17.398410000000002],[-66.15438900000001,-17.3982226],[-66.15332190000001,-17.398064100000003],[-66.1535317,-17.397006],[-66.15373170000001,-17.3959471],[-66.1526171,-17.3957535],[-66.15150530000001,-17.395542600000002],[-66.15044230000001,-17.3953552],[-66.14962680000001,-17.3952107],[-66.1492527,-17.395144400000003],[-66.14921100000001,-17.395137000000002],[-66.149167,-17.395129200000003],[-66.1491829,-17.395060400000002],[-66.1492372,-17.394778300000002],[-66.1493039,-17.394431500000003],[-66.1493561,-17.3941416],[-66.1493544,-17.394092500000003]]}}}]}