{"type":"FeatureCollection","features":[{"type":"Feature","properties":{"check_date":"29/12/2025","description":"Col. Calama","from":"Col. Calama","name":"Trufi Calama: Col. Calama → Pacheco","operator":"Sindicato mixto de autotransporte 6 de agosto Sipe Sipe","public_transport:version":"2","ref":"Calama","route":"bus","to":"Pacheco","type":"route","id":20395613},"geometry":{"type":"LineString","coordinates":[[-66.2795033,-17.3941692],[-66.27879770000001,-17.3940994],[-66.27829600000001,-17.3940485],[-66.2782169,-17.394039000000003],[-66.27816890000001,-17.394033200000003],[-66.27814450000001,-17.3940395],[-66.27811790000001,-17.394044500000003],[-66.27806840000001,-17.394044400000002],[-66.2780201,-17.3940285],[-66.2778794,-17.394015300000003],[-66.27738090000001,-17.393965100000003],[-66.27698430000001,-17.393924000000002],[-66.2768911,-17.3939144],[-66.27613620000001,-17.3938363],[-66.27496330000001,-17.3937285],[-66.27453870000001,-17.3936929],[-66.27442020000001,-17.393684200000003],[-66.27325280000001,-17.393565300000002],[-66.2729886,-17.393549],[-66.27289060000001,-17.393511500000002],[-66.27285210000001,-17.393533100000003],[-66.2730559,-17.3946618],[-66.27307,-17.3947261],[-66.2732462,-17.395704100000003],[-66.2735523,-17.3973945],[-66.27356990000001,-17.3974976],[-66.2737834,-17.398473900000003],[-66.27379570000001,-17.3985485],[-66.27385600000001,-17.3988525],[-66.2739062,-17.3991501],[-66.2739342,-17.399440100000003],[-66.2739688,-17.3998065],[-66.2738645,-17.4007469],[-66.27385000000001,-17.400849800000003],[-66.2738362,-17.400925800000003],[-66.27357710000001,-17.402805400000002],[-66.2735152,-17.403262],[-66.2735001,-17.403661300000003],[-66.2734825,-17.4053608],[-66.27348540000001,-17.407440100000002],[-66.27347400000001,-17.4088108],[-66.2734444,-17.409027000000002],[-66.2734267,-17.4091214],[-66.2729918,-17.410314600000003],[-66.2728436,-17.4107382],[-66.2725422,-17.411515],[-66.2724158,-17.411840700000003],[-66.2723979,-17.411886900000002],[-66.2723297,-17.412062600000002],[-66.2722796,-17.412191800000002],[-66.2721197,-17.4126368],[-66.2719862,-17.413003300000003],[-66.2719715,-17.413220300000003],[-66.2719785,-17.4132783],[-66.27187280000001,-17.4132865],[-66.2718732,-17.4130988],[-66.2719048,-17.412936900000002],[-66.2721961,-17.412185500000003]],"nodes":[8221419846,617198439,7527591106,3192787640,7527591083,11073473498,7527591084,6179669353,7527591077,7527591100,617344406,8221419836,8221419838,781813590,783870512,781813472,8221419798,12487415613,12706842543,2140912563,6917120246,4382907969,4382907972,783870955,11094613734,6774155571,617337161,617337164,10277001890,617198562,10277001889,781813710,3700232964,617200539,5597262742,781813638,8501277735,4571010265,5031163258,781813423,617198556,617198555,781813502,617198554,5871412920,5871412917,5031163309,5031163311,5031163307,4209321374,5031163721,617198553,617198552,11073616021,5871412903,617198529,4571010249,4571010204]},"gtfs":{"agency_id":0,"route_id":140,"services":[{"service_id":"Mo-Su","startTime":"06:00","endTime":"22:00","trip_id":20395613}],"filteredStops":{"nodes":[8221419846,617198439,7527591106,3192787640,7527591083,11073473498,7527591084,6179669353,7527591077,7527591100,617344406,8221419836,8221419838,781813590,783870512,781813472,8221419798,12487415613,12706842543,2140912563,6917120246,4382907969,4382907972,783870955,11094613734,6774155571,617337161,617337164,10277001890,617198562,10277001889,781813710,3700232964,617200539,5597262742,781813638,8501277735,4571010265,5031163258,781813423,617198556,617198555,781813502,617198554,5871412920,5871412917,5031163309,5031163311,5031163307,4209321374,5031163721,617198553,617198552,11073616021,5871412903,617198529,4571010249,4571010204],"coordinates":[[-66.2795033,-17.3941692],[-66.27879770000001,-17.3940994],[-66.27829600000001,-17.3940485],[-66.2782169,-17.394039000000003],[-66.27816890000001,-17.394033200000003],[-66.27814450000001,-17.3940395],[-66.27811790000001,-17.394044500000003],[-66.27806840000001,-17.394044400000002],[-66.2780201,-17.3940285],[-66.2778794,-17.394015300000003],[-66.27738090000001,-17.393965100000003],[-66.27698430000001,-17.393924000000002],[-66.2768911,-17.3939144],[-66.27613620000001,-17.3938363],[-66.27496330000001,-17.3937285],[-66.27453870000001,-17.3936929],[-66.27442020000001,-17.393684200000003],[-66.27325280000001,-17.393565300000002],[-66.2729886,-17.393549],[-66.27289060000001,-17.393511500000002],[-66.27285210000001,-17.393533100000003],[-66.2730559,-17.3946618],[-66.27307,-17.3947261],[-66.2732462,-17.395704100000003],[-66.2735523,-17.3973945],[-66.27356990000001,-17.3974976],[-66.2737834,-17.398473900000003],[-66.27379570000001,-17.3985485],[-66.27385600000001,-17.3988525],[-66.2739062,-17.3991501],[-66.2739342,-17.399440100000003],[-66.2739688,-17.3998065],[-66.2738645,-17.4007469],[-66.27385000000001,-17.400849800000003],[-66.2738362,-17.400925800000003],[-66.27357710000001,-17.402805400000002],[-66.2735152,-17.403262],[-66.2735001,-17.403661300000003],[-66.2734825,-17.4053608],[-66.27348540000001,-17.407440100000002],[-66.27347400000001,-17.4088108],[-66.2734444,-17.409027000000002],[-66.2734267,-17.4091214],[-66.2729918,-17.410314600000003],[-66.2728436,-17.4107382],[-66.2725422,-17.411515],[-66.2724158,-17.411840700000003],[-66.2723979,-17.411886900000002],[-66.2723297,-17.412062600000002],[-66.2722796,-17.412191800000002],[-66.2721197,-17.4126368],[-66.2719862,-17.413003300000003],[-66.2719715,-17.413220300000003],[-66.2719785,-17.4132783],[-66.27187280000001,-17.4132865],[-66.2718732,-17.4130988],[-66.2719048,-17.412936900000002],[-66.2721961,-17.412185500000003]]}}}]}