{"type":"FeatureCollection","features":[{"type":"Feature","properties":{"check_date":"29/12/2025","description":"Reducto","fixme":"add tags","from":"La Tamborada","name":"Trufi 250: La Tamborada → Reducto","operator":"Sindicato mixto de transportistas Tiquipaya","public_transport:version":"2","ref":"250","route":"bus","to":"Reducto","type":"route","id":20390052},"geometry":{"type":"LineString","coordinates":[[-66.2298409,-17.3912687],[-66.23001210000001,-17.3912616],[-66.2305661,-17.3912386],[-66.23202520000001,-17.3911775],[-66.23242710000001,-17.3911635],[-66.23362490000001,-17.3911146],[-66.23459740000001,-17.391074900000003],[-66.2363591,-17.3910045],[-66.2365822,-17.390991800000002],[-66.237921,-17.3909427],[-66.2382125,-17.390907100000003],[-66.23832990000001,-17.390888],[-66.23850750000001,-17.390849900000003],[-66.238539,-17.390845000000002],[-66.23865520000001,-17.3908233],[-66.2386762,-17.390812800000003],[-66.2386987,-17.390805500000003],[-66.2386826,-17.3907488],[-66.2385115,-17.3902123],[-66.23848810000001,-17.3901405],[-66.23846060000001,-17.390056],[-66.23817190000001,-17.389187300000003],[-66.23813840000001,-17.3890844],[-66.23811140000001,-17.3890017],[-66.23784970000001,-17.3881045],[-66.2372026,-17.3861299],[-66.23717210000001,-17.386044700000003],[-66.23679580000001,-17.384856900000003],[-66.2367603,-17.384751400000003],[-66.23645400000001,-17.3838192],[-66.2363991,-17.383668],[-66.23638220000001,-17.3836164],[-66.2363097,-17.383375200000003],[-66.23609280000001,-17.382752],[-66.23587420000001,-17.3820841],[-66.2358155,-17.381920700000002],[-66.234654,-17.378389400000003],[-66.2345437,-17.3780509],[-66.2339901,-17.376363],[-66.2324717,-17.371896300000003],[-66.23229950000001,-17.3713897],[-66.2321519,-17.3709165],[-66.23186530000001,-17.370128],[-66.2312965,-17.368422600000002],[-66.23090930000001,-17.3671839],[-66.23065290000001,-17.366400300000002],[-66.2305164,-17.365983],[-66.23033760000001,-17.365436600000002],[-66.229838,-17.363909600000003],[-66.22967480000001,-17.363410700000003],[-66.2287927,-17.360714400000003],[-66.228024,-17.358406900000002],[-66.2270359,-17.355504],[-66.2270014,-17.3553964],[-66.22699150000001,-17.355365300000003],[-66.22697620000001,-17.3553159],[-66.2269727,-17.3553041],[-66.2267302,-17.3545798],[-66.2259315,-17.352169200000002],[-66.22591510000001,-17.3521196],[-66.2258436,-17.3519122],[-66.2254168,-17.3506816],[-66.2251573,-17.3500142],[-66.22476900000001,-17.349000800000002],[-66.2246954,-17.3488061],[-66.22399970000001,-17.3464746],[-66.22374450000001,-17.3456784],[-66.2236417,-17.345426500000002],[-66.2236244,-17.3453878],[-66.2235562,-17.345193400000003],[-66.2232893,-17.3444861],[-66.22290620000001,-17.3434102],[-66.22258590000001,-17.342420100000002],[-66.22240570000001,-17.3419257],[-66.22217690000001,-17.3412788],[-66.2216891,-17.339787],[-66.2213502,-17.3386482],[-66.2210728,-17.3378443]],"nodes":[560084489,9786116634,8627399436,6282778240,794303535,10837430538,794303398,4586486623,794303570,4586487874,4586487873,8317038876,9008269189,8317038875,698491918,9355127775,7150288216,3649896051,792630375,6918680884,794303411,7245257580,792630451,9008315760,794303404,10783741678,2354388561,6918695296,2340084696,4586488382,9008269151,11079137603,792630420,4586486654,792630351,794303544,10577863295,7550103541,792630473,13361779774,4113102802,7539084657,13361779775,2340084702,4113102054,4113102053,7244081845,4113102065,7244081838,7244081842,1577578145,6836009050,7553152371,10803766459,785461841,785461568,10803766458,7244081874,10786061699,3957625541,10786061698,4257977334,4012877369,4012877368,1576392014,8282051200,11842576898,7619165688,7244081883,7244081884,786837346,786837274,11078281935,3957625487,786837129,786837371,786697457,786837198]},"gtfs":{"agency_id":17,"route_id":128,"services":[{"service_id":"Mo-Su","startTime":"06:00","endTime":"22:00","trip_id":20390052}],"filteredStops":{"nodes":[560084489,9786116634,8627399436,6282778240,794303535,10837430538,794303398,4586486623,794303570,4586487874,4586487873,8317038876,9008269189,8317038875,698491918,9355127775,7150288216,3649896051,792630375,6918680884,794303411,7245257580,792630451,9008315760,794303404,10783741678,2354388561,6918695296,2340084696,4586488382,9008269151,11079137603,792630420,4586486654,792630351,794303544,10577863295,7550103541,792630473,13361779774,4113102802,7539084657,13361779775,2340084702,4113102054,4113102053,7244081845,4113102065,7244081838,7244081842,1577578145,6836009050,7553152371,10803766459,785461841,785461568,10803766458,7244081874,10786061699,3957625541,10786061698,4257977334,4012877369,4012877368,1576392014,8282051200,11842576898,7619165688,7244081883,7244081884,786837346,786837274,11078281935,3957625487,786837129,786837371,786697457,786837198],"coordinates":[[-66.2298409,-17.3912687],[-66.23001210000001,-17.3912616],[-66.2305661,-17.3912386],[-66.23202520000001,-17.3911775],[-66.23242710000001,-17.3911635],[-66.23362490000001,-17.3911146],[-66.23459740000001,-17.391074900000003],[-66.2363591,-17.3910045],[-66.2365822,-17.390991800000002],[-66.237921,-17.3909427],[-66.2382125,-17.390907100000003],[-66.23832990000001,-17.390888],[-66.23850750000001,-17.390849900000003],[-66.238539,-17.390845000000002],[-66.23865520000001,-17.3908233],[-66.2386762,-17.390812800000003],[-66.2386987,-17.390805500000003],[-66.2386826,-17.3907488],[-66.2385115,-17.3902123],[-66.23848810000001,-17.3901405],[-66.23846060000001,-17.390056],[-66.23817190000001,-17.389187300000003],[-66.23813840000001,-17.3890844],[-66.23811140000001,-17.3890017],[-66.23784970000001,-17.3881045],[-66.2372026,-17.3861299],[-66.23717210000001,-17.386044700000003],[-66.23679580000001,-17.384856900000003],[-66.2367603,-17.384751400000003],[-66.23645400000001,-17.3838192],[-66.2363991,-17.383668],[-66.23638220000001,-17.3836164],[-66.2363097,-17.383375200000003],[-66.23609280000001,-17.382752],[-66.23587420000001,-17.3820841],[-66.2358155,-17.381920700000002],[-66.234654,-17.378389400000003],[-66.2345437,-17.3780509],[-66.2339901,-17.376363],[-66.2324717,-17.371896300000003],[-66.23229950000001,-17.3713897],[-66.2321519,-17.3709165],[-66.23186530000001,-17.370128],[-66.2312965,-17.368422600000002],[-66.23090930000001,-17.3671839],[-66.23065290000001,-17.366400300000002],[-66.2305164,-17.365983],[-66.23033760000001,-17.365436600000002],[-66.229838,-17.363909600000003],[-66.22967480000001,-17.363410700000003],[-66.2287927,-17.360714400000003],[-66.228024,-17.358406900000002],[-66.2270359,-17.355504],[-66.2270014,-17.3553964],[-66.22699150000001,-17.355365300000003],[-66.22697620000001,-17.3553159],[-66.2269727,-17.3553041],[-66.2267302,-17.3545798],[-66.2259315,-17.352169200000002],[-66.22591510000001,-17.3521196],[-66.2258436,-17.3519122],[-66.2254168,-17.3506816],[-66.2251573,-17.3500142],[-66.22476900000001,-17.349000800000002],[-66.2246954,-17.3488061],[-66.22399970000001,-17.3464746],[-66.22374450000001,-17.3456784],[-66.2236417,-17.345426500000002],[-66.2236244,-17.3453878],[-66.2235562,-17.345193400000003],[-66.2232893,-17.3444861],[-66.22290620000001,-17.3434102],[-66.22258590000001,-17.342420100000002],[-66.22240570000001,-17.3419257],[-66.22217690000001,-17.3412788],[-66.2216891,-17.339787],[-66.2213502,-17.3386482],[-66.2210728,-17.3378443]]}}}]}