{"type":"FeatureCollection","features":[{"type":"Feature","properties":{"check_date":"46167","description":"Bandera lila","from":"Loreto","name":"Trufi 233: Loreto → Alto Paraiso","network":"BO:CB:Cochabamba","on_demand":"yes","operator":"Sindicato mixto de autotransporte Sacaba","public_transport:version":"2","ref":"233","route":"bus","to":"Alto Paraiso","type":"route","wheelchair":"no","id":20709798},"geometry":{"type":"LineString","coordinates":[[-66.1600033,-17.4227254],[-66.16000700000001,-17.4226005],[-66.1600095,-17.422479000000003],[-66.1600197,-17.422401],[-66.1600425,-17.422339],[-66.1600638,-17.422288],[-66.1601042,-17.4222311],[-66.1602366,-17.422048200000003],[-66.1602608,-17.4219979],[-66.1602678,-17.4219353],[-66.1602617,-17.4218736],[-66.160055,-17.420854900000002],[-66.1600033,-17.420574300000002],[-66.1599934,-17.4205204],[-66.1599142,-17.420105000000003],[-66.159667,-17.418818400000003],[-66.1596358,-17.4186695],[-66.159622,-17.4186042],[-66.1596062,-17.418510100000002],[-66.15970200000001,-17.4183905],[-66.1597713,-17.4183197],[-66.1598589,-17.4182163],[-66.15987270000001,-17.4182029],[-66.1599419,-17.418123700000002],[-66.1605329,-17.417419900000002],[-66.1607541,-17.417152700000003],[-66.1616303,-17.416112400000003],[-66.1617621,-17.415942],[-66.1618409,-17.4158054],[-66.1618948,-17.4156745],[-66.16192930000001,-17.415561200000003],[-66.1619455,-17.415474800000002],[-66.1619546,-17.4154263],[-66.1619881,-17.415246],[-66.16197910000001,-17.415197600000003],[-66.1618973,-17.4149838],[-66.1618323,-17.414830400000003],[-66.16175630000001,-17.414678700000003],[-66.16168230000001,-17.414576500000003],[-66.1615955,-17.414480400000002],[-66.1614895,-17.414395300000002],[-66.16124400000001,-17.414205900000002],[-66.1610928,-17.414089200000003],[-66.1609482,-17.4139775],[-66.1606325,-17.41372],[-66.1597972,-17.413080800000003],[-66.1597529,-17.413057300000002],[-66.1597139,-17.413042800000003],[-66.15960980000001,-17.413004200000003],[-66.1595691,-17.413007200000003],[-66.1595587,-17.413006900000003],[-66.1595341,-17.4130021],[-66.1595108,-17.4129933],[-66.1594893,-17.412980800000003],[-66.1594704,-17.4129651],[-66.1594546,-17.412946400000003],[-66.15944230000001,-17.4129255],[-66.1594381,-17.412915700000003],[-66.1594297,-17.4128793],[-66.15938680000001,-17.412786500000003],[-66.15936140000001,-17.412754000000003],[-66.1593361,-17.412729000000002],[-66.1593277,-17.412718100000003],[-66.1586145,-17.412142600000003],[-66.15857390000001,-17.412065300000002],[-66.15839860000001,-17.4119835],[-66.1580895,-17.411881100000002],[-66.1578284,-17.4117712],[-66.1576313,-17.411657700000003],[-66.15751920000001,-17.4115684],[-66.1573365,-17.411404700000002],[-66.1571423,-17.41123],[-66.1570794,-17.4111663],[-66.15704170000001,-17.4111222],[-66.15700220000001,-17.411067600000003],[-66.1569848,-17.4110404],[-66.1569673,-17.4110131],[-66.15695260000001,-17.4109796],[-66.1569456,-17.410963600000002],[-66.1569386,-17.4109476],[-66.15693540000001,-17.410928600000002],[-66.1569326,-17.41091],[-66.1569262,-17.4108774],[-66.15691740000001,-17.410825900000003],[-66.156869,-17.410647200000003],[-66.15686380000001,-17.410628300000003],[-66.1568561,-17.410599700000002],[-66.1568278,-17.4105306],[-66.15669190000001,-17.4101809],[-66.1566909,-17.410101100000002],[-66.1567026,-17.4099988],[-66.1567172,-17.4097636],[-66.15676160000001,-17.4094479],[-66.1570538,-17.407884600000003],[-66.15717280000001,-17.4072566],[-66.15711750000001,-17.4072476],[-66.15708950000001,-17.407250700000002],[-66.1570465,-17.407267100000002],[-66.15699020000001,-17.4073032],[-66.1565791,-17.4075962],[-66.1565563,-17.4076123],[-66.1565296,-17.4076206],[-66.15649060000001,-17.407622],[-66.1564518,-17.4076078],[-66.1564172,-17.407578500000003],[-66.15641910000001,-17.4074706],[-66.15645110000001,-17.4073074],[-66.15656840000001,-17.406874900000002],[-66.1566275,-17.406555100000002],[-66.15667470000001,-17.406292200000003],[-66.1568802,-17.4051487],[-66.15698090000001,-17.404591800000002],[-66.1570686,-17.4040687],[-66.15707730000001,-17.404014],[-66.1572388,-17.4029048],[-66.1572759,-17.402622],[-66.15732700000001,-17.402232100000003],[-66.1573377,-17.4021346],[-66.15741440000001,-17.4015643],[-66.1574614,-17.401138300000003],[-66.1574786,-17.400986300000003],[-66.15748430000001,-17.4009417],[-66.1576275,-17.3996977],[-66.1576328,-17.3995669],[-66.1576362,-17.3994821],[-66.1575773,-17.3994804],[-66.1575564,-17.3994809],[-66.15687890000001,-17.399583],[-66.1567734,-17.399591700000002],[-66.15649140000001,-17.3995873],[-66.1564225,-17.399578100000003],[-66.1563588,-17.399573500000002],[-66.1553353,-17.399349100000002],[-66.15528330000001,-17.399337600000003],[-66.155229,-17.399324800000002],[-66.15427310000001,-17.399099500000002],[-66.1542062,-17.399083700000002],[-66.1541493,-17.3990703],[-66.1531927,-17.3988455],[-66.1531252,-17.398830500000003],[-66.15274790000001,-17.3987355],[-66.15272030000001,-17.3987266],[-66.15265930000001,-17.3987069],[-66.15221890000001,-17.3985461],[-66.15207910000001,-17.398505500000002],[-66.1519978,-17.3984954],[-66.15184160000001,-17.3984989],[-66.1510846,-17.398539600000003],[-66.15065700000001,-17.398596400000002],[-66.1504671,-17.398591200000002],[-66.1499407,-17.398552900000002],[-66.14849310000001,-17.398454700000002],[-66.148328,-17.398445000000002],[-66.1481493,-17.3984223],[-66.14797750000001,-17.398393900000002],[-66.1478282,-17.3983583],[-66.14765390000001,-17.398293900000002],[-66.1474343,-17.3982059],[-66.14674000000001,-17.3978582],[-66.14523340000001,-17.397087300000003],[-66.1449144,-17.396924900000002],[-66.1446176,-17.396751300000002],[-66.14438150000001,-17.3966005],[-66.14406240000001,-17.3963751],[-66.14366190000001,-17.396059100000002],[-66.14340290000001,-17.395816800000002],[-66.14321910000001,-17.3956231],[-66.14291130000001,-17.3952671],[-66.1424831,-17.394748],[-66.1419659,-17.394079],[-66.14189560000001,-17.394008900000003],[-66.14183410000001,-17.393936],[-66.1418082,-17.3939294],[-66.14178980000001,-17.3939184],[-66.14177620000001,-17.3939047],[-66.1417677,-17.393890900000002],[-66.1417617,-17.393872100000003],[-66.1417608,-17.3938522],[-66.14176520000001,-17.393832800000002],[-66.14172140000001,-17.3937801],[-66.1414948,-17.3935058],[-66.14105280000001,-17.3929623],[-66.1400634,-17.391745],[-66.13972820000001,-17.3913282],[-66.13967620000001,-17.391274600000003],[-66.13955250000001,-17.3911601],[-66.1394848,-17.391039900000003],[-66.1394326,-17.390847500000003],[-66.1394209,-17.390809200000003],[-66.1394075,-17.390765400000003],[-66.13947110000001,-17.3907232],[-66.1395392,-17.3906622],[-66.13959390000001,-17.3906037],[-66.13963430000001,-17.390545200000002],[-66.13967170000001,-17.390488400000002],[-66.1397352,-17.3903761],[-66.14005800000001,-17.3897441],[-66.140206,-17.3894515],[-66.140276,-17.389310100000003],[-66.140313,-17.3892476],[-66.14032920000001,-17.3892202],[-66.1404438,-17.388979600000003],[-66.140456,-17.3889551],[-66.14052740000001,-17.3888122],[-66.14055800000001,-17.3887511],[-66.14061600000001,-17.388638500000003],[-66.14069710000001,-17.3884812],[-66.1407472,-17.388328700000002],[-66.1407806,-17.388218300000002],[-66.140831,-17.3879088],[-66.140904,-17.3872386],[-66.14091160000001,-17.3871687],[-66.1409277,-17.3869767],[-66.1409885,-17.3859774],[-66.141018,-17.3857995],[-66.14104560000001,-17.385687700000002],[-66.1410822,-17.385573800000003],[-66.1411674,-17.3853826],[-66.1412581,-17.3851842],[-66.1413158,-17.385068800000003],[-66.141366,-17.384963900000002],[-66.1414869,-17.384717300000002],[-66.1416847,-17.384376900000003],[-66.14201630000001,-17.3839179],[-66.14214960000001,-17.3836845],[-66.1422864,-17.383404000000002],[-66.14239590000001,-17.383092100000002],[-66.1424028,-17.383066900000003],[-66.1424478,-17.382900900000003],[-66.1424652,-17.382729400000002],[-66.14244520000001,-17.3825372],[-66.1424109,-17.382404400000002],[-66.1422637,-17.382153000000002],[-66.14213500000001,-17.381974000000003],[-66.14202990000001,-17.3818795],[-66.14198780000001,-17.381821900000002],[-66.1419307,-17.3817053],[-66.1418943,-17.381577],[-66.1418799,-17.3814567],[-66.1418903,-17.3812894],[-66.14190640000001,-17.3811758],[-66.1419134,-17.3811351],[-66.1419204,-17.381094400000002],[-66.141942,-17.3809289],[-66.1419898,-17.3804528],[-66.1420054,-17.3803324],[-66.1420325,-17.380121000000003],[-66.1420173,-17.379973300000003],[-66.1421049,-17.3792441],[-66.14210920000001,-17.3792085],[-66.14210840000001,-17.3791537],[-66.14210940000001,-17.379066700000003],[-66.14210480000001,-17.379056000000002],[-66.142099,-17.379032600000002],[-66.1420987,-17.379009200000002],[-66.1421036,-17.3789863],[-66.1421134,-17.378964800000002],[-66.14212780000001,-17.3789459],[-66.142145,-17.3789294],[-66.14211610000001,-17.3788783],[-66.14216560000001,-17.3784026],[-66.14218740000001,-17.378126400000003],[-66.14222570000001,-17.377979500000002],[-66.1421823,-17.3778253],[-66.14212230000001,-17.3777316],[-66.1420903,-17.3776866],[-66.14204880000001,-17.377630500000002],[-66.14194090000001,-17.3775146],[-66.1418817,-17.377469700000002],[-66.14178960000001,-17.377409200000002],[-66.14170870000001,-17.3773783],[-66.14128330000001,-17.3772714],[-66.140656,-17.3771038],[-66.14012500000001,-17.3769673],[-66.13982080000001,-17.3768908],[-66.1395961,-17.376829700000002],[-66.13891140000001,-17.376623600000002],[-66.13860720000001,-17.3765156],[-66.13840710000001,-17.3764366],[-66.13813560000001,-17.376318400000002],[-66.1378744,-17.376198000000002],[-66.13754270000001,-17.3760194],[-66.1375201,-17.3760075],[-66.1371721,-17.375794600000003],[-66.13714350000001,-17.3757771],[-66.1365925,-17.3754096],[-66.13639280000001,-17.375275600000002],[-66.1361909,-17.3751518],[-66.1358472,-17.3749484],[-66.1356686,-17.3748663],[-66.13545060000001,-17.374784700000003],[-66.1352171,-17.3747197],[-66.13500690000001,-17.3746727],[-66.1349531,-17.3746639],[-66.1347777,-17.3746353],[-66.1345232,-17.3746121],[-66.1343324,-17.3746113],[-66.1336655,-17.374607800000003],[-66.1332637,-17.3746079],[-66.1331657,-17.3746079],[-66.1320171,-17.374608300000002],[-66.1319031,-17.3746101],[-66.1318712,-17.374610200000003],[-66.131338,-17.3746076],[-66.1310859,-17.3746058],[-66.1307829,-17.374607100000002],[-66.1305399,-17.374620200000003],[-66.13031570000001,-17.3746598],[-66.13010680000001,-17.374703],[-66.1299218,-17.3747584],[-66.12981950000001,-17.3747924],[-66.1296915,-17.374848200000002],[-66.12961220000001,-17.374899900000003],[-66.1295465,-17.374952500000003],[-66.129496,-17.3750064],[-66.12942120000001,-17.375093300000003],[-66.1294007,-17.375113600000002],[-66.1293424,-17.3751411],[-66.1293339,-17.3751606],[-66.1293129,-17.375192600000002],[-66.1292851,-17.3752195],[-66.1292688,-17.3752314],[-66.1292521,-17.375240100000003],[-66.129215,-17.3752536],[-66.1291758,-17.3752591],[-66.12915600000001,-17.375258900000002],[-66.1291363,-17.3752566],[-66.12905900000001,-17.375282300000002],[-66.1290276,-17.3752871],[-66.1289665,-17.3752992],[-66.12889750000001,-17.375317900000002],[-66.12882610000001,-17.375349],[-66.12876630000001,-17.375380900000003],[-66.12865980000001,-17.3754436],[-66.1285253,-17.3755346],[-66.12831360000001,-17.3756847],[-66.12754020000001,-17.3762313],[-66.12716010000001,-17.3764928],[-66.12570360000001,-17.3775094],[-66.124802,-17.3781266],[-66.1241835,-17.378549500000002],[-66.12349490000001,-17.3790024],[-66.1226821,-17.379529100000003],[-66.1225359,-17.3796241],[-66.12225400000001,-17.3798122],[-66.1221337,-17.379889700000003],[-66.12187920000001,-17.3800537],[-66.1212818,-17.3804516],[-66.12120800000001,-17.3805008],[-66.12092630000001,-17.380703800000003],[-66.120891,-17.380738800000003],[-66.120766,-17.380862800000003],[-66.1206599,-17.3810073],[-66.1204943,-17.381222400000002],[-66.12047700000001,-17.3812493],[-66.12040440000001,-17.381327000000002],[-66.12034680000001,-17.381368000000002],[-66.12028190000001,-17.381404800000002],[-66.1201128,-17.381460800000003],[-66.12008390000001,-17.3814655],[-66.1199728,-17.381476300000003],[-66.11978400000001,-17.3814983],[-66.11958200000001,-17.38153],[-66.1194402,-17.381557400000002],[-66.1193164,-17.3815883],[-66.1192997,-17.3815937],[-66.1191876,-17.3816388],[-66.1189298,-17.381746200000002],[-66.11868390000001,-17.3818458],[-66.1186373,-17.3818622],[-66.1183007,-17.3819804],[-66.117861,-17.382119600000003],[-66.11725600000001,-17.3822712],[-66.1169263,-17.3823466],[-66.11659110000001,-17.382414200000003],[-66.11615280000001,-17.382501100000002],[-66.11478960000001,-17.3827819],[-66.1138129,-17.382972600000002],[-66.1127304,-17.3831983],[-66.11168520000001,-17.383416200000003],[-66.1105866,-17.3836453],[-66.1101266,-17.383741200000003],[-66.10971950000001,-17.3838261],[-66.109508,-17.3838712],[-66.1093342,-17.3839083],[-66.10835490000001,-17.384107],[-66.10678610000001,-17.3844254],[-66.10557060000001,-17.384672100000003],[-66.10480290000001,-17.3848279],[-66.103305,-17.385124],[-66.10203920000001,-17.3853875],[-66.101813,-17.385439700000003],[-66.10164,-17.3854729],[-66.10151730000001,-17.385499600000003],[-66.1005722,-17.3856934],[-66.099856,-17.385807500000002],[-66.0995438,-17.385890200000002],[-66.09927970000001,-17.3859721],[-66.0990728,-17.3860248],[-66.09889980000001,-17.386069300000003],[-66.09839260000001,-17.386162000000002],[-66.09835700000001,-17.3861685],[-66.0983272,-17.386173900000003],[-66.0981661,-17.3862096],[-66.0980457,-17.3862363],[-66.098011,-17.386244],[-66.09795430000001,-17.3862555],[-66.0972686,-17.386396700000002],[-66.09706650000001,-17.386426500000002],[-66.0967548,-17.386458],[-66.0964201,-17.386511600000002],[-66.096,-17.386600100000003],[-66.09478630000001,-17.3868484],[-66.09360310000001,-17.387087400000002],[-66.0908426,-17.3876434],[-66.09040990000001,-17.3877396],[-66.08835780000001,-17.3881561],[-66.0872301,-17.388381600000002],[-66.08714730000001,-17.3883982],[-66.0866628,-17.388490400000002],[-66.086431,-17.388543100000003],[-66.0862938,-17.388577700000003],[-66.08595550000001,-17.388694700000002],[-66.0856528,-17.388769500000002],[-66.0851756,-17.3888654],[-66.0851385,-17.388873],[-66.08509140000001,-17.3888815],[-66.0849347,-17.388915100000002],[-66.0848217,-17.3889393],[-66.0847859,-17.3889469],[-66.0846886,-17.388968700000003],[-66.08453420000001,-17.389002700000002],[-66.0841997,-17.3890755],[-66.08401090000001,-17.389112200000003],[-66.0837245,-17.3891527],[-66.0833125,-17.389189100000003],[-66.0831864,-17.3892026],[-66.0830732,-17.3892227],[-66.0823075,-17.3893811],[-66.0820791,-17.389429900000003],[-66.08134820000001,-17.389598300000003],[-66.08089460000001,-17.3896963],[-66.08033730000001,-17.389809800000002],[-66.080234,-17.3898303],[-66.0795733,-17.3899681],[-66.0792634,-17.3900308],[-66.0780453,-17.3902691],[-66.07736560000001,-17.390400600000003],[-66.0770928,-17.3904679],[-66.0768163,-17.3905539],[-66.0766657,-17.390604800000002],[-66.0763239,-17.3906852],[-66.0762133,-17.3907068],[-66.0759019,-17.3907676],[-66.0758632,-17.3907752],[-66.07583530000001,-17.390780600000003],[-66.0756724,-17.3908166],[-66.07550900000001,-17.3908528],[-66.07545400000001,-17.390864800000003],[-66.0747753,-17.391013400000002],[-66.0745224,-17.3910531],[-66.074094,-17.3910927],[-66.0739011,-17.3911084],[-66.0720234,-17.391492300000003],[-66.0711272,-17.391675600000003],[-66.07019220000001,-17.391866800000003],[-66.06962800000001,-17.3919822],[-66.06918800000001,-17.3920721],[-66.0688315,-17.392145000000003],[-66.06824830000001,-17.392264200000003],[-66.0679667,-17.3923218],[-66.0656658,-17.3927923],[-66.0652582,-17.3928756],[-66.0645781,-17.393014700000002],[-66.0641281,-17.3931186],[-66.0637679,-17.393215],[-66.0634586,-17.393312],[-66.0626345,-17.393482600000002],[-66.0625765,-17.3934946],[-66.0625189,-17.3935065],[-66.0619894,-17.3936339],[-66.06194880000001,-17.3936455],[-66.0619054,-17.393661],[-66.0616765,-17.393742800000002],[-66.0609999,-17.393988500000003],[-66.06062080000001,-17.3941169],[-66.0604119,-17.394204600000002],[-66.06018080000001,-17.3943264],[-66.0598808,-17.3944881],[-66.0594511,-17.394762],[-66.05878360000001,-17.395159500000002],[-66.0579359,-17.3956829],[-66.057659,-17.395833300000003],[-66.05755640000001,-17.395886500000003],[-66.0569385,-17.3962565],[-66.05690320000001,-17.3962781],[-66.05685840000001,-17.396305700000003],[-66.0566431,-17.396437900000002],[-66.05644210000001,-17.396561400000003],[-66.0559171,-17.3968896],[-66.05477780000001,-17.397592300000003],[-66.0546489,-17.397667900000002],[-66.05387520000001,-17.3981405],[-66.0535687,-17.3983235],[-66.0534045,-17.398421600000002],[-66.05254430000001,-17.3989353],[-66.0522871,-17.3990905],[-66.0521721,-17.399160000000002],[-66.0520077,-17.3992575],[-66.05181660000001,-17.399355],[-66.05165260000001,-17.3994272],[-66.05151520000001,-17.399478400000003],[-66.05139580000001,-17.399515800000003],[-66.0512492,-17.399557100000003],[-66.05119660000001,-17.3995707],[-66.0511874,-17.3996159],[-66.05116910000001,-17.3996554],[-66.05114130000001,-17.399688],[-66.05109010000001,-17.3997068],[-66.05098860000001,-17.399724000000003],[-66.05071360000001,-17.3997767],[-66.05057400000001,-17.399820700000003],[-66.0499381,-17.4001036],[-66.04986930000001,-17.4001343],[-66.0496737,-17.400219200000002],[-66.04956940000001,-17.4002616],[-66.04762020000001,-17.4011196],[-66.0461669,-17.401748],[-66.04596330000001,-17.401834400000002],[-66.0458873,-17.4018666],[-66.04581540000001,-17.401897100000003],[-66.0452314,-17.4021447],[-66.0451178,-17.402156400000003],[-66.0447007,-17.4023334],[-66.04463120000001,-17.4023629],[-66.0445275,-17.402407],[-66.04365170000001,-17.4027774],[-66.04306650000001,-17.403027],[-66.0416165,-17.403652],[-66.0411636,-17.4038502],[-66.04066370000001,-17.404047100000003],[-66.0405532,-17.4040649],[-66.0405166,-17.4040812],[-66.0401482,-17.404245300000003],[-66.0400601,-17.404349],[-66.0390364,-17.404828300000002],[-66.0380193,-17.4053146],[-66.0376069,-17.4042812],[-66.03743180000001,-17.4037791],[-66.03723570000001,-17.4031914],[-66.037059,-17.402582600000002],[-66.03692260000001,-17.402252400000002],[-66.0362594,-17.4011786],[-66.03590750000001,-17.4013227],[-66.03557670000001,-17.401458100000003],[-66.0344484,-17.4019201],[-66.03377710000001,-17.4021787],[-66.03338450000001,-17.402316000000003],[-66.0328597,-17.4024846],[-66.03264460000001,-17.402536700000002],[-66.03254150000001,-17.4025521],[-66.0323446,-17.4025822],[-66.0316715,-17.4026953],[-66.03119670000001,-17.4027704],[-66.03073280000001,-17.4028397],[-66.0305836,-17.40287],[-66.03049010000001,-17.4028838],[-66.02875180000001,-17.4031665],[-66.02730890000001,-17.4033978],[-66.0255175,-17.4036881],[-66.02444580000001,-17.403861900000003],[-66.023702,-17.403963],[-66.0221393,-17.404223700000003],[-66.0196818,-17.404599400000002],[-66.01892620000001,-17.4047203],[-66.0181063,-17.4048482],[-66.01618710000001,-17.405155],[-66.01617920000001,-17.405167900000002],[-66.01615860000001,-17.405201100000003],[-66.01613010000001,-17.4052285],[-66.01608870000001,-17.4052513],[-66.0160421,-17.4052617],[-66.01599440000001,-17.405259],[-66.0159495,-17.405243300000002],[-66.0159112,-17.405216000000003],[-66.0158986,-17.4052033],[-66.01561190000001,-17.4052514],[-66.0151723,-17.405325400000002],[-66.01297190000001,-17.405684800000003],[-66.01235650000001,-17.405770200000003],[-66.0121866,-17.4058025],[-66.0115382,-17.405903600000002],[-66.0107766,-17.4059814],[-66.0100305,-17.4060275],[-66.00935290000001,-17.406047],[-66.0086624,-17.406033100000002],[-66.00811510000001,-17.405999],[-66.00760360000001,-17.405976300000003],[-66.0066618,-17.4058905],[-66.0063279,-17.4058607],[-66.00598240000001,-17.405845600000003],[-66.00553830000001,-17.405843200000003],[-66.00534880000001,-17.405854700000003],[-66.00496240000001,-17.405904200000002],[-66.0045748,-17.405979100000003],[-66.00261370000001,-17.4064486],[-66.00088650000001,-17.4068566],[-66.00011350000001,-17.4070429],[-65.9998791,-17.407102000000002],[-65.9993709,-17.407210300000003],[-65.9991095,-17.4072651],[-65.9987121,-17.4073235],[-65.99843320000001,-17.4073579],[-65.99756810000001,-17.407477500000002],[-65.99750470000001,-17.407798000000003],[-65.997473,-17.4078558],[-65.99745340000001,-17.4079957],[-65.99755160000001,-17.408574700000003],[-65.9975302,-17.4086283],[-65.9975072,-17.4086767],[-65.9974703,-17.4087545],[-65.99734740000001,-17.409013700000003],[-65.99721840000001,-17.4091874],[-65.99711980000001,-17.409397300000002],[-65.9969681,-17.4096507],[-65.99685430000001,-17.4098317],[-65.99687700000001,-17.4099258],[-65.9970364,-17.4101284],[-65.9971426,-17.410345600000003],[-65.99727150000001,-17.4108161],[-65.99727150000001,-17.411264900000003],[-65.9973246,-17.411619700000003],[-65.99740050000001,-17.4120685],[-65.99753890000001,-17.4124564],[-65.99761290000001,-17.4126638],[-65.9976498,-17.412737500000002],[-65.9979316,-17.413300900000003],[-65.9983564,-17.4140826],[-65.999024,-17.415016400000003],[-65.9991365,-17.4151701],[-65.9994058,-17.4155382],[-65.99946410000001,-17.4156179],[-65.9995854,-17.415783700000002],[-65.9997946,-17.4160597],[-65.99819360000001,-17.4168629],[-65.9981351,-17.4167394],[-65.9976304,-17.4169851],[-65.99683110000001,-17.417322900000002],[-65.9967027,-17.417463400000003],[-65.9963912,-17.417804],[-65.9961713,-17.418187900000003],[-65.9957207,-17.4189149],[-65.9955812,-17.4192271],[-65.9953885,-17.419320600000002],[-65.99552890000001,-17.419491],[-65.9957146,-17.4198875],[-65.9959771,-17.4204481],[-65.995608,-17.420475900000003],[-65.99609620000001,-17.421781600000003],[-65.99667550000001,-17.4232391],[-65.9972012,-17.423079100000002],[-65.99792640000001,-17.422858400000003]],"nodes":[1866314087,1638807820,1638807818,3305176528,3305176527,1638807816,1638807814,1638807812,1638807810,1638807808,1638807803,7767891608,12519400493,7767891603,7767891604,7768396139,4898988817,2149916003,3305144370,3305037824,4898988813,12589580117,10156195859,10839930188,3305037823,3305037818,3305037802,497188710,3305037801,497188712,3305037799,9203537855,1762869449,11114874874,497187806,497188701,1762869439,497188704,3304759247,3304759237,3304759233,9203537627,13448698827,3304759228,3304759225,9438085223,3304759217,2716726816,2716726813,10830635450,2716726814,9438085269,2716726811,9438085267,2716726809,9438085268,2716726805,9438085258,2716726801,2716726794,9438085275,12100007976,7947201385,7947180866,702721231,707336838,702721232,702721233,2716726766,702721236,10046406798,7947239539,10046406800,10046249653,10046406799,10046445903,1527822562,2576698674,10046445902,4477791070,10046249667,7902420007,10046249670,10892572063,13448698822,13448698821,2576698592,2576698561,10046445859,9131107895,2576698538,4477790800,707336906,2577975347,7132200140,10628476612,10536326635,10536326634,7902369090,2763553554,2763553556,2763553558,2763553557,2763553555,2763553549,2763553542,702511616,2763553534,2763553531,8637299570,843383240,4127346519,310262303,9090462295,310262502,9652874529,310262503,9090462299,9652874536,8637329086,310262504,9593572483,8099780503,2398944655,315111095,2398944649,10921117754,7767900406,648548697,2577975059,310502881,9916058950,3674274544,648548822,3674274543,12081159181,310503081,12081159184,648548911,8238783223,2765190381,8238783128,8238783125,648548895,2765190366,9121686926,2765190364,648548806,2303485417,648548748,648548725,648548704,1745102855,1745102858,8250070317,2033336776,1745102851,1745102852,1745102861,1745102849,598789056,2033336718,8253508705,1745102850,1745102860,9619808540,1745102866,7821726032,8623738783,9886485053,8328428866,10597422696,9886485061,11072493720,11072493714,11072493717,2033335336,11072493721,2033335237,2033335204,1745102854,1745102857,1745102867,315140941,1873958942,1873958934,1873958924,1873958895,13530349570,315130936,13530349561,13530349571,315131406,12096161291,1873958871,315130937,9061533593,315132591,5355650068,12384489736,8403435196,8403435194,12384489735,13101739750,2321582877,11011208178,315131919,315131920,1870795446,315131921,8638840332,315132384,315131922,315131924,3316228711,315131926,2590032791,315131928,315131930,360141986,2590032755,1637465108,315132049,360142452,315132053,315132055,2033333497,12802743974,9890964962,315132057,315132059,3226047987,2590032663,315132061,9890964958,2033333491,1796486910,8172704553,315132067,8172704554,5224206198,12062693673,1796486890,2391341689,9047064136,9047064134,602989539,2391341673,9976027039,2391341653,1719997664,5726456926,9353076793,9353076789,9353076792,9353076790,9976027044,2391341593,2391341542,8172711431,5726313467,9047064017,1795293265,1796486803,1796486801,8379904387,6331635776,6331635760,9007531389,6331635759,1795293288,1637465042,1044380039,598266512,8379213500,598266515,1044379398,6331635763,598266517,2334193653,598266519,8379424310,1044379348,7965587282,598266522,668478419,3264544472,1044379926,668478410,1009166397,497170540,1009166894,6331635755,12565837682,1044379711,497170541,497170542,9359800373,5545496248,12565837685,1496874669,3426201236,497170488,497170491,8162958966,1008238352,497170497,1008238961,497170498,497170499,8455639757,9012639193,7070768691,1008238336,4161989995,9364555686,8455639792,4161989993,11097229744,4161989999,11081389202,13546392754,11081389193,11081389194,11081389192,13546392749,2509202585,11079490599,9364555673,8455639777,8455639778,1008238747,1008238546,497169774,4161990007,4161990008,1066149615,8455317285,1044379982,1066149629,8522771070,1066149618,8162958852,497169104,497169105,13546392775,8162958913,1609200263,1609200307,497169107,8162958912,497169108,2398626801,6618250895,8162958922,1609199974,11081592002,6618250896,11081592003,2398626850,497169111,497169113,497169114,11081576330,11067998804,2398626863,4967266996,8067970035,2398626870,8067970039,497169115,2857544400,1609200320,9156300399,9156300411,1609200038,1609221058,1609221142,2320160111,1609365743,1609365842,12529903868,2508868829,13535744070,2508868838,1609365937,1609365844,497168072,1609295403,2319580337,2319580340,2319580342,4251838697,3759896921,3301986319,3301986326,3301986329,4251838758,497168075,3301986351,13585208307,13585208316,3593760377,13585208300,13585208315,3593760385,13585208311,497168076,3301987173,11079503838,4251838868,3593760408,3301987181,1609295558,5647827629,1609200054,6040248213,8319164877,1609200021,4251839051,497167994,13585208262,497167996,3238981553,8486768345,13585165598,1609200071,4938009405,13585208206,3238982961,8486768347,8486768353,12490576212,497167997,13585165597,8486768396,3238982976,497167880,4251839206,1609200141,5779625002,5779625006,5739405784,1609200044,2320007420,2894870494,4224950937,497167881,2320095629,497167883,2894872060,497167884,2894872092,12472745654,2894872097,13535410952,13535410942,13535410953,12472745652,497167887,2894872136,2600867349,497167890,2320095635,2320095641,2320095644,7243278754,11069368323,13747021051,9155881845,2894872160,2894872172,4224951065,13532098387,497147657,4267036402,497147659,12529856281,8303818130,2894872202,2894872205,497147661,12529856277,8303818080,2894872221,2894872224,497147662,497147663,2320095692,2320095695,1609200074,3764806637,3764806828,3764806823,4650634436,497147664,4650634435,497147665,6442084419,2320095711,4267228290,3839755191,497147667,1544965444,1544965448,497147668,12512862992,12512656423,497147669,2320095714,12512656418,12512656417,12512656422,12512862942,497150810,12512656421,12512656420,12512656419,497150807,497150804,4265533873,497150801,12512656424,497150792,1544965823,4059224115,1544966022,1544966351,4265533915,1544966439,4265533916,1544966533,4265533922,4265533925,497150789,4265533927,13717807111,1544967019,826514799,1544967327,1544967397,3943965734,7214385852,3943965735,1544967488,1544967612,1544967812,1544967483,1544967301,1544967079,1544966703,1544966546,1544966002,8189128446,1499573795,1544966419,1545731808,1499573845,1545731962,11079581769,1192323559,8484023270,497164708,8484023264,13597126307,1499573801,13597126304,6601240881,6601240880,6601240879,6601240878,11079581774,6601240877,6601240876,6601240875,6601240874,5673062033,5673062034,5673062120,5673062035,5673062036,5673062021,5673062025,5673062026,5673062027,5673062118,12530002305,5673062078,5673062079,5673062107,7435255447,5673062080,5673062081,5673062082,5673062083,5673062084,7435255441,5673062085,5673062067,5673062086,5673062075,5673062087,11072062937,5673062088,5673062089,5673062090,5673062091,5673062092,497164694,1545016031,497164693,1545016035,497164692,1544968608,4669661644,4669661642,4669661641,4669661640,13351388012,4669661639,9209051412,4669661637,4669661636,4669661635,4669661634,4669661633,4669661632,4669661631,4669661630,4669661629,4669661628,4669661627,4669661626,5163143446,4669661625,9209111517,4669661624,4669661623,4669661622,5163143457,5673062258,5163143459,4669661621,5163143453,5163143454,7243795502,7243795501,7243795500,13851259927,7243795435,7243795436,7243795437,7243795430,6469249736,6469249735,7243795422,6469249734,7243795405,7243795403,7243795404,7243795400,4669661589]},"gtfs":{"agency_id":18,"route_id":62,"services":[{"service_id":"Mo-Su","startTime":"06:00","endTime":"22:00","trip_id":20709798}],"filteredStops":{"nodes":[1866314087,3305176528,1638807812,1638807803,7767891604,2149916003,12589580117,3305037818,3305037802,9203537855,1762869439,9203537627,2716726816,2716726811,9438085258,7947201385,702721233,10046406800,2576698674,10046249670,10046445859,2577975347,7902369090,2763553555,2763553531,9090462295,9652874536,2398944655,2577975059,3674274543,8238783223,2765190366,648548725,648548704,8250070317,1745102861,1745102849,8253508705,9619808540,8623738783,9886485061,11072493717,2033335237,1745102857,1873958942,1873958895,13530349571,1873958871,315132591,8403435196,13101739750,315131919,315131921,315131924,2590032791,360141986,315132049,315132055,9890964962,3226047987,2033333491,315132067,12062693673,9047064136,2391341673,1719997664,9353076792,2391341593,5726313467,1796486803,6331635776,6331635759,1044380039,1044379398,2334193653,1044379348,668478419,668478410,1009166894,1044379711,5545496248,3426201236,8162958966,1008238961,8455639757,1008238336,4161989993,11081389202,11081389194,2509202585,8455639777,1008238546,4161990008,1066149629,8162958852,13546392775,1609200307,497169108,8162958922,11081592003,497169113,11067998804,8067970035,497169115,9156300399,1609221058,1609365842,13535744070,1609365844,2319580337,4251838697,3301986326,497168075,3593760377,3593760385,3301987173,3593760408,5647827629,8319164877,13585208262,8486768345,4938009405,8486768347,497167997,3238982976,1609200141,1609200044,4224950937,497167883,2894872092,13535410952,12472745652,2600867349,2320095644,13747021051,2894872172,497147657,12529856281,2894872205,2894872221,497147663,1609200074,3764806823,4650634435,2320095711,497147667,12512862992,2320095714,12512656422,12512656421,497150807,497150801,4059224115,4265533915,1544966533,497150789,1544967019,1544967397,3943965735,1544967483,1544966703,8189128446,1545731808,11079581769,497164708,1499573801,6601240879,6601240877,6601240874,5673062120,5673062021,5673062027,5673062079,5673062080,5673062083,5673062085,5673062075,5673062088,5673062091,497164693,1544968608,4669661641,4669661639,4669661636,4669661633,4669661630,4669661626,9209111517,4669661622,5163143459,5163143454,7243795500,7243795437,6469249735,7243795405,4669661589],"coordinates":[[-66.1600033,-17.4227254],[-66.1600197,-17.422401],[-66.1602366,-17.422048200000003],[-66.1602617,-17.4218736],[-66.1599142,-17.420105000000003],[-66.159622,-17.4186042],[-66.1598589,-17.4182163],[-66.1607541,-17.417152700000003],[-66.1616303,-17.416112400000003],[-66.1619455,-17.415474800000002],[-66.1618323,-17.414830400000003],[-66.16124400000001,-17.414205900000002],[-66.1597139,-17.413042800000003],[-66.1595108,-17.4129933],[-66.1594381,-17.412915700000003],[-66.1593277,-17.412718100000003],[-66.1578284,-17.4117712],[-66.1570794,-17.4111663],[-66.15695260000001,-17.4109796],[-66.1569262,-17.4108774],[-66.15669190000001,-17.4101809],[-66.1570538,-17.407884600000003],[-66.15699020000001,-17.4073032],[-66.1564518,-17.4076078],[-66.1566275,-17.406555100000002],[-66.15707730000001,-17.404014],[-66.15741440000001,-17.4015643],[-66.1576328,-17.3995669],[-66.15649140000001,-17.3995873],[-66.155229,-17.399324800000002],[-66.1531252,-17.398830500000003],[-66.15207910000001,-17.398505500000002],[-66.1499407,-17.398552900000002],[-66.14849310000001,-17.398454700000002],[-66.14797750000001,-17.398393900000002],[-66.14674000000001,-17.3978582],[-66.14523340000001,-17.397087300000003],[-66.14438150000001,-17.3966005],[-66.14340290000001,-17.395816800000002],[-66.1424831,-17.394748],[-66.1418082,-17.3939294],[-66.1417677,-17.393890900000002],[-66.14176520000001,-17.393832800000002],[-66.14105280000001,-17.3929623],[-66.13967620000001,-17.391274600000003],[-66.1394326,-17.390847500000003],[-66.1395392,-17.3906622],[-66.13967170000001,-17.390488400000002],[-66.140206,-17.3894515],[-66.14032920000001,-17.3892202],[-66.14052740000001,-17.3888122],[-66.14069710000001,-17.3884812],[-66.140831,-17.3879088],[-66.1409885,-17.3859774],[-66.1410822,-17.385573800000003],[-66.1413158,-17.385068800000003],[-66.1416847,-17.384376900000003],[-66.1422864,-17.383404000000002],[-66.1424478,-17.382900900000003],[-66.1424109,-17.382404400000002],[-66.14198780000001,-17.381821900000002],[-66.1418799,-17.3814567],[-66.1419134,-17.3811351],[-66.1419898,-17.3804528],[-66.1420173,-17.379973300000003],[-66.14210840000001,-17.3791537],[-66.1420987,-17.379009200000002],[-66.14212780000001,-17.3789459],[-66.14216560000001,-17.3784026],[-66.1421823,-17.3778253],[-66.14204880000001,-17.377630500000002],[-66.14178960000001,-17.377409200000002],[-66.140656,-17.3771038],[-66.13891140000001,-17.376623600000002],[-66.13813560000001,-17.376318400000002],[-66.1375201,-17.3760075],[-66.1365925,-17.3754096],[-66.1358472,-17.3749484],[-66.1352171,-17.3747197],[-66.1347777,-17.3746353],[-66.1332637,-17.3746079],[-66.1319031,-17.3746101],[-66.1310859,-17.3746058],[-66.13031570000001,-17.3746598],[-66.12981950000001,-17.3747924],[-66.1295465,-17.374952500000003],[-66.1293424,-17.3751411],[-66.1292851,-17.3752195],[-66.129215,-17.3752536],[-66.1291363,-17.3752566],[-66.1289665,-17.3752992],[-66.12876630000001,-17.375380900000003],[-66.12831360000001,-17.3756847],[-66.124802,-17.3781266],[-66.1226821,-17.379529100000003],[-66.1221337,-17.379889700000003],[-66.12120800000001,-17.3805008],[-66.120766,-17.380862800000003],[-66.12047700000001,-17.3812493],[-66.1201128,-17.381460800000003],[-66.11978400000001,-17.3814983],[-66.1193164,-17.3815883],[-66.1189298,-17.381746200000002],[-66.1183007,-17.3819804],[-66.1169263,-17.3823466],[-66.11478960000001,-17.3827819],[-66.1105866,-17.3836453],[-66.109508,-17.3838712],[-66.10678610000001,-17.3844254],[-66.103305,-17.385124],[-66.10164,-17.3854729],[-66.099856,-17.385807500000002],[-66.0990728,-17.3860248],[-66.0983272,-17.386173900000003],[-66.098011,-17.386244],[-66.09706650000001,-17.386426500000002],[-66.096,-17.386600100000003],[-66.0908426,-17.3876434],[-66.0872301,-17.388381600000002],[-66.0862938,-17.388577700000003],[-66.0851756,-17.3888654],[-66.0849347,-17.388915100000002],[-66.0846886,-17.388968700000003],[-66.08401090000001,-17.389112200000003],[-66.0831864,-17.3892026],[-66.0820791,-17.389429900000003],[-66.080234,-17.3898303],[-66.0780453,-17.3902691],[-66.0768163,-17.3905539],[-66.0762133,-17.3907068],[-66.07583530000001,-17.390780600000003],[-66.07545400000001,-17.390864800000003],[-66.074094,-17.3910927],[-66.07019220000001,-17.391866800000003],[-66.0688315,-17.392145000000003],[-66.0656658,-17.3927923],[-66.0641281,-17.3931186],[-66.0626345,-17.393482600000002],[-66.0619894,-17.3936339],[-66.0609999,-17.393988500000003],[-66.06018080000001,-17.3943264],[-66.05878360000001,-17.395159500000002],[-66.05755640000001,-17.395886500000003],[-66.05685840000001,-17.396305700000003],[-66.0559171,-17.3968896],[-66.05387520000001,-17.3981405],[-66.0522871,-17.3990905],[-66.05181660000001,-17.399355],[-66.05139580000001,-17.399515800000003],[-66.0511874,-17.3996159],[-66.05109010000001,-17.3997068],[-66.05057400000001,-17.399820700000003],[-66.04956940000001,-17.4002616],[-66.04596330000001,-17.401834400000002],[-66.0452314,-17.4021447],[-66.04463120000001,-17.4023629],[-66.04306650000001,-17.403027],[-66.04066370000001,-17.404047100000003],[-66.0401482,-17.404245300000003],[-66.0376069,-17.4042812],[-66.037059,-17.402582600000002],[-66.03590750000001,-17.4013227],[-66.03377710000001,-17.4021787],[-66.03264460000001,-17.402536700000002],[-66.0316715,-17.4026953],[-66.0305836,-17.40287],[-66.0255175,-17.4036881],[-66.0221393,-17.404223700000003],[-66.0181063,-17.4048482],[-66.01615860000001,-17.405201100000003],[-66.0160421,-17.4052617],[-66.0159112,-17.405216000000003],[-66.01297190000001,-17.405684800000003],[-66.0115382,-17.405903600000002],[-66.00935290000001,-17.406047],[-66.00760360000001,-17.405976300000003],[-66.00598240000001,-17.405845600000003],[-66.00496240000001,-17.405904200000002],[-66.00088650000001,-17.4068566],[-65.9991095,-17.4072651],[-65.99756810000001,-17.407477500000002],[-65.99745340000001,-17.4079957],[-65.9975072,-17.4086767],[-65.99721840000001,-17.4091874],[-65.99685430000001,-17.4098317],[-65.9971426,-17.410345600000003],[-65.99740050000001,-17.4120685],[-65.9976498,-17.412737500000002],[-65.999024,-17.415016400000003],[-65.99946410000001,-17.4156179],[-65.99819360000001,-17.4168629],[-65.99683110000001,-17.417322900000002],[-65.9957207,-17.4189149],[-65.99552890000001,-17.419491],[-65.995608,-17.420475900000003],[-65.99792640000001,-17.422858400000003]]}}},{"type":"Feature","properties":{"bus":"yes","highway":"bus_stop","name":"Parada MiniBus 233","public_transport":"platform","id":9181583444},"geometry":{"type":"Point","coordinates":[-66.16019770000001,-17.4228284]}},{"type":"Feature","properties":{"bench":"no","bin":"no","bus":"yes","departures_board":"no","highway":"bus_stop","kerb":"raised","level":"0","lit":"no","name":"Aroma","operator":"Gobierno Autónomo Municipal de Cochabamba","operator:short":"GAMC","operator:type":"government","pole":"yes","public_transport":"platform","shelter":"no","tactile_paving":"no","wheelchair":"yes","id":4929965565},"geometry":{"type":"Point","coordinates":[-66.15758000000001,-17.399606900000002]}},{"type":"Feature","properties":{"bench":"no","bin":"no","bus":"yes","departures_board":"no","highway":"bus_stop","lit":"no","name":"Oquendo y Armando Méndez","pole":"yes","public_transport":"platform","shelter":"no","id":8614087733},"geometry":{"type":"Point","coordinates":[-66.14880720000001,-17.396606000000002]}},{"type":"Feature","properties":{"bench":"yes","bin":"no","bus":"yes","departures_board":"no","highway":"bus_stop","kerb":"raised","level":"0","lit":"no","name":"Oquendo y Jordán","operator":"Gobierno Autónomo Municipal de Cochabamba","pole":"yes","public_transport":"platform","shelter":"yes","tactile_paving":"no","wheelchair":"no","id":6546789737},"geometry":{"type":"Point","coordinates":[-66.1492786,-17.3942543]}},{"type":"Feature","properties":{"bench":"no","bin":"no","bus":"yes","departures_board":"no","highway":"bus_stop","kerb":"raised","level":"0","lit":"no","name":"Heroínas y Oquendo","operator":"Gobierno Autónomo Municipal de Cochabamba","operator:short":"GAMC","operator:type":"government","operator:wikidata":"Q124635344","pole":"yes","public_transport":"platform","shelter":"no","tactile_paving":"no","traffic_sign":"yes","wheelchair":"no","id":4868993435},"geometry":{"type":"Point","coordinates":[-66.1498749,-17.3911373]}},{"type":"Feature","properties":{"bench":"no","bin":"no","bus":"yes","departures_board":"no","highway":"bus_stop","lit":"no","name":"Oquendo y Colombia","operator":"Gobierno Autónomo Municipal de Cochabamba","pole":"yes","public_transport":"platform","shelter":"no","tactile_paving":"no","traffic_sign":"yes","id":6285093143},"geometry":{"type":"Point","coordinates":[-66.1501164,-17.389920200000002]}},{"type":"Feature","properties":{"bench":"no","bin":"no","bus":"yes","departures_board":"no","highway":"bus_stop","kerb":"raised","level":"0","lit":"no","name":"Aniceto Arce y Ramón Rivero","operator":"Gobierno Autónomo Municipal de Cochabamba","pole":"yes","public_transport":"platform","shelter":"no","tactile_paving":"no","wheelchair":"no","id":5280985262},"geometry":{"type":"Point","coordinates":[-66.1431472,-17.379724000000003]}},{"type":"Feature","properties":{"bench":"yes","bin":"no","bus":"yes","departures_board":"no","highway":"bus_stop","lit":"no","name":"General Galindo y Mariano Melgarejo","operator":"Gobierno Autónomo Municipal de Cochabamba","public_transport":"platform","shelter":"yes","tactile_paving":"no","wheelchair":"no","id":8616284788},"geometry":{"type":"Point","coordinates":[-66.1426462,-17.375075900000002]}},{"type":"Feature","properties":{"bench":"no","bin":"no","bus":"yes","departures_board":"no","highway":"bus_stop","level":"0","lit":"no","name":"Avenida Décima","operator":"Administradora Boliviana de Carreteras","pole":"yes","public_transport":"platform","shelter":"no","tactile_paving":"no","wheelchair":"no","id":4251839135},"geometry":{"type":"Point","coordinates":[-66.0854501,-17.3888846]}},{"type":"Feature","properties":{"bus":"yes","highway":"bus_stop","name":"Parada 233","public_transport":"platform","id":13859390657},"geometry":{"type":"Point","coordinates":[-65.99789320000001,-17.422662000000003]}},{"type":"Feature","properties":{"bench":"no","bin":"no","bus":"yes","departures_board":"no","highway":"bus_stop","kerb":"raised","level":"0","lit":"no","name":"San Martín","operator":"Gobierno Autónomo Municipal de Cochabamba","operator:short":"GAMC","operator:type":"government","pole":"yes","public_transport":"platform","shelter":"no","tactile_paving":"no","wheelchair":"no","id":6546789727},"geometry":{"type":"Point","coordinates":[-66.1533675,-17.398950000000003]}}]}