{"type":"FeatureCollection","features":[{"type":"Feature","properties":{"check_date":"46167","description":"Nro. naranja","fixme":"add tags","from":"Ulincate","name":"Trufi 233: Ulincate → Loreto","oneway:bus":"no","operator":"Sindicato mixto de autotransporte Sacaba","public_transport:version":"2","ref":"233","route":"bus","to":"Loreto","type":"route","id":20739192},"geometry":{"type":"LineString","coordinates":[[-66.02847150000001,-17.383124600000002],[-66.02845190000001,-17.3831521],[-66.02843990000001,-17.3831689],[-66.02835540000001,-17.3832726],[-66.0282602,-17.3834108],[-66.0282126,-17.383505500000002],[-66.02816630000001,-17.3836565],[-66.0281248,-17.383817800000003],[-66.0281006,-17.3839842],[-66.02808990000001,-17.3841633],[-66.0281087,-17.3842222],[-66.0281355,-17.3842824],[-66.0281865,-17.3844129],[-66.02841360000001,-17.3849486],[-66.0289051,-17.386235300000003],[-66.0291102,-17.387349200000003],[-66.02917210000001,-17.3876092],[-66.0295088,-17.3882185],[-66.02962690000001,-17.3883666],[-66.02971240000001,-17.3884738],[-66.0298267,-17.3886396],[-66.02993210000001,-17.388737000000003],[-66.030246,-17.388848000000003],[-66.0305209,-17.389026700000002],[-66.0308181,-17.3891755],[-66.0310386,-17.389412800000002],[-66.03114640000001,-17.3895918],[-66.03141380000001,-17.3908433],[-66.0316351,-17.391581600000002],[-66.03116890000001,-17.3916502],[-66.03097360000001,-17.391726900000002],[-66.03085750000001,-17.3917846],[-66.03072130000001,-17.3918725],[-66.0308499,-17.392971900000003],[-66.03085320000001,-17.3930684],[-66.030865,-17.393179500000002],[-66.0309261,-17.393555300000003],[-66.0309443,-17.393667100000002],[-66.03094870000001,-17.393696000000002],[-66.03104370000001,-17.3941538],[-66.0311174,-17.3943353],[-66.0313174,-17.3946426],[-66.03140400000001,-17.3947483],[-66.03145450000001,-17.3948207],[-66.0316159,-17.395047700000003],[-66.0318266,-17.3953165],[-66.0319139,-17.3954279],[-66.03198060000001,-17.395539600000003],[-66.0321069,-17.3957513],[-66.03227720000001,-17.3962369],[-66.0325062,-17.396756200000002],[-66.032753,-17.397315900000002],[-66.0328144,-17.397371200000002],[-66.03319540000001,-17.3974325],[-66.0332841,-17.397582200000002],[-66.0311161,-17.398452600000002],[-66.0305199,-17.398691900000003],[-66.0306934,-17.399137500000002],[-66.030568,-17.3991571],[-66.0311027,-17.4002711],[-66.0312277,-17.400551500000002],[-66.03164720000001,-17.401449600000003],[-66.03213980000001,-17.4025004],[-66.0322986,-17.402470800000003],[-66.03253450000001,-17.4024283],[-66.03280720000001,-17.4023651],[-66.0333054,-17.402235700000002],[-66.0338672,-17.402045],[-66.03440230000001,-17.401826600000003],[-66.0352043,-17.401495800000003],[-66.0358199,-17.401242500000002],[-66.03616600000001,-17.401100000000003],[-66.0360076,-17.400986800000002],[-66.0356692,-17.400745],[-66.03538250000001,-17.400421700000003],[-66.03517040000001,-17.400168500000003],[-66.03511830000001,-17.4001012],[-66.0362077,-17.3995722],[-66.0364315,-17.3999308],[-66.03693840000001,-17.4007806],[-66.03699180000001,-17.4008739],[-66.03734100000001,-17.401459600000003],[-66.0376008,-17.4019397],[-66.03797390000001,-17.402621800000002],[-66.03806990000001,-17.40275],[-66.0383901,-17.403379100000002],[-66.0386373,-17.403978000000002],[-66.0390364,-17.404828300000002],[-66.0392731,-17.405351600000003],[-66.0396628,-17.405222900000002],[-66.0403891,-17.405010800000003],[-66.0400601,-17.404349],[-66.04002720000001,-17.404229],[-66.0397952,-17.403774700000003],[-66.0397593,-17.4037103],[-66.039856,-17.4036742],[-66.04025750000001,-17.4035075],[-66.0403424,-17.403451500000003],[-66.04093470000001,-17.403244800000003],[-66.0413845,-17.403064200000003],[-66.04284990000001,-17.4025076],[-66.0444234,-17.401918300000002],[-66.0440542,-17.401112400000002],[-66.0436909,-17.4003586],[-66.04368290000001,-17.400335400000003],[-66.0436676,-17.4002912],[-66.0435588,-17.399996100000003],[-66.0435341,-17.399901200000002],[-66.04352340000001,-17.3998147],[-66.0435403,-17.399690200000002],[-66.04354190000001,-17.399583500000002],[-66.0437412,-17.399585300000002],[-66.04564160000001,-17.399601800000003],[-66.04736650000001,-17.3996329],[-66.04788040000001,-17.3996394],[-66.04791820000001,-17.3996375],[-66.04815070000001,-17.399614000000003],[-66.0484055,-17.3996013],[-66.0486844,-17.399605400000002],[-66.0488449,-17.399607800000002],[-66.04904900000001,-17.3996089],[-66.0494817,-17.3996113],[-66.049524,-17.399611500000002],[-66.0495724,-17.399607800000002],[-66.0498642,-17.399587200000003],[-66.0504956,-17.399515700000002],[-66.0506926,-17.399486600000003],[-66.0509268,-17.3994266],[-66.05099720000001,-17.3994086],[-66.05111400000001,-17.399368600000003],[-66.05142310000001,-17.3992627],[-66.0519831,-17.399083800000003],[-66.0522284,-17.398982800000002],[-66.05228360000001,-17.3989601],[-66.05249420000001,-17.3988559],[-66.0527431,-17.398712600000003],[-66.0529757,-17.398569000000002],[-66.05350580000001,-17.3982424],[-66.0535801,-17.3981971],[-66.05365160000001,-17.3981576],[-66.0538193,-17.3980554],[-66.0545955,-17.3975864],[-66.05471490000001,-17.3975095],[-66.0551652,-17.3972358],[-66.0555916,-17.3969644],[-66.05585830000001,-17.396807300000003],[-66.05612140000001,-17.3966236],[-66.0567891,-17.3961979],[-66.0574423,-17.3958313],[-66.0578983,-17.3955959],[-66.05806190000001,-17.3954986],[-66.0591133,-17.394848500000002],[-66.0593894,-17.3946958],[-66.0595624,-17.394588900000002],[-66.05990990000001,-17.394375],[-66.0603828,-17.3941032],[-66.0607787,-17.3939093],[-66.0611288,-17.393716400000002],[-66.0613148,-17.393627700000003],[-66.0615427,-17.393538900000003],[-66.06192250000001,-17.3934356],[-66.0619582,-17.393426100000003],[-66.06201730000001,-17.393410000000003],[-66.062589,-17.393270400000002],[-66.06264300000001,-17.3932591],[-66.0634217,-17.3930969],[-66.0636984,-17.3930489],[-66.0641365,-17.3930022],[-66.064548,-17.392923200000002],[-66.065224,-17.392787300000002],[-66.0656417,-17.3927033],[-66.0659643,-17.392638400000003],[-66.06670150000001,-17.3924901],[-66.0674233,-17.3923449],[-66.0674647,-17.3923366],[-66.06794980000001,-17.392239],[-66.0682132,-17.3921861],[-66.0691034,-17.392007300000003],[-66.06941950000001,-17.3919399],[-66.0701842,-17.3917819],[-66.07104480000001,-17.391616300000003],[-66.07223610000001,-17.391378800000002],[-66.07313380000001,-17.3911865],[-66.0737974,-17.391044400000002],[-66.07388920000001,-17.391027100000002],[-66.0741326,-17.390971200000003],[-66.0746708,-17.390814900000002],[-66.074837,-17.3907698],[-66.07508650000001,-17.390726],[-66.0754156,-17.390659600000003],[-66.0754419,-17.3906537],[-66.07546430000001,-17.3906488],[-66.0756041,-17.390618500000002],[-66.07578980000001,-17.3905782],[-66.0758598,-17.390565300000002],[-66.07653300000001,-17.3904238],[-66.0768302,-17.390376900000003],[-66.07707070000001,-17.390353100000002],[-66.0772479,-17.390335500000003],[-66.07733280000001,-17.3903216],[-66.07741770000001,-17.3903076],[-66.0780455,-17.390183200000003],[-66.0802003,-17.389731400000002],[-66.0803046,-17.389714700000003],[-66.0820898,-17.389341400000003],[-66.08236070000001,-17.3892907],[-66.08305220000001,-17.389156500000002],[-66.0833489,-17.389095400000002],[-66.0837257,-17.3889837],[-66.08402690000001,-17.388896000000003],[-66.0842295,-17.3888508],[-66.0846442,-17.388772300000003],[-66.08468850000001,-17.3887615],[-66.08471750000001,-17.3887545],[-66.08488320000001,-17.3887189],[-66.0849965,-17.3886946],[-66.08502510000001,-17.3886885],[-66.08512470000001,-17.388669],[-66.0857666,-17.388528700000002],[-66.0860536,-17.388474600000002],[-66.086256,-17.388453700000003],[-66.08641890000001,-17.3884499],[-66.08664780000001,-17.3884115],[-66.0871412,-17.3883204],[-66.087247,-17.3882987],[-66.0903304,-17.387665700000003],[-66.0935805,-17.387006500000002],[-66.09477770000001,-17.3867611],[-66.0956062,-17.3865942],[-66.09572680000001,-17.3865699],[-66.0959866,-17.3865176],[-66.0964055,-17.386431],[-66.09672780000001,-17.386354400000002],[-66.09712130000001,-17.3862287],[-66.0975463,-17.386137],[-66.0978999,-17.3860594],[-66.09793900000001,-17.386050800000003],[-66.0979734,-17.3860433],[-66.09812760000001,-17.386010900000002],[-66.0982462,-17.385986000000003],[-66.0982886,-17.385977],[-66.0983451,-17.3859657],[-66.09884170000001,-17.385865600000002],[-66.0992957,-17.385774100000003],[-66.09953420000001,-17.385747400000003],[-66.0998677,-17.385717000000003],[-66.1007361,-17.3855545],[-66.1012826,-17.3854502],[-66.101487,-17.3854052],[-66.1016661,-17.3853729],[-66.1020273,-17.3852949],[-66.1034053,-17.3849957],[-66.10474330000001,-17.384737700000002],[-66.10558300000001,-17.384569600000003],[-66.10681860000001,-17.3843223],[-66.1083887,-17.384008],[-66.10887290000001,-17.383911100000002],[-66.1093147,-17.383822600000002],[-66.1094935,-17.383784600000002],[-66.10970130000001,-17.3837404],[-66.1101186,-17.3836522],[-66.11055110000001,-17.383561500000003],[-66.1116279,-17.383341],[-66.1126895,-17.383117600000002],[-66.1137491,-17.382897800000002],[-66.11474120000001,-17.3826937],[-66.1160978,-17.3824143],[-66.1166355,-17.3823048],[-66.1167504,-17.382281600000002],[-66.1172233,-17.3821833],[-66.1178158,-17.3820392],[-66.11826740000001,-17.3819014],[-66.1185475,-17.381807000000002],[-66.1187728,-17.381719800000003],[-66.11928180000001,-17.381503600000002],[-66.11950370000001,-17.381410000000002],[-66.11999700000001,-17.381166800000003],[-66.12026010000001,-17.3810155],[-66.1208017,-17.380671500000002],[-66.1208417,-17.3806461],[-66.12168240000001,-17.3800861],[-66.12176980000001,-17.3800293],[-66.1218317,-17.379987800000002],[-66.1221658,-17.3797745],[-66.12243050000001,-17.3795986],[-66.1224694,-17.3795763],[-66.122742,-17.379389900000003],[-66.12360930000001,-17.378817400000003],[-66.1246859,-17.378115100000002],[-66.12535460000001,-17.377652400000002],[-66.1257746,-17.377356000000002],[-66.12695810000001,-17.3765211],[-66.12702440000001,-17.376476],[-66.1271995,-17.3763545],[-66.1275504,-17.376112600000003],[-66.1279614,-17.3758297],[-66.1281352,-17.37571],[-66.1282882,-17.3756033],[-66.12881490000001,-17.3752302],[-66.1288741,-17.375188],[-66.12893100000001,-17.3751503],[-66.1289543,-17.3751348],[-66.12898750000001,-17.3751147],[-66.1291381,-17.375016300000002],[-66.12925580000001,-17.374947000000002],[-66.1292707,-17.3749377],[-66.129327,-17.374909300000002],[-66.1294482,-17.374850400000003],[-66.1296174,-17.3747803],[-66.1298412,-17.374701400000003],[-66.1300549,-17.3746383],[-66.13028010000001,-17.37459],[-66.1305217,-17.3745502],[-66.1307689,-17.3745291],[-66.1313669,-17.374523200000002],[-66.1313916,-17.374523],[-66.1319101,-17.374528700000003],[-66.13214070000001,-17.374527500000003],[-66.13236900000001,-17.374525700000003],[-66.1331657,-17.3745288],[-66.13322760000001,-17.374529000000003],[-66.1336639,-17.3745303],[-66.1345247,-17.374534],[-66.13467490000001,-17.374544800000002],[-66.13486950000001,-17.3745687],[-66.13497140000001,-17.3745873],[-66.13505740000001,-17.3746031],[-66.13523880000001,-17.3746459],[-66.13542910000001,-17.374700200000003],[-66.1355865,-17.3747547],[-66.13576570000001,-17.374828700000002],[-66.1359602,-17.3749201],[-66.13617570000001,-17.375044600000003],[-66.1366294,-17.3753417],[-66.1371488,-17.375692500000003],[-66.1371768,-17.3757114],[-66.13756330000001,-17.375942600000002],[-66.13790200000001,-17.376123800000002],[-66.13825580000001,-17.376282],[-66.138489,-17.376383800000003],[-66.13874120000001,-17.3764855],[-66.13894970000001,-17.3765576],[-66.1392113,-17.3766371],[-66.1396414,-17.3767716],[-66.14039430000001,-17.376946800000002],[-66.14084190000001,-17.3770223],[-66.1410415,-17.3770506],[-66.1411913,-17.3770792],[-66.1414646,-17.3771422],[-66.14200690000001,-17.377268500000003],[-66.1422247,-17.3773187],[-66.14228290000001,-17.377351200000003],[-66.1423113,-17.377371],[-66.14233730000001,-17.377395200000002],[-66.1423637,-17.377423800000003],[-66.1423853,-17.377457900000003],[-66.14240600000001,-17.377499200000003],[-66.1424178,-17.3775385],[-66.1424231,-17.377578500000002],[-66.1424229,-17.377606500000002],[-66.142421,-17.3776344],[-66.1424051,-17.3777627],[-66.1423809,-17.3780515],[-66.1423381,-17.3782257],[-66.1423189,-17.378408800000003],[-66.1422891,-17.3786817],[-66.1422565,-17.3788538],[-66.14217950000001,-17.3796304],[-66.1421414,-17.379980200000002],[-66.14214100000001,-17.380106700000002],[-66.1421085,-17.3803468],[-66.1420921,-17.380467300000003],[-66.1420368,-17.3809286],[-66.1420155,-17.381112],[-66.1420076,-17.3811794],[-66.1420018,-17.381224000000003],[-66.14199020000001,-17.381312100000002],[-66.14198400000001,-17.381357400000002],[-66.1419807,-17.3814268],[-66.14198320000001,-17.3814816],[-66.1419903,-17.381541700000003],[-66.1420035,-17.381621300000003],[-66.14202270000001,-17.3816954],[-66.1420432,-17.381758100000003],[-66.14208,-17.3818348],[-66.14213500000001,-17.381974000000003],[-66.1422637,-17.382153000000002],[-66.1424109,-17.382404400000002],[-66.14244520000001,-17.3825372],[-66.1424652,-17.382729400000002],[-66.1424478,-17.382900900000003],[-66.1424028,-17.383066900000003],[-66.14239590000001,-17.383092100000002],[-66.1422864,-17.383404000000002],[-66.14214960000001,-17.3836845],[-66.14201630000001,-17.3839179],[-66.1416847,-17.384376900000003],[-66.1414869,-17.384717300000002],[-66.141366,-17.384963900000002],[-66.1413158,-17.385068800000003],[-66.1412581,-17.3851842],[-66.1411674,-17.3853826],[-66.1410822,-17.385573800000003],[-66.14104560000001,-17.385687700000002],[-66.141018,-17.3857995],[-66.1409885,-17.3859774],[-66.1409277,-17.3869767],[-66.14091160000001,-17.3871687],[-66.140904,-17.3872386],[-66.140831,-17.3879088],[-66.1407806,-17.388218300000002],[-66.1407472,-17.388328700000002],[-66.14069710000001,-17.3884812],[-66.14061600000001,-17.388638500000003],[-66.14055800000001,-17.3887511],[-66.14052740000001,-17.3888122],[-66.140456,-17.3889551],[-66.1404438,-17.388979600000003],[-66.14032920000001,-17.3892202],[-66.140313,-17.3892476],[-66.140276,-17.389310100000003],[-66.140206,-17.3894515],[-66.14005800000001,-17.3897441],[-66.1397352,-17.3903761],[-66.13967170000001,-17.390488400000002],[-66.13963430000001,-17.390545200000002],[-66.13959390000001,-17.3906037],[-66.1395959,-17.390677800000002],[-66.1395983,-17.3907391],[-66.13961110000001,-17.390859000000003],[-66.13963790000001,-17.3909631],[-66.1396807,-17.391071],[-66.13975860000001,-17.3912209],[-66.14014420000001,-17.391683],[-66.1411176,-17.392891900000002],[-66.14179180000001,-17.3937126],[-66.1418543,-17.3937823],[-66.14187790000001,-17.3937896],[-66.14189300000001,-17.393798800000003],[-66.14190550000001,-17.393811000000003],[-66.141917,-17.393830100000002],[-66.1419226,-17.3938534],[-66.14192050000001,-17.3938773],[-66.1419595,-17.3939217],[-66.1425597,-17.3946913],[-66.14292370000001,-17.3951433],[-66.1431094,-17.3953528],[-66.1432772,-17.3955556],[-66.1434016,-17.395681900000003],[-66.14379020000001,-17.3960495],[-66.1440656,-17.3962608],[-66.14431180000001,-17.396443400000003],[-66.14457460000001,-17.3966099],[-66.14482170000001,-17.396751400000003],[-66.1451356,-17.3969281],[-66.14539470000001,-17.397057200000003],[-66.14574250000001,-17.397234800000003],[-66.14678470000001,-17.3977645],[-66.14745690000001,-17.3981037],[-66.14767230000001,-17.3982059],[-66.1478288,-17.398264],[-66.1480011,-17.398308500000002],[-66.14815660000001,-17.398336200000003],[-66.14831550000001,-17.3983579],[-66.148511,-17.398367800000003],[-66.14855800000001,-17.398372600000002],[-66.14994870000001,-17.3984764],[-66.15058850000001,-17.398518000000003],[-66.1510902,-17.398456600000003],[-66.1519487,-17.3984139],[-66.15201040000001,-17.3984159],[-66.1520931,-17.3984305],[-66.15221910000001,-17.398466000000003],[-66.15236440000001,-17.398521000000002],[-66.1526616,-17.3986303],[-66.1527528,-17.398660500000002],[-66.15277370000001,-17.3986674],[-66.15310670000001,-17.3987465],[-66.15319450000001,-17.3987646],[-66.15417000000001,-17.39898],[-66.1542283,-17.398992900000003],[-66.15429560000001,-17.3990088],[-66.1552473,-17.3992338],[-66.15530360000001,-17.3992471],[-66.15534770000001,-17.399256700000002],[-66.156378,-17.399481],[-66.1564374,-17.399488700000003],[-66.1564991,-17.3994953],[-66.15675590000001,-17.399494800000003],[-66.15696360000001,-17.399463],[-66.1571541,-17.399440100000003],[-66.1575712,-17.3993743],[-66.1576356,-17.399365500000002],[-66.1577347,-17.399351900000003],[-66.1578434,-17.3993362],[-66.15843930000001,-17.399245200000003],[-66.1584983,-17.3992362],[-66.15861500000001,-17.399227200000002],[-66.1587124,-17.399228800000003],[-66.1587011,-17.3993022],[-66.15867700000001,-17.3994582],[-66.15867080000001,-17.3995086],[-66.15856140000001,-17.3995064],[-66.1578434,-17.399489900000003],[-66.1577288,-17.3994867],[-66.1577242,-17.3995661],[-66.1577104,-17.3998063],[-66.1576735,-17.400164800000002],[-66.15759510000001,-17.4009518],[-66.1575885,-17.401002300000002],[-66.15757520000001,-17.401153700000002],[-66.157522,-17.4015753],[-66.1574818,-17.4020121],[-66.1574693,-17.4021498],[-66.1574602,-17.4022501],[-66.1574143,-17.4026402],[-66.15738040000001,-17.402927400000003],[-66.15730570000001,-17.403430800000002],[-66.1571981,-17.4039846],[-66.1571744,-17.4040293],[-66.15714940000001,-17.404081100000003],[-66.15697510000001,-17.4051438],[-66.156929,-17.4053964],[-66.15671490000001,-17.4065683],[-66.15667520000001,-17.4068311],[-66.1566081,-17.407373500000002],[-66.1565791,-17.4075962],[-66.1565643,-17.407672],[-66.15655220000001,-17.4077489],[-66.1563919,-17.408892],[-66.1564986,-17.4095365],[-66.1565315,-17.4097021],[-66.1565518,-17.4097727],[-66.1567026,-17.4099988],[-66.1566909,-17.410101100000002],[-66.15669190000001,-17.4101809],[-66.1568278,-17.4105306],[-66.1568561,-17.410599700000002],[-66.15686380000001,-17.410628300000003],[-66.156869,-17.410647200000003],[-66.15691740000001,-17.410825900000003],[-66.1569262,-17.4108774],[-66.1569326,-17.41091],[-66.15693540000001,-17.410928600000002],[-66.1569386,-17.4109476],[-66.1569456,-17.410963600000002],[-66.15695260000001,-17.4109796],[-66.1569673,-17.4110131],[-66.1569848,-17.4110404],[-66.15700220000001,-17.411067600000003],[-66.15704170000001,-17.4111222],[-66.1570794,-17.4111663],[-66.1571423,-17.41123],[-66.1573365,-17.411404700000002],[-66.15751920000001,-17.4115684],[-66.1576313,-17.411657700000003],[-66.1578284,-17.4117712],[-66.1580895,-17.411881100000002],[-66.15839860000001,-17.4119835],[-66.15857390000001,-17.412065300000002],[-66.15866000000001,-17.4120908],[-66.1594257,-17.4126993],[-66.15946260000001,-17.412717800000003],[-66.15949350000001,-17.412735100000003],[-66.15951240000001,-17.412740900000003],[-66.15954160000001,-17.412731100000002],[-66.1595808,-17.4127277],[-66.1596116,-17.412731800000003],[-66.159633,-17.412738500000003],[-66.159653,-17.4127483],[-66.1596712,-17.412760900000002],[-66.1596871,-17.412776],[-66.1597084,-17.412806800000002],[-66.15977290000001,-17.412933300000002],[-66.1598239,-17.412996800000002],[-66.1598721,-17.4130547],[-66.1607022,-17.4136959],[-66.16150850000001,-17.414331500000003],[-66.1616711,-17.414445800000003],[-66.1617887,-17.414507800000003],[-66.1619089,-17.4145602],[-66.1620436,-17.4145979],[-66.16217180000001,-17.4146234],[-66.1622021,-17.4146284],[-66.16239060000001,-17.414659800000003],[-66.16245930000001,-17.4146521],[-66.16252650000001,-17.4146533],[-66.16260580000001,-17.4146657],[-66.16268190000001,-17.414689900000003],[-66.16275320000001,-17.4147253],[-66.1628177,-17.4147709],[-66.16287390000001,-17.4148256],[-66.1629204,-17.414888100000002],[-66.1629465,-17.4149354],[-66.1629669,-17.4149852],[-66.1629815,-17.4150369],[-66.16299090000001,-17.4150996],[-66.16299240000001,-17.415140200000003],[-66.1629848,-17.4152205],[-66.16296340000001,-17.415298500000002],[-66.16292870000001,-17.415372],[-66.16288180000001,-17.415439000000003],[-66.1628239,-17.415497700000003],[-66.16275540000001,-17.4155474],[-66.1626818,-17.4155839],[-66.1626016,-17.415609],[-66.16252340000001,-17.4156207],[-66.1623206,-17.4157067],[-66.16216630000001,-17.4157663],[-66.162029,-17.415843300000002],[-66.16192070000001,-17.4159191],[-66.1618028,-17.416016300000003],[-66.1616767,-17.4161445],[-66.160809,-17.4171887],[-66.1605469,-17.4174966],[-66.1599958,-17.4181609],[-66.1601316,-17.418247400000002],[-66.1601863,-17.418968800000002],[-66.1602392,-17.419690300000003],[-66.16026880000001,-17.4201565],[-66.1602749,-17.4202522],[-66.1602905,-17.420498900000002],[-66.1602936,-17.420539],[-66.1603434,-17.421198500000003],[-66.16030310000001,-17.4213302],[-66.1603843,-17.4218735],[-66.16038560000001,-17.4219681],[-66.1603625,-17.4220639],[-66.1603015,-17.4221618],[-66.16022140000001,-17.4222627],[-66.16015730000001,-17.422375900000002],[-66.1601316,-17.422513600000002],[-66.1601248,-17.422727100000003]],"nodes":[11921267092,13874805611,4218430517,4218430534,4183486352,4218430565,4218430588,4183486353,4218430631,4183486354,4218430652,4218430657,4183486355,4183486356,1723114215,4210163454,1723114147,6901644989,9209029218,6901644990,1723114306,1723114304,7435255105,1723114308,1723114102,6901607866,1723114097,1723114141,1720841105,1720841155,1720841171,6901644988,1545730739,6901607849,1545730760,4406416732,13520805524,6901607878,4406416731,1545730778,1545730790,6133430584,6133430547,2735650785,1545730809,5168428680,1545730848,6901607836,1545730877,1544965362,6531335223,1545731093,4921077353,1544965415,1545731130,1545731200,1545731228,1545731269,1545731291,1545731488,7241553273,1545731740,1545731982,8484023268,6133430622,6133430623,6133430624,6133430625,12534274229,6133430626,8189128447,6133430627,12534274250,1544965929,1544965856,4279518370,1545731473,1545731327,5168428637,6133430629,1544965936,1545731748,1544966484,1544966688,1544966841,1544967110,1544967352,1544967612,1544967857,1544967791,1544967716,1544967488,3943965736,3943965737,4265533947,7214385854,7214385853,1544967139,1544967093,1544967035,1544966662,1544966470,1544966027,12512646882,3839744307,1544965847,7243278736,12512646879,2879457942,1544965636,3917324685,6913320854,6133430597,6133430598,6133430585,12512863046,497147700,3839744316,12512656458,1544965631,12512808673,12512863072,1544965625,12512863073,497147705,3839755178,497147712,11081223539,1544965517,12512862902,4067009931,497147725,12512862991,3839755183,497147728,12512656396,3839755190,6301185915,1545731175,5276246606,497147731,497147734,3764806757,5158314412,2320095710,497147737,7352860819,2320095709,497147741,3764806636,2320095703,2320095698,4267227991,4267227990,497147744,2320095683,1721557143,8303818078,497147747,497147749,12529856291,8303818131,1551434932,497147762,12529856286,497147765,497147768,497147773,2320095667,2320095661,2894872170,7243278751,1609341587,11069359136,1609342101,2894872156,2320007441,11069359130,1609295567,2320007440,1609295565,1609296300,13747021035,4224992293,497167550,2894872126,497167560,2894872095,2894872077,12472745649,2894872069,13535410954,13535410946,13535410955,12472745657,2320007426,497167565,4224990396,2894872009,13535410956,497167945,1609296391,1609199990,4938009626,1609200312,4251839205,497167946,3238982971,3238982963,3238981557,497167948,8486768346,13585208204,1609200055,4938009400,13585208205,3238981548,13585165599,4251839058,497167949,13585208264,13585208263,3238981535,497167950,11069373691,1609199954,1609295515,1609295472,8641990308,8641990305,3593760407,4251838854,497168021,3301986359,3301986345,13585208312,13585208313,3593760363,13585208296,13585208314,3593760348,13585208306,1715114773,3301986324,497168023,4251838707,11081145121,7243278757,11081145119,4251838692,3445610560,3445515644,1609295488,497168363,1609295335,1609295524,2956787636,2508868828,13535744069,2508868825,12529903869,1609295397,1609366183,1609295440,1609221020,1609221140,1609200185,9156300405,2450079042,7436412015,1609221063,497168741,9156300398,2398626869,1609200177,2398626833,2398626816,1609200081,8162958911,8162958910,7033772018,1609200049,8162958914,497169501,497169504,1485097031,1485097020,1485097014,3877506232,1044379733,9366321725,8455317281,1009167683,8455317287,3290785083,11074088806,8162958964,1008238435,9012647241,497170001,9364555678,12952456793,1008238205,12952456779,12952456795,1008238230,8455639761,9364555682,7070768690,497170007,1008238537,497170008,497170010,1008238793,9364556031,497169979,497169953,6818591873,3316224538,12565837684,9359800374,9359800375,497169954,497169957,1044379345,12565837681,1009166481,497169958,6331635756,1009167549,497169962,6331635762,1044379589,1044379213,7965603739,598266521,598266518,1044379730,1044379735,1796486751,7965587281,1796486753,6331635754,1796486765,1044378919,9049714571,8385091906,598266493,8385091908,8385091907,602989551,8385091909,8385091914,5298602495,8385091913,1795293284,1795293323,8385091911,8385091910,8385091912,1795293424,1795293286,1795293393,1796486807,5298602505,1796486812,1636873767,9047064102,2391341675,668478462,9047064133,9047064135,602989556,12062691268,1796486893,5224206197,8172704560,6331635885,8172704552,9890964954,2033333485,668478472,9890964955,9890964956,2033333488,315132061,2590032663,3226047987,315132059,315132057,9890964962,12802743974,2033333497,315132055,315132053,360142452,315132049,1637465108,2590032755,360141986,315131930,315131928,2590032791,315131926,3316228711,315131924,315131922,315132384,8638840332,315131921,1870795446,315131920,315131919,11011208178,2321582877,13101739750,12384489735,8403435194,8403435196,12384489736,5355650068,315132591,9061533593,315130937,1873958871,12096161291,315131406,7821726048,1873958884,1873958889,1873958919,1873958925,315031227,315142208,315134274,2033334984,10597422695,2033335103,11072493727,2033335200,2033335257,11072493723,2033335311,2033335550,8619283530,8253508719,315031289,598789073,598789071,8253508706,315031292,315031293,315031294,8250070339,598789057,391727105,2033336773,702512026,315031513,315031514,315031515,315031516,315031517,8250061916,315031543,8004756950,1727306399,598789381,1727306395,2765190357,2765190359,9121680511,1727306396,8241198663,8238783261,8238783233,2765190377,8238783242,3269819960,12081159183,1727306400,12081159182,3674274541,1727306404,3674274542,12081159193,1727306401,2398944652,2398944653,11679558744,7767900404,4929965568,1727306403,1865095006,2398944637,10921117778,2398944625,9566992862,315111204,10921117750,8099810118,13484099735,9593572466,2398944651,648548910,2398944656,2577975072,4449488611,2577975100,648543481,8637329085,2577975115,2577975131,9090462298,648542366,9652874528,702511644,2577975282,2577975307,9090462294,648542369,648542365,9131177339,323972806,2763553535,702511613,2763553554,2763553563,8226219195,319762950,9131083908,4477790775,702721240,2576698538,9131107895,10046445859,2576698561,2576698592,13448698821,13448698822,10892572063,10046249670,7902420007,10046249667,4477791070,10046445902,2576698674,1527822562,10046445903,10046406799,10046249653,10046406800,7947239539,10046406798,702721236,2716726766,702721233,702721232,707336838,702721231,12100035080,702721228,3303558644,9438085274,9438085262,2716726787,9438085260,2716726788,9438085273,2716726791,9438085272,2716726793,2716726797,2716726806,702721154,9438085222,497189303,497188705,1762869395,9203487809,497188924,5540948696,497188933,10752482122,497187811,11086439377,11086439378,6351767103,497187812,497187813,9203537851,1762869440,10752482126,497187815,9203487806,497187816,11086439375,11086439376,497187819,497187820,9203487800,1762869479,9203487801,3017385100,9203487802,11114802785,497187800,9203537840,9203487799,497188639,9203487798,1762869495,497188549,1638809217,1865112155,1866239317,1866239385,2022073879,1866239383,7767883931,7767883932,2022073880,7767883936,1866239322,1638809230,1638807806,1638809234,1638809237,1638809250,1638809252,1638809256,1638809258,1865124212]},"gtfs":{"agency_id":18,"route_id":62,"services":[{"service_id":"Mo-Su","startTime":"06:00","endTime":"22:00","trip_id":20739192}],"filteredStops":{"nodes":[11921267092,4183486352,4183486353,4218430657,1723114215,9209029218,1723114304,6901607866,1720841105,1545730739,4406416732,1545730778,6133430547,1545730848,1544965362,1544965415,1545731269,7241553273,6133430622,6133430625,6133430627,1544965856,5168428637,1545731748,1544967110,1544967857,3943965736,7214385854,1544967035,1544966027,7243278736,3917324685,6133430598,3839744316,12512808673,497147705,11081223539,497147725,497147728,1545731175,497147734,497147737,497147741,4267227991,2320095683,497147749,1551434932,497147768,2894872170,11069359136,11069359130,1609295565,497167550,2894872095,13535410954,12472745657,2894872009,1609296391,4251839205,3238982963,13585208204,13585208205,497167949,497167950,1609295515,3593760407,3301986359,3593760363,3593760348,497168023,7243278757,3445515644,1609295335,13535744069,1609295397,1609221140,2450079042,9156300398,2398626816,8162958910,497169501,1485097020,9366321725,8455317287,1008238435,9364555678,12952456795,9364555682,497170008,9364556031,3316224538,9359800375,12565837681,1009167549,1044379589,598266518,1796486751,1796486765,8385091906,602989551,5298602495,8385091911,1795293424,5298602505,9047064102,9047064135,1796486893,8172704552,668478472,315132061,315132057,2033333497,315132049,360141986,315131926,315131922,1870795446,11011208178,8403435194,5355650068,1873958871,7821726048,1873958925,315134274,11072493727,2033335311,8253508719,8253508706,315031294,2033336773,315031514,8250061916,1727306399,2765190359,8241198663,8238783242,1727306400,3674274542,2398944652,1727306403,1865095006,315111204,2398944651,2577975100,9090462298,2577975282,9131177339,2763553563,702721240,2576698592,7902420007,1527822562,7947239539,702721233,702721228,9438085260,2716726797,2716726806,5540948696,497187812,11086439375,3017385100,497188549,1638809217,1865112155,2022073879,7767883932,1866239322,1638807806,1638809250,1865124212],"coordinates":[[-66.02847150000001,-17.383124600000002],[-66.0282602,-17.3834108],[-66.0281248,-17.383817800000003],[-66.0281355,-17.3842824],[-66.0289051,-17.386235300000003],[-66.02962690000001,-17.3883666],[-66.02993210000001,-17.388737000000003],[-66.0310386,-17.389412800000002],[-66.0316351,-17.391581600000002],[-66.03072130000001,-17.3918725],[-66.030865,-17.393179500000002],[-66.03104370000001,-17.3941538],[-66.03140400000001,-17.3947483],[-66.0319139,-17.3954279],[-66.03227720000001,-17.3962369],[-66.03319540000001,-17.3974325],[-66.0306934,-17.399137500000002],[-66.0312277,-17.400551500000002],[-66.03253450000001,-17.4024283],[-66.0338672,-17.402045],[-66.03616600000001,-17.401100000000003],[-66.03538250000001,-17.400421700000003],[-66.0364315,-17.3999308],[-66.03734100000001,-17.401459600000003],[-66.0383901,-17.403379100000002],[-66.0392731,-17.405351600000003],[-66.04002720000001,-17.404229],[-66.039856,-17.4036742],[-66.0413845,-17.403064200000003],[-66.0440542,-17.401112400000002],[-66.0435588,-17.399996100000003],[-66.04354190000001,-17.399583500000002],[-66.04736650000001,-17.3996329],[-66.0484055,-17.3996013],[-66.04904900000001,-17.3996089],[-66.0498642,-17.399587200000003],[-66.0509268,-17.3994266],[-66.0519831,-17.399083800000003],[-66.05249420000001,-17.3988559],[-66.0535801,-17.3981971],[-66.0545955,-17.3975864],[-66.05585830000001,-17.396807300000003],[-66.0574423,-17.3958313],[-66.0593894,-17.3946958],[-66.0603828,-17.3941032],[-66.0615427,-17.393538900000003],[-66.06201730000001,-17.393410000000003],[-66.0636984,-17.3930489],[-66.0656417,-17.3927033],[-66.0674233,-17.3923449],[-66.0691034,-17.392007300000003],[-66.07104480000001,-17.391616300000003],[-66.07388920000001,-17.391027100000002],[-66.074837,-17.3907698],[-66.07546430000001,-17.3906488],[-66.0758598,-17.390565300000002],[-66.0772479,-17.390335500000003],[-66.0780455,-17.390183200000003],[-66.08236070000001,-17.3892907],[-66.0837257,-17.3889837],[-66.08468850000001,-17.3887615],[-66.0849965,-17.3886946],[-66.0860536,-17.388474600000002],[-66.0871412,-17.3883204],[-66.0935805,-17.387006500000002],[-66.0959866,-17.3865176],[-66.09712130000001,-17.3862287],[-66.0979734,-17.3860433],[-66.0982886,-17.385977],[-66.09953420000001,-17.385747400000003],[-66.1012826,-17.3854502],[-66.1034053,-17.3849957],[-66.10681860000001,-17.3843223],[-66.1094935,-17.383784600000002],[-66.11055110000001,-17.383561500000003],[-66.11474120000001,-17.3826937],[-66.1167504,-17.382281600000002],[-66.1185475,-17.381807000000002],[-66.11999700000001,-17.381166800000003],[-66.1208417,-17.3806461],[-66.1221658,-17.3797745],[-66.122742,-17.379389900000003],[-66.1257746,-17.377356000000002],[-66.1271995,-17.3763545],[-66.1282882,-17.3756033],[-66.12893100000001,-17.3751503],[-66.12925580000001,-17.374947000000002],[-66.1294482,-17.374850400000003],[-66.13028010000001,-17.37459],[-66.1313669,-17.374523200000002],[-66.13236900000001,-17.374525700000003],[-66.1336639,-17.3745303],[-66.13497140000001,-17.3745873],[-66.1355865,-17.3747547],[-66.13617570000001,-17.375044600000003],[-66.13756330000001,-17.375942600000002],[-66.138489,-17.376383800000003],[-66.1396414,-17.3767716],[-66.1410415,-17.3770506],[-66.1422247,-17.3773187],[-66.14233730000001,-17.377395200000002],[-66.1424178,-17.3775385],[-66.142421,-17.3776344],[-66.1423189,-17.378408800000003],[-66.14217950000001,-17.3796304],[-66.1420921,-17.380467300000003],[-66.1420076,-17.3811794],[-66.1419807,-17.3814268],[-66.1420035,-17.381621300000003],[-66.14213500000001,-17.381974000000003],[-66.1424652,-17.382729400000002],[-66.14239590000001,-17.383092100000002],[-66.1416847,-17.384376900000003],[-66.1413158,-17.385068800000003],[-66.14104560000001,-17.385687700000002],[-66.1409277,-17.3869767],[-66.1407806,-17.388218300000002],[-66.14061600000001,-17.388638500000003],[-66.1404438,-17.388979600000003],[-66.140276,-17.389310100000003],[-66.13967170000001,-17.390488400000002],[-66.1395959,-17.390677800000002],[-66.1396807,-17.391071],[-66.1411176,-17.392891900000002],[-66.14189300000001,-17.393798800000003],[-66.14192050000001,-17.3938773],[-66.14292370000001,-17.3951433],[-66.14379020000001,-17.3960495],[-66.14457460000001,-17.3966099],[-66.14574250000001,-17.397234800000003],[-66.14767230000001,-17.3982059],[-66.14831550000001,-17.3983579],[-66.14994870000001,-17.3984764],[-66.15201040000001,-17.3984159],[-66.15236440000001,-17.398521000000002],[-66.15310670000001,-17.3987465],[-66.1542283,-17.398992900000003],[-66.15534770000001,-17.399256700000002],[-66.1564991,-17.3994953],[-66.1576356,-17.399365500000002],[-66.1577347,-17.399351900000003],[-66.1587124,-17.399228800000003],[-66.1578434,-17.399489900000003],[-66.15759510000001,-17.4009518],[-66.1574693,-17.4021498],[-66.15730570000001,-17.403430800000002],[-66.156929,-17.4053964],[-66.1565643,-17.407672],[-66.1565518,-17.4097727],[-66.1568561,-17.410599700000002],[-66.1569326,-17.41091],[-66.1569673,-17.4110131],[-66.1571423,-17.41123],[-66.1578284,-17.4117712],[-66.1594257,-17.4126993],[-66.1595808,-17.4127277],[-66.1597084,-17.412806800000002],[-66.15977290000001,-17.412933300000002],[-66.1620436,-17.4145979],[-66.16268190000001,-17.414689900000003],[-66.16299090000001,-17.4150996],[-66.16275540000001,-17.4155474],[-66.1616767,-17.4161445],[-66.160809,-17.4171887],[-66.1605469,-17.4174966],[-66.1601863,-17.418968800000002],[-66.1602749,-17.4202522],[-66.1603434,-17.421198500000003],[-66.1603843,-17.4218735],[-66.1603015,-17.4221618],[-66.1601248,-17.422727100000003]]}}},{"type":"Feature","properties":{"bus":"yes","highway":"bus_stop","name":"Parada MiniBus 233","public_transport":"platform","id":13874686164},"geometry":{"type":"Point","coordinates":[-66.028478,-17.383183000000002]}},{"type":"Feature","properties":{"bus":"yes","highway":"bus_stop","name":"Parada MiniBus 233","public_transport":"platform","id":9181583444},"geometry":{"type":"Point","coordinates":[-66.16019770000001,-17.4228284]}}]}