{"type":"FeatureCollection","features":[{"type":"Feature","properties":{"check_date":"46167","description":"Nro. rosado: circunvalación","fixme":"add tags","from":"Fabril Huayllani","name":"Trufi 220: Fabril Huayllani → Chavez Rancho","operator":"Sindicato mixto de transportistas Santa Rosa de Lima","public_transport:version":"2","ref":"220","route":"bus","to":"Chavez Rancho","type":"route","id":20744140},"geometry":{"type":"LineString","coordinates":[[-66.06087430000001,-17.377934600000003],[-66.06143680000001,-17.3779971],[-66.0621974,-17.378081700000003],[-66.0627597,-17.3781442],[-66.06321750000001,-17.378195100000003],[-66.0637585,-17.3782552],[-66.0648759,-17.3783794],[-66.06500840000001,-17.3783941],[-66.06509650000001,-17.378403900000002],[-66.06556280000001,-17.3784737],[-66.0660522,-17.378531600000002],[-66.06654540000001,-17.378601],[-66.06707180000001,-17.3786591],[-66.0675755,-17.3787172],[-66.06912510000001,-17.3789216],[-66.0693409,-17.3789489],[-66.0698167,-17.378988000000003],[-66.0704178,-17.379061500000002],[-66.07072720000001,-17.379097700000003],[-66.0707806,-17.379104100000003],[-66.07108240000001,-17.3791131],[-66.0714176,-17.3790838],[-66.0720623,-17.378998300000003],[-66.0735865,-17.378803400000002],[-66.0739812,-17.378752900000002],[-66.07465830000001,-17.378666300000003],[-66.075101,-17.378608500000002],[-66.0757092,-17.378529200000003],[-66.07579600000001,-17.3785178],[-66.07588410000001,-17.3785069],[-66.07759510000001,-17.378295100000003],[-66.0777887,-17.3782682],[-66.0778598,-17.378259200000002],[-66.0779406,-17.3782487],[-66.0789132,-17.3781229],[-66.080967,-17.377863],[-66.08105660000001,-17.377852700000002],[-66.08157770000001,-17.377780700000002],[-66.0821437,-17.3777025],[-66.0826754,-17.377629000000002],[-66.0836816,-17.3774966],[-66.0838138,-17.3774827],[-66.08516150000001,-17.377308000000003],[-66.0852122,-17.3773018],[-66.08533630000001,-17.377288800000002],[-66.0854271,-17.3772743],[-66.08643570000001,-17.3771431],[-66.0873083,-17.3770275],[-66.0881511,-17.3769165],[-66.0888281,-17.376834900000002],[-66.08982320000001,-17.3767116],[-66.0907682,-17.3765776],[-66.09146600000001,-17.3765],[-66.09157660000001,-17.376487700000002],[-66.09174270000001,-17.376466500000003],[-66.09280220000001,-17.376331],[-66.0934785,-17.376242],[-66.09356220000001,-17.3762338],[-66.0936685,-17.3762194],[-66.09371200000001,-17.3762143],[-66.0941011,-17.376165200000003],[-66.09462880000001,-17.376098600000002],[-66.09565660000001,-17.375964],[-66.09606450000001,-17.375916500000002],[-66.09622250000001,-17.3758924],[-66.0972935,-17.375749600000002],[-66.0981912,-17.375640200000003],[-66.09918470000001,-17.375505800000003],[-66.09922710000001,-17.3755001],[-66.09928790000001,-17.3754928],[-66.0993356,-17.375487200000002],[-66.1001366,-17.3753955],[-66.10115880000001,-17.375260500000003],[-66.102249,-17.375116600000002],[-66.10292770000001,-17.375027000000003],[-66.1036696,-17.3749442],[-66.10452090000001,-17.3748308],[-66.1046256,-17.3748006],[-66.1050972,-17.374596500000003],[-66.10599760000001,-17.3741939],[-66.1060782,-17.374153000000003],[-66.1066059,-17.3739041],[-66.1067563,-17.373836400000002],[-66.1068929,-17.3737885],[-66.1070215,-17.373774200000003],[-66.1070751,-17.3737701],[-66.107673,-17.373771100000003],[-66.1087627,-17.373768300000002],[-66.11082640000001,-17.3737676],[-66.1109222,-17.373764700000002],[-66.1110153,-17.3737587],[-66.11109610000001,-17.373747],[-66.11119190000001,-17.373726],[-66.1118637,-17.373292000000003],[-66.11200640000001,-17.3731584],[-66.11213670000001,-17.373060600000002],[-66.11223500000001,-17.372993400000002],[-66.1123223,-17.372932600000002],[-66.11241620000001,-17.3728911],[-66.1125291,-17.372860600000003],[-66.1126146,-17.372850000000003],[-66.11266470000001,-17.3728461],[-66.1128063,-17.3728477],[-66.1129044,-17.372858200000003],[-66.1130138,-17.3728644],[-66.11347070000001,-17.3728783],[-66.11380600000001,-17.372892],[-66.11438770000001,-17.372912200000002],[-66.11495450000001,-17.372928100000003],[-66.11572100000001,-17.3729657],[-66.11693790000001,-17.3730218],[-66.11819510000001,-17.3730811],[-66.1182593,-17.3730841],[-66.11831160000001,-17.3730867],[-66.11984290000001,-17.373162400000002],[-66.1203091,-17.373190700000002],[-66.12125200000001,-17.3732308],[-66.1224231,-17.3732845],[-66.12253480000001,-17.3732867],[-66.12261330000001,-17.373281900000002],[-66.1226905,-17.373274400000003],[-66.12270120000001,-17.3732672],[-66.12272060000001,-17.3732583],[-66.1227415,-17.3732536],[-66.122763,-17.3732532],[-66.1227841,-17.3732571],[-66.1228038,-17.373265200000002],[-66.12281680000001,-17.3732735],[-66.12289390000001,-17.3732866],[-66.1229512,-17.3732928],[-66.12304830000001,-17.373301100000003],[-66.1234141,-17.373310800000002],[-66.1235259,-17.3733116],[-66.1235776,-17.373313500000002],[-66.1239092,-17.373320500000002],[-66.12416,-17.373325100000002],[-66.12472960000001,-17.3733423],[-66.12560540000001,-17.373373700000002],[-66.1258184,-17.3733864],[-66.12614500000001,-17.3734059],[-66.12623350000001,-17.373409600000002],[-66.1271342,-17.373442200000003],[-66.1276215,-17.3734599],[-66.1286377,-17.3734742],[-66.1287806,-17.373469],[-66.1288718,-17.373455900000003],[-66.1289804,-17.373427200000002],[-66.1290673,-17.3733898],[-66.1291753,-17.3733341],[-66.1293134,-17.3732714],[-66.12945570000001,-17.373222300000002],[-66.1295565,-17.3732012],[-66.129686,-17.3731739],[-66.1298501,-17.3731449],[-66.13031790000001,-17.3731127],[-66.1306023,-17.3730894],[-66.1307793,-17.373061],[-66.1309291,-17.3730212],[-66.1310179,-17.3729845],[-66.13148120000001,-17.3727838],[-66.13161930000001,-17.3727343],[-66.1318136,-17.372661200000003],[-66.13190850000001,-17.372646000000003],[-66.1329231,-17.372357100000002],[-66.13303040000001,-17.37233],[-66.13316590000001,-17.372312800000003],[-66.13329250000001,-17.3723089],[-66.13337720000001,-17.3723184],[-66.1335092,-17.3723479],[-66.13369150000001,-17.3723819],[-66.13412070000001,-17.3724619],[-66.13417390000001,-17.372471800000003],[-66.1342413,-17.3724859],[-66.1347484,-17.3725916],[-66.1350955,-17.3726555],[-66.13516150000001,-17.3726676],[-66.13521610000001,-17.3726819],[-66.1355236,-17.372736000000003],[-66.13569360000001,-17.372760600000003],[-66.1358009,-17.372762400000003],[-66.1358677,-17.372760300000003],[-66.13597130000001,-17.372756000000003],[-66.13607130000001,-17.372746300000003],[-66.13613020000001,-17.3727406],[-66.1362225,-17.372731700000003],[-66.1364442,-17.372705800000002],[-66.1365705,-17.372684500000002],[-66.13661850000001,-17.372672100000003],[-66.13668650000001,-17.372653800000002],[-66.1367319,-17.3726376],[-66.1367986,-17.3727325],[-66.1368269,-17.372781500000002],[-66.1368693,-17.3728583],[-66.13689480000001,-17.372917400000002],[-66.13690600000001,-17.3729586],[-66.1369073,-17.373002900000003],[-66.136881,-17.3732055],[-66.13684,-17.373471900000002],[-66.1368439,-17.373554400000003],[-66.13687420000001,-17.373674],[-66.1369629,-17.3739679],[-66.136975,-17.373977500000002],[-66.13702590000001,-17.373966900000003],[-66.13707670000001,-17.3739665],[-66.1371628,-17.3739898],[-66.13726190000001,-17.3740157],[-66.1373665,-17.3740291],[-66.1377544,-17.3740075],[-66.1379938,-17.3739923],[-66.13803100000001,-17.373989700000003],[-66.13806550000001,-17.373987300000003],[-66.13879820000001,-17.373941700000003],[-66.13884030000001,-17.373938900000002],[-66.13967260000001,-17.3738852],[-66.13977150000001,-17.3738792],[-66.1405964,-17.373829500000003],[-66.14160030000001,-17.373772000000002],[-66.1422624,-17.373734600000002],[-66.1423298,-17.373722200000003],[-66.1424276,-17.3736928],[-66.1424961,-17.3736651],[-66.1426187,-17.3736122],[-66.14265400000001,-17.3735557],[-66.1426742,-17.373532200000003],[-66.1427001,-17.3735067],[-66.1427463,-17.373472500000002],[-66.14279780000001,-17.373446100000002],[-66.1428532,-17.373428],[-66.14290650000001,-17.373419300000002],[-66.14296060000001,-17.373418400000002],[-66.1430141,-17.3734253],[-66.143066,-17.3734399],[-66.1431441,-17.373479500000002],[-66.14320950000001,-17.3735363],[-66.14325810000001,-17.3736067],[-66.1433648,-17.3736706],[-66.1434091,-17.3736789],[-66.143743,-17.373666],[-66.14381540000001,-17.3736615],[-66.1443457,-17.3736292],[-66.1445029,-17.3736196],[-66.1446097,-17.3736146],[-66.14564530000001,-17.373547400000003],[-66.14585340000001,-17.3735342],[-66.146669,-17.3734776],[-66.1467391,-17.3734727],[-66.1468978,-17.3734617],[-66.14704470000001,-17.3734515],[-66.14716,-17.3734435],[-66.1477354,-17.373403600000003],[-66.1485729,-17.3733532],[-66.1491709,-17.3733174],[-66.1493762,-17.373305900000002],[-66.1494179,-17.3732966],[-66.14946540000001,-17.3732778],[-66.14948290000001,-17.373254000000003],[-66.1495055,-17.3732341],[-66.14952910000001,-17.3732207],[-66.1495551,-17.3732119],[-66.1495828,-17.3732079],[-66.14961690000001,-17.373210200000003],[-66.14965000000001,-17.3732204],[-66.1496795,-17.373237900000003],[-66.14970310000001,-17.3732611],[-66.1497561,-17.3732748],[-66.1497987,-17.3732787],[-66.1505133,-17.3732341],[-66.15095480000001,-17.373206600000003],[-66.1510593,-17.3732],[-66.15117380000001,-17.373193],[-66.15120830000001,-17.3731909],[-66.15144260000001,-17.3731741],[-66.1524613,-17.373111],[-66.15341910000001,-17.3730516],[-66.1535724,-17.373042100000003],[-66.1536725,-17.3730353],[-66.15377450000001,-17.373028400000003],[-66.15462020000001,-17.372979200000003],[-66.1546879,-17.3729757],[-66.15479110000001,-17.3729683],[-66.1564764,-17.3728483],[-66.156552,-17.3728389],[-66.15656940000001,-17.3727842],[-66.1565973,-17.3727336],[-66.15663470000001,-17.3726889],[-66.15668020000001,-17.372651700000002],[-66.15673220000001,-17.372623200000003],[-66.1567699,-17.3726096],[-66.15680920000001,-17.372600600000002],[-66.1568493,-17.3725972],[-66.1569111,-17.372604300000003],[-66.15697030000001,-17.372622900000003],[-66.15702440000001,-17.372652300000002],[-66.1570714,-17.372691300000003],[-66.15710940000001,-17.372738400000003],[-66.1571284,-17.3727719],[-66.1571471,-17.3728227],[-66.1571538,-17.3728762],[-66.1571481,-17.3729298],[-66.157128,-17.3729915],[-66.1570942,-17.373047500000002],[-66.1570483,-17.3730951],[-66.15699930000001,-17.3731282],[-66.1569358,-17.3731547],[-66.1568749,-17.3731659],[-66.1568835,-17.3734259],[-66.15689230000001,-17.373805800000003],[-66.1568939,-17.3738764],[-66.1568958,-17.3739372],[-66.1569051,-17.3742412],[-66.15691360000001,-17.374515600000002],[-66.15691500000001,-17.3748036],[-66.156918,-17.37488],[-66.1569207,-17.374959],[-66.156923,-17.375057700000003],[-66.1569255,-17.375109100000003],[-66.15693680000001,-17.375509400000002],[-66.1569628,-17.3763095],[-66.1569647,-17.376371000000002],[-66.15696550000001,-17.376422100000003],[-66.15697700000001,-17.376945300000003],[-66.15697820000001,-17.377023400000002],[-66.1569803,-17.3770764],[-66.1570123,-17.3780292],[-66.1570174,-17.3781195],[-66.1570188,-17.3781946],[-66.1570224,-17.3783914],[-66.15703570000001,-17.379124800000003],[-66.15705000000001,-17.379907900000003],[-66.15708310000001,-17.380027700000003],[-66.1570866,-17.380080500000002],[-66.1571031,-17.3801315],[-66.1571196,-17.3801577],[-66.15715900000001,-17.3801919],[-66.1572185,-17.3802097],[-66.15739590000001,-17.380226800000003],[-66.15763030000001,-17.380248700000003],[-66.1577262,-17.3803032],[-66.1578521,-17.380318300000003],[-66.1589235,-17.380448100000002],[-66.1592037,-17.380482100000002],[-66.1593325,-17.380497700000003],[-66.1593481,-17.3804996],[-66.159389,-17.380504000000002],[-66.15941910000001,-17.3805072],[-66.15949,-17.380514700000003],[-66.1596353,-17.380527100000002],[-66.16004790000001,-17.380575],[-66.1601103,-17.380584900000002],[-66.1601655,-17.380593700000002],[-66.1601869,-17.380589800000003],[-66.16023290000001,-17.3805854],[-66.1602787,-17.380591000000003],[-66.1603336,-17.3806103],[-66.1603723,-17.3806352],[-66.1604046,-17.3806674],[-66.16042920000001,-17.380705300000002],[-66.16044600000001,-17.380753300000002],[-66.1604502,-17.3808037],[-66.1604418,-17.380853600000002],[-66.16042110000001,-17.3809001],[-66.1603894,-17.380940600000002],[-66.16034830000001,-17.381026300000002],[-66.1603242,-17.3810949],[-66.16030110000001,-17.381163100000002],[-66.1602836,-17.3812089],[-66.16026480000001,-17.381271400000003],[-66.1602553,-17.381306000000002],[-66.16014910000001,-17.381663200000002],[-66.1601392,-17.381699],[-66.16011800000001,-17.3817783],[-66.16010680000001,-17.3818443],[-66.1600997,-17.381917100000003],[-66.1601024,-17.3820084],[-66.16012400000001,-17.3821361],[-66.1601469,-17.382213200000002],[-66.1601468,-17.382292600000003],[-66.16014030000001,-17.382329000000002],[-66.1601337,-17.3823653],[-66.1601052,-17.382432700000003],[-66.16004910000001,-17.3824933],[-66.1599485,-17.3825638],[-66.1598111,-17.382667100000003],[-66.1597435,-17.3827412],[-66.15965130000001,-17.382865300000002],[-66.1596135,-17.382944700000003],[-66.1595022,-17.3830911],[-66.15933860000001,-17.3833062],[-66.1593007,-17.383356000000003],[-66.1591066,-17.383611400000003],[-66.15899590000001,-17.383757000000003],[-66.15888650000001,-17.3839009],[-66.15884720000001,-17.3839526],[-66.15880410000001,-17.3840085],[-66.1587884,-17.3840289],[-66.1586145,-17.3842548],[-66.1584148,-17.384514000000003],[-66.1583937,-17.3845414],[-66.1583738,-17.384566900000003],[-66.1582879,-17.3846768],[-66.1580811,-17.384947200000003],[-66.1579708,-17.385071800000002],[-66.1579598,-17.385085800000002],[-66.15793570000001,-17.385117800000003],[-66.1578614,-17.3852154],[-66.15776070000001,-17.385338800000003],[-66.15750840000001,-17.385662800000002],[-66.1568608,-17.38651],[-66.15681000000001,-17.386619900000003],[-66.1568706,-17.3866486],[-66.1576052,-17.386975900000003],[-66.1576689,-17.387001],[-66.15773750000001,-17.3870171],[-66.1586618,-17.3871389],[-66.1587356,-17.3871505],[-66.15878350000001,-17.3871594],[-66.15985060000001,-17.3873411],[-66.1599197,-17.3873512],[-66.1607699,-17.3875037],[-66.1608537,-17.3875198],[-66.1609408,-17.387533400000002],[-66.1613999,-17.387604900000003],[-66.1619575,-17.387691800000002],[-66.162025,-17.387702400000002],[-66.16208160000001,-17.3877126],[-66.1627663,-17.387833500000003],[-66.16282860000001,-17.387844700000002],[-66.1628914,-17.3878546],[-66.1631828,-17.387904000000002],[-66.16373370000001,-17.3879975],[-66.1637673,-17.3879902],[-66.16379570000001,-17.3879805],[-66.16387950000001,-17.3879509],[-66.163953,-17.387925000000003],[-66.16417700000001,-17.387846000000003],[-66.1643272,-17.3877922],[-66.16438480000001,-17.387771100000002],[-66.16444410000001,-17.3877488],[-66.16451620000001,-17.3877208],[-66.16485780000001,-17.387580900000003],[-66.16490180000001,-17.3875643],[-66.164924,-17.3875552],[-66.16503630000001,-17.387523700000003],[-66.1655829,-17.3873123],[-66.1657108,-17.387250700000003],[-66.1657931,-17.387190500000003],[-66.1658953,-17.387097200000003],[-66.16595330000001,-17.3870258],[-66.16599860000001,-17.3869648],[-66.1661071,-17.386818700000003],[-66.1663218,-17.3865558],[-66.16657070000001,-17.3862431],[-66.16661040000001,-17.386195700000002],[-66.1670888,-17.385664600000002],[-66.1675962,-17.3850394],[-66.168338,-17.3841414],[-66.16849060000001,-17.3839992],[-66.16860870000001,-17.3839101],[-66.1687242,-17.383841500000003],[-66.1690317,-17.3836671],[-66.16927190000001,-17.3835371],[-66.1693484,-17.383493100000003],[-66.16954770000001,-17.3834035],[-66.16955180000001,-17.3833987],[-66.16955610000001,-17.3833941],[-66.1695931,-17.383366300000002],[-66.1696373,-17.3833509],[-66.1696843,-17.383349300000003],[-66.16972960000001,-17.3833616],[-66.16974110000001,-17.3833673],[-66.1697836,-17.3834021],[-66.16980980000001,-17.3834494],[-66.16981600000001,-17.383502500000002],[-66.16980140000001,-17.3835541],[-66.169797,-17.3835622],[-66.1697821,-17.383658200000003],[-66.16976360000001,-17.3837505],[-66.1697503,-17.3838437],[-66.16974230000001,-17.3839374],[-66.1697396,-17.3840314],[-66.1698097,-17.3843673],[-66.17001420000001,-17.3853975],[-66.1700272,-17.3854642],[-66.17004510000001,-17.3855502],[-66.1700773,-17.3857043],[-66.17009150000001,-17.385772600000003],[-66.17015020000001,-17.385868300000002],[-66.17025050000001,-17.3863562],[-66.17038520000001,-17.387011700000002],[-66.17048190000001,-17.3874454],[-66.1705034,-17.387504900000003],[-66.1705393,-17.387559800000002],[-66.17064880000001,-17.3877039],[-66.1706686,-17.387726200000003],[-66.1706841,-17.3877513],[-66.1706953,-17.387779300000002],[-66.1707014,-17.387808600000003],[-66.1707023,-17.387838400000003],[-66.17069620000001,-17.3878768],[-66.17067870000001,-17.387915300000003],[-66.1706552,-17.387945900000002],[-66.17063320000001,-17.387965700000002],[-66.17058610000001,-17.3880455],[-66.17057600000001,-17.3880765],[-66.1705659,-17.3881075],[-66.1705579,-17.3881811],[-66.170568,-17.3888256],[-66.1705932,-17.3895269],[-66.17059420000001,-17.389574500000002],[-66.170602,-17.3899538],[-66.1706029,-17.3900058],[-66.1706042,-17.3900614],[-66.1706053,-17.3901173],[-66.1706154,-17.3906075],[-66.1706166,-17.3906646],[-66.1706322,-17.3912321],[-66.1706331,-17.391377900000002],[-66.17063320000001,-17.3913963],[-66.1706443,-17.392117900000002],[-66.170648,-17.3921944],[-66.1706589,-17.3922576],[-66.1706764,-17.392854],[-66.1706963,-17.3936412],[-66.1707008,-17.3937272],[-66.1707334,-17.393737400000003],[-66.1707636,-17.3937528],[-66.1707906,-17.393772900000002],[-66.1708136,-17.3937971],[-66.1708318,-17.393824700000003],[-66.17084480000001,-17.3938549],[-66.1708522,-17.3938868],[-66.17085370000001,-17.393919500000003],[-66.1708493,-17.3939519],[-66.17083910000001,-17.393983000000002],[-66.1708234,-17.3940121],[-66.1708028,-17.394038100000003],[-66.1707777,-17.3940604],[-66.17074910000001,-17.394078200000003],[-66.17071770000001,-17.394089],[-66.1706843,-17.394098600000003],[-66.17068850000001,-17.394224100000002],[-66.1707092,-17.3947161],[-66.17071100000001,-17.3947584],[-66.17071320000001,-17.394804],[-66.170742,-17.3953917],[-66.170744,-17.3954384],[-66.17075030000001,-17.3955851],[-66.1707691,-17.3960207],[-66.17077640000001,-17.396150900000002],[-66.1707885,-17.396463400000002],[-66.17078910000001,-17.3964782],[-66.1707935,-17.396554700000003],[-66.1707985,-17.3966654],[-66.1707607,-17.3967095],[-66.1707612,-17.3967643],[-66.17042740000001,-17.3971944],[-66.17036800000001,-17.3972862],[-66.1703281,-17.3973611],[-66.17009630000001,-17.3978116],[-66.1698672,-17.398254400000003],[-66.1698367,-17.3983035],[-66.1699162,-17.3983442],[-66.17043480000001,-17.3986278],[-66.1710027,-17.3989349],[-66.1715764,-17.399247900000002],[-66.17208120000001,-17.3995283],[-66.17220110000001,-17.3995454],[-66.1722934,-17.3995889],[-66.1723156,-17.3996099],[-66.1723305,-17.399636100000002],[-66.17233710000001,-17.399668000000002],[-66.1723329,-17.399700300000003],[-66.1723183,-17.3997297],[-66.17229490000001,-17.399753200000003],[-66.1722649,-17.399768700000003],[-66.1722313,-17.399774400000002],[-66.1721976,-17.3997698],[-66.1721012,-17.399709],[-66.17204860000001,-17.3997914],[-66.1719697,-17.3999305],[-66.17192770000001,-17.4000203],[-66.17192370000001,-17.4001081],[-66.1719872,-17.400402800000002],[-66.17203590000001,-17.4006194],[-66.17206900000001,-17.4007246],[-66.17221110000001,-17.401109100000003],[-66.1722574,-17.4011956],[-66.1723479,-17.401254700000003],[-66.17262070000001,-17.401399700000002],[-66.1727372,-17.4014616],[-66.1728703,-17.4015324],[-66.17297930000001,-17.4015902],[-66.17308820000001,-17.401648100000003],[-66.1735714,-17.401903500000003],[-66.1741942,-17.4022511],[-66.1742217,-17.402266400000002],[-66.1743012,-17.4022931],[-66.17431160000001,-17.4022821],[-66.17432400000001,-17.402273100000002],[-66.17438480000001,-17.402215100000003],[-66.17451290000001,-17.402106900000003],[-66.1747562,-17.4018884],[-66.1750138,-17.4015935],[-66.17514050000001,-17.401447100000002],[-66.1750832,-17.4013378],[-66.1750679,-17.4012992],[-66.1750662,-17.4012683],[-66.1750777,-17.401237400000003],[-66.1751009,-17.401216400000003],[-66.1751294,-17.401203600000002],[-66.17516040000001,-17.401200300000003],[-66.17519100000001,-17.401206700000003],[-66.1752908,-17.4012575],[-66.1753875,-17.4013154],[-66.176355,-17.401833800000002],[-66.177402,-17.402397800000003],[-66.1774889,-17.402444600000003],[-66.1775818,-17.4023997],[-66.1781866,-17.402082200000002],[-66.1788618,-17.4017249],[-66.1789754,-17.4016398],[-66.179083,-17.401548000000002],[-66.17918370000001,-17.401449300000003],[-66.17926460000001,-17.4013588],[-66.1792721,-17.401344100000003],[-66.1792983,-17.4012469],[-66.1793226,-17.4011396],[-66.17934220000001,-17.4010314],[-66.1793571,-17.4009226],[-66.179232,-17.4001738],[-66.17895870000001,-17.398389700000003],[-66.17894740000001,-17.398332800000002],[-66.1789423,-17.3983041],[-66.17886680000001,-17.3978828],[-66.17886150000001,-17.397853100000003],[-66.1788508,-17.3977936],[-66.1789598,-17.397788300000002],[-66.17956020000001,-17.3977702],[-66.17960950000001,-17.3977673],[-66.1802179,-17.3977328],[-66.1803172,-17.397727200000002],[-66.1810954,-17.3977018],[-66.18158960000001,-17.397689600000003],[-66.18183660000001,-17.397681900000002],[-66.1818973,-17.39768],[-66.1818788,-17.397615100000003],[-66.18169750000001,-17.396980000000003],[-66.1816321,-17.3967177],[-66.18153810000001,-17.396399300000002],[-66.18151630000001,-17.396325500000003],[-66.1814887,-17.3962532],[-66.18164010000001,-17.3962469],[-66.18185340000001,-17.396239700000002],[-66.1825446,-17.3962259],[-66.18321390000001,-17.396211100000002],[-66.1839346,-17.3961958],[-66.1844878,-17.396189300000003],[-66.1847642,-17.396186],[-66.18481720000001,-17.3961794],[-66.1848662,-17.3961654],[-66.18489670000001,-17.3961566],[-66.18501710000001,-17.3961234],[-66.18504490000001,-17.3960894],[-66.1850716,-17.396068800000002],[-66.185102,-17.396053600000002],[-66.18513490000001,-17.3960443],[-66.18516910000001,-17.396041200000003],[-66.1852032,-17.3960446],[-66.185236,-17.396054300000003],[-66.1852662,-17.3960699],[-66.185291,-17.396089200000002],[-66.18534100000001,-17.396103500000002],[-66.18541780000001,-17.3961198],[-66.18550830000001,-17.396131800000003],[-66.18693010000001,-17.396324],[-66.18756570000001,-17.3964076],[-66.18766190000001,-17.396421500000002],[-66.1882037,-17.3965022],[-66.1887562,-17.3965676],[-66.1888016,-17.3965728],[-66.18925680000001,-17.396625500000003],[-66.1893644,-17.396638000000003],[-66.18978030000001,-17.396662900000003],[-66.19051660000001,-17.396694800000002],[-66.1911948,-17.3967256],[-66.1911414,-17.395679],[-66.1910701,-17.3944578],[-66.1904777,-17.394480400000003]],"nodes":[1720891170,4583466393,4583466389,5189823279,4406256419,5192962183,5189823263,4406256310,10608757246,5189823262,5189823257,4406256327,5187747129,1609341791,11357424413,11357424414,5187746984,11081851792,4583466468,3297943672,5779625440,1720875325,4583466477,4583466470,1613913958,1609295615,2320035785,9119024298,2320007352,9119024299,1609342350,5779625437,5779625436,13520935001,1613913909,1609342402,9119024286,1613913942,1613914005,1613913988,1609200165,5158289035,5177568831,1720875321,2319643562,2319643560,1720891116,1613910586,1720891169,1720891113,1720891143,8120060909,11079424327,3445684145,11079424325,4238007010,5158289421,1715094759,3922682884,3445684201,9252021792,1720891123,4766426465,1720891134,5189823212,1715094705,3017431136,11079424323,7491911116,7491911117,3017431141,1715094763,12749169941,7491984514,1721481569,1609296271,1721481574,1721481563,1721481547,4113058831,1609295699,1721481557,1721481549,1721481567,7491984533,1721481548,1721481565,7491911153,1721481545,8430309818,1721481543,8430309847,1721481553,1721481570,8430309873,11093039204,1721481562,8430309820,1721481535,1721490841,8430309834,2900513083,2900513086,8430309833,8430309842,1493827236,1489808237,8430309822,1489808256,1486245873,1489808270,10913371172,1489808285,10913371171,1486245885,1489808291,1489808296,3291832270,3291832269,8430310224,4186784701,10892445782,9355061604,8430310225,9355061606,9355063117,9355063118,4186784703,9015711666,4186784704,8430310233,1489808310,8430586571,1044378819,8430586573,1044379707,1044379083,1044379246,8436191141,8281443479,1008238528,11081898366,1008238276,5734888006,8455678874,11071563641,601870928,2795698874,11081424006,11081424007,601870935,601870941,3287949025,601870952,601870961,601870970,2795698757,601870976,1044379829,8455678823,601870985,601870993,1724424381,601871004,601871013,4172517089,807968365,8455678822,1637609833,13370965887,13368859878,807968574,13368859877,807968474,13368859874,601871031,6835289598,1171505048,1171504684,3915681463,6835289600,601871050,11987099419,11073662405,8596958450,601871068,1171504996,8596958451,8596958448,2394199562,1171505011,8596958565,5605166007,8596958531,8596958532,5605166004,3300291781,7965603632,807968391,11987099449,1796486510,7965603616,11987099447,1796486554,2394199612,1796486560,1796486567,807968031,8509264286,8509264287,8509264250,807968085,9273627973,807968312,9973573068,807968090,807968685,8269304107,599541231,6331635775,1785473214,1785473202,8509264301,10830782197,1785473632,8509264302,1785473234,8616654975,2389107122,1785473260,8509264311,1785473441,1785473207,1785473612,1785473544,2126674113,599541226,8370221221,2126674112,4139785894,811023517,4139785892,9581425537,808031551,5078180975,808031568,9102939275,2126673841,5078180974,811023244,9561464243,2126673510,391737180,2126673484,2126673474,5074930328,2126673457,2126673436,2126673389,2126673375,2126673387,2126673429,2126673453,5074930329,2126673475,2126673485,9676159568,2126673372,2126673352,12883830695,2126673334,470849661,12883830690,10798762471,9112306457,2126672878,9112306454,11949496246,676069628,11949496245,2126672561,2126672453,10029085282,2126672420,2126672390,2126672361,10035562403,2126672321,2126672267,2126672306,10607483514,10607483515,2126672342,2126672394,10035562401,2126672428,2126672461,2126672571,2126672764,10029085283,2126672935,2126673021,2126673080,12813146199,2126673139,10810399530,13527623045,601508607,13527623044,12879432102,2282808507,9925978505,10595711853,676069615,676069616,5448974512,2380943039,10595711839,676069612,10595711840,10685222866,391753903,10685222867,4341961467,391745658,4341961466,13725750787,9936630991,8337099517,8337099530,4603130105,8337099514,602989841,1637961511,4603130106,9936630979,2296981822,1636883435,8337099516,2296981839,8337095602,8362746332,497207740,13353688823,8337099494,598151861,1720010613,1720010598,13353688807,2296580780,6806428790,9813506404,8356437269,2296580779,8356437271,2296580787,2296580797,2296580808,8356437270,2296580827,2296580841,2296580860,2745674359,8356393909,2296580889,8356393896,8356393898,315120853,1636934221,8362746232,2296580913,8362746230,315121330,2312198087,315121318,315123534,315121319,10859658790,315123540,315121320,315121321,315121322,315121324,315121326,315032954,315122225,2312198310,8498956719,315120406,2312198349,12410976762,2312198364,843382865,2686119186,9141014729,9141014739,8147646008,12361931195,12361931196,2316430803,1718842329,2316430856,10839957166,2900514433,2900514438,8267963999,8365550317,2316430973,315033203,2296981992,2600878703,310501277,5350197578,3555473521,310501275,3555473520,310263858,648546074,2312521461,310501273,2312521466,2312521478,2312521484,310501272,2312521487,2312521497,310501271,2312521499,12098045807,2312521516,9163629267,1636978129,3297079279,1636978122,2312521506,2312521495,676069598,9163629263,9163629266,11079349297,11079424622,676069597,1636978099,1636978093,1636978087,1636978084,1636978082,6481891030,12956643101,8667184717,1636978075,598178961,9686979844,598179000,598179002,598178996,2971956228,9736277914,598178994,6806354333,2972424324,560437521,11079292076,6806412400,2972424293,2972424288,3593740854,2972424286,6806354338,2972424289,9356030773,2972424299,2972424311,6806354331,2972424325,2972424437,11079435447,2972424438,598178983,8947856390,598178980,9894887117,598178976,9894887103,9894887104,598178974,9892523601,9892523578,598178941,1806931203,3250373482,7058428982,1718722266,9343503250,3250373496,9343503249,3250373501,3250373512,11361265661,11361265660,9343503246,3250373518,3250373523,9894977666,1806931207,9194618753,563279669,563279671,9873615236,9222357059,6175794740,3729619524,9222357024,9873615234,563279659,3250373525,13879263578,563279552,563279556,12300469248,13140253489,563279529,13303071584,13416534070,13303071587,13416534058,13303071580,13303071575,13416534036,13303071576,13303071577,13303071578,13303071582,13303071579,13416534043,13416534035,13416534061,13416534042,13303075825,13416534071,660004648,13431520300,800044283,13431528701,800043980,13432830729,12404973190,800044171,2636956097,12405014009,2477244310,2477244324,13564674440,8272264734,660004667,11056127874,8272264737,11056127875,8907983023,8907982980,660004594,4959096052,660004593,800044098,800043988,2528889671,2528889678,2528889693,8340824227,2528889704,2528889724,2528889735,2528889748,2528889760,2528889764,2528889769,2528889766,2528889733,8340824236,8340824050,800044033,2528889856,843384254,800043977,8269047789,843384508,800044340,2528889887,800044107,800044178,9049255934,11056131417,800043970,9049255910,10050319596,8340824144,800043992,9352772543,800044028,2528889923,9049255921,2528889916,9049255918,2528889911,2528889900,2528889894,2528889886,2528889880,2528889877,2528889875,2528889874,2528889876,2528889889,800044144,3262573472,9201251897,660004621,9201251896,843387018,2800230398,9049249870,2800230378,7144329962,2800230362,2800230356,2800230344,9008700789,2800230334,2800230325,800044234,800043959,12299592173,12299592174,12299592176,12299592177,800044131,11083708262,800044185,4655042042,11083708260,800044006,800044156,10052672556,10052672541,800044100,7144349795,800044278,5539017882,2869785618,560522655,660012891,660012892,6621278940,698597065,660012866,800044016,9506951519,3262573329,6639012129,660012893,8564652538,9336206540,6617483718,2900514448,9336206522,2900514441,9336206523,4012103519,9336206524,6617483717,660012845,9336206519,6639012139,9336206517,809705600,2635402992,809705590,10117836328,809705273,10117836330,10117836336,617198621,617198620,809705441,809705596,809705609,809705490,809705624]},"gtfs":{"agency_id":17,"route_id":63,"services":[{"service_id":"Mo-Su","startTime":"06:00","endTime":"22:00","trip_id":20744140}],"filteredStops":{"nodes":[1720891170,4583466389,4406256419,5189823263,10608757246,5189823257,5187747129,11357424413,5187746984,4583466468,5779625440,4583466477,1613913958,2320035785,2320007352,1609342350,5779625436,1613913909,9119024286,1613913942,1613913988,5158289035,1720875321,2319643560,1613910586,1720891113,8120060909,3445684145,4238007010,1715094759,3445684201,1720891123,1720891134,1715094705,11079424323,7491911117,1715094763,7491984514,1609296271,1721481563,4113058831,1721481557,1721481567,1721481548,7491911153,8430309818,8430309847,1721481570,11093039204,8430309820,1721490841,2900513083,8430309833,1493827236,8430309822,1489808256,1489808270,1489808285,1486245885,1489808296,3291832269,4186784701,9355061604,9355061606,9355063118,9015711666,8430310233,8430586571,8430586573,1044379083,8436191141,1008238528,1008238276,11071563641,601870928,601870952,601870993,1637609833,601871031,11987099419,1171505011,7965603632,2394199612,807968085,6331635775,1785473234,1785473612,4139785892,5078180974,5074930328,2126673453,2126673334,11949496246,2126672390,10607483515,10029085283,13527623045,676069615,10685222866,8337099517,9936630979,497207740,6806428790,2296580808,2296580889,8362746230,315121320,2312198310,2686119186,1718842329,315033203,310263858,648546074,2312521478,2312521497,2312521516,1636978122,9163629263,11079424622,1636978087,12956643101,9686979844,2971956228,560437521,11079292076,6806354338,2972424325,8947856390,598178974,7058428982,3250373512,9894977666,9873615236,563279659,13140253489,13303071580,13303071582,13416534042,13431528701,2477244310,2477244324,11056127875,800044098,2528889704,2528889766,843384254,800044107,10050319596,9049255921,2528889886,2528889889,2800230398,2800230344,12299592173,800044185,10052672541,560522655,800044016,9336206540,9336206524,809705600,10117836336,809705624],"coordinates":[[-66.06087430000001,-17.377934600000003],[-66.0621974,-17.378081700000003],[-66.06321750000001,-17.378195100000003],[-66.0648759,-17.3783794],[-66.06509650000001,-17.378403900000002],[-66.0660522,-17.378531600000002],[-66.06707180000001,-17.3786591],[-66.06912510000001,-17.3789216],[-66.0698167,-17.378988000000003],[-66.07072720000001,-17.379097700000003],[-66.07108240000001,-17.3791131],[-66.0720623,-17.378998300000003],[-66.0739812,-17.378752900000002],[-66.075101,-17.378608500000002],[-66.07579600000001,-17.3785178],[-66.07759510000001,-17.378295100000003],[-66.0778598,-17.378259200000002],[-66.0789132,-17.3781229],[-66.08105660000001,-17.377852700000002],[-66.08157770000001,-17.377780700000002],[-66.0826754,-17.377629000000002],[-66.0838138,-17.3774827],[-66.0852122,-17.3773018],[-66.0854271,-17.3772743],[-66.0873083,-17.3770275],[-66.0888281,-17.376834900000002],[-66.0907682,-17.3765776],[-66.09157660000001,-17.376487700000002],[-66.09280220000001,-17.376331],[-66.09356220000001,-17.3762338],[-66.09371200000001,-17.3762143],[-66.09462880000001,-17.376098600000002],[-66.09606450000001,-17.375916500000002],[-66.0972935,-17.375749600000002],[-66.09918470000001,-17.375505800000003],[-66.09928790000001,-17.3754928],[-66.1001366,-17.3753955],[-66.102249,-17.375116600000002],[-66.1036696,-17.3749442],[-66.1046256,-17.3748006],[-66.10599760000001,-17.3741939],[-66.1066059,-17.3739041],[-66.1068929,-17.3737885],[-66.1070751,-17.3737701],[-66.1087627,-17.373768300000002],[-66.1109222,-17.373764700000002],[-66.11109610000001,-17.373747],[-66.1118637,-17.373292000000003],[-66.11213670000001,-17.373060600000002],[-66.1123223,-17.372932600000002],[-66.1125291,-17.372860600000003],[-66.11266470000001,-17.3728461],[-66.1129044,-17.372858200000003],[-66.11347070000001,-17.3728783],[-66.11438770000001,-17.372912200000002],[-66.11495450000001,-17.372928100000003],[-66.11693790000001,-17.3730218],[-66.1182593,-17.3730841],[-66.11984290000001,-17.373162400000002],[-66.12125200000001,-17.3732308],[-66.12253480000001,-17.3732867],[-66.1226905,-17.373274400000003],[-66.12272060000001,-17.3732583],[-66.122763,-17.3732532],[-66.1228038,-17.373265200000002],[-66.12289390000001,-17.3732866],[-66.12304830000001,-17.373301100000003],[-66.1235259,-17.3733116],[-66.1239092,-17.373320500000002],[-66.12472960000001,-17.3733423],[-66.1258184,-17.3733864],[-66.12623350000001,-17.373409600000002],[-66.1276215,-17.3734599],[-66.1288718,-17.373455900000003],[-66.1289804,-17.373427200000002],[-66.1298501,-17.3731449],[-66.1318136,-17.372661200000003],[-66.1335092,-17.3723479],[-66.13516150000001,-17.3726676],[-66.13607130000001,-17.372746300000003],[-66.1367986,-17.3727325],[-66.13684,-17.373471900000002],[-66.1371628,-17.3739898],[-66.13879820000001,-17.373941700000003],[-66.1424276,-17.3736928],[-66.14279780000001,-17.373446100000002],[-66.14320950000001,-17.3735363],[-66.1446097,-17.3736146],[-66.14716,-17.3734435],[-66.14948290000001,-17.373254000000003],[-66.1496795,-17.373237900000003],[-66.15120830000001,-17.3731909],[-66.15462020000001,-17.372979200000003],[-66.15663470000001,-17.3726889],[-66.15697030000001,-17.372622900000003],[-66.157128,-17.3729915],[-66.15689230000001,-17.373805800000003],[-66.1569207,-17.374959],[-66.15697700000001,-17.376945300000003],[-66.15705000000001,-17.379907900000003],[-66.15739590000001,-17.380226800000003],[-66.1593481,-17.3804996],[-66.1601869,-17.380589800000003],[-66.16044600000001,-17.380753300000002],[-66.16030110000001,-17.381163100000002],[-66.16010680000001,-17.3818443],[-66.1601052,-17.382432700000003],[-66.1595022,-17.3830911],[-66.15880410000001,-17.3840085],[-66.1580811,-17.384947200000003],[-66.15681000000001,-17.386619900000003],[-66.15985060000001,-17.3873411],[-66.1599197,-17.3873512],[-66.1613999,-17.387604900000003],[-66.1627663,-17.387833500000003],[-66.16373370000001,-17.3879975],[-66.163953,-17.387925000000003],[-66.16444410000001,-17.3877488],[-66.16490180000001,-17.3875643],[-66.1657108,-17.387250700000003],[-66.16599860000001,-17.3869648],[-66.16661040000001,-17.386195700000002],[-66.16849060000001,-17.3839992],[-66.1693484,-17.383493100000003],[-66.16954770000001,-17.3834035],[-66.16972960000001,-17.3833616],[-66.169797,-17.3835622],[-66.1697396,-17.3840314],[-66.17009150000001,-17.385772600000003],[-66.1705393,-17.387559800000002],[-66.1707023,-17.387838400000003],[-66.17057600000001,-17.3880765],[-66.17059420000001,-17.389574500000002],[-66.1706166,-17.3906646],[-66.1706589,-17.3922576],[-66.1707906,-17.393772900000002],[-66.1708493,-17.3939519],[-66.17074910000001,-17.394078200000003],[-66.17071320000001,-17.394804],[-66.17078910000001,-17.3964782],[-66.1707935,-17.396554700000003],[-66.1703281,-17.3973611],[-66.1710027,-17.3989349],[-66.1723305,-17.399636100000002],[-66.1721976,-17.3997698],[-66.1719872,-17.400402800000002],[-66.17262070000001,-17.401399700000002],[-66.1741942,-17.4022511],[-66.17451290000001,-17.402106900000003],[-66.1750662,-17.4012683],[-66.1752908,-17.4012575],[-66.1788618,-17.4017249],[-66.1792983,-17.4012469],[-66.17894740000001,-17.398332800000002],[-66.17956020000001,-17.3977702],[-66.18183660000001,-17.397681900000002],[-66.18151630000001,-17.396325500000003],[-66.1839346,-17.3961958],[-66.18501710000001,-17.3961234],[-66.185236,-17.396054300000003],[-66.18693010000001,-17.396324],[-66.18925680000001,-17.396625500000003],[-66.1904777,-17.394480400000003]]}}}]}