{"type":"FeatureCollection","features":[{"type":"Feature","properties":{"check_date":"46167","from":"Cotapachi","name":"Trufi Cotapachi: Cotapachi → 14 de septiembre","operator":"Cotapachi","public_transport:version":"2","ref":"Cotapachi","route":"bus","to":"14 de septiembre","type":"route","id":20748881},"geometry":{"type":"LineString","coordinates":[[-66.26571000000001,-17.4090384],[-66.26576580000001,-17.4057442],[-66.265771,-17.4045652],[-66.26578400000001,-17.403692600000003],[-66.26578740000001,-17.403346300000003],[-66.2657626,-17.4029233],[-66.26563180000001,-17.4018307],[-66.26561360000001,-17.4010919],[-66.26560690000001,-17.4008207],[-66.26551040000001,-17.4003008],[-66.26544050000001,-17.400001600000003],[-66.26528730000001,-17.3992958],[-66.2652599,-17.399231500000003],[-66.2652233,-17.399167300000002],[-66.265169,-17.399093],[-66.2664383,-17.3990103],[-66.2665233,-17.399005600000002],[-66.2666779,-17.3989942],[-66.267189,-17.398961200000002],[-66.26805390000001,-17.3989052],[-66.26837590000001,-17.398877000000002],[-66.26845,-17.398871300000003],[-66.268642,-17.398857000000003],[-66.269947,-17.3987972],[-66.2700834,-17.3988006],[-66.27075810000001,-17.3987605],[-66.2714466,-17.398697600000002],[-66.2720493,-17.3986567],[-66.27263740000001,-17.3986102],[-66.2736945,-17.398483000000002],[-66.2737834,-17.398473900000003],[-66.27474500000001,-17.3983554],[-66.2758245,-17.3982375],[-66.2768638,-17.398104800000002],[-66.2774344,-17.3980296],[-66.2780489,-17.397948500000002],[-66.27811430000001,-17.3979763],[-66.2778947,-17.3968388],[-66.2791584,-17.3966776],[-66.27933610000001,-17.397814500000003]],"nodes":[786662049,7301039191,4571009854,785869002,10105429698,785868963,4571009850,10105429710,785869597,4571009849,785868453,9281030968,10105429637,785868238,5870202546,10105429657,7059258029,7059258035,7059258025,7171092796,7059258028,7059258027,7059258024,7059258023,617332211,783869751,783870726,783870666,617332208,617337162,617337161,781813611,780227210,781813564,9181753377,617332203,617337160,783870473,783868991,617337159]},"gtfs":{"agency_id":41,"route_id":138,"services":[{"service_id":"Mo-Su","startTime":"06:00","endTime":"22:00","trip_id":20748881}],"filteredStops":{"nodes":[786662049,4571009854,10105429698,4571009850,785869597,785868453,9281030968,785868238,10105429657,7059258035,7171092796,7059258027,7059258023,783869751,783870666,617337162,617337161,780227210,9181753377,617337160,617337159],"coordinates":[[-66.26571000000001,-17.4090384],[-66.265771,-17.4045652],[-66.26578740000001,-17.403346300000003],[-66.26563180000001,-17.4018307],[-66.26560690000001,-17.4008207],[-66.26544050000001,-17.400001600000003],[-66.26528730000001,-17.3992958],[-66.2652233,-17.399167300000002],[-66.2664383,-17.3990103],[-66.2666779,-17.3989942],[-66.26805390000001,-17.3989052],[-66.26845,-17.398871300000003],[-66.269947,-17.3987972],[-66.27075810000001,-17.3987605],[-66.2720493,-17.3986567],[-66.2736945,-17.398483000000002],[-66.2737834,-17.398473900000003],[-66.2758245,-17.3982375],[-66.2774344,-17.3980296],[-66.27811430000001,-17.3979763],[-66.27933610000001,-17.397814500000003]]}}}]}