{"type":"FeatureCollection","features":[{"type":"Feature","properties":{"check_date":"46167","description":"Bandera lila: Av. Túnel","fixme":"add tags","from":"Lava Lava Baja","name":"Trufi 244: Lava Lava Baja → Huayra K´asa","operator":"Sindicato mixto de transportistas Santa Rosa de Lima","public_transport:version":"2","ref":"244","route":"bus","to":"Huayra K´asa","type":"route","id":20762524},"geometry":{"type":"LineString","coordinates":[[-66.0115968,-17.416499],[-66.0120175,-17.416246400000002],[-66.0121483,-17.4160699],[-66.01218440000001,-17.416035400000002],[-66.01267610000001,-17.415760000000002],[-66.0129017,-17.415628700000003],[-66.01321970000001,-17.415467300000003],[-66.0134137,-17.4153489],[-66.0135843,-17.4152375],[-66.0137069,-17.415157400000002],[-66.01397300000001,-17.4150433],[-66.01400910000001,-17.4149809],[-66.0139956,-17.414888400000002],[-66.0139279,-17.4147055],[-66.0138436,-17.4145234],[-66.01466780000001,-17.414419600000002],[-66.01499790000001,-17.414359100000002],[-66.0156721,-17.4142028],[-66.01599490000001,-17.414112600000003],[-66.0158433,-17.413721600000002],[-66.0158253,-17.4135269],[-66.015797,-17.4133783],[-66.0157757,-17.413263500000003],[-66.01574160000001,-17.413178000000002],[-66.01571910000001,-17.4131217],[-66.0156979,-17.4129663],[-66.0156625,-17.412723200000002],[-66.01562000000001,-17.4124327],[-66.01554300000001,-17.4117907],[-66.0155374,-17.411678400000003],[-66.01548550000001,-17.4113116],[-66.015414,-17.4105057],[-66.0153794,-17.4101161],[-66.01537880000001,-17.4095882],[-66.0153786,-17.4094459],[-66.0154644,-17.4090773],[-66.0155931,-17.4087958],[-66.01581920000001,-17.408430300000003],[-66.01589600000001,-17.4082174],[-66.0159362,-17.4080271],[-66.01603390000001,-17.4076285],[-66.01606170000001,-17.407405200000003],[-66.01606790000001,-17.4072509],[-66.01624600000001,-17.406491600000003],[-66.0163223,-17.4064789],[-66.01736840000001,-17.406305200000002],[-66.0165451,-17.405615],[-66.0161977,-17.4053115],[-66.01613010000001,-17.4052285],[-66.01608870000001,-17.4052513],[-66.0160421,-17.4052617],[-66.01599440000001,-17.405259],[-66.0159495,-17.405243300000002],[-66.0159112,-17.405216000000003],[-66.0158986,-17.4052033],[-66.01586970000001,-17.4051489],[-66.01586350000001,-17.405116600000003],[-66.0158646,-17.4050838],[-66.0158773,-17.405041],[-66.0159021,-17.4050033],[-66.0159369,-17.404973700000003],[-66.0159879,-17.4049522],[-66.0160436,-17.4049482],[-66.0160974,-17.404962100000002],[-66.01614330000001,-17.4049923],[-66.01617610000001,-17.405035400000003],[-66.01913540000001,-17.404577300000003],[-66.01951070000001,-17.4045144],[-66.02148860000001,-17.404194200000003],[-66.0225927,-17.4040184],[-66.02340620000001,-17.403890500000003],[-66.0235098,-17.403872900000003],[-66.02381100000001,-17.4038244],[-66.0244868,-17.4037261],[-66.0255047,-17.403565],[-66.0271766,-17.403292500000003],[-66.0287193,-17.4030513],[-66.03003190000001,-17.402837100000003],[-66.0304445,-17.4027616],[-66.03051310000001,-17.4027478],[-66.0306893,-17.4027245],[-66.03213980000001,-17.4025004],[-66.0322986,-17.402470800000003],[-66.03253450000001,-17.4024283],[-66.03280720000001,-17.4023651],[-66.0333054,-17.402235700000002],[-66.0338672,-17.402045],[-66.03440230000001,-17.401826600000003],[-66.0352043,-17.401495800000003],[-66.0358199,-17.401242500000002],[-66.03616600000001,-17.401100000000003],[-66.0360076,-17.400986800000002],[-66.0356692,-17.400745],[-66.03538250000001,-17.400421700000003],[-66.03517040000001,-17.400168500000003],[-66.03511830000001,-17.4001012],[-66.0362077,-17.3995722],[-66.0364315,-17.3999308],[-66.03693840000001,-17.4007806],[-66.03699180000001,-17.4008739],[-66.03734100000001,-17.401459600000003],[-66.0376008,-17.4019397],[-66.03797390000001,-17.402621800000002],[-66.03806990000001,-17.40275],[-66.0383901,-17.403379100000002],[-66.0386373,-17.403978000000002],[-66.0390364,-17.404828300000002],[-66.0392731,-17.405351600000003],[-66.0396027,-17.4060801],[-66.0402483,-17.4074399],[-66.04079630000001,-17.4085582],[-66.0408443,-17.408656200000003],[-66.04114100000001,-17.409275700000002],[-66.0411775,-17.409354800000003],[-66.04143160000001,-17.409905600000002],[-66.0414789,-17.4100076],[-66.04155,-17.4101804],[-66.0415553,-17.4102815],[-66.04153380000001,-17.4104889],[-66.0415687,-17.4109392],[-66.04158790000001,-17.411242400000003],[-66.0416144,-17.411749200000003],[-66.04168010000001,-17.4118746],[-66.0416419,-17.412144400000003],[-66.04158930000001,-17.4123476],[-66.04147350000001,-17.4129299],[-66.0413577,-17.413362000000003],[-66.04127100000001,-17.413625500000002],[-66.04121020000001,-17.4137886],[-66.041121,-17.413950200000002],[-66.0410779,-17.414083700000003],[-66.0410774,-17.414332400000003],[-66.0411656,-17.4146134],[-66.0413393,-17.415075],[-66.04142200000001,-17.415254100000002],[-66.0415608,-17.415744],[-66.0425079,-17.415641400000002],[-66.0433177,-17.4155374],[-66.04345550000001,-17.415519300000003],[-66.0435638,-17.415504700000003],[-66.0443312,-17.4153978],[-66.044679,-17.4153284],[-66.0450838,-17.415231900000002],[-66.0459309,-17.415015],[-66.04648630000001,-17.414891700000002],[-66.0467952,-17.4148417],[-66.0470993,-17.4148217],[-66.0472646,-17.4148204],[-66.04734930000001,-17.4148166],[-66.0477298,-17.414800500000002],[-66.0481628,-17.414769500000002],[-66.0485982,-17.414740600000002],[-66.0496409,-17.414701500000003],[-66.0511726,-17.4145667],[-66.052058,-17.4144805],[-66.05218810000001,-17.4144657],[-66.0523572,-17.4144332],[-66.0527746,-17.414318],[-66.0532819,-17.414136300000003],[-66.0539729,-17.4138872],[-66.0541142,-17.413849900000002],[-66.0541913,-17.4138352],[-66.0544533,-17.4137966],[-66.05475200000001,-17.413759300000002],[-66.05538130000001,-17.413660200000002],[-66.05544470000001,-17.4136503],[-66.0555149,-17.4136406],[-66.05556270000001,-17.413633200000003],[-66.056352,-17.4135104],[-66.0564465,-17.413493300000003],[-66.05657590000001,-17.413479300000002],[-66.05698620000001,-17.413425],[-66.0573964,-17.4133706],[-66.0577997,-17.413374800000003],[-66.0590463,-17.413471100000002],[-66.05924180000001,-17.413470200000003],[-66.05953260000001,-17.413458600000002],[-66.0602631,-17.413430700000003],[-66.06172210000001,-17.413375300000002],[-66.0618488,-17.413364],[-66.06195740000001,-17.413363500000003],[-66.0647478,-17.4131596],[-66.06575310000001,-17.4130818],[-66.06632540000001,-17.4130395],[-66.0676844,-17.4129101],[-66.06916670000001,-17.412746700000003],[-66.0699819,-17.4126569],[-66.0703299,-17.4126167],[-66.0708733,-17.4125514],[-66.07107780000001,-17.4125239],[-66.0713448,-17.412481500000002],[-66.0716209,-17.412443600000003],[-66.0717613,-17.412425300000002],[-66.07197000000001,-17.412398200000002],[-66.07238500000001,-17.4123316],[-66.07290900000001,-17.4122477],[-66.0740232,-17.4120899],[-66.07485790000001,-17.412008200000002],[-66.0750893,-17.4119847],[-66.0751656,-17.411978700000002],[-66.0756403,-17.411928600000003],[-66.0758522,-17.411902700000002],[-66.0769746,-17.4118041],[-66.07887620000001,-17.411624200000002],[-66.07987150000001,-17.411519000000002],[-66.0809826,-17.411396800000002],[-66.08155620000001,-17.4113338],[-66.0820467,-17.4112799],[-66.0826208,-17.4112344],[-66.0831091,-17.4111958],[-66.0842193,-17.411108000000002],[-66.08492550000001,-17.4110522],[-66.08563960000001,-17.410987300000002],[-66.08626720000001,-17.4109303],[-66.0867597,-17.4108856],[-66.0873332,-17.410833500000003],[-66.0883847,-17.410738000000002],[-66.0888797,-17.410733200000003],[-66.089433,-17.410754200000003],[-66.0899364,-17.4107662],[-66.0901384,-17.410778200000003],[-66.0911258,-17.4108671],[-66.09164000000001,-17.4109392],[-66.09187750000001,-17.411006],[-66.0928329,-17.411417],[-66.0936013,-17.411740400000003],[-66.09397120000001,-17.411887500000002],[-66.09416590000001,-17.411937],[-66.09448640000001,-17.411972000000002],[-66.0953099,-17.4120306],[-66.0953958,-17.412040700000002],[-66.0954157,-17.411923400000003],[-66.09555610000001,-17.411860200000003],[-66.09564680000001,-17.4117761],[-66.09616960000001,-17.411187400000003],[-66.096193,-17.4111517],[-66.0962695,-17.409996900000003],[-66.09634100000001,-17.4088946],[-66.0964488,-17.408775700000003],[-66.0969367,-17.4080818],[-66.09697890000001,-17.4080009],[-66.09727720000001,-17.4074513],[-66.09754620000001,-17.406916000000002],[-66.09775710000001,-17.406497400000003],[-66.0979102,-17.406328900000002],[-66.0982027,-17.406078400000002],[-66.0982558,-17.4059914],[-66.0983058,-17.4058934],[-66.0988928,-17.4035778],[-66.0989945,-17.403578200000002],[-66.0997974,-17.4035519],[-66.1007976,-17.4035471],[-66.1015107,-17.4035353],[-66.10224860000001,-17.403502000000003],[-66.10280940000001,-17.4034628],[-66.1032531,-17.403401900000002],[-66.10444220000001,-17.403196],[-66.1048883,-17.403150500000002],[-66.1062028,-17.4028923],[-66.106966,-17.4027114],[-66.1072839,-17.402631200000002],[-66.1074057,-17.4026025],[-66.108638,-17.402349100000002],[-66.10908110000001,-17.4022609],[-66.10951580000001,-17.402185300000003],[-66.1098973,-17.4021228],[-66.1106972,-17.401966400000003],[-66.1112494,-17.4018707],[-66.1115053,-17.4018136],[-66.1115673,-17.401799800000003],[-66.1115714,-17.401720500000003],[-66.112381,-17.4000106],[-66.11264650000001,-17.399416900000002],[-66.1128204,-17.399054300000003],[-66.1128243,-17.398955],[-66.1128207,-17.398845100000003],[-66.1128013,-17.398573900000002],[-66.1127776,-17.3982765],[-66.1127208,-17.3976016],[-66.112645,-17.396963300000003],[-66.1126138,-17.3967005],[-66.1125708,-17.396339],[-66.11254650000001,-17.396154600000003],[-66.1124874,-17.395913500000002],[-66.11241890000001,-17.395633500000002],[-66.11217400000001,-17.3946337],[-66.11214650000001,-17.394521400000002],[-66.11210750000001,-17.394362100000002],[-66.11195070000001,-17.393722],[-66.11191170000001,-17.393553200000003],[-66.1115286,-17.3920616],[-66.1115053,-17.3919655],[-66.1110957,-17.3903363],[-66.11080150000001,-17.3890017],[-66.1107904,-17.3889095],[-66.1104384,-17.387646200000002],[-66.11027320000001,-17.3870149],[-66.1100949,-17.3863352],[-66.11005250000001,-17.3861789],[-66.1100117,-17.386030700000003],[-66.10983630000001,-17.3853335],[-66.10973530000001,-17.384932000000003],[-66.1095288,-17.3840183],[-66.1094846,-17.3840161],[-66.1094346,-17.3840018],[-66.10940330000001,-17.3839852],[-66.1093756,-17.3839636],[-66.1093524,-17.3839377],[-66.1093342,-17.3839083],[-66.10931930000001,-17.3838665],[-66.1093147,-17.383822600000002],[-66.1093257,-17.3837626],[-66.10935570000001,-17.3837088],[-66.10939110000001,-17.3836742],[-66.1094343,-17.383649100000003],[-66.1094999,-17.383632900000002],[-66.10956200000001,-17.383637],[-66.1096198,-17.3836589],[-66.1096675,-17.3836961],[-66.10970130000001,-17.3837404],[-66.1101186,-17.3836522],[-66.11055110000001,-17.383561500000003],[-66.1116279,-17.383341],[-66.1126895,-17.383117600000002],[-66.1137491,-17.382897800000002],[-66.11474120000001,-17.3826937],[-66.1160978,-17.3824143],[-66.1166355,-17.3823048],[-66.1167504,-17.382281600000002],[-66.1172233,-17.3821833],[-66.1178158,-17.3820392],[-66.11826740000001,-17.3819014],[-66.1185475,-17.381807000000002],[-66.1187728,-17.381719800000003],[-66.11928180000001,-17.381503600000002],[-66.11950370000001,-17.381410000000002],[-66.11999700000001,-17.381166800000003],[-66.12026010000001,-17.3810155],[-66.1208017,-17.380671500000002],[-66.1208417,-17.3806461],[-66.12168240000001,-17.3800861],[-66.12176980000001,-17.3800293],[-66.1218317,-17.379987800000002],[-66.1221658,-17.3797745],[-66.12243050000001,-17.3795986],[-66.1224694,-17.3795763],[-66.122742,-17.379389900000003],[-66.12360930000001,-17.378817400000003],[-66.1246859,-17.378115100000002],[-66.12535460000001,-17.377652400000002],[-66.1257746,-17.377356000000002],[-66.12695810000001,-17.3765211],[-66.12702440000001,-17.376476],[-66.1271995,-17.3763545],[-66.1275504,-17.376112600000003],[-66.1279614,-17.3758297],[-66.1281352,-17.37571],[-66.1282882,-17.3756033],[-66.12881490000001,-17.3752302],[-66.1288741,-17.375188],[-66.12893100000001,-17.3751503],[-66.1289543,-17.3751348],[-66.12898750000001,-17.3751147],[-66.1291381,-17.375016300000002],[-66.12925580000001,-17.374947000000002],[-66.1292707,-17.3749377],[-66.129327,-17.374909300000002],[-66.1294482,-17.374850400000003],[-66.1296174,-17.3747803],[-66.1298412,-17.374701400000003],[-66.1300549,-17.3746383],[-66.13028010000001,-17.37459],[-66.1305217,-17.3745502],[-66.1307689,-17.3745291],[-66.1313669,-17.374523200000002],[-66.1313916,-17.374523],[-66.1319101,-17.374528700000003],[-66.13214070000001,-17.374527500000003],[-66.13236900000001,-17.374525700000003],[-66.1331657,-17.3745288],[-66.13322760000001,-17.374529000000003],[-66.1336639,-17.3745303],[-66.1345247,-17.374534],[-66.13467490000001,-17.374544800000002],[-66.13486950000001,-17.3745687],[-66.13497140000001,-17.3745873],[-66.13505740000001,-17.3746031],[-66.13523880000001,-17.3746459],[-66.13542910000001,-17.374700200000003],[-66.1355865,-17.3747547],[-66.13576570000001,-17.374828700000002],[-66.1359602,-17.3749201],[-66.13617570000001,-17.375044600000003],[-66.1366294,-17.3753417],[-66.1371488,-17.375692500000003],[-66.1371768,-17.3757114],[-66.13756330000001,-17.375942600000002],[-66.13790200000001,-17.376123800000002],[-66.13825580000001,-17.376282],[-66.138489,-17.376383800000003],[-66.13874120000001,-17.3764855],[-66.13894970000001,-17.3765576],[-66.1392113,-17.3766371],[-66.1396414,-17.3767716],[-66.14039430000001,-17.376946800000002],[-66.14084190000001,-17.3770223],[-66.1410415,-17.3770506],[-66.1411913,-17.3770792],[-66.1414646,-17.3771422],[-66.14200690000001,-17.377268500000003],[-66.1422247,-17.3773187],[-66.14228290000001,-17.377351200000003],[-66.1423113,-17.377371],[-66.14233730000001,-17.377395200000002],[-66.1423637,-17.377423800000003],[-66.1423853,-17.377457900000003],[-66.14240600000001,-17.377499200000003],[-66.1424178,-17.3775385],[-66.1424231,-17.377578500000002],[-66.1424229,-17.377606500000002],[-66.142421,-17.3776344],[-66.1424051,-17.3777627],[-66.1423809,-17.3780515],[-66.14237770000001,-17.3782277],[-66.142358,-17.3784481],[-66.1423561,-17.378600300000002],[-66.1423592,-17.3786717],[-66.14237720000001,-17.3787495],[-66.1423857,-17.3787904],[-66.14241170000001,-17.378833],[-66.1424539,-17.3788802],[-66.14252710000001,-17.3789172],[-66.1427305,-17.378983400000003],[-66.1429971,-17.3790674],[-66.1430493,-17.3790829],[-66.14306780000001,-17.379109000000003],[-66.1430837,-17.3791368],[-66.1430966,-17.379165800000003],[-66.14310160000001,-17.3791891],[-66.1431024,-17.379212900000002],[-66.14309940000001,-17.379236600000002],[-66.14306760000001,-17.379372800000002],[-66.14306880000001,-17.3794137],[-66.14307760000001,-17.379442],[-66.14309370000001,-17.379472],[-66.14320280000001,-17.3796329],[-66.14410310000001,-17.3809425],[-66.14414070000001,-17.380997200000003],[-66.1442263,-17.3811247],[-66.1443213,-17.3812621],[-66.14433430000001,-17.3812809],[-66.1443962,-17.3813704],[-66.1450554,-17.382323900000003],[-66.1451665,-17.3824805],[-66.14526500000001,-17.382625200000003],[-66.14626410000001,-17.3840939],[-66.1462906,-17.384132800000003],[-66.1463324,-17.384194200000003],[-66.1463585,-17.3842326],[-66.147463,-17.385856],[-66.1475139,-17.3859308],[-66.1475669,-17.3860074],[-66.147678,-17.386168100000003],[-66.14771590000001,-17.386222800000002],[-66.148064,-17.3867233],[-66.14836460000001,-17.3871554],[-66.1484094,-17.3872198],[-66.14850120000001,-17.3873491],[-66.14851920000001,-17.3873745],[-66.14864270000001,-17.387550800000003],[-66.14884190000001,-17.387832500000002],[-66.14901,-17.388070000000003],[-66.14916980000001,-17.388299500000002],[-66.14933660000001,-17.3885389],[-66.1493179,-17.388644900000003],[-66.14920000000001,-17.3892545],[-66.1491441,-17.389543900000003],[-66.1490107,-17.390230600000002],[-66.148919,-17.390703000000002],[-66.14890910000001,-17.3907458],[-66.14889430000001,-17.390824400000003],[-66.14888640000001,-17.3908667],[-66.1487038,-17.3917663],[-66.14869060000001,-17.3918339],[-66.148651,-17.391928200000002],[-66.14864180000001,-17.3919718],[-66.14858770000001,-17.3922279],[-66.1485432,-17.392443],[-66.1485231,-17.392540200000003],[-66.1484738,-17.392778800000002],[-66.1484626,-17.392832900000002],[-66.14793900000001,-17.3927435],[-66.14743340000001,-17.3926589],[-66.1473167,-17.3926404],[-66.1468937,-17.3925734],[-66.14683430000001,-17.3925626],[-66.14664900000001,-17.3925276],[-66.1458099,-17.3923619],[-66.1453273,-17.392282],[-66.1451071,-17.392245600000003],[-66.1448295,-17.3921996],[-66.1445767,-17.392158100000003],[-66.14440970000001,-17.392130700000003],[-66.14437070000001,-17.392124300000003],[-66.1442415,-17.392103000000002],[-66.1441346,-17.3920855],[-66.143713,-17.3920162],[-66.1436259,-17.3920019],[-66.1430857,-17.3919132],[-66.142807,-17.3918675],[-66.14274520000001,-17.3918573],[-66.1427214,-17.3919144],[-66.14234640000001,-17.3927549],[-66.1423273,-17.3927935],[-66.1419298,-17.393674700000002],[-66.14187790000001,-17.3937896],[-66.14189300000001,-17.393798800000003],[-66.14190550000001,-17.393811000000003],[-66.141917,-17.393830100000002],[-66.1419226,-17.3938534],[-66.14192050000001,-17.3938773],[-66.1419595,-17.3939217],[-66.1425597,-17.3946913],[-66.14292370000001,-17.3951433],[-66.1431094,-17.3953528],[-66.1432772,-17.3955556],[-66.1434016,-17.395681900000003],[-66.14379020000001,-17.3960495],[-66.1440656,-17.3962608],[-66.14431180000001,-17.396443400000003],[-66.14457460000001,-17.3966099],[-66.14482170000001,-17.396751400000003],[-66.1451356,-17.3969281],[-66.14539470000001,-17.397057200000003],[-66.14574250000001,-17.397234800000003],[-66.14678470000001,-17.3977645],[-66.14745690000001,-17.3981037],[-66.1474343,-17.3982059],[-66.14736160000001,-17.398568400000002],[-66.1471965,-17.3993918],[-66.1471293,-17.399726700000002],[-66.1471925,-17.399734000000002],[-66.14717830000001,-17.3998175],[-66.1471149,-17.400191300000003],[-66.1470192,-17.400755200000003],[-66.1475326,-17.4008331],[-66.14789180000001,-17.400887800000003],[-66.14800340000001,-17.400894800000003],[-66.1479899,-17.400962500000002],[-66.1478917,-17.401321000000003],[-66.1477981,-17.401607100000003],[-66.1477461,-17.401808600000003],[-66.1476535,-17.402012600000003],[-66.1475908,-17.4021367],[-66.14743820000001,-17.402474700000003],[-66.1474194,-17.402516600000002],[-66.1473752,-17.402615700000002],[-66.14730730000001,-17.4027326],[-66.1471977,-17.4028898],[-66.14709060000001,-17.403044],[-66.14705230000001,-17.403077300000003],[-66.14688650000001,-17.4032334],[-66.14673540000001,-17.4033443],[-66.14656020000001,-17.4035453],[-66.14625690000001,-17.403881300000002],[-66.1460246,-17.4041685],[-66.14591150000001,-17.404335800000002],[-66.1457908,-17.4045641],[-66.14565250000001,-17.4048461],[-66.14557470000001,-17.405032700000003],[-66.1455511,-17.405179500000003],[-66.1454776,-17.4054015],[-66.1454593,-17.4054669],[-66.1454202,-17.405601500000003],[-66.14538850000001,-17.405745900000003],[-66.1453712,-17.405859200000002],[-66.1453613,-17.4060238],[-66.1453676,-17.4061437],[-66.1453688,-17.4061755],[-66.14537320000001,-17.4062835],[-66.1453779,-17.406306700000002],[-66.1453793,-17.406330200000003],[-66.1454109,-17.406443200000002],[-66.14544310000001,-17.406527200000003],[-66.145499,-17.4066268],[-66.1455531,-17.406712600000002],[-66.14562620000001,-17.406780700000002],[-66.1460493,-17.4070827],[-66.14657550000001,-17.4074482],[-66.14688670000001,-17.4076105],[-66.1471035,-17.407693700000003],[-66.1473428,-17.407759000000002],[-66.147553,-17.4077695],[-66.14798040000001,-17.408032600000002],[-66.1480504,-17.408087100000003],[-66.1480884,-17.408146400000003],[-66.14846010000001,-17.4080616],[-66.1486627,-17.4080063],[-66.1488542,-17.407927700000002],[-66.1493367,-17.4076562],[-66.1495572,-17.4075302],[-66.1496109,-17.407496300000002],[-66.14965690000001,-17.407475400000003],[-66.1496743,-17.4074643],[-66.1496936,-17.407456600000003],[-66.1497166,-17.4074524],[-66.14974000000001,-17.407453],[-66.14976250000001,-17.407458300000002],[-66.14978330000001,-17.407468100000003],[-66.1498095,-17.4074905],[-66.14982280000001,-17.407510600000002],[-66.1498311,-17.407533700000002],[-66.14983330000001,-17.407549500000002],[-66.1498329,-17.4075656],[-66.14982930000001,-17.407583600000002],[-66.1498224,-17.407600700000003],[-66.1498107,-17.4076185],[-66.1497894,-17.407638300000002],[-66.14980630000001,-17.407674200000002],[-66.1498153,-17.407710100000003],[-66.14985180000001,-17.408840700000002],[-66.14985850000001,-17.4096343],[-66.15002460000001,-17.4097407],[-66.1501985,-17.4097331],[-66.1506602,-17.4097207],[-66.1507081,-17.409710500000003],[-66.1508331,-17.409705000000002],[-66.1508634,-17.4097134],[-66.15088370000001,-17.4097253],[-66.15091550000001,-17.4100167],[-66.1509578,-17.410250100000003],[-66.1509477,-17.410293000000003],[-66.15093320000001,-17.4103263],[-66.150906,-17.410361100000003],[-66.150863,-17.4103974],[-66.1508232,-17.4104205],[-66.150773,-17.4104394],[-66.1499783,-17.410503900000002],[-66.14999300000001,-17.410653200000002],[-66.1500005,-17.410792],[-66.15008300000001,-17.4114618],[-66.1501034,-17.411629700000002],[-66.1501073,-17.4116748],[-66.15021390000001,-17.412603200000003],[-66.1502207,-17.4126991],[-66.1502303,-17.412788300000003],[-66.15032330000001,-17.413587600000003],[-66.1503342,-17.413720400000003],[-66.151189,-17.413253100000002],[-66.1512648,-17.413213600000002],[-66.1513371,-17.4138784],[-66.1513709,-17.4140012],[-66.15154220000001,-17.4154689],[-66.1515476,-17.415533200000002],[-66.15163670000001,-17.416372600000003],[-66.1516634,-17.4165411],[-66.1516744,-17.4166098],[-66.1516945,-17.4166741],[-66.1517309,-17.416735000000003],[-66.15176740000001,-17.416789400000003],[-66.15181050000001,-17.4168418],[-66.1518807,-17.416937700000002],[-66.1519028,-17.4169632],[-66.1519195,-17.416992200000003],[-66.15193000000001,-17.4170237],[-66.1519342,-17.417056600000002],[-66.15192760000001,-17.4171072],[-66.15190600000001,-17.417153900000002],[-66.1518712,-17.4172508],[-66.15185860000001,-17.4172879],[-66.15182920000001,-17.4174036],[-66.15180570000001,-17.4175262],[-66.15180000000001,-17.4176977],[-66.1518083,-17.4179208],[-66.1518491,-17.4181743],[-66.1518959,-17.4183445],[-66.1519944,-17.4185447],[-66.15230770000001,-17.4190842],[-66.1524139,-17.4192688],[-66.15270790000001,-17.4198248],[-66.1528768,-17.4201687],[-66.153126,-17.4207496],[-66.1533093,-17.421245000000003],[-66.1533668,-17.421416800000003],[-66.15337960000001,-17.4214552],[-66.1533823,-17.421509200000003],[-66.1533728,-17.42155],[-66.15335400000001,-17.4215875],[-66.1533316,-17.4216151],[-66.1532889,-17.4216477],[-66.15323670000001,-17.4216681],[-66.15320360000001,-17.421672200000003],[-66.15314740000001,-17.421667300000003],[-66.153108,-17.421653600000003],[-66.15308850000001,-17.421645400000003],[-66.1530706,-17.421633200000002],[-66.1529754,-17.421620800000003],[-66.15281750000001,-17.4215547],[-66.15262150000001,-17.4214689],[-66.1520457,-17.4211774],[-66.1519504,-17.4210901],[-66.1518858,-17.4210086],[-66.1518171,-17.4208821],[-66.1514697,-17.4202307],[-66.151159,-17.4196457],[-66.1508206,-17.4189812],[-66.1502317,-17.4192448],[-66.1495252,-17.419568],[-66.14943790000001,-17.419602100000002],[-66.1493834,-17.4196166],[-66.1493075,-17.4196369],[-66.14924300000001,-17.4196464],[-66.149203,-17.4196354],[-66.1489045,-17.4195144],[-66.14885550000001,-17.4194958],[-66.14885600000001,-17.419361000000002]],"nodes":[4670257857,4670257854,4670257853,4670257852,4670257851,4670257850,4670257849,4670257848,5532496613,4670257847,4670257846,4670257845,4670257844,4670257843,4670257842,7243759472,2320136208,2320136205,2320136203,4308310779,4308310778,4308310777,4308310776,4670257836,4308310775,4308310774,1745129420,4308310773,4308310770,4308310780,4308310772,5274652953,4308310771,7243790376,1745129350,1745129503,1745129360,1745129364,1745129428,5274652950,1745129237,1745129368,1745129369,1745129464,7435255440,1545732157,1745129410,2020099095,5673062035,5673062036,5673062021,5673062025,5673062026,5673062027,5673062118,5673062028,5673062022,5673062119,5673062023,5673062024,1545732140,5673062029,5673062030,5673062031,5673062032,5673062020,4414037367,4414037372,4210163635,1545732100,1545732091,11079581777,7241553262,1544967286,1544967188,2320136077,5017108956,8484023263,13597126305,6133430619,13597126306,1545731982,8484023268,6133430622,6133430623,6133430624,6133430625,12534274229,6133430626,8189128447,6133430627,12534274250,1544965929,1544965856,4279518370,1545731473,1545731327,5168428637,6133430629,1544965936,1545731748,1544966484,1544966688,1544966841,1544967110,1544967352,1544967612,1544967857,1544968200,1544968583,13520789299,1544969054,1544969187,13520805465,13520805403,3839566056,3839566055,1544969424,1544969467,2320095800,3839566037,3839566036,1544969503,1544969524,4279518924,4067021361,2320095836,1544969583,7243790325,1544969621,2320095840,1544969629,1544969654,2320095842,2320095843,4154867320,4154867318,8400356093,4097911367,8400356092,4067021339,13806277710,7243790315,4154867313,13806277663,4154867311,13806277664,13806277667,4154867309,5163143265,13806277700,4154867308,4066933556,4154867305,8400356072,4154867304,8400356070,8400356073,4066933562,5429286886,4154867295,13806277640,5163143262,5163143263,13806272993,4154867291,13806272991,13806277620,8400356055,3956123675,8400356053,13806272982,4154863783,4154863780,5378907537,3956136713,2028803038,13806272980,8400356023,2028803058,8400356021,12175924226,7243764106,4308134198,2028805607,11890286428,4154863775,2028803105,2028803074,8400356004,2028805615,8400356003,13895180396,2028803059,2028803043,7243764105,8400355988,2028803060,8400355985,6132757183,6132757181,8400355984,2028803047,3562574108,2028803095,3562574095,12174222017,3562574086,3562574084,2028828257,3562574079,3562574075,3562574071,8399666578,3562574066,10102435960,8399666574,3562574057,11073903779,5378907572,12087529527,2028828299,5163143258,12087529526,6132756665,3562574114,12087529525,6132756663,3424332543,8400647414,11273306533,11273306534,11273306535,11273306536,11273306537,3562574072,3562574020,3562573998,12087519158,11273306542,3424332385,11083875842,11083875841,11083875840,11083875838,11083875836,11273306529,11083875833,11273306540,7352860890,10102436020,3424332298,1609365688,3424332297,1609366048,1609365725,1609365851,1609366159,1609366011,7243687025,3562573662,3562573659,3562573637,3562573632,3784920388,3429571677,4620215262,1609365960,10303763659,1609365855,10303763660,1609365878,4620215220,3429571615,12446462827,1609365830,4620215216,11078353455,3429571560,12446593131,13351462155,1609365798,3429571526,3429571522,2320160218,7863085758,1609366101,2424302494,1609365901,2320160208,2320160187,4059209929,1609366215,4620215205,5027942696,5027942688,5027942687,5027942653,5027940181,2956787648,5027940179,2956787647,2508868851,13535744054,2508868850,13535744055,2508868846,13535744056,2508868838,13535744057,2508868828,2508868827,2508868824,13535744058,2508868818,2508868813,13535744059,2508868816,2508868821,2508868825,12529903869,1609295397,1609366183,1609295440,1609221020,1609221140,1609200185,9156300405,2450079042,7436412015,1609221063,497168741,9156300398,2398626869,1609200177,2398626833,2398626816,1609200081,8162958911,8162958910,7033772018,1609200049,8162958914,497169501,497169504,1485097031,1485097020,1485097014,3877506232,1044379733,9366321725,8455317281,1009167683,8455317287,3290785083,11074088806,8162958964,1008238435,9012647241,497170001,9364555678,12952456793,1008238205,12952456779,12952456795,1008238230,8455639761,9364555682,7070768690,497170007,1008238537,497170008,497170010,1008238793,9364556031,497169979,497169953,6818591873,3316224538,12565837684,9359800374,9359800375,497169954,497169957,1044379345,12565837681,1009166481,497169958,6331635756,1009167549,497169962,6331635762,1044379589,1044379213,7965603739,598266521,598266518,1044379730,1044379735,1796486751,7965587281,1796486753,6331635754,1796486765,1044378919,9049714571,8385091906,598266493,8385091908,8385091907,602989551,8385091909,8385091914,5298602495,8385091913,1795293284,1795293323,8385091911,8385091910,8385091912,1795293424,1795293286,1795293393,1796486808,1795293430,2391341448,2391341465,1795293437,1795293264,1795293299,1795293277,8385093431,1795293338,2391341613,1795293296,8379904343,11081763605,2391341643,8379904342,1795293405,2391341655,2391341667,1795293432,9890903488,1795293389,602989537,9890903489,8388301598,312425917,9584233890,3676912941,9584233886,10854297122,312425660,8390961546,9930862751,1807100710,2361168089,9930862749,6179473101,312425828,6179473096,11310743156,9031318855,9028209372,6179473247,9031318856,2141431944,6179473241,6179473238,9034180378,5353339454,11310645817,312425956,315096054,11827172367,308306729,11827181890,2524491857,303214819,698492415,2524491860,2524491871,310256064,2892642950,11909190787,8686638951,8686638950,9852140997,3924761818,303215163,2296580941,3201986249,12153256567,8674788834,2089612819,360129540,3232582109,8978596850,3740735352,8978596851,8623738790,5096122271,303215031,2702743907,8661106030,303221553,3578038899,8620183423,8620183345,303221552,8620183347,8584400934,315134805,9886485075,2033335103,11072493727,2033335200,2033335257,11072493723,2033335311,2033335550,8619283530,8253508719,315031289,598789073,598789071,8253508706,315031292,315031293,315031294,8250070339,598789057,391727105,2033336773,702512026,315031513,1745102852,8250061913,8250061914,598789376,2031313826,9121680428,8090144004,2031314006,8089836073,8542732654,308297682,8542732655,8192368866,4941281629,8192368882,2031079461,2031079472,10830662564,2031079478,8192368854,2031079506,9928232797,598789683,324015374,12777576114,8192377531,324015376,843385352,2674328752,3325466473,5227462564,2031079515,12777576108,12777576113,6166733751,2031079516,2031079519,6166733752,6166733753,2031079525,2031079532,12777576109,5726438855,9352225513,2031079567,2031079607,3325466501,653082865,2240937799,646072448,2240937957,2240938091,646072467,9416346651,3649948825,702511853,2240938121,9413017875,702511852,3325688458,702511850,9416506463,702511725,9327848703,8208217884,2240937943,11789289658,8208217822,9327848697,8208217823,9327848704,9327848705,2240937931,11789289654,2240937968,11789289660,8208217826,11789289659,8208217827,11789289655,2240938079,11789289665,11789289652,702511607,646072437,646072487,9435142281,9111746098,659960353,9432624646,9413017890,6336963276,7546627579,5610210843,6336962378,9435142295,6336962379,6336962380,9435142294,5610210463,2768899232,2032952128,3675745331,3675745333,3017384632,3675745334,3636047020,3675745336,2545423142,5495422922,2545423149,646065259,2545423147,3675745337,646065234,3017372526,3675745339,646061102,3315367417,8236159656,3315367423,646061104,3675745343,3315367447,3315367661,646061115,3315367669,9153399870,646061117,702511571,646061119,3675745346,3315367694,646061192,646061196,3017385067,646061199,3315367744,646061203,646061207,3017385080,646061209,3315367875,646061211,646061214,3675745350,646061217,646061453,10040986828,646061530,646061533,10040986830,646061537,646061540,646061543,646061548,10040986829,10830574938,646061429,3315367952,3315367947,2045510987,3319201751,3319201750,1737906679,2045510625,2045510989,2045510881,8236485275,3017377422,8945406867,12484607545,2032951962,12484607546,2032952053,12484607548,12484607547,1600426582,9163842412]},"gtfs":{"agency_id":17,"route_id":116,"services":[{"service_id":"Mo-Su","startTime":"06:00","endTime":"22:00","trip_id":20762524}],"filteredStops":{"nodes":[4670257857,4670257852,4670257849,4670257847,4670257843,2320136208,4308310779,4308310776,4308310774,4308310770,5274652953,1745129503,1745129428,1745129368,7435255440,2020099095,5673062021,5673062027,5673062119,1545732140,5673062031,4414037367,1545732100,7241553262,5017108956,6133430619,8484023268,6133430624,6133430626,12534274250,4279518370,6133430629,1544966484,1544967110,1544967857,13520789299,13520805465,3839566055,3839566037,1544969524,2320095836,1544969621,1544969654,4154867320,4097911367,7243790315,4154867311,4154867309,4154867308,8400356072,8400356073,4154867295,13806272993,13806277620,8400356053,4154863780,2028803038,2028803058,4308134198,4154863775,8400356004,13895180396,7243764105,8400355985,8400355984,3562574095,3562574084,3562574075,3562574066,3562574057,12087529527,12087529526,6132756663,11273306533,11273306536,3562574020,11273306542,11083875841,11083875836,7352860890,1609365688,1609365725,1609366011,3562573659,3784920388,1609365960,1609365878,12446462827,11078353455,13351462155,3429571522,1609366101,2320160208,4620215205,5027942687,2956787648,2508868851,13535744055,2508868838,2508868824,2508868813,2508868821,1609295397,1609221020,9156300405,1609221063,1609200177,1609200081,7033772018,497169501,1485097020,1044379733,1009167683,8162958964,497170001,1008238205,1008238230,7070768690,497170008,9364556031,3316224538,9359800375,1044379345,497169958,497169962,1044379213,598266518,7965587281,1796486765,8385091906,8385091907,8385091914,1795293284,8385091912,1795293393,2391341448,1795293264,8385093431,1795293296,2391341643,2391341667,1795293389,8388301598,3676912941,312425660,1807100710,6179473101,9031318855,9031318856,6179473238,312425956,315096054,698492415,11909190787,2296580941,360129540,5096122271,3578038899,315134805,2033335257,315031289,315031293,315031513,1745102852,8090144004,8192368866,2031079478,12777576114,2031079515,6166733752,9352225513,646072448,702511853,9416506463,8208217822,11789289654,11789289655,9435142281,7546627579,9435142294,3017384632,646065259,2545423147,3315367423,646061117,646061199,3675745350,646061540,2045510987,3017377422,9163842412],"coordinates":[[-66.0115968,-17.416499],[-66.01218440000001,-17.416035400000002],[-66.01321970000001,-17.415467300000003],[-66.0137069,-17.415157400000002],[-66.0139279,-17.4147055],[-66.01499790000001,-17.414359100000002],[-66.0158433,-17.413721600000002],[-66.0157757,-17.413263500000003],[-66.0156979,-17.4129663],[-66.01554300000001,-17.4117907],[-66.015414,-17.4105057],[-66.0154644,-17.4090773],[-66.01589600000001,-17.4082174],[-66.01606170000001,-17.407405200000003],[-66.0163223,-17.4064789],[-66.0161977,-17.4053115],[-66.0160421,-17.4052617],[-66.0159112,-17.405216000000003],[-66.0158646,-17.4050838],[-66.0159369,-17.404973700000003],[-66.0160974,-17.404962100000002],[-66.01913540000001,-17.404577300000003],[-66.0225927,-17.4040184],[-66.02381100000001,-17.4038244],[-66.0287193,-17.4030513],[-66.03051310000001,-17.4027478],[-66.0322986,-17.402470800000003],[-66.0333054,-17.402235700000002],[-66.0352043,-17.401495800000003],[-66.0360076,-17.400986800000002],[-66.03517040000001,-17.400168500000003],[-66.03693840000001,-17.4007806],[-66.0376008,-17.4019397],[-66.0383901,-17.403379100000002],[-66.0392731,-17.405351600000003],[-66.04079630000001,-17.4085582],[-66.0411775,-17.409354800000003],[-66.04155,-17.4101804],[-66.04158790000001,-17.411242400000003],[-66.0416419,-17.412144400000003],[-66.0413577,-17.413362000000003],[-66.041121,-17.413950200000002],[-66.0411656,-17.4146134],[-66.0415608,-17.415744],[-66.04345550000001,-17.415519300000003],[-66.0450838,-17.415231900000002],[-66.0467952,-17.4148417],[-66.04734930000001,-17.4148166],[-66.0485982,-17.414740600000002],[-66.052058,-17.4144805],[-66.0527746,-17.414318],[-66.0541142,-17.413849900000002],[-66.05538130000001,-17.413660200000002],[-66.05556270000001,-17.413633200000003],[-66.05657590000001,-17.413479300000002],[-66.0577997,-17.413374800000003],[-66.05953260000001,-17.413458600000002],[-66.0618488,-17.413364],[-66.06632540000001,-17.4130395],[-66.0699819,-17.4126569],[-66.07107780000001,-17.4125239],[-66.0717613,-17.412425300000002],[-66.07290900000001,-17.4122477],[-66.0750893,-17.4119847],[-66.0758522,-17.411902700000002],[-66.0809826,-17.411396800000002],[-66.0826208,-17.4112344],[-66.08492550000001,-17.4110522],[-66.0867597,-17.4108856],[-66.0888797,-17.410733200000003],[-66.0901384,-17.410778200000003],[-66.09187750000001,-17.411006],[-66.09416590000001,-17.411937],[-66.0953958,-17.412040700000002],[-66.09564680000001,-17.4117761],[-66.0962695,-17.409996900000003],[-66.0969367,-17.4080818],[-66.09754620000001,-17.406916000000002],[-66.0982027,-17.406078400000002],[-66.0989945,-17.403578200000002],[-66.1015107,-17.4035353],[-66.1032531,-17.403401900000002],[-66.1062028,-17.4028923],[-66.1074057,-17.4026025],[-66.10951580000001,-17.402185300000003],[-66.1112494,-17.4018707],[-66.112381,-17.4000106],[-66.1128243,-17.398955],[-66.1127776,-17.3982765],[-66.1126138,-17.3967005],[-66.1124874,-17.395913500000002],[-66.11214650000001,-17.394521400000002],[-66.11191170000001,-17.393553200000003],[-66.11080150000001,-17.3890017],[-66.11027320000001,-17.3870149],[-66.1100117,-17.386030700000003],[-66.1095288,-17.3840183],[-66.10940330000001,-17.3839852],[-66.1093342,-17.3839083],[-66.10935570000001,-17.3837088],[-66.1094999,-17.383632900000002],[-66.1096675,-17.3836961],[-66.11055110000001,-17.383561500000003],[-66.1137491,-17.382897800000002],[-66.1166355,-17.3823048],[-66.1178158,-17.3820392],[-66.11928180000001,-17.381503600000002],[-66.12026010000001,-17.3810155],[-66.12168240000001,-17.3800861],[-66.1221658,-17.3797745],[-66.122742,-17.379389900000003],[-66.12535460000001,-17.377652400000002],[-66.12702440000001,-17.376476],[-66.1281352,-17.37571],[-66.1288741,-17.375188],[-66.12898750000001,-17.3751147],[-66.1292707,-17.3749377],[-66.1296174,-17.3747803],[-66.13028010000001,-17.37459],[-66.1313669,-17.374523200000002],[-66.13236900000001,-17.374525700000003],[-66.1336639,-17.3745303],[-66.13486950000001,-17.3745687],[-66.13523880000001,-17.3746459],[-66.13576570000001,-17.374828700000002],[-66.1366294,-17.3753417],[-66.13756330000001,-17.375942600000002],[-66.13874120000001,-17.3764855],[-66.1396414,-17.3767716],[-66.1410415,-17.3770506],[-66.14200690000001,-17.377268500000003],[-66.1423113,-17.377371],[-66.1423853,-17.377457900000003],[-66.1424229,-17.377606500000002],[-66.1423809,-17.3780515],[-66.1423561,-17.378600300000002],[-66.1423857,-17.3787904],[-66.14252710000001,-17.3789172],[-66.1430493,-17.3790829],[-66.1430966,-17.379165800000003],[-66.14306760000001,-17.379372800000002],[-66.14309370000001,-17.379472],[-66.14414070000001,-17.380997200000003],[-66.14433430000001,-17.3812809],[-66.1451665,-17.3824805],[-66.1462906,-17.384132800000003],[-66.147463,-17.385856],[-66.14771590000001,-17.386222800000002],[-66.1484094,-17.3872198],[-66.14864270000001,-17.387550800000003],[-66.14933660000001,-17.3885389],[-66.1493179,-17.388644900000003],[-66.14889430000001,-17.390824400000003],[-66.14864180000001,-17.3919718],[-66.14793900000001,-17.3927435],[-66.14664900000001,-17.3925276],[-66.14440970000001,-17.392130700000003],[-66.1436259,-17.3920019],[-66.1423273,-17.3927935],[-66.141917,-17.393830100000002],[-66.1431094,-17.3953528],[-66.14431180000001,-17.396443400000003],[-66.14745690000001,-17.3981037],[-66.1474343,-17.3982059],[-66.1471149,-17.400191300000003],[-66.1478917,-17.401321000000003],[-66.1474194,-17.402516600000002],[-66.14688650000001,-17.4032334],[-66.14565250000001,-17.4048461],[-66.14538850000001,-17.405745900000003],[-66.1453779,-17.406306700000002],[-66.14562620000001,-17.406780700000002],[-66.147553,-17.4077695],[-66.1488542,-17.407927700000002],[-66.1496936,-17.407456600000003],[-66.14982280000001,-17.407510600000002],[-66.1498107,-17.4076185],[-66.1501985,-17.4097331],[-66.15091550000001,-17.4100167],[-66.1508232,-17.4104205],[-66.1501034,-17.411629700000002],[-66.151189,-17.413253100000002],[-66.1512648,-17.413213600000002],[-66.1516945,-17.4166741],[-66.1519342,-17.417056600000002],[-66.1518083,-17.4179208],[-66.1533093,-17.421245000000003],[-66.15323670000001,-17.4216681],[-66.15262150000001,-17.4214689],[-66.1502317,-17.4192448],[-66.14885600000001,-17.419361000000002]]}}}]}