{"type":"FeatureCollection","features":[{"type":"Feature","properties":{"check_date":"46167","description":"Nro. verde lechuga: Av. Túnel","fixme":"add tags","from":"Ulincate","name":"Trufi 233: Ulincate → Loreto","oneway:bus":"no","operator":"Sindicato mixto de autotransporte Sacaba","public_transport:version":"2","ref":"233","route":"bus","to":"Loreto","type":"route","id":20773820},"geometry":{"type":"LineString","coordinates":[[-66.02835540000001,-17.3832726],[-66.0282602,-17.3834108],[-66.0282126,-17.383505500000002],[-66.02816630000001,-17.3836565],[-66.0281248,-17.383817800000003],[-66.0281006,-17.3839842],[-66.02808990000001,-17.3841633],[-66.0281087,-17.3842222],[-66.0281355,-17.3842824],[-66.0281865,-17.3844129],[-66.02841360000001,-17.3849486],[-66.0289051,-17.386235300000003],[-66.0291102,-17.387349200000003],[-66.02917210000001,-17.3876092],[-66.0295088,-17.3882185],[-66.02962690000001,-17.3883666],[-66.02971240000001,-17.3884738],[-66.0298267,-17.3886396],[-66.02993210000001,-17.388737000000003],[-66.030246,-17.388848000000003],[-66.0305209,-17.389026700000002],[-66.0308181,-17.3891755],[-66.0310386,-17.389412800000002],[-66.03114640000001,-17.3895918],[-66.03141380000001,-17.3908433],[-66.0316351,-17.391581600000002],[-66.03116890000001,-17.3916502],[-66.03097360000001,-17.391726900000002],[-66.03085750000001,-17.3917846],[-66.03072130000001,-17.3918725],[-66.0308499,-17.392971900000003],[-66.03085320000001,-17.3930684],[-66.030865,-17.393179500000002],[-66.0309261,-17.393555300000003],[-66.0309443,-17.393667100000002],[-66.03094870000001,-17.393696000000002],[-66.03104370000001,-17.3941538],[-66.0311174,-17.3943353],[-66.0313174,-17.3946426],[-66.03140400000001,-17.3947483],[-66.03145450000001,-17.3948207],[-66.0316159,-17.395047700000003],[-66.0318266,-17.3953165],[-66.0319139,-17.3954279],[-66.03198060000001,-17.395539600000003],[-66.0321069,-17.3957513],[-66.03227720000001,-17.3962369],[-66.0325062,-17.396756200000002],[-66.032753,-17.397315900000002],[-66.0328144,-17.397371200000002],[-66.03319540000001,-17.3974325],[-66.0332841,-17.397582200000002],[-66.0311161,-17.398452600000002],[-66.0305199,-17.398691900000003],[-66.0306934,-17.399137500000002],[-66.030568,-17.3991571],[-66.0311027,-17.4002711],[-66.0312277,-17.400551500000002],[-66.03164720000001,-17.401449600000003],[-66.03213980000001,-17.4025004],[-66.0322986,-17.402470800000003],[-66.03253450000001,-17.4024283],[-66.03280720000001,-17.4023651],[-66.0333054,-17.402235700000002],[-66.0338672,-17.402045],[-66.03440230000001,-17.401826600000003],[-66.0352043,-17.401495800000003],[-66.0358199,-17.401242500000002],[-66.03616600000001,-17.401100000000003],[-66.0360076,-17.400986800000002],[-66.0356692,-17.400745],[-66.03538250000001,-17.400421700000003],[-66.03517040000001,-17.400168500000003],[-66.03511830000001,-17.4001012],[-66.0362077,-17.3995722],[-66.0364315,-17.3999308],[-66.03693840000001,-17.4007806],[-66.03699180000001,-17.4008739],[-66.03734100000001,-17.401459600000003],[-66.0376008,-17.4019397],[-66.03797390000001,-17.402621800000002],[-66.03806990000001,-17.40275],[-66.0383901,-17.403379100000002],[-66.0386373,-17.403978000000002],[-66.0390364,-17.404828300000002],[-66.0392731,-17.405351600000003],[-66.0396027,-17.4060801],[-66.0402483,-17.4074399],[-66.04079630000001,-17.4085582],[-66.0408443,-17.408656200000003],[-66.04114100000001,-17.409275700000002],[-66.0411775,-17.409354800000003],[-66.04143160000001,-17.409905600000002],[-66.0414789,-17.4100076],[-66.04155,-17.4101804],[-66.0415553,-17.4102815],[-66.04153380000001,-17.4104889],[-66.0415687,-17.4109392],[-66.04158790000001,-17.411242400000003],[-66.0416144,-17.411749200000003],[-66.04168010000001,-17.4118746],[-66.0416419,-17.412144400000003],[-66.04158930000001,-17.4123476],[-66.04147350000001,-17.4129299],[-66.0413577,-17.413362000000003],[-66.04127100000001,-17.413625500000002],[-66.04121020000001,-17.4137886],[-66.041121,-17.413950200000002],[-66.0410779,-17.414083700000003],[-66.0410774,-17.414332400000003],[-66.0411656,-17.4146134],[-66.0413393,-17.415075],[-66.04142200000001,-17.415254100000002],[-66.0415608,-17.415744],[-66.0425079,-17.415641400000002],[-66.0433177,-17.4155374],[-66.04345550000001,-17.415519300000003],[-66.0435638,-17.415504700000003],[-66.0443312,-17.4153978],[-66.044679,-17.4153284],[-66.0450838,-17.415231900000002],[-66.0459309,-17.415015],[-66.04648630000001,-17.414891700000002],[-66.0467952,-17.4148417],[-66.0470993,-17.4148217],[-66.0472646,-17.4148204],[-66.04734930000001,-17.4148166],[-66.0477298,-17.414800500000002],[-66.0481628,-17.414769500000002],[-66.0485982,-17.414740600000002],[-66.0496409,-17.414701500000003],[-66.0511726,-17.4145667],[-66.052058,-17.4144805],[-66.05218810000001,-17.4144657],[-66.0523572,-17.4144332],[-66.0527746,-17.414318],[-66.0532819,-17.414136300000003],[-66.0539729,-17.4138872],[-66.0541142,-17.413849900000002],[-66.0541913,-17.4138352],[-66.0544533,-17.4137966],[-66.05475200000001,-17.413759300000002],[-66.05538130000001,-17.413660200000002],[-66.05544470000001,-17.4136503],[-66.0555149,-17.4136406],[-66.05556270000001,-17.413633200000003],[-66.056352,-17.4135104],[-66.0564465,-17.413493300000003],[-66.05657590000001,-17.413479300000002],[-66.05698620000001,-17.413425],[-66.0573964,-17.4133706],[-66.0577997,-17.413374800000003],[-66.0590463,-17.413471100000002],[-66.05924180000001,-17.413470200000003],[-66.05953260000001,-17.413458600000002],[-66.0602631,-17.413430700000003],[-66.06172210000001,-17.413375300000002],[-66.0618488,-17.413364],[-66.06195740000001,-17.413363500000003],[-66.0647478,-17.4131596],[-66.06575310000001,-17.4130818],[-66.06632540000001,-17.4130395],[-66.0676844,-17.4129101],[-66.06916670000001,-17.412746700000003],[-66.0699819,-17.4126569],[-66.0703299,-17.4126167],[-66.0708733,-17.4125514],[-66.07107780000001,-17.4125239],[-66.0713448,-17.412481500000002],[-66.0716209,-17.412443600000003],[-66.0717613,-17.412425300000002],[-66.07197000000001,-17.412398200000002],[-66.07238500000001,-17.4123316],[-66.07290900000001,-17.4122477],[-66.0740232,-17.4120899],[-66.07485790000001,-17.412008200000002],[-66.0750893,-17.4119847],[-66.0751656,-17.411978700000002],[-66.0756403,-17.411928600000003],[-66.0758522,-17.411902700000002],[-66.0769746,-17.4118041],[-66.07887620000001,-17.411624200000002],[-66.07987150000001,-17.411519000000002],[-66.0809826,-17.411396800000002],[-66.08155620000001,-17.4113338],[-66.0820467,-17.4112799],[-66.0826208,-17.4112344],[-66.0831091,-17.4111958],[-66.0842193,-17.411108000000002],[-66.08492550000001,-17.4110522],[-66.08563960000001,-17.410987300000002],[-66.08626720000001,-17.4109303],[-66.0867597,-17.4108856],[-66.0873332,-17.410833500000003],[-66.0883847,-17.410738000000002],[-66.0888797,-17.410733200000003],[-66.089433,-17.410754200000003],[-66.0899364,-17.4107662],[-66.0901384,-17.410778200000003],[-66.0911258,-17.4108671],[-66.09164000000001,-17.4109392],[-66.09187750000001,-17.411006],[-66.0928329,-17.411417],[-66.0936013,-17.411740400000003],[-66.09397120000001,-17.411887500000002],[-66.09416590000001,-17.411937],[-66.09448640000001,-17.411972000000002],[-66.0953099,-17.4120306],[-66.0953958,-17.412040700000002],[-66.095599,-17.412045900000003],[-66.0957193,-17.412049800000002],[-66.0963045,-17.4120831],[-66.0965767,-17.412106400000003],[-66.0968572,-17.4121534],[-66.0974803,-17.4122695],[-66.098084,-17.4123784],[-66.09845250000001,-17.4124573],[-66.09910230000001,-17.4125979],[-66.0992712,-17.412633300000003],[-66.09946070000001,-17.412679200000003],[-66.0997081,-17.4127332],[-66.1010275,-17.412860400000003],[-66.10152240000001,-17.4129268],[-66.1024189,-17.4129937],[-66.1030252,-17.413039],[-66.10330680000001,-17.4130493],[-66.1040871,-17.4130988],[-66.10472680000001,-17.413135],[-66.1054015,-17.413170700000002],[-66.1054079,-17.4126888],[-66.1055584,-17.412064100000002],[-66.1055628,-17.411426300000002],[-66.10558160000001,-17.4106048],[-66.10558900000001,-17.4105214],[-66.1056983,-17.4101497],[-66.1058052,-17.4099217],[-66.10598630000001,-17.409553900000002],[-66.10626660000001,-17.4089883],[-66.10631550000001,-17.4088879],[-66.1071481,-17.409029200000003],[-66.10739210000001,-17.409095500000003],[-66.1078765,-17.409227100000003],[-66.10901100000001,-17.4095353],[-66.1097381,-17.4097329],[-66.1097708,-17.4088096],[-66.1106079,-17.408528],[-66.11089600000001,-17.408436700000003],[-66.11157770000001,-17.4082206],[-66.11258690000001,-17.407909200000002],[-66.11346370000001,-17.4076284],[-66.1140998,-17.4074214],[-66.1149122,-17.4070858],[-66.1146853,-17.406645],[-66.1144658,-17.4062187],[-66.11416580000001,-17.405635800000002],[-66.11351210000001,-17.404410600000002],[-66.1136443,-17.404296300000002],[-66.11419790000001,-17.4038365],[-66.1148014,-17.403372100000002],[-66.1149511,-17.4032716],[-66.1153163,-17.403011900000003],[-66.1153386,-17.402934100000003],[-66.1153877,-17.402159700000002],[-66.11545290000001,-17.401907],[-66.11553230000001,-17.401599700000002],[-66.1155507,-17.401478400000002],[-66.11552520000001,-17.401372600000002],[-66.11458640000001,-17.4014433],[-66.1145319,-17.401447400000002],[-66.11422180000001,-17.4014749],[-66.1135876,-17.401524100000003],[-66.11298710000001,-17.401584000000003],[-66.11248780000001,-17.4016594],[-66.1115673,-17.401799800000003],[-66.1115714,-17.401720500000003],[-66.112381,-17.4000106],[-66.11264650000001,-17.399416900000002],[-66.1128204,-17.399054300000003],[-66.1128243,-17.398955],[-66.1128207,-17.398845100000003],[-66.1128013,-17.398573900000002],[-66.1127776,-17.3982765],[-66.1127208,-17.3976016],[-66.112645,-17.396963300000003],[-66.1126138,-17.3967005],[-66.1125708,-17.396339],[-66.11254650000001,-17.396154600000003],[-66.1124874,-17.395913500000002],[-66.11241890000001,-17.395633500000002],[-66.11217400000001,-17.3946337],[-66.11214650000001,-17.394521400000002],[-66.11210750000001,-17.394362100000002],[-66.11195070000001,-17.393722],[-66.11191170000001,-17.393553200000003],[-66.1115286,-17.3920616],[-66.1115053,-17.3919655],[-66.1110957,-17.3903363],[-66.11080150000001,-17.3890017],[-66.1107904,-17.3889095],[-66.1104384,-17.387646200000002],[-66.11027320000001,-17.3870149],[-66.1100949,-17.3863352],[-66.11005250000001,-17.3861789],[-66.1100117,-17.386030700000003],[-66.10983630000001,-17.3853335],[-66.10973530000001,-17.384932000000003],[-66.1095288,-17.3840183],[-66.1094846,-17.3840161],[-66.1094346,-17.3840018],[-66.10940330000001,-17.3839852],[-66.1093756,-17.3839636],[-66.1093524,-17.3839377],[-66.1093342,-17.3839083],[-66.10931930000001,-17.3838665],[-66.1093147,-17.383822600000002],[-66.1093257,-17.3837626],[-66.10935570000001,-17.3837088],[-66.10939110000001,-17.3836742],[-66.1094343,-17.383649100000003],[-66.1094999,-17.383632900000002],[-66.10956200000001,-17.383637],[-66.1096198,-17.3836589],[-66.1096675,-17.3836961],[-66.10970130000001,-17.3837404],[-66.1101186,-17.3836522],[-66.11055110000001,-17.383561500000003],[-66.1116279,-17.383341],[-66.1126895,-17.383117600000002],[-66.1137491,-17.382897800000002],[-66.11474120000001,-17.3826937],[-66.1160978,-17.3824143],[-66.1166355,-17.3823048],[-66.1167504,-17.382281600000002],[-66.1172233,-17.3821833],[-66.1178158,-17.3820392],[-66.11826740000001,-17.3819014],[-66.1185475,-17.381807000000002],[-66.1187728,-17.381719800000003],[-66.11928180000001,-17.381503600000002],[-66.11950370000001,-17.381410000000002],[-66.11999700000001,-17.381166800000003],[-66.12026010000001,-17.3810155],[-66.1208017,-17.380671500000002],[-66.1208417,-17.3806461],[-66.12168240000001,-17.3800861],[-66.12176980000001,-17.3800293],[-66.1218317,-17.379987800000002],[-66.1221658,-17.3797745],[-66.12243050000001,-17.3795986],[-66.1224694,-17.3795763],[-66.122742,-17.379389900000003],[-66.12360930000001,-17.378817400000003],[-66.1246859,-17.378115100000002],[-66.12535460000001,-17.377652400000002],[-66.1257746,-17.377356000000002],[-66.12695810000001,-17.3765211],[-66.12702440000001,-17.376476],[-66.1271995,-17.3763545],[-66.1275504,-17.376112600000003],[-66.1279614,-17.3758297],[-66.1281352,-17.37571],[-66.1282882,-17.3756033],[-66.12881490000001,-17.3752302],[-66.1288741,-17.375188],[-66.12893100000001,-17.3751503],[-66.1289543,-17.3751348],[-66.12898750000001,-17.3751147],[-66.1291381,-17.375016300000002],[-66.12925580000001,-17.374947000000002],[-66.1292707,-17.3749377],[-66.129327,-17.374909300000002],[-66.1294482,-17.374850400000003],[-66.1296174,-17.3747803],[-66.1298412,-17.374701400000003],[-66.1300549,-17.3746383],[-66.13028010000001,-17.37459],[-66.1305217,-17.3745502],[-66.1307689,-17.3745291],[-66.1313669,-17.374523200000002],[-66.1313916,-17.374523],[-66.1319101,-17.374528700000003],[-66.13214070000001,-17.374527500000003],[-66.13236900000001,-17.374525700000003],[-66.1331657,-17.3745288],[-66.13322760000001,-17.374529000000003],[-66.1336639,-17.3745303],[-66.1345247,-17.374534],[-66.13467490000001,-17.374544800000002],[-66.13486950000001,-17.3745687],[-66.13497140000001,-17.3745873],[-66.13505740000001,-17.3746031],[-66.13523880000001,-17.3746459],[-66.13542910000001,-17.374700200000003],[-66.1355865,-17.3747547],[-66.13576570000001,-17.374828700000002],[-66.1359602,-17.3749201],[-66.13617570000001,-17.375044600000003],[-66.1366294,-17.3753417],[-66.1371488,-17.375692500000003],[-66.1371768,-17.3757114],[-66.13756330000001,-17.375942600000002],[-66.13790200000001,-17.376123800000002],[-66.13825580000001,-17.376282],[-66.138489,-17.376383800000003],[-66.13874120000001,-17.3764855],[-66.13894970000001,-17.3765576],[-66.1392113,-17.3766371],[-66.1396414,-17.3767716],[-66.14039430000001,-17.376946800000002],[-66.14084190000001,-17.3770223],[-66.1410415,-17.3770506],[-66.1411913,-17.3770792],[-66.1414646,-17.3771422],[-66.14200690000001,-17.377268500000003],[-66.1422247,-17.3773187],[-66.14228290000001,-17.377351200000003],[-66.1423113,-17.377371],[-66.14233730000001,-17.377395200000002],[-66.1423637,-17.377423800000003],[-66.1423853,-17.377457900000003],[-66.14240600000001,-17.377499200000003],[-66.1424178,-17.3775385],[-66.1424231,-17.377578500000002],[-66.1424229,-17.377606500000002],[-66.142421,-17.3776344],[-66.1424051,-17.3777627],[-66.1423809,-17.3780515],[-66.14237770000001,-17.3782277],[-66.142358,-17.3784481],[-66.1423561,-17.378600300000002],[-66.1423592,-17.3786717],[-66.14237720000001,-17.3787495],[-66.1423857,-17.3787904],[-66.14241170000001,-17.378833],[-66.1424539,-17.3788802],[-66.14252710000001,-17.3789172],[-66.1427305,-17.378983400000003],[-66.1429971,-17.3790674],[-66.1430493,-17.3790829],[-66.14306780000001,-17.379109000000003],[-66.1430837,-17.3791368],[-66.1430966,-17.379165800000003],[-66.14310160000001,-17.3791891],[-66.1431024,-17.379212900000002],[-66.14309940000001,-17.379236600000002],[-66.14306760000001,-17.379372800000002],[-66.14306880000001,-17.3794137],[-66.14307760000001,-17.379442],[-66.14309370000001,-17.379472],[-66.14320280000001,-17.3796329],[-66.14410310000001,-17.3809425],[-66.14414070000001,-17.380997200000003],[-66.1442263,-17.3811247],[-66.1443213,-17.3812621],[-66.14433430000001,-17.3812809],[-66.1443962,-17.3813704],[-66.1450554,-17.382323900000003],[-66.1451665,-17.3824805],[-66.14526500000001,-17.382625200000003],[-66.14626410000001,-17.3840939],[-66.1462906,-17.384132800000003],[-66.1463324,-17.384194200000003],[-66.1463585,-17.3842326],[-66.147463,-17.385856],[-66.1475139,-17.3859308],[-66.1475669,-17.3860074],[-66.147678,-17.386168100000003],[-66.14771590000001,-17.386222800000002],[-66.148064,-17.3867233],[-66.14836460000001,-17.3871554],[-66.1484094,-17.3872198],[-66.14850120000001,-17.3873491],[-66.14851920000001,-17.3873745],[-66.14864270000001,-17.387550800000003],[-66.14884190000001,-17.387832500000002],[-66.14901,-17.388070000000003],[-66.14916980000001,-17.388299500000002],[-66.14933660000001,-17.3885389],[-66.1493179,-17.388644900000003],[-66.14920000000001,-17.3892545],[-66.1491441,-17.389543900000003],[-66.1490107,-17.390230600000002],[-66.148919,-17.390703000000002],[-66.14890910000001,-17.3907458],[-66.14889430000001,-17.390824400000003],[-66.14888640000001,-17.3908667],[-66.1487038,-17.3917663],[-66.14869060000001,-17.3918339],[-66.148651,-17.391928200000002],[-66.14864180000001,-17.3919718],[-66.14858770000001,-17.3922279],[-66.1485432,-17.392443],[-66.1485231,-17.392540200000003],[-66.1484738,-17.392778800000002],[-66.1484626,-17.392832900000002],[-66.14793900000001,-17.3927435],[-66.14743340000001,-17.3926589],[-66.1473167,-17.3926404],[-66.1468937,-17.3925734],[-66.14683430000001,-17.3925626],[-66.14664900000001,-17.3925276],[-66.1458099,-17.3923619],[-66.1453273,-17.392282],[-66.1451071,-17.392245600000003],[-66.1448295,-17.3921996],[-66.1445767,-17.392158100000003],[-66.14440970000001,-17.392130700000003],[-66.14437070000001,-17.392124300000003],[-66.1442415,-17.392103000000002],[-66.1441346,-17.3920855],[-66.143713,-17.3920162],[-66.1436259,-17.3920019],[-66.1430857,-17.3919132],[-66.142807,-17.3918675],[-66.14274520000001,-17.3918573],[-66.1427214,-17.3919144],[-66.14234640000001,-17.3927549],[-66.1423273,-17.3927935],[-66.1419298,-17.393674700000002],[-66.14187790000001,-17.3937896],[-66.14189300000001,-17.393798800000003],[-66.14190550000001,-17.393811000000003],[-66.141917,-17.393830100000002],[-66.1419226,-17.3938534],[-66.14192050000001,-17.3938773],[-66.1419595,-17.3939217],[-66.1425597,-17.3946913],[-66.14292370000001,-17.3951433],[-66.1431094,-17.3953528],[-66.1432772,-17.3955556],[-66.1434016,-17.395681900000003],[-66.14379020000001,-17.3960495],[-66.1440656,-17.3962608],[-66.14431180000001,-17.396443400000003],[-66.14457460000001,-17.3966099],[-66.14482170000001,-17.396751400000003],[-66.1451356,-17.3969281],[-66.14539470000001,-17.397057200000003],[-66.14574250000001,-17.397234800000003],[-66.14678470000001,-17.3977645],[-66.14745690000001,-17.3981037],[-66.14767230000001,-17.3982059],[-66.1478288,-17.398264],[-66.1480011,-17.398308500000002],[-66.14815660000001,-17.398336200000003],[-66.14831550000001,-17.3983579],[-66.148511,-17.398367800000003],[-66.14855800000001,-17.398372600000002],[-66.14994870000001,-17.3984764],[-66.15058850000001,-17.398518000000003],[-66.1510902,-17.398456600000003],[-66.1519487,-17.3984139],[-66.15201040000001,-17.3984159],[-66.1520931,-17.3984305],[-66.15221910000001,-17.398466000000003],[-66.15236440000001,-17.398521000000002],[-66.1526616,-17.3986303],[-66.1527528,-17.398660500000002],[-66.15277370000001,-17.3986674],[-66.15310670000001,-17.3987465],[-66.15319450000001,-17.3987646],[-66.15417000000001,-17.39898],[-66.1542283,-17.398992900000003],[-66.15429560000001,-17.3990088],[-66.1552473,-17.3992338],[-66.15530360000001,-17.3992471],[-66.15534770000001,-17.399256700000002],[-66.156378,-17.399481],[-66.1564374,-17.399488700000003],[-66.1564991,-17.3994953],[-66.15675590000001,-17.399494800000003],[-66.15696360000001,-17.399463],[-66.1571541,-17.399440100000003],[-66.1575712,-17.3993743],[-66.1576356,-17.399365500000002],[-66.1577347,-17.399351900000003],[-66.1578434,-17.3993362],[-66.15843930000001,-17.399245200000003],[-66.1584983,-17.3992362],[-66.15861500000001,-17.399227200000002],[-66.1587124,-17.399228800000003],[-66.1587011,-17.3993022],[-66.15867700000001,-17.3994582],[-66.15867080000001,-17.3995086],[-66.15856140000001,-17.3995064],[-66.1578434,-17.399489900000003],[-66.1577288,-17.3994867],[-66.1577242,-17.3995661],[-66.1577104,-17.3998063],[-66.1576735,-17.400164800000002],[-66.15759510000001,-17.4009518],[-66.1575885,-17.401002300000002],[-66.15757520000001,-17.401153700000002],[-66.157522,-17.4015753],[-66.1574818,-17.4020121],[-66.1574693,-17.4021498],[-66.1574602,-17.4022501],[-66.1574143,-17.4026402],[-66.15738040000001,-17.402927400000003],[-66.15730570000001,-17.403430800000002],[-66.1571981,-17.4039846],[-66.1571744,-17.4040293],[-66.15714940000001,-17.404081100000003],[-66.15697510000001,-17.4051438],[-66.156929,-17.4053964],[-66.15671490000001,-17.4065683],[-66.15667520000001,-17.4068311],[-66.1566081,-17.407373500000002],[-66.1565791,-17.4075962],[-66.1565643,-17.407672],[-66.15655220000001,-17.4077489],[-66.1563919,-17.408892],[-66.1564986,-17.4095365],[-66.1565315,-17.4097021],[-66.1565518,-17.4097727],[-66.1567026,-17.4099988],[-66.1566909,-17.410101100000002],[-66.15669190000001,-17.4101809],[-66.1568278,-17.4105306],[-66.1568561,-17.410599700000002],[-66.15686380000001,-17.410628300000003],[-66.156869,-17.410647200000003],[-66.15691740000001,-17.410825900000003],[-66.1569262,-17.4108774],[-66.1569326,-17.41091],[-66.15693540000001,-17.410928600000002],[-66.1569386,-17.4109476],[-66.1569456,-17.410963600000002],[-66.15695260000001,-17.4109796],[-66.1569673,-17.4110131],[-66.1569848,-17.4110404],[-66.15700220000001,-17.411067600000003],[-66.15704170000001,-17.4111222],[-66.1570794,-17.4111663],[-66.1571423,-17.41123],[-66.1573365,-17.411404700000002],[-66.15751920000001,-17.4115684],[-66.1576313,-17.411657700000003],[-66.1578284,-17.4117712],[-66.1580895,-17.411881100000002],[-66.15839860000001,-17.4119835],[-66.15857390000001,-17.412065300000002],[-66.15866000000001,-17.4120908],[-66.1594257,-17.4126993],[-66.15946260000001,-17.412717800000003],[-66.15949350000001,-17.412735100000003],[-66.15951240000001,-17.412740900000003],[-66.15954160000001,-17.412731100000002],[-66.1595808,-17.4127277],[-66.1596116,-17.412731800000003],[-66.159633,-17.412738500000003],[-66.159653,-17.4127483],[-66.1596712,-17.412760900000002],[-66.1596871,-17.412776],[-66.1597084,-17.412806800000002],[-66.15977290000001,-17.412933300000002],[-66.1598239,-17.412996800000002],[-66.1598721,-17.4130547],[-66.1607022,-17.4136959],[-66.16150850000001,-17.414331500000003],[-66.1616711,-17.414445800000003],[-66.1617887,-17.414507800000003],[-66.1619089,-17.4145602],[-66.1620436,-17.4145979],[-66.16217180000001,-17.4146234],[-66.1622021,-17.4146284],[-66.16239060000001,-17.414659800000003],[-66.16245930000001,-17.4146521],[-66.16252650000001,-17.4146533],[-66.16260580000001,-17.4146657],[-66.16268190000001,-17.414689900000003],[-66.16275320000001,-17.4147253],[-66.1628177,-17.4147709],[-66.16287390000001,-17.4148256],[-66.1629204,-17.414888100000002],[-66.1629465,-17.4149354],[-66.1629669,-17.4149852],[-66.1629815,-17.4150369],[-66.16299090000001,-17.4150996],[-66.16299240000001,-17.415140200000003],[-66.1629848,-17.4152205],[-66.16296340000001,-17.415298500000002],[-66.16292870000001,-17.415372],[-66.16288180000001,-17.415439000000003],[-66.1628239,-17.415497700000003],[-66.16275540000001,-17.4155474],[-66.1626818,-17.4155839],[-66.1626016,-17.415609],[-66.16252340000001,-17.4156207],[-66.1623206,-17.4157067],[-66.16216630000001,-17.4157663],[-66.162029,-17.415843300000002],[-66.16192070000001,-17.4159191],[-66.1618028,-17.416016300000003],[-66.1616767,-17.4161445],[-66.160809,-17.4171887],[-66.1605469,-17.4174966],[-66.1599958,-17.4181609],[-66.1601316,-17.418247400000002],[-66.1601863,-17.418968800000002],[-66.1602392,-17.419690300000003],[-66.16026880000001,-17.4201565],[-66.1602749,-17.4202522],[-66.1602905,-17.420498900000002],[-66.1602936,-17.420539],[-66.1603434,-17.421198500000003],[-66.16030310000001,-17.4213302],[-66.1603843,-17.4218735],[-66.16038560000001,-17.4219681],[-66.1603625,-17.4220639],[-66.1603015,-17.4221618],[-66.16022140000001,-17.4222627],[-66.16015730000001,-17.422375900000002],[-66.1601316,-17.422513600000002],[-66.1601248,-17.422727100000003]],"nodes":[4218430534,4183486352,4218430565,4218430588,4183486353,4218430631,4183486354,4218430652,4218430657,4183486355,4183486356,1723114215,4210163454,1723114147,6901644989,9209029218,6901644990,1723114306,1723114304,7435255105,1723114308,1723114102,6901607866,1723114097,1723114141,1720841105,1720841155,1720841171,6901644988,1545730739,6901607849,1545730760,4406416732,13520805524,6901607878,4406416731,1545730778,1545730790,6133430584,6133430547,2735650785,1545730809,5168428680,1545730848,6901607836,1545730877,1544965362,6531335223,1545731093,4921077353,1544965415,1545731130,1545731200,1545731228,1545731269,1545731291,1545731488,7241553273,1545731740,1545731982,8484023268,6133430622,6133430623,6133430624,6133430625,12534274229,6133430626,8189128447,6133430627,12534274250,1544965929,1544965856,4279518370,1545731473,1545731327,5168428637,6133430629,1544965936,1545731748,1544966484,1544966688,1544966841,1544967110,1544967352,1544967612,1544967857,1544968200,1544968583,13520789299,1544969054,1544969187,13520805465,13520805403,3839566056,3839566055,1544969424,1544969467,2320095800,3839566037,3839566036,1544969503,1544969524,4279518924,4067021361,2320095836,1544969583,7243790325,1544969621,2320095840,1544969629,1544969654,2320095842,2320095843,4154867320,4154867318,8400356093,4097911367,8400356092,4067021339,13806277710,7243790315,4154867313,13806277663,4154867311,13806277664,13806277667,4154867309,5163143265,13806277700,4154867308,4066933556,4154867305,8400356072,4154867304,8400356070,8400356073,4066933562,5429286886,4154867295,13806277640,5163143262,5163143263,13806272993,4154867291,13806272991,13806277620,8400356055,3956123675,8400356053,13806272982,4154863783,4154863780,5378907537,3956136713,2028803038,13806272980,8400356023,2028803058,8400356021,12175924226,7243764106,4308134198,2028805607,11890286428,4154863775,2028803105,2028803074,8400356004,2028805615,8400356003,13895180396,2028803059,2028803043,7243764105,8400355988,2028803060,8400355985,6132757183,6132757181,8400355984,2028803047,3562574108,2028803095,3562574095,12174222017,3562574086,3562574084,2028828257,3562574079,3562574075,3562574071,8399666578,3562574066,10102435960,8399666574,3562574057,11073903779,5378907572,12087529527,2028828299,5163143258,12087529526,6132756665,3562574114,12087529525,6132756663,3424332543,8400647414,11273306533,3562574131,8400647394,6132756658,12087983529,3424332549,3562574153,3562574163,3424332553,11404901603,8400647396,3562574180,3424332561,3562574194,3424332562,7243693331,3562574200,8400650820,3562574203,3562574206,3562574209,3424332558,3424332545,3424332526,3424332480,3424332468,3424332453,3424332439,3424332432,7555355078,3416984484,1610493465,3424332421,3416984481,3416984898,1610492644,2449097543,6132756649,7555360492,2449097532,2448368760,2448368759,2449097526,2448368757,13061293095,13061293097,7243687036,1610492845,7499502655,7873895660,3429571700,2449097332,2448368714,1610493775,1610493589,13061345704,1610493770,2449097324,1610493431,10303763684,7243693317,3429571665,1609365715,3784920387,1609366192,1609365855,10303763660,1609365878,4620215220,3429571615,12446462827,1609365830,4620215216,11078353455,3429571560,12446593131,13351462155,1609365798,3429571526,3429571522,2320160218,7863085758,1609366101,2424302494,1609365901,2320160208,2320160187,4059209929,1609366215,4620215205,5027942696,5027942688,5027942687,5027942653,5027940181,2956787648,5027940179,2956787647,2508868851,13535744054,2508868850,13535744055,2508868846,13535744056,2508868838,13535744057,2508868828,2508868827,2508868824,13535744058,2508868818,2508868813,13535744059,2508868816,2508868821,2508868825,12529903869,1609295397,1609366183,1609295440,1609221020,1609221140,1609200185,9156300405,2450079042,7436412015,1609221063,497168741,9156300398,2398626869,1609200177,2398626833,2398626816,1609200081,8162958911,8162958910,7033772018,1609200049,8162958914,497169501,497169504,1485097031,1485097020,1485097014,3877506232,1044379733,9366321725,8455317281,1009167683,8455317287,3290785083,11074088806,8162958964,1008238435,9012647241,497170001,9364555678,12952456793,1008238205,12952456779,12952456795,1008238230,8455639761,9364555682,7070768690,497170007,1008238537,497170008,497170010,1008238793,9364556031,497169979,497169953,6818591873,3316224538,12565837684,9359800374,9359800375,497169954,497169957,1044379345,12565837681,1009166481,497169958,6331635756,1009167549,497169962,6331635762,1044379589,1044379213,7965603739,598266521,598266518,1044379730,1044379735,1796486751,7965587281,1796486753,6331635754,1796486765,1044378919,9049714571,8385091906,598266493,8385091908,8385091907,602989551,8385091909,8385091914,5298602495,8385091913,1795293284,1795293323,8385091911,8385091910,8385091912,1795293424,1795293286,1795293393,1796486808,1795293430,2391341448,2391341465,1795293437,1795293264,1795293299,1795293277,8385093431,1795293338,2391341613,1795293296,8379904343,11081763605,2391341643,8379904342,1795293405,2391341655,2391341667,1795293432,9890903488,1795293389,602989537,9890903489,8388301598,312425917,9584233890,3676912941,9584233886,10854297122,312425660,8390961546,9930862751,1807100710,2361168089,9930862749,6179473101,312425828,6179473096,11310743156,9031318855,9028209372,6179473247,9031318856,2141431944,6179473241,6179473238,9034180378,5353339454,11310645817,312425956,315096054,11827172367,308306729,11827181890,2524491857,303214819,698492415,2524491860,2524491871,310256064,2892642950,11909190787,8686638951,8686638950,9852140997,3924761818,303215163,2296580941,3201986249,12153256567,8674788834,2089612819,360129540,3232582109,8978596850,3740735352,8978596851,8623738790,5096122271,303215031,2702743907,8661106030,303221553,3578038899,8620183423,8620183345,303221552,8620183347,8584400934,315134805,9886485075,2033335103,11072493727,2033335200,2033335257,11072493723,2033335311,2033335550,8619283530,8253508719,315031289,598789073,598789071,8253508706,315031292,315031293,315031294,8250070339,598789057,391727105,2033336773,702512026,315031513,315031514,315031515,315031516,315031517,8250061916,315031543,8004756950,1727306399,598789381,1727306395,2765190357,2765190359,9121680511,1727306396,8241198663,8238783261,8238783233,2765190377,8238783242,3269819960,12081159183,1727306400,12081159182,3674274541,1727306404,3674274542,12081159193,1727306401,2398944652,2398944653,11679558744,7767900404,4929965568,1727306403,1865095006,2398944637,10921117778,2398944625,9566992862,315111204,10921117750,8099810118,13484099735,9593572466,2398944651,648548910,2398944656,2577975072,4449488611,2577975100,648543481,8637329085,2577975115,2577975131,9090462298,648542366,9652874528,702511644,2577975282,2577975307,9090462294,648542369,648542365,9131177339,323972806,2763553535,702511613,2763553554,2763553563,8226219195,319762950,9131083908,4477790775,702721240,2576698538,9131107895,10046445859,2576698561,2576698592,13448698821,13448698822,10892572063,10046249670,7902420007,10046249667,4477791070,10046445902,2576698674,1527822562,10046445903,10046406799,10046249653,10046406800,7947239539,10046406798,702721236,2716726766,702721233,702721232,707336838,702721231,12100035080,702721228,3303558644,9438085274,9438085262,2716726787,9438085260,2716726788,9438085273,2716726791,9438085272,2716726793,2716726797,2716726806,702721154,9438085222,497189303,497188705,1762869395,9203487809,497188924,5540948696,497188933,10752482122,497187811,11086439377,11086439378,6351767103,497187812,497187813,9203537851,1762869440,10752482126,497187815,9203487806,497187816,11086439375,11086439376,497187819,497187820,9203487800,1762869479,9203487801,3017385100,9203487802,11114802785,497187800,9203537840,9203487799,497188639,9203487798,1762869495,497188549,1638809217,1865112155,1866239317,1866239385,2022073879,1866239383,7767883931,7767883932,2022073880,7767883936,1866239322,1638809230,1638807806,1638809234,1638809237,1638809250,1638809252,1638809256,1638809258,1865124212]},"gtfs":{"agency_id":18,"route_id":62,"services":[{"service_id":"Mo-Su","startTime":"06:00","endTime":"22:00","trip_id":20773820}],"filteredStops":{"nodes":[4218430534,4183486353,4218430652,1723114215,9209029218,1723114304,6901607866,1720841155,6901607849,13520805524,1545730790,1545730809,6901607836,1545731093,1545731200,1545731291,1545731982,6133430624,6133430626,1544965929,1545731327,1544965936,1544966841,1544967857,1544969054,13520805403,1544969467,1544969503,4067021361,1544969621,2320095842,4154867318,4067021339,13806277663,13806277667,4154867308,4154867304,5429286886,5163143262,13806272991,8400356053,4154863780,13806272980,12175924226,2028805607,2028803074,13895180396,7243764105,6132757183,3562574108,12174222017,3562574079,3562574066,11073903779,2028828299,3562574114,8400647414,8400647394,3562574153,8400647396,3562574194,8400650820,3424332558,3424332480,3424332432,3424332421,2449097543,2449097532,2448368757,1610492845,3429571700,1610493589,1610493431,3429571665,1609365855,3429571615,4620215216,13351462155,2320160218,1609365901,4059209929,5027942688,2956787648,2508868851,2508868846,2508868828,13535744058,2508868816,1609295397,1609221020,2450079042,9156300398,2398626833,8162958910,497169501,1485097014,9366321725,3290785083,9012647241,12952456793,1008238230,497170007,497170010,497169953,9359800374,497169957,497169958,6331635762,598266521,1044379735,6331635754,8385091906,8385091907,5298602495,8385091911,1795293424,1795293430,1795293264,8385093431,8379904343,1795293405,1795293432,9890903489,3676912941,8390961546,2361168089,6179473096,6179473247,6179473241,312425956,315096054,698492415,8686638950,12153256567,3740735352,303221553,8584400934,2033335257,598789073,8250070339,315031514,1727306399,1727306396,3269819960,12081159193,1727306403,1865095006,315111204,2398944651,2577975100,9090462298,2577975282,9131177339,2763553563,702721240,2576698592,7902420007,1527822562,7947239539,702721233,702721228,9438085260,2716726797,2716726806,5540948696,497187812,11086439375,3017385100,497188549,1638809217,1865112155,2022073879,7767883932,1866239322,1638807806,1638809250,1865124212],"coordinates":[[-66.02835540000001,-17.3832726],[-66.0281248,-17.383817800000003],[-66.0281087,-17.3842222],[-66.0289051,-17.386235300000003],[-66.02962690000001,-17.3883666],[-66.02993210000001,-17.388737000000003],[-66.0310386,-17.389412800000002],[-66.03116890000001,-17.3916502],[-66.0308499,-17.392971900000003],[-66.0309261,-17.393555300000003],[-66.0311174,-17.3943353],[-66.0316159,-17.395047700000003],[-66.03198060000001,-17.395539600000003],[-66.032753,-17.397315900000002],[-66.0311161,-17.398452600000002],[-66.030568,-17.3991571],[-66.03213980000001,-17.4025004],[-66.0333054,-17.402235700000002],[-66.0352043,-17.401495800000003],[-66.0356692,-17.400745],[-66.0362077,-17.3995722],[-66.03699180000001,-17.4008739],[-66.03806990000001,-17.40275],[-66.0392731,-17.405351600000003],[-66.0408443,-17.408656200000003],[-66.04143160000001,-17.409905600000002],[-66.04153380000001,-17.4104889],[-66.04168010000001,-17.4118746],[-66.04147350000001,-17.4129299],[-66.041121,-17.413950200000002],[-66.0413393,-17.415075],[-66.0425079,-17.415641400000002],[-66.0443312,-17.4153978],[-66.04648630000001,-17.414891700000002],[-66.0472646,-17.4148204],[-66.0485982,-17.414740600000002],[-66.05218810000001,-17.4144657],[-66.0539729,-17.4138872],[-66.0544533,-17.4137966],[-66.0555149,-17.4136406],[-66.05657590000001,-17.413479300000002],[-66.0577997,-17.413374800000003],[-66.0602631,-17.413430700000003],[-66.0647478,-17.4131596],[-66.0676844,-17.4129101],[-66.0708733,-17.4125514],[-66.0717613,-17.412425300000002],[-66.07290900000001,-17.4122477],[-66.0751656,-17.411978700000002],[-66.07887620000001,-17.411624200000002],[-66.08155620000001,-17.4113338],[-66.0842193,-17.411108000000002],[-66.0867597,-17.4108856],[-66.089433,-17.410754200000003],[-66.0911258,-17.4108671],[-66.0936013,-17.411740400000003],[-66.0953099,-17.4120306],[-66.0957193,-17.412049800000002],[-66.0974803,-17.4122695],[-66.0992712,-17.412633300000003],[-66.1010275,-17.412860400000003],[-66.10330680000001,-17.4130493],[-66.1054079,-17.4126888],[-66.10558160000001,-17.4106048],[-66.10598630000001,-17.409553900000002],[-66.10739210000001,-17.409095500000003],[-66.1097708,-17.4088096],[-66.11157770000001,-17.4082206],[-66.1149122,-17.4070858],[-66.11351210000001,-17.404410600000002],[-66.1148014,-17.403372100000002],[-66.1153877,-17.402159700000002],[-66.11552520000001,-17.401372600000002],[-66.11422180000001,-17.4014749],[-66.1115673,-17.401799800000003],[-66.1128204,-17.399054300000003],[-66.1128013,-17.398573900000002],[-66.1126138,-17.3967005],[-66.11241890000001,-17.395633500000002],[-66.11195070000001,-17.393722],[-66.1115053,-17.3919655],[-66.1104384,-17.387646200000002],[-66.1100117,-17.386030700000003],[-66.1095288,-17.3840183],[-66.1093756,-17.3839636],[-66.1093147,-17.383822600000002],[-66.10939110000001,-17.3836742],[-66.1096198,-17.3836589],[-66.11055110000001,-17.383561500000003],[-66.1137491,-17.382897800000002],[-66.1167504,-17.382281600000002],[-66.1185475,-17.381807000000002],[-66.11950370000001,-17.381410000000002],[-66.1208417,-17.3806461],[-66.1221658,-17.3797745],[-66.12360930000001,-17.378817400000003],[-66.1257746,-17.377356000000002],[-66.1275504,-17.376112600000003],[-66.12881490000001,-17.3752302],[-66.1289543,-17.3751348],[-66.1292707,-17.3749377],[-66.1298412,-17.374701400000003],[-66.1305217,-17.3745502],[-66.1319101,-17.374528700000003],[-66.13322760000001,-17.374529000000003],[-66.13467490000001,-17.374544800000002],[-66.13523880000001,-17.3746459],[-66.1359602,-17.3749201],[-66.1371768,-17.3757114],[-66.13825580000001,-17.376282],[-66.1392113,-17.3766371],[-66.1410415,-17.3770506],[-66.14200690000001,-17.377268500000003],[-66.14233730000001,-17.377395200000002],[-66.1424178,-17.3775385],[-66.142421,-17.3776344],[-66.142358,-17.3784481],[-66.1423857,-17.3787904],[-66.14252710000001,-17.3789172],[-66.14306780000001,-17.379109000000003],[-66.1431024,-17.379212900000002],[-66.14306880000001,-17.3794137],[-66.14410310000001,-17.3809425],[-66.14433430000001,-17.3812809],[-66.14526500000001,-17.382625200000003],[-66.1463324,-17.384194200000003],[-66.1475669,-17.3860074],[-66.14836460000001,-17.3871554],[-66.14851920000001,-17.3873745],[-66.14933660000001,-17.3885389],[-66.1493179,-17.388644900000003],[-66.14889430000001,-17.390824400000003],[-66.1485432,-17.392443],[-66.1473167,-17.3926404],[-66.1451071,-17.392245600000003],[-66.143713,-17.3920162],[-66.14234640000001,-17.3927549],[-66.141917,-17.393830100000002],[-66.1432772,-17.3955556],[-66.14482170000001,-17.396751400000003],[-66.14767230000001,-17.3982059],[-66.14994870000001,-17.3984764],[-66.15221910000001,-17.398466000000003],[-66.15319450000001,-17.3987646],[-66.156378,-17.399481],[-66.1576356,-17.399365500000002],[-66.1577347,-17.399351900000003],[-66.1587124,-17.399228800000003],[-66.1578434,-17.399489900000003],[-66.15759510000001,-17.4009518],[-66.1574693,-17.4021498],[-66.15730570000001,-17.403430800000002],[-66.156929,-17.4053964],[-66.1565643,-17.407672],[-66.1565518,-17.4097727],[-66.1568561,-17.410599700000002],[-66.1569326,-17.41091],[-66.1569673,-17.4110131],[-66.1571423,-17.41123],[-66.1578284,-17.4117712],[-66.1594257,-17.4126993],[-66.1595808,-17.4127277],[-66.1597084,-17.412806800000002],[-66.15977290000001,-17.412933300000002],[-66.1620436,-17.4145979],[-66.16268190000001,-17.414689900000003],[-66.16299090000001,-17.4150996],[-66.16275540000001,-17.4155474],[-66.1616767,-17.4161445],[-66.160809,-17.4171887],[-66.1605469,-17.4174966],[-66.1601863,-17.418968800000002],[-66.1602749,-17.4202522],[-66.1603434,-17.421198500000003],[-66.1603843,-17.4218735],[-66.1603015,-17.4221618],[-66.1601248,-17.422727100000003]]}}},{"type":"Feature","properties":{"bus":"yes","highway":"bus_stop","name":"Parada MiniBus 233","public_transport":"platform","id":13874686164},"geometry":{"type":"Point","coordinates":[-66.028478,-17.383183000000002]}},{"type":"Feature","properties":{"bus":"yes","highway":"bus_stop","name":"Parada MiniBus 233","public_transport":"platform","id":9181583444},"geometry":{"type":"Point","coordinates":[-66.16019770000001,-17.4228284]}}]}