{"type":"FeatureCollection","features":[{"type":"Feature","properties":{"check_date":"2026-05-25","description":"Nro. blanco: Pacata","from":"Fabril Huayllani","name":"Trufi 230: Fabril Huayllani → Mercado Coraca","network":"BO:CB:Cochabamba","on_demand":"yes","operator":"Sindicato mixto de autotransporte Sacaba","public_transport:version":"2","ref":"230","route":"bus","to":"Mercado Coraca","type":"route","wheelchair":"no","id":20773814},"geometry":{"type":"LineString","coordinates":[[-66.0562888,-17.3775851],[-66.0563858,-17.377586700000002],[-66.05756620000001,-17.3775379],[-66.0580642,-17.377586100000002],[-66.058569,-17.3776653],[-66.0586954,-17.3776791],[-66.05952470000001,-17.377769400000002],[-66.0600948,-17.3778466],[-66.060658,-17.377910200000002],[-66.06087430000001,-17.377934600000003],[-66.06143680000001,-17.3779971],[-66.0621974,-17.378081700000003],[-66.0627597,-17.3781442],[-66.06321750000001,-17.378195100000003],[-66.0637585,-17.3782552],[-66.0648759,-17.3783794],[-66.06500840000001,-17.3783941],[-66.06509650000001,-17.378403900000002],[-66.06556280000001,-17.3784737],[-66.0660522,-17.378531600000002],[-66.06654540000001,-17.378601],[-66.06707180000001,-17.3786591],[-66.0675755,-17.3787172],[-66.06912510000001,-17.3789216],[-66.0693409,-17.3789489],[-66.0698167,-17.378988000000003],[-66.0704178,-17.379061500000002],[-66.07072720000001,-17.379097700000003],[-66.0707806,-17.379104100000003],[-66.07108240000001,-17.3791131],[-66.0714176,-17.3790838],[-66.0720623,-17.378998300000003],[-66.0735865,-17.378803400000002],[-66.0739812,-17.378752900000002],[-66.07465830000001,-17.378666300000003],[-66.075101,-17.378608500000002],[-66.0757092,-17.378529200000003],[-66.07579600000001,-17.3785178],[-66.07588410000001,-17.3785069],[-66.07759510000001,-17.378295100000003],[-66.0777887,-17.3782682],[-66.0778598,-17.378259200000002],[-66.0779406,-17.3782487],[-66.0789132,-17.3781229],[-66.080967,-17.377863],[-66.08105660000001,-17.377852700000002],[-66.08157770000001,-17.377780700000002],[-66.0821437,-17.3777025],[-66.0826754,-17.377629000000002],[-66.0836816,-17.3774966],[-66.0838138,-17.3774827],[-66.08516150000001,-17.377308000000003],[-66.0852122,-17.3773018],[-66.08533630000001,-17.377288800000002],[-66.0854271,-17.3772743],[-66.08643570000001,-17.3771431],[-66.0873083,-17.3770275],[-66.0881511,-17.3769165],[-66.0888281,-17.376834900000002],[-66.08982320000001,-17.3767116],[-66.0907682,-17.3765776],[-66.09146600000001,-17.3765],[-66.09157660000001,-17.376487700000002],[-66.09174270000001,-17.376466500000003],[-66.09280220000001,-17.376331],[-66.0934785,-17.376242],[-66.09356220000001,-17.3762338],[-66.0936685,-17.3762194],[-66.09371200000001,-17.3762143],[-66.0941011,-17.376165200000003],[-66.09462880000001,-17.376098600000002],[-66.09565660000001,-17.375964],[-66.09606450000001,-17.375916500000002],[-66.09622250000001,-17.3758924],[-66.0972935,-17.375749600000002],[-66.0981912,-17.375640200000003],[-66.09918470000001,-17.375505800000003],[-66.09922710000001,-17.3755001],[-66.09928790000001,-17.3754928],[-66.0993356,-17.375487200000002],[-66.1001366,-17.3753955],[-66.10115880000001,-17.375260500000003],[-66.102249,-17.375116600000002],[-66.10292770000001,-17.375027000000003],[-66.1036696,-17.3749442],[-66.10452090000001,-17.3748308],[-66.1046256,-17.3748006],[-66.1050972,-17.374596500000003],[-66.10599760000001,-17.3741939],[-66.1060782,-17.374153000000003],[-66.1066059,-17.3739041],[-66.1067563,-17.373836400000002],[-66.1068929,-17.3737885],[-66.1070215,-17.373774200000003],[-66.1070751,-17.3737701],[-66.107673,-17.373771100000003],[-66.1087627,-17.373768300000002],[-66.11082640000001,-17.3737676],[-66.1109222,-17.373764700000002],[-66.1110153,-17.3737587],[-66.11109610000001,-17.373747],[-66.11119190000001,-17.373726],[-66.1118637,-17.373292000000003],[-66.11200640000001,-17.3731584],[-66.11213670000001,-17.373060600000002],[-66.11223500000001,-17.372993400000002],[-66.1123223,-17.372932600000002],[-66.11241620000001,-17.3728911],[-66.1125291,-17.372860600000003],[-66.1126146,-17.372850000000003],[-66.11266470000001,-17.3728461],[-66.1128063,-17.3728477],[-66.1129044,-17.372858200000003],[-66.1130138,-17.3728644],[-66.11347070000001,-17.3728783],[-66.11380600000001,-17.372892],[-66.11438770000001,-17.372912200000002],[-66.11495450000001,-17.372928100000003],[-66.11572100000001,-17.3729657],[-66.11693790000001,-17.3730218],[-66.11819510000001,-17.3730811],[-66.1182593,-17.3730841],[-66.11831160000001,-17.3730867],[-66.11984290000001,-17.373162400000002],[-66.1203091,-17.373190700000002],[-66.12125200000001,-17.3732308],[-66.1224231,-17.3732845],[-66.12253480000001,-17.3732867],[-66.12261330000001,-17.373281900000002],[-66.1226905,-17.373274400000003],[-66.12270120000001,-17.3732672],[-66.12272060000001,-17.3732583],[-66.1227415,-17.3732536],[-66.122763,-17.3732532],[-66.1227841,-17.3732571],[-66.1228038,-17.373265200000002],[-66.12281680000001,-17.3732735],[-66.12289390000001,-17.3732866],[-66.1229512,-17.3732928],[-66.12304830000001,-17.373301100000003],[-66.1234141,-17.373310800000002],[-66.1235259,-17.3733116],[-66.1235776,-17.373313500000002],[-66.1239092,-17.373320500000002],[-66.12416,-17.373325100000002],[-66.12472960000001,-17.3733423],[-66.12560540000001,-17.373373700000002],[-66.1258184,-17.3733864],[-66.12614500000001,-17.3734059],[-66.12623350000001,-17.373409600000002],[-66.1271342,-17.373442200000003],[-66.1276215,-17.3734599],[-66.1286377,-17.3734742],[-66.1287806,-17.373469],[-66.1288718,-17.373455900000003],[-66.1289804,-17.373427200000002],[-66.1290673,-17.3733898],[-66.1291753,-17.3733341],[-66.1293134,-17.3732714],[-66.12945570000001,-17.373222300000002],[-66.1295565,-17.3732012],[-66.129686,-17.3731739],[-66.1298501,-17.3731449],[-66.13031790000001,-17.3731127],[-66.1306023,-17.3730894],[-66.1307793,-17.373061],[-66.1309291,-17.3730212],[-66.1310179,-17.3729845],[-66.13148120000001,-17.3727838],[-66.13161930000001,-17.3727343],[-66.1318136,-17.372661200000003],[-66.13190850000001,-17.372646000000003],[-66.1329231,-17.372357100000002],[-66.13303040000001,-17.37233],[-66.13316590000001,-17.372312800000003],[-66.13329250000001,-17.3723089],[-66.13337720000001,-17.3723184],[-66.1335092,-17.3723479],[-66.13369150000001,-17.3723819],[-66.13412070000001,-17.3724619],[-66.13417390000001,-17.372471800000003],[-66.1342413,-17.3724859],[-66.1347484,-17.3725916],[-66.1350955,-17.3726555],[-66.13516150000001,-17.3726676],[-66.13521610000001,-17.3726819],[-66.1355236,-17.372736000000003],[-66.13569360000001,-17.372760600000003],[-66.1358009,-17.372762400000003],[-66.1358677,-17.372760300000003],[-66.13597130000001,-17.372756000000003],[-66.13607130000001,-17.372746300000003],[-66.13613020000001,-17.3727406],[-66.1362225,-17.372731700000003],[-66.1364442,-17.372705800000002],[-66.1365705,-17.372684500000002],[-66.13661850000001,-17.372672100000003],[-66.13668650000001,-17.372653800000002],[-66.1367319,-17.3726376],[-66.1367986,-17.3727325],[-66.1368269,-17.372781500000002],[-66.1368693,-17.3728583],[-66.13689480000001,-17.372917400000002],[-66.13690600000001,-17.3729586],[-66.1369073,-17.373002900000003],[-66.136881,-17.3732055],[-66.13684,-17.373471900000002],[-66.1368439,-17.373554400000003],[-66.13687420000001,-17.373674],[-66.1369629,-17.3739679],[-66.136975,-17.373977500000002],[-66.13702590000001,-17.373966900000003],[-66.13707670000001,-17.3739665],[-66.1371628,-17.3739898],[-66.13726190000001,-17.3740157],[-66.1373665,-17.3740291],[-66.1377544,-17.3740075],[-66.1379938,-17.3739923],[-66.13803100000001,-17.373989700000003],[-66.13806550000001,-17.373987300000003],[-66.13879820000001,-17.373941700000003],[-66.13884030000001,-17.373938900000002],[-66.13967260000001,-17.3738852],[-66.13977150000001,-17.3738792],[-66.1405964,-17.373829500000003],[-66.14160030000001,-17.373772000000002],[-66.1422624,-17.373734600000002],[-66.1423298,-17.373722200000003],[-66.1424276,-17.3736928],[-66.1424961,-17.3736651],[-66.1426187,-17.3736122],[-66.14265400000001,-17.3735557],[-66.1426742,-17.373532200000003],[-66.1427001,-17.3735067],[-66.1427463,-17.373472500000002],[-66.14279780000001,-17.373446100000002],[-66.1428532,-17.373428],[-66.14290650000001,-17.373419300000002],[-66.14296060000001,-17.373418400000002],[-66.1430141,-17.3734253],[-66.143066,-17.3734399],[-66.1431441,-17.373479500000002],[-66.14320950000001,-17.3735363],[-66.14325810000001,-17.3736067],[-66.1433648,-17.3736706],[-66.1434091,-17.3736789],[-66.143743,-17.373666],[-66.14381540000001,-17.3736615],[-66.1443457,-17.3736292],[-66.1445029,-17.3736196],[-66.1446097,-17.3736146],[-66.14564530000001,-17.373547400000003],[-66.14585340000001,-17.3735342],[-66.146669,-17.3734776],[-66.1467391,-17.3734727],[-66.1468978,-17.3734617],[-66.14704470000001,-17.3734515],[-66.14716,-17.3734435],[-66.1477354,-17.373403600000003],[-66.1485729,-17.3733532],[-66.1491709,-17.3733174],[-66.1493762,-17.373305900000002],[-66.1494179,-17.3732966],[-66.14946540000001,-17.3732778],[-66.14948290000001,-17.373254000000003],[-66.1495055,-17.3732341],[-66.14952910000001,-17.3732207],[-66.1495551,-17.3732119],[-66.1495828,-17.3732079],[-66.14961690000001,-17.373210200000003],[-66.14965000000001,-17.3732204],[-66.1496795,-17.373237900000003],[-66.14970310000001,-17.3732611],[-66.1497561,-17.3732748],[-66.1497987,-17.3732787],[-66.1505133,-17.3732341],[-66.15095480000001,-17.373206600000003],[-66.1510593,-17.3732],[-66.15117380000001,-17.373193],[-66.15120830000001,-17.3731909],[-66.15144260000001,-17.3731741],[-66.1524613,-17.373111],[-66.15341910000001,-17.3730516],[-66.1535724,-17.373042100000003],[-66.1536725,-17.3730353],[-66.15377450000001,-17.373028400000003],[-66.15462020000001,-17.372979200000003],[-66.1546879,-17.3729757],[-66.15479110000001,-17.3729683],[-66.1564764,-17.3728483],[-66.156552,-17.3728389],[-66.15656940000001,-17.3727842],[-66.1565973,-17.3727336],[-66.15663470000001,-17.3726889],[-66.15668020000001,-17.372651700000002],[-66.15673220000001,-17.372623200000003],[-66.1567699,-17.3726096],[-66.15680920000001,-17.372600600000002],[-66.1568493,-17.3725972],[-66.1569111,-17.372604300000003],[-66.15697030000001,-17.372622900000003],[-66.15702440000001,-17.372652300000002],[-66.1570714,-17.372691300000003],[-66.15710940000001,-17.372738400000003],[-66.1571284,-17.3727719],[-66.1571777,-17.372797000000002],[-66.15724,-17.372803],[-66.158928,-17.372691300000003],[-66.15898530000001,-17.372688200000002],[-66.15907010000001,-17.372683400000003],[-66.1591482,-17.372678800000003],[-66.1592834,-17.372671],[-66.159475,-17.3726595],[-66.1597268,-17.3726458],[-66.1604978,-17.3725945],[-66.16058120000001,-17.3725908],[-66.16079300000001,-17.3725756],[-66.1608853,-17.372569900000002],[-66.16104220000001,-17.3725601],[-66.16166670000001,-17.372521300000002],[-66.1625305,-17.372462000000002],[-66.1626071,-17.3724567],[-66.16272430000001,-17.372448600000002],[-66.16280760000001,-17.372444400000003],[-66.16281930000001,-17.3724437],[-66.1629565,-17.3724339],[-66.16368630000001,-17.3723902],[-66.16377960000001,-17.372384],[-66.1638592,-17.372380600000003],[-66.16504470000001,-17.372305],[-66.1659248,-17.37225],[-66.16601080000001,-17.372244000000002],[-66.1667106,-17.372195400000003],[-66.16762510000001,-17.372139800000003],[-66.1682109,-17.3720994],[-66.1682737,-17.3720962],[-66.16828840000001,-17.3720694],[-66.16830820000001,-17.372048200000002],[-66.16834270000001,-17.3720274],[-66.1683728,-17.3720193],[-66.16840400000001,-17.3720184],[-66.1684443,-17.3720287],[-66.16846190000001,-17.372038],[-66.1684843,-17.372056200000003],[-66.16850400000001,-17.3720828],[-66.16857750000001,-17.3720773],[-66.1690899,-17.3720399],[-66.1693731,-17.3720204],[-66.169897,-17.3719842],[-66.17065840000001,-17.3719374],[-66.1712894,-17.3718971],[-66.1717893,-17.3718609],[-66.17188970000001,-17.371842700000002],[-66.1719161,-17.3718232],[-66.17196290000001,-17.371807500000003],[-66.1720118,-17.371799300000003],[-66.1720614,-17.3717986],[-66.1721105,-17.371805600000002],[-66.1721498,-17.3718258],[-66.17220130000001,-17.371835],[-66.17224300000001,-17.3718393],[-66.1727697,-17.371804800000003],[-66.17286610000001,-17.3717995],[-66.1729274,-17.3717958],[-66.17311760000001,-17.3717843],[-66.17329360000001,-17.371774000000002],[-66.1735962,-17.3717572],[-66.1742529,-17.371712900000002],[-66.1749163,-17.3716633],[-66.17527840000001,-17.3716402],[-66.175621,-17.3716183],[-66.1756587,-17.3716161],[-66.1756964,-17.3716139],[-66.17575400000001,-17.3716106],[-66.17580530000001,-17.3716076],[-66.1758748,-17.371603500000003],[-66.1761305,-17.371589],[-66.1769981,-17.371539900000002],[-66.1776914,-17.371491000000002],[-66.17825930000001,-17.3714556],[-66.17935510000001,-17.3713824],[-66.1794548,-17.3713757],[-66.17987210000001,-17.371347800000002],[-66.18018640000001,-17.371328600000002],[-66.1802059,-17.3714388],[-66.1802189,-17.371512000000003],[-66.18046500000001,-17.3726425],[-66.18056680000001,-17.3731104],[-66.18078890000001,-17.3740425],[-66.1808381,-17.3742649],[-66.1808548,-17.374359700000003],[-66.18089140000001,-17.3745274],[-66.18090210000001,-17.374616500000002],[-66.1810339,-17.3759936],[-66.1811105,-17.3767362],[-66.18121520000001,-17.377316],[-66.18122960000001,-17.3773988],[-66.18125380000001,-17.3775292],[-66.1813535,-17.378086200000002],[-66.18148310000001,-17.3787442],[-66.1814949,-17.3788126],[-66.1815031,-17.378862400000003],[-66.18159530000001,-17.379831000000003],[-66.1816002,-17.3799083],[-66.181669,-17.380587000000002],[-66.1816754,-17.3806531],[-66.1816807,-17.3807106],[-66.18172340000001,-17.381140400000003],[-66.18176940000001,-17.3816041],[-66.18179540000001,-17.3819014],[-66.1818556,-17.3826475],[-66.1818793,-17.382832800000003],[-66.1818904,-17.382915800000003],[-66.18190770000001,-17.383102800000003],[-66.18192160000001,-17.3832042],[-66.18193600000001,-17.3833097],[-66.1820084,-17.3838393],[-66.1821846,-17.3851078],[-66.18219500000001,-17.385180700000003],[-66.18234260000001,-17.386328900000002],[-66.1824102,-17.386875200000002],[-66.18240630000001,-17.387101700000002],[-66.18240970000001,-17.387167400000003],[-66.1824069,-17.387429],[-66.18242020000001,-17.387517300000003],[-66.18242790000001,-17.387549200000002],[-66.18252580000001,-17.387829200000002],[-66.182806,-17.3886456],[-66.1828203,-17.388687100000002],[-66.1831317,-17.389616],[-66.1831757,-17.3897559],[-66.1832318,-17.3899344],[-66.1832967,-17.390141200000002],[-66.18343180000001,-17.3906087],[-66.18364550000001,-17.3912359],[-66.18364460000001,-17.3913692],[-66.183801,-17.3918034],[-66.18394570000001,-17.392211300000003],[-66.1842405,-17.393064900000002],[-66.1844337,-17.3937825],[-66.18462740000001,-17.3943984],[-66.1847762,-17.3949065],[-66.18490050000001,-17.395273900000003],[-66.184984,-17.395369900000002],[-66.18505,-17.395546200000002],[-66.1851627,-17.395847200000002],[-66.1851785,-17.3958929],[-66.1852226,-17.395998600000002],[-66.1852662,-17.3960699],[-66.185291,-17.396089200000002],[-66.18531200000001,-17.396113000000003],[-66.18532800000001,-17.396140000000003],[-66.18533860000001,-17.3961694],[-66.1853432,-17.396200200000003],[-66.18534220000001,-17.396229],[-66.18533590000001,-17.3962572],[-66.18532470000001,-17.3962839],[-66.18535530000001,-17.3963213],[-66.18537180000001,-17.396356],[-66.18555880000001,-17.3969272],[-66.1856707,-17.397269100000003],[-66.1857882,-17.397620500000002],[-66.18583860000001,-17.3977711],[-66.18585510000001,-17.3978204],[-66.18593150000001,-17.3980479],[-66.1860187,-17.3983071],[-66.1860506,-17.398402100000002],[-66.1860674,-17.3984522],[-66.18619100000001,-17.3988191],[-66.1862885,-17.3991098],[-66.18630990000001,-17.399140300000003],[-66.18632790000001,-17.399186800000003],[-66.1864183,-17.3992158],[-66.1875019,-17.3991103],[-66.18831850000001,-17.399045800000003]],"nodes":[6442158197,5192962167,6442158195,7866718949,7866718314,8864684054,5192962138,5298705197,10608757271,1720891170,4583466393,4583466389,5189823279,4406256419,5192962183,5189823263,4406256310,10608757246,5189823262,5189823257,4406256327,5187747129,1609341791,11357424413,11357424414,5187746984,11081851792,4583466468,3297943672,5779625440,1720875325,4583466477,4583466470,1613913958,1609295615,2320035785,9119024298,2320007352,9119024299,1609342350,5779625437,5779625436,13520935001,1613913909,1609342402,9119024286,1613913942,1613914005,1613913988,1609200165,5158289035,5177568831,1720875321,2319643562,2319643560,1720891116,1613910586,1720891169,1720891113,1720891143,8120060909,11079424327,3445684145,11079424325,4238007010,5158289421,1715094759,3922682884,3445684201,9252021792,1720891123,4766426465,1720891134,5189823212,1715094705,3017431136,11079424323,7491911116,7491911117,3017431141,1715094763,12749169941,7491984514,1721481569,1609296271,1721481574,1721481563,1721481547,4113058831,1609295699,1721481557,1721481549,1721481567,7491984533,1721481548,1721481565,7491911153,1721481545,8430309818,1721481543,8430309847,1721481553,1721481570,8430309873,11093039204,1721481562,8430309820,1721481535,1721490841,8430309834,2900513083,2900513086,8430309833,8430309842,1493827236,1489808237,8430309822,1489808256,1486245873,1489808270,10913371172,1489808285,10913371171,1486245885,1489808291,1489808296,3291832270,3291832269,8430310224,4186784701,10892445782,9355061604,8430310225,9355061606,9355063117,9355063118,4186784703,9015711666,4186784704,8430310233,1489808310,8430586571,1044378819,8430586573,1044379707,1044379083,1044379246,8436191141,8281443479,1008238528,11081898366,1008238276,5734888006,8455678874,11071563641,601870928,2795698874,11081424006,11081424007,601870935,601870941,3287949025,601870952,601870961,601870970,2795698757,601870976,1044379829,8455678823,601870985,601870993,1724424381,601871004,601871013,4172517089,807968365,8455678822,1637609833,13370965887,13368859878,807968574,13368859877,807968474,13368859874,601871031,6835289598,1171505048,1171504684,3915681463,6835289600,601871050,11987099419,11073662405,8596958450,601871068,1171504996,8596958451,8596958448,2394199562,1171505011,8596958565,5605166007,8596958531,8596958532,5605166004,3300291781,7965603632,807968391,11987099449,1796486510,7965603616,11987099447,1796486554,2394199612,1796486560,1796486567,807968031,8509264286,8509264287,8509264250,807968085,9273627973,807968312,9973573068,807968090,807968685,8269304107,599541231,6331635775,1785473214,1785473202,8509264301,10830782197,1785473632,8509264302,1785473234,8616654975,2389107122,1785473260,8509264311,1785473441,1785473207,1785473612,1785473544,2126674113,599541226,8370221221,2126674112,4139785894,811023517,4139785892,9581425537,808031551,5078180975,808031568,9102939275,2126673841,5078180974,811023244,9561464243,2126673510,391737180,2126673484,2126673474,5074930328,2126673457,2126673436,2126673389,2126673375,2126673387,2126673429,2126673453,5074930329,2126673475,2126673485,9676159568,2126673372,2126673352,12883830695,2126673334,470849661,12883830690,10798762471,9112306457,2126672878,9112306454,11949496246,676069628,11949496245,2126672561,2126672453,10029085282,2126672420,2126672390,2126672361,10035562403,2126672321,2126672267,2126672306,10607483514,10607483515,2126672342,2126672394,10035562401,2126672428,2126672468,2126672499,2126672409,602989962,602989998,2126672397,10740413055,2287827755,2287827747,2126672316,602989749,2126672290,11389364091,11389364093,9021398271,2287827726,391739983,598151867,2287827722,10705908998,9731395680,2287827719,845125506,9989015781,843386542,3297692925,10571690334,851594833,598179188,3669330252,2851924358,9875534157,9875534150,2851924356,12478975040,2851924353,2851924355,2851924357,9875534159,2851924360,2851924359,3297629226,2379706732,845125666,3297629224,845125577,391738016,2468433143,2468433127,2468433125,7170944310,2468433123,2468433126,2468433128,2468433137,391738018,7143274059,845125633,7143274060,845125605,9045167332,845125527,845125625,845125600,11836786390,3673525776,11836786406,391738019,11836778763,563279721,3673525775,11836778767,851594971,851595319,851594992,11836786509,11836786514,851594754,851595324,2196149240,2518322712,11071148848,2582004839,4933539340,4933539369,599541149,560522688,2582004954,698492529,9671010091,9018989688,1723594032,9018989689,9018487159,10314056478,560522686,9018487252,3266042571,2869785585,9018656370,698492362,9018656372,12979124152,7436277528,698492208,2544300019,9018656376,6806297280,7436277552,9018656405,2544300147,698492160,2137750215,598178864,698491997,599541116,2381924978,7961801403,7961801405,2379656017,1974650111,1974650113,9443391324,2140930460,560522575,9443391376,9443391380,5868953359,13847108941,560522573,9017927906,9017927905,5868953355,6326480498,6326480489,5868953352,4398499900,8474498221,4576706153,13843492826,9018206644,6639012144,4576706151,6617483717,660012845,9336206521,6326480502,9336206525,5869420103,9336206526,9336206534,9336206533,13433504131,6639012136,11081947316,8975254911,11081947326,12300697137,1583410623,11081947325,11081595198,2334089676,11081947322,11081947321,2900514489,12300697134,660012887,12300697136,2045612107,2334089674]},"gtfs":{"agency_id":18,"route_id":38,"services":[{"service_id":"Mo-Su","startTime":"06:00","endTime":"22:00","trip_id":20773814}],"filteredStops":{"nodes":[6442158197,6442158195,7866718314,5192962138,10608757271,4583466393,5189823279,5192962183,4406256310,5189823262,4406256327,1609341791,11357424414,11081851792,4583466468,5779625440,4583466477,1613913958,2320035785,2320007352,1609342350,5779625436,1613913909,9119024286,1613914005,1609200165,5177568831,2319643562,1720891116,1720891169,1720891143,11079424327,11079424325,5158289421,3922682884,9252021792,4766426465,5189823212,3017431136,7491911116,7491911117,1715094763,7491984514,1609296271,1721481563,4113058831,1721481557,1721481567,1721481548,7491911153,8430309818,8430309847,1721481570,11093039204,8430309820,1721490841,2900513083,8430309833,1493827236,8430309822,1486245873,10913371172,10913371171,1489808291,3291832270,8430310224,4186784701,9355061604,9355061606,9355063118,9015711666,8430310233,8430586571,8430586573,1044379083,8436191141,1008238528,1008238276,11071563641,601870928,601870941,601870970,601870985,601871013,13370965887,807968474,1171504684,11987099419,8596958451,8596958565,3300291781,7965603616,1796486560,8509264250,9973573068,6331635775,10830782197,2389107122,1785473207,8370221221,4139785892,9102939275,9561464243,5074930328,2126673387,2126673475,12883830695,10798762471,676069628,10029085282,2126672321,10607483515,2126672468,602989998,2126672316,9021398271,2287827722,9989015781,851594833,9875534150,2851924355,3297629226,845125577,7170944310,2468433137,845125605,11836786390,11836778763,851595319,851594754,2582004839,560522688,1723594032,560522686,698492362,698492208,9018656405,598178864,7961801405,2140930460,5868953359,5868953355,4398499900,6639012144,9336206521,9336206534,11081947316,11081947325,11081947321,2334089674],"coordinates":[[-66.0562888,-17.3775851],[-66.05756620000001,-17.3775379],[-66.058569,-17.3776653],[-66.05952470000001,-17.377769400000002],[-66.060658,-17.377910200000002],[-66.06143680000001,-17.3779971],[-66.0627597,-17.3781442],[-66.0637585,-17.3782552],[-66.06500840000001,-17.3783941],[-66.06556280000001,-17.3784737],[-66.06654540000001,-17.378601],[-66.0675755,-17.3787172],[-66.0693409,-17.3789489],[-66.0704178,-17.379061500000002],[-66.07072720000001,-17.379097700000003],[-66.07108240000001,-17.3791131],[-66.0720623,-17.378998300000003],[-66.0739812,-17.378752900000002],[-66.075101,-17.378608500000002],[-66.07579600000001,-17.3785178],[-66.07759510000001,-17.378295100000003],[-66.0778598,-17.378259200000002],[-66.0789132,-17.3781229],[-66.08105660000001,-17.377852700000002],[-66.0821437,-17.3777025],[-66.0836816,-17.3774966],[-66.08516150000001,-17.377308000000003],[-66.08533630000001,-17.377288800000002],[-66.08643570000001,-17.3771431],[-66.0881511,-17.3769165],[-66.08982320000001,-17.3767116],[-66.09146600000001,-17.3765],[-66.09174270000001,-17.376466500000003],[-66.0934785,-17.376242],[-66.0936685,-17.3762194],[-66.0941011,-17.376165200000003],[-66.09565660000001,-17.375964],[-66.09622250000001,-17.3758924],[-66.0981912,-17.375640200000003],[-66.09922710000001,-17.3755001],[-66.09928790000001,-17.3754928],[-66.1001366,-17.3753955],[-66.102249,-17.375116600000002],[-66.1036696,-17.3749442],[-66.1046256,-17.3748006],[-66.10599760000001,-17.3741939],[-66.1066059,-17.3739041],[-66.1068929,-17.3737885],[-66.1070751,-17.3737701],[-66.1087627,-17.373768300000002],[-66.1109222,-17.373764700000002],[-66.11109610000001,-17.373747],[-66.1118637,-17.373292000000003],[-66.11213670000001,-17.373060600000002],[-66.1123223,-17.372932600000002],[-66.1125291,-17.372860600000003],[-66.11266470000001,-17.3728461],[-66.1129044,-17.372858200000003],[-66.11347070000001,-17.3728783],[-66.11438770000001,-17.372912200000002],[-66.11572100000001,-17.3729657],[-66.11819510000001,-17.3730811],[-66.11831160000001,-17.3730867],[-66.1203091,-17.373190700000002],[-66.1224231,-17.3732845],[-66.12261330000001,-17.373281900000002],[-66.1226905,-17.373274400000003],[-66.12272060000001,-17.3732583],[-66.122763,-17.3732532],[-66.1228038,-17.373265200000002],[-66.12289390000001,-17.3732866],[-66.12304830000001,-17.373301100000003],[-66.1235259,-17.3733116],[-66.1239092,-17.373320500000002],[-66.12472960000001,-17.3733423],[-66.1258184,-17.3733864],[-66.12623350000001,-17.373409600000002],[-66.1276215,-17.3734599],[-66.1288718,-17.373455900000003],[-66.1289804,-17.373427200000002],[-66.1295565,-17.3732012],[-66.1306023,-17.3730894],[-66.13161930000001,-17.3727343],[-66.13303040000001,-17.37233],[-66.13369150000001,-17.3723819],[-66.1347484,-17.3725916],[-66.13569360000001,-17.372760600000003],[-66.13607130000001,-17.372746300000003],[-66.13661850000001,-17.372672100000003],[-66.1368269,-17.372781500000002],[-66.136881,-17.3732055],[-66.136975,-17.373977500000002],[-66.13726190000001,-17.3740157],[-66.13806550000001,-17.373987300000003],[-66.13977150000001,-17.3738792],[-66.1424276,-17.3736928],[-66.1426742,-17.373532200000003],[-66.14290650000001,-17.373419300000002],[-66.1431441,-17.373479500000002],[-66.143743,-17.373666],[-66.1446097,-17.3736146],[-66.1468978,-17.3734617],[-66.1485729,-17.3733532],[-66.14948290000001,-17.373254000000003],[-66.14961690000001,-17.373210200000003],[-66.1497561,-17.3732748],[-66.15117380000001,-17.373193],[-66.15341910000001,-17.3730516],[-66.1546879,-17.3729757],[-66.15656940000001,-17.3727842],[-66.1567699,-17.3726096],[-66.15697030000001,-17.372622900000003],[-66.1571777,-17.372797000000002],[-66.15907010000001,-17.372683400000003],[-66.1604978,-17.3725945],[-66.16166670000001,-17.372521300000002],[-66.16280760000001,-17.372444400000003],[-66.1638592,-17.372380600000003],[-66.1667106,-17.372195400000003],[-66.16830820000001,-17.372048200000002],[-66.1684443,-17.3720287],[-66.1690899,-17.3720399],[-66.1712894,-17.3718971],[-66.1720118,-17.371799300000003],[-66.17220130000001,-17.371835],[-66.17311760000001,-17.3717843],[-66.17527840000001,-17.3716402],[-66.17575400000001,-17.3716106],[-66.1776914,-17.371491000000002],[-66.17987210000001,-17.371347800000002],[-66.18056680000001,-17.3731104],[-66.18089140000001,-17.3745274],[-66.18122960000001,-17.3773988],[-66.1814949,-17.3788126],[-66.1816754,-17.3806531],[-66.18179540000001,-17.3819014],[-66.18192160000001,-17.3832042],[-66.18219500000001,-17.385180700000003],[-66.1824069,-17.387429],[-66.1828203,-17.388687100000002],[-66.1832967,-17.390141200000002],[-66.18394570000001,-17.392211300000003],[-66.1847762,-17.3949065],[-66.1851785,-17.3958929],[-66.18531200000001,-17.396113000000003],[-66.18533590000001,-17.3962572],[-66.18555880000001,-17.3969272],[-66.18593150000001,-17.3980479],[-66.18619100000001,-17.3988191],[-66.18831850000001,-17.399045800000003]]}}},{"type":"Feature","properties":{"bench":"no","bin":"no","bus":"yes","departures_board":"no","highway":"bus_stop","informal":"yes","level":"0","lit":"yes","name":"Beijing y d'Orbigny","public_transport":"platform","shelter":"no","tactile_paving":"no","wheelchair":"no","id":7961801408},"geometry":{"type":"Point","coordinates":[-66.1824764,-17.386799]}},{"type":"Feature","properties":{"bus":"yes","departures_board":"no","highway":"bus_stop","name":"Uyuni","public_transport":"platform","shelter":"no","id":4447024420},"geometry":{"type":"Point","coordinates":[-66.13656920000001,-17.3726281]}},{"type":"Feature","properties":{"bench":"no","bin":"no","bus":"yes","departures_board":"no","highway":"bus_stop","level":"0","lit":"no","name":"Parada 230","public_transport":"platform","shelter":"no","tactile_paving":"no","wheelchair":"no","id":9181387014},"geometry":{"type":"Point","coordinates":[-66.1883019,-17.399036900000002]}},{"type":"Feature","properties":{"bench":"no","bin":"no","bus":"yes","departures_board":"no","highway":"bus_stop","informal":"yes","kerb":"lowered","level":"0","lit":"no","name":"América y Libertador Simón Bolívar","public_transport":"platform","shelter":"no","tactile_paving":"no","wheelchair":"yes","id":10705911005},"geometry":{"type":"Point","coordinates":[-66.1624304,-17.3724178]}},{"type":"Feature","properties":{"bench":"no","bin":"no","bus":"yes","departures_board":"no","highway":"bus_stop","level":"0","lit":"no","name":"Avenida Décima","operator":"Administradora Boliviana de Carreteras","pole":"yes","public_transport":"platform","shelter":"no","tactile_paving":"no","wheelchair":"no","id":4251839105},"geometry":{"type":"Point","coordinates":[-66.0844182,-17.388737300000003]}}]}