{"type":"FeatureCollection","features":[{"type":"Feature","properties":{"check_date":"2026-05-25","description":"Bandera amarilla: Nro. amarillo: Corte","from":"Mercado Coraca","network":"BO:CB:Cochabamba","on_demand":"yes","operator":"Sindicato mixto de autotransporte Sacaba","public_transport:version":"2","ref":"230","route":"bus","to":"Chiñata","type":"route","wheelchair":"no","id":20812592},"geometry":{"type":"LineString","coordinates":[[-66.18831850000001,-17.399045800000003],[-66.1891465,-17.399009000000003],[-66.1888234,-17.398289700000003],[-66.1887521,-17.3981311],[-66.1885293,-17.397634500000002],[-66.1884289,-17.397419000000003],[-66.1882374,-17.3968323],[-66.18820880000001,-17.396728300000003],[-66.1882078,-17.3966764],[-66.1882123,-17.3966321],[-66.1881821,-17.396628],[-66.1875498,-17.3965417],[-66.1869628,-17.396458900000003],[-66.1858481,-17.3963077],[-66.1855658,-17.396272000000003],[-66.1854928,-17.3962694],[-66.18543480000001,-17.3962746],[-66.18533590000001,-17.3962572],[-66.18532470000001,-17.3962839],[-66.18530890000001,-17.3963085],[-66.18528880000001,-17.396330000000003],[-66.18526340000001,-17.396349100000002],[-66.1852348,-17.396363500000003],[-66.1852039,-17.396372500000002],[-66.18517170000001,-17.396376],[-66.1851395,-17.396373800000003],[-66.1851082,-17.396366],[-66.18507890000001,-17.396352800000003],[-66.1850527,-17.3963348],[-66.1850304,-17.396312400000003],[-66.18501970000001,-17.396298],[-66.1850034,-17.3962666],[-66.18499440000001,-17.3962326],[-66.184993,-17.3961976],[-66.18499920000001,-17.396163],[-66.18501710000001,-17.3961234],[-66.18504490000001,-17.3960894],[-66.18501780000001,-17.3960173],[-66.18485860000001,-17.395540800000003],[-66.1848568,-17.3953662],[-66.1847158,-17.3949301],[-66.1845617,-17.394417],[-66.18437460000001,-17.3938017],[-66.1841742,-17.393081900000002],[-66.18388200000001,-17.3922291],[-66.18373100000001,-17.3918284],[-66.183581,-17.3913878],[-66.18351750000001,-17.3912826],[-66.18328070000001,-17.3906476],[-66.1831059,-17.3901788],[-66.1829271,-17.3896705],[-66.18261460000001,-17.388746400000002],[-66.1824225,-17.388171500000002],[-66.18229240000001,-17.3877822],[-66.1822657,-17.387726400000002],[-66.1822461,-17.387685400000002],[-66.18220450000001,-17.387613400000003],[-66.18216890000001,-17.3875445],[-66.1821075,-17.3874342],[-66.1820907,-17.387389900000002],[-66.18208960000001,-17.3873527],[-66.18210660000001,-17.3872758],[-66.18212840000001,-17.387195400000003],[-66.18213680000001,-17.3871532],[-66.18214230000001,-17.3870828],[-66.1821353,-17.3869915],[-66.1820636,-17.386466000000002],[-66.18189690000001,-17.385196500000003],[-66.1818877,-17.3851282],[-66.18180290000001,-17.3844549],[-66.1817111,-17.3837787],[-66.18163530000001,-17.383338400000003],[-66.18162170000001,-17.3832416],[-66.1816029,-17.3831068],[-66.18158480000001,-17.382913900000002],[-66.1815782,-17.3828329],[-66.1815665,-17.382676200000002],[-66.18149190000001,-17.381625900000003],[-66.1814763,-17.381453],[-66.1814142,-17.3807206],[-66.1814094,-17.3806644],[-66.1814054,-17.3806124],[-66.18134710000001,-17.3798494],[-66.1813302,-17.3796284],[-66.1813006,-17.379471900000002],[-66.1812905,-17.3794155],[-66.1812003,-17.378909800000002],[-66.18118960000001,-17.3788495],[-66.1811789,-17.3787945],[-66.1810598,-17.3781131],[-66.18098690000001,-17.377699500000002],[-66.18096800000001,-17.3775923],[-66.1809497,-17.3774906],[-66.18085020000001,-17.376925200000002],[-66.1808254,-17.376766800000002],[-66.1806619,-17.3750347],[-66.18064100000001,-17.3748517],[-66.18063240000001,-17.3747696],[-66.180597,-17.3746022],[-66.18057230000001,-17.374501700000003],[-66.1802651,-17.373142700000002],[-66.18016460000001,-17.3726987],[-66.1799192,-17.3715519],[-66.1798972,-17.371456300000002],[-66.17987210000001,-17.371347800000002],[-66.1798562,-17.3712781],[-66.1797172,-17.3706926],[-66.179703,-17.3706326],[-66.1795594,-17.370012900000003],[-66.1795508,-17.3699757],[-66.17937900000001,-17.369177],[-66.179359,-17.369084],[-66.1793487,-17.369032800000003],[-66.17921750000001,-17.368380600000002],[-66.17919380000001,-17.368139300000003],[-66.17916120000001,-17.367940700000002],[-66.17898910000001,-17.3669954],[-66.1789718,-17.3669002],[-66.1789617,-17.3668546],[-66.17874060000001,-17.365857700000003],[-66.178723,-17.365790500000003],[-66.1786952,-17.365675900000003],[-66.17850100000001,-17.364928000000003],[-66.178454,-17.364755900000002],[-66.1784282,-17.3646834],[-66.17840000000001,-17.3646223],[-66.1783719,-17.3645654],[-66.178284,-17.3645885],[-66.1779812,-17.3646935],[-66.17679550000001,-17.365051400000002],[-66.17675750000001,-17.3650629],[-66.1766743,-17.3650875],[-66.17654390000001,-17.3651266],[-66.1764768,-17.3651467],[-66.1751548,-17.3655435],[-66.17501410000001,-17.3655887],[-66.17491840000001,-17.3656146],[-66.1748031,-17.3656383],[-66.17332370000001,-17.365739700000002],[-66.17186410000001,-17.365821],[-66.17179660000001,-17.365824800000002],[-66.17157750000001,-17.365839100000002],[-66.1714925,-17.3658447],[-66.1714101,-17.365849100000002],[-66.1712985,-17.3658629],[-66.1711497,-17.3658979],[-66.17111700000001,-17.3659059],[-66.17094610000001,-17.365956200000003],[-66.1706407,-17.366046100000002],[-66.17048530000001,-17.3660898],[-66.1703409,-17.3661184],[-66.17023010000001,-17.366128600000003],[-66.17010060000001,-17.3661299],[-66.1699469,-17.3661229],[-66.16978320000001,-17.366104500000002],[-66.1696172,-17.366076600000003],[-66.16949810000001,-17.3660445],[-66.16943230000001,-17.3660214],[-66.1693403,-17.3659874],[-66.16904770000001,-17.3658885],[-66.1688934,-17.365851900000003],[-66.1687179,-17.3658213],[-66.16863550000001,-17.3658171],[-66.16856510000001,-17.3658135],[-66.1682722,-17.3657976],[-66.1679002,-17.3657773],[-66.1678124,-17.365780100000002],[-66.167736,-17.365787500000003],[-66.16768,-17.365801],[-66.1676156,-17.3658199],[-66.16754920000001,-17.3658444],[-66.167449,-17.3658858],[-66.1672959,-17.3659658],[-66.16703550000001,-17.366116400000003],[-66.16694960000001,-17.366166],[-66.1668968,-17.3661974],[-66.1666857,-17.366323],[-66.16650630000001,-17.3664424],[-66.16610320000001,-17.3667279],[-66.16589130000001,-17.366882],[-66.1658373,-17.3669237],[-66.16514210000001,-17.367425700000002],[-66.16424930000001,-17.368057500000003],[-66.1641573,-17.368131400000003],[-66.16408750000001,-17.368199800000003],[-66.16405920000001,-17.368240500000002],[-66.16404370000001,-17.368284000000003],[-66.164057,-17.3683599],[-66.1640552,-17.368423800000002],[-66.16405280000001,-17.3684526],[-66.1640639,-17.368665],[-66.1640677,-17.368827200000002],[-66.1640694,-17.3690235],[-66.16407240000001,-17.369349500000002],[-66.16407380000001,-17.369503100000003],[-66.16408270000001,-17.3704323],[-66.16408440000001,-17.370569000000003],[-66.16406900000001,-17.371045000000002],[-66.1640361,-17.371296500000003],[-66.16402040000001,-17.371392200000003],[-66.1639411,-17.371812400000003],[-66.1638879,-17.372000800000002],[-66.16377960000001,-17.372384],[-66.163746,-17.372479700000003],[-66.1636543,-17.372485100000002],[-66.1632714,-17.372510600000002],[-66.16278480000001,-17.3725451],[-66.16269750000001,-17.372548400000003],[-66.1625774,-17.372555000000002],[-66.16250600000001,-17.3725594],[-66.16249450000001,-17.3725598],[-66.162333,-17.3725692],[-66.1608008,-17.3726716],[-66.1606043,-17.3726825],[-66.16050990000001,-17.3726889],[-66.15915670000001,-17.372775800000003],[-66.1590778,-17.3727807],[-66.15899230000001,-17.372786],[-66.1589345,-17.3727896],[-66.1588691,-17.3727936],[-66.1584227,-17.372819900000003],[-66.15787970000001,-17.372851800000003],[-66.15724460000001,-17.372889100000002],[-66.15719990000001,-17.3728991],[-66.1571481,-17.3729298],[-66.157128,-17.3729915],[-66.1570942,-17.373047500000002],[-66.1570483,-17.3730951],[-66.15699930000001,-17.3731282],[-66.1569358,-17.3731547],[-66.1568749,-17.3731659],[-66.15680470000001,-17.3731596],[-66.1567491,-17.3731431],[-66.1567053,-17.373117800000003],[-66.15666540000001,-17.373087400000003],[-66.15663,-17.3730522],[-66.1566075,-17.373024200000003],[-66.15657900000001,-17.3729771],[-66.156563,-17.372941500000003],[-66.1564845,-17.372946300000002],[-66.15574790000001,-17.3729988],[-66.15479660000001,-17.3730645],[-66.15472550000001,-17.373069500000003],[-66.1546287,-17.3730741],[-66.1537792,-17.3731143],[-66.15367730000001,-17.373121100000002],[-66.1535771,-17.3731276],[-66.152381,-17.3732095],[-66.15170280000001,-17.3732542],[-66.15119320000001,-17.3732875],[-66.1511413,-17.3732909],[-66.1510574,-17.373297],[-66.150952,-17.373305700000003],[-66.1509108,-17.3733086],[-66.1498037,-17.3733757],[-66.1497583,-17.373388600000002],[-66.1497138,-17.373412000000002],[-66.14969880000001,-17.373433700000003],[-66.14968060000001,-17.373448300000003],[-66.149653,-17.3734654],[-66.14962200000001,-17.373475900000003],[-66.14958850000001,-17.3734806],[-66.14955780000001,-17.373475900000003],[-66.149528,-17.373465900000003],[-66.14950130000001,-17.3734499],[-66.1494717,-17.3734192],[-66.14942450000001,-17.373407200000003],[-66.14937920000001,-17.3734028],[-66.1489025,-17.3734314],[-66.1485813,-17.373450700000003],[-66.14775660000001,-17.373501100000002],[-66.14716720000001,-17.373540400000003],[-66.14705430000001,-17.3735481],[-66.1467523,-17.3735688],[-66.1466779,-17.3735739],[-66.1459978,-17.373620300000002],[-66.14586240000001,-17.3736295],[-66.14545940000001,-17.3736551],[-66.1451928,-17.3736728],[-66.144613,-17.373710300000003],[-66.14455840000001,-17.3737138],[-66.1444795,-17.373719],[-66.14435180000001,-17.3737277],[-66.1438834,-17.3737566],[-66.1438205,-17.3737609],[-66.1434523,-17.3737837],[-66.1434139,-17.3737873],[-66.14335360000001,-17.3738017],[-66.14328250000001,-17.373844700000003],[-66.1432451,-17.373929200000003],[-66.1431855,-17.374000900000002],[-66.14310780000001,-17.374054800000003],[-66.1430179,-17.3740869],[-66.14293570000001,-17.374095200000003],[-66.1428537,-17.374085100000002],[-66.1427764,-17.374057200000003],[-66.14268050000001,-17.3739877],[-66.14263460000001,-17.373939500000002],[-66.1426047,-17.373879000000002],[-66.14259750000001,-17.3738446],[-66.1424952,-17.3738329],[-66.1424073,-17.373828800000002],[-66.14231380000001,-17.3738299],[-66.1416102,-17.373870800000002],[-66.14135470000001,-17.3738847],[-66.1406024,-17.373925800000002],[-66.14058030000001,-17.3739272],[-66.1397774,-17.3739795],[-66.1396797,-17.3739858],[-66.1388488,-17.3740376],[-66.1388077,-17.374040100000002],[-66.1385992,-17.3740531],[-66.1385662,-17.374055000000002],[-66.13843370000001,-17.374062600000002],[-66.13831370000001,-17.3740694],[-66.1381326,-17.3740798],[-66.13810310000001,-17.374081500000003],[-66.1380704,-17.374083300000002],[-66.13776130000001,-17.374101000000003],[-66.1374497,-17.3741239],[-66.137285,-17.3741516],[-66.1372099,-17.374173600000002],[-66.1371383,-17.3741975],[-66.1371065,-17.374207400000003],[-66.13703530000001,-17.374226500000002],[-66.1370292,-17.3742406],[-66.13702160000001,-17.3742507],[-66.13701040000001,-17.374265400000002],[-66.1369859,-17.374285200000003],[-66.1369614,-17.374297300000002],[-66.1369348,-17.374304300000002],[-66.1369073,-17.374305900000003],[-66.13688,-17.3743021],[-66.13685410000001,-17.374293100000003],[-66.1368307,-17.374279100000003],[-66.1368109,-17.374260800000002],[-66.13679540000001,-17.374239000000003],[-66.13678490000001,-17.374214600000002],[-66.13675640000001,-17.3741062],[-66.13675140000001,-17.374080300000003],[-66.13675210000001,-17.374054],[-66.1367585,-17.3740284],[-66.1367891,-17.3735156],[-66.1368302,-17.373104100000003],[-66.1368334,-17.3730179],[-66.13681910000001,-17.372951200000003],[-66.1367915,-17.372903200000003],[-66.1367573,-17.3728696],[-66.1367036,-17.3728297],[-66.1366337,-17.372782],[-66.1365427,-17.3727975],[-66.1361547,-17.372841700000002],[-66.13608350000001,-17.3728479],[-66.1359771,-17.372857200000002],[-66.13586020000001,-17.3728656],[-66.13578170000001,-17.3728684],[-66.1356853,-17.372860300000003],[-66.13549660000001,-17.3728322],[-66.1351908,-17.372780600000002],[-66.1351489,-17.372770300000003],[-66.13507530000001,-17.372756300000002],[-66.1347435,-17.3726933],[-66.134217,-17.372593400000003],[-66.1341675,-17.372584],[-66.1341027,-17.3725714],[-66.1337319,-17.3724992],[-66.1334855,-17.3724558],[-66.13338390000001,-17.372432500000002],[-66.1333491,-17.372427300000002],[-66.13319360000001,-17.372420100000003],[-66.13306530000001,-17.3724275],[-66.1326272,-17.3725546],[-66.1319916,-17.3727297],[-66.1318806,-17.3727555],[-66.1316408,-17.372834500000003],[-66.13114630000001,-17.3730495],[-66.1309399,-17.3731471],[-66.13084500000001,-17.373181900000002],[-66.13071880000001,-17.3732067],[-66.13054310000001,-17.3732203],[-66.1302763,-17.3732331],[-66.1300836,-17.373247900000003],[-66.12985490000001,-17.3732694],[-66.1298225,-17.373275600000003],[-66.1296782,-17.373303200000002],[-66.1294941,-17.373350600000002],[-66.1293598,-17.3733943],[-66.1292169,-17.3734493],[-66.12908060000001,-17.373502700000003],[-66.1289941,-17.373526100000003],[-66.12888410000001,-17.373551300000003],[-66.1289016,-17.3737284],[-66.1289074,-17.373773200000002],[-66.1289663,-17.3742251],[-66.1290309,-17.3746645],[-66.1290445,-17.374720200000002],[-66.1290597,-17.3747827],[-66.12908010000001,-17.3748241],[-66.12910260000001,-17.374849700000002],[-66.1291271,-17.3748733],[-66.1291805,-17.3749085],[-66.12921990000001,-17.374915100000003],[-66.129247,-17.3749249],[-66.1292707,-17.3749377],[-66.1292949,-17.374956100000002],[-66.12931680000001,-17.3749797],[-66.1293368,-17.3750128],[-66.12934890000001,-17.375049100000002],[-66.12935250000001,-17.375087100000002],[-66.1293474,-17.375124800000002],[-66.1293424,-17.3751411],[-66.1293339,-17.3751606],[-66.1293129,-17.375192600000002],[-66.1292851,-17.3752195],[-66.1292688,-17.3752314],[-66.1292521,-17.375240100000003],[-66.129215,-17.3752536],[-66.1291758,-17.3752591],[-66.12915600000001,-17.375258900000002],[-66.1291363,-17.3752566],[-66.12905900000001,-17.375282300000002],[-66.1290276,-17.3752871],[-66.1289665,-17.3752992],[-66.12889750000001,-17.375317900000002],[-66.12882610000001,-17.375349],[-66.12876630000001,-17.375380900000003],[-66.12865980000001,-17.3754436],[-66.1285253,-17.3755346],[-66.12831360000001,-17.3756847],[-66.12754020000001,-17.3762313],[-66.12716010000001,-17.3764928],[-66.12570360000001,-17.3775094],[-66.124802,-17.3781266],[-66.1241835,-17.378549500000002],[-66.12349490000001,-17.3790024],[-66.1226821,-17.379529100000003],[-66.1225359,-17.3796241],[-66.12225400000001,-17.3798122],[-66.1221337,-17.379889700000003],[-66.12187920000001,-17.3800537],[-66.1212818,-17.3804516],[-66.12120800000001,-17.3805008],[-66.12092630000001,-17.380703800000003],[-66.120891,-17.380738800000003],[-66.120766,-17.380862800000003],[-66.1206599,-17.3810073],[-66.1204943,-17.381222400000002],[-66.12047700000001,-17.3812493],[-66.12040440000001,-17.381327000000002],[-66.12034680000001,-17.381368000000002],[-66.12028190000001,-17.381404800000002],[-66.1201128,-17.381460800000003],[-66.12008390000001,-17.3814655],[-66.1199728,-17.381476300000003],[-66.11978400000001,-17.3814983],[-66.11958200000001,-17.38153],[-66.1194402,-17.381557400000002],[-66.1193164,-17.3815883],[-66.1192997,-17.3815937],[-66.1191876,-17.3816388],[-66.1189298,-17.381746200000002],[-66.11868390000001,-17.3818458],[-66.1186373,-17.3818622],[-66.1183007,-17.3819804],[-66.117861,-17.382119600000003],[-66.11725600000001,-17.3822712],[-66.1169263,-17.3823466],[-66.11659110000001,-17.382414200000003],[-66.11615280000001,-17.382501100000002],[-66.11478960000001,-17.3827819],[-66.1138129,-17.382972600000002],[-66.1127304,-17.3831983],[-66.11168520000001,-17.383416200000003],[-66.1105866,-17.3836453],[-66.1101266,-17.383741200000003],[-66.10971950000001,-17.3838261],[-66.109508,-17.3838712],[-66.1093342,-17.3839083],[-66.10835490000001,-17.384107],[-66.10678610000001,-17.3844254],[-66.10557060000001,-17.384672100000003],[-66.10480290000001,-17.3848279],[-66.103305,-17.385124],[-66.10203920000001,-17.3853875],[-66.101813,-17.385439700000003],[-66.10164,-17.3854729],[-66.10151730000001,-17.385499600000003],[-66.1005722,-17.3856934],[-66.099856,-17.385807500000002],[-66.0995438,-17.385890200000002],[-66.09927970000001,-17.3859721],[-66.0990728,-17.3860248],[-66.09889980000001,-17.386069300000003],[-66.09839260000001,-17.386162000000002],[-66.09835700000001,-17.3861685],[-66.0983272,-17.386173900000003],[-66.0981661,-17.3862096],[-66.0980457,-17.3862363],[-66.098011,-17.386244],[-66.09795430000001,-17.3862555],[-66.0972686,-17.386396700000002],[-66.09706650000001,-17.386426500000002],[-66.0967548,-17.386458],[-66.0964201,-17.386511600000002],[-66.096,-17.386600100000003],[-66.09478630000001,-17.3868484],[-66.09360310000001,-17.387087400000002],[-66.0908426,-17.3876434],[-66.09040990000001,-17.3877396],[-66.08835780000001,-17.3881561],[-66.0872301,-17.388381600000002],[-66.08714730000001,-17.3883982],[-66.0866628,-17.388490400000002],[-66.086431,-17.388543100000003],[-66.0862938,-17.388577700000003],[-66.08595550000001,-17.388694700000002],[-66.0856528,-17.388769500000002],[-66.0851756,-17.3888654],[-66.0851385,-17.388873],[-66.08509140000001,-17.3888815],[-66.0849347,-17.388915100000002],[-66.0848217,-17.3889393],[-66.0847859,-17.3889469],[-66.0846886,-17.388968700000003],[-66.08453420000001,-17.389002700000002],[-66.0841997,-17.3890755],[-66.08401090000001,-17.389112200000003],[-66.0837245,-17.3891527],[-66.0833125,-17.389189100000003],[-66.0831864,-17.3892026],[-66.0830732,-17.3892227],[-66.0823075,-17.3893811],[-66.0820791,-17.389429900000003],[-66.08134820000001,-17.389598300000003],[-66.08089460000001,-17.3896963],[-66.08033730000001,-17.389809800000002],[-66.080234,-17.3898303],[-66.0795733,-17.3899681],[-66.0792634,-17.3900308],[-66.0780453,-17.3902691],[-66.07736560000001,-17.390400600000003],[-66.0770928,-17.3904679],[-66.0768163,-17.3905539],[-66.0766657,-17.390604800000002],[-66.0763239,-17.3906852],[-66.0762133,-17.3907068],[-66.0759019,-17.3907676],[-66.0758632,-17.3907752],[-66.07583530000001,-17.390780600000003],[-66.0756724,-17.3908166],[-66.07550900000001,-17.3908528],[-66.07545400000001,-17.390864800000003],[-66.0747753,-17.391013400000002],[-66.0745224,-17.3910531],[-66.074094,-17.3910927],[-66.0739011,-17.3911084],[-66.0720234,-17.391492300000003],[-66.0711272,-17.391675600000003],[-66.07019220000001,-17.391866800000003],[-66.06962800000001,-17.3919822],[-66.06918800000001,-17.3920721],[-66.0688315,-17.392145000000003],[-66.06824830000001,-17.392264200000003],[-66.0679667,-17.3923218],[-66.0656658,-17.3927923],[-66.0652582,-17.3928756],[-66.0645781,-17.393014700000002],[-66.0641281,-17.3931186],[-66.0637679,-17.393215],[-66.0634586,-17.393312],[-66.0626345,-17.393482600000002],[-66.0625765,-17.3934946],[-66.0625189,-17.3935065],[-66.0619894,-17.3936339],[-66.06194880000001,-17.3936455],[-66.0619054,-17.393661],[-66.0616765,-17.393742800000002],[-66.0609999,-17.393988500000003],[-66.06062080000001,-17.3941169],[-66.0604119,-17.394204600000002],[-66.06018080000001,-17.3943264],[-66.0598808,-17.3944881],[-66.0594511,-17.394762],[-66.05878360000001,-17.395159500000002],[-66.0579359,-17.3956829],[-66.057659,-17.395833300000003],[-66.05756930000001,-17.395921],[-66.05750010000001,-17.3959663],[-66.0572521,-17.3961286],[-66.0571175,-17.3962125],[-66.0569682,-17.396303200000002],[-66.0569305,-17.396325700000002],[-66.0568875,-17.3963514],[-66.0566677,-17.396476],[-66.05663290000001,-17.3964958],[-66.0561447,-17.396773500000002],[-66.0559171,-17.3968896],[-66.05477780000001,-17.397592300000003],[-66.0546489,-17.397667900000002],[-66.05387520000001,-17.3981405],[-66.0535687,-17.3983235],[-66.0534045,-17.398421600000002],[-66.05254430000001,-17.3989353],[-66.0522871,-17.3990905],[-66.0521721,-17.399160000000002],[-66.0520077,-17.3992575],[-66.05181660000001,-17.399355],[-66.05165260000001,-17.3994272],[-66.05151520000001,-17.399478400000003],[-66.05139580000001,-17.399515800000003],[-66.0512492,-17.399557100000003],[-66.05119660000001,-17.3995707],[-66.0511874,-17.3996159],[-66.05116910000001,-17.3996554],[-66.05114130000001,-17.399688],[-66.05109010000001,-17.3997068],[-66.05098860000001,-17.399724000000003],[-66.05071360000001,-17.3997767],[-66.05057400000001,-17.399820700000003],[-66.0499381,-17.4001036],[-66.04986930000001,-17.4001343],[-66.0496737,-17.400219200000002],[-66.04956940000001,-17.4002616],[-66.04762020000001,-17.4011196],[-66.0461669,-17.401748],[-66.04596330000001,-17.401834400000002],[-66.0458873,-17.4018666],[-66.04581540000001,-17.401897100000003],[-66.0452314,-17.4021447],[-66.0451178,-17.402156400000003],[-66.0447007,-17.4023334],[-66.04463120000001,-17.4023629],[-66.0445275,-17.402407],[-66.04365170000001,-17.4027774],[-66.04306650000001,-17.403027],[-66.0416165,-17.403652],[-66.0411636,-17.4038502],[-66.04066370000001,-17.404047100000003],[-66.0405532,-17.4040649],[-66.0405166,-17.4040812],[-66.0401482,-17.404245300000003],[-66.0400601,-17.404349],[-66.0390364,-17.404828300000002],[-66.0380193,-17.4053146],[-66.0376069,-17.4042812],[-66.03743180000001,-17.4037791],[-66.03723570000001,-17.4031914],[-66.037059,-17.402582600000002],[-66.03692260000001,-17.402252400000002],[-66.0362594,-17.4011786],[-66.03590750000001,-17.4013227],[-66.03557670000001,-17.401458100000003],[-66.0344484,-17.4019201],[-66.03377710000001,-17.4021787],[-66.03338450000001,-17.402316000000003],[-66.0328597,-17.4024846],[-66.03264460000001,-17.402536700000002],[-66.03254150000001,-17.4025521],[-66.0323446,-17.4025822],[-66.0316715,-17.4026953],[-66.03119670000001,-17.4027704],[-66.03073280000001,-17.4028397],[-66.0305836,-17.40287],[-66.03049010000001,-17.4028838],[-66.02875180000001,-17.4031665],[-66.02730890000001,-17.4033978],[-66.0255175,-17.4036881],[-66.02444580000001,-17.403861900000003],[-66.023702,-17.403963],[-66.0221393,-17.404223700000003],[-66.0196818,-17.404599400000002],[-66.01892620000001,-17.4047203],[-66.0181063,-17.4048482],[-66.01618710000001,-17.405155],[-66.0158986,-17.4052033],[-66.01561190000001,-17.4052514],[-66.0151723,-17.405325400000002],[-66.01297190000001,-17.405684800000003],[-66.01235650000001,-17.405770200000003],[-66.0121866,-17.4058025],[-66.0115382,-17.405903600000002],[-66.0107766,-17.4059814],[-66.0100305,-17.4060275],[-66.00935290000001,-17.406047],[-66.0086624,-17.406033100000002],[-66.00811510000001,-17.405999],[-66.00760360000001,-17.405976300000003],[-66.0066618,-17.4058905],[-66.0063279,-17.4058607],[-66.00598240000001,-17.405845600000003],[-66.00553830000001,-17.405843200000003],[-66.00534880000001,-17.405854700000003],[-66.00496240000001,-17.405904200000002],[-66.0045748,-17.405979100000003],[-66.00261370000001,-17.4064486],[-66.00088650000001,-17.4068566],[-66.00011350000001,-17.4070429],[-65.9998791,-17.407102000000002],[-65.9993709,-17.407210300000003],[-65.9991095,-17.4072651],[-65.9987121,-17.4073235],[-65.99843320000001,-17.4073579],[-65.99756810000001,-17.407477500000002],[-65.9971733,-17.407528000000003],[-65.9966806,-17.407590900000002],[-65.995159,-17.407799800000003],[-65.9949644,-17.407828400000003],[-65.99391050000001,-17.407968200000003],[-65.9934068,-17.4080163],[-65.99286570000001,-17.408053900000002],[-65.9927318,-17.408062800000003],[-65.99212100000001,-17.4080863],[-65.9915879,-17.408094300000002],[-65.99113600000001,-17.408092200000002],[-65.99070560000001,-17.408081600000003],[-65.9902577,-17.4080428],[-65.98969720000001,-17.4080033],[-65.9891949,-17.407951],[-65.98877320000001,-17.407881300000003],[-65.98817430000001,-17.407778200000003],[-65.98777670000001,-17.407694900000003],[-65.98754620000001,-17.4076448],[-65.9869872,-17.407513100000003],[-65.986974,-17.4075095],[-65.9864948,-17.407377800000003],[-65.98622970000001,-17.4072996],[-65.9852166,-17.4069591],[-65.98418840000001,-17.406589800000003],[-65.9826692,-17.406017000000002],[-65.9818367,-17.405753100000002],[-65.98135230000001,-17.405573500000003],[-65.9810695,-17.405474],[-65.9808436,-17.4053955],[-65.980593,-17.405301700000003],[-65.98041780000001,-17.4052301],[-65.97999610000001,-17.404986700000002],[-65.97967680000001,-17.4048692],[-65.9793812,-17.4047577],[-65.97910270000001,-17.404661800000003],[-65.97898520000001,-17.4046214],[-65.9785892,-17.404485],[-65.9772782,-17.4039882],[-65.97686820000001,-17.4038465],[-65.976635,-17.403768300000003],[-65.97634450000001,-17.4037009],[-65.9759734,-17.4036301],[-65.9755531,-17.403601000000002],[-65.97513860000001,-17.403595900000003],[-65.9747629,-17.4036109],[-65.9746922,-17.403619300000003],[-65.97444660000001,-17.403648500000003],[-65.9738978,-17.403755200000003],[-65.97337080000001,-17.4039214],[-65.97326100000001,-17.403957600000002],[-65.9729379,-17.4040816],[-65.9726912,-17.4042147],[-65.9723567,-17.4044095],[-65.9720101,-17.404638100000003]],"nodes":[2334089674,1583414271,3262573415,2334089678,1583410881,3262573345,10117836325,10117836326,10117836327,1583414266,10117836329,809705619,809705462,5354970860,617198678,9336206520,2900514462,9336206534,9336206533,9336206535,2900514473,9336206529,2900514475,9336206530,2900514477,9336206532,2900514472,9336206531,9336206538,6617483715,6617483714,2900514460,9336206527,6326480501,9336206528,9336206540,6617483718,660012841,4576706155,8474498220,4398499901,5868953353,6326480488,6326480497,5868953354,9017927901,13847108942,4576706143,13847108943,4576706144,560522587,9010533088,11084996856,599541114,7961801411,2690718996,2381925038,2381925033,7961798482,7961798483,7961801398,2381925009,2690718973,2381924983,560522647,2381924975,598178863,598178865,2137750210,689437105,598178866,2544300152,9018656406,2544300087,7436277547,9018656379,2544300020,7436277527,698492350,9018656373,698492359,9018656369,3266042572,2869785583,560522683,11070036567,9018487253,698492457,10314056479,9018487158,9018487283,698492448,9018989690,560522684,9671010093,4933539326,4933539339,560522687,599541148,4933539355,689437209,11071148847,2518322721,602391949,851594754,2518322682,11836786551,851595149,10156204504,851595380,11070207793,851595204,11070207795,8932109906,8932109908,8932109891,11070190113,1865060962,8932109901,4102697658,851595099,851594886,2468433010,3267530535,3267530534,2468433008,851594726,9175127262,851595044,5262484220,3658380321,851594788,12551721135,3658380322,563279735,563279728,1849463009,1849463010,851595235,10774545005,2331301978,10774545014,3296125249,9845867331,851594830,2290559025,9531771391,9768692252,9529353644,3300171298,2851923904,9768692251,3300171307,2851923908,3300171306,7304392738,9482805073,13161542286,851595381,7304392739,851595065,3275133584,9875778017,851594888,9948774394,2851923697,851595095,9482805148,9875772987,851594793,3275133586,9768692260,9768692261,9875778108,851594812,9875778128,9875778124,2331301984,4929965582,9875778078,851594894,851595276,3674260515,2331302074,2331302094,9655177095,2331302104,7436801323,4261955416,11071382475,2331302149,4728105053,9003433491,9003433529,4728105054,6534497611,845118731,2331302194,845125496,13778580833,2331302267,13778580835,845125506,689437391,2287827733,2287827735,2287827736,599541188,599541187,2287827738,10705908992,9731395686,2126672391,2126672395,2126672398,2126672463,602989999,599541199,2126672476,9021398369,11968312655,10800510170,2126672644,2126672670,2126672764,10029085283,2126672935,2126673021,2126673080,12813146199,2126673139,12813146198,2126673159,2126673087,2126672991,10810399534,9141778520,11375884725,2126672666,2126672711,676069627,11949496248,676069629,11949496247,9112306455,2126673222,9112306456,6868766991,3298035202,12883830697,2380942946,676069635,9112306533,8981422630,2126673621,2126673665,5074930330,2126673703,2126673752,2126673798,2126673868,2126673897,2126673880,2126673803,2126673774,2126673721,8459424860,2126673707,10857203214,9561464244,676069649,5078180973,2126674097,2126674060,5078180976,676069648,2126674108,8369697992,11080188254,4139785893,13556304142,13556304143,4139785895,8370221220,3814200489,2126674127,2126674128,2126674132,2126674142,1785473511,1785473654,1785473340,1785473238,1785473615,8509264303,1785473496,8509264306,10830782194,10830782195,1785473517,2126674144,1785473607,599541230,1785473274,12096329275,1785473349,12096329260,9973573073,1796486551,9276752239,2520618594,698492664,9973573057,9973573056,9973573055,8509264252,8509264251,8509264023,2520618597,11987099430,1796486592,1796486602,9371548102,5605165996,7965603619,11987099445,11079121784,11987099446,11079121783,7965603620,11987099440,7965603621,7965603622,11987099441,2394199631,7965603623,7965603624,11987099442,11987099434,11079121781,11987099435,2394199611,3287025576,5605166012,5605167421,2394199565,5605166011,8596958449,5605166013,602990144,8596958447,602990147,11987099418,602990148,2394199566,8596958446,602990149,8596958433,6835289597,1171504754,13368859873,9366321575,13368859876,8596958571,13368859879,9366321572,1171504659,13299770220,602990150,602990151,602990152,602990153,3287025570,602990155,602990157,602990158,602990159,3287949026,2795698767,602990160,602990161,3287949028,602990163,13299770233,2795698873,1044379840,602990164,11081424005,602990165,1008238282,11071563642,4172516980,11074088810,1171505030,602990225,11081389196,11081389197,11081389198,12952456770,2509202543,2509202548,13546392739,13546392740,1008238230,8455639794,2509202564,2509202568,11081389181,8455639793,13546392746,4161989993,11097229744,4161989999,11081389202,13546392754,11081389193,11081389194,11081389192,13546392749,2509202585,11079490599,9364555673,8455639777,8455639778,1008238747,1008238546,497169774,4161990007,4161990008,1066149615,8455317285,1044379982,1066149629,8522771070,1066149618,8162958852,497169104,497169105,13546392775,8162958913,1609200263,1609200307,497169107,8162958912,497169108,2398626801,6618250895,8162958922,1609199974,11081592002,6618250896,11081592003,2398626850,497169111,497169113,497169114,11081576330,11067998804,2398626863,4967266996,8067970035,2398626870,8067970039,497169115,2857544400,1609200320,9156300399,9156300411,1609200038,1609221058,1609221142,2320160111,1609365743,1609365842,12529903868,2508868829,13535744070,2508868838,1609365937,1609365844,497168072,1609295403,2319580337,2319580340,2319580342,4251838697,3759896921,3301986319,3301986326,3301986329,4251838758,497168075,3301986351,13585208307,13585208316,3593760377,13585208300,13585208315,3593760385,13585208311,497168076,3301987173,11079503838,4251838868,3593760408,3301987181,1609295558,5647827629,1609200054,6040248213,8319164877,1609200021,4251839051,497167994,13585208262,497167996,3238981553,8486768345,13585165598,1609200071,4938009405,13585208206,3238982961,8486768347,8486768353,12490576212,497167997,13585165597,8486768396,3238982976,497167880,4251839206,1609200141,5779625002,5779625006,5739405784,1609200044,2320007420,2894870494,4224950937,497167881,2320095629,497167883,2894872060,497167884,2894872092,12472745654,2894872097,13535410952,13535410942,13535410953,12472745652,497167887,2894872136,2600867349,497167890,2320095635,2320095641,2320095644,7243278754,11069368323,13747021051,9155881845,2894872160,2894872172,4224951065,13532098387,497147657,4267036402,497147659,12529856281,8303818130,2894872202,2894872205,497147661,12529856277,8303818080,2894872221,2894872224,497147662,497147663,2320095692,2320095695,1609200074,3764806637,3764806828,8304560638,13532098395,8304560626,8304560637,8304560636,8304560639,8304560635,8304560634,8304560641,8304560633,2320095711,4267228290,3839755191,497147667,1544965444,1544965448,497147668,12512862992,12512656423,497147669,2320095714,12512656418,12512656417,12512656422,12512862942,497150810,12512656421,12512656420,12512656419,497150807,497150804,4265533873,497150801,12512656424,497150792,1544965823,4059224115,1544966022,1544966351,4265533915,1544966439,4265533916,1544966533,4265533922,4265533925,497150789,4265533927,13717807111,1544967019,826514799,1544967327,1544967397,3943965734,7214385852,3943965735,1544967488,1544967612,1544967812,1544967483,1544967301,1544967079,1544966703,1544966546,1544966002,8189128446,1499573795,1544966419,1545731808,1499573845,1545731962,11079581769,1192323559,8484023270,497164708,8484023264,13597126307,1499573801,13597126304,6601240881,6601240880,6601240879,6601240878,11079581774,6601240877,6601240876,6601240875,6601240874,5673062033,5673062118,12530002305,5673062078,5673062079,5673062107,7435255447,5673062080,5673062081,5673062082,5673062083,5673062084,7435255441,5673062085,5673062067,5673062086,5673062075,5673062087,11072062937,5673062088,5673062089,5673062090,5673062091,5673062092,497164694,1545016031,497164693,1545016035,497164692,1544968608,1720724428,7068100524,8189128488,1720724432,9384301713,497164690,1720751623,11069967072,497164689,9384301712,497164687,9384301704,1720751622,1720751621,9384301711,497164686,6601256731,497164685,7243257828,9384298608,9384328624,9384301700,497164682,497164681,2982139765,5673496562,1745129258,5673496535,2982139745,3821010033,13351387910,5673496419,5673496420,497164679,497164735,13351387954,13351387909,13351387908,3226345168,497164744,4279518452,497164741,4279518446,497164740,497164739,2982139698,13351387933,497164738,497164737,497166339,497166334,11671634887,11671634921,497166330,7852067916]},"gtfs":{"agency_id":18,"route_id":38,"services":[{"service_id":"Mo-Su","startTime":"06:00","endTime":"22:00","trip_id":20812592}],"filteredStops":{"nodes":[2334089674,3262573345,10117836329,9336206520,2900514473,9336206532,6617483714,6617483718,5868953353,13847108942,9010533088,2381925038,2381925009,598178863,2544300152,2544300020,9018656369,9018487253,698492448,4933539339,11071148847,851595149,11070207795,1865060962,2468433010,9175127262,12551721135,1849463010,3296125249,9768692252,3300171307,13161542286,9875778017,9482805148,9875778108,4929965582,2331302074,4261955416,9003433529,845125496,689437391,599541187,2126672395,2126672476,2126672670,2126673080,2126673087,2126672666,9112306455,12883830697,2126673621,2126673798,2126673774,9561464244,676069648,2126674108,4139785895,2126674142,1785473496,1785473607,9973573073,9973573056,1796486592,11079121784,7965603622,11987099434,5605167421,602990147,8596958433,8596958571,602990151,602990159,602990163,1008238282,11071563642,11074088810,602990225,11081389197,2509202543,13546392739,1008238230,2509202564,11081389181,13546392746,11097229744,13546392754,11081389194,13546392749,11079490599,8455639777,1008238747,497169774,1066149615,1044379982,8522771070,8162958852,497169105,8162958913,1609200307,497169108,6618250895,1609199974,6618250896,2398626850,497169113,11081576330,2398626863,2398626870,497169115,1609200320,9156300411,1609221058,2320160111,1609365842,13535744070,1609365937,497168072,2319580337,2319580342,3759896921,3301986326,497168075,13585208307,3593760377,13585208315,13585208311,3301987173,4251838868,1609295558,1609200054,8319164877,4251839051,13585208262,3238981553,13585165598,13585208206,8486768347,12490576212,13585165597,3238982976,4251839206,5779625002,1609200044,2894870494,497167881,497167883,497167884,12472745654,13535410952,12472745652,2894872136,497167890,2320095641,7243278754,13747021051,2894872160,13532098387,4267036402,12529856281,2894872202,497147661,8303818080,2894872224,497147663,1609200074,3764806828,13532098395,8304560637,8304560639,8304560634,8304560633,3839755191,1544965444,497147668,12512656423,2320095714,12512656417,12512862942,12512656420,497150807,4265533873,12512656424,1544965823,1544966022,4265533915,1544966533,4265533925,4265533927,1544967019,1544967327,3943965734,3943965735,1544967812,1544967301,1544966703,1544966002,1499573795,1545731808,1545731962,8484023270,8484023264,1499573801,6601240881,6601240879,11079581774,6601240876,5673062033,12530002305,5673062079,7435255447,5673062081,5673062083,7435255441,5673062086,5673062087,5673062088,5673062090,5673062092,1545016031,1545016035,1544968608,8189128488,9384301713,1720751623,497164689,497164687,1720751622,9384301711,497164685,9384298608,9384301700,497164681,5673496562,5673496535,3821010033,5673496420,497164735,13351387909,3226345168,4279518452,4279518446,497164739,497164738,497166339,11671634887,7852067916],"coordinates":[[-66.18831850000001,-17.399045800000003],[-66.1884289,-17.397419000000003],[-66.1881821,-17.396628],[-66.1854928,-17.3962694],[-66.18528880000001,-17.396330000000003],[-66.1851395,-17.396373800000003],[-66.18501970000001,-17.396298],[-66.18504490000001,-17.3960894],[-66.1845617,-17.394417],[-66.183581,-17.3913878],[-66.18261460000001,-17.388746400000002],[-66.18220450000001,-17.387613400000003],[-66.18210660000001,-17.3872758],[-66.1820636,-17.386466000000002],[-66.18163530000001,-17.383338400000003],[-66.1815665,-17.382676200000002],[-66.1814054,-17.3806124],[-66.1812003,-17.378909800000002],[-66.18096800000001,-17.3775923],[-66.18064100000001,-17.3748517],[-66.18016460000001,-17.3726987],[-66.179703,-17.3706326],[-66.1793487,-17.369032800000003],[-66.1789718,-17.3669002],[-66.17850100000001,-17.364928000000003],[-66.178284,-17.3645885],[-66.17654390000001,-17.3651266],[-66.1748031,-17.3656383],[-66.1714925,-17.3658447],[-66.17094610000001,-17.365956200000003],[-66.17010060000001,-17.3661299],[-66.16943230000001,-17.3660214],[-66.16863550000001,-17.3658171],[-66.167736,-17.365787500000003],[-66.16703550000001,-17.366116400000003],[-66.16610320000001,-17.3667279],[-66.1641573,-17.368131400000003],[-66.1640552,-17.368423800000002],[-66.16407240000001,-17.369349500000002],[-66.1640361,-17.371296500000003],[-66.163746,-17.372479700000003],[-66.1625774,-17.372555000000002],[-66.1606043,-17.3726825],[-66.1589345,-17.3727896],[-66.15719990000001,-17.3728991],[-66.15699930000001,-17.3731282],[-66.1567053,-17.373117800000003],[-66.156563,-17.372941500000003],[-66.1537792,-17.3731143],[-66.15119320000001,-17.3732875],[-66.1498037,-17.3733757],[-66.149653,-17.3734654],[-66.14950130000001,-17.3734499],[-66.1485813,-17.373450700000003],[-66.1459978,-17.373620300000002],[-66.14586240000001,-17.3736295],[-66.14435180000001,-17.3737277],[-66.14328250000001,-17.373844700000003],[-66.1427764,-17.374057200000003],[-66.1424073,-17.373828800000002],[-66.1397774,-17.3739795],[-66.13843370000001,-17.374062600000002],[-66.137285,-17.3741516],[-66.13702160000001,-17.3742507],[-66.13688,-17.3743021],[-66.13675640000001,-17.3741062],[-66.1368334,-17.3730179],[-66.1361547,-17.372841700000002],[-66.13549660000001,-17.3728322],[-66.1341675,-17.372584],[-66.13319360000001,-17.372420100000003],[-66.1309399,-17.3731471],[-66.12985490000001,-17.3732694],[-66.1289941,-17.373526100000003],[-66.12888410000001,-17.373551300000003],[-66.1289074,-17.373773200000002],[-66.1290309,-17.3746645],[-66.1290597,-17.3747827],[-66.1291271,-17.3748733],[-66.12921990000001,-17.374915100000003],[-66.1292707,-17.3749377],[-66.12931680000001,-17.3749797],[-66.12934890000001,-17.375049100000002],[-66.1293474,-17.375124800000002],[-66.1293339,-17.3751606],[-66.1292688,-17.3752314],[-66.129215,-17.3752536],[-66.12915600000001,-17.375258900000002],[-66.12905900000001,-17.375282300000002],[-66.1289665,-17.3752992],[-66.12882610000001,-17.375349],[-66.12865980000001,-17.3754436],[-66.12754020000001,-17.3762313],[-66.12570360000001,-17.3775094],[-66.1241835,-17.378549500000002],[-66.1226821,-17.379529100000003],[-66.12225400000001,-17.3798122],[-66.12187920000001,-17.3800537],[-66.12120800000001,-17.3805008],[-66.120766,-17.380862800000003],[-66.1204943,-17.381222400000002],[-66.12040440000001,-17.381327000000002],[-66.12028190000001,-17.381404800000002],[-66.12008390000001,-17.3814655],[-66.11978400000001,-17.3814983],[-66.1194402,-17.381557400000002],[-66.1192997,-17.3815937],[-66.11868390000001,-17.3818458],[-66.1183007,-17.3819804],[-66.11725600000001,-17.3822712],[-66.11659110000001,-17.382414200000003],[-66.11478960000001,-17.3827819],[-66.1127304,-17.3831983],[-66.1105866,-17.3836453],[-66.109508,-17.3838712],[-66.10835490000001,-17.384107],[-66.10557060000001,-17.384672100000003],[-66.103305,-17.385124],[-66.101813,-17.385439700000003],[-66.10151730000001,-17.385499600000003],[-66.099856,-17.385807500000002],[-66.0990728,-17.3860248],[-66.09839260000001,-17.386162000000002],[-66.0983272,-17.386173900000003],[-66.0980457,-17.3862363],[-66.09795430000001,-17.3862555],[-66.09706650000001,-17.386426500000002],[-66.0964201,-17.386511600000002],[-66.09360310000001,-17.387087400000002],[-66.09040990000001,-17.3877396],[-66.0872301,-17.388381600000002],[-66.0866628,-17.388490400000002],[-66.0862938,-17.388577700000003],[-66.0856528,-17.388769500000002],[-66.0851385,-17.388873],[-66.0848217,-17.3889393],[-66.0846886,-17.388968700000003],[-66.0841997,-17.3890755],[-66.0837245,-17.3891527],[-66.0831864,-17.3892026],[-66.0823075,-17.3893811],[-66.08134820000001,-17.389598300000003],[-66.080234,-17.3898303],[-66.0792634,-17.3900308],[-66.07736560000001,-17.390400600000003],[-66.0768163,-17.3905539],[-66.0763239,-17.3906852],[-66.0759019,-17.3907676],[-66.07583530000001,-17.390780600000003],[-66.07545400000001,-17.390864800000003],[-66.0745224,-17.3910531],[-66.0739011,-17.3911084],[-66.0711272,-17.391675600000003],[-66.06962800000001,-17.3919822],[-66.0688315,-17.392145000000003],[-66.0679667,-17.3923218],[-66.0645781,-17.393014700000002],[-66.0637679,-17.393215],[-66.0626345,-17.393482600000002],[-66.0625189,-17.3935065],[-66.06194880000001,-17.3936455],[-66.0616765,-17.393742800000002],[-66.06062080000001,-17.3941169],[-66.06018080000001,-17.3943264],[-66.05878360000001,-17.395159500000002],[-66.057659,-17.395833300000003],[-66.05750010000001,-17.3959663],[-66.0571175,-17.3962125],[-66.0569305,-17.396325700000002],[-66.0566677,-17.396476],[-66.0561447,-17.396773500000002],[-66.0546489,-17.397667900000002],[-66.0535687,-17.3983235],[-66.05254430000001,-17.3989353],[-66.0521721,-17.399160000000002],[-66.05181660000001,-17.399355],[-66.05151520000001,-17.399478400000003],[-66.0512492,-17.399557100000003],[-66.05116910000001,-17.3996554],[-66.05109010000001,-17.3997068],[-66.05071360000001,-17.3997767],[-66.0499381,-17.4001036],[-66.0496737,-17.400219200000002],[-66.04762020000001,-17.4011196],[-66.04596330000001,-17.401834400000002],[-66.0452314,-17.4021447],[-66.0447007,-17.4023334],[-66.0445275,-17.402407],[-66.04306650000001,-17.403027],[-66.0411636,-17.4038502],[-66.0405532,-17.4040649],[-66.0401482,-17.404245300000003],[-66.0380193,-17.4053146],[-66.03743180000001,-17.4037791],[-66.037059,-17.402582600000002],[-66.0362594,-17.4011786],[-66.03557670000001,-17.401458100000003],[-66.03377710000001,-17.4021787],[-66.0328597,-17.4024846],[-66.0323446,-17.4025822],[-66.03119670000001,-17.4027704],[-66.0305836,-17.40287],[-66.02875180000001,-17.4031665],[-66.0255175,-17.4036881],[-66.023702,-17.403963],[-66.0196818,-17.404599400000002],[-66.01618710000001,-17.405155],[-66.01561190000001,-17.4052514],[-66.01297190000001,-17.405684800000003],[-66.0121866,-17.4058025],[-66.0107766,-17.4059814],[-66.00935290000001,-17.406047],[-66.00811510000001,-17.405999],[-66.0063279,-17.4058607],[-66.00553830000001,-17.405843200000003],[-66.00496240000001,-17.405904200000002],[-66.00261370000001,-17.4064486],[-66.00011350000001,-17.4070429],[-65.9993709,-17.407210300000003],[-65.9987121,-17.4073235],[-65.99756810000001,-17.407477500000002],[-65.995159,-17.407799800000003],[-65.99391050000001,-17.407968200000003],[-65.99286570000001,-17.408053900000002],[-65.99212100000001,-17.4080863],[-65.99113600000001,-17.408092200000002],[-65.9902577,-17.4080428],[-65.9891949,-17.407951],[-65.98777670000001,-17.407694900000003],[-65.9869872,-17.407513100000003],[-65.9864948,-17.407377800000003],[-65.9852166,-17.4069591],[-65.9826692,-17.406017000000002],[-65.98135230000001,-17.405573500000003],[-65.9808436,-17.4053955],[-65.97999610000001,-17.404986700000002],[-65.9793812,-17.4047577],[-65.97898520000001,-17.4046214],[-65.9772782,-17.4039882],[-65.976635,-17.403768300000003],[-65.9759734,-17.4036301],[-65.97513860000001,-17.403595900000003],[-65.97444660000001,-17.403648500000003],[-65.97337080000001,-17.4039214],[-65.9729379,-17.4040816],[-65.9720101,-17.404638100000003]]}}},{"type":"Feature","properties":{"bench":"no","bin":"no","bus":"yes","departures_board":"no","highway":"bus_stop","level":"0","lit":"no","name":"Parada 230","public_transport":"platform","shelter":"no","tactile_paving":"no","wheelchair":"no","id":9181387014},"geometry":{"type":"Point","coordinates":[-66.1883019,-17.399036900000002]}},{"type":"Feature","properties":{"bench":"no","bin":"no","bus":"yes","departures_board":"no","highway":"bus_stop","informal":"yes","level":"0","lit":"no","name":"Beijing y d'Orbigny","public_transport":"platform","shelter":"no","tactile_paving":"no","wheelchair":"no","id":7961801407},"geometry":{"type":"Point","coordinates":[-66.1822515,-17.387838700000003]}},{"type":"Feature","properties":{"bus":"yes","highway":"bus_stop","name":"Plaza de Sacaba","public_transport":"platform","id":9181387015},"geometry":{"type":"Point","coordinates":[-66.0400602,-17.404486000000002]}},{"type":"Feature","properties":{"bench":"no","bin":"no","bus":"yes","departures_board":"no","highway":"bus_stop","informal":"yes","kerb":"lowered","level":"0","lit":"no","name":"América y Libertador Simón Bolívar","public_transport":"platform","shelter":"no","tactile_paving":"no","wheelchair":"yes","id":10705911006},"geometry":{"type":"Point","coordinates":[-66.1628333,-17.3725944]}},{"type":"Feature","properties":{"bench":"no","bin":"no","bus":"yes","departures_board":"no","highway":"bus_stop","level":"0","lit":"no","name":"Avenida Décima","operator":"Administradora Boliviana de Carreteras","pole":"yes","public_transport":"platform","shelter":"no","tactile_paving":"no","wheelchair":"no","id":4251839135},"geometry":{"type":"Point","coordinates":[-66.0854501,-17.3888846]}}]}