{"type":"FeatureCollection","features":[{"type":"Feature","properties":{"bicycle":"no","check_date":"46167","from":"Calle Las Buganvillas","name":"MicroBus B: Calle Las Buganvillas → Pasaje F","on_demand":"yes","operator":"Sindicato de colectiveros y microbuses radio urbano y suburbano ciudad de Cochabamba","operator:type":"association","public_transport:version":"2","ref":"B","roundtrip":"no","route":"bus","to":"Pasaje F","type":"route","via":"Aeropuerto","wheelchair":"no","id":4247869},"geometry":{"type":"LineString","coordinates":[[-66.1395031,-17.3628652],[-66.14005270000001,-17.3627065],[-66.14058840000001,-17.362298900000003],[-66.1409819,-17.3628073],[-66.14180680000001,-17.3621947],[-66.14299460000001,-17.3613457],[-66.1432432,-17.361966600000002],[-66.1432936,-17.362082500000003],[-66.1433562,-17.3622246],[-66.14440130000001,-17.3620357],[-66.14457940000001,-17.362412000000003],[-66.1447758,-17.362826700000003],[-66.1452835,-17.3638993],[-66.1454545,-17.3642517],[-66.14571160000001,-17.364781400000002],[-66.1460321,-17.365455500000003],[-66.1461811,-17.365796900000003],[-66.14621070000001,-17.3658313],[-66.14649460000001,-17.3662241],[-66.1465292,-17.366316],[-66.1453793,-17.3665206],[-66.14431,-17.366709],[-66.14386610000001,-17.366784000000003],[-66.14327940000001,-17.366883100000003],[-66.1424788,-17.367018400000003],[-66.1425801,-17.367572300000003],[-66.14251460000001,-17.367629200000003],[-66.14244760000001,-17.367719],[-66.1423786,-17.3677856],[-66.1423015,-17.3678394],[-66.14219770000001,-17.367879600000002],[-66.141551,-17.3681193],[-66.1407269,-17.368409500000002],[-66.139916,-17.368692000000003],[-66.1402216,-17.369350500000003],[-66.1404129,-17.3697674],[-66.1408847,-17.370906400000003],[-66.14092140000001,-17.3709735],[-66.141637,-17.370499600000002],[-66.14208090000001,-17.370198600000002],[-66.1422196,-17.3701016],[-66.1422769,-17.3701125],[-66.1423182,-17.3701285],[-66.1423408,-17.3701471],[-66.1423889,-17.370216900000003],[-66.14240810000001,-17.3702718],[-66.1424058,-17.3703074],[-66.1423694,-17.370484700000002],[-66.14235640000001,-17.370547900000002],[-66.1423443,-17.370692700000003],[-66.1423506,-17.3707424],[-66.1423541,-17.370769600000003],[-66.142578,-17.371781300000002],[-66.1425818,-17.371799600000003],[-66.142587,-17.3718241],[-66.14260630000001,-17.3719131],[-66.1426357,-17.372050400000003],[-66.1426658,-17.3721871],[-66.1427482,-17.372561100000002],[-66.1428951,-17.3731875],[-66.1429435,-17.3733058],[-66.142993,-17.3733776],[-66.143066,-17.3734399],[-66.1431441,-17.373479500000002],[-66.14320950000001,-17.3735363],[-66.14325810000001,-17.3736067],[-66.14328110000001,-17.3736636],[-66.143293,-17.3737236],[-66.14329350000001,-17.3737846],[-66.14328250000001,-17.373844700000003],[-66.1432451,-17.373929200000003],[-66.1431855,-17.374000900000002],[-66.14310780000001,-17.374054800000003],[-66.1430179,-17.3740869],[-66.1429705,-17.374129500000002],[-66.14293140000001,-17.374195800000003],[-66.1428264,-17.374870700000002],[-66.1428132,-17.3749632],[-66.1428008,-17.3750357],[-66.14275260000001,-17.3753405],[-66.14268390000001,-17.375774600000003],[-66.14267360000001,-17.3758395],[-66.14261900000001,-17.376235100000002],[-66.142601,-17.3763647],[-66.1425808,-17.376478600000002],[-66.14254940000001,-17.3767783],[-66.1425426,-17.376843100000002],[-66.14253810000001,-17.376884800000003],[-66.14252920000001,-17.376936500000003],[-66.1425277,-17.3769451],[-66.14252490000001,-17.3769601],[-66.1424276,-17.3773273],[-66.1424039,-17.377419200000002],[-66.14240880000001,-17.377441100000002],[-66.1424219,-17.377476],[-66.14243760000001,-17.3774945],[-66.1424518,-17.377522900000002],[-66.14246010000001,-17.3775508],[-66.14246320000001,-17.377579700000002],[-66.14246100000001,-17.377608600000002],[-66.1424521,-17.3776461],[-66.14243590000001,-17.377670400000003],[-66.14245980000001,-17.3777399],[-66.14245360000001,-17.377854900000003],[-66.14240140000001,-17.3784476],[-66.14237720000001,-17.3787495],[-66.1423857,-17.3787904],[-66.14241170000001,-17.378833],[-66.1424539,-17.3788802],[-66.14252710000001,-17.3789172],[-66.1427305,-17.378983400000003],[-66.1429971,-17.3790674],[-66.1430493,-17.3790829],[-66.14306780000001,-17.379109000000003],[-66.1430837,-17.3791368],[-66.1430966,-17.379165800000003],[-66.14310160000001,-17.3791891],[-66.1431024,-17.379212900000002],[-66.14309940000001,-17.379236600000002],[-66.14306760000001,-17.379372800000002],[-66.14306880000001,-17.3794137],[-66.14307760000001,-17.379442],[-66.14309370000001,-17.379472],[-66.14320280000001,-17.3796329],[-66.14410310000001,-17.3809425],[-66.14414070000001,-17.380997200000003],[-66.1442263,-17.3811247],[-66.1443213,-17.3812621],[-66.14433430000001,-17.3812809],[-66.1443962,-17.3813704],[-66.1450554,-17.382323900000003],[-66.1451665,-17.3824805],[-66.14526500000001,-17.382625200000003],[-66.14626410000001,-17.3840939],[-66.1462906,-17.384132800000003],[-66.1463324,-17.384194200000003],[-66.1463585,-17.3842326],[-66.147463,-17.385856],[-66.1475139,-17.3859308],[-66.1475669,-17.3860074],[-66.147678,-17.386168100000003],[-66.14771590000001,-17.386222800000002],[-66.148064,-17.3867233],[-66.14836460000001,-17.3871554],[-66.1484094,-17.3872198],[-66.14850120000001,-17.3873491],[-66.14851920000001,-17.3873745],[-66.14864270000001,-17.387550800000003],[-66.14884190000001,-17.387832500000002],[-66.14901,-17.388070000000003],[-66.14916980000001,-17.388299500000002],[-66.14933660000001,-17.3885389],[-66.1493179,-17.388644900000003],[-66.14920000000001,-17.3892545],[-66.1491441,-17.389543900000003],[-66.1490107,-17.390230600000002],[-66.148919,-17.390703000000002],[-66.14890910000001,-17.3907458],[-66.1489818,-17.3907597],[-66.1498937,-17.3909339],[-66.14996670000001,-17.3909479],[-66.15008130000001,-17.390966300000002],[-66.1501052,-17.3909708],[-66.1503069,-17.391008300000003],[-66.15117810000001,-17.3911704],[-66.1512362,-17.391181200000002],[-66.1512804,-17.391189500000003],[-66.15225240000001,-17.3913721],[-66.1523052,-17.391382],[-66.15238160000001,-17.3913942],[-66.1533232,-17.3915757],[-66.1533744,-17.3915849],[-66.15342190000001,-17.3915933],[-66.1540423,-17.3917031],[-66.1544525,-17.3917758],[-66.1545177,-17.3917873],[-66.1545971,-17.3918012],[-66.1550581,-17.3918822],[-66.155297,-17.391924200000002],[-66.15553580000001,-17.3919661],[-66.1556072,-17.391979000000003],[-66.15566120000001,-17.3919889],[-66.1566289,-17.3921703],[-66.15667280000001,-17.3921785],[-66.156727,-17.392187500000002],[-66.1573168,-17.3922886],[-66.1577055,-17.3923552],[-66.157753,-17.3923634],[-66.1577984,-17.3923713],[-66.15796230000001,-17.392399700000002],[-66.1585898,-17.3925084],[-66.158634,-17.3925161],[-66.1587059,-17.3925285],[-66.1587863,-17.3925424],[-66.158879,-17.3925589],[-66.1589397,-17.3925698],[-66.1598762,-17.3927236],[-66.1599202,-17.3927307],[-66.1599305,-17.392666400000003],[-66.16010960000001,-17.391642400000002],[-66.1593569,-17.391514500000003],[-66.1591564,-17.3914785],[-66.1590985,-17.3914702],[-66.15908800000001,-17.3915156],[-66.15895520000001,-17.3921765],[-66.1589002,-17.3924501],[-66.15888890000001,-17.392506200000003],[-66.158879,-17.3925589],[-66.1588624,-17.3926465],[-66.15885030000001,-17.3927102],[-66.15869380000001,-17.393513900000002],[-66.1586779,-17.3935864],[-66.15866940000001,-17.393629800000003],[-66.15848510000001,-17.3945425],[-66.15846850000001,-17.3946244],[-66.1584596,-17.3946726],[-66.1582846,-17.3956252],[-66.1582776,-17.3956693],[-66.1582695,-17.3957154],[-66.1582518,-17.3958179],[-66.1581359,-17.3966716],[-66.1581304,-17.3967147],[-66.1581237,-17.396767800000003],[-66.15796920000001,-17.397736300000002],[-66.157959,-17.397794],[-66.1579492,-17.3978569],[-66.15777820000001,-17.3989265],[-66.1577422,-17.399144900000003],[-66.157736,-17.399296900000003],[-66.1577347,-17.399351900000003],[-66.1577288,-17.3994867],[-66.1577242,-17.3995661],[-66.1577104,-17.3998063],[-66.1576735,-17.400164800000002],[-66.15759510000001,-17.4009518],[-66.1575885,-17.401002300000002],[-66.15757520000001,-17.401153700000002],[-66.157522,-17.4015753],[-66.1574818,-17.4020121],[-66.1574693,-17.4021498],[-66.1574602,-17.4022501],[-66.1574143,-17.4026402],[-66.15738040000001,-17.402927400000003],[-66.15730570000001,-17.403430800000002],[-66.1571981,-17.4039846],[-66.1571744,-17.4040293],[-66.15714940000001,-17.404081100000003],[-66.15697510000001,-17.4051438],[-66.156929,-17.4053964],[-66.15671490000001,-17.4065683],[-66.15667520000001,-17.4068311],[-66.1566081,-17.407373500000002],[-66.1565791,-17.4075962],[-66.1565643,-17.407672],[-66.15655220000001,-17.4077489],[-66.1563919,-17.408892],[-66.1564986,-17.4095365],[-66.1565315,-17.4097021],[-66.1565518,-17.4097727],[-66.1567026,-17.4099988],[-66.15675590000001,-17.4101323],[-66.15680920000001,-17.410216700000003],[-66.15688370000001,-17.410479000000002],[-66.15688,-17.4105169],[-66.1568561,-17.410599700000002],[-66.15686380000001,-17.410628300000003],[-66.156869,-17.410647200000003],[-66.15691740000001,-17.410825900000003],[-66.1569262,-17.4108774],[-66.1569326,-17.41091],[-66.15693540000001,-17.410928600000002],[-66.1569386,-17.4109476],[-66.1569456,-17.410963600000002],[-66.15695260000001,-17.4109796],[-66.1569673,-17.4110131],[-66.1569848,-17.4110404],[-66.15700220000001,-17.411067600000003],[-66.15704170000001,-17.4111222],[-66.1570794,-17.4111663],[-66.1571423,-17.41123],[-66.1573365,-17.411404700000002],[-66.15751920000001,-17.4115684],[-66.1576313,-17.411657700000003],[-66.1578284,-17.4117712],[-66.1580895,-17.411881100000002],[-66.15839860000001,-17.4119835],[-66.15857390000001,-17.412065300000002],[-66.15866000000001,-17.4120908],[-66.1594257,-17.4126993],[-66.15946260000001,-17.412717800000003],[-66.15949350000001,-17.412735100000003],[-66.15951240000001,-17.412740900000003],[-66.15954160000001,-17.412731100000002],[-66.15969600000001,-17.4126605],[-66.16031330000001,-17.4123816],[-66.1614066,-17.4118779],[-66.16151040000001,-17.411834300000002],[-66.1625434,-17.4113638],[-66.1625582,-17.4113571],[-66.1631656,-17.411077300000002],[-66.1637786,-17.410807000000002],[-66.16400200000001,-17.410705],[-66.1641135,-17.410677300000003],[-66.16421530000001,-17.4106589],[-66.1643349,-17.410647400000002],[-66.16441800000001,-17.4106504],[-66.16448390000001,-17.4106664],[-66.16450880000001,-17.410652300000002],[-66.16452140000001,-17.4106464],[-66.16456500000001,-17.4106366],[-66.164608,-17.4106299],[-66.1646516,-17.410628900000003],[-66.1646949,-17.4106337],[-66.16473710000001,-17.410644100000003],[-66.1647774,-17.410659900000002],[-66.1648128,-17.410679400000003],[-66.1648392,-17.410698200000002],[-66.1648634,-17.410719500000003],[-66.1650001,-17.4107676],[-66.16513020000001,-17.410806100000002],[-66.1652045,-17.410814100000003],[-66.16527930000001,-17.4108136],[-66.16534530000001,-17.410803700000002],[-66.16578100000001,-17.410698800000002],[-66.1663733,-17.410555600000002],[-66.1664382,-17.4105397],[-66.16713290000001,-17.4103701],[-66.1671805,-17.4103585],[-66.16749030000001,-17.410288],[-66.16768680000001,-17.410249200000003],[-66.167766,-17.410237000000002],[-66.16780390000001,-17.410230400000003],[-66.167917,-17.4102131],[-66.1681264,-17.4101892],[-66.16835850000001,-17.4101725],[-66.1690452,-17.4101591],[-66.16942350000001,-17.410157400000003],[-66.16974370000001,-17.41015],[-66.1706049,-17.4101438],[-66.17065190000001,-17.4101386],[-66.1707212,-17.410117200000002],[-66.17081830000001,-17.410085900000002],[-66.1709288,-17.410057100000003],[-66.17099710000001,-17.410042500000003],[-66.1710999,-17.410038200000002],[-66.1715345,-17.410041600000003],[-66.17182070000001,-17.410040900000002],[-66.1722457,-17.4100399],[-66.1722474,-17.409866100000002],[-66.17189710000001,-17.409354],[-66.1717759,-17.4091768],[-66.17284790000001,-17.408487200000003],[-66.17287830000001,-17.408472600000003],[-66.1729081,-17.4084706],[-66.17293790000001,-17.408468600000003],[-66.17309130000001,-17.408455],[-66.173105,-17.408470100000002],[-66.1731238,-17.408490800000003],[-66.1733183,-17.4087344],[-66.17335530000001,-17.4087807],[-66.1735175,-17.408968],[-66.17355660000001,-17.4090148],[-66.1736161,-17.409086100000003],[-66.1737238,-17.409233200000003],[-66.17378360000001,-17.4093455],[-66.17385750000001,-17.4095118],[-66.1740568,-17.4099812],[-66.1741078,-17.4100824],[-66.17420150000001,-17.4102137],[-66.1744606,-17.4105129],[-66.174698,-17.4107716],[-66.17473310000001,-17.4108099],[-66.1747696,-17.410848700000003],[-66.17486290000001,-17.4109187],[-66.1754681,-17.4112955],[-66.175724,-17.411449100000002],[-66.1758849,-17.4115374],[-66.17589930000001,-17.411544900000003],[-66.1759186,-17.4115541],[-66.1761498,-17.411660100000002],[-66.1763923,-17.411751600000002],[-66.1766128,-17.411815700000002],[-66.1767839,-17.4118575],[-66.17701790000001,-17.411898800000003],[-66.177334,-17.4119414],[-66.17738440000001,-17.411947700000002],[-66.17766010000001,-17.4119803],[-66.1783929,-17.4120633],[-66.1790989,-17.412144400000003],[-66.1792549,-17.4121689],[-66.1794011,-17.412209],[-66.17951090000001,-17.4122653],[-66.17960090000001,-17.4123406],[-66.1796582,-17.412402500000002],[-66.1796972,-17.412457],[-66.1797298,-17.4125231],[-66.17975000000001,-17.4125744],[-66.17976660000001,-17.4126757],[-66.17977180000001,-17.412772200000003],[-66.1797636,-17.4128584],[-66.17975510000001,-17.4129015],[-66.1797057,-17.4129462],[-66.1795931,-17.4130438],[-66.17940970000001,-17.4131973],[-66.1790867,-17.4134876],[-66.1790241,-17.413541000000002],[-66.1788788,-17.4136667],[-66.1787982,-17.4137363],[-66.17875280000001,-17.4137756],[-66.1785964,-17.4139108],[-66.17851780000001,-17.413978800000002],[-66.17846990000001,-17.414020200000003],[-66.1783133,-17.4141556],[-66.17824180000001,-17.414217400000002],[-66.1781857,-17.414265800000003],[-66.17797750000001,-17.414444000000003],[-66.17787050000001,-17.4145378],[-66.17768480000001,-17.414693800000002],[-66.1776143,-17.414725500000003],[-66.1775556,-17.4147383],[-66.17749690000001,-17.414740000000002],[-66.17743800000001,-17.414706600000002],[-66.17738270000001,-17.414658300000003],[-66.177329,-17.4145782],[-66.17729650000001,-17.414497500000003],[-66.17728860000001,-17.4144101],[-66.1772921,-17.4142407],[-66.17730040000001,-17.414196500000003],[-66.17733220000001,-17.414106500000003],[-66.1773742,-17.414030500000003],[-66.1774247,-17.413962700000003],[-66.17747700000001,-17.4139108],[-66.17782530000001,-17.4136099],[-66.17824900000001,-17.4132439],[-66.1783568,-17.4131508],[-66.17852280000001,-17.413007200000003],[-66.1785753,-17.4129621],[-66.1787833,-17.412778600000003],[-66.17883690000001,-17.4126967],[-66.1788652,-17.412627500000003],[-66.1788763,-17.4125531],[-66.17887440000001,-17.4124763],[-66.1788542,-17.412410400000002],[-66.17881120000001,-17.4123306],[-66.17874210000001,-17.4122543],[-66.1786692,-17.412211000000003],[-66.1785942,-17.4121856],[-66.1784973,-17.4121671],[-66.17826450000001,-17.412124300000002],[-66.1776945,-17.4120628],[-66.17766280000001,-17.4120594],[-66.17764720000001,-17.412057700000002],[-66.1773769,-17.4120212],[-66.17732430000001,-17.4120153],[-66.17699280000001,-17.4119727],[-66.1766465,-17.4119086],[-66.1765704,-17.4118861],[-66.17636590000001,-17.411828500000002],[-66.17617580000001,-17.4117628],[-66.1758741,-17.411625],[-66.1758602,-17.411618700000002],[-66.17565180000001,-17.4115056],[-66.17524470000001,-17.4112462],[-66.17489490000001,-17.4110331],[-66.1747062,-17.4109209],[-66.17464530000001,-17.410874000000003],[-66.17443130000001,-17.4107166],[-66.17432000000001,-17.4106127],[-66.1740681,-17.410381400000002],[-66.17398730000001,-17.4103195],[-66.17378380000001,-17.4102189],[-66.1737004,-17.410183800000002],[-66.17368400000001,-17.4101773],[-66.17362580000001,-17.410154400000003],[-66.173449,-17.410084100000002],[-66.17335890000001,-17.410083],[-66.17326340000001,-17.4101049],[-66.1731312,-17.4101269],[-66.1730174,-17.410132700000002],[-66.17272240000001,-17.4101412],[-66.17182190000001,-17.4101424],[-66.1712318,-17.4101453],[-66.1711765,-17.410150100000003],[-66.17112320000001,-17.4101609],[-66.17099610000001,-17.410193500000002],[-66.17095690000001,-17.4102023],[-66.17090440000001,-17.4102102],[-66.17084170000001,-17.410216100000003],[-66.17081830000001,-17.410085900000002],[-66.1709288,-17.410057100000003],[-66.17099710000001,-17.410042500000003],[-66.1710999,-17.410038200000002],[-66.1715345,-17.410041600000003],[-66.17182070000001,-17.410040900000002],[-66.1722457,-17.4100399],[-66.17273970000001,-17.410046100000002],[-66.1729464,-17.410044600000003],[-66.1730618,-17.4100213],[-66.17318,-17.4099787],[-66.1732927,-17.409920800000002],[-66.173438,-17.4098225],[-66.17364420000001,-17.4097197],[-66.1738198,-17.4096322],[-66.1738684,-17.4096073],[-66.1739273,-17.409575200000003],[-66.17403820000001,-17.4095081],[-66.1740778,-17.409480900000002],[-66.1741171,-17.4094476],[-66.17413280000001,-17.409434400000002],[-66.1744597,-17.4090773],[-66.1744685,-17.4090662],[-66.1744815,-17.409049800000002],[-66.17450550000001,-17.409019400000002],[-66.1745262,-17.4089931],[-66.17460390000001,-17.408894800000002],[-66.17465290000001,-17.4088329],[-66.17497940000001,-17.408401],[-66.1755849,-17.4076111],[-66.1760306,-17.407040300000002],[-66.17639890000001,-17.4067298],[-66.17647170000001,-17.4066657],[-66.17656090000001,-17.4065911],[-66.1766285,-17.406538400000002],[-66.17699110000001,-17.4062556],[-66.1772711,-17.406075],[-66.177559,-17.4059102],[-66.1780533,-17.405653100000002],[-66.1791604,-17.4050747],[-66.17918920000001,-17.405059700000002],[-66.179218,-17.4050446],[-66.1792865,-17.405007700000002],[-66.1794318,-17.4049295],[-66.179682,-17.4047796],[-66.17995160000001,-17.4045728],[-66.1801623,-17.4043959],[-66.1802712,-17.404300000000003],[-66.1803392,-17.4042354],[-66.1803924,-17.404184100000002],[-66.18051870000001,-17.404057700000003],[-66.1806402,-17.404120900000002],[-66.1806992,-17.404153100000002],[-66.18119440000001,-17.4044293],[-66.18124590000001,-17.4043901],[-66.1813037,-17.4043597],[-66.1813824,-17.4043354],[-66.18145790000001,-17.4043254],[-66.1814559,-17.4042822],[-66.18146510000001,-17.404229700000002],[-66.1814913,-17.404178400000003],[-66.18202760000001,-17.4034878],[-66.18251860000001,-17.403642],[-66.1835267,-17.403667600000002],[-66.1835028,-17.4035794],[-66.1832952,-17.4028113],[-66.1831099,-17.4021255],[-66.18310260000001,-17.402096800000002],[-66.1829294,-17.4014136],[-66.1829221,-17.401371],[-66.1829146,-17.401334000000002]],"nodes":[8253748579,3284842297,808079739,808080167,808079200,808079682,808079962,9095977664,2317631740,3283018610,9095975687,808079415,808079451,11982339766,808080059,2317631752,9470517906,808079278,2317631763,808079816,808079664,808079597,2183008698,2317602296,808079073,807968387,3284842363,2317602307,9696617487,807968141,807967983,807968537,807968072,807968033,807967999,807968318,7039659082,601871191,601871206,602990175,602990176,9579636618,9579636316,9579636617,9192234377,9579636314,9579636315,9579636313,1785473495,601872709,13751842914,601872740,2126671164,11026980048,9192234375,601872746,8616654972,13556268476,2126672209,601872755,1785473290,8509264310,1785473441,1785473207,1785473612,1785473544,2126674116,2389107140,1785473427,2126674142,1785473511,1785473654,1785473340,1785473238,2126674180,2126674191,2590032472,698492585,2590032493,8373677220,8373671016,698492595,8373677218,599541212,8385091871,1637609887,8385091886,8385091900,1637609914,11081730875,8385091876,2389107312,2391341230,8385093441,1795293270,8385093440,1795293321,1795293349,1795293382,11081772340,11081772339,1795293377,1795293372,1795293269,1795293345,1795293437,1795293264,1795293299,1795293277,8385093431,1795293338,2391341613,1795293296,8379904343,11081763605,2391341643,8379904342,1795293405,2391341655,2391341667,1795293432,9890903488,1795293389,602989537,9890903489,8388301598,312425917,9584233890,3676912941,9584233886,10854297122,312425660,8390961546,9930862751,1807100710,2361168089,9930862749,6179473101,312425828,6179473096,11310743156,9031318855,9028209372,6179473247,9031318856,2141431944,6179473241,6179473238,9034180378,5353339454,11310645817,312425956,315096054,11827172367,308306729,11827181890,2524491857,303214819,1873958885,2866811500,303214820,6199916301,9591270786,9591270739,2289661510,303214821,2289661528,2289661569,303218726,2289661575,2289661586,303218727,2289661587,2377781522,2292218207,303218728,2292218208,9567473057,10884624348,4503778522,303218729,2292218216,2295541574,303218730,2295541575,8609183214,2295541589,308297343,2295541594,11043280710,9704099835,13835163241,2295541614,308297344,648546083,2295541617,2694171662,308297345,2694171661,308304265,7916079555,2295541570,648546076,2295541572,10800524287,13835163242,2295541612,648546083,698492383,2295541625,3635441114,648546080,3674274533,9567256917,648546079,9567256919,2331302373,648546084,2331302377,9294229520,2398944604,648546085,2398944608,3674274536,648546086,3674274539,648546087,9566992861,2398944626,1865095006,648548910,2398944656,2577975072,4449488611,2577975100,648543481,8637329085,2577975115,2577975131,9090462298,648542366,9652874528,702511644,2577975282,2577975307,9090462294,648542369,648542365,9131177339,323972806,2763553535,702511613,2763553554,2763553563,8226219195,319762950,9131083908,4477790775,702721240,2576698538,13448698824,13448698823,3218389503,9653012720,2576698592,13448698821,13448698822,10892572063,10046249670,7902420007,10046249667,4477791070,10046445902,2576698674,1527822562,10046445903,10046406799,10046249653,10046406800,7947239539,10046406798,702721236,2716726766,702721233,702721232,707336838,702721231,12100035080,702721228,3303558644,9438085274,9438085262,2716726787,7132200134,707336748,707336753,1762869041,10583174315,707336744,707336746,497189952,560522334,9438358981,9436550529,5334381216,10583128389,1762868926,9436550531,11081937093,497190358,9436550543,2604131504,9436550544,6162313055,648571093,497191184,9436550542,497191185,497193244,9089886499,2604131532,1762868971,497192438,2604131516,2604131492,9967177440,13185347127,843384541,843383042,560522332,9089888961,5273065546,2604131462,2420519948,560522329,5273065560,9089886495,707336709,560522330,9022475843,7555586482,560522306,9373289476,8543055902,1638041071,707336684,9024034091,660004714,707336691,12391372538,707336699,12391372544,9022475832,13185327897,707336698,6133607081,10884624350,9022475830,13185327873,8268354169,648571026,13185327872,648571027,707336680,10713584545,707336679,5273107646,653089143,1638041083,1638041085,13185327879,1638041087,9023922879,8268354168,5273107676,1638041100,9737354761,1638041101,9737354762,1638041102,2604131615,1638041103,9737354723,1638041105,1638041106,9737354769,6884275216,1638041120,1638041122,2420679866,1638041124,2420519993,653090986,653090987,2420679898,653090988,2420679913,653090989,13142068072,2604131732,2420520062,2420520052,2604131753,2420520069,2420520114,2420520127,10250594770,2420520147,2420520155,10250594772,2420520169,2420520179,10250594775,2420520193,2420520197,2420520205,2420520208,653091040,2420520220,10711193700,653091004,2420520219,653091006,2420520213,653091007,2420520202,653091009,12105328600,2420520191,653091010,2420520175,653091016,2421371422,13153838499,7561331124,7561331130,2420520061,2420520039,8543055853,653091019,653091021,2420520009,653091023,653091024,2604131694,653091026,12330862387,2604131686,653090978,2604131666,10711419865,7561256296,9737354770,2604131659,1638041118,12330862388,2421371282,10713584542,653090981,12330862385,2421371265,7557843209,12329892746,653090984,9023922878,6133613096,11189423613,5734848902,6133613093,5273107660,9024034032,5562785724,12391372524,12391328925,7555583168,1638041075,12391328926,12391328924,7555592269,560522312,9024034092,560522311,9920249706,1638041078,7555586484,7555586466,9920249705,1638041080,560522306,9373289476,8543055902,1638041071,707336684,9024034091,660004714,9022475857,560522307,7711660462,1638041068,3301399299,8543055888,12391372505,5574621531,12391328996,2420519863,8543061750,9024034047,12391328953,560522294,648571007,12538679971,12391372566,12391328962,560522301,2780334024,660004014,560522303,844969856,800044315,11821516120,800044289,560522315,11821516118,800044142,560522316,11081950882,843534485,12874271840,12874271876,800043991,12874271837,8046380062,560522320,800044169,8046390993,8046390986,12874271852,560522321,800044031,800044099,12874271855,800044151,9436152611,800044277,9436311823,800044022,11821472276,11821472275,1737902958,1737902980,1737902965,2812625376,12849430845,12849430829,2812625190,12849430792,12849430831,8984475619,13846976284]},"gtfs":{"agency_id":3,"route_id":4,"services":[{"service_id":"Mo-Su","startTime":"06:00","endTime":"22:00","trip_id":4247869}],"filteredStops":{"nodes":[8253748579,808079682,9095975687,2317631752,808079816,808079073,807968141,807967999,602990175,9192234377,1785473495,11026980048,2126672209,1785473207,1785473427,1785473238,698492585,8373677218,8385091900,2391341230,1795293349,1795293372,1795293264,2391341613,8379904342,9890903488,312425917,312425660,2361168089,11310743156,2141431944,312425956,315096054,2524491857,2866811500,9591270739,2289661569,2289661586,2292218207,9567473057,2292218216,8609183214,2295541594,308297344,648546083,2694171661,2295541572,648546083,648546080,9567256919,2398944604,648546086,1865095006,648548910,2577975282,4477790775,10046249667,702721232,10583174315,2604131504,2604131492,560522330,12391372544,707336679,9737354762,653090986,2420520127,10711193700,2421371422,12330862387,12330862385,12391328925,1638041080,560522306,707336684,560522307,8543055888,2420519863,560522294,12391328962,560522303,800044289,11081950882,800043991,800044169,560522321,800044151,800044022,1737902980,12849430829,13846976284],"coordinates":[[-66.1395031,-17.3628652],[-66.14299460000001,-17.3613457],[-66.14457940000001,-17.362412000000003],[-66.1460321,-17.365455500000003],[-66.1465292,-17.366316],[-66.1424788,-17.367018400000003],[-66.1423015,-17.3678394],[-66.1402216,-17.369350500000003],[-66.14208090000001,-17.370198600000002],[-66.1423889,-17.370216900000003],[-66.14235640000001,-17.370547900000002],[-66.1425818,-17.371799600000003],[-66.1427482,-17.372561100000002],[-66.1431441,-17.373479500000002],[-66.14329350000001,-17.3737846],[-66.1430179,-17.3740869],[-66.1428132,-17.3749632],[-66.14261900000001,-17.376235100000002],[-66.14253810000001,-17.376884800000003],[-66.1424039,-17.377419200000002],[-66.14246010000001,-17.3775508],[-66.14245980000001,-17.3777399],[-66.1423857,-17.3787904],[-66.1429971,-17.3790674],[-66.14310160000001,-17.3791891],[-66.14307760000001,-17.379442],[-66.1442263,-17.3811247],[-66.1451665,-17.3824805],[-66.1463324,-17.384194200000003],[-66.147678,-17.386168100000003],[-66.14850120000001,-17.3873491],[-66.14933660000001,-17.3885389],[-66.1493179,-17.388644900000003],[-66.148919,-17.390703000000002],[-66.1498937,-17.3909339],[-66.1503069,-17.391008300000003],[-66.15225240000001,-17.3913721],[-66.1533232,-17.3915757],[-66.1544525,-17.3917758],[-66.1550581,-17.3918822],[-66.15566120000001,-17.3919889],[-66.1573168,-17.3922886],[-66.1577984,-17.3923713],[-66.1587863,-17.3925424],[-66.158879,-17.3925589],[-66.1599305,-17.392666400000003],[-66.15908800000001,-17.3915156],[-66.158879,-17.3925589],[-66.1586779,-17.3935864],[-66.1584596,-17.3946726],[-66.1581359,-17.3966716],[-66.157959,-17.397794],[-66.1577347,-17.399351900000003],[-66.1577288,-17.3994867],[-66.15730570000001,-17.403430800000002],[-66.1565315,-17.4097021],[-66.15693540000001,-17.410928600000002],[-66.1580895,-17.411881100000002],[-66.1625434,-17.4113638],[-66.1646516,-17.410628900000003],[-66.1663733,-17.410555600000002],[-66.1706049,-17.4101438],[-66.17284790000001,-17.408487200000003],[-66.17385750000001,-17.4095118],[-66.1759186,-17.4115541],[-66.17960090000001,-17.4123406],[-66.1790241,-17.413541000000002],[-66.1775556,-17.4147383],[-66.17782530000001,-17.4136099],[-66.1785942,-17.4121856],[-66.1758741,-17.411625],[-66.17362580000001,-17.410154400000003],[-66.17084170000001,-17.410216100000003],[-66.17081830000001,-17.410085900000002],[-66.1715345,-17.410041600000003],[-66.1729464,-17.410044600000003],[-66.173438,-17.4098225],[-66.1739273,-17.409575200000003],[-66.17413280000001,-17.409434400000002],[-66.17450550000001,-17.409019400000002],[-66.17497940000001,-17.408401],[-66.17647170000001,-17.4066657],[-66.177559,-17.4059102],[-66.179218,-17.4050446],[-66.17995160000001,-17.4045728],[-66.1803924,-17.404184100000002],[-66.18119440000001,-17.4044293],[-66.18145790000001,-17.4043254],[-66.18202760000001,-17.4034878],[-66.1832952,-17.4028113],[-66.1829146,-17.401334000000002]]}}},{"type":"Feature","properties":{"bus":"yes","departures_board":"no","highway":"bus_stop","name":"Parada B","public_transport":"platform","shelter":"no","id":3919761699},"geometry":{"type":"Point","coordinates":[-66.1395799,-17.362926]}},{"type":"Feature","properties":{"bench":"no","bin":"no","bus":"yes","departures_board":"no","highway":"bus_stop","informal":"yes","level":"0","lit":"no","name":"Infocal","public_transport":"platform","shelter":"no","tactile_paving":"no","wheelchair":"no","id":3218389497},"geometry":{"type":"Point","coordinates":[-66.142617,-17.371683700000002]}},{"type":"Feature","properties":{"bench":"yes","bin":"yes","bus":"yes","departures_board":"no","highway":"bus_stop","level":"0","lit":"no","name":"Plaza Tarija","operator":"Gobierno Autónomo Municipal de Cochabamba","operator:short":"GAMC","operator:type":"government","public_transport":"platform","shelter":"yes","tactile_paving":"no","wheelchair":"no","id":2126673437},"geometry":{"type":"Point","coordinates":[-66.14296060000001,-17.373225]}},{"type":"Feature","properties":{"bench":"no","bin":"no","bus":"yes","departures_board":"no","highway":"bus_stop","lit":"no","name":"General Galindo y Mariano Melgarejo","operator":"Gobierno Autónomo Municipal de Cochabamba","pole":"yes","public_transport":"platform","shelter":"no","tactile_paving":"no","wheelchair":"no","id":2590032465},"geometry":{"type":"Point","coordinates":[-66.142891,-17.3748074]}},{"type":"Feature","properties":{"bench":"no","bin":"no","bus":"yes","departures_board":"no","highway":"bus_stop","kerb":"raised","level":"0","lit":"no","name":"Aniceto Arce y Ramón Rivero","operator":"Gobierno Autónomo Municipal de Cochabamba","pole":"yes","public_transport":"platform","shelter":"no","tactile_paving":"no","wheelchair":"no","id":8388301542},"geometry":{"type":"Point","coordinates":[-66.14333350000001,-17.3797563]}},{"type":"Feature","properties":{"bench":"no","bin":"no","bus":"yes","departures_board":"no","highway":"bus_stop","kerb":"raised","lit":"no","name":"Néstor Morales","operator":"Gobierno Autónomo Municipal de Cochabamba","pole":"yes","public_transport":"platform","shelter":"no","tactile_paving":"no","wheelchair":"no","id":3218389499},"geometry":{"type":"Point","coordinates":[-66.14414570000001,-17.3809401]}},{"type":"Feature","properties":{"bench":"no","bin":"no","bus":"yes","departures_board":"no","highway":"bus_stop","kerb":"raised","level":"0","lit":"no","name":"Aniceto Arce y Papa Paulo III","public_transport":"platform","shelter":"no","tactile_paving":"no","wheelchair":"no","id":6299491685},"geometry":{"type":"Point","coordinates":[-66.1462664,-17.3840179]}},{"type":"Feature","properties":{"bench":"yes","bin":"no","bus":"yes","departures_board":"no","highway":"bus_stop","kerb":"raised","level":"0","lit":"no","name":"Hospital Materno Infantil Germán Urquidi","operator":"Gobierno Autónomo Municipal de Cochabamba","public_transport":"platform","shelter":"yes","tactile_paving":"no","wheelchair":"no","id":2892512813},"geometry":{"type":"Point","coordinates":[-66.1484657,-17.387225100000002]}},{"type":"Feature","properties":{"bench":"yes","bin":"no","bus":"yes","departures_board":"no","highway":"bus_stop","kerb":"raised","lit":"no","name":"SEDES","operator":"Gobierno Autónomo Municipal de Cochabamba","public_transport":"platform","shelter":"yes","tactile_paving":"no","id":3264544592},"geometry":{"type":"Point","coordinates":[-66.1492259,-17.388328400000002]}},{"type":"Feature","properties":{"bench":"no","bin":"no","bus":"yes","departures_board":"no","highway":"bus_stop","kerb":"raised","lit":"no","name":"Heroínas y Pasteur","pole":"yes","public_transport":"platform","shelter":"no","tactile_paving":"no","wheelchair":"no","id":4805176195},"geometry":{"type":"Point","coordinates":[-66.14896970000001,-17.390664700000002]}},{"type":"Feature","properties":{"bench":"no","bin":"no","bus":"yes","departures_board":"no","highway":"bus_stop","kerb":"raised","level":"0","lit":"no","name":"Heroínas y Oquendo","operator":"Gobierno Autónomo Municipal de Cochabamba","operator:short":"GAMC","operator:type":"government","operator:wikidata":"Q124635344","pole":"yes","public_transport":"platform","shelter":"no","tactile_paving":"no","traffic_sign":"yes","wheelchair":"no","id":3201986243},"geometry":{"type":"Point","coordinates":[-66.14983120000001,-17.390873000000003]}},{"type":"Feature","properties":{"bench":"no","bin":"no","bus":"yes","departures_board":"no","highway":"bus_stop","kerb":"raised","level":"0","lit":"no","name":"Heroínas y 16 de Julio","operator":"Gobierno Autónomo Municipal de Cochabamba","pole":"yes","public_transport":"platform","shelter":"no","tactile_paving":"no","traffic_sign":"yes","wheelchair":"no","id":6546789745},"geometry":{"type":"Point","coordinates":[-66.15111610000001,-17.391113]}},{"type":"Feature","properties":{"bench":"no","bin":"no","bus":"yes","departures_board":"no","highway":"bus_stop","lit":"no","name":"Lanza","pole":"yes","public_transport":"platform","shelter":"no","id":5472737093},"geometry":{"type":"Point","coordinates":[-66.1532679,-17.3915168]}},{"type":"Feature","properties":{"bench":"no","bin":"no","bus":"yes","departures_board":"no","highway":"bus_stop","level":"0","lit":"no","name":"Teatro Adela Zamudio","operator":"Gobierno Autónomo Municipal de Cochabamba","pole":"yes","public_transport":"platform","shelter":"no","tactile_paving":"yes","wheelchair":"no","id":4503778521},"geometry":{"type":"Point","coordinates":[-66.15550780000001,-17.3919213]}},{"type":"Feature","properties":{"bench":"no","bin":"no","bus":"yes","departures_board":"no","highway":"bus_stop","kerb":"raised","level":"0","lit":"no","name":"Baptista","operator":"Gobierno Autónomo Municipal de Cochabamba","pole":"yes","public_transport":"platform","shelter":"no","tactile_paving":"no","wheelchair":"no","id":6546789754},"geometry":{"type":"Point","coordinates":[-66.15767260000001,-17.392301900000003]}},{"type":"Feature","properties":{"bench":"no","bin":"no","bus":"yes","departures_board":"no","highway":"bus_stop","level":"0","lit":"no","name":"Correo","operator":"Gobierno Autónomo Municipal de Cochabamba","operator:type":"government","pole":"yes","public_transport":"platform","shelter":"no","tactile_paving":"no","wheelchair":"no","id":6546789755},"geometry":{"type":"Point","coordinates":[-66.1586429,-17.392470600000003]}},{"type":"Feature","properties":{"bench":"yes","bin":"no","bus":"yes","departures_board":"no","highway":"bus_stop","level":"0","lit":"no","name":"Correo","operator":"Gobierno Autónomo Municipal de Cochabamba","operator:type":"government","pole":"yes","public_transport":"platform","shelter":"yes","tactile_paving":"no","wheelchair":"no","id":3675838838},"geometry":{"type":"Point","coordinates":[-66.1589563,-17.392456600000003]}},{"type":"Feature","properties":{"bench":"no","bin":"no","bus":"yes","departures_board":"no","highway":"bus_stop","lit":"no","name":"Santiváñez","public_transport":"platform","shelter":"no","id":6546789748},"geometry":{"type":"Point","coordinates":[-66.1585441,-17.3945204]}},{"type":"Feature","properties":{"bench":"yes","bin":"no","bus":"yes","highway":"bus_stop","lit":"no","name":"Jordán","public_transport":"platform","shelter":"yes","id":2398944600},"geometry":{"type":"Point","coordinates":[-66.1583439,-17.3955835]}},{"type":"Feature","properties":{"bench":"yes","bin":"no","bus":"yes","highway":"bus_stop","lit":"no","name":"Calama","public_transport":"platform","shelter":"yes","id":6546789735},"geometry":{"type":"Point","coordinates":[-66.1582303,-17.3964186]}},{"type":"Feature","properties":{"bench":"no","bin":"no","bus":"yes","departures_board":"no","highway":"bus_stop","kerb":"raised","level":"0","lit":"no","name":"Aroma","operator":"Gobierno Autónomo Municipal de Cochabamba","operator:short":"GAMC","operator:type":"government","pole":"yes","public_transport":"platform","shelter":"no","tactile_paving":"no","wheelchair":"yes","id":4929965566},"geometry":{"type":"Point","coordinates":[-66.1577948,-17.3992118]}},{"type":"Feature","properties":{"bench":"yes","bin":"no","bus":"yes","departures_board":"no","highway":"bus_stop","kerb":"lowered","lit":"no","name":"Terminal de Buses Cochabamba","operator":"Gobierno Autónomo Municipal de Cochabamba","pole":"yes","public_transport":"platform","shelter":"yes","tactile_paving":"no","wheelchair":"yes","id":9652874533},"geometry":{"type":"Point","coordinates":[-66.1575081,-17.4026043]}},{"type":"Feature","properties":{"bench":"no","bin":"no","bus":"yes","departures_board":"no","highway":"bus_stop","lit":"no","name":"Tarata","operator":"Gobierno Autónomo Municipal de Cochabamba","pole":"yes","public_transport":"platform","shelter":"no","id":4874517613},"geometry":{"type":"Point","coordinates":[-66.15742030000001,-17.4030504]}},{"type":"Feature","properties":{"bench":"yes","bin":"yes","bus":"yes","departures_board":"no","highway":"bus_stop","level":"0","lit":"yes","map":"yes","name":"Parada Micro B","public_transport":"platform","shelter":"yes","tactile_paving":"no","wheelchair":"yes","id":2604131854},"geometry":{"type":"Point","coordinates":[-66.1781646,-17.4143425]}}]}