{"type":"FeatureCollection","features":[{"type":"Feature","properties":{"bicycle":"no","bus":"minibus","check_date":"29/12/2025","from":"Plaza Principal El Paso","name":"Trufi 106: Plaza Principal El Paso → Avenida Ayacucho","network":"BO:CB:Cochabamba","on_demand":"yes","operator":"Asociación de transporte integrado de servicio público Apote","public_transport:version":"2","ref":"106","roundtrip":"no","route":"bus","to":"Avenida Ayacucho","type":"route","wheelchair":"no","id":4480208},"geometry":{"type":"LineString","coordinates":[[-66.2651124,-17.3377786],[-66.2638349,-17.3377862],[-66.263743,-17.3377744],[-66.2634123,-17.337682100000002],[-66.26236580000001,-17.336950100000003],[-66.2616026,-17.336484000000002],[-66.2615162,-17.3364367],[-66.2614176,-17.3364225],[-66.26038770000001,-17.3364113],[-66.25998770000001,-17.336406200000003],[-66.2594054,-17.3363455],[-66.258356,-17.336233800000002],[-66.25824990000001,-17.3362374],[-66.2570858,-17.335871200000003],[-66.25615760000001,-17.3355292],[-66.25603050000001,-17.3354535],[-66.2550015,-17.334629600000003],[-66.2549185,-17.3345102],[-66.2547761,-17.334405800000003],[-66.25451530000001,-17.334231000000003],[-66.25422280000001,-17.333998400000002],[-66.25399440000001,-17.3338129],[-66.25367650000001,-17.333550300000002],[-66.25357430000001,-17.333450600000003],[-66.2534409,-17.3334148],[-66.2528159,-17.3331319],[-66.25215150000001,-17.3328595],[-66.25185950000001,-17.332748300000002],[-66.25151620000001,-17.3326187],[-66.2510747,-17.3324874],[-66.25054700000001,-17.3323605],[-66.2501737,-17.3321748],[-66.2499315,-17.3319578],[-66.249795,-17.3317209],[-66.24964560000001,-17.331515000000003],[-66.2476455,-17.3294444],[-66.24754970000001,-17.3293645],[-66.24695050000001,-17.3289492],[-66.2468242,-17.328882800000002],[-66.24675640000001,-17.3288534],[-66.24668030000001,-17.328823500000002],[-66.24654960000001,-17.3287967],[-66.24645170000001,-17.328786400000002],[-66.2463275,-17.328787000000002],[-66.24619000000001,-17.3288003],[-66.2441404,-17.329086200000003],[-66.24357110000001,-17.329165600000003],[-66.24345810000001,-17.329150700000003],[-66.2424975,-17.3292891],[-66.2422873,-17.329319400000003],[-66.24221490000001,-17.3293466],[-66.24165590000001,-17.3296716],[-66.2412223,-17.3299422],[-66.2410985,-17.330025300000003],[-66.2408625,-17.3301838],[-66.24060440000001,-17.330315300000002],[-66.24054620000001,-17.3303629],[-66.2404956,-17.3304438],[-66.24045650000001,-17.3306042],[-66.2404922,-17.3312342],[-66.24047200000001,-17.3312901],[-66.2404473,-17.3313647],[-66.2403515,-17.3315312],[-66.2400885,-17.331811700000003],[-66.2399128,-17.331963400000003],[-66.23968400000001,-17.332028],[-66.23938340000001,-17.332044200000002],[-66.23916720000001,-17.3320176],[-66.2388159,-17.331962700000002],[-66.238737,-17.331977700000003],[-66.238605,-17.3320104],[-66.2384792,-17.3320459],[-66.23800720000001,-17.332368600000002],[-66.2375193,-17.3327186],[-66.237378,-17.3328504],[-66.237288,-17.3329367],[-66.2372534,-17.3329783],[-66.2370291,-17.3332695],[-66.23697630000001,-17.333322600000002],[-66.23655360000001,-17.333665200000002],[-66.2364768,-17.333715100000003],[-66.23635230000001,-17.3338001],[-66.23616100000001,-17.3339488],[-66.2358403,-17.3341783],[-66.235674,-17.334297300000003],[-66.2354593,-17.3344105],[-66.2349772,-17.334640500000003],[-66.2341526,-17.334968500000002],[-66.2340255,-17.3350186],[-66.23365310000001,-17.335114800000003],[-66.23250180000001,-17.3353825],[-66.231486,-17.3357944],[-66.23094040000001,-17.3360118],[-66.23089680000001,-17.3360291],[-66.2308077,-17.3360665],[-66.2307475,-17.336091800000002],[-66.23068620000001,-17.336113500000003],[-66.23054280000001,-17.336173000000002],[-66.2300428,-17.336123],[-66.2299588,-17.3361103],[-66.2298748,-17.336097600000002],[-66.22975360000001,-17.336087000000003],[-66.22967340000001,-17.3360828],[-66.22960400000001,-17.336084600000003],[-66.22951690000001,-17.336096],[-66.2293789,-17.3361151],[-66.22907020000001,-17.3362109],[-66.22901110000001,-17.336229200000002],[-66.22897950000001,-17.336239300000003],[-66.2287543,-17.3363267],[-66.22790520000001,-17.3367483],[-66.22745900000001,-17.336910000000003],[-66.2270302,-17.337087200000003],[-66.22688600000001,-17.3371418],[-66.2265007,-17.3372591],[-66.2262982,-17.3372768],[-66.2261548,-17.3372828],[-66.22592320000001,-17.337294],[-66.2256747,-17.3373136],[-66.2254528,-17.337356300000003],[-66.22456770000001,-17.337628600000002],[-66.2240422,-17.3377871],[-66.22387330000001,-17.337838400000003],[-66.2237942,-17.3378614],[-66.22368850000001,-17.3378923],[-66.2236493,-17.337902200000002],[-66.2235488,-17.337929900000002],[-66.2234973,-17.3379419],[-66.222548,-17.3382684],[-66.2223622,-17.3383347],[-66.2213502,-17.3386482],[-66.2210728,-17.3378443],[-66.22084980000001,-17.3371931],[-66.2207108,-17.3367642],[-66.22046130000001,-17.336007600000002],[-66.2204306,-17.3359121],[-66.2203999,-17.335816700000002],[-66.2203764,-17.335743700000002],[-66.2203039,-17.335533],[-66.22027410000001,-17.335440600000002],[-66.22024440000001,-17.335348200000002],[-66.2201855,-17.335365900000003],[-66.22011350000001,-17.335387500000003],[-66.219116,-17.335645900000003],[-66.21902200000001,-17.335671700000002],[-66.2189532,-17.335690600000003],[-66.21922690000001,-17.336589],[-66.21870080000001,-17.3367605],[-66.2178197,-17.337140100000003],[-66.217149,-17.337388100000002],[-66.21653620000001,-17.337603],[-66.21584490000001,-17.3378175],[-66.21573710000001,-17.3378546],[-66.2155128,-17.3379204],[-66.21494790000001,-17.3380972],[-66.2151786,-17.3389683],[-66.2152114,-17.339105200000002],[-66.2154845,-17.3404978],[-66.21549800000001,-17.340585400000002],[-66.21542620000001,-17.340610100000003],[-66.2143901,-17.3409911],[-66.21426140000001,-17.341030800000002],[-66.2141093,-17.3410933],[-66.2140047,-17.341171600000003],[-66.21382100000001,-17.341241800000002],[-66.21379160000001,-17.3412532],[-66.2137019,-17.3412961],[-66.2136206,-17.341325400000002],[-66.2134291,-17.3413925],[-66.2133654,-17.3414171],[-66.213119,-17.341512400000003],[-66.212918,-17.3415901],[-66.2124306,-17.341802400000002],[-66.212404,-17.341814000000003],[-66.21222300000001,-17.3419047],[-66.2121759,-17.3419282],[-66.2112055,-17.342447800000002],[-66.2110347,-17.342532100000003],[-66.2086319,-17.3436059],[-66.20856260000001,-17.3436348],[-66.2079192,-17.343902500000002],[-66.20784180000001,-17.3439374],[-66.2072476,-17.344183100000002],[-66.20697790000001,-17.3443003],[-66.2068557,-17.344352400000002],[-66.2064436,-17.3445009],[-66.2062535,-17.3445722],[-66.20619590000001,-17.344600800000002],[-66.2061006,-17.344643100000003],[-66.2058889,-17.344739800000003],[-66.20549940000001,-17.3449178],[-66.2050749,-17.3450618],[-66.2049133,-17.3451279],[-66.20431160000001,-17.3453634],[-66.20421440000001,-17.3453991],[-66.2041561,-17.345428700000003],[-66.2036611,-17.345667000000002],[-66.20338260000001,-17.3458024],[-66.20299370000001,-17.345991400000003],[-66.20270570000001,-17.346128200000003],[-66.2025158,-17.3462099],[-66.2023733,-17.346272300000003],[-66.20228680000001,-17.346308500000003],[-66.2011817,-17.346754800000003],[-66.20052360000001,-17.347033000000003],[-66.20031180000001,-17.3471131],[-66.19996730000001,-17.347256100000003],[-66.1999066,-17.3472805],[-66.19980190000001,-17.347321100000002],[-66.19969590000001,-17.3473615],[-66.1986244,-17.3478087],[-66.19838870000001,-17.3479038],[-66.19754520000001,-17.3482488],[-66.1969189,-17.348508300000002],[-66.1966774,-17.348621100000003],[-66.1965222,-17.348697700000002],[-66.1959066,-17.3490435],[-66.1946996,-17.349671200000003],[-66.19416740000001,-17.349962100000003],[-66.1939153,-17.3500999],[-66.19352020000001,-17.350315900000002],[-66.193244,-17.3504752],[-66.1929365,-17.3506544],[-66.1926213,-17.350860400000002],[-66.19237190000001,-17.351023400000003],[-66.19228960000001,-17.351078700000002],[-66.19200620000001,-17.351265],[-66.1917342,-17.351451800000003],[-66.19154370000001,-17.3515827],[-66.19133240000001,-17.3517395],[-66.19074660000001,-17.3521766],[-66.19071380000001,-17.352201100000002],[-66.1899628,-17.352810400000003],[-66.18987410000001,-17.3528787],[-66.1897727,-17.352958],[-66.18898610000001,-17.3535872],[-66.18892070000001,-17.3536392],[-66.18808630000001,-17.3542805],[-66.18784930000001,-17.354472],[-66.18776480000001,-17.3545343],[-66.1877324,-17.3545599],[-66.18766620000001,-17.3546102],[-66.1876366,-17.3546327],[-66.1875869,-17.3546705],[-66.18752660000001,-17.354717800000003],[-66.187126,-17.355032700000002],[-66.1866871,-17.355377100000002],[-66.185658,-17.3561774],[-66.1856109,-17.356214],[-66.18507460000001,-17.3565958],[-66.18493600000001,-17.356710500000002],[-66.1848006,-17.356830600000002],[-66.18473010000001,-17.3569011],[-66.18464680000001,-17.3570138],[-66.18407730000001,-17.3578876],[-66.1833082,-17.3589644],[-66.18325080000001,-17.359028400000003],[-66.18319770000001,-17.359096700000002],[-66.1831341,-17.3591824],[-66.1830695,-17.3592918],[-66.1826633,-17.3601208],[-66.1821207,-17.3612509],[-66.1820694,-17.3613293],[-66.18176360000001,-17.3618311],[-66.1814995,-17.36224],[-66.18144530000001,-17.3623112],[-66.18139070000001,-17.3623714],[-66.18124610000001,-17.3625434],[-66.1810592,-17.362773400000002],[-66.18088560000001,-17.3629293],[-66.1806538,-17.3631396],[-66.1804759,-17.3632776],[-66.1799864,-17.3636602],[-66.1796769,-17.3638997],[-66.17946330000001,-17.364045],[-66.1793056,-17.364144800000002],[-66.17900110000001,-17.364309600000002],[-66.17887300000001,-17.3643769],[-66.17875830000001,-17.3644371],[-66.1786344,-17.3644825],[-66.1785679,-17.3645046],[-66.1785234,-17.364518500000003],[-66.178408,-17.3645546],[-66.1783719,-17.3645654],[-66.178284,-17.3645885],[-66.1779812,-17.3646935],[-66.17679550000001,-17.365051400000002],[-66.17675750000001,-17.3650629],[-66.1766743,-17.3650875],[-66.17654390000001,-17.3651266],[-66.1764768,-17.3651467],[-66.1751548,-17.3655435],[-66.17501410000001,-17.3655887],[-66.17491840000001,-17.3656146],[-66.1748031,-17.3656383],[-66.17332370000001,-17.365739700000002],[-66.17186410000001,-17.365821],[-66.17179660000001,-17.365824800000002],[-66.17157750000001,-17.365839100000002],[-66.1714925,-17.3658447],[-66.1714101,-17.365849100000002],[-66.1712985,-17.3658629],[-66.1711497,-17.3658979],[-66.17111700000001,-17.3659059],[-66.17094610000001,-17.365956200000003],[-66.1706407,-17.366046100000002],[-66.17048530000001,-17.3660898],[-66.1703409,-17.3661184],[-66.17023010000001,-17.366128600000003],[-66.17010060000001,-17.3661299],[-66.1699469,-17.3661229],[-66.16978320000001,-17.366104500000002],[-66.1696172,-17.366076600000003],[-66.16949810000001,-17.3660445],[-66.16943230000001,-17.3660214],[-66.1693403,-17.3659874],[-66.16904770000001,-17.3658885],[-66.1688934,-17.365851900000003],[-66.1687179,-17.3658213],[-66.16863550000001,-17.3658171],[-66.16856510000001,-17.3658135],[-66.1682722,-17.3657976],[-66.1679002,-17.3657773],[-66.1678124,-17.365780100000002],[-66.167736,-17.365787500000003],[-66.16768,-17.365801],[-66.1676156,-17.3658199],[-66.16754920000001,-17.3658444],[-66.167449,-17.3658858],[-66.1672959,-17.3659658],[-66.16703550000001,-17.366116400000003],[-66.16694960000001,-17.366166],[-66.1668968,-17.3661974],[-66.1666857,-17.366323],[-66.16650630000001,-17.3664424],[-66.16610320000001,-17.3667279],[-66.16589130000001,-17.366882],[-66.1658373,-17.3669237],[-66.16514210000001,-17.367425700000002],[-66.16424930000001,-17.368057500000003],[-66.1641573,-17.368131400000003],[-66.16408750000001,-17.368199800000003],[-66.16405920000001,-17.368240500000002],[-66.16404370000001,-17.368284000000003],[-66.164057,-17.3683599],[-66.1640552,-17.368423800000002],[-66.16405280000001,-17.3684526],[-66.16403910000001,-17.3685209],[-66.16401450000001,-17.3685864],[-66.1639797,-17.368647600000003],[-66.1639354,-17.3687028],[-66.16388260000001,-17.3687505],[-66.1638262,-17.368815700000003],[-66.16379690000001,-17.368860700000003],[-66.1637566,-17.368920900000003],[-66.16373390000001,-17.368975000000002],[-66.1635894,-17.3694995],[-66.1633104,-17.3704268],[-66.1632793,-17.3705342],[-66.16306060000001,-17.3712905],[-66.1629707,-17.371601300000002],[-66.1629631,-17.371627500000002],[-66.1628606,-17.371981700000003],[-66.1627881,-17.372232500000003],[-66.16274150000001,-17.3723846],[-66.16272430000001,-17.372448600000002],[-66.16269750000001,-17.372548400000003],[-66.16267380000001,-17.3726282],[-66.1626655,-17.372657],[-66.16264690000001,-17.372714700000003],[-66.16248470000001,-17.373272200000002],[-66.1623417,-17.373760800000003],[-66.1619469,-17.3751099],[-66.1619132,-17.375219700000002],[-66.1618519,-17.375428900000003],[-66.1618315,-17.3754986],[-66.1615816,-17.376351300000003],[-66.16157550000001,-17.3763721],[-66.1615553,-17.3764448],[-66.1615333,-17.376519400000003],[-66.1613573,-17.377116700000002],[-66.16110040000001,-17.377993200000002],[-66.1610869,-17.378041200000002],[-66.1610775,-17.3780745],[-66.1610462,-17.3781873],[-66.1610272,-17.3782558],[-66.16095920000001,-17.3784883],[-66.16094240000001,-17.3785457],[-66.16081120000001,-17.378994300000002],[-66.1607831,-17.3790903],[-66.1607443,-17.379223200000002],[-66.16042150000001,-17.380326800000002],[-66.16039520000001,-17.380427100000002],[-66.1603946,-17.380447],[-66.1603903,-17.380538400000002],[-66.16040260000001,-17.3806234],[-66.16042920000001,-17.380705300000002],[-66.16044600000001,-17.380753300000002],[-66.1604502,-17.3808037],[-66.1604418,-17.380853600000002],[-66.16042110000001,-17.3809001],[-66.1603894,-17.380940600000002],[-66.16034830000001,-17.381026300000002],[-66.1603242,-17.3810949],[-66.16030110000001,-17.381163100000002],[-66.1602836,-17.3812089],[-66.16026480000001,-17.381271400000003],[-66.1602553,-17.381306000000002],[-66.16014910000001,-17.381663200000002],[-66.1601392,-17.381699],[-66.16011800000001,-17.3817783],[-66.16010680000001,-17.3818443],[-66.1600997,-17.381917100000003],[-66.1601024,-17.3820084],[-66.16012400000001,-17.3821361],[-66.1601469,-17.382213200000002],[-66.1601468,-17.382292600000003],[-66.16014030000001,-17.382329000000002],[-66.1601337,-17.3823653],[-66.1601052,-17.382432700000003],[-66.16004910000001,-17.3824933],[-66.1599485,-17.3825638],[-66.1598111,-17.382667100000003],[-66.1597435,-17.3827412],[-66.15965130000001,-17.382865300000002],[-66.1596135,-17.382944700000003],[-66.1595022,-17.3830911],[-66.15933860000001,-17.3833062],[-66.1593007,-17.383356000000003],[-66.1591066,-17.383611400000003],[-66.15899590000001,-17.383757000000003],[-66.15888650000001,-17.3839009],[-66.15884720000001,-17.3839526],[-66.15880410000001,-17.3840085],[-66.1587884,-17.3840289],[-66.1586145,-17.3842548],[-66.1584148,-17.384514000000003],[-66.1583937,-17.3845414],[-66.1583738,-17.384566900000003],[-66.1582879,-17.3846768],[-66.1580811,-17.384947200000003],[-66.1579708,-17.385071800000002],[-66.1579598,-17.385085800000002],[-66.15793570000001,-17.385117800000003],[-66.1578614,-17.3852154],[-66.15776070000001,-17.385338800000003],[-66.15750840000001,-17.385662800000002],[-66.1568608,-17.38651],[-66.15681000000001,-17.386619900000003],[-66.15674480000001,-17.3866577],[-66.15646240000001,-17.3870295],[-66.15606650000001,-17.387550800000003],[-66.1560532,-17.3875977],[-66.15605020000001,-17.387648700000003],[-66.1560494,-17.387709700000002],[-66.15629790000001,-17.3877537],[-66.156277,-17.3878777],[-66.15621420000001,-17.388445100000002],[-66.156169,-17.388719100000003],[-66.1561573,-17.388816000000002],[-66.156146,-17.3888821],[-66.15598920000001,-17.3898061],[-66.15597840000001,-17.389865200000003],[-66.1559742,-17.3898905],[-66.15597140000001,-17.389909000000003],[-66.15579980000001,-17.3909053],[-66.155613,-17.391912100000003],[-66.1556012,-17.3919776],[-66.1555632,-17.3920663],[-66.1555496,-17.392136500000003],[-66.1554947,-17.392419],[-66.15538670000001,-17.3929748],[-66.15538000000001,-17.3930094],[-66.1553734,-17.3930447],[-66.15527250000001,-17.393581400000002],[-66.15519330000001,-17.3940026],[-66.15518510000001,-17.394046200000002],[-66.15519040000001,-17.3941103],[-66.1551015,-17.394555200000003],[-66.155099,-17.394568900000003],[-66.155095,-17.394591000000002],[-66.1550466,-17.394856100000002],[-66.15501400000001,-17.3950347],[-66.1550064,-17.395067700000002],[-66.15483710000001,-17.3959195],[-66.1548104,-17.396052700000002],[-66.1547941,-17.3961338],[-66.1546703,-17.396757800000003],[-66.15457980000001,-17.3971915],[-66.15441750000001,-17.3980992],[-66.15438900000001,-17.3982226],[-66.1542283,-17.398992900000003],[-66.1542062,-17.399083700000002],[-66.1540449,-17.3999995],[-66.1539303,-17.400709300000003],[-66.15521820000001,-17.400649100000003],[-66.15527080000001,-17.4006495],[-66.1561989,-17.4007931],[-66.1567358,-17.4008781],[-66.15739280000001,-17.400973800000003]],"nodes":[783884177,783870695,11070075276,783870825,783869506,11070075277,783870275,11070075278,784239190,783869328,783869490,783871006,7571931321,5127828556,783868914,783870444,3956143843,783869115,11370209272,783870646,783871028,5127828567,785461571,2563978183,783870201,2563978179,783869266,10290646849,783869654,783871190,783868834,2563978168,2563978163,783869811,2563978161,783869426,2563978147,783869572,2563978139,2563978136,783871122,2563978133,2563978132,783869020,2563978134,11074138879,2563978144,785462400,11836091849,783870536,2981937098,2981937104,10817709776,10817709782,6407741484,2981937110,5852304235,783870701,5852304234,785461700,5852304232,5852304233,3139524543,5852304231,785462425,785461940,5852304230,3137832328,785461591,3137832326,5852304229,785462338,5981393002,5852303982,785461875,12031386978,3139524558,785462689,3139524562,4012877364,6991210247,785462530,11953310109,11953310107,785462016,5676566960,4012877365,785461555,10595817775,2459025856,785462303,3137832371,11953310134,3283363595,11953310137,2459025917,2459025918,785461948,10173070425,12032271955,3137832377,3137832375,785461483,3137832374,12032271952,2459025919,785462228,12364355075,4143105645,5411561631,786837353,3137832397,785462382,4143105649,785461916,786837251,12639720439,785462755,3137832402,785462194,786837262,12639720438,3139141372,12639720437,5673237538,3137832407,3137832408,3139141375,4113102044,786837442,786697457,786837198,786837062,786837345,9762478513,12641085490,12641085489,786837306,9762478514,12641085470,786837427,9206484610,9206484611,9762478515,6468803218,786837109,4583317531,3139141357,786837404,786837102,6366559237,8920823234,786837209,8920823233,786837374,4696673569,786837139,4583308774,789378943,7212444518,7212444517,786837367,6335462521,3139141416,3139141422,6335462522,3139141424,786837132,3139141426,4583308780,9903373357,789429412,4143105665,786837419,786837304,4231190578,3139141532,786837158,3139141541,12639791582,8921352622,8542797897,4319053283,8228333119,8228327808,4232319967,8921352624,3139141548,786837049,12639797709,786837335,10286957085,786837188,8921352626,851595223,4092054738,4826368371,9421257730,5423606637,1849462822,4826368384,4092053658,1573956127,11079404847,2317801102,2938504605,2938504607,3281552574,3281552575,8336001235,1573955997,5395813233,1577578193,2317801105,851594958,2317801107,1849462862,2938504639,4293894336,4293894903,3549077680,2555201623,1574086933,4293894917,1849462889,5040236968,5040236973,1577578151,3283363688,1849462895,11296295738,1849462897,4092054740,1865014746,1849462899,4503707176,1849462903,2160400899,11535045442,11707600500,851594766,11707600508,11707600537,1849462931,11707600531,2160400887,11071395285,11071395287,2160399194,1849462952,1849462955,3267779271,851594781,1849462957,11071450643,1849462968,2468432986,851594784,3267779294,1849462970,1849462977,851594885,2555201638,1849462984,851595399,11071450645,11070168865,1849462988,851595224,1849462993,3267790091,851595009,1849462996,1849462999,851595124,8927805091,851595343,11071300152,851594756,3658380318,2468433001,11069861999,11069861998,851594726,9175127262,851595044,5262484220,3658380321,851594788,12551721135,3658380322,563279735,563279728,1849463009,1849463010,851595235,10774545005,2331301978,10774545014,3296125249,9845867331,851594830,2290559025,9531771391,9768692252,9529353644,3300171298,2851923904,9768692251,3300171307,2851923908,3300171306,7304392738,9482805073,13161542286,851595381,7304392739,851595065,3275133584,9875778017,851594888,9948774394,2851923697,851595095,9482805148,9875772987,851594793,3275133586,9768692260,9768692261,9875778108,851594812,9875778128,9875778124,2331301984,4929965582,9875778078,851594894,851595276,3674260515,2331302074,2331302094,9655177095,2331302104,7436801323,4261955416,11071382475,7436801327,9003433500,2331302139,2331302155,2331302169,4728105068,1726098719,598151876,9021398260,4728105055,2331302188,9655267009,13778580822,12509888237,5560268904,12509911134,9731395675,2287827715,598151867,599541188,2287827757,10705908990,2287827775,9731395623,11941128474,2538203114,2287827791,8587411318,2370240939,11997866376,9797631610,689437336,11997826500,2296580487,2296580493,598151865,13735210081,13735210080,2296580502,12409937736,11079100480,11079057399,11079105205,11079057401,598151864,9309922472,2296580751,2296580762,2296580773,2296580797,2296580808,8356437270,2296580827,2296580841,2296580860,2745674359,8356393909,2296580889,8356393896,8356393898,315120853,1636934221,8362746232,2296580913,8362746230,315121330,2312198087,315121318,315123534,315121319,10859658790,315123540,315121320,315121321,315121322,315121324,315121326,315032954,315122225,2312198310,8498956719,315120406,2312198349,12410976762,2312198364,843382865,2686119186,9141014729,9141014739,8147646008,12361931195,12361931196,2316430803,1718842329,2316430856,10839957166,2900514433,2900514438,8267963999,8365550317,2316430973,315033203,2296981998,10996487166,315032956,8326919828,2296982079,319768764,8326914441,2296982114,10684678844,2294524811,310501185,10277111390,3719465036,310501174,7919097345,3719465037,308306725,2292218212,303218729,698492394,2292218219,10687188399,10687188393,310256406,10687188391,9884051885,10905861520,303217862,8964738169,4933190239,8677785869,315103268,8677779505,2681342488,310281529,7693322181,3719465042,310500546,8241410049,310500793,9905231737,310501002,1727306400,310503081,310503082,310503083,310503058,12206377735,310502882,323978402,4929965587]},"gtfs":{"agency_id":5,"route_id":10,"services":[{"service_id":"Mo-Su","startTime":"06:00","endTime":"22:00","trip_id":4480208}],"filteredStops":{"nodes":[783884177,783870695,11070075276,783870825,783869506,11070075277,783870275,11070075278,784239190,783869328,783869490,783871006,7571931321,5127828556,783868914,783870444,3956143843,783869115,11370209272,783870646,783871028,5127828567,785461571,2563978183,783870201,2563978179,783869266,10290646849,783869654,783871190,783868834,2563978168,2563978163,783869811,2563978161,783869426,2563978147,783869572,2563978139,2563978136,783871122,2563978133,2563978132,783869020,2563978134,11074138879,2563978144,785462400,11836091849,783870536,2981937098,2981937104,10817709776,10817709782,6407741484,2981937110,5852304235,783870701,5852304234,785461700,5852304232,5852304233,3139524543,5852304231,785462425,785461940,5852304230,3137832328,785461591,3137832326,5852304229,785462338,5981393002,5852303982,785461875,12031386978,3139524558,785462689,3139524562,4012877364,6991210247,785462530,11953310109,11953310107,785462016,5676566960,4012877365,785461555,10595817775,2459025856,785462303,3137832371,11953310134,3283363595,11953310137,2459025917,2459025918,785461948,10173070425,12032271955,3137832377,3137832375,785461483,3137832374,12032271952,2459025919,785462228,12364355075,4143105645,5411561631,786837353,3137832397,785462382,4143105649,785461916,786837251,12639720439,785462755,3137832402,785462194,786837262,12639720438,3139141372,12639720437,5673237538,3137832407,3137832408,3139141375,4113102044,786837442,786697457,786837198,786837062,786837345,9762478513,12641085490,12641085489,786837306,9762478514,12641085470,786837427,9206484610,9206484611,9762478515,6468803218,786837109,4583317531,3139141357,786837404,786837102,6366559237,8920823234,786837209,8920823233,786837374,4696673569,786837139,4583308774,789378943,7212444518,7212444517,786837367,6335462521,3139141416,3139141422,6335462522,3139141424,786837132,3139141426,4583308780,9903373357,789429412,4143105665,786837419,786837304,4231190578,3139141532,786837158,3139141541,12639791582,8921352622,8542797897,4319053283,8228333119,8228327808,4232319967,8921352624,3139141548,786837049,12639797709,786837335,10286957085,786837188,8921352626,851595223,4092054738,4826368371,9421257730,5423606637,1849462822,4826368384,4092053658,1573956127,11079404847,2317801102,2938504605,2938504607,3281552574,3281552575,8336001235,1573955997,5395813233,1577578193,2317801105,851594958,2317801107,1849462862,2938504639,4293894336,4293894903,3549077680,2555201623,1574086933,4293894917,1849462889,5040236968,5040236973,1577578151,3283363688,1849462895,11296295738,1849462897,4092054740,1865014746,1849462899,4503707176,1849462903,2160400899,11535045442,11707600500,851594766,11707600508,11707600537,1849462931,11707600531,2160400887,11071395285,11071395287,2160399194,1849462952,1849462955,3267779271,851594781,1849462957,11071450643,1849462968,2468432986,851594784,3267779294,1849462970,1849462977,851594885,2555201638,1849462984,851595399,11071450645,11070168865,1849462988,851595224,1849462993,3267790091,851595009,1849462996,1849462999,851595124,8927805091,851595343,11071300152,851594756,3658380318,2468433001,11069861999,11069861998,851594726,9175127262,851595044,5262484220,3658380321,851594788,12551721135,3658380322,563279735,563279728,1849463009,1849463010,851595235,10774545005,2331301978,10774545014,3296125249,9845867331,851594830,2290559025,9531771391,9768692252,9529353644,3300171298,2851923904,9768692251,3300171307,2851923908,3300171306,7304392738,9482805073,13161542286,851595381,7304392739,851595065,3275133584,9875778017,851594888,9948774394,2851923697,851595095,9482805148,9875772987,851594793,3275133586,9768692260,9768692261,9875778108,851594812,9875778128,9875778124,2331301984,4929965582,9875778078,851594894,851595276,3674260515,2331302074,2331302094,9655177095,2331302104,7436801323,4261955416,11071382475,7436801327,9003433500,2331302139,2331302155,2331302169,4728105068,1726098719,598151876,9021398260,4728105055,2331302188,9655267009,13778580822,12509888237,5560268904,12509911134,9731395675,2287827715,598151867,599541188,2287827757,10705908990,2287827775,9731395623,11941128474,2538203114,2287827791,8587411318,2370240939,11997866376,9797631610,689437336,11997826500,2296580487,2296580493,598151865,13735210081,13735210080,2296580502,12409937736,11079100480,11079057399,11079105205,11079057401,598151864,9309922472,2296580751,2296580762,2296580773,2296580797,2296580808,8356437270,2296580827,2296580841,2296580860,2745674359,8356393909,2296580889,8356393896,8356393898,315120853,1636934221,8362746232,2296580913,8362746230,315121330,2312198087,315121318,315123534,315121319,10859658790,315123540,315121320,315121321,315121322,315121324,315121326,315032954,315122225,2312198310,8498956719,315120406,2312198349,12410976762,2312198364,843382865,2686119186,9141014729,9141014739,8147646008,12361931195,12361931196,2316430803,1718842329,2316430856,10839957166,2900514433,2900514438,8267963999,8365550317,2316430973,315033203,2296981998,10996487166,315032956,8326919828,2296982079,319768764,8326914441,2296982114,10684678844,2294524811,310501185,10277111390,3719465036,310501174,7919097345,3719465037,308306725,2292218212,303218729,698492394,2292218219,10687188399,10687188393,310256406,10687188391,9884051885,10905861520,303217862,8964738169,4933190239,8677785869,315103268,8677779505,2681342488,310281529,7693322181,3719465042,310500546,8241410049,310500793,9905231737,310501002,1727306400,310503081,310503082,310503083,310503058,12206377735,310502882,323978402,4929965587],"coordinates":[[-66.2651124,-17.3377786],[-66.2638349,-17.3377862],[-66.263743,-17.3377744],[-66.2634123,-17.337682100000002],[-66.26236580000001,-17.336950100000003],[-66.2616026,-17.336484000000002],[-66.2615162,-17.3364367],[-66.2614176,-17.3364225],[-66.26038770000001,-17.3364113],[-66.25998770000001,-17.336406200000003],[-66.2594054,-17.3363455],[-66.258356,-17.336233800000002],[-66.25824990000001,-17.3362374],[-66.2570858,-17.335871200000003],[-66.25615760000001,-17.3355292],[-66.25603050000001,-17.3354535],[-66.2550015,-17.334629600000003],[-66.2549185,-17.3345102],[-66.2547761,-17.334405800000003],[-66.25451530000001,-17.334231000000003],[-66.25422280000001,-17.333998400000002],[-66.25399440000001,-17.3338129],[-66.25367650000001,-17.333550300000002],[-66.25357430000001,-17.333450600000003],[-66.2534409,-17.3334148],[-66.2528159,-17.3331319],[-66.25215150000001,-17.3328595],[-66.25185950000001,-17.332748300000002],[-66.25151620000001,-17.3326187],[-66.2510747,-17.3324874],[-66.25054700000001,-17.3323605],[-66.2501737,-17.3321748],[-66.2499315,-17.3319578],[-66.249795,-17.3317209],[-66.24964560000001,-17.331515000000003],[-66.2476455,-17.3294444],[-66.24754970000001,-17.3293645],[-66.24695050000001,-17.3289492],[-66.2468242,-17.328882800000002],[-66.24675640000001,-17.3288534],[-66.24668030000001,-17.328823500000002],[-66.24654960000001,-17.3287967],[-66.24645170000001,-17.328786400000002],[-66.2463275,-17.328787000000002],[-66.24619000000001,-17.3288003],[-66.2441404,-17.329086200000003],[-66.24357110000001,-17.329165600000003],[-66.24345810000001,-17.329150700000003],[-66.2424975,-17.3292891],[-66.2422873,-17.329319400000003],[-66.24221490000001,-17.3293466],[-66.24165590000001,-17.3296716],[-66.2412223,-17.3299422],[-66.2410985,-17.330025300000003],[-66.2408625,-17.3301838],[-66.24060440000001,-17.330315300000002],[-66.24054620000001,-17.3303629],[-66.2404956,-17.3304438],[-66.24045650000001,-17.3306042],[-66.2404922,-17.3312342],[-66.24047200000001,-17.3312901],[-66.2404473,-17.3313647],[-66.2403515,-17.3315312],[-66.2400885,-17.331811700000003],[-66.2399128,-17.331963400000003],[-66.23968400000001,-17.332028],[-66.23938340000001,-17.332044200000002],[-66.23916720000001,-17.3320176],[-66.2388159,-17.331962700000002],[-66.238737,-17.331977700000003],[-66.238605,-17.3320104],[-66.2384792,-17.3320459],[-66.23800720000001,-17.332368600000002],[-66.2375193,-17.3327186],[-66.237378,-17.3328504],[-66.237288,-17.3329367],[-66.2372534,-17.3329783],[-66.2370291,-17.3332695],[-66.23697630000001,-17.333322600000002],[-66.23655360000001,-17.333665200000002],[-66.2364768,-17.333715100000003],[-66.23635230000001,-17.3338001],[-66.23616100000001,-17.3339488],[-66.2358403,-17.3341783],[-66.235674,-17.334297300000003],[-66.2354593,-17.3344105],[-66.2349772,-17.334640500000003],[-66.2341526,-17.334968500000002],[-66.2340255,-17.3350186],[-66.23365310000001,-17.335114800000003],[-66.23250180000001,-17.3353825],[-66.231486,-17.3357944],[-66.23094040000001,-17.3360118],[-66.23089680000001,-17.3360291],[-66.2308077,-17.3360665],[-66.2307475,-17.336091800000002],[-66.23068620000001,-17.336113500000003],[-66.23054280000001,-17.336173000000002],[-66.2300428,-17.336123],[-66.2299588,-17.3361103],[-66.2298748,-17.336097600000002],[-66.22975360000001,-17.336087000000003],[-66.22967340000001,-17.3360828],[-66.22960400000001,-17.336084600000003],[-66.22951690000001,-17.336096],[-66.2293789,-17.3361151],[-66.22907020000001,-17.3362109],[-66.22901110000001,-17.336229200000002],[-66.22897950000001,-17.336239300000003],[-66.2287543,-17.3363267],[-66.22790520000001,-17.3367483],[-66.22745900000001,-17.336910000000003],[-66.2270302,-17.337087200000003],[-66.22688600000001,-17.3371418],[-66.2265007,-17.3372591],[-66.2262982,-17.3372768],[-66.2261548,-17.3372828],[-66.22592320000001,-17.337294],[-66.2256747,-17.3373136],[-66.2254528,-17.337356300000003],[-66.22456770000001,-17.337628600000002],[-66.2240422,-17.3377871],[-66.22387330000001,-17.337838400000003],[-66.2237942,-17.3378614],[-66.22368850000001,-17.3378923],[-66.2236493,-17.337902200000002],[-66.2235488,-17.337929900000002],[-66.2234973,-17.3379419],[-66.222548,-17.3382684],[-66.2223622,-17.3383347],[-66.2213502,-17.3386482],[-66.2210728,-17.3378443],[-66.22084980000001,-17.3371931],[-66.2207108,-17.3367642],[-66.22046130000001,-17.336007600000002],[-66.2204306,-17.3359121],[-66.2203999,-17.335816700000002],[-66.2203764,-17.335743700000002],[-66.2203039,-17.335533],[-66.22027410000001,-17.335440600000002],[-66.22024440000001,-17.335348200000002],[-66.2201855,-17.335365900000003],[-66.22011350000001,-17.335387500000003],[-66.219116,-17.335645900000003],[-66.21902200000001,-17.335671700000002],[-66.2189532,-17.335690600000003],[-66.21922690000001,-17.336589],[-66.21870080000001,-17.3367605],[-66.2178197,-17.337140100000003],[-66.217149,-17.337388100000002],[-66.21653620000001,-17.337603],[-66.21584490000001,-17.3378175],[-66.21573710000001,-17.3378546],[-66.2155128,-17.3379204],[-66.21494790000001,-17.3380972],[-66.2151786,-17.3389683],[-66.2152114,-17.339105200000002],[-66.2154845,-17.3404978],[-66.21549800000001,-17.340585400000002],[-66.21542620000001,-17.340610100000003],[-66.2143901,-17.3409911],[-66.21426140000001,-17.341030800000002],[-66.2141093,-17.3410933],[-66.2140047,-17.341171600000003],[-66.21382100000001,-17.341241800000002],[-66.21379160000001,-17.3412532],[-66.2137019,-17.3412961],[-66.2136206,-17.341325400000002],[-66.2134291,-17.3413925],[-66.2133654,-17.3414171],[-66.213119,-17.341512400000003],[-66.212918,-17.3415901],[-66.2124306,-17.341802400000002],[-66.212404,-17.341814000000003],[-66.21222300000001,-17.3419047],[-66.2121759,-17.3419282],[-66.2112055,-17.342447800000002],[-66.2110347,-17.342532100000003],[-66.2086319,-17.3436059],[-66.20856260000001,-17.3436348],[-66.2079192,-17.343902500000002],[-66.20784180000001,-17.3439374],[-66.2072476,-17.344183100000002],[-66.20697790000001,-17.3443003],[-66.2068557,-17.344352400000002],[-66.2064436,-17.3445009],[-66.2062535,-17.3445722],[-66.20619590000001,-17.344600800000002],[-66.2061006,-17.344643100000003],[-66.2058889,-17.344739800000003],[-66.20549940000001,-17.3449178],[-66.2050749,-17.3450618],[-66.2049133,-17.3451279],[-66.20431160000001,-17.3453634],[-66.20421440000001,-17.3453991],[-66.2041561,-17.345428700000003],[-66.2036611,-17.345667000000002],[-66.20338260000001,-17.3458024],[-66.20299370000001,-17.345991400000003],[-66.20270570000001,-17.346128200000003],[-66.2025158,-17.3462099],[-66.2023733,-17.346272300000003],[-66.20228680000001,-17.346308500000003],[-66.2011817,-17.346754800000003],[-66.20052360000001,-17.347033000000003],[-66.20031180000001,-17.3471131],[-66.19996730000001,-17.347256100000003],[-66.1999066,-17.3472805],[-66.19980190000001,-17.347321100000002],[-66.19969590000001,-17.3473615],[-66.1986244,-17.3478087],[-66.19838870000001,-17.3479038],[-66.19754520000001,-17.3482488],[-66.1969189,-17.348508300000002],[-66.1966774,-17.348621100000003],[-66.1965222,-17.348697700000002],[-66.1959066,-17.3490435],[-66.1946996,-17.349671200000003],[-66.19416740000001,-17.349962100000003],[-66.1939153,-17.3500999],[-66.19352020000001,-17.350315900000002],[-66.193244,-17.3504752],[-66.1929365,-17.3506544],[-66.1926213,-17.350860400000002],[-66.19237190000001,-17.351023400000003],[-66.19228960000001,-17.351078700000002],[-66.19200620000001,-17.351265],[-66.1917342,-17.351451800000003],[-66.19154370000001,-17.3515827],[-66.19133240000001,-17.3517395],[-66.19074660000001,-17.3521766],[-66.19071380000001,-17.352201100000002],[-66.1899628,-17.352810400000003],[-66.18987410000001,-17.3528787],[-66.1897727,-17.352958],[-66.18898610000001,-17.3535872],[-66.18892070000001,-17.3536392],[-66.18808630000001,-17.3542805],[-66.18784930000001,-17.354472],[-66.18776480000001,-17.3545343],[-66.1877324,-17.3545599],[-66.18766620000001,-17.3546102],[-66.1876366,-17.3546327],[-66.1875869,-17.3546705],[-66.18752660000001,-17.354717800000003],[-66.187126,-17.355032700000002],[-66.1866871,-17.355377100000002],[-66.185658,-17.3561774],[-66.1856109,-17.356214],[-66.18507460000001,-17.3565958],[-66.18493600000001,-17.356710500000002],[-66.1848006,-17.356830600000002],[-66.18473010000001,-17.3569011],[-66.18464680000001,-17.3570138],[-66.18407730000001,-17.3578876],[-66.1833082,-17.3589644],[-66.18325080000001,-17.359028400000003],[-66.18319770000001,-17.359096700000002],[-66.1831341,-17.3591824],[-66.1830695,-17.3592918],[-66.1826633,-17.3601208],[-66.1821207,-17.3612509],[-66.1820694,-17.3613293],[-66.18176360000001,-17.3618311],[-66.1814995,-17.36224],[-66.18144530000001,-17.3623112],[-66.18139070000001,-17.3623714],[-66.18124610000001,-17.3625434],[-66.1810592,-17.362773400000002],[-66.18088560000001,-17.3629293],[-66.1806538,-17.3631396],[-66.1804759,-17.3632776],[-66.1799864,-17.3636602],[-66.1796769,-17.3638997],[-66.17946330000001,-17.364045],[-66.1793056,-17.364144800000002],[-66.17900110000001,-17.364309600000002],[-66.17887300000001,-17.3643769],[-66.17875830000001,-17.3644371],[-66.1786344,-17.3644825],[-66.1785679,-17.3645046],[-66.1785234,-17.364518500000003],[-66.178408,-17.3645546],[-66.1783719,-17.3645654],[-66.178284,-17.3645885],[-66.1779812,-17.3646935],[-66.17679550000001,-17.365051400000002],[-66.17675750000001,-17.3650629],[-66.1766743,-17.3650875],[-66.17654390000001,-17.3651266],[-66.1764768,-17.3651467],[-66.1751548,-17.3655435],[-66.17501410000001,-17.3655887],[-66.17491840000001,-17.3656146],[-66.1748031,-17.3656383],[-66.17332370000001,-17.365739700000002],[-66.17186410000001,-17.365821],[-66.17179660000001,-17.365824800000002],[-66.17157750000001,-17.365839100000002],[-66.1714925,-17.3658447],[-66.1714101,-17.365849100000002],[-66.1712985,-17.3658629],[-66.1711497,-17.3658979],[-66.17111700000001,-17.3659059],[-66.17094610000001,-17.365956200000003],[-66.1706407,-17.366046100000002],[-66.17048530000001,-17.3660898],[-66.1703409,-17.3661184],[-66.17023010000001,-17.366128600000003],[-66.17010060000001,-17.3661299],[-66.1699469,-17.3661229],[-66.16978320000001,-17.366104500000002],[-66.1696172,-17.366076600000003],[-66.16949810000001,-17.3660445],[-66.16943230000001,-17.3660214],[-66.1693403,-17.3659874],[-66.16904770000001,-17.3658885],[-66.1688934,-17.365851900000003],[-66.1687179,-17.3658213],[-66.16863550000001,-17.3658171],[-66.16856510000001,-17.3658135],[-66.1682722,-17.3657976],[-66.1679002,-17.3657773],[-66.1678124,-17.365780100000002],[-66.167736,-17.365787500000003],[-66.16768,-17.365801],[-66.1676156,-17.3658199],[-66.16754920000001,-17.3658444],[-66.167449,-17.3658858],[-66.1672959,-17.3659658],[-66.16703550000001,-17.366116400000003],[-66.16694960000001,-17.366166],[-66.1668968,-17.3661974],[-66.1666857,-17.366323],[-66.16650630000001,-17.3664424],[-66.16610320000001,-17.3667279],[-66.16589130000001,-17.366882],[-66.1658373,-17.3669237],[-66.16514210000001,-17.367425700000002],[-66.16424930000001,-17.368057500000003],[-66.1641573,-17.368131400000003],[-66.16408750000001,-17.368199800000003],[-66.16405920000001,-17.368240500000002],[-66.16404370000001,-17.368284000000003],[-66.164057,-17.3683599],[-66.1640552,-17.368423800000002],[-66.16405280000001,-17.3684526],[-66.16403910000001,-17.3685209],[-66.16401450000001,-17.3685864],[-66.1639797,-17.368647600000003],[-66.1639354,-17.3687028],[-66.16388260000001,-17.3687505],[-66.1638262,-17.368815700000003],[-66.16379690000001,-17.368860700000003],[-66.1637566,-17.368920900000003],[-66.16373390000001,-17.368975000000002],[-66.1635894,-17.3694995],[-66.1633104,-17.3704268],[-66.1632793,-17.3705342],[-66.16306060000001,-17.3712905],[-66.1629707,-17.371601300000002],[-66.1629631,-17.371627500000002],[-66.1628606,-17.371981700000003],[-66.1627881,-17.372232500000003],[-66.16274150000001,-17.3723846],[-66.16272430000001,-17.372448600000002],[-66.16269750000001,-17.372548400000003],[-66.16267380000001,-17.3726282],[-66.1626655,-17.372657],[-66.16264690000001,-17.372714700000003],[-66.16248470000001,-17.373272200000002],[-66.1623417,-17.373760800000003],[-66.1619469,-17.3751099],[-66.1619132,-17.375219700000002],[-66.1618519,-17.375428900000003],[-66.1618315,-17.3754986],[-66.1615816,-17.376351300000003],[-66.16157550000001,-17.3763721],[-66.1615553,-17.3764448],[-66.1615333,-17.376519400000003],[-66.1613573,-17.377116700000002],[-66.16110040000001,-17.377993200000002],[-66.1610869,-17.378041200000002],[-66.1610775,-17.3780745],[-66.1610462,-17.3781873],[-66.1610272,-17.3782558],[-66.16095920000001,-17.3784883],[-66.16094240000001,-17.3785457],[-66.16081120000001,-17.378994300000002],[-66.1607831,-17.3790903],[-66.1607443,-17.379223200000002],[-66.16042150000001,-17.380326800000002],[-66.16039520000001,-17.380427100000002],[-66.1603946,-17.380447],[-66.1603903,-17.380538400000002],[-66.16040260000001,-17.3806234],[-66.16042920000001,-17.380705300000002],[-66.16044600000001,-17.380753300000002],[-66.1604502,-17.3808037],[-66.1604418,-17.380853600000002],[-66.16042110000001,-17.3809001],[-66.1603894,-17.380940600000002],[-66.16034830000001,-17.381026300000002],[-66.1603242,-17.3810949],[-66.16030110000001,-17.381163100000002],[-66.1602836,-17.3812089],[-66.16026480000001,-17.381271400000003],[-66.1602553,-17.381306000000002],[-66.16014910000001,-17.381663200000002],[-66.1601392,-17.381699],[-66.16011800000001,-17.3817783],[-66.16010680000001,-17.3818443],[-66.1600997,-17.381917100000003],[-66.1601024,-17.3820084],[-66.16012400000001,-17.3821361],[-66.1601469,-17.382213200000002],[-66.1601468,-17.382292600000003],[-66.16014030000001,-17.382329000000002],[-66.1601337,-17.3823653],[-66.1601052,-17.382432700000003],[-66.16004910000001,-17.3824933],[-66.1599485,-17.3825638],[-66.1598111,-17.382667100000003],[-66.1597435,-17.3827412],[-66.15965130000001,-17.382865300000002],[-66.1596135,-17.382944700000003],[-66.1595022,-17.3830911],[-66.15933860000001,-17.3833062],[-66.1593007,-17.383356000000003],[-66.1591066,-17.383611400000003],[-66.15899590000001,-17.383757000000003],[-66.15888650000001,-17.3839009],[-66.15884720000001,-17.3839526],[-66.15880410000001,-17.3840085],[-66.1587884,-17.3840289],[-66.1586145,-17.3842548],[-66.1584148,-17.384514000000003],[-66.1583937,-17.3845414],[-66.1583738,-17.384566900000003],[-66.1582879,-17.3846768],[-66.1580811,-17.384947200000003],[-66.1579708,-17.385071800000002],[-66.1579598,-17.385085800000002],[-66.15793570000001,-17.385117800000003],[-66.1578614,-17.3852154],[-66.15776070000001,-17.385338800000003],[-66.15750840000001,-17.385662800000002],[-66.1568608,-17.38651],[-66.15681000000001,-17.386619900000003],[-66.15674480000001,-17.3866577],[-66.15646240000001,-17.3870295],[-66.15606650000001,-17.387550800000003],[-66.1560532,-17.3875977],[-66.15605020000001,-17.387648700000003],[-66.1560494,-17.387709700000002],[-66.15629790000001,-17.3877537],[-66.156277,-17.3878777],[-66.15621420000001,-17.388445100000002],[-66.156169,-17.388719100000003],[-66.1561573,-17.388816000000002],[-66.156146,-17.3888821],[-66.15598920000001,-17.3898061],[-66.15597840000001,-17.389865200000003],[-66.1559742,-17.3898905],[-66.15597140000001,-17.389909000000003],[-66.15579980000001,-17.3909053],[-66.155613,-17.391912100000003],[-66.1556012,-17.3919776],[-66.1555632,-17.3920663],[-66.1555496,-17.392136500000003],[-66.1554947,-17.392419],[-66.15538670000001,-17.3929748],[-66.15538000000001,-17.3930094],[-66.1553734,-17.3930447],[-66.15527250000001,-17.393581400000002],[-66.15519330000001,-17.3940026],[-66.15518510000001,-17.394046200000002],[-66.15519040000001,-17.3941103],[-66.1551015,-17.394555200000003],[-66.155099,-17.394568900000003],[-66.155095,-17.394591000000002],[-66.1550466,-17.394856100000002],[-66.15501400000001,-17.3950347],[-66.1550064,-17.395067700000002],[-66.15483710000001,-17.3959195],[-66.1548104,-17.396052700000002],[-66.1547941,-17.3961338],[-66.1546703,-17.396757800000003],[-66.15457980000001,-17.3971915],[-66.15441750000001,-17.3980992],[-66.15438900000001,-17.3982226],[-66.1542283,-17.398992900000003],[-66.1542062,-17.399083700000002],[-66.1540449,-17.3999995],[-66.1539303,-17.400709300000003],[-66.15521820000001,-17.400649100000003],[-66.15527080000001,-17.4006495],[-66.1561989,-17.4007931],[-66.1567358,-17.4008781],[-66.15739280000001,-17.400973800000003]]}}},{"type":"Feature","properties":{"bus":"yes","highway":"bus_stop","name":"Parada Trufi 106","public_transport":"platform","id":9159489093},"geometry":{"type":"Point","coordinates":[-66.26511230000001,-17.337814700000003]}},{"type":"Feature","properties":{"bench":"no","bin":"no","highway":"bus_stop","lit":"yes","name":"Cochabamba","public_transport":"platform","shelter":"no","id":4261955411},"geometry":{"type":"Point","coordinates":[-66.2154213,-17.340708600000003]}},{"type":"Feature","properties":{"bench":"no","bin":"no","bus":"yes","highway":"bus_stop","lit":"no","name":"Trojes","public_transport":"platform","shelter":"no","id":4710463752},"geometry":{"type":"Point","coordinates":[-66.2043689,-17.3454035]}},{"type":"Feature","properties":{"bench":"no","bin":"no","bus":"yes","departures_board":"no","highway":"bus_stop","level":"0","lit":"no","name":"Aldeas SOS","public_transport":"platform","shelter":"no","id":4293894337},"geometry":{"type":"Point","coordinates":[-66.1941879,-17.3499956]}},{"type":"Feature","properties":{"bench":"no","bin":"no","bus":"yes","departures_board":"no","highway":"bus_stop","informal":"yes","level":"0","lit":"no","name":"Cruce Taquiña","operator":"Gobierno Autónomo Municipal de Cochabamba","public_transport":"platform","shelter":"no","tactile_paving":"no","wheelchair":"no","id":4710462982},"geometry":{"type":"Point","coordinates":[-66.18790200000001,-17.3545067]}},{"type":"Feature","properties":{"bus":"yes","departures_board":"no","highway":"bus_stop","name":"Beijing","public_transport":"platform","shelter":"no","id":4929965576},"geometry":{"type":"Point","coordinates":[-66.1792336,-17.364284400000003]}},{"type":"Feature","properties":{"bench":"yes","bus":"yes","departures_board":"no","highway":"bus_stop","lit":"no","name":"Casona Mayorazgo","public_transport":"platform","shelter":"yes","id":4261955413},"geometry":{"type":"Point","coordinates":[-66.17531670000001,-17.365538400000002]}},{"type":"Feature","properties":{"bench":"no","bin":"no","bus":"yes","departures_board":"no","highway":"bus_stop","informal":"yes","kerb":"raised","level":"0","lit":"no","name":"Ricardo Jaimes Freire","public_transport":"platform","shelter":"no","tactile_paving":"no","wheelchair":"no","id":4929965580},"geometry":{"type":"Point","coordinates":[-66.1679739,-17.365833300000002]}},{"type":"Feature","properties":{"bench":"no","bin":"no","bus":"yes","departures_board":"no","highway":"bus_stop","informal":"yes","kerb":"raised","lit":"no","name":"Plaza Luis Felipe Guzmán Achá","public_transport":"platform","shelter":"no","tactile_paving":"no","wheelchair":"no","id":9655323870},"geometry":{"type":"Point","coordinates":[-66.16418680000001,-17.368172400000002]}},{"type":"Feature","properties":{"bench":"yes","bin":"no","bus":"yes","departures_board":"no","highway":"bus_stop","kerb":"raised","level":"0","lit":"no","name":"América","operator":"Gobierno Autónomo Municipal de Cochabamba","public_transport":"platform","shelter":"yes","tactile_paving":"no","wheelchair":"no","id":4929965584},"geometry":{"type":"Point","coordinates":[-66.16284560000001,-17.372253100000002]}},{"type":"Feature","properties":{"bench":"yes","bin":"no","bus":"yes","departures_board":"no","highway":"bus_stop","level":"0","lit":"no","name":"Teófilo Vargas","public_transport":"platform","shelter":"yes","tactile_paving":"no","id":2370240952},"geometry":{"type":"Point","coordinates":[-66.16205000000001,-17.3749141]}},{"type":"Feature","properties":{"bench":"yes","bin":"no","bus":"yes","departures_board":"no","highway":"bus_stop","kerb":"raised","level":"0","lit":"no","name":"Juan de la Rosa","operator":"Gobierno Autónomo Municipal de Cochabamba","public_transport":"platform","shelter":"yes","tactile_paving":"no","wheelchair":"no","id":8591667681},"geometry":{"type":"Point","coordinates":[-66.1611938,-17.3778538]}},{"type":"Feature","properties":{"bench":"yes","bin":"no","bus":"yes","departures_board":"no","highway":"bus_stop","kerb":"raised","level":"0","lit":"no","name":"Teniente Arévalo","network":"BO:CB:Cochabamba","operator":"Gobierno Autónomo Municipal de Cochabamba","operator:short":"GAMC","operator:type":"government","public_transport":"platform","shelter":"yes","tactile_paving":"no","wheelchair":"no","id":2381924851},"geometry":{"type":"Point","coordinates":[-66.1594211,-17.3832905]}},{"type":"Feature","properties":{"bench":"yes","bin":"no","bus":"yes","departures_board":"no","highway":"bus_stop","level":"0","lit":"no","name":"La Paz","operator":"Gobierno Autónomo Municipal de Cochabamba","operator:short":"GAMC","operator:type":"government","public_transport":"platform","shelter":"yes","tactile_paving":"no","wheelchair":"yes","id":3283363711},"geometry":{"type":"Point","coordinates":[-66.15815330000001,-17.3849291]}},{"type":"Feature","properties":{"bench":"no","bin":"no","bus":"yes","departures_board":"no","highway":"bus_stop","kerb":"raised","level":"0","lit":"no","name":"Plaza Colón","operator":"Gobierno Autónomo Municipal de Cochabamba","operator:short":"GAMC","operator:type":"government","public_transport":"platform","shelter":"yes","tactile_paving":"no","wheelchair":"no","id":3283363712},"geometry":{"type":"Point","coordinates":[-66.15614950000001,-17.3875281]}},{"type":"Feature","properties":{"bench":"no","bin":"no","bus":"yes","departures_board":"no","highway":"bus_stop","level":"0","lit":"no","name":"Plaza Colón","operator":"Gobierno Autónomo Municipal de Cochabamba","operator:type":"government","pole":"yes","public_transport":"platform","shelter":"no","tactile_paving":"yes","wheelchair":"no","id":5117996890},"geometry":{"type":"Point","coordinates":[-66.1562246,-17.388702900000002]}},{"type":"Feature","properties":{"bench":"no","bin":"no","bus":"yes","departures_board":"no","highway":"bus_stop","level":"0","lit":"no","name":"Teatro Adela Zamudio","operator":"Gobierno Autónomo Municipal de Cochabamba","pole":"yes","public_transport":"platform","shelter":"no","tactile_paving":"yes","wheelchair":"no","id":8907971589},"geometry":{"type":"Point","coordinates":[-66.15567730000001,-17.3918733]}},{"type":"Feature","properties":{"bench":"no","bin":"no","bus":"yes","departures_board":"no","highway":"bus_stop","lit":"no","name":"Jordán","public_transport":"platform","shelter":"no","id":6546789740},"geometry":{"type":"Point","coordinates":[-66.1550797,-17.394951600000002]}},{"type":"Feature","properties":{"bench":"no","bin":"no","bus":"yes","departures_board":"no","highway":"bus_stop","informal":"yes","level":"0","lit":"no","name":"Ayacucho","public_transport":"platform","shelter":"no","tactile_paving":"no","wheelchair":"no","id":4929965586},"geometry":{"type":"Point","coordinates":[-66.15740020000001,-17.400938200000002]}},{"type":"Feature","properties":{"bench":"yes","bin":"no","bus":"yes","departures_board":"no","highway":"bus_stop","level":"0","lit":"no","name":"Obispo Anaya","operator":"Gobierno Autónomo Municipal de Cochabamba","public_transport":"platform","shelter":"yes","tactile_paving":"no","wheelchair":"no","id":2384907360},"geometry":{"type":"Point","coordinates":[-66.1616316,-17.3763349]}},{"type":"Feature","properties":{"bench":"no","bin":"no","bus":"yes","departures_board":"no","highway":"bus_stop","level":"0","lit":"no","name":"Aroma","operator":"Gobierno Autónomo Municipal de Cochabamba","operator:short":"GAMC","operator:type":"government","pole":"yes","public_transport":"platform","shelter":"no","tactile_paving":"no","wheelchair":"no","id":6546789728},"geometry":{"type":"Point","coordinates":[-66.1542976,-17.398892500000002]}}]}