{"type":"FeatureCollection","features":[{"type":"Feature","properties":{"check_date":"29/12/2025","from":"Avenida Blanco Galindo","name":"Trufi 290: Avenida Blanco Galindo → Chillimarca","network":"BO:CB:Cochabamba","on_demand":"yes","operator":"Sindicato mixto de trufibuses Vinto","public_transport:version":"2","ref":"290","route":"bus","to":"Chillimarca","type":"route","wheelchair":"no","id":4655384},"geometry":{"type":"LineString","coordinates":[[-66.2804969,-17.3942675],[-66.2798815,-17.3942066],[-66.2795033,-17.3941692],[-66.2787977,-17.3940994],[-66.278296,-17.3940485],[-66.2782169,-17.394039],[-66.2781689,-17.3940332],[-66.2781445,-17.3940395],[-66.2781179,-17.3940445],[-66.2780684,-17.3940444],[-66.2780201,-17.3940285],[-66.2778794,-17.3940153],[-66.2773809,-17.3939651],[-66.2769843,-17.393924],[-66.2768911,-17.3939144],[-66.2761362,-17.3938363],[-66.2749633,-17.3937285],[-66.2745387,-17.3936929],[-66.2744202,-17.3936842],[-66.2732528,-17.3935653],[-66.2729886,-17.393549],[-66.2728906,-17.3935115],[-66.2728521,-17.3935331],[-66.2728074,-17.3935435],[-66.2727806,-17.393545],[-66.2727581,-17.3935427],[-66.2727267,-17.393536],[-66.2726973,-17.3935241],[-66.2726613,-17.3934995],[-66.2724969,-17.3934548],[-66.2723523,-17.3934131],[-66.2722242,-17.3933865],[-66.272136,-17.393375],[-66.2711834,-17.3932616],[-66.2701132,-17.3931644],[-66.2699556,-17.3931509],[-66.2682713,-17.392991],[-66.2681621,-17.3929793],[-66.2680858,-17.3929704],[-66.2680632,-17.3929681],[-66.2679799,-17.3929599],[-66.2663099,-17.3927856],[-66.2649819,-17.3926561],[-66.2620232,-17.3923631],[-66.2610333,-17.3922706],[-66.260403,-17.3922097],[-66.2600955,-17.3921801],[-66.2597451,-17.3921462],[-66.2596815,-17.3921401],[-66.2596413,-17.3921346],[-66.2594826,-17.3921205],[-66.2589272,-17.3920656],[-66.2579447,-17.3919684],[-66.2577273,-17.3919498],[-66.2575312,-17.3919305],[-66.2560565,-17.3917855],[-66.2548029,-17.3916521],[-66.253198,-17.3914884],[-66.2530064,-17.3914702],[-66.2528628,-17.3914565],[-66.2517349,-17.3913518],[-66.2513053,-17.3913072],[-66.2507894,-17.3912641],[-66.2506459,-17.3912553],[-66.2504496,-17.3912411],[-66.2499498,-17.3912077],[-66.2490246,-17.391148],[-66.2489296,-17.3911412],[-66.2483832,-17.3911037],[-66.2478983,-17.3910798],[-66.2474718,-17.3910588],[-66.2466946,-17.3910205],[-66.2463515,-17.3910036],[-66.2462864,-17.3910004],[-66.246144,-17.3909943],[-66.2460957,-17.3909928],[-66.2459542,-17.3909884],[-66.2450017,-17.3909622],[-66.2449045,-17.3909712],[-66.2447457,-17.3910024],[-66.244702,-17.3910092],[-66.2446107,-17.3910304],[-66.2444712,-17.3910496],[-66.2443896,-17.3910486],[-66.2440073,-17.3910438],[-66.2439758,-17.3910432],[-66.2439215,-17.3910349],[-66.2437327,-17.3909986],[-66.2436764,-17.3909884],[-66.2435522,-17.3909664],[-66.2434639,-17.3909569],[-66.2433575,-17.3909534],[-66.2427821,-17.3909552],[-66.2421143,-17.3909528],[-66.2411382,-17.3909664],[-66.2409403,-17.3909694],[-66.2398934,-17.3909921],[-66.2393461,-17.3910207],[-66.2391427,-17.3910384],[-66.2389626,-17.3910615],[-66.2388277,-17.3910735],[-66.238785,-17.3910956],[-66.2387555,-17.3910995],[-66.2387249,-17.3910999],[-66.2386949,-17.3910946],[-66.2385208,-17.3910721],[-66.2383448,-17.3910467],[-66.2381859,-17.3910491],[-66.2378308,-17.3910656],[-66.2363623,-17.3911256],[-66.2363592,-17.3911257],[-66.2338646,-17.3912258],[-66.2324387,-17.3912917],[-66.2320293,-17.391311],[-66.2319827,-17.3913101],[-66.2313028,-17.3913334],[-66.2309385,-17.3913516],[-66.2305021,-17.3913727],[-66.2300327,-17.3913971],[-66.2300174,-17.3913979],[-66.2298855,-17.3914048],[-66.2297415,-17.3914102],[-66.2291665,-17.3914316],[-66.228361,-17.3914642],[-66.2274295,-17.3915073],[-66.2266236,-17.3915445],[-66.226496,-17.3915467],[-66.2249193,-17.3916169],[-66.22209,-17.39174],[-66.2218668,-17.3917507],[-66.2215956,-17.3917638],[-66.2213351,-17.3917763],[-66.2194094,-17.3918519],[-66.2193472,-17.3918506],[-66.218927,-17.3918711],[-66.2182553,-17.3918972],[-66.2154179,-17.392026],[-66.2135165,-17.3921133],[-66.2125924,-17.3921466],[-66.2125225,-17.3921489],[-66.2113164,-17.3922033],[-66.2103878,-17.3922456],[-66.2103017,-17.3922496],[-66.208973,-17.3923041],[-66.2082952,-17.3923381],[-66.2082831,-17.3923387],[-66.2081903,-17.3923434],[-66.2080961,-17.3923466],[-66.2080101,-17.3923501],[-66.2077704,-17.3923599],[-66.2056284,-17.3924477],[-66.2047083,-17.3924891],[-66.2043092,-17.3925078],[-66.2036195,-17.3925345],[-66.2031084,-17.3925542],[-66.2004314,-17.3926766],[-66.2002307,-17.3926858],[-66.1998222,-17.3927046],[-66.1997525,-17.3927076],[-66.1996829,-17.3927105],[-66.1996077,-17.3927141],[-66.1994816,-17.3927193],[-66.1989358,-17.392742],[-66.1970994,-17.3928205],[-66.1969609,-17.3928267],[-66.1941713,-17.3929516],[-66.1939032,-17.3929632],[-66.1918596,-17.3930496],[-66.1892684,-17.3931683],[-66.1875821,-17.3932431],[-66.1864162,-17.3932944],[-66.1858025,-17.3933928],[-66.1854109,-17.3934197],[-66.1847666,-17.3934367],[-66.1845947,-17.3934459],[-66.1845348,-17.393457],[-66.1844802,-17.3934827],[-66.1844461,-17.3935136],[-66.1843781,-17.3935523],[-66.1843198,-17.3935679],[-66.1842594,-17.3935703],[-66.1842,-17.3935593],[-66.1841583,-17.3935428],[-66.1841202,-17.3935197],[-66.1840775,-17.3934827],[-66.1840461,-17.3934348],[-66.1840252,-17.3933813],[-66.1840176,-17.3933247],[-66.1840256,-17.393259],[-66.1840432,-17.393214],[-66.184075,-17.3931656],[-66.1840878,-17.3931502],[-66.1841001,-17.3930986],[-66.1840955,-17.3930348],[-66.1840799,-17.3929579],[-66.1840379,-17.3928414],[-66.1837994,-17.3922431],[-66.1836273,-17.3917001],[-66.1835398,-17.3914965],[-66.1834683,-17.3912827],[-66.1834542,-17.3911315],[-66.1832663,-17.3906211],[-66.1831059,-17.3901788],[-66.1829271,-17.3896705],[-66.1826146,-17.3887464],[-66.1824225,-17.3881715],[-66.1822924,-17.3877822],[-66.1822657,-17.3877264],[-66.1822461,-17.3876854],[-66.1822045,-17.3876134],[-66.1821689,-17.3875445],[-66.1821075,-17.3874342],[-66.1820907,-17.3873899],[-66.1820896,-17.3873527],[-66.1821066,-17.3872758],[-66.1821284,-17.3871954],[-66.1821368,-17.3871532],[-66.1821423,-17.3870828],[-66.1821353,-17.3869915],[-66.1820636,-17.386466],[-66.1818969,-17.3851965],[-66.1818877,-17.3851282],[-66.1818029,-17.3844549],[-66.1817111,-17.3837787],[-66.1816353,-17.3833384],[-66.1816217,-17.3832416],[-66.1816029,-17.3831068],[-66.1815848,-17.3829139],[-66.1815782,-17.3828329],[-66.1815665,-17.3826762],[-66.1814919,-17.3816259],[-66.1814763,-17.381453],[-66.1814142,-17.3807206],[-66.1814094,-17.3806644],[-66.1814054,-17.3806124],[-66.1813471,-17.3798494],[-66.1813302,-17.3796284],[-66.1813006,-17.3794719],[-66.1812905,-17.3794155],[-66.1812003,-17.3789098],[-66.1811896,-17.3788495],[-66.1811789,-17.3787945],[-66.1810598,-17.3781131],[-66.1809869,-17.3776995],[-66.180968,-17.3775923],[-66.1809497,-17.3774906],[-66.1808502,-17.3769252],[-66.1808254,-17.3767668],[-66.1806619,-17.3750347],[-66.180641,-17.3748517],[-66.1806324,-17.3747696],[-66.180597,-17.3746022],[-66.1805723,-17.3745017],[-66.1802651,-17.3731427],[-66.1801646,-17.3726987],[-66.1799192,-17.3715519],[-66.1798972,-17.3714563],[-66.1798721,-17.3713478],[-66.1798562,-17.3712781],[-66.1797172,-17.3706926],[-66.179703,-17.3706326],[-66.1795594,-17.3700129],[-66.1795508,-17.3699757],[-66.179379,-17.369177],[-66.179359,-17.369084],[-66.1793487,-17.3690328],[-66.1792175,-17.3683806],[-66.1791938,-17.3681393],[-66.1791612,-17.3679407],[-66.1789891,-17.3669954],[-66.1789718,-17.3669002],[-66.1789617,-17.3668546],[-66.1787406,-17.3658577],[-66.178723,-17.3657905],[-66.1786952,-17.3656759],[-66.178501,-17.364928],[-66.178454,-17.3647559],[-66.1784282,-17.3646834],[-66.1784,-17.3646223],[-66.1783719,-17.3645654],[-66.1783289,-17.364478],[-66.1783077,-17.364435],[-66.177893,-17.363231],[-66.1778814,-17.3631864],[-66.1776862,-17.3623562],[-66.1776708,-17.3623059],[-66.177654,-17.3622374],[-66.1773579,-17.3609722],[-66.1773151,-17.3608096],[-66.1772279,-17.3605581],[-66.177115,-17.3602946],[-66.1770176,-17.3600462],[-66.1766643,-17.3592269],[-66.1766008,-17.3591431],[-66.1761412,-17.358437],[-66.1761194,-17.3584078],[-66.175998,-17.3582255],[-66.1757929,-17.3579487],[-66.1756009,-17.3576729],[-66.1755001,-17.3575091],[-66.17567,-17.3573892],[-66.1757555,-17.3573307],[-66.1758736,-17.3572509],[-66.1761987,-17.3570499],[-66.1762939,-17.3569896],[-66.1765288,-17.3568292],[-66.176584,-17.3567915],[-66.1766626,-17.35674],[-66.1770225,-17.3565039],[-66.1770674,-17.3564745],[-66.1775197,-17.3561798],[-66.1783296,-17.3556251],[-66.1785769,-17.3554523],[-66.1788671,-17.3552608],[-66.179081,-17.3551227],[-66.1792803,-17.3550126],[-66.1794983,-17.3549191],[-66.1797634,-17.3548198],[-66.1799194,-17.3547469],[-66.1800064,-17.3546919],[-66.1800826,-17.3546369],[-66.1801859,-17.3545407],[-66.1804549,-17.3541918],[-66.181142,-17.3533473],[-66.1812334,-17.3532556],[-66.1813911,-17.3531199],[-66.1817746,-17.3528103],[-66.182442,-17.3522543],[-66.182558,-17.3521408],[-66.1826537,-17.3520588],[-66.1827576,-17.3519882],[-66.183286,-17.3516581],[-66.1836154,-17.3514696],[-66.1838031,-17.3513297],[-66.1838407,-17.3512859],[-66.1838723,-17.351242],[-66.1838975,-17.3511987],[-66.1839083,-17.3511457],[-66.1839386,-17.3509879],[-66.1839783,-17.3508542],[-66.1840374,-17.350746],[-66.1841304,-17.3506368],[-66.1842209,-17.3505508],[-66.1842686,-17.3505083],[-66.184301,-17.3504745],[-66.1843369,-17.3504307],[-66.1843854,-17.3503822],[-66.1843887,-17.3503619],[-66.1843986,-17.3503355],[-66.1844143,-17.3503117],[-66.1844349,-17.3502917],[-66.1844597,-17.3502765],[-66.1844824,-17.350268],[-66.1845064,-17.3502635],[-66.1845269,-17.350263],[-66.1845513,-17.3502365],[-66.1845678,-17.3502185],[-66.1847379,-17.3500333],[-66.1847544,-17.3500165],[-66.1848122,-17.3499791],[-66.1848644,-17.3499641],[-66.1885387,-17.349024],[-66.1885932,-17.3490101],[-66.1887443,-17.3489812],[-66.1888251,-17.3489628],[-66.1895936,-17.3487693],[-66.1904928,-17.3485266],[-66.1908887,-17.3484078],[-66.1913536,-17.3480278],[-66.1923573,-17.3476083],[-66.1932659,-17.3472364],[-66.1941875,-17.3468693],[-66.1947509,-17.3466447],[-66.1950839,-17.3465104],[-66.1951617,-17.3464751],[-66.1958375,-17.3461706],[-66.1966535,-17.3456387],[-66.1967117,-17.3456008],[-66.1967701,-17.3455721],[-66.1971287,-17.3454184],[-66.1974011,-17.3453099],[-66.1975204,-17.3452624],[-66.1980572,-17.3450251],[-66.1981047,-17.3450055],[-66.1982697,-17.3449376],[-66.1983187,-17.3449176],[-66.1984521,-17.3448726],[-66.1985225,-17.344852],[-66.1987446,-17.3447788],[-66.1991494,-17.3446344],[-66.1998802,-17.344359],[-66.1997481,-17.3440387],[-66.1995982,-17.3437142],[-66.1995236,-17.3436395],[-66.1994928,-17.343559],[-66.1995596,-17.3434456],[-66.1998611,-17.3429244],[-66.1999192,-17.3428239],[-66.2001581,-17.342411],[-66.2003416,-17.3419304],[-66.2004001,-17.3418275],[-66.2006763,-17.3415774],[-66.2008276,-17.3414365],[-66.2009545,-17.3412723],[-66.2011104,-17.3410137],[-66.2012021,-17.3408351],[-66.2012691,-17.340652],[-66.2013295,-17.3404084],[-66.2013593,-17.3402655],[-66.2016007,-17.3391102],[-66.2016717,-17.3390164],[-66.2016981,-17.3389653],[-66.2017395,-17.3385809],[-66.2016809,-17.3384353],[-66.2013481,-17.3376909],[-66.2013101,-17.3374427],[-66.2013008,-17.3370274],[-66.2013038,-17.3368856],[-66.2013194,-17.3366893],[-66.201327,-17.3365932],[-66.2014531,-17.3362489],[-66.2015358,-17.3359368],[-66.2015484,-17.3358466],[-66.20121,-17.3357132],[-66.2006768,-17.3353734],[-66.2001358,-17.3350768],[-66.199756,-17.3349784],[-66.1994578,-17.3349358],[-66.1994872,-17.3347364],[-66.1994471,-17.334548],[-66.1993268,-17.3343878],[-66.1991943,-17.3342468],[-66.1990636,-17.3341396],[-66.1988881,-17.3340371],[-66.1986059,-17.3338938],[-66.1980256,-17.3332252],[-66.1977751,-17.3329246]],"nodes":[6728813998,11353309042,8221419846,617198439,7527591106,3192787640,7527591083,11073473498,7527591084,6179669353,7527591077,7527591100,617344406,8221419836,8221419838,781813590,783870512,781813472,8221419798,12487415613,12706842543,2140912563,6917120246,9354944921,319771802,2140912543,8048387332,9354944920,617200550,8048387321,319772517,12706842535,319771957,783869220,617337192,617337190,785869304,5870202365,5870202366,6917120217,9262757144,785868542,785868821,2544242053,5236806811,8316478288,8316478291,9262757164,8316478298,319772617,12091174511,8316478286,786662202,4571961294,11084165261,786662071,786662079,7149699478,10012571191,786662233,786662020,7933924070,8630411911,786662086,4571961312,9008315768,786662289,786662384,4317735514,7933924074,9008315506,9008315507,10572209945,8316478467,319773261,9008315534,9008315509,8316478468,319773262,9008315710,4586488215,10837513366,2594886774,11296265958,10837513370,4586488216,10837513371,10572209994,319773839,8630411836,319773840,8630411835,793568529,793568511,6918618955,793568540,793568550,7933924038,698491866,9008269186,698491852,698491857,9355127785,9355127784,698491894,9008269190,4586487875,8317038874,6836037176,793568534,9025874012,793568542,793568567,6282778241,793568556,5605232830,5605232828,8627399434,9786116626,9786116635,2354386800,9786116631,8627399435,794074995,9008269168,794075099,794075049,794074991,794074975,4340534094,4478225459,794075151,3255507834,4158051956,4158051955,794075132,794075196,794075208,794074982,794075086,794074944,794075201,794075101,6845758237,8235936965,9374958479,2417368094,794081382,8235936959,8235936931,2417368107,2417368139,2417368154,6846214132,2417368183,1807038058,12650627925,2429829239,12650627934,1807038060,1807038065,8235455990,497195296,2339557956,2339557957,2160491572,6282770217,2160491570,2292218255,2635402936,6272592192,6333605607,6326480499,5868941099,6333605606,8474493069,4398318266,4398318331,4398318330,4398318256,4398318255,4398318327,6326495609,4398318259,9058184999,4398318284,4398318258,4398318257,4398318287,4398318318,4398318253,4398318322,6326480494,6326480496,9058270487,5868941108,4398499262,5868953358,9058185003,9713005816,4576706143,4576706144,5868953360,560522587,9010533088,11084996856,599541114,7961801411,2690718996,2381925038,2381925033,7961798482,7961798483,7961801398,2381925009,2690718973,2381924983,560522647,2381924975,598178863,598178865,2137750210,689437105,598178866,2544300152,9018656406,2544300087,7436277547,9018656379,2544300020,7436277527,698492350,9018656373,698492359,9018656369,3266042572,2869785583,560522683,11070036567,9018487253,698492457,10314056479,9018487158,9018487283,698492448,9018989690,560522684,9671010093,4933539326,4933539339,560522687,599541148,4933539355,689437209,11071148847,2518322721,602391949,851594754,2518322682,11836786551,851595149,10156204504,851595380,11070207793,851595204,11070207795,8932109906,8932109908,8932109891,11070190113,1865060962,8932109901,4102697658,851595099,851594886,2468433010,3267530535,3267530534,2468433008,851594726,851594990,9175127258,4678897679,851595103,10747497937,851594771,10747497935,8927805076,811023155,10747497946,851594709,8914848364,8539597711,811023297,5262462755,851595122,2869785446,8914802017,811023202,851595316,6272592197,6272592198,1576391952,11081678142,6331330553,11081678149,2318865925,11081678153,11081678157,3280931121,2318865918,601871447,3541028652,3279665148,601871458,9819008095,601871471,9819008096,601871481,9819008092,3541028646,601871487,601871492,9819008088,601871505,2318865866,601871514,5735155664,7814257096,3279665067,8437237664,9819008050,9819008049,2368317043,601871539,3279659543,2368317044,601871552,2368317045,601871560,2368317046,601871568,9049566141,2368317063,9049566142,9049566150,5290354589,9343671209,9343671208,9049566143,2368317055,9049566128,9049566153,2368317056,9343671211,9049566152,11813298419,5290354596,9049566151,7696274404,7696274403,11795063815,1577578340,1583350222,9049822122,8921352632,3979319679,3281552591,3979319675,3549077659,3549077658,3549077657,3549077655,3549077653,6904093563,1577578236,8921352631,2087364087,2938502784,5182545624,12550420911,1573956054,7235782713,11071672874,8336001237,6904093567,6904093564,2938502771,8336001229,2319145583,6548530628,12542331626,7235781950,8535582470,2319145563,2319145562,6904093573,10286957095,2319145541,4688245220,789402948,789403055,5414198053,2318926611,789402985,5411799555,2318926609,789402919,7234643150,789403047,7234643140,789402978,789429920,789403038,789402968,789403076,2318885105,789402995,6040305574,789402925,789403033,789402962,789429980,789429618,789429844,789429400,789429668,789429894,789429723,789429943,789429726,12550723778,789429557,5417709186,789429871,2318885072,7790231611]},"gtfs":{"agency_id":4,"route_id":10,"services":[{"service_id":"Mo-Su","startTime":"06:00","endTime":"22:00","trip_id":4655384}],"filteredStops":{"nodes":[6728813998,11353309042,8221419846,617198439,7527591106,3192787640,7527591083,11073473498,7527591084,6179669353,7527591077,7527591100,617344406,8221419836,8221419838,781813590,783870512,781813472,8221419798,12487415613,12706842543,2140912563,6917120246,9354944921,319771802,2140912543,8048387332,9354944920,617200550,8048387321,319772517,12706842535,319771957,783869220,617337192,617337190,785869304,5870202365,5870202366,6917120217,9262757144,785868542,785868821,2544242053,5236806811,8316478288,8316478291,9262757164,8316478298,319772617,12091174511,8316478286,786662202,4571961294,11084165261,786662071,786662079,7149699478,10012571191,786662233,786662020,7933924070,8630411911,786662086,4571961312,9008315768,786662289,786662384,4317735514,7933924074,9008315506,9008315507,10572209945,8316478467,319773261,9008315534,9008315509,8316478468,319773262,9008315710,4586488215,10837513366,2594886774,11296265958,10837513370,4586488216,10837513371,10572209994,319773839,8630411836,319773840,8630411835,793568529,793568511,6918618955,793568540,793568550,7933924038,698491866,9008269186,698491852,698491857,9355127785,9355127784,698491894,9008269190,4586487875,8317038874,6836037176,793568534,9025874012,793568542,793568567,6282778241,793568556,5605232830,5605232828,8627399434,9786116626,9786116635,2354386800,9786116631,8627399435,794074995,9008269168,794075099,794075049,794074991,794074975,4340534094,4478225459,794075151,3255507834,4158051956,4158051955,794075132,794075196,794075208,794074982,794075086,794074944,794075201,794075101,6845758237,8235936965,9374958479,2417368094,794081382,8235936959,8235936931,2417368107,2417368139,2417368154,6846214132,2417368183,1807038058,12650627925,2429829239,12650627934,1807038060,1807038065,8235455990,497195296,2339557956,2339557957,2160491572,6282770217,2160491570,2292218255,2635402936,6272592192,6333605607,6326480499,5868941099,6333605606,8474493069,4398318266,4398318331,4398318330,4398318256,4398318255,4398318327,6326495609,4398318259,9058184999,4398318284,4398318258,4398318257,4398318287,4398318318,4398318253,4398318322,6326480494,6326480496,9058270487,5868941108,4398499262,5868953358,9058185003,9713005816,4576706143,4576706144,5868953360,560522587,9010533088,11084996856,599541114,7961801411,2690718996,2381925038,2381925033,7961798482,7961798483,7961801398,2381925009,2690718973,2381924983,560522647,2381924975,598178863,598178865,2137750210,689437105,598178866,2544300152,9018656406,2544300087,7436277547,9018656379,2544300020,7436277527,698492350,9018656373,698492359,9018656369,3266042572,2869785583,560522683,11070036567,9018487253,698492457,10314056479,9018487158,9018487283,698492448,9018989690,560522684,9671010093,4933539326,4933539339,560522687,599541148,4933539355,689437209,11071148847,2518322721,602391949,851594754,2518322682,11836786551,851595149,10156204504,851595380,11070207793,851595204,11070207795,8932109906,8932109908,8932109891,11070190113,1865060962,8932109901,4102697658,851595099,851594886,2468433010,3267530535,3267530534,2468433008,851594726,851594990,9175127258,4678897679,851595103,10747497937,851594771,10747497935,8927805076,811023155,10747497946,851594709,8914848364,8539597711,811023297,5262462755,851595122,2869785446,8914802017,811023202,851595316,6272592197,6272592198,1576391952,11081678142,6331330553,11081678149,2318865925,11081678153,11081678157,3280931121,2318865918,601871447,3541028652,3279665148,601871458,9819008095,601871471,9819008096,601871481,9819008092,3541028646,601871487,601871492,9819008088,601871505,2318865866,601871514,5735155664,7814257096,3279665067,8437237664,9819008050,9819008049,2368317043,601871539,3279659543,2368317044,601871552,2368317045,601871560,2368317046,601871568,9049566141,2368317063,9049566142,9049566150,5290354589,9343671209,9343671208,9049566143,2368317055,9049566128,9049566153,2368317056,9343671211,9049566152,11813298419,5290354596,9049566151,7696274404,7696274403,11795063815,1577578340,1583350222,9049822122,8921352632,3979319679,3281552591,3979319675,3549077659,3549077658,3549077657,3549077655,3549077653,6904093563,1577578236,8921352631,2087364087,2938502784,5182545624,12550420911,1573956054,7235782713,11071672874,8336001237,6904093567,6904093564,2938502771,8336001229,2319145583,6548530628,12542331626,7235781950,8535582470,2319145563,2319145562,6904093573,10286957095,2319145541,4688245220,789402948,789403055,5414198053,2318926611,789402985,5411799555,2318926609,789402919,7234643150,789403047,7234643140,789402978,789429920,789403038,789402968,789403076,2318885105,789402995,6040305574,789402925,789403033,789402962,789429980,789429618,789429844,789429400,789429668,789429894,789429723,789429943,789429726,12550723778,789429557,5417709186,789429871,2318885072,7790231611],"coordinates":[[-66.2804969,-17.3942675],[-66.2798815,-17.3942066],[-66.2795033,-17.3941692],[-66.2787977,-17.3940994],[-66.278296,-17.3940485],[-66.2782169,-17.394039],[-66.2781689,-17.3940332],[-66.2781445,-17.3940395],[-66.2781179,-17.3940445],[-66.2780684,-17.3940444],[-66.2780201,-17.3940285],[-66.2778794,-17.3940153],[-66.2773809,-17.3939651],[-66.2769843,-17.393924],[-66.2768911,-17.3939144],[-66.2761362,-17.3938363],[-66.2749633,-17.3937285],[-66.2745387,-17.3936929],[-66.2744202,-17.3936842],[-66.2732528,-17.3935653],[-66.2729886,-17.393549],[-66.2728906,-17.3935115],[-66.2728521,-17.3935331],[-66.2728074,-17.3935435],[-66.2727806,-17.393545],[-66.2727581,-17.3935427],[-66.2727267,-17.393536],[-66.2726973,-17.3935241],[-66.2726613,-17.3934995],[-66.2724969,-17.3934548],[-66.2723523,-17.3934131],[-66.2722242,-17.3933865],[-66.272136,-17.393375],[-66.2711834,-17.3932616],[-66.2701132,-17.3931644],[-66.2699556,-17.3931509],[-66.2682713,-17.392991],[-66.2681621,-17.3929793],[-66.2680858,-17.3929704],[-66.2680632,-17.3929681],[-66.2679799,-17.3929599],[-66.2663099,-17.3927856],[-66.2649819,-17.3926561],[-66.2620232,-17.3923631],[-66.2610333,-17.3922706],[-66.260403,-17.3922097],[-66.2600955,-17.3921801],[-66.2597451,-17.3921462],[-66.2596815,-17.3921401],[-66.2596413,-17.3921346],[-66.2594826,-17.3921205],[-66.2589272,-17.3920656],[-66.2579447,-17.3919684],[-66.2577273,-17.3919498],[-66.2575312,-17.3919305],[-66.2560565,-17.3917855],[-66.2548029,-17.3916521],[-66.253198,-17.3914884],[-66.2530064,-17.3914702],[-66.2528628,-17.3914565],[-66.2517349,-17.3913518],[-66.2513053,-17.3913072],[-66.2507894,-17.3912641],[-66.2506459,-17.3912553],[-66.2504496,-17.3912411],[-66.2499498,-17.3912077],[-66.2490246,-17.391148],[-66.2489296,-17.3911412],[-66.2483832,-17.3911037],[-66.2478983,-17.3910798],[-66.2474718,-17.3910588],[-66.2466946,-17.3910205],[-66.2463515,-17.3910036],[-66.2462864,-17.3910004],[-66.246144,-17.3909943],[-66.2460957,-17.3909928],[-66.2459542,-17.3909884],[-66.2450017,-17.3909622],[-66.2449045,-17.3909712],[-66.2447457,-17.3910024],[-66.244702,-17.3910092],[-66.2446107,-17.3910304],[-66.2444712,-17.3910496],[-66.2443896,-17.3910486],[-66.2440073,-17.3910438],[-66.2439758,-17.3910432],[-66.2439215,-17.3910349],[-66.2437327,-17.3909986],[-66.2436764,-17.3909884],[-66.2435522,-17.3909664],[-66.2434639,-17.3909569],[-66.2433575,-17.3909534],[-66.2427821,-17.3909552],[-66.2421143,-17.3909528],[-66.2411382,-17.3909664],[-66.2409403,-17.3909694],[-66.2398934,-17.3909921],[-66.2393461,-17.3910207],[-66.2391427,-17.3910384],[-66.2389626,-17.3910615],[-66.2388277,-17.3910735],[-66.238785,-17.3910956],[-66.2387555,-17.3910995],[-66.2387249,-17.3910999],[-66.2386949,-17.3910946],[-66.2385208,-17.3910721],[-66.2383448,-17.3910467],[-66.2381859,-17.3910491],[-66.2378308,-17.3910656],[-66.2363623,-17.3911256],[-66.2363592,-17.3911257],[-66.2338646,-17.3912258],[-66.2324387,-17.3912917],[-66.2320293,-17.391311],[-66.2319827,-17.3913101],[-66.2313028,-17.3913334],[-66.2309385,-17.3913516],[-66.2305021,-17.3913727],[-66.2300327,-17.3913971],[-66.2300174,-17.3913979],[-66.2298855,-17.3914048],[-66.2297415,-17.3914102],[-66.2291665,-17.3914316],[-66.228361,-17.3914642],[-66.2274295,-17.3915073],[-66.2266236,-17.3915445],[-66.226496,-17.3915467],[-66.2249193,-17.3916169],[-66.22209,-17.39174],[-66.2218668,-17.3917507],[-66.2215956,-17.3917638],[-66.2213351,-17.3917763],[-66.2194094,-17.3918519],[-66.2193472,-17.3918506],[-66.218927,-17.3918711],[-66.2182553,-17.3918972],[-66.2154179,-17.392026],[-66.2135165,-17.3921133],[-66.2125924,-17.3921466],[-66.2125225,-17.3921489],[-66.2113164,-17.3922033],[-66.2103878,-17.3922456],[-66.2103017,-17.3922496],[-66.208973,-17.3923041],[-66.2082952,-17.3923381],[-66.2082831,-17.3923387],[-66.2081903,-17.3923434],[-66.2080961,-17.3923466],[-66.2080101,-17.3923501],[-66.2077704,-17.3923599],[-66.2056284,-17.3924477],[-66.2047083,-17.3924891],[-66.2043092,-17.3925078],[-66.2036195,-17.3925345],[-66.2031084,-17.3925542],[-66.2004314,-17.3926766],[-66.2002307,-17.3926858],[-66.1998222,-17.3927046],[-66.1997525,-17.3927076],[-66.1996829,-17.3927105],[-66.1996077,-17.3927141],[-66.1994816,-17.3927193],[-66.1989358,-17.392742],[-66.1970994,-17.3928205],[-66.1969609,-17.3928267],[-66.1941713,-17.3929516],[-66.1939032,-17.3929632],[-66.1918596,-17.3930496],[-66.1892684,-17.3931683],[-66.1875821,-17.3932431],[-66.1864162,-17.3932944],[-66.1858025,-17.3933928],[-66.1854109,-17.3934197],[-66.1847666,-17.3934367],[-66.1845947,-17.3934459],[-66.1845348,-17.393457],[-66.1844802,-17.3934827],[-66.1844461,-17.3935136],[-66.1843781,-17.3935523],[-66.1843198,-17.3935679],[-66.1842594,-17.3935703],[-66.1842,-17.3935593],[-66.1841583,-17.3935428],[-66.1841202,-17.3935197],[-66.1840775,-17.3934827],[-66.1840461,-17.3934348],[-66.1840252,-17.3933813],[-66.1840176,-17.3933247],[-66.1840256,-17.393259],[-66.1840432,-17.393214],[-66.184075,-17.3931656],[-66.1840878,-17.3931502],[-66.1841001,-17.3930986],[-66.1840955,-17.3930348],[-66.1840799,-17.3929579],[-66.1840379,-17.3928414],[-66.1837994,-17.3922431],[-66.1836273,-17.3917001],[-66.1835398,-17.3914965],[-66.1834683,-17.3912827],[-66.1834542,-17.3911315],[-66.1832663,-17.3906211],[-66.1831059,-17.3901788],[-66.1829271,-17.3896705],[-66.1826146,-17.3887464],[-66.1824225,-17.3881715],[-66.1822924,-17.3877822],[-66.1822657,-17.3877264],[-66.1822461,-17.3876854],[-66.1822045,-17.3876134],[-66.1821689,-17.3875445],[-66.1821075,-17.3874342],[-66.1820907,-17.3873899],[-66.1820896,-17.3873527],[-66.1821066,-17.3872758],[-66.1821284,-17.3871954],[-66.1821368,-17.3871532],[-66.1821423,-17.3870828],[-66.1821353,-17.3869915],[-66.1820636,-17.386466],[-66.1818969,-17.3851965],[-66.1818877,-17.3851282],[-66.1818029,-17.3844549],[-66.1817111,-17.3837787],[-66.1816353,-17.3833384],[-66.1816217,-17.3832416],[-66.1816029,-17.3831068],[-66.1815848,-17.3829139],[-66.1815782,-17.3828329],[-66.1815665,-17.3826762],[-66.1814919,-17.3816259],[-66.1814763,-17.381453],[-66.1814142,-17.3807206],[-66.1814094,-17.3806644],[-66.1814054,-17.3806124],[-66.1813471,-17.3798494],[-66.1813302,-17.3796284],[-66.1813006,-17.3794719],[-66.1812905,-17.3794155],[-66.1812003,-17.3789098],[-66.1811896,-17.3788495],[-66.1811789,-17.3787945],[-66.1810598,-17.3781131],[-66.1809869,-17.3776995],[-66.180968,-17.3775923],[-66.1809497,-17.3774906],[-66.1808502,-17.3769252],[-66.1808254,-17.3767668],[-66.1806619,-17.3750347],[-66.180641,-17.3748517],[-66.1806324,-17.3747696],[-66.180597,-17.3746022],[-66.1805723,-17.3745017],[-66.1802651,-17.3731427],[-66.1801646,-17.3726987],[-66.1799192,-17.3715519],[-66.1798972,-17.3714563],[-66.1798721,-17.3713478],[-66.1798562,-17.3712781],[-66.1797172,-17.3706926],[-66.179703,-17.3706326],[-66.1795594,-17.3700129],[-66.1795508,-17.3699757],[-66.179379,-17.369177],[-66.179359,-17.369084],[-66.1793487,-17.3690328],[-66.1792175,-17.3683806],[-66.1791938,-17.3681393],[-66.1791612,-17.3679407],[-66.1789891,-17.3669954],[-66.1789718,-17.3669002],[-66.1789617,-17.3668546],[-66.1787406,-17.3658577],[-66.178723,-17.3657905],[-66.1786952,-17.3656759],[-66.178501,-17.364928],[-66.178454,-17.3647559],[-66.1784282,-17.3646834],[-66.1784,-17.3646223],[-66.1783719,-17.3645654],[-66.1783289,-17.364478],[-66.1783077,-17.364435],[-66.177893,-17.363231],[-66.1778814,-17.3631864],[-66.1776862,-17.3623562],[-66.1776708,-17.3623059],[-66.177654,-17.3622374],[-66.1773579,-17.3609722],[-66.1773151,-17.3608096],[-66.1772279,-17.3605581],[-66.177115,-17.3602946],[-66.1770176,-17.3600462],[-66.1766643,-17.3592269],[-66.1766008,-17.3591431],[-66.1761412,-17.358437],[-66.1761194,-17.3584078],[-66.175998,-17.3582255],[-66.1757929,-17.3579487],[-66.1756009,-17.3576729],[-66.1755001,-17.3575091],[-66.17567,-17.3573892],[-66.1757555,-17.3573307],[-66.1758736,-17.3572509],[-66.1761987,-17.3570499],[-66.1762939,-17.3569896],[-66.1765288,-17.3568292],[-66.176584,-17.3567915],[-66.1766626,-17.35674],[-66.1770225,-17.3565039],[-66.1770674,-17.3564745],[-66.1775197,-17.3561798],[-66.1783296,-17.3556251],[-66.1785769,-17.3554523],[-66.1788671,-17.3552608],[-66.179081,-17.3551227],[-66.1792803,-17.3550126],[-66.1794983,-17.3549191],[-66.1797634,-17.3548198],[-66.1799194,-17.3547469],[-66.1800064,-17.3546919],[-66.1800826,-17.3546369],[-66.1801859,-17.3545407],[-66.1804549,-17.3541918],[-66.181142,-17.3533473],[-66.1812334,-17.3532556],[-66.1813911,-17.3531199],[-66.1817746,-17.3528103],[-66.182442,-17.3522543],[-66.182558,-17.3521408],[-66.1826537,-17.3520588],[-66.1827576,-17.3519882],[-66.183286,-17.3516581],[-66.1836154,-17.3514696],[-66.1838031,-17.3513297],[-66.1838407,-17.3512859],[-66.1838723,-17.351242],[-66.1838975,-17.3511987],[-66.1839083,-17.3511457],[-66.1839386,-17.3509879],[-66.1839783,-17.3508542],[-66.1840374,-17.350746],[-66.1841304,-17.3506368],[-66.1842209,-17.3505508],[-66.1842686,-17.3505083],[-66.184301,-17.3504745],[-66.1843369,-17.3504307],[-66.1843854,-17.3503822],[-66.1843887,-17.3503619],[-66.1843986,-17.3503355],[-66.1844143,-17.3503117],[-66.1844349,-17.3502917],[-66.1844597,-17.3502765],[-66.1844824,-17.350268],[-66.1845064,-17.3502635],[-66.1845269,-17.350263],[-66.1845513,-17.3502365],[-66.1845678,-17.3502185],[-66.1847379,-17.3500333],[-66.1847544,-17.3500165],[-66.1848122,-17.3499791],[-66.1848644,-17.3499641],[-66.1885387,-17.349024],[-66.1885932,-17.3490101],[-66.1887443,-17.3489812],[-66.1888251,-17.3489628],[-66.1895936,-17.3487693],[-66.1904928,-17.3485266],[-66.1908887,-17.3484078],[-66.1913536,-17.3480278],[-66.1923573,-17.3476083],[-66.1932659,-17.3472364],[-66.1941875,-17.3468693],[-66.1947509,-17.3466447],[-66.1950839,-17.3465104],[-66.1951617,-17.3464751],[-66.1958375,-17.3461706],[-66.1966535,-17.3456387],[-66.1967117,-17.3456008],[-66.1967701,-17.3455721],[-66.1971287,-17.3454184],[-66.1974011,-17.3453099],[-66.1975204,-17.3452624],[-66.1980572,-17.3450251],[-66.1981047,-17.3450055],[-66.1982697,-17.3449376],[-66.1983187,-17.3449176],[-66.1984521,-17.3448726],[-66.1985225,-17.344852],[-66.1987446,-17.3447788],[-66.1991494,-17.3446344],[-66.1998802,-17.344359],[-66.1997481,-17.3440387],[-66.1995982,-17.3437142],[-66.1995236,-17.3436395],[-66.1994928,-17.343559],[-66.1995596,-17.3434456],[-66.1998611,-17.3429244],[-66.1999192,-17.3428239],[-66.2001581,-17.342411],[-66.2003416,-17.3419304],[-66.2004001,-17.3418275],[-66.2006763,-17.3415774],[-66.2008276,-17.3414365],[-66.2009545,-17.3412723],[-66.2011104,-17.3410137],[-66.2012021,-17.3408351],[-66.2012691,-17.340652],[-66.2013295,-17.3404084],[-66.2013593,-17.3402655],[-66.2016007,-17.3391102],[-66.2016717,-17.3390164],[-66.2016981,-17.3389653],[-66.2017395,-17.3385809],[-66.2016809,-17.3384353],[-66.2013481,-17.3376909],[-66.2013101,-17.3374427],[-66.2013008,-17.3370274],[-66.2013038,-17.3368856],[-66.2013194,-17.3366893],[-66.201327,-17.3365932],[-66.2014531,-17.3362489],[-66.2015358,-17.3359368],[-66.2015484,-17.3358466],[-66.20121,-17.3357132],[-66.2006768,-17.3353734],[-66.2001358,-17.3350768],[-66.199756,-17.3349784],[-66.1994578,-17.3349358],[-66.1994872,-17.3347364],[-66.1994471,-17.334548],[-66.1993268,-17.3343878],[-66.1991943,-17.3342468],[-66.1990636,-17.3341396],[-66.1988881,-17.3340371],[-66.1986059,-17.3338938],[-66.1980256,-17.3332252],[-66.1977751,-17.3329246]]}}},{"type":"Feature","properties":{"bus":"yes","highway":"bus_stop","name":"Plaza Bolívar","public_transport":"platform","id":3255507885},"geometry":{"type":"Point","coordinates":[-66.2805659,-17.3943334]}},{"type":"Feature","properties":{"bench":"no","bin":"no","bus":"yes","departures_board":"no","highway":"bus_stop","informal":"yes","level":"0","lit":"yes","name":"d'Orbigny","public_transport":"platform","shelter":"no","tactile_paving":"no","wheelchair":"no","id":7961801407},"geometry":{"type":"Point","coordinates":[-66.1822515,-17.3878387]}},{"type":"Feature","properties":{"addr:city":"Tiquipaya","bench":"no","bus":"yes","covered":"no","departures_board":"no","highway":"bus_stop","name":"Parada 290","public_transport":"platform","shelter":"no","id":12145334400},"geometry":{"type":"Point","coordinates":[-66.1977469,-17.3329711]}}]}