{"type":"FeatureCollection","features":[{"type":"Feature","properties":{"check_date":"29/12/2025","from":"Huachi Rancho","name":"MicroBus W: Huachi Rancho → Calle Poopó","network":"BO:CB:Cochabamba","on_demand":"yes","operator":"Asociación de taxi trufis 1ro de mayo","public_transport:version":"2","ref":"W","route":"bus","to":"Calle Poopó","type":"route","wheelchair":"no","id":5386696},"geometry":{"type":"LineString","coordinates":[[-66.2814822,-17.3597222],[-66.28211900000001,-17.3601129],[-66.28256830000001,-17.360402200000003],[-66.2827992,-17.3605702],[-66.28291100000001,-17.3606491],[-66.28299600000001,-17.360661500000003],[-66.28412250000001,-17.360674300000003],[-66.2841205,-17.360786],[-66.2850531,-17.3607307],[-66.2851735,-17.3607848],[-66.2858147,-17.361091000000002],[-66.2850799,-17.362543000000002],[-66.2849628,-17.3627156],[-66.28461200000001,-17.363022700000002],[-66.28429050000001,-17.363314600000002],[-66.2840192,-17.3635974],[-66.28350830000001,-17.3642162],[-66.28304100000001,-17.3647823],[-66.28284020000001,-17.3650243],[-66.28276100000001,-17.365151700000002],[-66.2827183,-17.365252700000003],[-66.28270420000001,-17.365354],[-66.28273580000001,-17.365625],[-66.282785,-17.365894500000003],[-66.2828612,-17.366282400000003],[-66.2828779,-17.366577300000003],[-66.28287320000001,-17.3669261],[-66.28285980000001,-17.3672395],[-66.2828647,-17.368436900000003],[-66.2828649,-17.368504100000003],[-66.2828781,-17.368955000000003],[-66.28290100000001,-17.3695421],[-66.282976,-17.371083900000002],[-66.28303860000001,-17.372350700000002],[-66.28303960000001,-17.3723743],[-66.2830428,-17.3724512],[-66.28306470000001,-17.3727315],[-66.2831393,-17.373781700000002],[-66.2831896,-17.374435700000003],[-66.28320070000001,-17.374580700000003],[-66.28326150000001,-17.375215800000003],[-66.2832941,-17.3755729],[-66.28332540000001,-17.375903800000003],[-66.2833736,-17.3764524],[-66.28339070000001,-17.376647600000002],[-66.28339670000001,-17.376812700000002],[-66.28341300000001,-17.377065400000003],[-66.28343450000001,-17.377602300000003],[-66.2834553,-17.3780004],[-66.283534,-17.379504800000003],[-66.2835529,-17.3799138],[-66.2835936,-17.3808928],[-66.28363630000001,-17.3816792],[-66.28366790000001,-17.3818968],[-66.28370810000001,-17.382116800000002],[-66.2839953,-17.3833404],[-66.28398410000001,-17.3834355],[-66.28386610000001,-17.3843116],[-66.2838349,-17.3846494],[-66.2838103,-17.3859974],[-66.2838212,-17.386738700000002],[-66.2837516,-17.387060700000003],[-66.28364420000001,-17.387466800000002],[-66.283624,-17.388266400000003],[-66.2836355,-17.389429],[-66.28422350000001,-17.389448700000003],[-66.28471760000001,-17.389481],[-66.2847301,-17.3900678],[-66.2847093,-17.3907853],[-66.28469340000001,-17.391977200000003],[-66.2846597,-17.393044900000003],[-66.2846576,-17.393209300000002],[-66.2846215,-17.394230200000003],[-66.28460890000001,-17.3945051],[-66.2845654,-17.3945027],[-66.2830692,-17.3944213],[-66.2829966,-17.3944173],[-66.2816911,-17.394348800000003],[-66.2815709,-17.394341700000002],[-66.2814919,-17.3943373],[-66.2807205,-17.3942881],[-66.2806245,-17.394282],[-66.2804969,-17.3942675],[-66.2798815,-17.3942066],[-66.2795033,-17.3941692],[-66.27879770000001,-17.3940994],[-66.27829600000001,-17.3940485],[-66.2782169,-17.394039000000003],[-66.27816890000001,-17.394033200000003],[-66.27814450000001,-17.3940395],[-66.27811790000001,-17.394044500000003],[-66.27806840000001,-17.394044400000002],[-66.2780201,-17.3940285],[-66.2778794,-17.394015300000003],[-66.27738090000001,-17.393965100000003],[-66.27698430000001,-17.393924000000002],[-66.2768911,-17.3939144],[-66.27613620000001,-17.3938363],[-66.27496330000001,-17.3937285],[-66.27453870000001,-17.3936929],[-66.27442020000001,-17.393684200000003],[-66.27325280000001,-17.393565300000002],[-66.2729886,-17.393549],[-66.27289060000001,-17.393511500000002],[-66.27285210000001,-17.393533100000003],[-66.2728074,-17.3935435],[-66.2727806,-17.393545000000003],[-66.2727581,-17.3935427],[-66.2727267,-17.393536],[-66.2726973,-17.3935241],[-66.27266130000001,-17.3934995],[-66.27249690000001,-17.3934548],[-66.27235230000001,-17.3934131],[-66.27222420000001,-17.393386500000002],[-66.272136,-17.393375000000002],[-66.27118340000001,-17.393261600000002],[-66.27011320000001,-17.3931644],[-66.2699556,-17.393150900000002],[-66.2692456,-17.393083],[-66.2683157,-17.392994],[-66.26816210000001,-17.3929793],[-66.26808580000001,-17.392970400000003],[-66.2680632,-17.3929681],[-66.26630990000001,-17.3927856],[-66.26498190000001,-17.3926561],[-66.2620232,-17.3923631],[-66.26103330000001,-17.3922706],[-66.26040300000001,-17.392209700000002],[-66.2600955,-17.3921801],[-66.2597451,-17.392146200000003],[-66.2596815,-17.392140100000002],[-66.25964130000001,-17.392134600000002],[-66.25948260000001,-17.3921205],[-66.2589272,-17.392065600000002],[-66.25794470000001,-17.391968400000003],[-66.2577273,-17.391949800000003],[-66.2575312,-17.3919305],[-66.2560565,-17.3917855],[-66.2548029,-17.3916521],[-66.25319800000001,-17.3914884],[-66.2530064,-17.3914702],[-66.2528628,-17.3914565],[-66.2517349,-17.391351800000002],[-66.25130530000001,-17.3913072],[-66.2507894,-17.3912641],[-66.25064590000001,-17.3912553],[-66.25044960000001,-17.391241100000002],[-66.24994980000001,-17.391207700000002],[-66.24902460000001,-17.391148],[-66.24892960000001,-17.3911412],[-66.2483832,-17.391103700000002],[-66.2478983,-17.3910798],[-66.2474718,-17.391058800000003],[-66.24669460000001,-17.3910205],[-66.2463515,-17.3910036],[-66.2462864,-17.391000400000003],[-66.246144,-17.390994300000003],[-66.24609570000001,-17.390992800000003],[-66.2459542,-17.3909884],[-66.2450017,-17.3909622],[-66.2449045,-17.390971200000003],[-66.24474570000001,-17.3910024],[-66.244702,-17.391009200000003],[-66.24461070000001,-17.391030400000002],[-66.2444712,-17.391049600000002],[-66.2443896,-17.3910486],[-66.2440073,-17.391043800000002],[-66.2439758,-17.391043200000002],[-66.2439215,-17.3910349],[-66.24373270000001,-17.390998600000003],[-66.24367640000001,-17.3909884],[-66.24355220000001,-17.3909664],[-66.24346390000001,-17.390956900000003],[-66.2433575,-17.3909534],[-66.2427821,-17.3909552],[-66.24211430000001,-17.3909528],[-66.24113820000001,-17.3909664],[-66.2409403,-17.390969400000003],[-66.2398934,-17.390992100000002],[-66.2393461,-17.391020700000002],[-66.2391427,-17.391038400000003],[-66.23896260000001,-17.391061500000003],[-66.2388277,-17.3910735],[-66.23878500000001,-17.3910956],[-66.23875550000001,-17.391099500000003],[-66.23872490000001,-17.3910999],[-66.2386949,-17.391094600000002],[-66.2385208,-17.391072100000002],[-66.23834480000001,-17.3910467],[-66.2381859,-17.3910491],[-66.23783080000001,-17.3910656],[-66.23636230000001,-17.391125600000002],[-66.23635920000001,-17.3911257],[-66.2338646,-17.3912258],[-66.2324387,-17.3912917],[-66.23202930000001,-17.391311],[-66.2319827,-17.391310100000002],[-66.23130280000001,-17.3913334],[-66.23093850000001,-17.3913516],[-66.23050210000001,-17.3913727],[-66.23003270000001,-17.391397100000002],[-66.23001740000001,-17.3913979],[-66.22988550000001,-17.3914048],[-66.2297415,-17.391410200000003],[-66.2291665,-17.3914316],[-66.228361,-17.3914642],[-66.2274295,-17.3915073],[-66.22662360000001,-17.391544500000002],[-66.22649600000001,-17.391546700000003],[-66.22491930000001,-17.391616900000002],[-66.22209000000001,-17.391740000000002],[-66.2218668,-17.391750700000003],[-66.2215956,-17.391763800000003],[-66.2213351,-17.3917763],[-66.2201605,-17.391822400000002],[-66.2194839,-17.39185],[-66.21940950000001,-17.391853],[-66.2190114,-17.3918693],[-66.218896,-17.3918743],[-66.2182131,-17.3919074],[-66.2154179,-17.392026100000002],[-66.2134978,-17.3921116],[-66.2125925,-17.3921494],[-66.21252270000001,-17.3921524],[-66.2103878,-17.392245600000003],[-66.2103017,-17.392249600000003],[-66.208973,-17.3923041],[-66.20829520000001,-17.3923381],[-66.20824280000001,-17.392340800000003],[-66.20819030000001,-17.3923434],[-66.2080961,-17.3923466],[-66.20801010000001,-17.3923501],[-66.2077704,-17.392359900000002],[-66.20563480000001,-17.3924477],[-66.20470830000001,-17.392489100000002],[-66.20430920000001,-17.3925078],[-66.2036195,-17.3925345],[-66.2031084,-17.392554200000003],[-66.2004314,-17.3926766],[-66.2002307,-17.392685800000002],[-66.1998222,-17.392704600000002],[-66.1997525,-17.3927076],[-66.1996829,-17.3927105],[-66.1996077,-17.392714100000003],[-66.19948160000001,-17.392719300000003],[-66.1989358,-17.392742000000002],[-66.1970994,-17.392820500000003],[-66.19696090000001,-17.3928267],[-66.19417130000001,-17.3929516],[-66.19390320000001,-17.3929632],[-66.1918596,-17.3930496],[-66.1892684,-17.393168300000003],[-66.1875821,-17.393243100000003],[-66.18641620000001,-17.393294400000002],[-66.1844616,-17.3933742],[-66.18410340000001,-17.3933915],[-66.1825146,-17.393462200000002],[-66.18183020000001,-17.393494],[-66.1810597,-17.393529800000003],[-66.1801494,-17.393567700000002],[-66.1795661,-17.393593300000003],[-66.17767380000001,-17.3936785],[-66.17727880000001,-17.393696700000003],[-66.1766698,-17.3937248],[-66.176607,-17.393727700000003],[-66.1764849,-17.393733],[-66.1763233,-17.3937399],[-66.1746071,-17.3938138],[-66.1740147,-17.3938393],[-66.1739096,-17.3938439],[-66.1724045,-17.393906400000002],[-66.17213500000001,-17.3939606],[-66.171351,-17.3939959],[-66.1711564,-17.394010700000003],[-66.17086850000001,-17.3940485],[-66.1708359,-17.3940528],[-66.1707777,-17.3940604],[-66.17074910000001,-17.394078200000003],[-66.17071770000001,-17.394089],[-66.1706843,-17.394098600000003],[-66.1706577,-17.3941006],[-66.1706312,-17.394099100000002],[-66.17060500000001,-17.394094300000003],[-66.1705706,-17.3940823],[-66.17053630000001,-17.3940981],[-66.1705029,-17.394110100000002],[-66.1703542,-17.394129900000003],[-66.1692179,-17.394172700000002],[-66.16885,-17.3941349],[-66.16874890000001,-17.3941394],[-66.1683519,-17.3941568],[-66.1680676,-17.3941641],[-66.1679544,-17.394168500000003],[-66.1678047,-17.3941549],[-66.1676034,-17.394136500000002],[-66.1674792,-17.394121900000002],[-66.167405,-17.3941166],[-66.1673762,-17.394114000000002],[-66.1669627,-17.3940655],[-66.1669372,-17.394063600000003],[-66.16669850000001,-17.3940382],[-66.1666089,-17.3940263],[-66.1665145,-17.394004600000002],[-66.16633800000001,-17.3939312],[-66.16627290000001,-17.3939109],[-66.16619200000001,-17.393893600000002],[-66.165909,-17.393848300000002],[-66.1649058,-17.393669600000003],[-66.1639803,-17.393500500000002],[-66.1639145,-17.3934885],[-66.16386080000001,-17.393479600000003],[-66.16214910000001,-17.393195700000003],[-66.16205310000001,-17.393179800000002],[-66.1619793,-17.3931673],[-66.16111430000001,-17.393020200000002],[-66.1610467,-17.393008700000003],[-66.1610381,-17.393062],[-66.16099200000001,-17.3933439],[-66.1608968,-17.3939491],[-66.16068340000001,-17.3950108],[-66.1604669,-17.3960638],[-66.1602697,-17.3970938],[-66.1602452,-17.397186700000002],[-66.1600736,-17.3981211],[-66.1600638,-17.3981838],[-66.1603377,-17.398229800000003],[-66.1603371,-17.398324600000002],[-66.1603343,-17.3987565],[-66.1603307,-17.3993122],[-66.1603302,-17.3993931],[-66.16032120000001,-17.3995399],[-66.1601864,-17.3995393],[-66.16006200000001,-17.3995387],[-66.16000960000001,-17.3995378],[-66.15919930000001,-17.3995202],[-66.1587775,-17.3995107],[-66.15874260000001,-17.399510000000003],[-66.15867080000001,-17.3995086],[-66.15856140000001,-17.3995064],[-66.1578434,-17.399489900000003],[-66.1577288,-17.3994867],[-66.1577242,-17.3995661],[-66.1577104,-17.3998063],[-66.1576735,-17.400164800000002],[-66.15759510000001,-17.4009518],[-66.1575885,-17.401002300000002],[-66.15757520000001,-17.401153700000002],[-66.157522,-17.4015753],[-66.1574818,-17.4020121],[-66.1574693,-17.4021498],[-66.1574602,-17.4022501],[-66.1574143,-17.4026402],[-66.15738040000001,-17.402927400000003],[-66.15730570000001,-17.403430800000002],[-66.1571981,-17.4039846],[-66.1571744,-17.4040293],[-66.15714940000001,-17.404081100000003],[-66.15697510000001,-17.4051438],[-66.156929,-17.4053964],[-66.15671490000001,-17.4065683],[-66.15667520000001,-17.4068311],[-66.1566081,-17.407373500000002],[-66.1565791,-17.4075962],[-66.1565643,-17.407672],[-66.15655220000001,-17.4077489],[-66.1563919,-17.408892],[-66.1562995,-17.4093093],[-66.1562526,-17.409537],[-66.1561494,-17.4101159],[-66.15610310000001,-17.410408800000003],[-66.1560788,-17.4106525],[-66.15603870000001,-17.411008600000002],[-66.1563064,-17.411838900000003],[-66.15636760000001,-17.412081200000003],[-66.1564244,-17.4124108],[-66.1564184,-17.4125091],[-66.1564168,-17.4125769],[-66.15643220000001,-17.412667300000003],[-66.15647890000001,-17.4129417],[-66.1565082,-17.413103200000002],[-66.1566016,-17.4136172],[-66.15664120000001,-17.4138349],[-66.1567186,-17.4142572],[-66.15675490000001,-17.414352100000002],[-66.1567981,-17.4145858],[-66.15684270000001,-17.414698],[-66.1569922,-17.4155388],[-66.15700910000001,-17.415626900000003],[-66.1570227,-17.415709600000003],[-66.15719700000001,-17.4165706],[-66.157207,-17.4166281],[-66.1572232,-17.416710700000003],[-66.1573721,-17.4176234],[-66.15754650000001,-17.4187052],[-66.1576093,-17.4191214],[-66.157644,-17.4193561],[-66.15768030000001,-17.419601],[-66.1576838,-17.419624900000002],[-66.15769390000001,-17.4196932],[-66.1577032,-17.4197518],[-66.1577297,-17.4199188],[-66.15777030000001,-17.420174600000003],[-66.15777890000001,-17.4202297],[-66.15781700000001,-17.420468300000003],[-66.15782060000001,-17.420491000000002],[-66.1578264,-17.420528],[-66.15788470000001,-17.4209201],[-66.15792160000001,-17.4211652],[-66.1580254,-17.421770900000002],[-66.1581003,-17.4217686],[-66.1597876,-17.4218501],[-66.1597584,-17.4227163],[-66.1597268,-17.423619700000003],[-66.1596801,-17.424574800000002],[-66.15963110000001,-17.425765100000003],[-66.15963040000001,-17.425825600000003],[-66.1595867,-17.4267663],[-66.15958520000001,-17.4269044],[-66.1595685,-17.427003600000003],[-66.15954280000001,-17.427100600000003],[-66.1594704,-17.427252600000003],[-66.1594123,-17.4273475],[-66.1593363,-17.427435300000003],[-66.15922520000001,-17.4275176],[-66.159143,-17.427560000000003],[-66.15904160000001,-17.427626200000002],[-66.1588023,-17.4278383],[-66.1586738,-17.4279298],[-66.1585632,-17.4280094],[-66.15849560000001,-17.428029300000002],[-66.15841250000001,-17.428038500000003],[-66.1583488,-17.4280347],[-66.1582678,-17.428016000000003],[-66.1580443,-17.427960900000002],[-66.15785020000001,-17.427909200000002],[-66.157741,-17.427886400000002],[-66.157673,-17.4278775],[-66.15761590000001,-17.4278714],[-66.157498,-17.4278669],[-66.1574617,-17.4278689],[-66.1574247,-17.427870900000002],[-66.157359,-17.427878300000003],[-66.15715800000001,-17.4279183],[-66.157027,-17.427961200000002],[-66.1569343,-17.428012600000002],[-66.15684560000001,-17.428074300000002],[-66.156766,-17.428137900000003],[-66.1566992,-17.428194],[-66.1565264,-17.428388700000003],[-66.1564374,-17.428476],[-66.1558433,-17.4291284],[-66.15581270000001,-17.4291611],[-66.15571220000001,-17.429276100000003],[-66.1555053,-17.4295221],[-66.1554292,-17.4295997],[-66.15535120000001,-17.4296648],[-66.1546685,-17.4299232],[-66.15444040000001,-17.4300558],[-66.15419560000001,-17.430262300000003],[-66.1540128,-17.4304367],[-66.15386550000001,-17.4305826],[-66.15372040000001,-17.4307535],[-66.1536396,-17.430848700000002],[-66.15330130000001,-17.4312453],[-66.1532334,-17.4313563],[-66.1531776,-17.431447300000002],[-66.15313450000001,-17.431533100000003],[-66.15309710000001,-17.4316132],[-66.153068,-17.4316575],[-66.15282950000001,-17.4323897],[-66.15249010000001,-17.433709500000003],[-66.15247550000001,-17.433765],[-66.1524696,-17.4338094],[-66.1524789,-17.433888800000002],[-66.1525139,-17.4339644],[-66.15258130000001,-17.4340395],[-66.1530067,-17.434414500000003],[-66.15303920000001,-17.434440000000002],[-66.1531126,-17.4344959],[-66.15317490000001,-17.4345521],[-66.15321820000001,-17.4346107],[-66.15324700000001,-17.4346774],[-66.1532579,-17.434756500000002],[-66.15324910000001,-17.4348157],[-66.1532341,-17.434870800000002],[-66.1531417,-17.435015500000002],[-66.1527274,-17.435624400000002],[-66.1521613,-17.4363926],[-66.15169420000001,-17.4360429],[-66.1516392,-17.436118],[-66.151138,-17.436776000000002],[-66.1516285,-17.437129900000002],[-66.15166140000001,-17.437169700000002],[-66.1517342,-17.437244200000002],[-66.15177600000001,-17.4372812],[-66.1518252,-17.4373241],[-66.1523562,-17.4376716],[-66.15264450000001,-17.437856],[-66.1522364,-17.438439300000002],[-66.15190340000001,-17.438909600000002],[-66.15136290000001,-17.4396671],[-66.1507457,-17.4406035],[-66.1507,-17.4406801],[-66.1497463,-17.440122300000002],[-66.1491264,-17.439808900000003],[-66.1485372,-17.4394832],[-66.1478616,-17.440435700000002],[-66.1470316,-17.440229000000002],[-66.1469763,-17.440359700000002],[-66.146912,-17.4404745],[-66.1468317,-17.4405858],[-66.1467576,-17.4406688],[-66.1466814,-17.4407402],[-66.1465775,-17.4408204],[-66.1464845,-17.440893600000003],[-66.14629040000001,-17.441012200000003],[-66.14620740000001,-17.4410245],[-66.1461464,-17.441019],[-66.14608770000001,-17.4409959],[-66.14600200000001,-17.4409433],[-66.1458824,-17.440878100000003],[-66.14577770000001,-17.440821000000003],[-66.14479100000001,-17.4401948]],"nodes":[9343567707,9246690551,4804071142,783870785,9773871282,783870057,783870208,783870089,783869949,783869318,309139570,309139571,782027174,11071728012,309139572,3677020775,7061283314,309139573,783870171,782026707,309139574,782025806,11071728010,782027708,782027950,11071728009,783871224,7061283302,11815803316,783870549,309139575,5195630449,5920871566,11815812138,7943415846,782028428,3677020782,7943415844,3677020780,7943415834,7943415836,7943415838,7061283281,782027459,5866174809,5866174808,3677020788,5920871511,783870877,309139577,5483940732,3677020789,783869214,8623670580,5920871555,11353342875,309139579,617337214,617337215,617337216,617337210,783870497,783869032,783869230,617337207,4265472487,617337206,8221419719,783871061,782026427,783869201,309139587,319770860,319770806,12530467809,7535460543,319771123,6852610657,319771124,6852610656,6852610652,319771126,6728813998,11353309042,8221419846,617198439,7527591106,3192787640,7527591083,11073473498,7527591084,6179669353,7527591077,7527591100,617344406,8221419836,8221419838,781813590,783870512,781813472,8221419798,12487415613,12706842543,2140912563,6917120246,9354944921,319771802,2140912543,8048387332,9354944920,617200550,8048387321,319772517,12706842535,319771957,783869220,617337192,617337190,13744093450,785869304,5870202365,5870202366,6917120217,785868542,785868821,2544242053,5236806811,8316478288,8316478291,9262757164,8316478298,319772617,12091174511,8316478286,786662202,4571961294,11084165261,786662071,786662079,7149699478,10012571191,786662233,786662020,7933924070,8630411911,786662086,4571961312,9008315768,786662289,786662384,4317735514,7933924074,9008315506,9008315507,10572209945,8316478467,319773261,9008315534,9008315509,8316478468,319773262,9008315710,4586488215,10837513366,2594886774,11296265958,10837513370,4586488216,10837513371,10572209994,319773839,8630411836,319773840,8630411835,793568529,793568511,6918618955,793568540,793568550,7933924038,698491866,9008269186,698491852,698491857,9355127785,9355127784,698491894,9008269190,4586487875,8317038874,6836037176,793568534,9025874012,793568542,793568567,6282778241,793568556,5605232830,5605232828,8627399434,9786116626,9786116635,2354386800,9786116631,8627399435,794074995,9008269168,794075099,794075049,794074991,794074975,4340534094,4478225459,794075151,13760954833,3255507834,13760954848,13760954835,4158051955,794075132,794075196,794075208,794074982,794075086,794075201,794075101,6845758237,8235936965,13685730899,2417368094,794081382,8235936959,8235936931,2417368107,2417368139,2417368154,6846214132,2417368183,1807038058,12650627925,2429829239,12650627934,1807038060,1807038065,8235455990,497195296,2339557956,2339557957,2160491572,6282770217,2160491570,2292218255,2635402936,6272592192,4398318268,6326490903,698597067,13438104010,560522669,689437127,800044225,800044066,9081523770,13438065392,2527263187,800044095,13438103967,9017927915,800044053,800043986,12300469255,315919272,13416534064,13416534065,13417065133,13436362625,13416534061,13416534042,13303075825,13416534071,13303071588,13416534056,13416534072,13303071581,13416534049,660004651,13416534073,800044094,9081461993,6952929962,800044036,12088438231,315934179,9081829379,4732874466,2420519774,11079352071,315942232,648570956,11079352069,315935003,8147129096,3281516922,2330755899,3281516920,1636978219,698492313,698492316,10792253186,698492319,10792253182,10879431900,698492322,8565985150,2694171671,698492339,2694171672,310502623,310499276,310499297,310258959,5143443460,10274952173,9175513412,310500789,323970198,9175513410,9175513406,2892759697,323969927,8374185329,8374185342,315111093,4959147106,659970418,659970419,9593572470,13484099735,9593572466,2398944651,648548910,2398944656,2577975072,4449488611,2577975100,648543481,8637329085,2577975115,2577975131,9090462298,648542366,9652874528,702511644,2577975282,2577975307,9090462294,648542369,648542365,9131177339,323972806,2763553535,702511613,2763553554,2763553563,8226219195,319762950,1637437071,9131083914,2763553594,9131083870,319762952,319762953,648534611,560101168,3709606816,13764586809,13674975944,13764586839,497187494,13764586827,13764586828,3709607014,13764586811,13674975943,3709607018,1497947893,5433999187,497187505,5433999186,5433895294,740519915,5433895292,1497947915,1497947892,740519920,13067849843,13067849853,13067849851,4679599413,12589580114,13383715977,740519921,7768396127,12519463522,7768396129,13383715982,740519924,7768396074,740519927,12519400495,3017389928,3017389927,3017389926,3017389925,3017389924,3307354193,1638807898,1638807907,1638807909,1638807911,1638807924,3306545231,1638835963,740519935,1499934256,3307354249,1638807933,3307354256,1638807940,3307354260,1638807942,1638807937,3307354258,1615155235,1638807932,1638807929,3307354252,6322278222,1638807928,10272505618,1638807931,3307354254,1499573815,3307354257,1638807944,3307354261,3307354264,1638807945,9208393344,2149915993,1638807950,5781853501,6887895201,3307473755,1638807956,1638807960,1615155237,1638807970,1638807977,1638807982,1638807987,13188044789,2053282905,1638807991,1638807995,3307473816,3307473817,3307473818,1638808000,2053282939,1638806992,1638806993,3307591928,3307591930,1638806996,3307591931,2053282954,5627484992,1638806998,1638807000,8465159307,1638807002,1638807003,8465159309,1638807005,1638807007,5627485005,2053282934,2053282986,10035468117,3017399397,2053282944,9150039357,9150039356,2440970042,13732307828,11232750613,2440970043,1617351971,3310577765,2395889477,1638808033,3663216358,2440970063,2440975726,1637648678,2440975731,3017399389,1638807054,3308828865,1638807057,3308828872,3308828876,1638807063,3308828887,1638807070,1638807071,10030867313,1638807068,8465159279,10032577632,5595102351,3308828862]},"gtfs":{"agency_id":2,"route_id":13,"services":[{"service_id":"Mo-Su","startTime":"06:00","endTime":"22:00","trip_id":5386696}],"filteredStops":{"nodes":[9343567707,9246690551,4804071142,783870785,9773871282,783870057,783870208,783870089,783869949,783869318,309139570,309139571,782027174,11071728012,309139572,3677020775,7061283314,309139573,783870171,782026707,309139574,782025806,11071728010,782027708,782027950,11071728009,783871224,7061283302,11815803316,783870549,309139575,5195630449,5920871566,11815812138,7943415846,782028428,3677020782,7943415844,3677020780,7943415834,7943415836,7943415838,7061283281,782027459,5866174809,5866174808,3677020788,5920871511,783870877,309139577,5483940732,3677020789,783869214,8623670580,5920871555,11353342875,309139579,617337214,617337215,617337216,617337210,783870497,783869032,783869230,617337207,4265472487,617337206,8221419719,783871061,782026427,783869201,309139587,319770860,319770806,12530467809,7535460543,319771123,6852610657,319771124,6852610656,6852610652,319771126,6728813998,11353309042,8221419846,617198439,7527591106,3192787640,7527591083,11073473498,7527591084,6179669353,7527591077,7527591100,617344406,8221419836,8221419838,781813590,783870512,781813472,8221419798,12487415613,12706842543,2140912563,6917120246,9354944921,319771802,2140912543,8048387332,9354944920,617200550,8048387321,319772517,12706842535,319771957,783869220,617337192,617337190,13744093450,785869304,5870202365,5870202366,6917120217,785868542,785868821,2544242053,5236806811,8316478288,8316478291,9262757164,8316478298,319772617,12091174511,8316478286,786662202,4571961294,11084165261,786662071,786662079,7149699478,10012571191,786662233,786662020,7933924070,8630411911,786662086,4571961312,9008315768,786662289,786662384,4317735514,7933924074,9008315506,9008315507,10572209945,8316478467,319773261,9008315534,9008315509,8316478468,319773262,9008315710,4586488215,10837513366,2594886774,11296265958,10837513370,4586488216,10837513371,10572209994,319773839,8630411836,319773840,8630411835,793568529,793568511,6918618955,793568540,793568550,7933924038,698491866,9008269186,698491852,698491857,9355127785,9355127784,698491894,9008269190,4586487875,8317038874,6836037176,793568534,9025874012,793568542,793568567,6282778241,793568556,5605232830,5605232828,8627399434,9786116626,9786116635,2354386800,9786116631,8627399435,794074995,9008269168,794075099,794075049,794074991,794074975,4340534094,4478225459,794075151,13760954833,3255507834,13760954848,13760954835,4158051955,794075132,794075196,794075208,794074982,794075086,794075201,794075101,6845758237,8235936965,13685730899,2417368094,794081382,8235936959,8235936931,2417368107,2417368139,2417368154,6846214132,2417368183,1807038058,12650627925,2429829239,12650627934,1807038060,1807038065,8235455990,497195296,2339557956,2339557957,2160491572,6282770217,2160491570,2292218255,2635402936,6272592192,4398318268,6326490903,698597067,13438104010,560522669,689437127,800044225,800044066,9081523770,13438065392,2527263187,800044095,13438103967,9017927915,800044053,800043986,12300469255,315919272,13416534064,13416534065,13417065133,13436362625,13416534061,13416534042,13303075825,13416534071,13303071588,13416534056,13416534072,13303071581,13416534049,660004651,13416534073,800044094,9081461993,6952929962,800044036,12088438231,315934179,9081829379,4732874466,2420519774,11079352071,315942232,648570956,11079352069,315935003,8147129096,3281516922,2330755899,3281516920,1636978219,698492313,698492316,10792253186,698492319,10792253182,10879431900,698492322,8565985150,2694171671,698492339,2694171672,310502623,310499276,310499297,310258959,5143443460,10274952173,9175513412,310500789,323970198,9175513410,9175513406,2892759697,323969927,8374185329,8374185342,315111093,4959147106,659970418,659970419,9593572470,13484099735,9593572466,2398944651,648548910,2398944656,2577975072,4449488611,2577975100,648543481,8637329085,2577975115,2577975131,9090462298,648542366,9652874528,702511644,2577975282,2577975307,9090462294,648542369,648542365,9131177339,323972806,2763553535,702511613,2763553554,2763553563,8226219195,319762950,1637437071,9131083914,2763553594,9131083870,319762952,319762953,648534611,560101168,3709606816,13764586809,13674975944,13764586839,497187494,13764586827,13764586828,3709607014,13764586811,13674975943,3709607018,1497947893,5433999187,497187505,5433999186,5433895294,740519915,5433895292,1497947915,1497947892,740519920,13067849843,13067849853,13067849851,4679599413,12589580114,13383715977,740519921,7768396127,12519463522,7768396129,13383715982,740519924,7768396074,740519927,12519400495,3017389928,3017389927,3017389926,3017389925,3017389924,3307354193,1638807898,1638807907,1638807909,1638807911,1638807924,3306545231,1638835963,740519935,1499934256,3307354249,1638807933,3307354256,1638807940,3307354260,1638807942,1638807937,3307354258,1615155235,1638807932,1638807929,3307354252,6322278222,1638807928,10272505618,1638807931,3307354254,1499573815,3307354257,1638807944,3307354261,3307354264,1638807945,9208393344,2149915993,1638807950,5781853501,6887895201,3307473755,1638807956,1638807960,1615155237,1638807970,1638807977,1638807982,1638807987,13188044789,2053282905,1638807991,1638807995,3307473816,3307473817,3307473818,1638808000,2053282939,1638806992,1638806993,3307591928,3307591930,1638806996,3307591931,2053282954,5627484992,1638806998,1638807000,8465159307,1638807002,1638807003,8465159309,1638807005,1638807007,5627485005,2053282934,2053282986,10035468117,3017399397,2053282944,9150039357,9150039356,2440970042,13732307828,11232750613,2440970043,1617351971,3310577765,2395889477,1638808033,3663216358,2440970063,2440975726,1637648678,2440975731,3017399389,1638807054,3308828865,1638807057,3308828872,3308828876,1638807063,3308828887,1638807070,1638807071,10030867313,1638807068,8465159279,10032577632,5595102351,3308828862],"coordinates":[[-66.2814822,-17.3597222],[-66.28211900000001,-17.3601129],[-66.28256830000001,-17.360402200000003],[-66.2827992,-17.3605702],[-66.28291100000001,-17.3606491],[-66.28299600000001,-17.360661500000003],[-66.28412250000001,-17.360674300000003],[-66.2841205,-17.360786],[-66.2850531,-17.3607307],[-66.2851735,-17.3607848],[-66.2858147,-17.361091000000002],[-66.2850799,-17.362543000000002],[-66.2849628,-17.3627156],[-66.28461200000001,-17.363022700000002],[-66.28429050000001,-17.363314600000002],[-66.2840192,-17.3635974],[-66.28350830000001,-17.3642162],[-66.28304100000001,-17.3647823],[-66.28284020000001,-17.3650243],[-66.28276100000001,-17.365151700000002],[-66.2827183,-17.365252700000003],[-66.28270420000001,-17.365354],[-66.28273580000001,-17.365625],[-66.282785,-17.365894500000003],[-66.2828612,-17.366282400000003],[-66.2828779,-17.366577300000003],[-66.28287320000001,-17.3669261],[-66.28285980000001,-17.3672395],[-66.2828647,-17.368436900000003],[-66.2828649,-17.368504100000003],[-66.2828781,-17.368955000000003],[-66.28290100000001,-17.3695421],[-66.282976,-17.371083900000002],[-66.28303860000001,-17.372350700000002],[-66.28303960000001,-17.3723743],[-66.2830428,-17.3724512],[-66.28306470000001,-17.3727315],[-66.2831393,-17.373781700000002],[-66.2831896,-17.374435700000003],[-66.28320070000001,-17.374580700000003],[-66.28326150000001,-17.375215800000003],[-66.2832941,-17.3755729],[-66.28332540000001,-17.375903800000003],[-66.2833736,-17.3764524],[-66.28339070000001,-17.376647600000002],[-66.28339670000001,-17.376812700000002],[-66.28341300000001,-17.377065400000003],[-66.28343450000001,-17.377602300000003],[-66.2834553,-17.3780004],[-66.283534,-17.379504800000003],[-66.2835529,-17.3799138],[-66.2835936,-17.3808928],[-66.28363630000001,-17.3816792],[-66.28366790000001,-17.3818968],[-66.28370810000001,-17.382116800000002],[-66.2839953,-17.3833404],[-66.28398410000001,-17.3834355],[-66.28386610000001,-17.3843116],[-66.2838349,-17.3846494],[-66.2838103,-17.3859974],[-66.2838212,-17.386738700000002],[-66.2837516,-17.387060700000003],[-66.28364420000001,-17.387466800000002],[-66.283624,-17.388266400000003],[-66.2836355,-17.389429],[-66.28422350000001,-17.389448700000003],[-66.28471760000001,-17.389481],[-66.2847301,-17.3900678],[-66.2847093,-17.3907853],[-66.28469340000001,-17.391977200000003],[-66.2846597,-17.393044900000003],[-66.2846576,-17.393209300000002],[-66.2846215,-17.394230200000003],[-66.28460890000001,-17.3945051],[-66.2845654,-17.3945027],[-66.2830692,-17.3944213],[-66.2829966,-17.3944173],[-66.2816911,-17.394348800000003],[-66.2815709,-17.394341700000002],[-66.2814919,-17.3943373],[-66.2807205,-17.3942881],[-66.2806245,-17.394282],[-66.2804969,-17.3942675],[-66.2798815,-17.3942066],[-66.2795033,-17.3941692],[-66.27879770000001,-17.3940994],[-66.27829600000001,-17.3940485],[-66.2782169,-17.394039000000003],[-66.27816890000001,-17.394033200000003],[-66.27814450000001,-17.3940395],[-66.27811790000001,-17.394044500000003],[-66.27806840000001,-17.394044400000002],[-66.2780201,-17.3940285],[-66.2778794,-17.394015300000003],[-66.27738090000001,-17.393965100000003],[-66.27698430000001,-17.393924000000002],[-66.2768911,-17.3939144],[-66.27613620000001,-17.3938363],[-66.27496330000001,-17.3937285],[-66.27453870000001,-17.3936929],[-66.27442020000001,-17.393684200000003],[-66.27325280000001,-17.393565300000002],[-66.2729886,-17.393549],[-66.27289060000001,-17.393511500000002],[-66.27285210000001,-17.393533100000003],[-66.2728074,-17.3935435],[-66.2727806,-17.393545000000003],[-66.2727581,-17.3935427],[-66.2727267,-17.393536],[-66.2726973,-17.3935241],[-66.27266130000001,-17.3934995],[-66.27249690000001,-17.3934548],[-66.27235230000001,-17.3934131],[-66.27222420000001,-17.393386500000002],[-66.272136,-17.393375000000002],[-66.27118340000001,-17.393261600000002],[-66.27011320000001,-17.3931644],[-66.2699556,-17.393150900000002],[-66.2692456,-17.393083],[-66.2683157,-17.392994],[-66.26816210000001,-17.3929793],[-66.26808580000001,-17.392970400000003],[-66.2680632,-17.3929681],[-66.26630990000001,-17.3927856],[-66.26498190000001,-17.3926561],[-66.2620232,-17.3923631],[-66.26103330000001,-17.3922706],[-66.26040300000001,-17.392209700000002],[-66.2600955,-17.3921801],[-66.2597451,-17.392146200000003],[-66.2596815,-17.392140100000002],[-66.25964130000001,-17.392134600000002],[-66.25948260000001,-17.3921205],[-66.2589272,-17.392065600000002],[-66.25794470000001,-17.391968400000003],[-66.2577273,-17.391949800000003],[-66.2575312,-17.3919305],[-66.2560565,-17.3917855],[-66.2548029,-17.3916521],[-66.25319800000001,-17.3914884],[-66.2530064,-17.3914702],[-66.2528628,-17.3914565],[-66.2517349,-17.391351800000002],[-66.25130530000001,-17.3913072],[-66.2507894,-17.3912641],[-66.25064590000001,-17.3912553],[-66.25044960000001,-17.391241100000002],[-66.24994980000001,-17.391207700000002],[-66.24902460000001,-17.391148],[-66.24892960000001,-17.3911412],[-66.2483832,-17.391103700000002],[-66.2478983,-17.3910798],[-66.2474718,-17.391058800000003],[-66.24669460000001,-17.3910205],[-66.2463515,-17.3910036],[-66.2462864,-17.391000400000003],[-66.246144,-17.390994300000003],[-66.24609570000001,-17.390992800000003],[-66.2459542,-17.3909884],[-66.2450017,-17.3909622],[-66.2449045,-17.390971200000003],[-66.24474570000001,-17.3910024],[-66.244702,-17.391009200000003],[-66.24461070000001,-17.391030400000002],[-66.2444712,-17.391049600000002],[-66.2443896,-17.3910486],[-66.2440073,-17.391043800000002],[-66.2439758,-17.391043200000002],[-66.2439215,-17.3910349],[-66.24373270000001,-17.390998600000003],[-66.24367640000001,-17.3909884],[-66.24355220000001,-17.3909664],[-66.24346390000001,-17.390956900000003],[-66.2433575,-17.3909534],[-66.2427821,-17.3909552],[-66.24211430000001,-17.3909528],[-66.24113820000001,-17.3909664],[-66.2409403,-17.390969400000003],[-66.2398934,-17.390992100000002],[-66.2393461,-17.391020700000002],[-66.2391427,-17.391038400000003],[-66.23896260000001,-17.391061500000003],[-66.2388277,-17.3910735],[-66.23878500000001,-17.3910956],[-66.23875550000001,-17.391099500000003],[-66.23872490000001,-17.3910999],[-66.2386949,-17.391094600000002],[-66.2385208,-17.391072100000002],[-66.23834480000001,-17.3910467],[-66.2381859,-17.3910491],[-66.23783080000001,-17.3910656],[-66.23636230000001,-17.391125600000002],[-66.23635920000001,-17.3911257],[-66.2338646,-17.3912258],[-66.2324387,-17.3912917],[-66.23202930000001,-17.391311],[-66.2319827,-17.391310100000002],[-66.23130280000001,-17.3913334],[-66.23093850000001,-17.3913516],[-66.23050210000001,-17.3913727],[-66.23003270000001,-17.391397100000002],[-66.23001740000001,-17.3913979],[-66.22988550000001,-17.3914048],[-66.2297415,-17.391410200000003],[-66.2291665,-17.3914316],[-66.228361,-17.3914642],[-66.2274295,-17.3915073],[-66.22662360000001,-17.391544500000002],[-66.22649600000001,-17.391546700000003],[-66.22491930000001,-17.391616900000002],[-66.22209000000001,-17.391740000000002],[-66.2218668,-17.391750700000003],[-66.2215956,-17.391763800000003],[-66.2213351,-17.3917763],[-66.2201605,-17.391822400000002],[-66.2194839,-17.39185],[-66.21940950000001,-17.391853],[-66.2190114,-17.3918693],[-66.218896,-17.3918743],[-66.2182131,-17.3919074],[-66.2154179,-17.392026100000002],[-66.2134978,-17.3921116],[-66.2125925,-17.3921494],[-66.21252270000001,-17.3921524],[-66.2103878,-17.392245600000003],[-66.2103017,-17.392249600000003],[-66.208973,-17.3923041],[-66.20829520000001,-17.3923381],[-66.20824280000001,-17.392340800000003],[-66.20819030000001,-17.3923434],[-66.2080961,-17.3923466],[-66.20801010000001,-17.3923501],[-66.2077704,-17.392359900000002],[-66.20563480000001,-17.3924477],[-66.20470830000001,-17.392489100000002],[-66.20430920000001,-17.3925078],[-66.2036195,-17.3925345],[-66.2031084,-17.392554200000003],[-66.2004314,-17.3926766],[-66.2002307,-17.392685800000002],[-66.1998222,-17.392704600000002],[-66.1997525,-17.3927076],[-66.1996829,-17.3927105],[-66.1996077,-17.392714100000003],[-66.19948160000001,-17.392719300000003],[-66.1989358,-17.392742000000002],[-66.1970994,-17.392820500000003],[-66.19696090000001,-17.3928267],[-66.19417130000001,-17.3929516],[-66.19390320000001,-17.3929632],[-66.1918596,-17.3930496],[-66.1892684,-17.393168300000003],[-66.1875821,-17.393243100000003],[-66.18641620000001,-17.393294400000002],[-66.1844616,-17.3933742],[-66.18410340000001,-17.3933915],[-66.1825146,-17.393462200000002],[-66.18183020000001,-17.393494],[-66.1810597,-17.393529800000003],[-66.1801494,-17.393567700000002],[-66.1795661,-17.393593300000003],[-66.17767380000001,-17.3936785],[-66.17727880000001,-17.393696700000003],[-66.1766698,-17.3937248],[-66.176607,-17.393727700000003],[-66.1764849,-17.393733],[-66.1763233,-17.3937399],[-66.1746071,-17.3938138],[-66.1740147,-17.3938393],[-66.1739096,-17.3938439],[-66.1724045,-17.393906400000002],[-66.17213500000001,-17.3939606],[-66.171351,-17.3939959],[-66.1711564,-17.394010700000003],[-66.17086850000001,-17.3940485],[-66.1708359,-17.3940528],[-66.1707777,-17.3940604],[-66.17074910000001,-17.394078200000003],[-66.17071770000001,-17.394089],[-66.1706843,-17.394098600000003],[-66.1706577,-17.3941006],[-66.1706312,-17.394099100000002],[-66.17060500000001,-17.394094300000003],[-66.1705706,-17.3940823],[-66.17053630000001,-17.3940981],[-66.1705029,-17.394110100000002],[-66.1703542,-17.394129900000003],[-66.1692179,-17.394172700000002],[-66.16885,-17.3941349],[-66.16874890000001,-17.3941394],[-66.1683519,-17.3941568],[-66.1680676,-17.3941641],[-66.1679544,-17.394168500000003],[-66.1678047,-17.3941549],[-66.1676034,-17.394136500000002],[-66.1674792,-17.394121900000002],[-66.167405,-17.3941166],[-66.1673762,-17.394114000000002],[-66.1669627,-17.3940655],[-66.1669372,-17.394063600000003],[-66.16669850000001,-17.3940382],[-66.1666089,-17.3940263],[-66.1665145,-17.394004600000002],[-66.16633800000001,-17.3939312],[-66.16627290000001,-17.3939109],[-66.16619200000001,-17.393893600000002],[-66.165909,-17.393848300000002],[-66.1649058,-17.393669600000003],[-66.1639803,-17.393500500000002],[-66.1639145,-17.3934885],[-66.16386080000001,-17.393479600000003],[-66.16214910000001,-17.393195700000003],[-66.16205310000001,-17.393179800000002],[-66.1619793,-17.3931673],[-66.16111430000001,-17.393020200000002],[-66.1610467,-17.393008700000003],[-66.1610381,-17.393062],[-66.16099200000001,-17.3933439],[-66.1608968,-17.3939491],[-66.16068340000001,-17.3950108],[-66.1604669,-17.3960638],[-66.1602697,-17.3970938],[-66.1602452,-17.397186700000002],[-66.1600736,-17.3981211],[-66.1600638,-17.3981838],[-66.1603377,-17.398229800000003],[-66.1603371,-17.398324600000002],[-66.1603343,-17.3987565],[-66.1603307,-17.3993122],[-66.1603302,-17.3993931],[-66.16032120000001,-17.3995399],[-66.1601864,-17.3995393],[-66.16006200000001,-17.3995387],[-66.16000960000001,-17.3995378],[-66.15919930000001,-17.3995202],[-66.1587775,-17.3995107],[-66.15874260000001,-17.399510000000003],[-66.15867080000001,-17.3995086],[-66.15856140000001,-17.3995064],[-66.1578434,-17.399489900000003],[-66.1577288,-17.3994867],[-66.1577242,-17.3995661],[-66.1577104,-17.3998063],[-66.1576735,-17.400164800000002],[-66.15759510000001,-17.4009518],[-66.1575885,-17.401002300000002],[-66.15757520000001,-17.401153700000002],[-66.157522,-17.4015753],[-66.1574818,-17.4020121],[-66.1574693,-17.4021498],[-66.1574602,-17.4022501],[-66.1574143,-17.4026402],[-66.15738040000001,-17.402927400000003],[-66.15730570000001,-17.403430800000002],[-66.1571981,-17.4039846],[-66.1571744,-17.4040293],[-66.15714940000001,-17.404081100000003],[-66.15697510000001,-17.4051438],[-66.156929,-17.4053964],[-66.15671490000001,-17.4065683],[-66.15667520000001,-17.4068311],[-66.1566081,-17.407373500000002],[-66.1565791,-17.4075962],[-66.1565643,-17.407672],[-66.15655220000001,-17.4077489],[-66.1563919,-17.408892],[-66.1562995,-17.4093093],[-66.1562526,-17.409537],[-66.1561494,-17.4101159],[-66.15610310000001,-17.410408800000003],[-66.1560788,-17.4106525],[-66.15603870000001,-17.411008600000002],[-66.1563064,-17.411838900000003],[-66.15636760000001,-17.412081200000003],[-66.1564244,-17.4124108],[-66.1564184,-17.4125091],[-66.1564168,-17.4125769],[-66.15643220000001,-17.412667300000003],[-66.15647890000001,-17.4129417],[-66.1565082,-17.413103200000002],[-66.1566016,-17.4136172],[-66.15664120000001,-17.4138349],[-66.1567186,-17.4142572],[-66.15675490000001,-17.414352100000002],[-66.1567981,-17.4145858],[-66.15684270000001,-17.414698],[-66.1569922,-17.4155388],[-66.15700910000001,-17.415626900000003],[-66.1570227,-17.415709600000003],[-66.15719700000001,-17.4165706],[-66.157207,-17.4166281],[-66.1572232,-17.416710700000003],[-66.1573721,-17.4176234],[-66.15754650000001,-17.4187052],[-66.1576093,-17.4191214],[-66.157644,-17.4193561],[-66.15768030000001,-17.419601],[-66.1576838,-17.419624900000002],[-66.15769390000001,-17.4196932],[-66.1577032,-17.4197518],[-66.1577297,-17.4199188],[-66.15777030000001,-17.420174600000003],[-66.15777890000001,-17.4202297],[-66.15781700000001,-17.420468300000003],[-66.15782060000001,-17.420491000000002],[-66.1578264,-17.420528],[-66.15788470000001,-17.4209201],[-66.15792160000001,-17.4211652],[-66.1580254,-17.421770900000002],[-66.1581003,-17.4217686],[-66.1597876,-17.4218501],[-66.1597584,-17.4227163],[-66.1597268,-17.423619700000003],[-66.1596801,-17.424574800000002],[-66.15963110000001,-17.425765100000003],[-66.15963040000001,-17.425825600000003],[-66.1595867,-17.4267663],[-66.15958520000001,-17.4269044],[-66.1595685,-17.427003600000003],[-66.15954280000001,-17.427100600000003],[-66.1594704,-17.427252600000003],[-66.1594123,-17.4273475],[-66.1593363,-17.427435300000003],[-66.15922520000001,-17.4275176],[-66.159143,-17.427560000000003],[-66.15904160000001,-17.427626200000002],[-66.1588023,-17.4278383],[-66.1586738,-17.4279298],[-66.1585632,-17.4280094],[-66.15849560000001,-17.428029300000002],[-66.15841250000001,-17.428038500000003],[-66.1583488,-17.4280347],[-66.1582678,-17.428016000000003],[-66.1580443,-17.427960900000002],[-66.15785020000001,-17.427909200000002],[-66.157741,-17.427886400000002],[-66.157673,-17.4278775],[-66.15761590000001,-17.4278714],[-66.157498,-17.4278669],[-66.1574617,-17.4278689],[-66.1574247,-17.427870900000002],[-66.157359,-17.427878300000003],[-66.15715800000001,-17.4279183],[-66.157027,-17.427961200000002],[-66.1569343,-17.428012600000002],[-66.15684560000001,-17.428074300000002],[-66.156766,-17.428137900000003],[-66.1566992,-17.428194],[-66.1565264,-17.428388700000003],[-66.1564374,-17.428476],[-66.1558433,-17.4291284],[-66.15581270000001,-17.4291611],[-66.15571220000001,-17.429276100000003],[-66.1555053,-17.4295221],[-66.1554292,-17.4295997],[-66.15535120000001,-17.4296648],[-66.1546685,-17.4299232],[-66.15444040000001,-17.4300558],[-66.15419560000001,-17.430262300000003],[-66.1540128,-17.4304367],[-66.15386550000001,-17.4305826],[-66.15372040000001,-17.4307535],[-66.1536396,-17.430848700000002],[-66.15330130000001,-17.4312453],[-66.1532334,-17.4313563],[-66.1531776,-17.431447300000002],[-66.15313450000001,-17.431533100000003],[-66.15309710000001,-17.4316132],[-66.153068,-17.4316575],[-66.15282950000001,-17.4323897],[-66.15249010000001,-17.433709500000003],[-66.15247550000001,-17.433765],[-66.1524696,-17.4338094],[-66.1524789,-17.433888800000002],[-66.1525139,-17.4339644],[-66.15258130000001,-17.4340395],[-66.1530067,-17.434414500000003],[-66.15303920000001,-17.434440000000002],[-66.1531126,-17.4344959],[-66.15317490000001,-17.4345521],[-66.15321820000001,-17.4346107],[-66.15324700000001,-17.4346774],[-66.1532579,-17.434756500000002],[-66.15324910000001,-17.4348157],[-66.1532341,-17.434870800000002],[-66.1531417,-17.435015500000002],[-66.1527274,-17.435624400000002],[-66.1521613,-17.4363926],[-66.15169420000001,-17.4360429],[-66.1516392,-17.436118],[-66.151138,-17.436776000000002],[-66.1516285,-17.437129900000002],[-66.15166140000001,-17.437169700000002],[-66.1517342,-17.437244200000002],[-66.15177600000001,-17.4372812],[-66.1518252,-17.4373241],[-66.1523562,-17.4376716],[-66.15264450000001,-17.437856],[-66.1522364,-17.438439300000002],[-66.15190340000001,-17.438909600000002],[-66.15136290000001,-17.4396671],[-66.1507457,-17.4406035],[-66.1507,-17.4406801],[-66.1497463,-17.440122300000002],[-66.1491264,-17.439808900000003],[-66.1485372,-17.4394832],[-66.1478616,-17.440435700000002],[-66.1470316,-17.440229000000002],[-66.1469763,-17.440359700000002],[-66.146912,-17.4404745],[-66.1468317,-17.4405858],[-66.1467576,-17.4406688],[-66.1466814,-17.4407402],[-66.1465775,-17.4408204],[-66.1464845,-17.440893600000003],[-66.14629040000001,-17.441012200000003],[-66.14620740000001,-17.4410245],[-66.1461464,-17.441019],[-66.14608770000001,-17.4409959],[-66.14600200000001,-17.4409433],[-66.1458824,-17.440878100000003],[-66.14577770000001,-17.440821000000003],[-66.14479100000001,-17.4401948]]}}},{"type":"Feature","properties":{"bus":"yes","highway":"bus_stop","public_transport":"platform","id":3255507858},"geometry":{"type":"Point","coordinates":[-66.21410630000001,-17.3921762]}},{"type":"Feature","properties":{"bench":"yes","bin":"no","bus":"yes","departures_board":"no","highway":"bus_stop","level":"0","lit":"no","name":"Juan Pablo II","operator":"Administradora Boliviana de Carreteras","operator:short":"ABC","operator:type":"public","public_transport":"platform","shelter":"yes","tactile_paving":"no","wheelchair":"no","id":2417368269},"geometry":{"type":"Point","coordinates":[-66.20061940000001,-17.3927555]}},{"type":"Feature","properties":{"bench":"yes","bin":"no","bus":"yes","departures_board":"no","highway":"bus_stop","level":"0","lit":"no","loc_name":"KM 4","name":"Avenida Segunda","operator":"Administradora Boliviana de Carreteras","operator:short":"ABC","operator:type":"public","public_transport":"platform","shelter":"yes","tactile_paving":"no","wheelchair":"no","id":2418530998},"geometry":{"type":"Point","coordinates":[-66.1952478,-17.392992000000003]}},{"type":"Feature","properties":{"bench":"yes","bin":"no","bus":"yes","departures_board":"no","highway":"bus_stop","level":"0","lit":"no","name":"Andrés Manuel del Rio","operator":"Administradora Boliviana de Carreteras","operator:short":"ABC","operator:type":"public","public_transport":"platform","shelter":"yes","tactile_paving":"no","wheelchair":"no","id":2418531007},"geometry":{"type":"Point","coordinates":[-66.19159590000001,-17.3931478]}},{"type":"Feature","properties":{"bench":"no","bus":"yes","departures_board":"no","highway":"bus_stop","name":"Gabriel Lippmann","public_transport":"platform","shelter":"no","shelter_type":"public_transport","id":3201986260},"geometry":{"type":"Point","coordinates":[-66.18799480000001,-17.3933192]}},{"type":"Feature","properties":{"bench":"no","bin":"no","bus":"yes","highway":"bus_stop","lit":"no","name":"Viaducto Melchor Pérez de Olguín","public_transport":"platform","shelter":"yes","id":3152018211},"geometry":{"type":"Point","coordinates":[-66.1813671,-17.393599100000003]}},{"type":"Feature","properties":{"bench":"no","bin":"no","bus":"yes","departures_board":"no","highway":"bus_stop","kerb":"raised","level":"0","lit":"no","name":"Pedro Sarmiento de Gamboa","operator":"Administradora Boliviana de Carreteras","operator:short":"ABC","operator:type":"public","pole":"yes","public_transport":"platform","shelter":"no","tactile_paving":"no","wheelchair":"no","id":3152018214},"geometry":{"type":"Point","coordinates":[-66.17724270000001,-17.3937825]}},{"type":"Feature","properties":{"bench":"no","bin":"no","bus":"yes","departures_board":"no","highway":"bus_stop","kerb":"raised","level":"0","lit":"no","name":"ELFEC","operator":"Gobierno Autónomo Municipal de Cochabamba","operator:short":"GAMC","operator:type":"government","public_transport":"platform","shelter":"no","tactile_paving":"no","wheelchair":"no","id":4630872815},"geometry":{"type":"Point","coordinates":[-66.16503150000001,-17.393718900000003]}},{"type":"Feature","properties":{"bench":"no","bin":"no","bus":"yes","departures_board":"no","highway":"bus_stop","lit":"no","name":"Plaza Guzmán Quitón","public_transport":"platform","shelter":"no","id":6546789752},"geometry":{"type":"Point","coordinates":[-66.1612192,-17.393077]}},{"type":"Feature","properties":{"bench":"no","bin":"no","bus":"yes","departures_board":"no","highway":"bus_stop","kerb":"raised","level":"0","lit":"no","name":"Ladislao Cabrera","operator":"Gobierno Autónomo Municipal de Cochabamba","pole":"yes","public_transport":"platform","shelter":"no","tactile_paving":"no","wheelchair":"no","id":6546789732},"geometry":{"type":"Point","coordinates":[-66.1601373,-17.398068400000003]}},{"type":"Feature","properties":{"bench":"no","bin":"no","bus":"yes","departures_board":"no","highway":"bus_stop","kerb":"raised","level":"0","lit":"no","name":"Parada W","public_transport":"platform","shelter":"no","tactile_paving":"no","wheelchair":"no","id":9112012964},"geometry":{"type":"Point","coordinates":[-66.14479920000001,-17.440308400000003]}},{"type":"Feature","properties":{"bench":"no","bus":"yes","covered":"no","departures_board":"no","highway":"bus_stop","name":"Parada W","public_transport":"platform","shelter":"no","id":11817834773},"geometry":{"type":"Point","coordinates":[-66.2815947,-17.359724]}}]}