{"type":"FeatureCollection","features":[{"type":"Feature","properties":{"bicycle":"no","check_date":"46167","from":"Charles Darwin","name":"MicroBus LL: Charles Darwin → La Concordia","network":"BO:C:Cochabamba","on_demand":"yes","operator":"Sindicato de colectiveros y microbuses radio urbano y suburbano ciudad de Cochabamba","operator:type":"association","public_transport:version":"2","ref":"LL","roundtrip":"no","route":"bus","to":"La Concordia","type":"route","wheelchair":"no","id":5470046},"geometry":{"type":"LineString","coordinates":[[-66.20233920000001,-17.377578800000002],[-66.20233060000001,-17.3773385],[-66.2014948,-17.377515300000002],[-66.2006815,-17.377704100000003],[-66.2006746,-17.377989900000003],[-66.2006748,-17.378059200000003],[-66.20067590000001,-17.378117000000003],[-66.2006746,-17.378175300000002],[-66.200676,-17.3787972],[-66.2006808,-17.378897900000002],[-66.20070510000001,-17.379409600000002],[-66.200716,-17.3800242],[-66.20076780000001,-17.380996000000003],[-66.20077060000001,-17.381049500000003],[-66.2007818,-17.3811952],[-66.20030750000001,-17.381247000000002],[-66.2000246,-17.381278000000002],[-66.19899600000001,-17.381391500000003],[-66.1988934,-17.381406600000002],[-66.1971745,-17.381599],[-66.1970222,-17.381642900000003],[-66.19653140000001,-17.3817027],[-66.196465,-17.3816938],[-66.196363,-17.3817071],[-66.19627120000001,-17.381696100000003],[-66.1962582,-17.3817084],[-66.1962431,-17.3817182],[-66.19621830000001,-17.381727700000003],[-66.19619180000001,-17.381730700000002],[-66.19616540000001,-17.381727100000003],[-66.1961409,-17.3817172],[-66.19612090000001,-17.381702500000003],[-66.1959255,-17.381711600000003],[-66.1952739,-17.381744700000002],[-66.19515820000001,-17.381753600000003],[-66.19487570000001,-17.381770200000002],[-66.1947825,-17.381781200000002],[-66.19465430000001,-17.3818148],[-66.19456000000001,-17.381858400000002],[-66.19449110000001,-17.3818959],[-66.1944472,-17.3817507],[-66.19440230000001,-17.381178700000003],[-66.19437470000001,-17.380806500000002],[-66.19432900000001,-17.3802309],[-66.1943102,-17.3799943],[-66.19430050000001,-17.3798864],[-66.19423280000001,-17.3791553],[-66.1948253,-17.379109300000003],[-66.19521160000001,-17.379082500000003],[-66.19598040000001,-17.379031],[-66.1959044,-17.377919700000003],[-66.19473640000001,-17.3780077],[-66.19413750000001,-17.3780542],[-66.1935397,-17.3780962],[-66.1934975,-17.378099600000002],[-66.19337920000001,-17.378109100000003],[-66.1926286,-17.3781721],[-66.19182880000001,-17.3782293],[-66.1909061,-17.3783105],[-66.1907814,-17.377813300000003],[-66.19068940000001,-17.377500700000002],[-66.1906687,-17.377434800000003],[-66.19065400000001,-17.3773607],[-66.19045100000001,-17.376677400000002],[-66.18987630000001,-17.3770701],[-66.18926760000001,-17.3775087],[-66.1887473,-17.377948200000002],[-66.18865380000001,-17.377996500000002],[-66.18812940000001,-17.3782472],[-66.18809080000001,-17.3780845],[-66.18720640000001,-17.378192000000002],[-66.1871206,-17.3782031],[-66.18640450000001,-17.3782783],[-66.1857025,-17.3783597],[-66.185738,-17.3785203],[-66.1846751,-17.3786124],[-66.18364340000001,-17.378689100000003],[-66.1828816,-17.378745600000002],[-66.1825263,-17.378768500000003],[-66.1824838,-17.378771500000003],[-66.1824406,-17.378772700000003],[-66.1816041,-17.378805],[-66.1814949,-17.3788126],[-66.18118960000001,-17.3788495],[-66.1811119,-17.378857200000002],[-66.18093560000001,-17.378875100000002],[-66.18083200000001,-17.378880300000002],[-66.18074730000001,-17.3788845],[-66.1807522,-17.3789608],[-66.1807802,-17.3794013],[-66.18078440000001,-17.3794673],[-66.1802378,-17.379485000000003],[-66.1801729,-17.379486800000002],[-66.1801367,-17.379488400000003],[-66.17944290000001,-17.379508100000002],[-66.1793744,-17.3795101],[-66.17937690000001,-17.379640900000002],[-66.17939650000001,-17.3806674],[-66.179398,-17.3807221],[-66.1793997,-17.380786800000003],[-66.17941920000001,-17.381449],[-66.1794211,-17.381506],[-66.17942260000001,-17.3815567],[-66.17947070000001,-17.382774100000002],[-66.1794715,-17.3828047],[-66.17946540000001,-17.3828503],[-66.17945160000001,-17.3829025],[-66.17799400000001,-17.3824872],[-66.17657580000001,-17.382058200000003],[-66.17645490000001,-17.382028400000003],[-66.17633310000001,-17.381993700000002],[-66.17616310000001,-17.3819631],[-66.1760046,-17.3819455],[-66.1758277,-17.3819456],[-66.17569490000001,-17.3819541],[-66.1755756,-17.381974200000002],[-66.1754829,-17.3819918],[-66.17481070000001,-17.382164600000003],[-66.1747239,-17.3821906],[-66.17417250000001,-17.3823358],[-66.17280310000001,-17.382711800000003],[-66.1722762,-17.382852900000003],[-66.1716681,-17.3830199],[-66.1706211,-17.3832957],[-66.1700548,-17.383460600000003],[-66.16996900000001,-17.383489100000002],[-66.1698856,-17.383520200000003],[-66.16980140000001,-17.3835541],[-66.169797,-17.3835622],[-66.16976620000001,-17.3835987],[-66.16972460000001,-17.3836237],[-66.1696769,-17.3836347],[-66.16962790000001,-17.3836303],[-66.16958310000001,-17.383611100000003],[-66.16957790000001,-17.383607700000002],[-66.1693484,-17.383493100000003],[-66.1692562,-17.3834525],[-66.1691832,-17.3834252],[-66.1690207,-17.383369100000003],[-66.16851310000001,-17.383190600000002],[-66.16793820000001,-17.3829883],[-66.16786540000001,-17.3829627],[-66.1669426,-17.382640700000003],[-66.16674,-17.38257],[-66.1666584,-17.3825451],[-66.1665801,-17.382527600000003],[-66.16653070000001,-17.3825167],[-66.16645410000001,-17.382507800000003],[-66.1663525,-17.382505600000002],[-66.1663324,-17.3825067],[-66.16631240000001,-17.3825058],[-66.1661617,-17.3825237],[-66.1660992,-17.382533600000002],[-66.1660233,-17.382552],[-66.1659245,-17.3825794],[-66.16576040000001,-17.382659800000003],[-66.16518540000001,-17.382989400000003],[-66.16515290000001,-17.3830065],[-66.16505210000001,-17.3830674],[-66.1649852,-17.383105800000003],[-66.16448220000001,-17.383407400000003],[-66.1641417,-17.383587400000003],[-66.1640976,-17.383610800000003],[-66.1640225,-17.3836219],[-66.1640601,-17.3836686],[-66.1641209,-17.383750600000003],[-66.1643794,-17.3841056],[-66.164664,-17.3845181],[-66.16482420000001,-17.3847935],[-66.1650779,-17.385240300000003],[-66.16510670000001,-17.385299500000002],[-66.1652402,-17.385560100000003],[-66.1652988,-17.3856745],[-66.16551030000001,-17.386142600000003],[-66.1655606,-17.386209800000003],[-66.16561100000001,-17.386277],[-66.16585880000001,-17.3868669],[-66.1658969,-17.386957000000002],[-66.1659314,-17.3870319],[-66.16595570000001,-17.3870846],[-66.16597180000001,-17.3870946],[-66.16598640000001,-17.387109000000002],[-66.1660033,-17.3871326],[-66.16601290000001,-17.387156500000003],[-66.1660169,-17.3871819],[-66.16601870000001,-17.387202400000003],[-66.16601610000001,-17.3872229],[-66.1660093,-17.387242500000003],[-66.1659989,-17.387255300000003],[-66.1659927,-17.3872611],[-66.1660135,-17.387312700000003],[-66.1660634,-17.3874251],[-66.1662532,-17.3880187],[-66.1662541,-17.388118600000002],[-66.1664547,-17.3887986],[-66.1666656,-17.389637200000003],[-66.16686200000001,-17.390592400000003],[-66.1668659,-17.3906111],[-66.16687590000001,-17.390662600000002],[-66.1668925,-17.390742200000002],[-66.1669062,-17.3908077],[-66.1669131,-17.3908498],[-66.1670991,-17.3918624],[-66.1672631,-17.392694900000002],[-66.16735650000001,-17.3931749],[-66.1673725,-17.393257300000002],[-66.1674455,-17.3933958],[-66.16748050000001,-17.3934783],[-66.16753720000001,-17.3936113],[-66.16756310000001,-17.393682000000002],[-66.1676001,-17.3937457],[-66.1676692,-17.393822],[-66.1676913,-17.3938367],[-66.16771960000001,-17.393855600000002],[-66.16782760000001,-17.3939109],[-66.16786,-17.3939053],[-66.16799400000001,-17.3938847],[-66.1680638,-17.393877900000003],[-66.16809620000001,-17.3939409],[-66.1681095,-17.3940208],[-66.1680963,-17.394102],[-66.1680676,-17.3941641],[-66.1679544,-17.394168500000003],[-66.1678047,-17.3941549],[-66.1676034,-17.394136500000002],[-66.1674792,-17.394121900000002],[-66.167405,-17.3941166],[-66.1673762,-17.394114000000002],[-66.1669627,-17.3940655],[-66.1669372,-17.394063600000003],[-66.16669850000001,-17.3940382],[-66.1666089,-17.3940263],[-66.1665145,-17.394004600000002],[-66.16633800000001,-17.3939312],[-66.16627290000001,-17.3939109],[-66.16619200000001,-17.393893600000002],[-66.165909,-17.393848300000002],[-66.1649058,-17.393669600000003],[-66.1639803,-17.393500500000002],[-66.1639145,-17.3934885],[-66.16386080000001,-17.393479600000003],[-66.16214910000001,-17.393195700000003],[-66.16205310000001,-17.393179800000002],[-66.1619793,-17.3931673],[-66.16111430000001,-17.393020200000002],[-66.1610467,-17.393008700000003],[-66.16097880000001,-17.393000400000002],[-66.1599503,-17.3928359],[-66.15990570000001,-17.392828100000003],[-66.1598656,-17.3928215],[-66.15982530000001,-17.3928149],[-66.15903750000001,-17.3926786],[-66.15901760000001,-17.392675],[-66.1589237,-17.392657800000002],[-66.1588624,-17.3926465],[-66.15876990000001,-17.3926319],[-66.1586896,-17.3926179],[-66.1585726,-17.392597400000003],[-66.1583659,-17.392561200000003],[-66.1582899,-17.392548],[-66.1579475,-17.392488],[-66.15778110000001,-17.3924589],[-66.1577366,-17.3924512],[-66.1576881,-17.392442900000002],[-66.1572998,-17.3923755],[-66.15671250000001,-17.3922737],[-66.15665630000001,-17.392262900000002],[-66.1566145,-17.3922554],[-66.15618900000001,-17.3921785],[-66.15615720000001,-17.3921728],[-66.15564540000001,-17.3920804],[-66.15558890000001,-17.392067700000002],[-66.1555187,-17.3920576],[-66.15503700000001,-17.3919716],[-66.1545815,-17.3918903],[-66.15450050000001,-17.3918758],[-66.15443710000001,-17.3918646],[-66.15403210000001,-17.3917924],[-66.15340400000001,-17.391680500000003],[-66.1533576,-17.391671600000002],[-66.1533466,-17.3917265],[-66.15319790000001,-17.3926236],[-66.15300040000001,-17.3936642],[-66.15296120000001,-17.3938747],[-66.1528081,-17.3946979],[-66.1526171,-17.3957535],[-66.1524397,-17.396804000000003],[-66.1522494,-17.397787800000003],[-66.1522434,-17.3978983],[-66.15224880000001,-17.398145200000002],[-66.15222840000001,-17.398381500000003],[-66.15221910000001,-17.398466000000003],[-66.15221890000001,-17.3985461],[-66.15219090000001,-17.3987987],[-66.1521652,-17.3991575],[-66.15215950000001,-17.3992571],[-66.15214870000001,-17.3993274],[-66.152152,-17.399909500000003],[-66.15219610000001,-17.4014555],[-66.15129010000001,-17.4014743],[-66.1512002,-17.401454400000002],[-66.1512301,-17.4013183],[-66.1512356,-17.4011615],[-66.15122360000001,-17.4010129],[-66.15119960000001,-17.400908400000002],[-66.15115990000001,-17.400784],[-66.1511079,-17.4006717],[-66.15106730000001,-17.4005979],[-66.1509999,-17.400493200000003],[-66.1509233,-17.4003938],[-66.1508146,-17.400286400000002],[-66.15071800000001,-17.400208300000003],[-66.15059790000001,-17.4001282],[-66.1505042,-17.4000796],[-66.1503866,-17.4000312],[-66.1502731,-17.3999956],[-66.1501808,-17.3999807],[-66.15007990000001,-17.3999658],[-66.14984550000001,-17.3999622],[-66.14933160000001,-17.399950800000003],[-66.1488302,-17.3999397],[-66.14830380000001,-17.3999281],[-66.14821160000001,-17.399872900000002],[-66.1471925,-17.399734000000002],[-66.1471293,-17.399726700000002],[-66.14708,-17.399720300000002],[-66.1467796,-17.3996813],[-66.14634190000001,-17.399624600000003],[-66.1463217,-17.399622],[-66.14625910000001,-17.399613900000002],[-66.14613700000001,-17.3995965],[-66.1460904,-17.399589900000002],[-66.1457953,-17.399548000000003],[-66.14557540000001,-17.399516300000002],[-66.1445109,-17.3993696],[-66.14397620000001,-17.3992925],[-66.1431728,-17.3991872],[-66.142426,-17.399084700000003],[-66.1419213,-17.399018700000003],[-66.1412178,-17.398923200000002],[-66.1411635,-17.3989158],[-66.14106980000001,-17.398902600000003],[-66.1407435,-17.3988568],[-66.1406343,-17.398841400000002],[-66.1405517,-17.3988298],[-66.13962590000001,-17.398693700000003],[-66.1385261,-17.398544100000002],[-66.1377168,-17.398425800000002],[-66.137561,-17.3984029],[-66.13742880000001,-17.3983837],[-66.13652760000001,-17.398236800000003],[-66.1364053,-17.398277500000003],[-66.1363086,-17.398295700000002],[-66.13623480000001,-17.398322800000003],[-66.1361724,-17.398360500000003],[-66.1360417,-17.398449300000003],[-66.1360167,-17.3984662],[-66.13597010000001,-17.398497600000002],[-66.1358574,-17.3985728],[-66.1357957,-17.398590600000002],[-66.13573600000001,-17.3985817],[-66.13568550000001,-17.398562100000003],[-66.13564070000001,-17.39853],[-66.1356114,-17.398492100000002],[-66.13560910000001,-17.3984311],[-66.1356181,-17.398371],[-66.1356485,-17.3982782],[-66.13566730000001,-17.3981655],[-66.13569310000001,-17.398012400000002],[-66.1357186,-17.3977343],[-66.1357241,-17.397416500000002],[-66.1357284,-17.397337500000003],[-66.1357462,-17.3972297],[-66.13579,-17.397152900000002],[-66.1358732,-17.3968475],[-66.1358994,-17.3967515],[-66.13639110000001,-17.394947100000003],[-66.13642660000001,-17.394820300000003],[-66.1368448,-17.3932578],[-66.1368925,-17.393083700000002],[-66.1369392,-17.3929109],[-66.1369494,-17.392873100000003],[-66.13687490000001,-17.3927701],[-66.13679020000001,-17.392635300000002],[-66.136595,-17.392323100000002],[-66.1363603,-17.391996000000002],[-66.1363312,-17.391942500000003],[-66.13619050000001,-17.3916837],[-66.1360786,-17.3913817],[-66.13606100000001,-17.391340900000003],[-66.1360449,-17.391296200000003],[-66.1359386,-17.390753],[-66.1358349,-17.390620000000002],[-66.1356762,-17.3903675],[-66.13602920000001,-17.390480800000002]],"nodes":[8130713503,2147346907,2147346904,2342922668,2134479103,5702890479,4714201219,2723461592,2147346912,10900969103,2147373645,3017419869,10900974954,3017419868,10044160877,4173325852,7996545533,500197952,560084608,4984179019,7996508742,4173325861,7996545497,12980349470,7996508745,9343473300,9343473299,7996508776,9343473298,9343473297,9343473296,7996508777,4173325862,698491969,4984179003,2744376496,3017419878,560437467,9019031992,560437466,560437462,2147365667,2147365660,2147365678,2147365662,4166901289,809705516,2744376419,2744376416,2147346908,809705216,2147753573,809705349,2744376357,12980349475,809705263,682384960,809705548,682374723,809705538,698492248,3266371054,698492237,809705618,1807004183,809705362,1807004186,3268355956,698492234,809705455,809705395,809705521,809705200,809705377,698492259,698492261,698492263,11048939242,9625239799,698492265,9625239798,11048939235,560522686,698492457,9018487309,6272592193,11070036566,3266042417,9018487186,9018487187,3266042567,9018486900,698492445,9018486898,9018486914,689437151,12979124165,7246421243,698492353,7246421244,7246421237,1723598859,7246421240,689437146,4115281583,4115281584,689437147,689437150,560437514,560437513,2422614195,9843437746,560437512,3296017863,9843437745,2869785593,560437511,11073972483,11073972482,598178915,598178926,9736277838,598178929,598178987,2972424310,9736311228,2972424316,6806354331,2972424325,2972424332,2972424433,2972424435,2972424436,1724886238,2972424434,560437521,3658380832,9736277915,6806354337,9736311265,9736311252,598179039,9736311264,2971956195,598179037,8398804551,598179043,5548631717,8398804558,9352684185,6806354342,2971956190,8398804557,598179045,2971956193,2971956196,4478186975,4478186978,598179077,4478186984,598179067,9168729321,5243810855,497207231,5243810853,9168729324,497207233,2971956442,2312521352,497206815,5243810846,9924260247,2970239857,497206816,12956628495,1637648603,1637648606,9892601712,9170720411,2410715816,12956628491,12956628490,11079283503,2410715848,9170720371,9170720370,2410715866,9170720381,5298532380,11079283499,9170720420,1636978096,1636978114,1636978164,497206587,843509581,10975615532,8566427907,497205197,10975615527,2972424491,9934347428,843509549,843383784,13520009011,4732874487,8320381222,1636934233,2420519524,8320381221,1636934240,660005233,9916158228,2477244103,497205202,8320364713,12088438232,2420519599,13428010716,13428010715,7972443135,12088438231,315934179,9081829379,4732874466,2420519774,11079352071,315942232,648570956,11079352069,315935003,8147129096,3281516922,2330755899,3281516920,1636978219,698492313,698492316,10792253186,698492319,10792253182,10879431900,698492322,8565985150,2694171671,698492339,2694171670,2694171665,698492341,2694171664,8565985212,8565997066,13835163243,2295541620,698492383,698492385,2295541619,9704099836,2295541616,698492388,11043280711,2295541604,698492391,2295541600,8609183215,2295541578,698492401,2295541576,2705187537,2705187534,2292218218,698492394,2292218217,9567473060,2292218210,698492397,2292218209,2377781535,2289661591,698492404,2289661596,310256286,303217864,9863185783,310281532,310500613,310500796,2765190335,310501003,8238783225,8238783240,1727306396,648548895,8238783131,8238783133,310503106,9941529677,843386643,310503107,702511972,7197849281,2768899006,2768899001,2768899000,2768898998,2768898997,3322574459,2768898995,2768898994,8089836053,2768898991,8089836052,9121680489,2768898987,8089836054,2768898984,12313146720,2768898983,2768898982,12313136885,12313136888,2768898980,308297683,2031313826,598789376,8090144003,8090144006,2401180724,8090144002,702512021,702512024,9121680430,2401180720,702512028,2031313820,598787550,702512052,702512053,702512054,9886703803,702512055,9886703805,9886703801,9886703804,702512056,391725774,598789095,6471892199,598788386,8614447789,323988172,2009078984,6388321485,2009078992,8156821265,13529804384,2009079015,2009079023,8156821256,8156821285,8156821286,8156821287,8156821288,2009079013,2009079009,13529804382,2009078983,2009078961,7512987719,2009078921,8614447809,2031313796,8133177234,8133177232,8133177231,2031313786,6297934901,1873958964,2009078767,2031313647,13529806903,2031313643,9311325420,2009078741,7821739586,598787170,9362900293,598787000,598786999,2009078699,9362900296,598786997,3718637470,598786996,598786772]},"gtfs":{"agency_id":3,"route_id":12,"services":[{"service_id":"Mo-Su","startTime":"06:00","endTime":"22:00","trip_id":5470046}],"filteredStops":{"nodes":[8130713503,2342922668,4714201219,10900969103,10900974954,7996545533,500197952,4173325861,9343473299,9343473296,2744376496,560437466,2147365678,2744376416,809705349,809705548,698492237,809705618,1807004183,809705362,1807004186,698492234,809705455,809705200,698492261,9625239799,11048939235,9018487309,3266042417,3266042567,9018486898,12979124165,7246421244,689437146,689437147,560437513,560437512,2869785593,11073972482,9736277838,2972424310,6806354331,2972424433,2972424434,560437521,9736311264,6806354342,4478186978,9168729324,2970239857,2410715816,9170720381,497206587,9934347428,8320381221,12088438232,4732874466,8147129096,10792253186,2694171670,698492383,698492385,698492388,698492391,698492401,2292218218,9567473060,2377781535,2289661596,310500613,310500796,310501003,1727306396,648548895,8238783131,310503106,9941529677,310503107,702511972,7197849281,2768898997,8089836052,12313146720,308297683,2031313826,8090144003,8090144002,702512024,702512028,702512052,702512053,9886703803,9886703805,9886703801,391725774,598789095,2009078984,13529804384,8156821286,13529804382,8614447809,8133177231,2031313647,7821739586,598786999,598786772],"coordinates":[[-66.20233920000001,-17.377578800000002],[-66.2006815,-17.377704100000003],[-66.20067590000001,-17.378117000000003],[-66.2006808,-17.378897900000002],[-66.20076780000001,-17.380996000000003],[-66.2000246,-17.381278000000002],[-66.19899600000001,-17.381391500000003],[-66.19653140000001,-17.3817027],[-66.1962431,-17.3817182],[-66.1961409,-17.3817172],[-66.19487570000001,-17.381770200000002],[-66.19449110000001,-17.3818959],[-66.19432900000001,-17.3802309],[-66.19521160000001,-17.379082500000003],[-66.19413750000001,-17.3780542],[-66.19182880000001,-17.3782293],[-66.19065400000001,-17.3773607],[-66.19045100000001,-17.376677400000002],[-66.18987630000001,-17.3770701],[-66.18926760000001,-17.3775087],[-66.1887473,-17.377948200000002],[-66.18812940000001,-17.3782472],[-66.18809080000001,-17.3780845],[-66.18640450000001,-17.3782783],[-66.1846751,-17.3786124],[-66.1825263,-17.378768500000003],[-66.1816041,-17.378805],[-66.1811119,-17.378857200000002],[-66.18074730000001,-17.3788845],[-66.18078440000001,-17.3794673],[-66.1801367,-17.379488400000003],[-66.17937690000001,-17.379640900000002],[-66.1793997,-17.380786800000003],[-66.17947070000001,-17.382774100000002],[-66.17945160000001,-17.3829025],[-66.17645490000001,-17.382028400000003],[-66.1760046,-17.3819455],[-66.1755756,-17.381974200000002],[-66.1747239,-17.3821906],[-66.1722762,-17.382852900000003],[-66.1700548,-17.383460600000003],[-66.16980140000001,-17.3835541],[-66.16972460000001,-17.3836237],[-66.16957790000001,-17.383607700000002],[-66.1693484,-17.383493100000003],[-66.1669426,-17.382640700000003],[-66.16631240000001,-17.3825058],[-66.16515290000001,-17.3830065],[-66.1641209,-17.383750600000003],[-66.1652988,-17.3856745],[-66.16595570000001,-17.3870846],[-66.1660093,-17.387242500000003],[-66.1664547,-17.3887986],[-66.1669131,-17.3908498],[-66.16756310000001,-17.393682000000002],[-66.16799400000001,-17.3938847],[-66.1676034,-17.394136500000002],[-66.1666089,-17.3940263],[-66.1639803,-17.393500500000002],[-66.16097880000001,-17.393000400000002],[-66.1588624,-17.3926465],[-66.15876990000001,-17.3926319],[-66.1582899,-17.392548],[-66.1577366,-17.3924512],[-66.15665630000001,-17.392262900000002],[-66.15564540000001,-17.3920804],[-66.15503700000001,-17.3919716],[-66.15403210000001,-17.3917924],[-66.1533466,-17.3917265],[-66.1526171,-17.3957535],[-66.1524397,-17.396804000000003],[-66.1522434,-17.3978983],[-66.15221910000001,-17.398466000000003],[-66.15221890000001,-17.3985461],[-66.15219090000001,-17.3987987],[-66.15215950000001,-17.3992571],[-66.15214870000001,-17.3993274],[-66.15219610000001,-17.4014555],[-66.15129010000001,-17.4014743],[-66.1512002,-17.401454400000002],[-66.15115990000001,-17.400784],[-66.15071800000001,-17.400208300000003],[-66.1501808,-17.3999807],[-66.14821160000001,-17.399872900000002],[-66.1471925,-17.399734000000002],[-66.14708,-17.399720300000002],[-66.1463217,-17.399622],[-66.14613700000001,-17.3995965],[-66.14557540000001,-17.399516300000002],[-66.1431728,-17.3991872],[-66.142426,-17.399084700000003],[-66.1412178,-17.398923200000002],[-66.14106980000001,-17.398902600000003],[-66.1407435,-17.3988568],[-66.13962590000001,-17.398693700000003],[-66.1385261,-17.398544100000002],[-66.1364053,-17.398277500000003],[-66.1360417,-17.398449300000003],[-66.13573600000001,-17.3985817],[-66.1356181,-17.398371],[-66.1357241,-17.397416500000002],[-66.1358732,-17.3968475],[-66.1368925,-17.393083700000002],[-66.136595,-17.392323100000002],[-66.1360786,-17.3913817],[-66.13602920000001,-17.390480800000002]]}}},{"type":"Feature","properties":{"addr:city":"Cochabamba","bench":"no","bus":"yes","covered":"no","departures_board":"no","highway":"bus_stop","name":"Parada LL","public_transport":"platform","shelter":"no","id":3523802587},"geometry":{"type":"Point","coordinates":[-66.2023724,-17.377578]}},{"type":"Feature","properties":{"bench":"no","bin":"no","bus":"yes","departures_board":"no","highway":"bus_stop","level":"0","lit":"no","name":"Distribuidor Vial Cobija","operator":"Gobierno Autónomo Municipal de Cochabamba","operator:short":"GAMC","operator:type":"government","pole":"yes","public_transport":"platform","shelter":"no","tactile_paving":"no","wheelchair":"no","id":9170720380},"geometry":{"type":"Point","coordinates":[-66.1660492,-17.3871174]}},{"type":"Feature","properties":{"bench":"no","bin":"no","bus":"yes","departures_board":"no","highway":"bus_stop","kerb":"raised","level":"0","lit":"no","name":"ELFEC","operator":"Gobierno Autónomo Municipal de Cochabamba","operator:short":"GAMC","operator:type":"government","public_transport":"platform","shelter":"no","tactile_paving":"no","wheelchair":"no","id":4630872815},"geometry":{"type":"Point","coordinates":[-66.16503150000001,-17.393718900000003]}},{"type":"Feature","properties":{"bench":"no","bin":"no","bus":"yes","departures_board":"no","highway":"bus_stop","lit":"no","name":"Plaza Guzmán Quitón","public_transport":"platform","shelter":"no","id":6546789752},"geometry":{"type":"Point","coordinates":[-66.1612192,-17.393077]}},{"type":"Feature","properties":{"bench":"no","bin":"no","bus":"yes","departures_board":"no","highway":"bus_stop","kerb":"raised","level":"0","lit":"no","name":"Baptista","operator":"Gobierno Autónomo Municipal de Cochabamba","pole":"yes","public_transport":"platform","shelter":"no","tactile_paving":"no","wheelchair":"no","id":4630872816},"geometry":{"type":"Point","coordinates":[-66.1579317,-17.3925382]}},{"type":"Feature","properties":{"bench":"no","bin":"no","bus":"yes","departures_board":"no","highway":"bus_stop","level":"0","lit":"no","name":"Teatro Adela Zamudio","operator":"Gobierno Autónomo Municipal de Cochabamba","pole":"yes","public_transport":"platform","shelter":"no","tactile_paving":"yes","wheelchair":"no","id":4630872742},"geometry":{"type":"Point","coordinates":[-66.1557021,-17.3921476]}},{"type":"Feature","properties":{"bench":"no","bin":"no","bus":"yes","departures_board":"no","highway":"bus_stop","lit":"no","name":"Lanza","pole":"yes","public_transport":"platform","shelter":"no","id":6546789747},"geometry":{"type":"Point","coordinates":[-66.15346360000001,-17.391749700000002]}},{"type":"Feature","properties":{"bench":"no","bin":"no","bus":"yes","departures_board":"no","highway":"bus_stop","kerb":"raised","level":"0","lit":"no","name":"Sucre","operator":"Gobierno Autónomo Municipal de Cochabamba","pole":"yes","public_transport":"platform","shelter":"no","tactile_paving":"no","wheelchair":"no","id":4673887319},"geometry":{"type":"Point","coordinates":[-66.15305620000001,-17.393554700000003]}},{"type":"Feature","properties":{"bench":"no","bus":"yes","departures_board":"no","highway":"bus_stop","level":"0","lit":"no","name":"Teatro al Aire Libre","operator":"Gobierno Autónomo Municipal de Cochabamba","public_transport":"platform","shelter":"no","tactile_paving":"no","wheelchair":"no","id":7512987720},"geometry":{"type":"Point","coordinates":[-66.1356416,-17.3977015]}},{"type":"Feature","properties":{"bench":"no","bin":"no","bus":"yes","departures_board":"no","highway":"bus_stop","level":"0","lit":"no","name":"16 de Julio","public_transport":"platform","shelter":"no","tactile_paving":"no","wheelchair":"no","id":6546789715},"geometry":{"type":"Point","coordinates":[-66.14989340000001,-17.4000069]}},{"type":"Feature","properties":{"addr:city":"Cochabamba","bench":"no","bin":"no","bus":"yes","covered":"no","departures_board":"no","highway":"bus_stop","level":"0","lit":"no","name":"Parada LL","public_transport":"platform","shelter":"no","tactile_paving":"no","wheelchair":"no","id":12384489731},"geometry":{"type":"Point","coordinates":[-66.1360403,-17.3904031]}}]}