{"type":"FeatureCollection","features":[{"type":"Feature","properties":{"ascent":"yes","bicycle":"no","charge":"7.50 BOB/person","check_date":"29/12/2025","colour":"#ffff00","description":"Línea del teleférico para ascenso desde el Parque de la Autonomía al Cristo de la Concordia.","direction":"east","duration":"5:29","fee":"yes","from":"Parque de la Autonomía","name":"Teleférico: Parque de la Autonomía → Cristo de la Concordia","network":"EMAVRA","opening_hours":"Tu-Su 09:30-18:30; Dec-Jan: Tu-Su 09:30-23:00","operator":"Empresa Municipal de Áreas Verdes y Recreación Alternativa","operator:short":"EMAVRA","operator:type":"public","public_transport:version":"2","ref":"Teleférico","related_law":"RM 2322/1998","roundtrip":"no","route":"aerialway","source":"Resolución Municipal 2322/1998","start_date":"1999-09-13","to":"Cristo de la Concordia","tourism":"yes","type":"route","wheelchair":"no","id":6925236},"geometry":{"type":"LineString","coordinates":[[-66.1416801,-17.3885364],[-66.1415639,-17.3884622],[-66.141482,-17.3884103],[-66.1408644,-17.38805],[-66.1398564,-17.3874474],[-66.1396307,-17.3873207],[-66.1392144,-17.3871051],[-66.1380019,-17.3863831],[-66.1375645,-17.3861327],[-66.1371988,-17.3859011],[-66.1368198,-17.3856876],[-66.1360739,-17.3851971],[-66.135865,-17.3850846],[-66.1357091,-17.3850051]],"nodes":[540672569,6178830759,2075687717,2075687714,2075687679,2075687663,2075687652,2075687612,2075687600,2075687596,2075687570,2075687557,10261864479,540672571]},"gtfs":{"agency_id":6,"route_id":17,"services":[{"service_id":"Tu-Su","startTime":"09:30","endTime":"18:30","trip_id":692523600},{"service_id":"Tu-Su-Dec-Jan","startTime":"09:30","endTime":"23:00","trip_id":692523601}],"filteredStops":{"nodes":[540672569,6178830759,2075687717,2075687714,2075687679,2075687663,2075687652,2075687612,2075687600,2075687596,2075687570,2075687557,10261864479,540672571],"coordinates":[[-66.1416801,-17.3885364],[-66.1415639,-17.3884622],[-66.141482,-17.3884103],[-66.1408644,-17.38805],[-66.1398564,-17.3874474],[-66.1396307,-17.3873207],[-66.1392144,-17.3871051],[-66.1380019,-17.3863831],[-66.1375645,-17.3861327],[-66.1371988,-17.3859011],[-66.1368198,-17.3856876],[-66.1360739,-17.3851971],[-66.135865,-17.3850846],[-66.1357091,-17.3850051]]}}},{"type":"Feature","properties":{"aerialway":"yes","bench":"yes","bin":"yes","departures_board":"no","level":"0","lit":"yes","name":"Cristo de la Concordia","operator":"Empresa Municipal de Áreas Verdes y Recreación Alternativa","operator:type":"public","public_transport":"platform","ref":"2","shelter":"yes","start_date":"1999-09-13","tactile_paving":"no","wheelchair":"yes","id":9936831849},"geometry":{"type":"Point","coordinates":[-66.1356974,-17.3850302]}},{"type":"Feature","properties":{"aerialway":"yes","name":"Cristo de la Concordia","operator":"Empresa Municipal de Áreas Verdes y Recreación Alternativa","operator:type":"public","public_transport":"stop_position","ref":"2","start_date":"1999-09-13","wheelchair":"no","id":540672571},"geometry":{"type":"Point","coordinates":[-66.1357091,-17.3850051]}},{"type":"Feature","properties":{"aerialway":"yes","name":"Parque de la Autonomía","operator":"Empresa Municipal de Áreas Verdes y Recreación Alternativa","operator:type":"public","public_transport":"stop_position","ref":"1","start_date":"1999-09-13","id":540672569},"geometry":{"type":"Point","coordinates":[-66.1416801,-17.3885364]}},{"type":"Feature","properties":{"aerialway":"yes","bench":"yes","bin":"yes","departures_board":"no","level":"0","lit":"yes","name":"Parque de la Autonomía","operator":"Empresa Municipal de Áreas Verdes y Recreación Alternativa","operator:type":"public","public_transport":"platform","ref":"1","shelter":"yes","start_date":"1999-09-13","tactile_paving":"no","wheelchair":"no","id":9888902928},"geometry":{"type":"Point","coordinates":[-66.1416914,-17.388573]}}]}