{"type":"FeatureCollection","features":[{"type":"Feature","properties":{"check_date":"29/12/2025","from":"Avenida Chiquicollo","name":"MicroBus J: Avenida Chiquicollo → Calle Gran Chaco","network":"BO:CB:Cochabamba","on_demand":"yes","operator":"Sindicato de colectiveros y microbuses radio urbano y suburbano ciudad de Cochabamba","public_transport:version":"2","ref":"J","route":"bus","to":"Calle Gran Chaco","type":"route","wheelchair":"no","id":9101527},"geometry":{"type":"LineString","coordinates":[[-66.1913368,-17.3690023],[-66.1909356,-17.3691157],[-66.1907568,-17.3691696],[-66.1905777,-17.3692237],[-66.1899674,-17.3694076],[-66.189934,-17.3694178],[-66.1897744,-17.3694665],[-66.1896433,-17.369508],[-66.1894019,-17.3695823],[-66.1891189,-17.3696765],[-66.1886209,-17.3698327],[-66.1885701,-17.3698489],[-66.1885404,-17.369858],[-66.1887844,-17.3707984],[-66.188797,-17.370856],[-66.1888105,-17.3709074],[-66.1885727,-17.370924],[-66.1870037,-17.3710136],[-66.1855896,-17.3711046],[-66.1847769,-17.3711516],[-66.1846805,-17.3711598],[-66.1844961,-17.3711797],[-66.1843919,-17.3712006],[-66.18412,-17.3712888],[-66.1840488,-17.3713086],[-66.183987,-17.3713251],[-66.1839131,-17.3713471],[-66.1838569,-17.3713622],[-66.1838007,-17.3713739],[-66.1837107,-17.3713793],[-66.1836246,-17.3713737],[-66.1835979,-17.371368],[-66.1835476,-17.3713572],[-66.1834936,-17.3713396],[-66.1834583,-17.3713259],[-66.1834456,-17.3712996],[-66.1833822,-17.3712786],[-66.1833084,-17.3712574],[-66.1832406,-17.3712465],[-66.1831719,-17.3712427],[-66.1830932,-17.3712456],[-66.1812031,-17.3713708],[-66.180272,-17.371435],[-66.1802059,-17.3714388],[-66.1798972,-17.3714563],[-66.1793683,-17.3714867],[-66.1790971,-17.3715026],[-66.1782694,-17.371551],[-66.1776982,-17.3715877],[-66.1770052,-17.3716323],[-66.176711,-17.3716506],[-66.1758802,-17.3717021],[-66.1758424,-17.3717045],[-66.1758047,-17.3717068],[-66.1757552,-17.3717092],[-66.1757008,-17.3717118],[-66.1756263,-17.3717154],[-66.1749294,-17.3717598],[-66.1742666,-17.3718003],[-66.1736067,-17.3718451],[-66.1729403,-17.3718855],[-66.1728783,-17.3718894],[-66.1727835,-17.3718955],[-66.1722619,-17.3719344],[-66.1722202,-17.3719416],[-66.1721735,-17.3719525],[-66.1721483,-17.3719742],[-66.1721023,-17.3719931],[-66.1720537,-17.3720043],[-66.1720037,-17.3720075],[-66.1719539,-17.3720026],[-66.1719146,-17.3719866],[-66.1718879,-17.3719678],[-66.1718031,-17.3719645],[-66.171319,-17.3719969],[-66.1706729,-17.3720401],[-66.1699054,-17.3720863],[-66.1691006,-17.372137],[-66.168587,-17.3721724],[-66.1685115,-17.3721771],[-66.1684997,-17.3722013],[-66.1684825,-17.3722224],[-66.168454,-17.3722433],[-66.1684279,-17.3722539],[-66.1683999,-17.3722586],[-66.1683785,-17.3722582],[-66.1683542,-17.3722533],[-66.1683334,-17.3722451],[-66.1683144,-17.3722334],[-66.1682941,-17.3722145],[-66.1682794,-17.372193],[-66.1682184,-17.3721971],[-66.167996,-17.3722106],[-66.1676312,-17.3722381],[-66.1667194,-17.3722921],[-66.1660179,-17.3723376],[-66.1659353,-17.372343],[-66.1656278,-17.3723622],[-66.1651178,-17.372394],[-66.1646438,-17.3724236],[-66.1638303,-17.372476],[-66.163746,-17.3724797],[-66.1636543,-17.3724851],[-66.1632714,-17.3725106],[-66.1627848,-17.3725451],[-66.1626975,-17.3725484],[-66.1626738,-17.3726282],[-66.1626655,-17.372657],[-66.1626469,-17.3727147],[-66.1624847,-17.3732722],[-66.1623417,-17.3737608],[-66.1619469,-17.3751099],[-66.1619132,-17.3752197],[-66.1618519,-17.3754289],[-66.1618315,-17.3754986],[-66.1615816,-17.3763513],[-66.1615755,-17.3763721],[-66.1615553,-17.3764448],[-66.1615333,-17.3765194],[-66.1613573,-17.3771167],[-66.1611004,-17.3779932],[-66.1610775,-17.3780745],[-66.1610462,-17.3781873],[-66.1610272,-17.3782558],[-66.1609592,-17.3784883],[-66.1609424,-17.3785457],[-66.1608112,-17.3789943],[-66.1607831,-17.3790903],[-66.1607443,-17.3792232],[-66.1604215,-17.3803268],[-66.1603952,-17.3804271],[-66.1603946,-17.380447],[-66.1603903,-17.3805384],[-66.1604026,-17.3806234],[-66.1604292,-17.3807053],[-66.160446,-17.3807533],[-66.1604502,-17.3808037],[-66.1604418,-17.3808536],[-66.1604211,-17.3809001],[-66.1603894,-17.3809406],[-66.1603483,-17.3810263],[-66.1603242,-17.3810949],[-66.1603011,-17.3811631],[-66.1602836,-17.3812089],[-66.1602648,-17.3812714],[-66.1602553,-17.381306],[-66.1601491,-17.3816632],[-66.1601392,-17.381699],[-66.160118,-17.3817783],[-66.1601068,-17.3818443],[-66.1600997,-17.3819171],[-66.1601024,-17.3820084],[-66.160124,-17.3821361],[-66.1601469,-17.3822132],[-66.1602407,-17.3822868],[-66.1603594,-17.3823444],[-66.1604688,-17.3823833],[-66.1606562,-17.3825128],[-66.1607107,-17.3825607],[-66.160761,-17.3826192],[-66.1607787,-17.3826564],[-66.1607888,-17.3826961],[-66.1607912,-17.3827369],[-66.1607791,-17.3827992],[-66.1607072,-17.3831619],[-66.1606419,-17.3834911],[-66.1605961,-17.3837256],[-66.1605453,-17.383991],[-66.1605326,-17.3840573],[-66.1605109,-17.3841805],[-66.1604819,-17.3843306],[-66.1604744,-17.3843724],[-66.1603513,-17.3850553],[-66.1602557,-17.3855856],[-66.1601673,-17.3860756],[-66.1601591,-17.3861214],[-66.1601482,-17.386177],[-66.1600475,-17.3866944],[-66.1599305,-17.3872954],[-66.1599197,-17.3873512],[-66.1597423,-17.3882142],[-66.1597305,-17.3882738],[-66.1597051,-17.388406],[-66.1596438,-17.3887192],[-66.1595902,-17.3889782],[-66.1595262,-17.3892878],[-66.1595142,-17.3893446],[-66.159503,-17.3893996],[-66.1594442,-17.3897264],[-66.1593876,-17.3900413],[-66.1593227,-17.3904021],[-66.159313,-17.3904571],[-66.1593022,-17.390508],[-66.159237,-17.3907866],[-66.1591098,-17.3914114],[-66.1590985,-17.3914702],[-66.159088,-17.3915156],[-66.1589552,-17.3921765],[-66.1588889,-17.3925062],[-66.158879,-17.3925589],[-66.1588624,-17.3926465],[-66.1588503,-17.3927102],[-66.1586938,-17.3935139],[-66.1586779,-17.3935864],[-66.1586694,-17.3936298],[-66.1584851,-17.3945425],[-66.1584685,-17.3946244],[-66.1584596,-17.3946726],[-66.1582846,-17.3956252],[-66.1582776,-17.3956693],[-66.1582695,-17.3957154],[-66.1582518,-17.3958179],[-66.1581359,-17.3966716],[-66.1581304,-17.3967147],[-66.1581237,-17.3967678],[-66.1579692,-17.3977363],[-66.157959,-17.397794],[-66.1579492,-17.3978569],[-66.1577782,-17.3989265],[-66.1577422,-17.3991449],[-66.157736,-17.3992969],[-66.1577347,-17.3993519],[-66.1577288,-17.3994867],[-66.1576362,-17.3994821],[-66.1575773,-17.3994804],[-66.1575564,-17.3994809],[-66.1568789,-17.399583],[-66.1567734,-17.3995917],[-66.1564914,-17.3995873],[-66.1564225,-17.3995781],[-66.1561989,-17.4007931],[-66.1561157,-17.4013136],[-66.1559482,-17.4021963],[-66.1559112,-17.4022946],[-66.1554199,-17.4023008],[-66.1553165,-17.4021915],[-66.1552573,-17.4013426],[-66.1539544,-17.4014003],[-66.1536294,-17.4014119],[-66.1532722,-17.4014247],[-66.1521961,-17.4014555],[-66.1512901,-17.4014743],[-66.1512351,-17.4016052],[-66.1510926,-17.4019104],[-66.1510363,-17.4020268],[-66.1510003,-17.4021361],[-66.1509697,-17.4022563],[-66.1509643,-17.4023812],[-66.1509743,-17.4025874],[-66.1510012,-17.4031363],[-66.1510151,-17.403494],[-66.151025,-17.4038341],[-66.1510241,-17.4039937],[-66.1510096,-17.4041425],[-66.1509707,-17.4044188],[-66.1509247,-17.404686],[-66.1508784,-17.4048938],[-66.1508636,-17.4049278],[-66.1508695,-17.4049354],[-66.1508738,-17.4049439],[-66.1508769,-17.4049564],[-66.1508767,-17.4049692],[-66.1508731,-17.4049816],[-66.1508664,-17.4049928],[-66.150857,-17.405002],[-66.1508595,-17.405027],[-66.1508603,-17.4050958],[-66.1508022,-17.4076298],[-66.1508067,-17.4084116],[-66.1507991,-17.4087701],[-66.1508148,-17.4093633],[-66.1510285,-17.4114067],[-66.1510873,-17.4118997],[-66.1511538,-17.4123642],[-66.1511946,-17.4126857],[-66.1512648,-17.4132136],[-66.151189,-17.4132531],[-66.1503342,-17.4137204],[-66.1493566,-17.4142422],[-66.1495903,-17.4144938],[-66.149785,-17.4146895],[-66.1499164,-17.4148808],[-66.1500479,-17.4150891],[-66.1501472,-17.4152684],[-66.1502225,-17.4154568],[-66.1502789,-17.4156198],[-66.1503116,-17.4157882],[-66.1503329,-17.4159361],[-66.150362,-17.4162014],[-66.1503703,-17.4164868],[-66.1503649,-17.4165848],[-66.150343,-17.4167342],[-66.1502777,-17.417102],[-66.150174,-17.4176537],[-66.1501324,-17.4179158],[-66.1500836,-17.4180577],[-66.1500316,-17.4181772],[-66.1498087,-17.4185285],[-66.1492609,-17.4193039],[-66.1493015,-17.4193352],[-66.1493218,-17.4193665],[-66.1493834,-17.4196166],[-66.1493075,-17.4196369],[-66.149243,-17.4196464],[-66.149203,-17.4196354],[-66.1489045,-17.4195144],[-66.1488555,-17.4194958],[-66.1487969,-17.4194859],[-66.1487551,-17.4194825],[-66.1486578,-17.4194823],[-66.1482426,-17.4195059],[-66.1476294,-17.4195424],[-66.147289,-17.4195627],[-66.14703,-17.4195757],[-66.1465061,-17.419609],[-66.1464101,-17.4196151],[-66.1460215,-17.4196391],[-66.1447007,-17.4197207],[-66.1445939,-17.4197273],[-66.1439634,-17.4197669],[-66.1433615,-17.4197995],[-66.1427602,-17.4198335],[-66.1426926,-17.4198372],[-66.1421339,-17.419868],[-66.141976,-17.4198781],[-66.1416177,-17.419901],[-66.1415139,-17.4199076],[-66.1409078,-17.4199408],[-66.1405463,-17.4199618],[-66.1402894,-17.4199767],[-66.1399925,-17.4199918],[-66.1397568,-17.4199991],[-66.1397276,-17.4200019],[-66.1396656,-17.419998],[-66.1396145,-17.4199887],[-66.1395681,-17.4199707],[-66.1395221,-17.4199389],[-66.1394899,-17.4199027],[-66.1393969,-17.4198309],[-66.1393663,-17.4198179],[-66.1393315,-17.419813],[-66.139304,-17.4198146],[-66.1392694,-17.4198258],[-66.1392586,-17.4198323],[-66.1392443,-17.4198408],[-66.138494,-17.4206265],[-66.1380647,-17.4210334],[-66.1377763,-17.4213571],[-66.1371534,-17.4219799],[-66.1368421,-17.4223089],[-66.1363077,-17.4228532],[-66.1360951,-17.423068],[-66.1355174,-17.4236828],[-66.1354433,-17.4237664],[-66.1353281,-17.4237609],[-66.1348708,-17.423739],[-66.1346052,-17.4237277],[-66.1337959,-17.4243873],[-66.1333745,-17.4247413],[-66.1326343,-17.4253704],[-66.1318926,-17.4259995],[-66.1313226,-17.426483],[-66.1307686,-17.4269647],[-66.1306658,-17.4270646],[-66.1305574,-17.4271731],[-66.1304544,-17.4272899],[-66.1303924,-17.4273636],[-66.1297941,-17.4280826],[-66.1290965,-17.4289013],[-66.1289477,-17.4290947],[-66.128845,-17.4292234],[-66.1287297,-17.4293961],[-66.1285311,-17.4297369],[-66.1280555,-17.4306153],[-66.1276017,-17.4314749],[-66.1269815,-17.4326606],[-66.1268328,-17.4329131],[-66.1266927,-17.4331381],[-66.1263639,-17.4336684],[-66.1260026,-17.4342512],[-66.1253498,-17.4352115],[-66.1252844,-17.4353461],[-66.1252591,-17.4354582],[-66.1252218,-17.4356237],[-66.1252225,-17.4357541],[-66.1252436,-17.4358534],[-66.1253251,-17.4361082],[-66.1253726,-17.4362381],[-66.1254242,-17.4364693],[-66.125635,-17.4374982],[-66.1258246,-17.4382544],[-66.125846,-17.4383507],[-66.1258609,-17.4384563],[-66.1258541,-17.4385584],[-66.1258453,-17.438622],[-66.1258244,-17.4386951],[-66.1257774,-17.4388067],[-66.1257452,-17.4388481],[-66.1256439,-17.4389625],[-66.1253071,-17.4393125],[-66.1252146,-17.4394276],[-66.1251623,-17.4394929],[-66.1251301,-17.4395619],[-66.125114,-17.4396617],[-66.1251181,-17.4397732],[-66.1251371,-17.4399506],[-66.1250704,-17.4399617],[-66.124574,-17.4400307],[-66.1226536,-17.4403341],[-66.1215745,-17.4404877],[-66.1213232,-17.4405272],[-66.1203694,-17.440684],[-66.1202905,-17.4407133],[-66.1203135,-17.4408906],[-66.1202986,-17.4417982],[-66.1202907,-17.4419964],[-66.1202683,-17.4426538],[-66.120259,-17.4431041],[-66.1202515,-17.443544],[-66.120201,-17.4437273],[-66.1201269,-17.443927],[-66.1200662,-17.4440566],[-66.1195091,-17.4450037],[-66.1193425,-17.4449382],[-66.1192695,-17.4449314],[-66.1180317,-17.4450795],[-66.117403,-17.4451527],[-66.1167965,-17.4452227],[-66.1168087,-17.4455193],[-66.1168264,-17.4458517],[-66.116839,-17.4460357],[-66.1168459,-17.4463656],[-66.1168867,-17.4474555],[-66.1169023,-17.4476772],[-66.1169112,-17.4479314],[-66.1169406,-17.4485737],[-66.1169463,-17.4486978],[-66.1168708,-17.4488488],[-66.1167779,-17.4489286],[-66.1162343,-17.4488003],[-66.1159166,-17.4487253],[-66.1158096,-17.4487],[-66.1155835,-17.4486466],[-66.1154768,-17.449157],[-66.115395,-17.4496835],[-66.1153044,-17.4501819],[-66.1152519,-17.4504706],[-66.1152013,-17.4506348],[-66.1151184,-17.450838],[-66.1150654,-17.4509254],[-66.114961,-17.4510977],[-66.114881,-17.4512377],[-66.114801,-17.4513777],[-66.1148178,-17.4515471],[-66.1148245,-17.4518274],[-66.114834,-17.4519003]],"nodes":[2160387450,1577578262,11011615878,3268355882,2518322459,11011615846,2147373656,2147373637,4411063880,1576391817,11011615821,11011615823,1576391940,721099116,3268355887,682374726,682384955,721099133,721099137,8562130440,721099139,721099141,2518322651,8562130495,2518322698,8562130452,8562130427,9918289474,8562130444,8562130456,8562130457,9948558257,8562130458,9740540992,8562130470,11070207792,599541125,8562130468,2518322667,2518322658,2518322669,1713523734,4104356371,2196149240,602391949,689437234,11836778685,689437236,689437238,689437240,11836778716,3673525777,11836786407,1722458876,11836778761,599541152,3673525778,689437274,689437272,689437271,7143274061,689437279,7143274058,599541154,2468433161,7170944313,2468433173,2468433175,2468433177,2468433178,2468433176,9045163354,2468433167,3669330251,689437277,689437275,689437375,689437356,2851924367,2851924369,12478975036,9875534161,2851924370,12478975037,2851924372,2851924373,2851924371,12478975038,9875534154,9875534158,599541191,3669330253,9880128584,599541189,11078784016,10571690331,689437371,2422613369,2422613372,689437386,9989015780,689437391,2287827733,2287827735,2287827736,599541188,2287827757,10705908990,2287827775,9731395623,11941128474,2538203114,2287827791,8587411318,2370240939,11997866376,9797631610,689437336,11997826500,2296580487,2296580493,598151865,8423552836,2296580502,12409937736,11079100480,11079057399,11079105205,11079057401,598151864,9309922472,2296580751,2296580762,2296580773,2296580797,2296580808,8356437270,2296580827,2296580841,2296580860,2745674359,8356393909,2296580889,8356393896,8356393898,315120853,1636934221,8362746232,2296580913,8362746230,315121330,2312198087,315121318,315123534,2312198179,10859658789,2312198223,8267964002,315121700,8947866352,315121702,315121796,315121797,315119090,11865529284,9141410770,11865529279,648546082,2312198372,648546071,2312198397,2312198398,11069694907,3297079265,11105974898,648546070,11105974894,9339528758,3674260522,648546074,2312198411,648546081,2312198415,10817208095,10817208099,2295541485,648546073,2295541502,10817239511,10817239515,2295541560,648546072,2295541566,7916079535,2295541568,648546076,2295541572,10800524287,2295541612,648546083,698492383,2295541625,3635441114,648546080,3674274533,9567256917,648546079,9567256919,2331302373,648546084,2331302377,9294229520,2398944604,648546085,2398944608,3674274536,648546086,3674274539,648546087,9566992861,2398944626,1865095006,648548910,315111095,2398944649,10921117754,7767900406,648548697,2577975059,310502881,310502882,2933770663,2765190393,2577975158,323975356,323982548,702511964,310503084,3663487408,308300567,310503107,702511972,323985713,323985089,323985705,323985934,6129312154,6129312155,2768899033,6129316905,659960390,659960389,12313146774,2768899066,659960388,659960387,8208190713,2768899084,9343198168,9343198169,9343198167,9343198163,9343198164,9343198165,2768899087,8208190715,8208190714,659960380,5610210856,659960379,659960354,3315366893,5610210853,5610210870,646065231,2545423147,646065259,2545423149,2032952251,3017377551,2032952104,3331947177,3017377431,3331947185,8945406894,2032951784,3017377429,2032952190,2032952152,3017377428,3331947244,2032951903,3017377426,1737906678,2032952249,2032951979,2032952227,3331947272,4871222807,12484607544,12484607543,2032951962,12484607546,2032952053,12484607548,12484607547,1600426582,8748098570,8748098571,4871222802,2033020660,2033020734,2032986866,8748098537,12484607563,2032951848,12484607565,12484607567,2032986775,2033020706,2033020723,2032986701,13203351571,2032987055,13203309791,13203309787,2032986980,2033020625,8729962104,3017315878,8945388382,7149422538,3017315881,9378197652,10258381346,2674329381,10258381349,3337319110,3337319105,8729962073,8729962055,3337319106,8729961987,12524765850,3337319108,3337319132,3337319136,3337319139,3337319152,3337319160,3337319161,3337319162,9342320229,3337319163,3337374372,9342298314,3337374370,3337374379,3338058932,3338058933,3564555313,3362423097,3338058934,3338058936,3338058937,3564555338,3338058938,3338058939,3338058940,3338058941,3338058942,3338058944,3338058946,3338058947,3362423116,3338058951,3338058952,3338058955,3338058957,3338058958,3338058960,3338058962,3338058964,3338058966,3338058968,3338058970,3338058971,3338058973,3338058975,3365328391,3338058982,3338058984,3338058986,3338058988,3338058990,9368724327,3338058991,3338058992,3338059193,3547899849,3338059196,3338059197,3338059198,3338059199,3338059200,11078993505,1637667999,2032749211,2677410636,6582366668,12538587812,3534178138,2032749184,2032749281,2032749268,6148718272,2032749233,2032749185,2032749296,3534178159,12538534471,2032749287,8301906166,8301906171,1600599672,1600623754,2677221046,1600599682,1600599687,3423729552,1600641450,3017320709,2677221078,1600641461,1600641445,10839040260,3423729691,8038591723,1600636789,1600641418,2677221091,1600494845,1600494860,2677221100,3482779325,2677221124,1600494858,2677221139,3477117934,11365337992,2677221163,11365337991,1600494840,2677221182,1600628531,7821367633]},"gtfs":{"agency_id":3,"route_id":20,"services":[{"service_id":"Mo-Su","startTime":"06:00","endTime":"22:00","trip_id":9101527}],"filteredStops":{"nodes":[2160387450,1577578262,11011615878,3268355882,2518322459,11011615846,2147373656,2147373637,4411063880,1576391817,11011615821,11011615823,1576391940,721099116,3268355887,682374726,682384955,721099133,721099137,8562130440,721099139,721099141,2518322651,8562130495,2518322698,8562130452,8562130427,9918289474,8562130444,8562130456,8562130457,9948558257,8562130458,9740540992,8562130470,11070207792,599541125,8562130468,2518322667,2518322658,2518322669,1713523734,4104356371,2196149240,602391949,689437234,11836778685,689437236,689437238,689437240,11836778716,3673525777,11836786407,1722458876,11836778761,599541152,3673525778,689437274,689437272,689437271,7143274061,689437279,7143274058,599541154,2468433161,7170944313,2468433173,2468433175,2468433177,2468433178,2468433176,9045163354,2468433167,3669330251,689437277,689437275,689437375,689437356,2851924367,2851924369,12478975036,9875534161,2851924370,12478975037,2851924372,2851924373,2851924371,12478975038,9875534154,9875534158,599541191,3669330253,9880128584,599541189,11078784016,10571690331,689437371,2422613369,2422613372,689437386,9989015780,689437391,2287827733,2287827735,2287827736,599541188,2287827757,10705908990,2287827775,9731395623,11941128474,2538203114,2287827791,8587411318,2370240939,11997866376,9797631610,689437336,11997826500,2296580487,2296580493,598151865,8423552836,2296580502,12409937736,11079100480,11079057399,11079105205,11079057401,598151864,9309922472,2296580751,2296580762,2296580773,2296580797,2296580808,8356437270,2296580827,2296580841,2296580860,2745674359,8356393909,2296580889,8356393896,8356393898,315120853,1636934221,8362746232,2296580913,8362746230,315121330,2312198087,315121318,315123534,2312198179,10859658789,2312198223,8267964002,315121700,8947866352,315121702,315121796,315121797,315119090,11865529284,9141410770,11865529279,648546082,2312198372,648546071,2312198397,2312198398,11069694907,3297079265,11105974898,648546070,11105974894,9339528758,3674260522,648546074,2312198411,648546081,2312198415,10817208095,10817208099,2295541485,648546073,2295541502,10817239511,10817239515,2295541560,648546072,2295541566,7916079535,2295541568,648546076,2295541572,10800524287,2295541612,648546083,698492383,2295541625,3635441114,648546080,3674274533,9567256917,648546079,9567256919,2331302373,648546084,2331302377,9294229520,2398944604,648546085,2398944608,3674274536,648546086,3674274539,648546087,9566992861,2398944626,1865095006,648548910,315111095,2398944649,10921117754,7767900406,648548697,2577975059,310502881,310502882,2933770663,2765190393,2577975158,323975356,323982548,702511964,310503084,3663487408,308300567,310503107,702511972,323985713,323985089,323985705,323985934,6129312154,6129312155,2768899033,6129316905,659960390,659960389,12313146774,2768899066,659960388,659960387,8208190713,2768899084,9343198168,9343198169,9343198167,9343198163,9343198164,9343198165,2768899087,8208190715,8208190714,659960380,5610210856,659960379,659960354,3315366893,5610210853,5610210870,646065231,2545423147,646065259,2545423149,2032952251,3017377551,2032952104,3331947177,3017377431,3331947185,8945406894,2032951784,3017377429,2032952190,2032952152,3017377428,3331947244,2032951903,3017377426,1737906678,2032952249,2032951979,2032952227,3331947272,4871222807,12484607544,12484607543,2032951962,12484607546,2032952053,12484607548,12484607547,1600426582,8748098570,8748098571,4871222802,2033020660,2033020734,2032986866,8748098537,12484607563,2032951848,12484607565,12484607567,2032986775,2033020706,2033020723,2032986701,13203351571,2032987055,13203309791,13203309787,2032986980,2033020625,8729962104,3017315878,8945388382,7149422538,3017315881,9378197652,10258381346,2674329381,10258381349,3337319110,3337319105,8729962073,8729962055,3337319106,8729961987,12524765850,3337319108,3337319132,3337319136,3337319139,3337319152,3337319160,3337319161,3337319162,9342320229,3337319163,3337374372,9342298314,3337374370,3337374379,3338058932,3338058933,3564555313,3362423097,3338058934,3338058936,3338058937,3564555338,3338058938,3338058939,3338058940,3338058941,3338058942,3338058944,3338058946,3338058947,3362423116,3338058951,3338058952,3338058955,3338058957,3338058958,3338058960,3338058962,3338058964,3338058966,3338058968,3338058970,3338058971,3338058973,3338058975,3365328391,3338058982,3338058984,3338058986,3338058988,3338058990,9368724327,3338058991,3338058992,3338059193,3547899849,3338059196,3338059197,3338059198,3338059199,3338059200,11078993505,1637667999,2032749211,2677410636,6582366668,12538587812,3534178138,2032749184,2032749281,2032749268,6148718272,2032749233,2032749185,2032749296,3534178159,12538534471,2032749287,8301906166,8301906171,1600599672,1600623754,2677221046,1600599682,1600599687,3423729552,1600641450,3017320709,2677221078,1600641461,1600641445,10839040260,3423729691,8038591723,1600636789,1600641418,2677221091,1600494845,1600494860,2677221100,3482779325,2677221124,1600494858,2677221139,3477117934,11365337992,2677221163,11365337991,1600494840,2677221182,1600628531,7821367633],"coordinates":[[-66.1913368,-17.3690023],[-66.1909356,-17.3691157],[-66.1907568,-17.3691696],[-66.1905777,-17.3692237],[-66.1899674,-17.3694076],[-66.189934,-17.3694178],[-66.1897744,-17.3694665],[-66.1896433,-17.369508],[-66.1894019,-17.3695823],[-66.1891189,-17.3696765],[-66.1886209,-17.3698327],[-66.1885701,-17.3698489],[-66.1885404,-17.369858],[-66.1887844,-17.3707984],[-66.188797,-17.370856],[-66.1888105,-17.3709074],[-66.1885727,-17.370924],[-66.1870037,-17.3710136],[-66.1855896,-17.3711046],[-66.1847769,-17.3711516],[-66.1846805,-17.3711598],[-66.1844961,-17.3711797],[-66.1843919,-17.3712006],[-66.18412,-17.3712888],[-66.1840488,-17.3713086],[-66.183987,-17.3713251],[-66.1839131,-17.3713471],[-66.1838569,-17.3713622],[-66.1838007,-17.3713739],[-66.1837107,-17.3713793],[-66.1836246,-17.3713737],[-66.1835979,-17.371368],[-66.1835476,-17.3713572],[-66.1834936,-17.3713396],[-66.1834583,-17.3713259],[-66.1834456,-17.3712996],[-66.1833822,-17.3712786],[-66.1833084,-17.3712574],[-66.1832406,-17.3712465],[-66.1831719,-17.3712427],[-66.1830932,-17.3712456],[-66.1812031,-17.3713708],[-66.180272,-17.371435],[-66.1802059,-17.3714388],[-66.1798972,-17.3714563],[-66.1793683,-17.3714867],[-66.1790971,-17.3715026],[-66.1782694,-17.371551],[-66.1776982,-17.3715877],[-66.1770052,-17.3716323],[-66.176711,-17.3716506],[-66.1758802,-17.3717021],[-66.1758424,-17.3717045],[-66.1758047,-17.3717068],[-66.1757552,-17.3717092],[-66.1757008,-17.3717118],[-66.1756263,-17.3717154],[-66.1749294,-17.3717598],[-66.1742666,-17.3718003],[-66.1736067,-17.3718451],[-66.1729403,-17.3718855],[-66.1728783,-17.3718894],[-66.1727835,-17.3718955],[-66.1722619,-17.3719344],[-66.1722202,-17.3719416],[-66.1721735,-17.3719525],[-66.1721483,-17.3719742],[-66.1721023,-17.3719931],[-66.1720537,-17.3720043],[-66.1720037,-17.3720075],[-66.1719539,-17.3720026],[-66.1719146,-17.3719866],[-66.1718879,-17.3719678],[-66.1718031,-17.3719645],[-66.171319,-17.3719969],[-66.1706729,-17.3720401],[-66.1699054,-17.3720863],[-66.1691006,-17.372137],[-66.168587,-17.3721724],[-66.1685115,-17.3721771],[-66.1684997,-17.3722013],[-66.1684825,-17.3722224],[-66.168454,-17.3722433],[-66.1684279,-17.3722539],[-66.1683999,-17.3722586],[-66.1683785,-17.3722582],[-66.1683542,-17.3722533],[-66.1683334,-17.3722451],[-66.1683144,-17.3722334],[-66.1682941,-17.3722145],[-66.1682794,-17.372193],[-66.1682184,-17.3721971],[-66.167996,-17.3722106],[-66.1676312,-17.3722381],[-66.1667194,-17.3722921],[-66.1660179,-17.3723376],[-66.1659353,-17.372343],[-66.1656278,-17.3723622],[-66.1651178,-17.372394],[-66.1646438,-17.3724236],[-66.1638303,-17.372476],[-66.163746,-17.3724797],[-66.1636543,-17.3724851],[-66.1632714,-17.3725106],[-66.1627848,-17.3725451],[-66.1626975,-17.3725484],[-66.1626738,-17.3726282],[-66.1626655,-17.372657],[-66.1626469,-17.3727147],[-66.1624847,-17.3732722],[-66.1623417,-17.3737608],[-66.1619469,-17.3751099],[-66.1619132,-17.3752197],[-66.1618519,-17.3754289],[-66.1618315,-17.3754986],[-66.1615816,-17.3763513],[-66.1615755,-17.3763721],[-66.1615553,-17.3764448],[-66.1615333,-17.3765194],[-66.1613573,-17.3771167],[-66.1611004,-17.3779932],[-66.1610775,-17.3780745],[-66.1610462,-17.3781873],[-66.1610272,-17.3782558],[-66.1609592,-17.3784883],[-66.1609424,-17.3785457],[-66.1608112,-17.3789943],[-66.1607831,-17.3790903],[-66.1607443,-17.3792232],[-66.1604215,-17.3803268],[-66.1603952,-17.3804271],[-66.1603946,-17.380447],[-66.1603903,-17.3805384],[-66.1604026,-17.3806234],[-66.1604292,-17.3807053],[-66.160446,-17.3807533],[-66.1604502,-17.3808037],[-66.1604418,-17.3808536],[-66.1604211,-17.3809001],[-66.1603894,-17.3809406],[-66.1603483,-17.3810263],[-66.1603242,-17.3810949],[-66.1603011,-17.3811631],[-66.1602836,-17.3812089],[-66.1602648,-17.3812714],[-66.1602553,-17.381306],[-66.1601491,-17.3816632],[-66.1601392,-17.381699],[-66.160118,-17.3817783],[-66.1601068,-17.3818443],[-66.1600997,-17.3819171],[-66.1601024,-17.3820084],[-66.160124,-17.3821361],[-66.1601469,-17.3822132],[-66.1602407,-17.3822868],[-66.1603594,-17.3823444],[-66.1604688,-17.3823833],[-66.1606562,-17.3825128],[-66.1607107,-17.3825607],[-66.160761,-17.3826192],[-66.1607787,-17.3826564],[-66.1607888,-17.3826961],[-66.1607912,-17.3827369],[-66.1607791,-17.3827992],[-66.1607072,-17.3831619],[-66.1606419,-17.3834911],[-66.1605961,-17.3837256],[-66.1605453,-17.383991],[-66.1605326,-17.3840573],[-66.1605109,-17.3841805],[-66.1604819,-17.3843306],[-66.1604744,-17.3843724],[-66.1603513,-17.3850553],[-66.1602557,-17.3855856],[-66.1601673,-17.3860756],[-66.1601591,-17.3861214],[-66.1601482,-17.386177],[-66.1600475,-17.3866944],[-66.1599305,-17.3872954],[-66.1599197,-17.3873512],[-66.1597423,-17.3882142],[-66.1597305,-17.3882738],[-66.1597051,-17.388406],[-66.1596438,-17.3887192],[-66.1595902,-17.3889782],[-66.1595262,-17.3892878],[-66.1595142,-17.3893446],[-66.159503,-17.3893996],[-66.1594442,-17.3897264],[-66.1593876,-17.3900413],[-66.1593227,-17.3904021],[-66.159313,-17.3904571],[-66.1593022,-17.390508],[-66.159237,-17.3907866],[-66.1591098,-17.3914114],[-66.1590985,-17.3914702],[-66.159088,-17.3915156],[-66.1589552,-17.3921765],[-66.1588889,-17.3925062],[-66.158879,-17.3925589],[-66.1588624,-17.3926465],[-66.1588503,-17.3927102],[-66.1586938,-17.3935139],[-66.1586779,-17.3935864],[-66.1586694,-17.3936298],[-66.1584851,-17.3945425],[-66.1584685,-17.3946244],[-66.1584596,-17.3946726],[-66.1582846,-17.3956252],[-66.1582776,-17.3956693],[-66.1582695,-17.3957154],[-66.1582518,-17.3958179],[-66.1581359,-17.3966716],[-66.1581304,-17.3967147],[-66.1581237,-17.3967678],[-66.1579692,-17.3977363],[-66.157959,-17.397794],[-66.1579492,-17.3978569],[-66.1577782,-17.3989265],[-66.1577422,-17.3991449],[-66.157736,-17.3992969],[-66.1577347,-17.3993519],[-66.1577288,-17.3994867],[-66.1576362,-17.3994821],[-66.1575773,-17.3994804],[-66.1575564,-17.3994809],[-66.1568789,-17.399583],[-66.1567734,-17.3995917],[-66.1564914,-17.3995873],[-66.1564225,-17.3995781],[-66.1561989,-17.4007931],[-66.1561157,-17.4013136],[-66.1559482,-17.4021963],[-66.1559112,-17.4022946],[-66.1554199,-17.4023008],[-66.1553165,-17.4021915],[-66.1552573,-17.4013426],[-66.1539544,-17.4014003],[-66.1536294,-17.4014119],[-66.1532722,-17.4014247],[-66.1521961,-17.4014555],[-66.1512901,-17.4014743],[-66.1512351,-17.4016052],[-66.1510926,-17.4019104],[-66.1510363,-17.4020268],[-66.1510003,-17.4021361],[-66.1509697,-17.4022563],[-66.1509643,-17.4023812],[-66.1509743,-17.4025874],[-66.1510012,-17.4031363],[-66.1510151,-17.403494],[-66.151025,-17.4038341],[-66.1510241,-17.4039937],[-66.1510096,-17.4041425],[-66.1509707,-17.4044188],[-66.1509247,-17.404686],[-66.1508784,-17.4048938],[-66.1508636,-17.4049278],[-66.1508695,-17.4049354],[-66.1508738,-17.4049439],[-66.1508769,-17.4049564],[-66.1508767,-17.4049692],[-66.1508731,-17.4049816],[-66.1508664,-17.4049928],[-66.150857,-17.405002],[-66.1508595,-17.405027],[-66.1508603,-17.4050958],[-66.1508022,-17.4076298],[-66.1508067,-17.4084116],[-66.1507991,-17.4087701],[-66.1508148,-17.4093633],[-66.1510285,-17.4114067],[-66.1510873,-17.4118997],[-66.1511538,-17.4123642],[-66.1511946,-17.4126857],[-66.1512648,-17.4132136],[-66.151189,-17.4132531],[-66.1503342,-17.4137204],[-66.1493566,-17.4142422],[-66.1495903,-17.4144938],[-66.149785,-17.4146895],[-66.1499164,-17.4148808],[-66.1500479,-17.4150891],[-66.1501472,-17.4152684],[-66.1502225,-17.4154568],[-66.1502789,-17.4156198],[-66.1503116,-17.4157882],[-66.1503329,-17.4159361],[-66.150362,-17.4162014],[-66.1503703,-17.4164868],[-66.1503649,-17.4165848],[-66.150343,-17.4167342],[-66.1502777,-17.417102],[-66.150174,-17.4176537],[-66.1501324,-17.4179158],[-66.1500836,-17.4180577],[-66.1500316,-17.4181772],[-66.1498087,-17.4185285],[-66.1492609,-17.4193039],[-66.1493015,-17.4193352],[-66.1493218,-17.4193665],[-66.1493834,-17.4196166],[-66.1493075,-17.4196369],[-66.149243,-17.4196464],[-66.149203,-17.4196354],[-66.1489045,-17.4195144],[-66.1488555,-17.4194958],[-66.1487969,-17.4194859],[-66.1487551,-17.4194825],[-66.1486578,-17.4194823],[-66.1482426,-17.4195059],[-66.1476294,-17.4195424],[-66.147289,-17.4195627],[-66.14703,-17.4195757],[-66.1465061,-17.419609],[-66.1464101,-17.4196151],[-66.1460215,-17.4196391],[-66.1447007,-17.4197207],[-66.1445939,-17.4197273],[-66.1439634,-17.4197669],[-66.1433615,-17.4197995],[-66.1427602,-17.4198335],[-66.1426926,-17.4198372],[-66.1421339,-17.419868],[-66.141976,-17.4198781],[-66.1416177,-17.419901],[-66.1415139,-17.4199076],[-66.1409078,-17.4199408],[-66.1405463,-17.4199618],[-66.1402894,-17.4199767],[-66.1399925,-17.4199918],[-66.1397568,-17.4199991],[-66.1397276,-17.4200019],[-66.1396656,-17.419998],[-66.1396145,-17.4199887],[-66.1395681,-17.4199707],[-66.1395221,-17.4199389],[-66.1394899,-17.4199027],[-66.1393969,-17.4198309],[-66.1393663,-17.4198179],[-66.1393315,-17.419813],[-66.139304,-17.4198146],[-66.1392694,-17.4198258],[-66.1392586,-17.4198323],[-66.1392443,-17.4198408],[-66.138494,-17.4206265],[-66.1380647,-17.4210334],[-66.1377763,-17.4213571],[-66.1371534,-17.4219799],[-66.1368421,-17.4223089],[-66.1363077,-17.4228532],[-66.1360951,-17.423068],[-66.1355174,-17.4236828],[-66.1354433,-17.4237664],[-66.1353281,-17.4237609],[-66.1348708,-17.423739],[-66.1346052,-17.4237277],[-66.1337959,-17.4243873],[-66.1333745,-17.4247413],[-66.1326343,-17.4253704],[-66.1318926,-17.4259995],[-66.1313226,-17.426483],[-66.1307686,-17.4269647],[-66.1306658,-17.4270646],[-66.1305574,-17.4271731],[-66.1304544,-17.4272899],[-66.1303924,-17.4273636],[-66.1297941,-17.4280826],[-66.1290965,-17.4289013],[-66.1289477,-17.4290947],[-66.128845,-17.4292234],[-66.1287297,-17.4293961],[-66.1285311,-17.4297369],[-66.1280555,-17.4306153],[-66.1276017,-17.4314749],[-66.1269815,-17.4326606],[-66.1268328,-17.4329131],[-66.1266927,-17.4331381],[-66.1263639,-17.4336684],[-66.1260026,-17.4342512],[-66.1253498,-17.4352115],[-66.1252844,-17.4353461],[-66.1252591,-17.4354582],[-66.1252218,-17.4356237],[-66.1252225,-17.4357541],[-66.1252436,-17.4358534],[-66.1253251,-17.4361082],[-66.1253726,-17.4362381],[-66.1254242,-17.4364693],[-66.125635,-17.4374982],[-66.1258246,-17.4382544],[-66.125846,-17.4383507],[-66.1258609,-17.4384563],[-66.1258541,-17.4385584],[-66.1258453,-17.438622],[-66.1258244,-17.4386951],[-66.1257774,-17.4388067],[-66.1257452,-17.4388481],[-66.1256439,-17.4389625],[-66.1253071,-17.4393125],[-66.1252146,-17.4394276],[-66.1251623,-17.4394929],[-66.1251301,-17.4395619],[-66.125114,-17.4396617],[-66.1251181,-17.4397732],[-66.1251371,-17.4399506],[-66.1250704,-17.4399617],[-66.124574,-17.4400307],[-66.1226536,-17.4403341],[-66.1215745,-17.4404877],[-66.1213232,-17.4405272],[-66.1203694,-17.440684],[-66.1202905,-17.4407133],[-66.1203135,-17.4408906],[-66.1202986,-17.4417982],[-66.1202907,-17.4419964],[-66.1202683,-17.4426538],[-66.120259,-17.4431041],[-66.1202515,-17.443544],[-66.120201,-17.4437273],[-66.1201269,-17.443927],[-66.1200662,-17.4440566],[-66.1195091,-17.4450037],[-66.1193425,-17.4449382],[-66.1192695,-17.4449314],[-66.1180317,-17.4450795],[-66.117403,-17.4451527],[-66.1167965,-17.4452227],[-66.1168087,-17.4455193],[-66.1168264,-17.4458517],[-66.116839,-17.4460357],[-66.1168459,-17.4463656],[-66.1168867,-17.4474555],[-66.1169023,-17.4476772],[-66.1169112,-17.4479314],[-66.1169406,-17.4485737],[-66.1169463,-17.4486978],[-66.1168708,-17.4488488],[-66.1167779,-17.4489286],[-66.1162343,-17.4488003],[-66.1159166,-17.4487253],[-66.1158096,-17.4487],[-66.1155835,-17.4486466],[-66.1154768,-17.449157],[-66.115395,-17.4496835],[-66.1153044,-17.4501819],[-66.1152519,-17.4504706],[-66.1152013,-17.4506348],[-66.1151184,-17.450838],[-66.1150654,-17.4509254],[-66.114961,-17.4510977],[-66.114881,-17.4512377],[-66.114801,-17.4513777],[-66.1148178,-17.4515471],[-66.1148245,-17.4518274],[-66.114834,-17.4519003]]}}}]}