{"type":"FeatureCollection","features":[{"type":"Feature","properties":{"from":"OTB Ecológica","name":"MiniBus 16: OTB Ecológica → Avenida Silala","network":"BO:CB:Cochabamba","on_demand":"yes","operator":"Sindicato mixto de transporte público 6 de mayo","public_transport:version":"2","ref":"16","route":"bus","to":"Avenida Silala","type":"route","wheelchair":"no","id":9118541},"geometry":{"type":"LineString","coordinates":[[-66.1966002,-17.342542700000003],[-66.19652070000001,-17.3426082],[-66.19636120000001,-17.342701400000003],[-66.1958266,-17.342935500000003],[-66.1956852,-17.3429903],[-66.195266,-17.343158000000003],[-66.19517950000001,-17.343203000000003],[-66.1947739,-17.3433756],[-66.194415,-17.3435063],[-66.1939665,-17.343611900000003],[-66.1939085,-17.343621000000002],[-66.1934059,-17.3438309],[-66.19288710000001,-17.344047500000002],[-66.19244760000001,-17.344222100000003],[-66.1924199,-17.3442323],[-66.19257080000001,-17.3448397],[-66.19271950000001,-17.3454367],[-66.1917901,-17.3458289],[-66.1916765,-17.3458763],[-66.19161700000001,-17.3459074],[-66.19118250000001,-17.3461104],[-66.190713,-17.346301500000003],[-66.1907704,-17.346451300000002],[-66.19110470000001,-17.347353000000002],[-66.1913536,-17.3480278],[-66.1913808,-17.3481011],[-66.1909263,-17.348472800000003],[-66.1908973,-17.3484817],[-66.19069660000001,-17.3485434],[-66.190481,-17.3486097],[-66.1895982,-17.348842100000002],[-66.1887657,-17.349057600000002],[-66.18862,-17.3491047],[-66.18856860000001,-17.349118100000002],[-66.18680690000001,-17.349577],[-66.18504700000001,-17.3500309],[-66.18493570000001,-17.3500787],[-66.18484280000001,-17.3501483],[-66.18480930000001,-17.3501811],[-66.1847843,-17.350205600000002],[-66.18473010000001,-17.3502745],[-66.1847151,-17.350293500000003],[-66.18469200000001,-17.350325100000003],[-66.1846538,-17.350374600000002],[-66.184655,-17.3503943],[-66.1846496,-17.3504322],[-66.18463720000001,-17.3504556],[-66.1846091,-17.350488400000003],[-66.18457140000001,-17.350510800000002],[-66.1845282,-17.350520300000003],[-66.1845006,-17.350519100000003],[-66.1844425,-17.350543100000003],[-66.1843923,-17.3505721],[-66.18419460000001,-17.3507311],[-66.18415080000001,-17.350778400000003],[-66.1841084,-17.350836],[-66.1840815,-17.350895400000002],[-66.18406,-17.350952300000003],[-66.1840456,-17.351042200000002],[-66.18401340000001,-17.351228600000002],[-66.1839853,-17.3512902],[-66.18395240000001,-17.3513446],[-66.18392750000001,-17.351369000000002],[-66.18387910000001,-17.3514109],[-66.18345790000001,-17.351668800000002],[-66.1831279,-17.3518747],[-66.1828969,-17.3520167],[-66.18278020000001,-17.352089900000003],[-66.182686,-17.352162900000003],[-66.18255500000001,-17.352284100000002],[-66.18245010000001,-17.352385400000003],[-66.18226720000001,-17.3525357],[-66.1813669,-17.353276100000002],[-66.1813022,-17.353337200000002],[-66.1812321,-17.353405900000002],[-66.1808762,-17.353821500000002],[-66.18051600000001,-17.354291200000002],[-66.1802813,-17.354606500000003],[-66.1801915,-17.354689800000003],[-66.18010020000001,-17.354758200000003],[-66.17997220000001,-17.3548386],[-66.17979620000001,-17.3549127],[-66.17952980000001,-17.355013000000003],[-66.17929740000001,-17.355123900000002],[-66.17911620000001,-17.355225],[-66.1789153,-17.3553564],[-66.1783911,-17.355716],[-66.1775394,-17.3562894],[-66.1770625,-17.356607500000003],[-66.17671960000001,-17.3568362],[-66.1765811,-17.3569286],[-66.1764761,-17.3569986],[-66.17628810000001,-17.357157500000003],[-66.1761984,-17.357233400000002],[-66.1759926,-17.357411000000003],[-66.1758573,-17.3575105],[-66.17578040000001,-17.3575592],[-66.1756009,-17.3576729],[-66.1754599,-17.357743900000003],[-66.17507330000001,-17.357926900000002],[-66.1748781,-17.3580061],[-66.1732559,-17.3587771],[-66.17230110000001,-17.3592219],[-66.17224300000001,-17.359248],[-66.1720646,-17.3593207],[-66.1719204,-17.359382],[-66.171867,-17.359417500000003],[-66.17182030000001,-17.359462500000003],[-66.17170990000001,-17.3595787],[-66.1715777,-17.3597171],[-66.1712237,-17.360085100000003],[-66.1707703,-17.360560900000003],[-66.1705829,-17.3607799],[-66.17043860000001,-17.3609189],[-66.1701542,-17.3612126],[-66.1690993,-17.362341400000002],[-66.16902560000001,-17.362416200000002],[-66.1689801,-17.3624629],[-66.16890330000001,-17.362530300000003],[-66.1687763,-17.3626298],[-66.1685363,-17.362817800000002],[-66.1684733,-17.3628524],[-66.16838390000001,-17.362894400000002],[-66.16821130000001,-17.3629609],[-66.1678011,-17.363119],[-66.16772350000001,-17.363148900000002],[-66.1676724,-17.3631676],[-66.16700800000001,-17.3634106],[-66.16605240000001,-17.3637601],[-66.1660219,-17.3637713],[-66.1655638,-17.363938800000003],[-66.1651241,-17.364099900000003],[-66.16508830000001,-17.3641134],[-66.1649831,-17.364153],[-66.16454130000001,-17.3643104],[-66.1643935,-17.364363100000002],[-66.16371430000001,-17.3646138],[-66.1627795,-17.3649427],[-66.16246890000001,-17.365018000000003],[-66.16234460000001,-17.365048100000003],[-66.1622432,-17.3650677],[-66.16227310000001,-17.3651437],[-66.16249900000001,-17.3657207],[-66.16254590000001,-17.365827600000003],[-66.1626791,-17.3660405],[-66.1629925,-17.3664452],[-66.16302950000001,-17.366503700000003],[-66.16304980000001,-17.366538600000002],[-66.1630602,-17.3665565],[-66.1630829,-17.3666081],[-66.1630945,-17.3666357],[-66.16311420000001,-17.3666823],[-66.1631263,-17.3667108],[-66.1631455,-17.3667562],[-66.1631825,-17.366849900000002],[-66.16319560000001,-17.366883100000003],[-66.16364490000001,-17.368076000000002],[-66.1636807,-17.3681424],[-66.1637067,-17.368174],[-66.16373750000001,-17.3682079],[-66.16378950000001,-17.368173600000002],[-66.1638415,-17.368158400000002],[-66.1638805,-17.368155400000003],[-66.1639423,-17.368175200000003],[-66.16398480000001,-17.3682015],[-66.1639978,-17.3682157],[-66.16402280000001,-17.3682486],[-66.16404370000001,-17.368284000000003],[-66.164057,-17.3683599],[-66.1640552,-17.368423800000002],[-66.16405280000001,-17.3684526],[-66.16403910000001,-17.3685209],[-66.16401450000001,-17.3685864],[-66.1639797,-17.368647600000003],[-66.1639354,-17.3687028],[-66.16388260000001,-17.3687505],[-66.1638262,-17.368815700000003],[-66.16379690000001,-17.368860700000003],[-66.1637566,-17.368920900000003],[-66.16373390000001,-17.368975000000002],[-66.1635894,-17.3694995],[-66.1633104,-17.3704268],[-66.1632793,-17.3705342],[-66.1629707,-17.371601300000002],[-66.1629631,-17.371627500000002],[-66.1628606,-17.371981700000003],[-66.1627881,-17.372232500000003],[-66.16274150000001,-17.3723846],[-66.16272430000001,-17.372448600000002],[-66.16269750000001,-17.372548400000003],[-66.16267380000001,-17.3726282],[-66.1626655,-17.372657],[-66.16264690000001,-17.372714700000003],[-66.16248470000001,-17.373272200000002],[-66.1623417,-17.373760800000003],[-66.1619469,-17.3751099],[-66.1619132,-17.375219700000002],[-66.1618519,-17.375428900000003],[-66.1618315,-17.3754986],[-66.1615816,-17.376351300000003],[-66.16157550000001,-17.3763721],[-66.1615553,-17.3764448],[-66.1615333,-17.376519400000003],[-66.1613573,-17.377116700000002],[-66.16110040000001,-17.377993200000002],[-66.1610775,-17.3780745],[-66.1610462,-17.3781873],[-66.1610272,-17.3782558],[-66.16095920000001,-17.3784883],[-66.16094240000001,-17.3785457],[-66.16081120000001,-17.378994300000002],[-66.1607831,-17.3790903],[-66.1607443,-17.379223200000002],[-66.16042150000001,-17.380326800000002],[-66.16039520000001,-17.380427100000002],[-66.1603946,-17.380447],[-66.1603903,-17.380538400000002],[-66.16040260000001,-17.3806234],[-66.16042920000001,-17.380705300000002],[-66.16044600000001,-17.380753300000002],[-66.1604502,-17.3808037],[-66.1604418,-17.380853600000002],[-66.16042110000001,-17.3809001],[-66.1603894,-17.380940600000002],[-66.16034830000001,-17.381026300000002],[-66.1603242,-17.3810949],[-66.16030110000001,-17.381163100000002],[-66.1602836,-17.3812089],[-66.16026480000001,-17.381271400000003],[-66.1602553,-17.381306000000002],[-66.16014910000001,-17.381663200000002],[-66.1601392,-17.381699],[-66.16011800000001,-17.3817783],[-66.16010680000001,-17.3818443],[-66.1600997,-17.381917100000003],[-66.1601024,-17.3820084],[-66.16012400000001,-17.3821361],[-66.1601469,-17.382213200000002],[-66.1601468,-17.382292600000003],[-66.16014030000001,-17.382329000000002],[-66.1601337,-17.3823653],[-66.1601052,-17.382432700000003],[-66.16004910000001,-17.3824933],[-66.1599485,-17.3825638],[-66.1598111,-17.382667100000003],[-66.1597435,-17.3827412],[-66.15965130000001,-17.382865300000002],[-66.1596135,-17.382944700000003],[-66.1595022,-17.3830911],[-66.15933860000001,-17.3833062],[-66.1593007,-17.383356000000003],[-66.1591066,-17.383611400000003],[-66.15899590000001,-17.383757000000003],[-66.15888650000001,-17.3839009],[-66.15884720000001,-17.3839526],[-66.15880410000001,-17.3840085],[-66.1587884,-17.3840289],[-66.1586145,-17.3842548],[-66.1584148,-17.384514000000003],[-66.1583937,-17.3845414],[-66.1583738,-17.384566900000003],[-66.1582879,-17.3846768],[-66.1580811,-17.384947200000003],[-66.1579708,-17.385071800000002],[-66.1579598,-17.385085800000002],[-66.15793570000001,-17.385117800000003],[-66.1578614,-17.3852154],[-66.15776070000001,-17.385338800000003],[-66.15750840000001,-17.385662800000002],[-66.1568608,-17.38651],[-66.15678720000001,-17.386607100000003],[-66.15674480000001,-17.3866577],[-66.15646240000001,-17.3870295],[-66.15606650000001,-17.387550800000003],[-66.1560532,-17.3875977],[-66.15605020000001,-17.387648700000003],[-66.1560494,-17.387709700000002],[-66.15629790000001,-17.3877537],[-66.156277,-17.3878777],[-66.15621420000001,-17.388445100000002],[-66.156169,-17.388719100000003],[-66.1561573,-17.388816000000002],[-66.156146,-17.3888821],[-66.15598920000001,-17.3898061],[-66.15597840000001,-17.389865200000003],[-66.1559742,-17.3898905],[-66.15597140000001,-17.389909000000003],[-66.15579980000001,-17.3909053],[-66.155613,-17.391912100000003],[-66.1556012,-17.3919776],[-66.1555632,-17.3920663],[-66.1555496,-17.392136500000003],[-66.1554947,-17.392419],[-66.15538670000001,-17.3929748],[-66.15538000000001,-17.3930094],[-66.1553734,-17.3930447],[-66.15527250000001,-17.393581400000002],[-66.15519330000001,-17.3940026],[-66.15518510000001,-17.394046200000002],[-66.15519040000001,-17.3941103],[-66.1551015,-17.394555200000003],[-66.155099,-17.394568900000003],[-66.155095,-17.394591000000002],[-66.1550466,-17.394856100000002],[-66.15501400000001,-17.3950347],[-66.1550064,-17.395067700000002],[-66.15483710000001,-17.3959195],[-66.1548104,-17.396052700000002],[-66.1547941,-17.3961338],[-66.1546703,-17.396757800000003],[-66.15457980000001,-17.3971915],[-66.15441750000001,-17.3980992],[-66.15438900000001,-17.3982226],[-66.1542283,-17.398992900000003],[-66.1542062,-17.399083700000002],[-66.1540449,-17.3999995],[-66.1539303,-17.400709300000003],[-66.1539197,-17.400836],[-66.1539544,-17.401400300000002],[-66.1540131,-17.4022708],[-66.1545042,-17.402242700000002],[-66.1545112,-17.402303900000003],[-66.15451270000001,-17.4023529],[-66.1545152,-17.402433600000002],[-66.1545172,-17.4025003],[-66.1545198,-17.4025843],[-66.15452230000001,-17.402665000000002],[-66.15452330000001,-17.402697200000002],[-66.1545256,-17.402774500000003],[-66.15452780000001,-17.402846],[-66.1545303,-17.402925600000003],[-66.1545323,-17.402993900000002],[-66.15453310000001,-17.4030948],[-66.1545043,-17.403107900000002],[-66.1544556,-17.403137700000002],[-66.1543942,-17.403180600000002],[-66.15430070000001,-17.403236300000003],[-66.1542278,-17.4032644],[-66.1541696,-17.4032716],[-66.1539556,-17.403280900000002],[-66.15344180000001,-17.403297900000002],[-66.1534103,-17.403313],[-66.15338820000001,-17.403336000000003],[-66.1533655,-17.4033787],[-66.153418,-17.4048024],[-66.15342190000001,-17.4048641],[-66.15343440000001,-17.405281300000002],[-66.1534587,-17.406098],[-66.1534869,-17.407052200000003],[-66.1535018,-17.407546800000002],[-66.1535229,-17.408288600000002],[-66.15357180000001,-17.4098408],[-66.1535831,-17.4102742],[-66.15356720000001,-17.410477500000002],[-66.15357440000001,-17.411177300000002],[-66.15362010000001,-17.413170700000002],[-66.15364050000001,-17.413712],[-66.1536404,-17.4139324],[-66.153631,-17.414165],[-66.1536085,-17.4142805],[-66.1535746,-17.4144176],[-66.15353420000001,-17.4145618],[-66.1534764,-17.4147132],[-66.15339750000001,-17.4149022],[-66.1533333,-17.4150564],[-66.1532442,-17.4152278],[-66.1531408,-17.4153927],[-66.15278620000001,-17.415849100000003],[-66.15262290000001,-17.416055500000002],[-66.1521519,-17.4166518],[-66.1521024,-17.416727400000003],[-66.1520187,-17.416870600000003],[-66.1519866,-17.416922500000002],[-66.1519342,-17.417056600000002],[-66.15192760000001,-17.4171072],[-66.15190600000001,-17.417153900000002],[-66.1518712,-17.4172508],[-66.15185860000001,-17.4172879],[-66.15182920000001,-17.4174036],[-66.15180570000001,-17.4175262],[-66.15180000000001,-17.4176977],[-66.1518083,-17.4179208],[-66.1518491,-17.4181743],[-66.1518959,-17.4183445],[-66.1519944,-17.4185447],[-66.15230770000001,-17.4190842],[-66.1524139,-17.4192688],[-66.15270790000001,-17.4198248],[-66.1528768,-17.4201687],[-66.153126,-17.4207496],[-66.1533093,-17.421245000000003],[-66.1533668,-17.421416800000003],[-66.15337960000001,-17.4214552],[-66.15343990000001,-17.4216339],[-66.1535235,-17.421875800000002],[-66.15360980000001,-17.422226100000003],[-66.1536372,-17.4223372],[-66.15371300000001,-17.422695100000002],[-66.1537519,-17.422916800000003],[-66.1537741,-17.4230437],[-66.1538258,-17.423403200000003],[-66.1538376,-17.4235541],[-66.15384250000001,-17.4236404],[-66.15385900000001,-17.423928500000002],[-66.15387820000001,-17.4242503],[-66.1538768,-17.424667200000002],[-66.1538754,-17.425012000000002],[-66.15387050000001,-17.425088900000002],[-66.1538582,-17.425322400000002],[-66.1538354,-17.4255217],[-66.1537437,-17.4258741],[-66.15352890000001,-17.4266501],[-66.1534788,-17.426799900000002],[-66.15341160000001,-17.4269633],[-66.15329870000001,-17.4272023],[-66.15318740000001,-17.4273926],[-66.15308660000001,-17.4275744],[-66.1529395,-17.4277881],[-66.1527384,-17.4280326],[-66.1524617,-17.4283122],[-66.1516869,-17.4290518],[-66.1515746,-17.4291674],[-66.1514885,-17.429273300000002],[-66.1514322,-17.4293622],[-66.15141290000001,-17.4293926],[-66.15134370000001,-17.4295368],[-66.15122170000001,-17.429854600000002],[-66.15115460000001,-17.4300071],[-66.1511043,-17.4301117],[-66.15099760000001,-17.430303300000002],[-66.15094500000001,-17.430394600000003],[-66.150789,-17.4306762],[-66.15063450000001,-17.430935400000003],[-66.1506004,-17.430992500000002],[-66.1502801,-17.4314649],[-66.150135,-17.4316622],[-66.1500936,-17.4317166],[-66.1498155,-17.432099700000002],[-66.14966410000001,-17.4323082],[-66.1488863,-17.4333528],[-66.14852370000001,-17.4338383],[-66.1482313,-17.434234500000002],[-66.14799190000001,-17.434548000000003],[-66.1475408,-17.4351592],[-66.1472387,-17.4355684],[-66.14675220000001,-17.4362226],[-66.14603770000001,-17.437183400000002],[-66.1458844,-17.4374059],[-66.1458164,-17.4375177],[-66.14568560000001,-17.4377986],[-66.1456591,-17.4378575],[-66.1455681,-17.43802],[-66.145516,-17.438107600000002],[-66.1454212,-17.4382336],[-66.14523430000001,-17.4384832],[-66.14514430000001,-17.438604100000003],[-66.1450507,-17.438747300000003],[-66.1449104,-17.4389937],[-66.14415100000001,-17.4403279],[-66.1439442,-17.4406448],[-66.14372440000001,-17.4409369],[-66.14359080000001,-17.441086000000002],[-66.14330530000001,-17.4413912],[-66.1430945,-17.4415835],[-66.14293380000001,-17.441761000000003],[-66.1428343,-17.441874900000002],[-66.1427773,-17.441935800000003],[-66.14269180000001,-17.4420173],[-66.14235690000001,-17.4422815],[-66.14214120000001,-17.442467200000003],[-66.14114040000001,-17.443400200000003],[-66.1408851,-17.4436313],[-66.14084170000001,-17.4436743],[-66.14049220000001,-17.4439415],[-66.140133,-17.4441917],[-66.13969540000001,-17.444458400000002],[-66.1396471,-17.444485],[-66.13920780000001,-17.4447273],[-66.13889400000001,-17.4449004],[-66.1371378,-17.445871500000003],[-66.1362388,-17.4463779],[-66.1353746,-17.4468512],[-66.1352792,-17.4468983],[-66.13521010000001,-17.4469314],[-66.13511070000001,-17.4469952],[-66.13495110000001,-17.4471287],[-66.13487740000001,-17.447187000000003],[-66.1347861,-17.4472565],[-66.1346633,-17.4473263],[-66.1346178,-17.447321300000002],[-66.1345855,-17.447308500000002],[-66.13455920000001,-17.4472865],[-66.1345416,-17.4472576],[-66.1345314,-17.447231000000002],[-66.13452640000001,-17.4471968],[-66.13453080000001,-17.447159600000003],[-66.13447430000001,-17.447100300000002],[-66.13442690000001,-17.4470822],[-66.13430260000001,-17.4470494],[-66.1328426,-17.4466587],[-66.13272040000001,-17.446623600000002],[-66.13277450000001,-17.4470813],[-66.1327706,-17.4471561],[-66.1326842,-17.4473218],[-66.1325769,-17.4474738],[-66.132496,-17.4475602],[-66.132411,-17.447587000000002],[-66.1322756,-17.447607100000003],[-66.13213300000001,-17.4476355],[-66.1319826,-17.447699],[-66.1318325,-17.4478145],[-66.1314842,-17.448152500000003],[-66.13143000000001,-17.448226700000003],[-66.13103890000001,-17.4481217],[-66.13071550000001,-17.448030900000003],[-66.1296138,-17.447727200000003],[-66.12863580000001,-17.4474601],[-66.12813990000001,-17.4473217],[-66.128094,-17.4474205],[-66.1280285,-17.447500400000003],[-66.1279641,-17.4475571],[-66.12786600000001,-17.4476042],[-66.1277848,-17.4476237],[-66.1276978,-17.4476306],[-66.1275926,-17.4476133],[-66.1274832,-17.447567300000003],[-66.1273824,-17.447482500000003],[-66.12731570000001,-17.4473823],[-66.1272861,-17.447300000000002],[-66.12727120000001,-17.4472118],[-66.1272811,-17.4470892],[-66.1267547,-17.4469479],[-66.12620890000001,-17.446791],[-66.1258128,-17.446677100000002],[-66.1252762,-17.446520500000002],[-66.12520830000001,-17.4465107],[-66.12423220000001,-17.4465222],[-66.12323350000001,-17.446520200000002],[-66.12310790000001,-17.4465179],[-66.1229993,-17.446509000000002],[-66.1225692,-17.4465787],[-66.121847,-17.4467335],[-66.12138870000001,-17.4468333],[-66.1208869,-17.446937700000003],[-66.12085900000001,-17.4469436],[-66.1206691,-17.4469838],[-66.1206382,-17.446914600000003],[-66.12062060000001,-17.4468752],[-66.1206073,-17.446845500000002],[-66.1204618,-17.446076100000003],[-66.1204534,-17.4460319],[-66.1204051,-17.4457759],[-66.120253,-17.444915],[-66.1196177,-17.445006600000003],[-66.1195091,-17.4450037],[-66.1193425,-17.444938200000003],[-66.1192695,-17.4449314],[-66.1180317,-17.445079500000002],[-66.1180897,-17.4456306],[-66.11815870000001,-17.4461321],[-66.11816780000001,-17.446291300000002],[-66.1181736,-17.4464042],[-66.118173,-17.446612100000003],[-66.1176832,-17.4470412],[-66.1169023,-17.4476772],[-66.1169112,-17.4479314],[-66.1169406,-17.4485737],[-66.11694630000001,-17.4486978],[-66.1168708,-17.4488488],[-66.1167779,-17.448928600000002],[-66.1162343,-17.448800300000002],[-66.1159166,-17.448725300000003],[-66.1158096,-17.448700000000002],[-66.1155835,-17.4486466],[-66.11421820000001,-17.448315500000003],[-66.11420170000001,-17.4483952],[-66.1142243,-17.448954800000003],[-66.114119,-17.449467400000003],[-66.1140412,-17.449969600000003],[-66.11403340000001,-17.450035600000003]],"nodes":[2318885124,2317801080,3281552459,1577578293,2317801081,2317801082,5045741169,1577578157,2317801084,1577578181,11066402246,1577578251,1577578191,1577578363,1577578255,2317801094,1577578315,1577578225,1577578312,4292498841,2317801101,1577578133,3281552537,1583350237,3979319675,6636240226,6636240227,11071697615,11071697610,1577578129,7242702090,6636260603,9049822119,11795063816,9083374391,9042253645,11486083229,9049566162,11795063806,9049822120,11813334846,11813298421,11795063808,5290354591,9049566116,2368317057,2368317054,2368317059,9049566113,5290354590,2368317060,9049566117,601871727,811023252,9049566126,2368317036,9049566127,811023431,7814223055,811023497,2368317039,9195242570,2368317040,9819008048,2368317042,2317755736,2368317041,8437237663,811023335,3279665081,2147373631,8437237675,2317755752,9819008090,9819008089,2317755760,1576391975,811023287,3541028647,9819008091,811023462,9819008094,9819008093,3279665141,811023528,2317755778,1576391820,1865014689,11081678154,11081678150,11081678146,3541028655,11081678145,1865014780,1865014647,3541028661,6272592199,811023202,3277539823,2869785441,851595265,851595060,3959056457,563279760,3709437878,811023455,8577144343,2869785483,811023401,811023376,3277540304,811023408,811023419,8112654706,811023510,811023522,11069861996,6801359689,6801359688,10765459045,811023519,9878269976,811023357,10252758912,10765459061,811023199,10765459057,10765459055,9970391169,10765280639,9970391171,10765280599,6150035685,811023348,10765459094,811023532,811023507,811023411,12993640047,2673712702,811023241,6150032771,2673712744,811023356,811023161,9996973965,9996973952,9996973955,10974815028,811023237,6195661133,602989793,6195661134,811023435,9996973957,9996993761,4866970781,9003433573,2331302078,2331302081,12663240703,9003433498,2331302079,9003433497,3275133610,9655323868,9655177096,2331302104,7436801323,4261955416,11071382475,7436801327,9003433500,2331302139,2331302155,2331302169,4728105068,1726098719,598151876,9021398260,4728105055,2331302188,9655267009,12509888237,5560268904,12509911134,9731395675,2287827715,598151867,599541188,2287827757,10705908990,2287827775,9731395623,11941128474,2538203114,2287827791,8587411318,2370240939,11997866376,9797631610,689437336,11997826500,2296580487,2296580493,598151865,8423552836,2296580502,12409937736,11079100480,11079057399,11079105205,11079057401,598151864,9309922472,2296580751,2296580762,2296580773,2296580797,2296580808,8356437270,2296580827,2296580841,2296580860,2745674359,8356393909,2296580889,8356393896,8356393898,315120853,1636934221,8362746232,2296580913,8362746230,315121330,2312198087,315121318,315123534,315121319,10859658790,315123540,315121320,315121321,315121322,315121324,315121326,315032954,315122225,2312198310,8498956719,315120406,2312198349,12410976762,2312198364,843382865,2686119186,9141014729,9141014739,8147646008,12361931195,12361931196,2316430803,1718842329,2316430856,10839957166,2900514433,2900514438,8267963999,8365550317,2316430973,315033203,2296981998,10996487166,315032956,8326919828,2296982079,319768764,8326914441,2296982114,10684678844,2294524811,310501185,10277111390,3719465036,310501174,7919097345,3719465037,308306725,2292218212,303218729,698492394,2292218219,10687188399,10687188393,310256406,10687188391,9884051885,10905861520,303217862,8964738169,4933190239,8677785869,315103268,8677779505,2681342488,310281529,7693322181,3719465042,310500546,8241410049,310500793,9905231737,310501002,1727306400,310503081,310503082,310503083,9916058948,310503084,323983784,702511962,6471287467,5313058745,5313058748,5313058750,5313058737,6471478497,5313058754,5313058757,5313058760,5313058763,6471287471,702511646,6635888370,1762871471,5724026826,1762871475,2768899051,702511647,5724026828,8433844592,8433844594,8433844593,702511764,702511758,4911145582,8236165730,702511696,702511658,702511669,2765190593,7902369085,702511598,5610210487,648538874,648538876,648538878,3315366944,648538880,648538882,3315367362,6338367055,648538883,698491821,3315367381,3315367383,648538885,3017385094,3017385091,3315367422,648538886,3017385085,648538888,646061117,702511571,646061119,3675745346,3315367694,646061192,646061196,3017385067,646061199,3315367744,646061203,646061207,3017385080,646061209,3315367875,646061211,646061214,3675745350,646061217,646061453,3675745352,3315367967,10040986819,646061462,646061466,10040977407,2778806417,2778806418,3315367999,10040814091,646061470,3315368009,2778806424,646061474,9189235735,646061482,2778806428,1638830109,3307473548,10038471648,3307473553,2778806436,3307473558,646061488,2778806439,2778806440,646061493,2778806469,646061497,2778806475,10038420084,646061502,2778806477,2778806482,648538234,2778806495,3307473814,2778806499,648536541,10038420076,2778806501,319754134,2778806504,5781854853,10040814054,2778806508,3308828365,9188521971,2778806523,2778806528,10032606930,2778806532,10032606929,319754141,8462994882,2778806542,1637648629,1637648635,1637648656,2778806566,2778806574,6471362209,2778806576,1637648666,10030867293,319754148,2778806589,3577187562,1637668078,2778806596,2778806597,3669248189,2778806608,319754154,3669248190,9188496080,2778806629,6290495137,10028610987,1617344981,319754164,2528680442,319764160,10028610970,10028610973,6185969483,2528680502,2528680551,10030867228,10028610940,6734000394,8462984257,2528680683,8462984278,2528680692,627239865,2528680708,2528680702,8462984306,2528680694,2528680679,10028602190,2528680664,10028602196,10028602191,8462984312,3017409731,2677410816,2677410822,2677410825,2677410831,2677410835,2677410838,3534069323,2677410839,2677410841,2677410844,10502776662,10502776663,2032685156,2677410852,3017409748,2032685090,8301469393,2032685199,2573900995,2573901003,3534069322,2573901012,2573901014,1499573823,3534069328,2573901007,2573900997,2573900987,11071946713,2573900966,2032685167,2573900930,2573900915,2573900913,11079049500,2032685169,2032749239,2032685099,2032685117,2032749210,2032685118,3017320671,2032685146,12540083693,12540083691,2032685160,12540083690,12540083692,2032685116,12540083689,2032685126,2032685105,2032749188,3534179207,8301906166,8301906171,1600599672,1600623754,1600599816,1600623767,3423729631,2677221065,1600641457,1600641422,1600641461,1600641445,10839040260,3423729691,8038591723,1600636789,1600641418,2677221091,1600494845,1600494860,1600628557,9951549005,1600628558,1600628529,1600628579,2677221121]},"gtfs":{"agency_id":8,"route_id":15,"services":[{"service_id":"Mo-Su","startTime":"06:00","endTime":"22:00","trip_id":9118541}],"filteredStops":{"nodes":[2318885124,2317801080,3281552459,1577578293,2317801081,2317801082,5045741169,1577578157,2317801084,1577578181,11066402246,1577578251,1577578191,1577578363,1577578255,2317801094,1577578315,1577578225,1577578312,4292498841,2317801101,1577578133,3281552537,1583350237,3979319675,6636240226,6636240227,11071697615,11071697610,1577578129,7242702090,6636260603,9049822119,11795063816,9083374391,9042253645,11486083229,9049566162,11795063806,9049822120,11813334846,11813298421,11795063808,5290354591,9049566116,2368317057,2368317054,2368317059,9049566113,5290354590,2368317060,9049566117,601871727,811023252,9049566126,2368317036,9049566127,811023431,7814223055,811023497,2368317039,9195242570,2368317040,9819008048,2368317042,2317755736,2368317041,8437237663,811023335,3279665081,2147373631,8437237675,2317755752,9819008090,9819008089,2317755760,1576391975,811023287,3541028647,9819008091,811023462,9819008094,9819008093,3279665141,811023528,2317755778,1576391820,1865014689,11081678154,11081678150,11081678146,3541028655,11081678145,1865014780,1865014647,3541028661,6272592199,811023202,3277539823,2869785441,851595265,851595060,3959056457,563279760,3709437878,811023455,8577144343,2869785483,811023401,811023376,3277540304,811023408,811023419,8112654706,811023510,811023522,11069861996,6801359689,6801359688,10765459045,811023519,9878269976,811023357,10252758912,10765459061,811023199,10765459057,10765459055,9970391169,10765280639,9970391171,10765280599,6150035685,811023348,10765459094,811023532,811023507,811023411,12993640047,2673712702,811023241,6150032771,2673712744,811023356,811023161,9996973965,9996973952,9996973955,10974815028,811023237,6195661133,602989793,6195661134,811023435,9996973957,9996993761,4866970781,9003433573,2331302078,2331302081,12663240703,9003433498,2331302079,9003433497,3275133610,9655323868,9655177096,2331302104,7436801323,4261955416,11071382475,7436801327,9003433500,2331302139,2331302155,2331302169,4728105068,1726098719,598151876,9021398260,4728105055,2331302188,9655267009,12509888237,5560268904,12509911134,9731395675,2287827715,598151867,599541188,2287827757,10705908990,2287827775,9731395623,11941128474,2538203114,2287827791,8587411318,2370240939,11997866376,9797631610,689437336,11997826500,2296580487,2296580493,598151865,8423552836,2296580502,12409937736,11079100480,11079057399,11079105205,11079057401,598151864,9309922472,2296580751,2296580762,2296580773,2296580797,2296580808,8356437270,2296580827,2296580841,2296580860,2745674359,8356393909,2296580889,8356393896,8356393898,315120853,1636934221,8362746232,2296580913,8362746230,315121330,2312198087,315121318,315123534,315121319,10859658790,315123540,315121320,315121321,315121322,315121324,315121326,315032954,315122225,2312198310,8498956719,315120406,2312198349,12410976762,2312198364,843382865,2686119186,9141014729,9141014739,8147646008,12361931195,12361931196,2316430803,1718842329,2316430856,10839957166,2900514433,2900514438,8267963999,8365550317,2316430973,315033203,2296981998,10996487166,315032956,8326919828,2296982079,319768764,8326914441,2296982114,10684678844,2294524811,310501185,10277111390,3719465036,310501174,7919097345,3719465037,308306725,2292218212,303218729,698492394,2292218219,10687188399,10687188393,310256406,10687188391,9884051885,10905861520,303217862,8964738169,4933190239,8677785869,315103268,8677779505,2681342488,310281529,7693322181,3719465042,310500546,8241410049,310500793,9905231737,310501002,1727306400,310503081,310503082,310503083,9916058948,310503084,323983784,702511962,6471287467,5313058745,5313058748,5313058750,5313058737,6471478497,5313058754,5313058757,5313058760,5313058763,6471287471,702511646,6635888370,1762871471,5724026826,1762871475,2768899051,702511647,5724026828,8433844592,8433844594,8433844593,702511764,702511758,4911145582,8236165730,702511696,702511658,702511669,2765190593,7902369085,702511598,5610210487,648538874,648538876,648538878,3315366944,648538880,648538882,3315367362,6338367055,648538883,698491821,3315367381,3315367383,648538885,3017385094,3017385091,3315367422,648538886,3017385085,648538888,646061117,702511571,646061119,3675745346,3315367694,646061192,646061196,3017385067,646061199,3315367744,646061203,646061207,3017385080,646061209,3315367875,646061211,646061214,3675745350,646061217,646061453,3675745352,3315367967,10040986819,646061462,646061466,10040977407,2778806417,2778806418,3315367999,10040814091,646061470,3315368009,2778806424,646061474,9189235735,646061482,2778806428,1638830109,3307473548,10038471648,3307473553,2778806436,3307473558,646061488,2778806439,2778806440,646061493,2778806469,646061497,2778806475,10038420084,646061502,2778806477,2778806482,648538234,2778806495,3307473814,2778806499,648536541,10038420076,2778806501,319754134,2778806504,5781854853,10040814054,2778806508,3308828365,9188521971,2778806523,2778806528,10032606930,2778806532,10032606929,319754141,8462994882,2778806542,1637648629,1637648635,1637648656,2778806566,2778806574,6471362209,2778806576,1637648666,10030867293,319754148,2778806589,3577187562,1637668078,2778806596,2778806597,3669248189,2778806608,319754154,3669248190,9188496080,2778806629,6290495137,10028610987,1617344981,319754164,2528680442,319764160,10028610970,10028610973,6185969483,2528680502,2528680551,10030867228,10028610940,6734000394,8462984257,2528680683,8462984278,2528680692,627239865,2528680708,2528680702,8462984306,2528680694,2528680679,10028602190,2528680664,10028602196,10028602191,8462984312,3017409731,2677410816,2677410822,2677410825,2677410831,2677410835,2677410838,3534069323,2677410839,2677410841,2677410844,10502776662,10502776663,2032685156,2677410852,3017409748,2032685090,8301469393,2032685199,2573900995,2573901003,3534069322,2573901012,2573901014,1499573823,3534069328,2573901007,2573900997,2573900987,11071946713,2573900966,2032685167,2573900930,2573900915,2573900913,11079049500,2032685169,2032749239,2032685099,2032685117,2032749210,2032685118,3017320671,2032685146,12540083693,12540083691,2032685160,12540083690,12540083692,2032685116,12540083689,2032685126,2032685105,2032749188,3534179207,8301906166,8301906171,1600599672,1600623754,1600599816,1600623767,3423729631,2677221065,1600641457,1600641422,1600641461,1600641445,10839040260,3423729691,8038591723,1600636789,1600641418,2677221091,1600494845,1600494860,1600628557,9951549005,1600628558,1600628529,1600628579,2677221121],"coordinates":[[-66.1966002,-17.342542700000003],[-66.19652070000001,-17.3426082],[-66.19636120000001,-17.342701400000003],[-66.1958266,-17.342935500000003],[-66.1956852,-17.3429903],[-66.195266,-17.343158000000003],[-66.19517950000001,-17.343203000000003],[-66.1947739,-17.3433756],[-66.194415,-17.3435063],[-66.1939665,-17.343611900000003],[-66.1939085,-17.343621000000002],[-66.1934059,-17.3438309],[-66.19288710000001,-17.344047500000002],[-66.19244760000001,-17.344222100000003],[-66.1924199,-17.3442323],[-66.19257080000001,-17.3448397],[-66.19271950000001,-17.3454367],[-66.1917901,-17.3458289],[-66.1916765,-17.3458763],[-66.19161700000001,-17.3459074],[-66.19118250000001,-17.3461104],[-66.190713,-17.346301500000003],[-66.1907704,-17.346451300000002],[-66.19110470000001,-17.347353000000002],[-66.1913536,-17.3480278],[-66.1913808,-17.3481011],[-66.1909263,-17.348472800000003],[-66.1908973,-17.3484817],[-66.19069660000001,-17.3485434],[-66.190481,-17.3486097],[-66.1895982,-17.348842100000002],[-66.1887657,-17.349057600000002],[-66.18862,-17.3491047],[-66.18856860000001,-17.349118100000002],[-66.18680690000001,-17.349577],[-66.18504700000001,-17.3500309],[-66.18493570000001,-17.3500787],[-66.18484280000001,-17.3501483],[-66.18480930000001,-17.3501811],[-66.1847843,-17.350205600000002],[-66.18473010000001,-17.3502745],[-66.1847151,-17.350293500000003],[-66.18469200000001,-17.350325100000003],[-66.1846538,-17.350374600000002],[-66.184655,-17.3503943],[-66.1846496,-17.3504322],[-66.18463720000001,-17.3504556],[-66.1846091,-17.350488400000003],[-66.18457140000001,-17.350510800000002],[-66.1845282,-17.350520300000003],[-66.1845006,-17.350519100000003],[-66.1844425,-17.350543100000003],[-66.1843923,-17.3505721],[-66.18419460000001,-17.3507311],[-66.18415080000001,-17.350778400000003],[-66.1841084,-17.350836],[-66.1840815,-17.350895400000002],[-66.18406,-17.350952300000003],[-66.1840456,-17.351042200000002],[-66.18401340000001,-17.351228600000002],[-66.1839853,-17.3512902],[-66.18395240000001,-17.3513446],[-66.18392750000001,-17.351369000000002],[-66.18387910000001,-17.3514109],[-66.18345790000001,-17.351668800000002],[-66.1831279,-17.3518747],[-66.1828969,-17.3520167],[-66.18278020000001,-17.352089900000003],[-66.182686,-17.352162900000003],[-66.18255500000001,-17.352284100000002],[-66.18245010000001,-17.352385400000003],[-66.18226720000001,-17.3525357],[-66.1813669,-17.353276100000002],[-66.1813022,-17.353337200000002],[-66.1812321,-17.353405900000002],[-66.1808762,-17.353821500000002],[-66.18051600000001,-17.354291200000002],[-66.1802813,-17.354606500000003],[-66.1801915,-17.354689800000003],[-66.18010020000001,-17.354758200000003],[-66.17997220000001,-17.3548386],[-66.17979620000001,-17.3549127],[-66.17952980000001,-17.355013000000003],[-66.17929740000001,-17.355123900000002],[-66.17911620000001,-17.355225],[-66.1789153,-17.3553564],[-66.1783911,-17.355716],[-66.1775394,-17.3562894],[-66.1770625,-17.356607500000003],[-66.17671960000001,-17.3568362],[-66.1765811,-17.3569286],[-66.1764761,-17.3569986],[-66.17628810000001,-17.357157500000003],[-66.1761984,-17.357233400000002],[-66.1759926,-17.357411000000003],[-66.1758573,-17.3575105],[-66.17578040000001,-17.3575592],[-66.1756009,-17.3576729],[-66.1754599,-17.357743900000003],[-66.17507330000001,-17.357926900000002],[-66.1748781,-17.3580061],[-66.1732559,-17.3587771],[-66.17230110000001,-17.3592219],[-66.17224300000001,-17.359248],[-66.1720646,-17.3593207],[-66.1719204,-17.359382],[-66.171867,-17.359417500000003],[-66.17182030000001,-17.359462500000003],[-66.17170990000001,-17.3595787],[-66.1715777,-17.3597171],[-66.1712237,-17.360085100000003],[-66.1707703,-17.360560900000003],[-66.1705829,-17.3607799],[-66.17043860000001,-17.3609189],[-66.1701542,-17.3612126],[-66.1690993,-17.362341400000002],[-66.16902560000001,-17.362416200000002],[-66.1689801,-17.3624629],[-66.16890330000001,-17.362530300000003],[-66.1687763,-17.3626298],[-66.1685363,-17.362817800000002],[-66.1684733,-17.3628524],[-66.16838390000001,-17.362894400000002],[-66.16821130000001,-17.3629609],[-66.1678011,-17.363119],[-66.16772350000001,-17.363148900000002],[-66.1676724,-17.3631676],[-66.16700800000001,-17.3634106],[-66.16605240000001,-17.3637601],[-66.1660219,-17.3637713],[-66.1655638,-17.363938800000003],[-66.1651241,-17.364099900000003],[-66.16508830000001,-17.3641134],[-66.1649831,-17.364153],[-66.16454130000001,-17.3643104],[-66.1643935,-17.364363100000002],[-66.16371430000001,-17.3646138],[-66.1627795,-17.3649427],[-66.16246890000001,-17.365018000000003],[-66.16234460000001,-17.365048100000003],[-66.1622432,-17.3650677],[-66.16227310000001,-17.3651437],[-66.16249900000001,-17.3657207],[-66.16254590000001,-17.365827600000003],[-66.1626791,-17.3660405],[-66.1629925,-17.3664452],[-66.16302950000001,-17.366503700000003],[-66.16304980000001,-17.366538600000002],[-66.1630602,-17.3665565],[-66.1630829,-17.3666081],[-66.1630945,-17.3666357],[-66.16311420000001,-17.3666823],[-66.1631263,-17.3667108],[-66.1631455,-17.3667562],[-66.1631825,-17.366849900000002],[-66.16319560000001,-17.366883100000003],[-66.16364490000001,-17.368076000000002],[-66.1636807,-17.3681424],[-66.1637067,-17.368174],[-66.16373750000001,-17.3682079],[-66.16378950000001,-17.368173600000002],[-66.1638415,-17.368158400000002],[-66.1638805,-17.368155400000003],[-66.1639423,-17.368175200000003],[-66.16398480000001,-17.3682015],[-66.1639978,-17.3682157],[-66.16402280000001,-17.3682486],[-66.16404370000001,-17.368284000000003],[-66.164057,-17.3683599],[-66.1640552,-17.368423800000002],[-66.16405280000001,-17.3684526],[-66.16403910000001,-17.3685209],[-66.16401450000001,-17.3685864],[-66.1639797,-17.368647600000003],[-66.1639354,-17.3687028],[-66.16388260000001,-17.3687505],[-66.1638262,-17.368815700000003],[-66.16379690000001,-17.368860700000003],[-66.1637566,-17.368920900000003],[-66.16373390000001,-17.368975000000002],[-66.1635894,-17.3694995],[-66.1633104,-17.3704268],[-66.1632793,-17.3705342],[-66.1629707,-17.371601300000002],[-66.1629631,-17.371627500000002],[-66.1628606,-17.371981700000003],[-66.1627881,-17.372232500000003],[-66.16274150000001,-17.3723846],[-66.16272430000001,-17.372448600000002],[-66.16269750000001,-17.372548400000003],[-66.16267380000001,-17.3726282],[-66.1626655,-17.372657],[-66.16264690000001,-17.372714700000003],[-66.16248470000001,-17.373272200000002],[-66.1623417,-17.373760800000003],[-66.1619469,-17.3751099],[-66.1619132,-17.375219700000002],[-66.1618519,-17.375428900000003],[-66.1618315,-17.3754986],[-66.1615816,-17.376351300000003],[-66.16157550000001,-17.3763721],[-66.1615553,-17.3764448],[-66.1615333,-17.376519400000003],[-66.1613573,-17.377116700000002],[-66.16110040000001,-17.377993200000002],[-66.1610775,-17.3780745],[-66.1610462,-17.3781873],[-66.1610272,-17.3782558],[-66.16095920000001,-17.3784883],[-66.16094240000001,-17.3785457],[-66.16081120000001,-17.378994300000002],[-66.1607831,-17.3790903],[-66.1607443,-17.379223200000002],[-66.16042150000001,-17.380326800000002],[-66.16039520000001,-17.380427100000002],[-66.1603946,-17.380447],[-66.1603903,-17.380538400000002],[-66.16040260000001,-17.3806234],[-66.16042920000001,-17.380705300000002],[-66.16044600000001,-17.380753300000002],[-66.1604502,-17.3808037],[-66.1604418,-17.380853600000002],[-66.16042110000001,-17.3809001],[-66.1603894,-17.380940600000002],[-66.16034830000001,-17.381026300000002],[-66.1603242,-17.3810949],[-66.16030110000001,-17.381163100000002],[-66.1602836,-17.3812089],[-66.16026480000001,-17.381271400000003],[-66.1602553,-17.381306000000002],[-66.16014910000001,-17.381663200000002],[-66.1601392,-17.381699],[-66.16011800000001,-17.3817783],[-66.16010680000001,-17.3818443],[-66.1600997,-17.381917100000003],[-66.1601024,-17.3820084],[-66.16012400000001,-17.3821361],[-66.1601469,-17.382213200000002],[-66.1601468,-17.382292600000003],[-66.16014030000001,-17.382329000000002],[-66.1601337,-17.3823653],[-66.1601052,-17.382432700000003],[-66.16004910000001,-17.3824933],[-66.1599485,-17.3825638],[-66.1598111,-17.382667100000003],[-66.1597435,-17.3827412],[-66.15965130000001,-17.382865300000002],[-66.1596135,-17.382944700000003],[-66.1595022,-17.3830911],[-66.15933860000001,-17.3833062],[-66.1593007,-17.383356000000003],[-66.1591066,-17.383611400000003],[-66.15899590000001,-17.383757000000003],[-66.15888650000001,-17.3839009],[-66.15884720000001,-17.3839526],[-66.15880410000001,-17.3840085],[-66.1587884,-17.3840289],[-66.1586145,-17.3842548],[-66.1584148,-17.384514000000003],[-66.1583937,-17.3845414],[-66.1583738,-17.384566900000003],[-66.1582879,-17.3846768],[-66.1580811,-17.384947200000003],[-66.1579708,-17.385071800000002],[-66.1579598,-17.385085800000002],[-66.15793570000001,-17.385117800000003],[-66.1578614,-17.3852154],[-66.15776070000001,-17.385338800000003],[-66.15750840000001,-17.385662800000002],[-66.1568608,-17.38651],[-66.15678720000001,-17.386607100000003],[-66.15674480000001,-17.3866577],[-66.15646240000001,-17.3870295],[-66.15606650000001,-17.387550800000003],[-66.1560532,-17.3875977],[-66.15605020000001,-17.387648700000003],[-66.1560494,-17.387709700000002],[-66.15629790000001,-17.3877537],[-66.156277,-17.3878777],[-66.15621420000001,-17.388445100000002],[-66.156169,-17.388719100000003],[-66.1561573,-17.388816000000002],[-66.156146,-17.3888821],[-66.15598920000001,-17.3898061],[-66.15597840000001,-17.389865200000003],[-66.1559742,-17.3898905],[-66.15597140000001,-17.389909000000003],[-66.15579980000001,-17.3909053],[-66.155613,-17.391912100000003],[-66.1556012,-17.3919776],[-66.1555632,-17.3920663],[-66.1555496,-17.392136500000003],[-66.1554947,-17.392419],[-66.15538670000001,-17.3929748],[-66.15538000000001,-17.3930094],[-66.1553734,-17.3930447],[-66.15527250000001,-17.393581400000002],[-66.15519330000001,-17.3940026],[-66.15518510000001,-17.394046200000002],[-66.15519040000001,-17.3941103],[-66.1551015,-17.394555200000003],[-66.155099,-17.394568900000003],[-66.155095,-17.394591000000002],[-66.1550466,-17.394856100000002],[-66.15501400000001,-17.3950347],[-66.1550064,-17.395067700000002],[-66.15483710000001,-17.3959195],[-66.1548104,-17.396052700000002],[-66.1547941,-17.3961338],[-66.1546703,-17.396757800000003],[-66.15457980000001,-17.3971915],[-66.15441750000001,-17.3980992],[-66.15438900000001,-17.3982226],[-66.1542283,-17.398992900000003],[-66.1542062,-17.399083700000002],[-66.1540449,-17.3999995],[-66.1539303,-17.400709300000003],[-66.1539197,-17.400836],[-66.1539544,-17.401400300000002],[-66.1540131,-17.4022708],[-66.1545042,-17.402242700000002],[-66.1545112,-17.402303900000003],[-66.15451270000001,-17.4023529],[-66.1545152,-17.402433600000002],[-66.1545172,-17.4025003],[-66.1545198,-17.4025843],[-66.15452230000001,-17.402665000000002],[-66.15452330000001,-17.402697200000002],[-66.1545256,-17.402774500000003],[-66.15452780000001,-17.402846],[-66.1545303,-17.402925600000003],[-66.1545323,-17.402993900000002],[-66.15453310000001,-17.4030948],[-66.1545043,-17.403107900000002],[-66.1544556,-17.403137700000002],[-66.1543942,-17.403180600000002],[-66.15430070000001,-17.403236300000003],[-66.1542278,-17.4032644],[-66.1541696,-17.4032716],[-66.1539556,-17.403280900000002],[-66.15344180000001,-17.403297900000002],[-66.1534103,-17.403313],[-66.15338820000001,-17.403336000000003],[-66.1533655,-17.4033787],[-66.153418,-17.4048024],[-66.15342190000001,-17.4048641],[-66.15343440000001,-17.405281300000002],[-66.1534587,-17.406098],[-66.1534869,-17.407052200000003],[-66.1535018,-17.407546800000002],[-66.1535229,-17.408288600000002],[-66.15357180000001,-17.4098408],[-66.1535831,-17.4102742],[-66.15356720000001,-17.410477500000002],[-66.15357440000001,-17.411177300000002],[-66.15362010000001,-17.413170700000002],[-66.15364050000001,-17.413712],[-66.1536404,-17.4139324],[-66.153631,-17.414165],[-66.1536085,-17.4142805],[-66.1535746,-17.4144176],[-66.15353420000001,-17.4145618],[-66.1534764,-17.4147132],[-66.15339750000001,-17.4149022],[-66.1533333,-17.4150564],[-66.1532442,-17.4152278],[-66.1531408,-17.4153927],[-66.15278620000001,-17.415849100000003],[-66.15262290000001,-17.416055500000002],[-66.1521519,-17.4166518],[-66.1521024,-17.416727400000003],[-66.1520187,-17.416870600000003],[-66.1519866,-17.416922500000002],[-66.1519342,-17.417056600000002],[-66.15192760000001,-17.4171072],[-66.15190600000001,-17.417153900000002],[-66.1518712,-17.4172508],[-66.15185860000001,-17.4172879],[-66.15182920000001,-17.4174036],[-66.15180570000001,-17.4175262],[-66.15180000000001,-17.4176977],[-66.1518083,-17.4179208],[-66.1518491,-17.4181743],[-66.1518959,-17.4183445],[-66.1519944,-17.4185447],[-66.15230770000001,-17.4190842],[-66.1524139,-17.4192688],[-66.15270790000001,-17.4198248],[-66.1528768,-17.4201687],[-66.153126,-17.4207496],[-66.1533093,-17.421245000000003],[-66.1533668,-17.421416800000003],[-66.15337960000001,-17.4214552],[-66.15343990000001,-17.4216339],[-66.1535235,-17.421875800000002],[-66.15360980000001,-17.422226100000003],[-66.1536372,-17.4223372],[-66.15371300000001,-17.422695100000002],[-66.1537519,-17.422916800000003],[-66.1537741,-17.4230437],[-66.1538258,-17.423403200000003],[-66.1538376,-17.4235541],[-66.15384250000001,-17.4236404],[-66.15385900000001,-17.423928500000002],[-66.15387820000001,-17.4242503],[-66.1538768,-17.424667200000002],[-66.1538754,-17.425012000000002],[-66.15387050000001,-17.425088900000002],[-66.1538582,-17.425322400000002],[-66.1538354,-17.4255217],[-66.1537437,-17.4258741],[-66.15352890000001,-17.4266501],[-66.1534788,-17.426799900000002],[-66.15341160000001,-17.4269633],[-66.15329870000001,-17.4272023],[-66.15318740000001,-17.4273926],[-66.15308660000001,-17.4275744],[-66.1529395,-17.4277881],[-66.1527384,-17.4280326],[-66.1524617,-17.4283122],[-66.1516869,-17.4290518],[-66.1515746,-17.4291674],[-66.1514885,-17.429273300000002],[-66.1514322,-17.4293622],[-66.15141290000001,-17.4293926],[-66.15134370000001,-17.4295368],[-66.15122170000001,-17.429854600000002],[-66.15115460000001,-17.4300071],[-66.1511043,-17.4301117],[-66.15099760000001,-17.430303300000002],[-66.15094500000001,-17.430394600000003],[-66.150789,-17.4306762],[-66.15063450000001,-17.430935400000003],[-66.1506004,-17.430992500000002],[-66.1502801,-17.4314649],[-66.150135,-17.4316622],[-66.1500936,-17.4317166],[-66.1498155,-17.432099700000002],[-66.14966410000001,-17.4323082],[-66.1488863,-17.4333528],[-66.14852370000001,-17.4338383],[-66.1482313,-17.434234500000002],[-66.14799190000001,-17.434548000000003],[-66.1475408,-17.4351592],[-66.1472387,-17.4355684],[-66.14675220000001,-17.4362226],[-66.14603770000001,-17.437183400000002],[-66.1458844,-17.4374059],[-66.1458164,-17.4375177],[-66.14568560000001,-17.4377986],[-66.1456591,-17.4378575],[-66.1455681,-17.43802],[-66.145516,-17.438107600000002],[-66.1454212,-17.4382336],[-66.14523430000001,-17.4384832],[-66.14514430000001,-17.438604100000003],[-66.1450507,-17.438747300000003],[-66.1449104,-17.4389937],[-66.14415100000001,-17.4403279],[-66.1439442,-17.4406448],[-66.14372440000001,-17.4409369],[-66.14359080000001,-17.441086000000002],[-66.14330530000001,-17.4413912],[-66.1430945,-17.4415835],[-66.14293380000001,-17.441761000000003],[-66.1428343,-17.441874900000002],[-66.1427773,-17.441935800000003],[-66.14269180000001,-17.4420173],[-66.14235690000001,-17.4422815],[-66.14214120000001,-17.442467200000003],[-66.14114040000001,-17.443400200000003],[-66.1408851,-17.4436313],[-66.14084170000001,-17.4436743],[-66.14049220000001,-17.4439415],[-66.140133,-17.4441917],[-66.13969540000001,-17.444458400000002],[-66.1396471,-17.444485],[-66.13920780000001,-17.4447273],[-66.13889400000001,-17.4449004],[-66.1371378,-17.445871500000003],[-66.1362388,-17.4463779],[-66.1353746,-17.4468512],[-66.1352792,-17.4468983],[-66.13521010000001,-17.4469314],[-66.13511070000001,-17.4469952],[-66.13495110000001,-17.4471287],[-66.13487740000001,-17.447187000000003],[-66.1347861,-17.4472565],[-66.1346633,-17.4473263],[-66.1346178,-17.447321300000002],[-66.1345855,-17.447308500000002],[-66.13455920000001,-17.4472865],[-66.1345416,-17.4472576],[-66.1345314,-17.447231000000002],[-66.13452640000001,-17.4471968],[-66.13453080000001,-17.447159600000003],[-66.13447430000001,-17.447100300000002],[-66.13442690000001,-17.4470822],[-66.13430260000001,-17.4470494],[-66.1328426,-17.4466587],[-66.13272040000001,-17.446623600000002],[-66.13277450000001,-17.4470813],[-66.1327706,-17.4471561],[-66.1326842,-17.4473218],[-66.1325769,-17.4474738],[-66.132496,-17.4475602],[-66.132411,-17.447587000000002],[-66.1322756,-17.447607100000003],[-66.13213300000001,-17.4476355],[-66.1319826,-17.447699],[-66.1318325,-17.4478145],[-66.1314842,-17.448152500000003],[-66.13143000000001,-17.448226700000003],[-66.13103890000001,-17.4481217],[-66.13071550000001,-17.448030900000003],[-66.1296138,-17.447727200000003],[-66.12863580000001,-17.4474601],[-66.12813990000001,-17.4473217],[-66.128094,-17.4474205],[-66.1280285,-17.447500400000003],[-66.1279641,-17.4475571],[-66.12786600000001,-17.4476042],[-66.1277848,-17.4476237],[-66.1276978,-17.4476306],[-66.1275926,-17.4476133],[-66.1274832,-17.447567300000003],[-66.1273824,-17.447482500000003],[-66.12731570000001,-17.4473823],[-66.1272861,-17.447300000000002],[-66.12727120000001,-17.4472118],[-66.1272811,-17.4470892],[-66.1267547,-17.4469479],[-66.12620890000001,-17.446791],[-66.1258128,-17.446677100000002],[-66.1252762,-17.446520500000002],[-66.12520830000001,-17.4465107],[-66.12423220000001,-17.4465222],[-66.12323350000001,-17.446520200000002],[-66.12310790000001,-17.4465179],[-66.1229993,-17.446509000000002],[-66.1225692,-17.4465787],[-66.121847,-17.4467335],[-66.12138870000001,-17.4468333],[-66.1208869,-17.446937700000003],[-66.12085900000001,-17.4469436],[-66.1206691,-17.4469838],[-66.1206382,-17.446914600000003],[-66.12062060000001,-17.4468752],[-66.1206073,-17.446845500000002],[-66.1204618,-17.446076100000003],[-66.1204534,-17.4460319],[-66.1204051,-17.4457759],[-66.120253,-17.444915],[-66.1196177,-17.445006600000003],[-66.1195091,-17.4450037],[-66.1193425,-17.444938200000003],[-66.1192695,-17.4449314],[-66.1180317,-17.445079500000002],[-66.1180897,-17.4456306],[-66.11815870000001,-17.4461321],[-66.11816780000001,-17.446291300000002],[-66.1181736,-17.4464042],[-66.118173,-17.446612100000003],[-66.1176832,-17.4470412],[-66.1169023,-17.4476772],[-66.1169112,-17.4479314],[-66.1169406,-17.4485737],[-66.11694630000001,-17.4486978],[-66.1168708,-17.4488488],[-66.1167779,-17.448928600000002],[-66.1162343,-17.448800300000002],[-66.1159166,-17.448725300000003],[-66.1158096,-17.448700000000002],[-66.1155835,-17.4486466],[-66.11421820000001,-17.448315500000003],[-66.11420170000001,-17.4483952],[-66.1142243,-17.448954800000003],[-66.114119,-17.449467400000003],[-66.1140412,-17.449969600000003],[-66.11403340000001,-17.450035600000003]]}}},{"type":"Feature","properties":{"bus":"yes","departures_board":"no","highway":"bus_stop","name":"Parada MiniBus 16","public_transport":"platform","shelter":"no","id":9139049454},"geometry":{"type":"Point","coordinates":[-66.19658530000001,-17.342616300000003]}},{"type":"Feature","properties":{"bench":"no","bin":"no","bus":"yes","departures_board":"no","highway":"bus_stop","informal":"yes","kerb":"raised","lit":"no","name":"Plaza Luis Felipe Guzmán Achá","public_transport":"platform","shelter":"no","tactile_paving":"no","wheelchair":"no","id":9655323871},"geometry":{"type":"Point","coordinates":[-66.16369490000001,-17.3680154]}},{"type":"Feature","properties":{"bench":"yes","bin":"no","bus":"yes","departures_board":"no","highway":"bus_stop","kerb":"raised","level":"0","lit":"no","name":"América","operator":"Gobierno Autónomo Municipal de Cochabamba","public_transport":"platform","shelter":"yes","tactile_paving":"no","wheelchair":"no","id":4929965584},"geometry":{"type":"Point","coordinates":[-66.16284560000001,-17.372253100000002]}},{"type":"Feature","properties":{"bench":"yes","bin":"no","bus":"yes","departures_board":"no","highway":"bus_stop","level":"0","lit":"no","name":"Teófilo Vargas","public_transport":"platform","shelter":"yes","tactile_paving":"no","id":2370240952},"geometry":{"type":"Point","coordinates":[-66.16205000000001,-17.3749141]}},{"type":"Feature","properties":{"bench":"yes","bin":"no","bus":"yes","departures_board":"no","highway":"bus_stop","kerb":"raised","level":"0","lit":"no","name":"Juan de la Rosa","operator":"Gobierno Autónomo Municipal de Cochabamba","public_transport":"platform","shelter":"yes","tactile_paving":"no","wheelchair":"no","id":8591667681},"geometry":{"type":"Point","coordinates":[-66.1611938,-17.3778538]}},{"type":"Feature","properties":{"bench":"yes","bin":"no","bus":"yes","departures_board":"no","highway":"bus_stop","kerb":"raised","level":"0","lit":"no","name":"Teniente Arévalo","network":"BO:CB:Cochabamba","operator":"Gobierno Autónomo Municipal de Cochabamba","operator:short":"GAMC","operator:type":"government","public_transport":"platform","shelter":"yes","tactile_paving":"no","wheelchair":"no","id":2381924851},"geometry":{"type":"Point","coordinates":[-66.1594211,-17.3832905]}},{"type":"Feature","properties":{"bench":"yes","bin":"no","bus":"yes","departures_board":"no","highway":"bus_stop","level":"0","lit":"no","name":"La Paz","operator":"Gobierno Autónomo Municipal de Cochabamba","operator:short":"GAMC","operator:type":"government","public_transport":"platform","shelter":"yes","tactile_paving":"no","wheelchair":"yes","id":3283363711},"geometry":{"type":"Point","coordinates":[-66.15815330000001,-17.3849291]}},{"type":"Feature","properties":{"bench":"no","bin":"no","bus":"yes","departures_board":"no","highway":"bus_stop","kerb":"raised","level":"0","lit":"no","name":"Plaza Colón","operator":"Gobierno Autónomo Municipal de Cochabamba","operator:short":"GAMC","operator:type":"government","public_transport":"platform","shelter":"yes","tactile_paving":"no","wheelchair":"no","id":3283363712},"geometry":{"type":"Point","coordinates":[-66.15614950000001,-17.3875281]}},{"type":"Feature","properties":{"bench":"no","bin":"no","bus":"yes","departures_board":"no","highway":"bus_stop","level":"0","lit":"no","name":"Plaza Colón","operator":"Gobierno Autónomo Municipal de Cochabamba","operator:type":"government","pole":"yes","public_transport":"platform","shelter":"no","tactile_paving":"yes","wheelchair":"no","id":5117996890},"geometry":{"type":"Point","coordinates":[-66.1562246,-17.388702900000002]}},{"type":"Feature","properties":{"bench":"no","bin":"no","bus":"yes","departures_board":"no","highway":"bus_stop","level":"0","lit":"no","name":"Teatro Adela Zamudio","operator":"Gobierno Autónomo Municipal de Cochabamba","pole":"yes","public_transport":"platform","shelter":"no","tactile_paving":"yes","wheelchair":"no","id":8907971589},"geometry":{"type":"Point","coordinates":[-66.15567730000001,-17.3918733]}},{"type":"Feature","properties":{"bench":"no","bin":"no","bus":"yes","departures_board":"no","highway":"bus_stop","lit":"no","name":"Jordán","public_transport":"platform","shelter":"no","id":6546789740},"geometry":{"type":"Point","coordinates":[-66.1550797,-17.394951600000002]}},{"type":"Feature","properties":{"bench":"yes","bin":"no","bus":"yes","departures_board":"no","highway":"bus_stop","level":"0","lit":"no","name":"Copacabana","public_transport":"platform","shelter":"yes","tactile_paving":"no","wheelchair":"no","id":9191719940},"geometry":{"type":"Point","coordinates":[-66.1539649,-17.4250732]}},{"type":"Feature","properties":{"bench":"yes","bin":"no","bus":"yes","departures_board":"no","highway":"bus_stop","kerb":"raised","level":"0","lit":"no","name":"Ballivián","public_transport":"platform","shelter":"yes","tactile_paving":"no","wheelchair":"no","id":8477746609},"geometry":{"type":"Point","coordinates":[-66.14873750000001,-17.4337014]}},{"type":"Feature","properties":{"bench":"no","bin":"no","bus":"yes","departures_board":"no","highway":"bus_stop","kerb":"raised","level":"0","lit":"no","name":"Montevideo","public_transport":"platform","shelter":"no","tactile_paving":"no","wheelchair":"no","id":6185973485},"geometry":{"type":"Point","coordinates":[-66.13931090000001,-17.444722000000002]}},{"type":"Feature","properties":{"addr:city":"Cochabamba","bench":"no","bin":"no","bus":"yes","departures_board":"no","highway":"bus_stop","kerb":"raised","level":"0","lit":"no","name":"Parada 16","operator":"Sindicato Santa Vera Cruz","public_transport":"platform","shelter":"no","tactile_paving":"no","wheelchair":"no","id":6143236418},"geometry":{"type":"Point","coordinates":[-66.1140652,-17.4500655]}},{"type":"Feature","properties":{"bench":"yes","bin":"no","bus":"yes","departures_board":"no","highway":"bus_stop","level":"0","lit":"no","name":"Obispo Anaya","operator":"Gobierno Autónomo Municipal de Cochabamba","public_transport":"platform","shelter":"yes","tactile_paving":"no","wheelchair":"no","id":2384907360},"geometry":{"type":"Point","coordinates":[-66.1616316,-17.3763349]}},{"type":"Feature","properties":{"bench":"no","bin":"no","bus":"yes","departures_board":"no","highway":"bus_stop","level":"0","lit":"no","name":"Aroma","operator":"Gobierno Autónomo Municipal de Cochabamba","operator:short":"GAMC","operator:type":"government","pole":"yes","public_transport":"platform","shelter":"no","tactile_paving":"no","wheelchair":"no","id":6546789728},"geometry":{"type":"Point","coordinates":[-66.1542976,-17.398892500000002]}}]}