{"type":"FeatureCollection","features":[{"type":"Feature","properties":{"check_date":"29/12/2025","from":"Villa San Miguel","name":"Trufi 104: Villa San Miguel → 1ro de Mayo","on_demand":"yes","operator":"Asociación de taxi trufis 1ro de mayo","public_transport:version":"2","ref":"104","route":"bus","to":"1ro de Mayo","type":"route","wheelchair":"no","id":9219406},"geometry":{"type":"LineString","coordinates":[[-66.1315899,-17.4388463],[-66.13152,-17.4388868],[-66.130748,-17.4390689],[-66.1306605,-17.4390853],[-66.1288275,-17.4395287],[-66.1287441,-17.439019],[-66.1286491,-17.4385177],[-66.1278619,-17.4387237],[-66.1274677,-17.4388195],[-66.1273417,-17.4383269],[-66.1272139,-17.4378319],[-66.1269268,-17.4378947],[-66.1266463,-17.437955],[-66.1267075,-17.4378884],[-66.1267439,-17.4377004],[-66.1268401,-17.4374032],[-66.1269428,-17.4370005],[-66.1270831,-17.4364092],[-66.1271995,-17.435992],[-66.1272899,-17.4356681],[-66.1274509,-17.4350977],[-66.127467,-17.4350409],[-66.1275727,-17.4346686],[-66.1276565,-17.4343882],[-66.1277891,-17.4340267],[-66.1278784,-17.4336727],[-66.1279748,-17.4334387],[-66.1281425,-17.4330582],[-66.1282818,-17.4327542],[-66.1284513,-17.4325175],[-66.1288322,-17.4322003],[-66.1290105,-17.4320303],[-66.1297014,-17.4312929],[-66.1298939,-17.431065],[-66.1300579,-17.4308538],[-66.1301819,-17.4306721],[-66.1302101,-17.4305384],[-66.1302534,-17.4302741],[-66.1302742,-17.430005],[-66.1303169,-17.4297632],[-66.1303877,-17.4294869],[-66.1304336,-17.429362],[-66.1304942,-17.4292694],[-66.1307638,-17.4290084],[-66.1311452,-17.4286831],[-66.1313622,-17.4285453],[-66.1316505,-17.4284037],[-66.1320009,-17.4282462],[-66.1321307,-17.4282016],[-66.1322405,-17.4281403],[-66.1323526,-17.4280795],[-66.1324308,-17.4280254],[-66.1324852,-17.427974],[-66.1326576,-17.4278633],[-66.133089,-17.4275329],[-66.1331876,-17.4274644],[-66.1333899,-17.4273526],[-66.1336186,-17.4272495],[-66.1338243,-17.4271534],[-66.1338633,-17.4271309],[-66.1342013,-17.4269377],[-66.1344239,-17.4268027],[-66.1345708,-17.4266943],[-66.1346936,-17.4265678],[-66.1350371,-17.4261632],[-66.1352861,-17.4258665],[-66.1354029,-17.4257603],[-66.1356831,-17.4255114],[-66.1357907,-17.425418],[-66.1358963,-17.4253262],[-66.1359881,-17.425243],[-66.1361974,-17.4250404],[-66.1363353,-17.4249275],[-66.1365451,-17.4248109],[-66.1366533,-17.424757],[-66.136947,-17.4246488],[-66.1375543,-17.4244088],[-66.1368268,-17.4237522],[-66.137412,-17.4231704],[-66.137597,-17.4229732],[-66.1376449,-17.4229232],[-66.1379223,-17.4226459],[-66.1382564,-17.4223031],[-66.1385262,-17.4220318],[-66.1388371,-17.421722],[-66.1388979,-17.4216719],[-66.139101,-17.4214584],[-66.1391845,-17.4213435],[-66.139244,-17.4212175],[-66.139314,-17.4210075],[-66.1395212,-17.4201002],[-66.13954,-17.4200354],[-66.1395681,-17.4199707],[-66.1395221,-17.4199389],[-66.1394899,-17.4199027],[-66.1394634,-17.4198678],[-66.1394428,-17.4198294],[-66.1394286,-17.4197884],[-66.1394211,-17.4197457],[-66.1394209,-17.4196986],[-66.13943,-17.4196481],[-66.1394407,-17.4196172],[-66.1394624,-17.4195755],[-66.1394879,-17.4195413],[-66.1395725,-17.4193959],[-66.1396331,-17.419311],[-66.1396873,-17.4192305],[-66.1397403,-17.4191353],[-66.1397988,-17.418986],[-66.1398328,-17.4188823],[-66.1401648,-17.4178612],[-66.1404933,-17.4168866],[-66.1405244,-17.4168067],[-66.1405833,-17.4166827],[-66.1407573,-17.4163719],[-66.140948,-17.4160763],[-66.1409708,-17.4160292],[-66.1409715,-17.4159384],[-66.1410963,-17.4158614],[-66.1411571,-17.4158204],[-66.1412094,-17.4157774],[-66.1413184,-17.4156876],[-66.1414637,-17.4155576],[-66.1416211,-17.415388],[-66.1418162,-17.415161],[-66.1419651,-17.4149342],[-66.1421324,-17.4146275],[-66.1422319,-17.4143516],[-66.1423011,-17.4141008],[-66.1423547,-17.4137928],[-66.1423669,-17.4136852],[-66.1423832,-17.4133356],[-66.142442,-17.4122956],[-66.1424875,-17.4107922],[-66.1425014,-17.4105589],[-66.1425131,-17.4104209],[-66.1425216,-17.4103269],[-66.1425556,-17.4100923],[-66.1426088,-17.409822],[-66.1426969,-17.4095338],[-66.1428038,-17.4092482],[-66.1429534,-17.4089245],[-66.1431329,-17.4086148],[-66.1432744,-17.4084112],[-66.1436255,-17.4079408],[-66.1441016,-17.4073278],[-66.1446442,-17.4066392],[-66.1447121,-17.4065501],[-66.1448528,-17.4063549],[-66.1448715,-17.406329],[-66.1449015,-17.4062875],[-66.1449631,-17.4061868],[-66.1450108,-17.406109],[-66.145293,-17.4055715],[-66.1454218,-17.4053073],[-66.1454853,-17.40517],[-66.1455747,-17.4050327],[-66.1456525,-17.4048461],[-66.1457908,-17.4045641],[-66.1459115,-17.4043358],[-66.1460246,-17.4041685],[-66.1462636,-17.4038595],[-66.1465481,-17.4035184],[-66.1467408,-17.4032918],[-66.1468116,-17.4031752],[-66.1468785,-17.4030697],[-66.1469238,-17.4029986],[-66.1469869,-17.4028497],[-66.147037,-17.4027185],[-66.1470624,-17.4026519],[-66.1470936,-17.4025344],[-66.147125,-17.4023666],[-66.1471298,-17.4021304],[-66.147153,-17.4020486],[-66.1471718,-17.402008],[-66.1471961,-17.4019791],[-66.1472339,-17.4019505],[-66.1472995,-17.4019107],[-66.1473653,-17.4018908],[-66.1474157,-17.4019018],[-66.1475057,-17.4018777],[-66.1475641,-17.401858],[-66.1476333,-17.4018178],[-66.1476868,-17.4017639],[-66.1477981,-17.4016071],[-66.1478917,-17.401321],[-66.1479899,-17.4009625],[-66.1480034,-17.4008948],[-66.1480179,-17.4008307],[-66.1481961,-17.3999523],[-66.1482116,-17.3998729],[-66.148298,-17.3998478],[-66.1488313,-17.3998543],[-66.149334,-17.3998605],[-66.1498494,-17.3998668],[-66.1500222,-17.3998728],[-66.1501395,-17.3998796],[-66.1502575,-17.399903],[-66.1503592,-17.3999303],[-66.1504801,-17.3999711],[-66.1506108,-17.4000341],[-66.1507434,-17.4001219],[-66.1508693,-17.4002252],[-66.1508973,-17.4001366],[-66.1509151,-17.399965],[-66.1509855,-17.3992846],[-66.1510846,-17.3985396],[-66.1510902,-17.3984566],[-66.1511563,-17.3977747],[-66.1513099,-17.3966148],[-66.1515053,-17.3955426],[-66.1504423,-17.3953552],[-66.1496268,-17.3952107],[-66.1492527,-17.3951444],[-66.149211,-17.395137],[-66.149167,-17.3951292],[-66.1491127,-17.3951204],[-66.1483782,-17.3949964],[-66.1483382,-17.3949953],[-66.148303,-17.3950023],[-66.148272,-17.3950227],[-66.1482545,-17.3950599],[-66.1481427,-17.3956348],[-66.1480458,-17.3961789],[-66.1480385,-17.3962201],[-66.1480292,-17.3962721],[-66.1480855,-17.3962824],[-66.1482177,-17.3963066],[-66.1484781,-17.3963492],[-66.1485272,-17.3963716],[-66.1485507,-17.3964011],[-66.1488172,-17.3964487],[-66.1488961,-17.3964633],[-66.1489511,-17.3961794],[-66.1489979,-17.3961863],[-66.1502362,-17.3964175],[-66.1513099,-17.3966148],[-66.1518964,-17.396722],[-66.1524397,-17.396804],[-66.1535317,-17.397006],[-66.1545798,-17.3971915],[-66.1544175,-17.3980992],[-66.154389,-17.3982226],[-66.1542283,-17.3989929],[-66.1542062,-17.3990837],[-66.1540449,-17.3999995],[-66.1539303,-17.4007093],[-66.1552182,-17.4006491],[-66.1552708,-17.4006495],[-66.1561989,-17.4007931],[-66.1567358,-17.4008781],[-66.1573928,-17.4009738],[-66.1574786,-17.4009863],[-66.1575885,-17.4010023],[-66.1575752,-17.4011537],[-66.157522,-17.4015753],[-66.1574818,-17.4020121],[-66.1574693,-17.4021498],[-66.1574602,-17.4022501],[-66.1574143,-17.4026402],[-66.1573804,-17.4029274],[-66.1573057,-17.4034308],[-66.1571981,-17.4039846],[-66.1571744,-17.4040293],[-66.1571494,-17.4040811],[-66.1569751,-17.4051438],[-66.156929,-17.4053964],[-66.1567149,-17.4065683],[-66.1566752,-17.4068311],[-66.1566081,-17.4073735],[-66.1565791,-17.4075962],[-66.1565643,-17.407672],[-66.1565522,-17.4077489],[-66.1563919,-17.408892],[-66.1562995,-17.4093093],[-66.1562526,-17.409537],[-66.1561494,-17.4101159],[-66.1561031,-17.4104088],[-66.1560788,-17.4106525],[-66.1560387,-17.4110086],[-66.1563064,-17.4118389],[-66.1563676,-17.4120812],[-66.1563982,-17.412262],[-66.1564103,-17.4124229],[-66.1565158,-17.4130482],[-66.1565199,-17.4130722],[-66.1566585,-17.4138321],[-66.156664,-17.4138639],[-66.1567889,-17.4145922],[-66.1568293,-17.4147082],[-66.1569922,-17.4155388],[-66.1570091,-17.4156269],[-66.1570227,-17.4157096],[-66.157197,-17.4165706],[-66.157207,-17.4166281],[-66.1572232,-17.4167107],[-66.1573721,-17.4176234],[-66.1575465,-17.4187052],[-66.1576093,-17.4191214],[-66.157644,-17.4193561],[-66.1576803,-17.419601],[-66.1576838,-17.4196249],[-66.1576939,-17.4196932],[-66.1577032,-17.4197518],[-66.1577297,-17.4199188],[-66.1577703,-17.4201746],[-66.1577789,-17.4202297],[-66.157817,-17.4204683],[-66.1578206,-17.420491],[-66.1578264,-17.420528],[-66.1578847,-17.4209201],[-66.1579216,-17.4211652],[-66.1580254,-17.4217709],[-66.1580356,-17.4218393],[-66.1581657,-17.4226696],[-66.158183,-17.4227871],[-66.1582975,-17.4235739],[-66.1584775,-17.4245309],[-66.1587278,-17.4257287],[-66.1587448,-17.4257964],[-66.1590776,-17.4269849],[-66.1592252,-17.4275176],[-66.1593308,-17.4278755],[-66.15947,-17.4283455],[-66.1597484,-17.4293485],[-66.1597724,-17.4294201],[-66.1602312,-17.4309823],[-66.1602842,-17.4311843],[-66.1606818,-17.4325749],[-66.160935,-17.4334016],[-66.1611978,-17.434336],[-66.1613043,-17.434691],[-66.1614638,-17.4352578],[-66.1616469,-17.4359086],[-66.1621276,-17.4375533],[-66.1623772,-17.4385378],[-66.1624967,-17.4391593],[-66.162509,-17.439231],[-66.162514,-17.4392564],[-66.1625256,-17.4393328],[-66.1625589,-17.4395329],[-66.1625914,-17.4397426],[-66.162632,-17.4399582],[-66.1626572,-17.4400867],[-66.1628069,-17.4407881],[-66.162857,-17.4409845],[-66.1629144,-17.4411417],[-66.1634197,-17.4423163],[-66.1635294,-17.4425912],[-66.1636148,-17.4428661],[-66.1636835,-17.4431637],[-66.163743,-17.4434762],[-66.1638516,-17.4438302],[-66.1639603,-17.444157],[-66.1641999,-17.444916],[-66.1645422,-17.4459931],[-66.1645853,-17.4461312],[-66.1648063,-17.4468542],[-66.1649778,-17.4473238],[-66.1650357,-17.4474823],[-66.1650505,-17.4475473],[-66.1650712,-17.4476383],[-66.165116,-17.4479766],[-66.1652598,-17.4487022],[-66.1654498,-17.4494395],[-66.1656711,-17.450206],[-66.1658648,-17.450846],[-66.1660904,-17.4516332],[-66.1662155,-17.4519526],[-66.1662513,-17.4520492],[-66.1663435,-17.4523482],[-66.1665531,-17.4531358],[-66.1666086,-17.4533503],[-66.1667201,-17.4537351],[-66.1670523,-17.4547264],[-66.1670847,-17.4548232],[-66.1670923,-17.4548546],[-66.1671292,-17.45485],[-66.1671572,-17.454846],[-66.1678632,-17.4547449],[-66.1683378,-17.4546775],[-66.1699684,-17.454464],[-66.1702503,-17.454427],[-66.17075,-17.4543646],[-66.1714045,-17.4543276],[-66.1720118,-17.4543502],[-66.1725966,-17.4543888],[-66.17294,-17.4544114],[-66.1740098,-17.4544169],[-66.1742475,-17.4544217],[-66.1743831,-17.454464],[-66.1744759,-17.4545095],[-66.1746641,-17.4545808],[-66.1747377,-17.4546285],[-66.1749604,-17.4547407],[-66.1753206,-17.4548454],[-66.1757877,-17.4548516],[-66.1759773,-17.4548459],[-66.1760418,-17.4548575],[-66.1760976,-17.4548769],[-66.1761244,-17.4549066],[-66.1761402,-17.454942],[-66.1761452,-17.4550113],[-66.1761323,-17.4550727],[-66.1761098,-17.4551355],[-66.1760514,-17.4552526],[-66.1760377,-17.4552983],[-66.1760462,-17.455352],[-66.1760892,-17.4554056],[-66.1761607,-17.4554614],[-66.1762779,-17.4555408],[-66.176471,-17.4556713],[-66.1766079,-17.4557543],[-66.1768124,-17.4558568],[-66.1770292,-17.4559509],[-66.1772338,-17.45604],[-66.1774072,-17.4561297],[-66.1775566,-17.4562202],[-66.1778661,-17.4564501],[-66.1779979,-17.456531],[-66.1781506,-17.4566123],[-66.1783143,-17.456692],[-66.1784575,-17.4567542],[-66.1785708,-17.4567963],[-66.1786907,-17.4568265],[-66.17877,-17.4568465],[-66.1789413,-17.4568665],[-66.1791238,-17.4568801],[-66.1793276,-17.4569149],[-66.1794567,-17.4569392],[-66.1801578,-17.4570779],[-66.1805639,-17.4571729],[-66.18083,-17.4572227],[-66.1812678,-17.4573621],[-66.1814328,-17.4574071],[-66.1815309,-17.457424],[-66.1816729,-17.4574413],[-66.1821362,-17.45747],[-66.1822567,-17.4574848],[-66.182339,-17.4575105],[-66.1824329,-17.4575492],[-66.1826616,-17.4576655],[-66.1827032,-17.4576866],[-66.1830621,-17.4578591],[-66.1832418,-17.4579227],[-66.1838911,-17.4582021],[-66.1845372,-17.4584454],[-66.184939,-17.458592],[-66.185098,-17.4586236],[-66.1851986,-17.4586552],[-66.1852612,-17.458709],[-66.1853097,-17.4587415],[-66.185358,-17.4587604],[-66.1854381,-17.4587536],[-66.1855141,-17.4587185],[-66.1856078,-17.4586663],[-66.1859335,-17.4585053],[-66.1861953,-17.4583635],[-66.186738,-17.4580479],[-66.1872557,-17.4577659],[-66.1879639,-17.4574166],[-66.1883385,-17.45724],[-66.1887051,-17.4570856],[-66.1892465,-17.4568683],[-66.1894322,-17.4567835],[-66.1895729,-17.4566996],[-66.1902878,-17.4561322],[-66.1903903,-17.4560731],[-66.1911283,-17.4558153],[-66.1914252,-17.4557116],[-66.1923273,-17.4554113],[-66.1926092,-17.4553324],[-66.1930499,-17.4552459],[-66.1937225,-17.4550497],[-66.19427,-17.4548989],[-66.1959435,-17.4543814],[-66.1965484,-17.4542149],[-66.1967386,-17.454172],[-66.1969746,-17.4541412],[-66.1975705,-17.4541318],[-66.1977133,-17.4541239],[-66.1978494,-17.4540907],[-66.1979462,-17.454031],[-66.1979914,-17.4539892],[-66.1980678,-17.4539185],[-66.1981513,-17.4538619],[-66.198272,-17.4538147],[-66.1987331,-17.4536756],[-66.1991393,-17.4535745],[-66.2004268,-17.4532445],[-66.2008843,-17.4531399],[-66.2015029,-17.4529983],[-66.2016587,-17.4539514],[-66.2017221,-17.4542089],[-66.2017926,-17.4544742],[-66.2019237,-17.4549677],[-66.20212,-17.4561497],[-66.202166,-17.4564268],[-66.2022758,-17.4569797],[-66.2024305,-17.4575432],[-66.2024924,-17.4578427],[-66.2024845,-17.4580289],[-66.2024577,-17.4582007],[-66.2023893,-17.4583676],[-66.2022715,-17.4586847],[-66.2021802,-17.4589391],[-66.2021049,-17.4592137],[-66.2020634,-17.4594823],[-66.2020353,-17.4597369],[-66.2020183,-17.4601491],[-66.2020171,-17.4603504],[-66.2020011,-17.4605451],[-66.2019645,-17.460743],[-66.2018484,-17.4613889],[-66.2016943,-17.462534],[-66.201677,-17.4626788],[-66.2016143,-17.4632109],[-66.2015184,-17.4639296],[-66.201484,-17.4640827],[-66.2015436,-17.4641831],[-66.2016294,-17.4642621],[-66.2017383,-17.4643344],[-66.2019563,-17.464505],[-66.2020945,-17.4646543],[-66.2021427,-17.4647189],[-66.2024376,-17.4651918],[-66.2026058,-17.4654418],[-66.2027005,-17.4656007],[-66.2032502,-17.4657652],[-66.2035661,-17.465854],[-66.2037519,-17.465911],[-66.2039458,-17.4659522],[-66.2042109,-17.4659868],[-66.2042391,-17.4660011],[-66.2042539,-17.4660272],[-66.2042125,-17.4664617],[-66.2041772,-17.4669887],[-66.2043786,-17.4671219],[-66.2044993,-17.4671973],[-66.2046278,-17.4672197],[-66.2048475,-17.467237],[-66.2051741,-17.4672866],[-66.2055378,-17.4673534],[-66.2059832,-17.4674083],[-66.2064328,-17.467456],[-66.2070703,-17.467495],[-66.2071309,-17.467538],[-66.2071198,-17.4680772],[-66.2070815,-17.46828],[-66.2068731,-17.4681815],[-66.2068619,-17.4682351],[-66.2069449,-17.4682663],[-66.2070861,-17.4683418],[-66.2072424,-17.4684135],[-66.2075059,-17.4685339],[-66.2076211,-17.4686094],[-66.2077273,-17.4686744],[-66.2078543,-17.4687312],[-66.2079848,-17.46879],[-66.2079794,-17.4688505],[-66.2079665,-17.4694812],[-66.2086174,-17.4693447],[-66.2087998,-17.4697127],[-66.2089203,-17.4699732],[-66.2091815,-17.4705856]],"nodes":[2677410613,3547899837,3547899842,2677410617,2677410621,2677410615,2677410602,2677410607,2677410611,2677410600,2677410593,3547899819,2677410595,3547899817,3566245822,3017334290,1637667952,1637667940,8484224992,2043658720,2043659104,8484224996,2043659149,2043659156,2043659118,3564406977,3017359187,2043659021,3564406957,2043658983,3017359555,2043658884,2043658914,3564406928,2043658634,2043658904,2043658686,2043659138,3566245613,2043658662,2043658814,3564556608,2043659179,2043659081,3017359155,2043659161,3017359154,2043658698,3564556599,3564555387,3566245503,3564555382,2043659087,3564555361,2043658735,3564555346,3564555340,2043658666,2043659059,3564555335,3566245276,2043658991,3564555327,2043658772,3017334262,3017334263,2043659003,2043659137,3339995082,2043658912,3017334257,2043658866,2043659044,2043658747,3017334255,2043659154,5557341110,3017315902,2266514675,3017315887,3017315899,3017315897,3017328358,3017334253,3017315886,3017334252,3017315885,3017315884,3337319138,3017315883,10258381347,10258381348,2674329381,10258381349,3337319110,2674329361,3337319104,2674329343,3337319103,9378197655,9378197656,9378197657,2674329297,8729961977,13203351492,8729962051,1600457620,3337267629,3337267628,2674329264,2674329124,1600457617,8729961915,1600457538,2674328974,2674328932,11106108070,8729961891,8729961976,12777576106,12777576103,8741049845,653082758,11106108067,653082755,653082752,3328854766,653082749,653082747,3337266445,3328854762,9052272501,9052272502,9052272505,9052275602,9052272544,9052272475,9052275597,9052272471,9052272470,9052272469,9052272468,9052272467,9052272466,9052272465,9052272463,9052272462,2031079586,12777576110,12508280792,9052272487,12508280784,5434000150,12777576107,2031079518,2031079513,12777576108,2031079515,5227462564,3325466473,2674328752,843385352,324015376,8192377531,12777576115,8192368910,324015373,324015371,8192377560,324015370,598789673,324015368,5227527455,324015367,2031079468,8192368877,2031079460,2031079448,10830662561,8192368884,10677741931,2031079440,2031079436,2031079434,4941281629,8192368866,8542732655,308297682,8192368864,8542732656,308297683,11072042765,12313136886,12313136883,323985741,8089836059,3322574432,8089836057,2236815474,323985099,3322574439,323985098,3322574447,2768898988,8089836061,311358095,648548806,1727306395,310501007,310500994,310500614,310500687,9934878052,13410939033,8004756947,303217532,5018719457,2528680342,8398265905,2528680346,8398265906,315098609,315098623,8646654427,8276822020,315098598,8276822019,8515841692,9891060768,13410939019,315099571,5018719444,315098242,303217531,8004756945,310500993,310500994,9121601604,310500796,308300469,310500793,9905231737,310501002,1727306400,310503081,310503082,310503083,310503058,12206377735,310502882,323978402,4929965587,310262504,648543481,8637329085,2577975115,2577975131,9090462298,648542366,9652874528,702511644,2577975282,2577975307,9090462294,648542369,648542365,9131177339,323972806,2763553535,702511613,2763553554,2763553563,8226219195,319762950,1637437071,9131083914,2763553594,9131083870,319762952,319762953,648534611,560101168,3709606816,3709606819,11727597290,497187494,3709607014,11727597288,3709607018,1497947893,5433999187,497187505,5433999186,5433895294,740519915,5433895292,1497947915,1497947892,740519920,13067849843,13067849853,13067849851,4679599413,12589580114,13383715977,740519921,7768396127,12519463522,7768396129,13383715982,740519924,7768396074,740519927,12519463515,1866314088,8290039272,3306658847,2022073889,1638831970,3307354192,2149915992,740519935,3306545241,3017389923,1637693348,740519939,3306545385,2149916023,2149916029,2149915995,740519942,8263291564,11104322422,5093673535,3017399341,3017390029,13157367722,13157367746,5093673553,13149511516,12456224843,3311611275,3311611281,3677945705,3311611299,10566746270,1496873837,1626959170,12647051488,8262483497,1807317102,8262483496,12647051487,8256587110,1496874003,11069724704,8256587111,11058061007,3647863721,1496873915,13456965440,3677947756,11496491518,8261043752,8261043751,8261043750,3679282420,8261043747,8261043746,8261043745,8261043743,8261043742,8256587038,8256587039,13456965416,8267521656,8261043630,8267521655,13456965420,8261043622,1617351918,1629103255,1626983271,1617352043,1617352244,1617352149,8261043631,1617351894,3687333448,1617352001,1629118065,5688576724,5688576723,1617352000,1617351995,3687316831,1617352039,1617351939,3687316832,3687316833,3687316834,3687316835,3687316838,1617352209,3687316842,3687316843,3687316845,3687316847,3687316848,1617351926,1617351908,1617351933,3687316852,1617352058,1617351927,3687316859,3687316863,3687316866,1617351975,3687316871,3687316872,3687316874,3687316878,1617352037,3687333473,1617351934,3687316880,3687316881,3687316882,1617351922,8261043673,1617351916,3687316889,1617352156,3687316893,1617351968,1617352010,1617351938,3687316894,3687316895,1617352040,12619148483,3687316900,1617351932,3687333497,1617352045,1617352263,1617352133,1626959942,1617351879,1617351949,3687316984,3687316986,1617351868,1617351904,1617351872,5032979748,1626982862,3687316938,3687316902,1617619490,3687316890,3687316886,1617619475,3687316879,3687316875,1617619734,1626982546,8618890391,3687316850,1617619661,3687316846,1617619683,3687316840,3687316828,1617619688,1617619438,3687316807,1617619536,3687316806,3687316805,3687316804,1617619722,6988433061,1617619513,1617619608,1617619514,3687316792,3687316785,3687316771,3687316768,1617619601,3687316802,3687316809,11230480165,3687316830,13484511444,1617619679,3687316884,3690561252,1617619528,3687316936,3687316960,3687316966,3687316977,3687317007,3687317020,3687317125,1617619542,3687317134,3687317140,3687317148,1617619501,3687317156,1617351976,3723750836,3723750845,3723750862,1617619591,3723960908,3723960910,1625954211,3723960914,3723960917,1625953071,1625954958,1626447248,1626447242,1626447264,1626447251,1626447257,1626447243,3723960992,3723960994,1626447247,1626447263,1626447238,3723961071,1625954415,1626229779,1625954158,1625954565,1625954467,1625954672,1625953702,8777692567,1625953223,3724879767,3724879787,3724879781,1626447259,3724879784,3724879792,3724879796,3724879802,3724879812,3724879816,3724879822,1625954700,3724879831,1625953432,1625953157,3726252829,1625954240,1625953828]},"gtfs":{"agency_id":2,"route_id":26,"services":[{"service_id":"Mo-Su","startTime":"06:00","endTime":"22:00","trip_id":9219406}],"filteredStops":{"nodes":[2677410613,3547899837,3547899842,2677410617,2677410621,2677410615,2677410602,2677410607,2677410611,2677410600,2677410593,3547899819,2677410595,3547899817,3566245822,3017334290,1637667952,1637667940,8484224992,2043658720,2043659104,8484224996,2043659149,2043659156,2043659118,3564406977,3017359187,2043659021,3564406957,2043658983,3017359555,2043658884,2043658914,3564406928,2043658634,2043658904,2043658686,2043659138,3566245613,2043658662,2043658814,3564556608,2043659179,2043659081,3017359155,2043659161,3017359154,2043658698,3564556599,3564555387,3566245503,3564555382,2043659087,3564555361,2043658735,3564555346,3564555340,2043658666,2043659059,3564555335,3566245276,2043658991,3564555327,2043658772,3017334262,3017334263,2043659003,2043659137,3339995082,2043658912,3017334257,2043658866,2043659044,2043658747,3017334255,2043659154,5557341110,3017315902,2266514675,3017315887,3017315899,3017315897,3017328358,3017334253,3017315886,3017334252,3017315885,3017315884,3337319138,3017315883,10258381347,10258381348,2674329381,10258381349,3337319110,2674329361,3337319104,2674329343,3337319103,9378197655,9378197656,9378197657,2674329297,8729961977,13203351492,8729962051,1600457620,3337267629,3337267628,2674329264,2674329124,1600457617,8729961915,1600457538,2674328974,2674328932,11106108070,8729961891,8729961976,12777576106,12777576103,8741049845,653082758,11106108067,653082755,653082752,3328854766,653082749,653082747,3337266445,3328854762,9052272501,9052272502,9052272505,9052275602,9052272544,9052272475,9052275597,9052272471,9052272470,9052272469,9052272468,9052272467,9052272466,9052272465,9052272463,9052272462,2031079586,12777576110,12508280792,9052272487,12508280784,5434000150,12777576107,2031079518,2031079513,12777576108,2031079515,5227462564,3325466473,2674328752,843385352,324015376,8192377531,12777576115,8192368910,324015373,324015371,8192377560,324015370,598789673,324015368,5227527455,324015367,2031079468,8192368877,2031079460,2031079448,10830662561,8192368884,10677741931,2031079440,2031079436,2031079434,4941281629,8192368866,8542732655,308297682,8192368864,8542732656,308297683,11072042765,12313136886,12313136883,323985741,8089836059,3322574432,8089836057,2236815474,323985099,3322574439,323985098,3322574447,2768898988,8089836061,311358095,648548806,1727306395,310501007,310500994,310500614,310500687,9934878052,13410939033,8004756947,303217532,5018719457,2528680342,8398265905,2528680346,8398265906,315098609,315098623,8646654427,8276822020,315098598,8276822019,8515841692,9891060768,13410939019,315099571,5018719444,315098242,303217531,8004756945,310500993,310500994,9121601604,310500796,308300469,310500793,9905231737,310501002,1727306400,310503081,310503082,310503083,310503058,12206377735,310502882,323978402,4929965587,310262504,648543481,8637329085,2577975115,2577975131,9090462298,648542366,9652874528,702511644,2577975282,2577975307,9090462294,648542369,648542365,9131177339,323972806,2763553535,702511613,2763553554,2763553563,8226219195,319762950,1637437071,9131083914,2763553594,9131083870,319762952,319762953,648534611,560101168,3709606816,3709606819,11727597290,497187494,3709607014,11727597288,3709607018,1497947893,5433999187,497187505,5433999186,5433895294,740519915,5433895292,1497947915,1497947892,740519920,13067849843,13067849853,13067849851,4679599413,12589580114,13383715977,740519921,7768396127,12519463522,7768396129,13383715982,740519924,7768396074,740519927,12519463515,1866314088,8290039272,3306658847,2022073889,1638831970,3307354192,2149915992,740519935,3306545241,3017389923,1637693348,740519939,3306545385,2149916023,2149916029,2149915995,740519942,8263291564,11104322422,5093673535,3017399341,3017390029,13157367722,13157367746,5093673553,13149511516,12456224843,3311611275,3311611281,3677945705,3311611299,10566746270,1496873837,1626959170,12647051488,8262483497,1807317102,8262483496,12647051487,8256587110,1496874003,11069724704,8256587111,11058061007,3647863721,1496873915,13456965440,3677947756,11496491518,8261043752,8261043751,8261043750,3679282420,8261043747,8261043746,8261043745,8261043743,8261043742,8256587038,8256587039,13456965416,8267521656,8261043630,8267521655,13456965420,8261043622,1617351918,1629103255,1626983271,1617352043,1617352244,1617352149,8261043631,1617351894,3687333448,1617352001,1629118065,5688576724,5688576723,1617352000,1617351995,3687316831,1617352039,1617351939,3687316832,3687316833,3687316834,3687316835,3687316838,1617352209,3687316842,3687316843,3687316845,3687316847,3687316848,1617351926,1617351908,1617351933,3687316852,1617352058,1617351927,3687316859,3687316863,3687316866,1617351975,3687316871,3687316872,3687316874,3687316878,1617352037,3687333473,1617351934,3687316880,3687316881,3687316882,1617351922,8261043673,1617351916,3687316889,1617352156,3687316893,1617351968,1617352010,1617351938,3687316894,3687316895,1617352040,12619148483,3687316900,1617351932,3687333497,1617352045,1617352263,1617352133,1626959942,1617351879,1617351949,3687316984,3687316986,1617351868,1617351904,1617351872,5032979748,1626982862,3687316938,3687316902,1617619490,3687316890,3687316886,1617619475,3687316879,3687316875,1617619734,1626982546,8618890391,3687316850,1617619661,3687316846,1617619683,3687316840,3687316828,1617619688,1617619438,3687316807,1617619536,3687316806,3687316805,3687316804,1617619722,6988433061,1617619513,1617619608,1617619514,3687316792,3687316785,3687316771,3687316768,1617619601,3687316802,3687316809,11230480165,3687316830,13484511444,1617619679,3687316884,3690561252,1617619528,3687316936,3687316960,3687316966,3687316977,3687317007,3687317020,3687317125,1617619542,3687317134,3687317140,3687317148,1617619501,3687317156,1617351976,3723750836,3723750845,3723750862,1617619591,3723960908,3723960910,1625954211,3723960914,3723960917,1625953071,1625954958,1626447248,1626447242,1626447264,1626447251,1626447257,1626447243,3723960992,3723960994,1626447247,1626447263,1626447238,3723961071,1625954415,1626229779,1625954158,1625954565,1625954467,1625954672,1625953702,8777692567,1625953223,3724879767,3724879787,3724879781,1626447259,3724879784,3724879792,3724879796,3724879802,3724879812,3724879816,3724879822,1625954700,3724879831,1625953432,1625953157,3726252829,1625954240,1625953828],"coordinates":[[-66.1315899,-17.4388463],[-66.13152,-17.4388868],[-66.130748,-17.4390689],[-66.1306605,-17.4390853],[-66.1288275,-17.4395287],[-66.1287441,-17.439019],[-66.1286491,-17.4385177],[-66.1278619,-17.4387237],[-66.1274677,-17.4388195],[-66.1273417,-17.4383269],[-66.1272139,-17.4378319],[-66.1269268,-17.4378947],[-66.1266463,-17.437955],[-66.1267075,-17.4378884],[-66.1267439,-17.4377004],[-66.1268401,-17.4374032],[-66.1269428,-17.4370005],[-66.1270831,-17.4364092],[-66.1271995,-17.435992],[-66.1272899,-17.4356681],[-66.1274509,-17.4350977],[-66.127467,-17.4350409],[-66.1275727,-17.4346686],[-66.1276565,-17.4343882],[-66.1277891,-17.4340267],[-66.1278784,-17.4336727],[-66.1279748,-17.4334387],[-66.1281425,-17.4330582],[-66.1282818,-17.4327542],[-66.1284513,-17.4325175],[-66.1288322,-17.4322003],[-66.1290105,-17.4320303],[-66.1297014,-17.4312929],[-66.1298939,-17.431065],[-66.1300579,-17.4308538],[-66.1301819,-17.4306721],[-66.1302101,-17.4305384],[-66.1302534,-17.4302741],[-66.1302742,-17.430005],[-66.1303169,-17.4297632],[-66.1303877,-17.4294869],[-66.1304336,-17.429362],[-66.1304942,-17.4292694],[-66.1307638,-17.4290084],[-66.1311452,-17.4286831],[-66.1313622,-17.4285453],[-66.1316505,-17.4284037],[-66.1320009,-17.4282462],[-66.1321307,-17.4282016],[-66.1322405,-17.4281403],[-66.1323526,-17.4280795],[-66.1324308,-17.4280254],[-66.1324852,-17.427974],[-66.1326576,-17.4278633],[-66.133089,-17.4275329],[-66.1331876,-17.4274644],[-66.1333899,-17.4273526],[-66.1336186,-17.4272495],[-66.1338243,-17.4271534],[-66.1338633,-17.4271309],[-66.1342013,-17.4269377],[-66.1344239,-17.4268027],[-66.1345708,-17.4266943],[-66.1346936,-17.4265678],[-66.1350371,-17.4261632],[-66.1352861,-17.4258665],[-66.1354029,-17.4257603],[-66.1356831,-17.4255114],[-66.1357907,-17.425418],[-66.1358963,-17.4253262],[-66.1359881,-17.425243],[-66.1361974,-17.4250404],[-66.1363353,-17.4249275],[-66.1365451,-17.4248109],[-66.1366533,-17.424757],[-66.136947,-17.4246488],[-66.1375543,-17.4244088],[-66.1368268,-17.4237522],[-66.137412,-17.4231704],[-66.137597,-17.4229732],[-66.1376449,-17.4229232],[-66.1379223,-17.4226459],[-66.1382564,-17.4223031],[-66.1385262,-17.4220318],[-66.1388371,-17.421722],[-66.1388979,-17.4216719],[-66.139101,-17.4214584],[-66.1391845,-17.4213435],[-66.139244,-17.4212175],[-66.139314,-17.4210075],[-66.1395212,-17.4201002],[-66.13954,-17.4200354],[-66.1395681,-17.4199707],[-66.1395221,-17.4199389],[-66.1394899,-17.4199027],[-66.1394634,-17.4198678],[-66.1394428,-17.4198294],[-66.1394286,-17.4197884],[-66.1394211,-17.4197457],[-66.1394209,-17.4196986],[-66.13943,-17.4196481],[-66.1394407,-17.4196172],[-66.1394624,-17.4195755],[-66.1394879,-17.4195413],[-66.1395725,-17.4193959],[-66.1396331,-17.419311],[-66.1396873,-17.4192305],[-66.1397403,-17.4191353],[-66.1397988,-17.418986],[-66.1398328,-17.4188823],[-66.1401648,-17.4178612],[-66.1404933,-17.4168866],[-66.1405244,-17.4168067],[-66.1405833,-17.4166827],[-66.1407573,-17.4163719],[-66.140948,-17.4160763],[-66.1409708,-17.4160292],[-66.1409715,-17.4159384],[-66.1410963,-17.4158614],[-66.1411571,-17.4158204],[-66.1412094,-17.4157774],[-66.1413184,-17.4156876],[-66.1414637,-17.4155576],[-66.1416211,-17.415388],[-66.1418162,-17.415161],[-66.1419651,-17.4149342],[-66.1421324,-17.4146275],[-66.1422319,-17.4143516],[-66.1423011,-17.4141008],[-66.1423547,-17.4137928],[-66.1423669,-17.4136852],[-66.1423832,-17.4133356],[-66.142442,-17.4122956],[-66.1424875,-17.4107922],[-66.1425014,-17.4105589],[-66.1425131,-17.4104209],[-66.1425216,-17.4103269],[-66.1425556,-17.4100923],[-66.1426088,-17.409822],[-66.1426969,-17.4095338],[-66.1428038,-17.4092482],[-66.1429534,-17.4089245],[-66.1431329,-17.4086148],[-66.1432744,-17.4084112],[-66.1436255,-17.4079408],[-66.1441016,-17.4073278],[-66.1446442,-17.4066392],[-66.1447121,-17.4065501],[-66.1448528,-17.4063549],[-66.1448715,-17.406329],[-66.1449015,-17.4062875],[-66.1449631,-17.4061868],[-66.1450108,-17.406109],[-66.145293,-17.4055715],[-66.1454218,-17.4053073],[-66.1454853,-17.40517],[-66.1455747,-17.4050327],[-66.1456525,-17.4048461],[-66.1457908,-17.4045641],[-66.1459115,-17.4043358],[-66.1460246,-17.4041685],[-66.1462636,-17.4038595],[-66.1465481,-17.4035184],[-66.1467408,-17.4032918],[-66.1468116,-17.4031752],[-66.1468785,-17.4030697],[-66.1469238,-17.4029986],[-66.1469869,-17.4028497],[-66.147037,-17.4027185],[-66.1470624,-17.4026519],[-66.1470936,-17.4025344],[-66.147125,-17.4023666],[-66.1471298,-17.4021304],[-66.147153,-17.4020486],[-66.1471718,-17.402008],[-66.1471961,-17.4019791],[-66.1472339,-17.4019505],[-66.1472995,-17.4019107],[-66.1473653,-17.4018908],[-66.1474157,-17.4019018],[-66.1475057,-17.4018777],[-66.1475641,-17.401858],[-66.1476333,-17.4018178],[-66.1476868,-17.4017639],[-66.1477981,-17.4016071],[-66.1478917,-17.401321],[-66.1479899,-17.4009625],[-66.1480034,-17.4008948],[-66.1480179,-17.4008307],[-66.1481961,-17.3999523],[-66.1482116,-17.3998729],[-66.148298,-17.3998478],[-66.1488313,-17.3998543],[-66.149334,-17.3998605],[-66.1498494,-17.3998668],[-66.1500222,-17.3998728],[-66.1501395,-17.3998796],[-66.1502575,-17.399903],[-66.1503592,-17.3999303],[-66.1504801,-17.3999711],[-66.1506108,-17.4000341],[-66.1507434,-17.4001219],[-66.1508693,-17.4002252],[-66.1508973,-17.4001366],[-66.1509151,-17.399965],[-66.1509855,-17.3992846],[-66.1510846,-17.3985396],[-66.1510902,-17.3984566],[-66.1511563,-17.3977747],[-66.1513099,-17.3966148],[-66.1515053,-17.3955426],[-66.1504423,-17.3953552],[-66.1496268,-17.3952107],[-66.1492527,-17.3951444],[-66.149211,-17.395137],[-66.149167,-17.3951292],[-66.1491127,-17.3951204],[-66.1483782,-17.3949964],[-66.1483382,-17.3949953],[-66.148303,-17.3950023],[-66.148272,-17.3950227],[-66.1482545,-17.3950599],[-66.1481427,-17.3956348],[-66.1480458,-17.3961789],[-66.1480385,-17.3962201],[-66.1480292,-17.3962721],[-66.1480855,-17.3962824],[-66.1482177,-17.3963066],[-66.1484781,-17.3963492],[-66.1485272,-17.3963716],[-66.1485507,-17.3964011],[-66.1488172,-17.3964487],[-66.1488961,-17.3964633],[-66.1489511,-17.3961794],[-66.1489979,-17.3961863],[-66.1502362,-17.3964175],[-66.1513099,-17.3966148],[-66.1518964,-17.396722],[-66.1524397,-17.396804],[-66.1535317,-17.397006],[-66.1545798,-17.3971915],[-66.1544175,-17.3980992],[-66.154389,-17.3982226],[-66.1542283,-17.3989929],[-66.1542062,-17.3990837],[-66.1540449,-17.3999995],[-66.1539303,-17.4007093],[-66.1552182,-17.4006491],[-66.1552708,-17.4006495],[-66.1561989,-17.4007931],[-66.1567358,-17.4008781],[-66.1573928,-17.4009738],[-66.1574786,-17.4009863],[-66.1575885,-17.4010023],[-66.1575752,-17.4011537],[-66.157522,-17.4015753],[-66.1574818,-17.4020121],[-66.1574693,-17.4021498],[-66.1574602,-17.4022501],[-66.1574143,-17.4026402],[-66.1573804,-17.4029274],[-66.1573057,-17.4034308],[-66.1571981,-17.4039846],[-66.1571744,-17.4040293],[-66.1571494,-17.4040811],[-66.1569751,-17.4051438],[-66.156929,-17.4053964],[-66.1567149,-17.4065683],[-66.1566752,-17.4068311],[-66.1566081,-17.4073735],[-66.1565791,-17.4075962],[-66.1565643,-17.407672],[-66.1565522,-17.4077489],[-66.1563919,-17.408892],[-66.1562995,-17.4093093],[-66.1562526,-17.409537],[-66.1561494,-17.4101159],[-66.1561031,-17.4104088],[-66.1560788,-17.4106525],[-66.1560387,-17.4110086],[-66.1563064,-17.4118389],[-66.1563676,-17.4120812],[-66.1563982,-17.412262],[-66.1564103,-17.4124229],[-66.1565158,-17.4130482],[-66.1565199,-17.4130722],[-66.1566585,-17.4138321],[-66.156664,-17.4138639],[-66.1567889,-17.4145922],[-66.1568293,-17.4147082],[-66.1569922,-17.4155388],[-66.1570091,-17.4156269],[-66.1570227,-17.4157096],[-66.157197,-17.4165706],[-66.157207,-17.4166281],[-66.1572232,-17.4167107],[-66.1573721,-17.4176234],[-66.1575465,-17.4187052],[-66.1576093,-17.4191214],[-66.157644,-17.4193561],[-66.1576803,-17.419601],[-66.1576838,-17.4196249],[-66.1576939,-17.4196932],[-66.1577032,-17.4197518],[-66.1577297,-17.4199188],[-66.1577703,-17.4201746],[-66.1577789,-17.4202297],[-66.157817,-17.4204683],[-66.1578206,-17.420491],[-66.1578264,-17.420528],[-66.1578847,-17.4209201],[-66.1579216,-17.4211652],[-66.1580254,-17.4217709],[-66.1580356,-17.4218393],[-66.1581657,-17.4226696],[-66.158183,-17.4227871],[-66.1582975,-17.4235739],[-66.1584775,-17.4245309],[-66.1587278,-17.4257287],[-66.1587448,-17.4257964],[-66.1590776,-17.4269849],[-66.1592252,-17.4275176],[-66.1593308,-17.4278755],[-66.15947,-17.4283455],[-66.1597484,-17.4293485],[-66.1597724,-17.4294201],[-66.1602312,-17.4309823],[-66.1602842,-17.4311843],[-66.1606818,-17.4325749],[-66.160935,-17.4334016],[-66.1611978,-17.434336],[-66.1613043,-17.434691],[-66.1614638,-17.4352578],[-66.1616469,-17.4359086],[-66.1621276,-17.4375533],[-66.1623772,-17.4385378],[-66.1624967,-17.4391593],[-66.162509,-17.439231],[-66.162514,-17.4392564],[-66.1625256,-17.4393328],[-66.1625589,-17.4395329],[-66.1625914,-17.4397426],[-66.162632,-17.4399582],[-66.1626572,-17.4400867],[-66.1628069,-17.4407881],[-66.162857,-17.4409845],[-66.1629144,-17.4411417],[-66.1634197,-17.4423163],[-66.1635294,-17.4425912],[-66.1636148,-17.4428661],[-66.1636835,-17.4431637],[-66.163743,-17.4434762],[-66.1638516,-17.4438302],[-66.1639603,-17.444157],[-66.1641999,-17.444916],[-66.1645422,-17.4459931],[-66.1645853,-17.4461312],[-66.1648063,-17.4468542],[-66.1649778,-17.4473238],[-66.1650357,-17.4474823],[-66.1650505,-17.4475473],[-66.1650712,-17.4476383],[-66.165116,-17.4479766],[-66.1652598,-17.4487022],[-66.1654498,-17.4494395],[-66.1656711,-17.450206],[-66.1658648,-17.450846],[-66.1660904,-17.4516332],[-66.1662155,-17.4519526],[-66.1662513,-17.4520492],[-66.1663435,-17.4523482],[-66.1665531,-17.4531358],[-66.1666086,-17.4533503],[-66.1667201,-17.4537351],[-66.1670523,-17.4547264],[-66.1670847,-17.4548232],[-66.1670923,-17.4548546],[-66.1671292,-17.45485],[-66.1671572,-17.454846],[-66.1678632,-17.4547449],[-66.1683378,-17.4546775],[-66.1699684,-17.454464],[-66.1702503,-17.454427],[-66.17075,-17.4543646],[-66.1714045,-17.4543276],[-66.1720118,-17.4543502],[-66.1725966,-17.4543888],[-66.17294,-17.4544114],[-66.1740098,-17.4544169],[-66.1742475,-17.4544217],[-66.1743831,-17.454464],[-66.1744759,-17.4545095],[-66.1746641,-17.4545808],[-66.1747377,-17.4546285],[-66.1749604,-17.4547407],[-66.1753206,-17.4548454],[-66.1757877,-17.4548516],[-66.1759773,-17.4548459],[-66.1760418,-17.4548575],[-66.1760976,-17.4548769],[-66.1761244,-17.4549066],[-66.1761402,-17.454942],[-66.1761452,-17.4550113],[-66.1761323,-17.4550727],[-66.1761098,-17.4551355],[-66.1760514,-17.4552526],[-66.1760377,-17.4552983],[-66.1760462,-17.455352],[-66.1760892,-17.4554056],[-66.1761607,-17.4554614],[-66.1762779,-17.4555408],[-66.176471,-17.4556713],[-66.1766079,-17.4557543],[-66.1768124,-17.4558568],[-66.1770292,-17.4559509],[-66.1772338,-17.45604],[-66.1774072,-17.4561297],[-66.1775566,-17.4562202],[-66.1778661,-17.4564501],[-66.1779979,-17.456531],[-66.1781506,-17.4566123],[-66.1783143,-17.456692],[-66.1784575,-17.4567542],[-66.1785708,-17.4567963],[-66.1786907,-17.4568265],[-66.17877,-17.4568465],[-66.1789413,-17.4568665],[-66.1791238,-17.4568801],[-66.1793276,-17.4569149],[-66.1794567,-17.4569392],[-66.1801578,-17.4570779],[-66.1805639,-17.4571729],[-66.18083,-17.4572227],[-66.1812678,-17.4573621],[-66.1814328,-17.4574071],[-66.1815309,-17.457424],[-66.1816729,-17.4574413],[-66.1821362,-17.45747],[-66.1822567,-17.4574848],[-66.182339,-17.4575105],[-66.1824329,-17.4575492],[-66.1826616,-17.4576655],[-66.1827032,-17.4576866],[-66.1830621,-17.4578591],[-66.1832418,-17.4579227],[-66.1838911,-17.4582021],[-66.1845372,-17.4584454],[-66.184939,-17.458592],[-66.185098,-17.4586236],[-66.1851986,-17.4586552],[-66.1852612,-17.458709],[-66.1853097,-17.4587415],[-66.185358,-17.4587604],[-66.1854381,-17.4587536],[-66.1855141,-17.4587185],[-66.1856078,-17.4586663],[-66.1859335,-17.4585053],[-66.1861953,-17.4583635],[-66.186738,-17.4580479],[-66.1872557,-17.4577659],[-66.1879639,-17.4574166],[-66.1883385,-17.45724],[-66.1887051,-17.4570856],[-66.1892465,-17.4568683],[-66.1894322,-17.4567835],[-66.1895729,-17.4566996],[-66.1902878,-17.4561322],[-66.1903903,-17.4560731],[-66.1911283,-17.4558153],[-66.1914252,-17.4557116],[-66.1923273,-17.4554113],[-66.1926092,-17.4553324],[-66.1930499,-17.4552459],[-66.1937225,-17.4550497],[-66.19427,-17.4548989],[-66.1959435,-17.4543814],[-66.1965484,-17.4542149],[-66.1967386,-17.454172],[-66.1969746,-17.4541412],[-66.1975705,-17.4541318],[-66.1977133,-17.4541239],[-66.1978494,-17.4540907],[-66.1979462,-17.454031],[-66.1979914,-17.4539892],[-66.1980678,-17.4539185],[-66.1981513,-17.4538619],[-66.198272,-17.4538147],[-66.1987331,-17.4536756],[-66.1991393,-17.4535745],[-66.2004268,-17.4532445],[-66.2008843,-17.4531399],[-66.2015029,-17.4529983],[-66.2016587,-17.4539514],[-66.2017221,-17.4542089],[-66.2017926,-17.4544742],[-66.2019237,-17.4549677],[-66.20212,-17.4561497],[-66.202166,-17.4564268],[-66.2022758,-17.4569797],[-66.2024305,-17.4575432],[-66.2024924,-17.4578427],[-66.2024845,-17.4580289],[-66.2024577,-17.4582007],[-66.2023893,-17.4583676],[-66.2022715,-17.4586847],[-66.2021802,-17.4589391],[-66.2021049,-17.4592137],[-66.2020634,-17.4594823],[-66.2020353,-17.4597369],[-66.2020183,-17.4601491],[-66.2020171,-17.4603504],[-66.2020011,-17.4605451],[-66.2019645,-17.460743],[-66.2018484,-17.4613889],[-66.2016943,-17.462534],[-66.201677,-17.4626788],[-66.2016143,-17.4632109],[-66.2015184,-17.4639296],[-66.201484,-17.4640827],[-66.2015436,-17.4641831],[-66.2016294,-17.4642621],[-66.2017383,-17.4643344],[-66.2019563,-17.464505],[-66.2020945,-17.4646543],[-66.2021427,-17.4647189],[-66.2024376,-17.4651918],[-66.2026058,-17.4654418],[-66.2027005,-17.4656007],[-66.2032502,-17.4657652],[-66.2035661,-17.465854],[-66.2037519,-17.465911],[-66.2039458,-17.4659522],[-66.2042109,-17.4659868],[-66.2042391,-17.4660011],[-66.2042539,-17.4660272],[-66.2042125,-17.4664617],[-66.2041772,-17.4669887],[-66.2043786,-17.4671219],[-66.2044993,-17.4671973],[-66.2046278,-17.4672197],[-66.2048475,-17.467237],[-66.2051741,-17.4672866],[-66.2055378,-17.4673534],[-66.2059832,-17.4674083],[-66.2064328,-17.467456],[-66.2070703,-17.467495],[-66.2071309,-17.467538],[-66.2071198,-17.4680772],[-66.2070815,-17.46828],[-66.2068731,-17.4681815],[-66.2068619,-17.4682351],[-66.2069449,-17.4682663],[-66.2070861,-17.4683418],[-66.2072424,-17.4684135],[-66.2075059,-17.4685339],[-66.2076211,-17.4686094],[-66.2077273,-17.4686744],[-66.2078543,-17.4687312],[-66.2079848,-17.46879],[-66.2079794,-17.4688505],[-66.2079665,-17.4694812],[-66.2086174,-17.4693447],[-66.2087998,-17.4697127],[-66.2089203,-17.4699732],[-66.2091815,-17.4705856]]}}}]}