{"type":"FeatureCollection","features":[{"type":"Feature","properties":{"bicycle":"no","from":"Jose Curtinas","name":"Bus M: Jose Curtinas → Pozo Petrolero Buena Vista","network":"BO:CB:Cochabamba","on_demand":"yes","opening_hours":"Mo-Su 06:00-22:00;PH Off","operator":"Sindicato Mixto de Transportistas Avaroa","operator:type":"association","public_transport:version":"2","ref":"M","roundtrip":"no","route":"bus","to":"Pozo Petrolero Buena Vista","type":"route","wheelchair":"no","id":9321521},"geometry":{"type":"LineString","coordinates":[[-66.1272785,-17.364075800000002],[-66.1274358,-17.364129900000002],[-66.127784,-17.364253700000003],[-66.1278889,-17.364287800000003],[-66.12827320000001,-17.3644134],[-66.1283578,-17.364441000000003],[-66.1284353,-17.3644496],[-66.128522,-17.364445],[-66.12880630000001,-17.364466],[-66.12903010000001,-17.3644871],[-66.12931730000001,-17.3644919],[-66.12938120000001,-17.3644846],[-66.1299779,-17.3643679],[-66.1305952,-17.3642472],[-66.13109270000001,-17.3641499],[-66.131428,-17.364084400000003],[-66.13157650000001,-17.3646299],[-66.13161240000001,-17.3647603],[-66.1316759,-17.364735200000002],[-66.13175380000001,-17.3646968],[-66.1321815,-17.364610300000002],[-66.13270320000001,-17.364519400000002],[-66.1327231,-17.364594],[-66.13273500000001,-17.3646463],[-66.13285280000001,-17.3651708],[-66.13285520000001,-17.365192200000003],[-66.1328434,-17.365222900000003],[-66.1328271,-17.3652501],[-66.1328027,-17.365264600000003],[-66.13267570000001,-17.3653003],[-66.1329298,-17.365697400000002],[-66.13315370000001,-17.366047100000003],[-66.1334961,-17.3665823],[-66.13383830000001,-17.367116900000003],[-66.13398520000001,-17.3670325],[-66.1344677,-17.3667303],[-66.1346939,-17.3665974],[-66.1347497,-17.366575500000003],[-66.1348078,-17.3665582],[-66.1348406,-17.3665565],[-66.13487140000001,-17.3665629],[-66.13490150000001,-17.366577600000003],[-66.1349217,-17.366597300000002],[-66.1349807,-17.3666935],[-66.13509830000001,-17.366850900000003],[-66.1351312,-17.3668921],[-66.1352263,-17.367011400000003],[-66.1353536,-17.3671797],[-66.13560580000001,-17.367621800000002],[-66.1356224,-17.3676508],[-66.1356595,-17.3677159],[-66.13583700000001,-17.3676272],[-66.1362251,-17.367470500000003],[-66.1368075,-17.3672299],[-66.1371592,-17.3680346],[-66.1372127,-17.368207400000003],[-66.13728560000001,-17.368482800000002],[-66.1374174,-17.368475200000002],[-66.13746680000001,-17.3684738],[-66.1382334,-17.3684805],[-66.1383017,-17.3687159],[-66.138462,-17.3692753],[-66.1385408,-17.3695203],[-66.1393956,-17.369301500000002],[-66.1395243,-17.369596400000002],[-66.1397568,-17.370266100000002],[-66.1401469,-17.3713903],[-66.1402915,-17.3713313],[-66.1408183,-17.371032600000003],[-66.14092140000001,-17.3709735],[-66.141637,-17.370499600000002],[-66.14208090000001,-17.370198600000002],[-66.1422196,-17.3701016],[-66.1422769,-17.3701125],[-66.1423182,-17.3701285],[-66.1423408,-17.3701471],[-66.1423889,-17.370216900000003],[-66.14240810000001,-17.3702718],[-66.1424058,-17.3703074],[-66.1423694,-17.370484700000002],[-66.14235640000001,-17.370547900000002],[-66.1423443,-17.370692700000003],[-66.1423541,-17.370769600000003],[-66.142578,-17.371781300000002],[-66.1425818,-17.371799600000003],[-66.142587,-17.3718241],[-66.14260630000001,-17.3719131],[-66.1426357,-17.372050400000003],[-66.1427482,-17.372561100000002],[-66.1428951,-17.3731875],[-66.1429435,-17.3733058],[-66.142993,-17.3733776],[-66.143066,-17.3734399],[-66.1431441,-17.373479500000002],[-66.14320950000001,-17.3735363],[-66.14325810000001,-17.3736067],[-66.14328110000001,-17.3736636],[-66.143293,-17.3737236],[-66.14329350000001,-17.3737846],[-66.14328250000001,-17.373844700000003],[-66.1432451,-17.373929200000003],[-66.1431855,-17.374000900000002],[-66.14310780000001,-17.374054800000003],[-66.1430179,-17.3740869],[-66.1429705,-17.374129500000002],[-66.14293140000001,-17.374195800000003],[-66.1428264,-17.374870700000002],[-66.1428132,-17.3749632],[-66.1428008,-17.3750357],[-66.14275260000001,-17.3753405],[-66.14268390000001,-17.375774600000003],[-66.14267360000001,-17.3758395],[-66.14261900000001,-17.376235100000002],[-66.142601,-17.3763647],[-66.14261900000001,-17.3764751],[-66.1426309,-17.376530000000002],[-66.14264530000001,-17.3765778],[-66.1426682,-17.3766289],[-66.14270090000001,-17.376684500000003],[-66.1427336,-17.376728800000002],[-66.14277700000001,-17.3767713],[-66.1428288,-17.3768089],[-66.1428908,-17.3768408],[-66.1429782,-17.376867200000003],[-66.1434009,-17.3769755],[-66.1438203,-17.377079900000002],[-66.1438863,-17.3771315],[-66.144024,-17.3771641],[-66.1444486,-17.3772646],[-66.1446267,-17.377306700000002],[-66.14485520000001,-17.377359600000002],[-66.1451945,-17.377442100000003],[-66.1456692,-17.377556700000003],[-66.14610230000001,-17.3776642],[-66.1466537,-17.377809900000003],[-66.14687780000001,-17.3778633],[-66.14799140000001,-17.3781348],[-66.1484911,-17.3782548],[-66.14880910000001,-17.3783309],[-66.1491039,-17.3784457],[-66.1495711,-17.378564800000003],[-66.1499349,-17.378646500000002],[-66.1502794,-17.3787166],[-66.1504972,-17.378757],[-66.1506902,-17.3787929],[-66.15103230000001,-17.3788707],[-66.1512728,-17.378897700000003],[-66.15198740000001,-17.379063300000002],[-66.15203310000001,-17.3790592],[-66.15205870000001,-17.3790504],[-66.15208840000001,-17.3790321],[-66.1521148,-17.3789987],[-66.152129,-17.378966100000003],[-66.15210330000001,-17.378598],[-66.1520897,-17.3785653],[-66.1520699,-17.378535600000003],[-66.152038,-17.378510000000002],[-66.15200300000001,-17.3784849],[-66.1519693,-17.378450500000003],[-66.1519463,-17.378408800000003],[-66.1519354,-17.3783575],[-66.15194070000001,-17.3783053],[-66.1519631,-17.378260500000003],[-66.15199770000001,-17.378223300000002],[-66.15202810000001,-17.378204800000002],[-66.15204170000001,-17.3781965],[-66.1520916,-17.378182300000002],[-66.15214370000001,-17.3781816],[-66.1521941,-17.378194500000003],[-66.1522388,-17.378220000000002],[-66.152265,-17.3782445],[-66.1522858,-17.3782734],[-66.152299,-17.378308800000003],[-66.1523011,-17.378331900000003],[-66.1523004,-17.3783727],[-66.1522903,-17.3784123],[-66.1522712,-17.3784488],[-66.1522441,-17.378480300000003],[-66.1522145,-17.378505500000003],[-66.1521876,-17.378536],[-66.1521745,-17.378571400000002],[-66.15217170000001,-17.378594600000003],[-66.1521987,-17.3790121],[-66.1522041,-17.379136000000003],[-66.15220160000001,-17.3791936],[-66.152196,-17.379246600000002],[-66.1521831,-17.3793009],[-66.1521786,-17.3793188],[-66.15208550000001,-17.379685300000002],[-66.1520795,-17.379733100000003],[-66.1520888,-17.3798099],[-66.1521204,-17.3798676],[-66.15215450000001,-17.3799229],[-66.1521707,-17.3799853],[-66.1521677,-17.3800494],[-66.1521458,-17.3801102],[-66.1520931,-17.3801673],[-66.15205830000001,-17.3802363],[-66.15202950000001,-17.3803711],[-66.15200820000001,-17.380641],[-66.15199000000001,-17.3809334],[-66.1519803,-17.381014],[-66.1519205,-17.3815379],[-66.15191730000001,-17.381575700000003],[-66.1519287,-17.3816306],[-66.15194910000001,-17.3816773],[-66.1520457,-17.3817187],[-66.1521335,-17.3817752],[-66.1522101,-17.3818449],[-66.1522733,-17.381926],[-66.15228350000001,-17.3819453],[-66.1523209,-17.382016200000002],[-66.1523387,-17.3820841],[-66.15234980000001,-17.382163000000002],[-66.15234960000001,-17.382227500000003],[-66.1523415,-17.382301000000002],[-66.1523193,-17.3823884],[-66.1522786,-17.3824727],[-66.1522248,-17.382550100000003],[-66.15215930000001,-17.382618700000002],[-66.15208340000001,-17.3826766],[-66.1521378,-17.3827606],[-66.1521573,-17.3827907],[-66.1526343,-17.3835267],[-66.15267220000001,-17.383585200000002],[-66.15271530000001,-17.383650600000003],[-66.1530632,-17.3841788],[-66.1531075,-17.384246],[-66.1531824,-17.384231800000002],[-66.1532765,-17.384242200000003],[-66.15337070000001,-17.384286200000002],[-66.1534455,-17.3843481],[-66.15346890000001,-17.3843761],[-66.15350690000001,-17.384421800000002],[-66.15353850000001,-17.384482600000002],[-66.1535666,-17.3845642],[-66.15358260000001,-17.384625500000002],[-66.1535886,-17.3846716],[-66.15358900000001,-17.384732600000003],[-66.15358330000001,-17.384770800000002],[-66.15356410000001,-17.3848154],[-66.15354380000001,-17.3848443],[-66.15351270000001,-17.3848629],[-66.1534615,-17.384878500000003],[-66.15340300000001,-17.3848813],[-66.1533418,-17.384868800000003],[-66.1532854,-17.3848473],[-66.153238,-17.384821600000002],[-66.1531989,-17.384867],[-66.1531592,-17.3849164],[-66.15310600000001,-17.384985200000003],[-66.1527849,-17.385410800000002],[-66.15242880000001,-17.385884100000002],[-66.1522381,-17.386161],[-66.1521946,-17.386214900000002],[-66.1521465,-17.386272100000003],[-66.15207930000001,-17.3863479],[-66.1519887,-17.3867982],[-66.1518808,-17.3873561],[-66.151781,-17.387868700000002],[-66.15177080000001,-17.3879252],[-66.15175880000001,-17.3879999],[-66.1516101,-17.388925],[-66.151604,-17.3889628],[-66.1515995,-17.3889879],[-66.15159220000001,-17.389029100000002],[-66.1514143,-17.390025],[-66.1512469,-17.3911242],[-66.1512362,-17.391181200000002],[-66.1512194,-17.3912742],[-66.15121040000001,-17.391324800000003],[-66.1511296,-17.3917295],[-66.15103830000001,-17.3921922],[-66.15102800000001,-17.3922446],[-66.1510205,-17.3922844],[-66.1508421,-17.393226900000002],[-66.150834,-17.3932743],[-66.15082220000001,-17.3933342],[-66.15065460000001,-17.3943283],[-66.15044230000001,-17.3953552],[-66.1503862,-17.395644100000002],[-66.15023620000001,-17.396417500000002],[-66.1513099,-17.396614800000002],[-66.15189640000001,-17.396722],[-66.1524397,-17.396804000000003],[-66.1535317,-17.397006],[-66.15457980000001,-17.3971915],[-66.1546495,-17.397201000000003],[-66.1556929,-17.3973663],[-66.15678000000001,-17.3975624],[-66.15657990000001,-17.398655100000003],[-66.1564374,-17.399488700000003],[-66.1564225,-17.399578100000003],[-66.1561989,-17.4007931],[-66.1561157,-17.4013136],[-66.15594820000001,-17.4021963],[-66.1566669,-17.4022092],[-66.1567358,-17.4008781],[-66.15739280000001,-17.400973800000003],[-66.1574786,-17.400986300000003],[-66.1575885,-17.401002300000002],[-66.15757520000001,-17.401153700000002],[-66.157522,-17.4015753],[-66.1574818,-17.4020121],[-66.1574693,-17.4021498],[-66.1574602,-17.4022501],[-66.1574143,-17.4026402],[-66.15738040000001,-17.402927400000003],[-66.15730570000001,-17.403430800000002],[-66.1571981,-17.4039846],[-66.1571744,-17.4040293],[-66.15714940000001,-17.404081100000003],[-66.15697510000001,-17.4051438],[-66.156929,-17.4053964],[-66.15671490000001,-17.4065683],[-66.15667520000001,-17.4068311],[-66.1566081,-17.407373500000002],[-66.1565791,-17.4075962],[-66.1565643,-17.407672],[-66.15655220000001,-17.4077489],[-66.1563919,-17.408892],[-66.1562995,-17.4093093],[-66.1562526,-17.409537],[-66.1561494,-17.4101159],[-66.15610310000001,-17.410408800000003],[-66.1560788,-17.4106525],[-66.15603870000001,-17.411008600000002],[-66.1563064,-17.411838900000003],[-66.15636760000001,-17.412081200000003],[-66.15639820000001,-17.412262000000002],[-66.1564103,-17.412422900000003],[-66.15651580000001,-17.413048200000002],[-66.1565199,-17.413072200000002],[-66.1566585,-17.4138321],[-66.156664,-17.413863900000003],[-66.15678890000001,-17.4145922],[-66.15682930000001,-17.4147082],[-66.1569922,-17.4155388],[-66.15700910000001,-17.415626900000003],[-66.1570227,-17.415709600000003],[-66.15719700000001,-17.4165706],[-66.157207,-17.4166281],[-66.1572232,-17.416710700000003],[-66.1573721,-17.4176234],[-66.15754650000001,-17.4187052],[-66.1576093,-17.4191214],[-66.157644,-17.4193561],[-66.15768030000001,-17.419601],[-66.1576838,-17.419624900000002],[-66.15769390000001,-17.4196932],[-66.1577032,-17.4197518],[-66.1577297,-17.4199188],[-66.15777030000001,-17.420174600000003],[-66.15777890000001,-17.4202297],[-66.15781700000001,-17.420468300000003],[-66.15782060000001,-17.420491000000002],[-66.1578264,-17.420528],[-66.15788470000001,-17.4209201],[-66.15792160000001,-17.4211652],[-66.1580254,-17.421770900000002],[-66.1580356,-17.421839300000002],[-66.15816570000001,-17.422669600000003],[-66.15818300000001,-17.4227871],[-66.1582975,-17.4235739],[-66.1584775,-17.4245309],[-66.15872780000001,-17.4257287],[-66.15874480000001,-17.425796400000003],[-66.1590776,-17.4269849],[-66.15922520000001,-17.4275176],[-66.1593308,-17.427875500000003],[-66.15947,-17.428345500000002],[-66.15974840000001,-17.429348500000003],[-66.15977240000001,-17.4294201],[-66.16023120000001,-17.4309823],[-66.1602842,-17.4311843],[-66.1606818,-17.432574900000002],[-66.16093500000001,-17.4334016],[-66.1614655,-17.433316100000003],[-66.162014,-17.433229],[-66.1621046,-17.433230400000003],[-66.16208970000001,-17.4337883],[-66.1621339,-17.433873400000003],[-66.1621889,-17.4339239],[-66.1622696,-17.4339543],[-66.16235950000001,-17.433951500000003],[-66.1626028,-17.4339358],[-66.16269940000001,-17.4339389],[-66.1628223,-17.4339547],[-66.1630954,-17.434016900000003],[-66.1635937,-17.434141200000003],[-66.16404250000001,-17.434238],[-66.16414230000001,-17.434246700000003],[-66.16419760000001,-17.434247300000003],[-66.16422100000001,-17.434242400000002],[-66.16426030000001,-17.4342341],[-66.1643334,-17.4341969],[-66.1643975,-17.4341554],[-66.16486660000001,-17.433760300000003],[-66.165907,-17.4328606],[-66.16631860000001,-17.432513500000002],[-66.1669019,-17.4320129],[-66.1672971,-17.4316713],[-66.1676989,-17.431317800000002],[-66.16833910000001,-17.430764500000002],[-66.16938090000001,-17.4298554],[-66.16988070000001,-17.4294279],[-66.1718673,-17.4277172],[-66.1728022,-17.4269043],[-66.1748427,-17.4251468],[-66.1749228,-17.425077],[-66.1749994,-17.4250444],[-66.17509100000001,-17.425032400000003],[-66.1751591,-17.4250486],[-66.17523,-17.425075500000002],[-66.17531410000001,-17.425120600000003],[-66.1754061,-17.425183],[-66.1765366,-17.4261091],[-66.17672250000001,-17.426250300000003],[-66.17715310000001,-17.426590700000002],[-66.17741380000001,-17.4268088],[-66.1775034,-17.426877700000002],[-66.1779983,-17.427258600000002],[-66.1785188,-17.4276604],[-66.1793057,-17.428267100000003],[-66.1793378,-17.4282918],[-66.1794998,-17.428416700000003],[-66.1795443,-17.4284511],[-66.1795816,-17.4284798],[-66.17964520000001,-17.4285289],[-66.1806854,-17.429330800000002],[-66.18123650000001,-17.4297754],[-66.1816613,-17.4301098],[-66.1823962,-17.4306896],[-66.1830778,-17.4312213],[-66.1832083,-17.4313617],[-66.18332980000001,-17.431443700000003],[-66.183447,-17.431505],[-66.183554,-17.431554600000002],[-66.18370990000001,-17.4316177],[-66.18395240000001,-17.4316831],[-66.183986,-17.431691100000002],[-66.18411520000001,-17.431717600000002],[-66.18424970000001,-17.431734600000002],[-66.18448020000001,-17.4317472],[-66.1845854,-17.431735800000002],[-66.185084,-17.4316818],[-66.1852375,-17.4316864],[-66.18550130000001,-17.4317272],[-66.1856745,-17.431762900000003],[-66.18651790000001,-17.4319366],[-66.18891430000001,-17.4324243],[-66.19029130000001,-17.4327076],[-66.19071050000001,-17.432804200000003],[-66.19174960000001,-17.4330076],[-66.19266680000001,-17.433190500000002],[-66.192711,-17.4332004],[-66.1934258,-17.434267700000003],[-66.1936924,-17.4346718],[-66.1937824,-17.4348111],[-66.1941061,-17.4353121],[-66.1946642,-17.436170200000003],[-66.1957368,-17.437794],[-66.1960004,-17.4381798],[-66.1961823,-17.438481200000002],[-66.19636170000001,-17.438955800000002],[-66.1965313,-17.4394011],[-66.19690680000001,-17.440387400000002],[-66.1969545,-17.4405128],[-66.1975647,-17.4419843],[-66.19805880000001,-17.4431854],[-66.198116,-17.443350900000002],[-66.19825060000001,-17.4436605],[-66.1985976,-17.444524400000002],[-66.198632,-17.444607700000002],[-66.1988378,-17.4451062],[-66.19891670000001,-17.4452973],[-66.19898140000001,-17.4454539],[-66.1990229,-17.445554400000002],[-66.1990557,-17.4456339],[-66.19937800000001,-17.4464143],[-66.19943040000001,-17.446541200000002],[-66.1996682,-17.4471171],[-66.1997747,-17.447375100000002],[-66.1998147,-17.447469],[-66.19997640000001,-17.4478486],[-66.2003052,-17.4485919],[-66.20103560000001,-17.450312200000003],[-66.20113640000001,-17.4506018],[-66.2011849,-17.4508264],[-66.2012526,-17.4511708],[-66.20129440000001,-17.4516081],[-66.20135540000001,-17.4520468],[-66.20150290000001,-17.4529983],[-66.20165870000001,-17.4539514],[-66.20172210000001,-17.4542089],[-66.2017926,-17.4544742],[-66.20192370000001,-17.4549677],[-66.202166,-17.456426800000003],[-66.20227580000001,-17.4569797],[-66.2024305,-17.4575432],[-66.20249240000001,-17.4578427],[-66.20248450000001,-17.458028900000002],[-66.20245770000001,-17.458200700000003],[-66.20238930000001,-17.458367600000003],[-66.20227150000001,-17.458684700000003],[-66.2021802,-17.458939100000002],[-66.20210490000001,-17.459213700000003],[-66.2020634,-17.4594823],[-66.2020353,-17.459736900000003],[-66.2020183,-17.460149100000002],[-66.2020171,-17.460350400000003],[-66.2020011,-17.4605451],[-66.2019645,-17.460743],[-66.2018484,-17.461388900000003],[-66.2016943,-17.462534],[-66.201677,-17.462678800000003],[-66.2016143,-17.4632109],[-66.20151840000001,-17.4639296],[-66.20148400000001,-17.464082700000002],[-66.20154360000001,-17.464183100000003],[-66.2016294,-17.464262100000003],[-66.2017383,-17.464334400000002],[-66.2019563,-17.464505000000003],[-66.2020945,-17.464654300000003],[-66.20214270000001,-17.4647189],[-66.20243760000001,-17.465191800000003],[-66.2026058,-17.4654418],[-66.2027005,-17.465600700000003],[-66.20278900000001,-17.465764800000002],[-66.20288550000001,-17.465919200000002],[-66.2029639,-17.4660304],[-66.2031712,-17.466299600000003],[-66.2032985,-17.466453700000002],[-66.2034046,-17.4665749],[-66.20352340000001,-17.4666441],[-66.20375220000001,-17.4667792],[-66.2041772,-17.4669887],[-66.20437860000001,-17.467121900000002],[-66.20449930000001,-17.467197300000002],[-66.20462780000001,-17.4672197],[-66.2048475,-17.467237],[-66.20517410000001,-17.4672866],[-66.2055378,-17.4673534],[-66.2059832,-17.467408300000002],[-66.2064328,-17.467456000000002],[-66.20707030000001,-17.467495000000003],[-66.20713090000001,-17.467538],[-66.2071198,-17.4680772],[-66.2070815,-17.46828],[-66.20687310000001,-17.4681815],[-66.2068619,-17.4682351],[-66.20694490000001,-17.4682663],[-66.20708610000001,-17.4683418],[-66.20724240000001,-17.4684135],[-66.2075059,-17.4685339],[-66.20762110000001,-17.468609400000002],[-66.2077273,-17.4686744],[-66.20785430000001,-17.4687312],[-66.2079848,-17.468790000000002],[-66.2079794,-17.468850500000002],[-66.20796650000001,-17.4694812],[-66.20794360000001,-17.469877200000003],[-66.20793490000001,-17.4702191],[-66.20795120000001,-17.470296100000002],[-66.2080212,-17.4704583],[-66.20777650000001,-17.4705173],[-66.20770080000001,-17.470522000000003],[-66.20765850000001,-17.4706303],[-66.2076164,-17.4707545],[-66.2075964,-17.470874900000002],[-66.2075964,-17.470938],[-66.2076024,-17.471022100000003],[-66.2076624,-17.471170500000003],[-66.20773960000001,-17.4714373],[-66.2077749,-17.4715661],[-66.2077909,-17.4716586],[-66.2077873,-17.471711900000003],[-66.2077703,-17.4717558],[-66.20784160000001,-17.4719099],[-66.2079839,-17.4722234],[-66.20820420000001,-17.4726977],[-66.2084191,-17.473164500000003],[-66.2085292,-17.473105800000003],[-66.20868510000001,-17.4730309],[-66.2091347,-17.4728369]],"nodes":[1046717311,1046716721,1046715602,1046715921,10925382322,1046716039,1046716844,3017431074,3290373019,3290373021,3290373020,806735313,1046716780,1046716483,806735263,1046715971,8207910821,7192579142,8207910822,8207910820,1046716605,1046717068,3287025535,806735285,1171504682,5964229988,1171505034,5964229987,1171504888,806735288,1171504933,807968454,807968196,3218389486,3287025540,9979787544,1171504813,9979787671,3915681471,9979787672,1171504842,9979787527,9979787677,807968559,1171504733,12993447402,1171504826,1171504909,11573959028,11573959027,1171505044,1171504960,1171504805,807968672,2317602308,5578476938,1171504791,2317602318,5578476935,2389106973,2317602321,807968451,807968151,807968530,807968396,807968389,601871181,1785473158,8253713324,601871191,601871206,602990175,602990176,9579636618,9579636316,9579636617,9192234377,9579636314,9579636315,9579636313,1785473495,601872709,601872740,2126671164,11026980048,9192234375,601872746,8616654972,2126672209,601872755,1785473290,8509264310,1785473441,1785473207,1785473612,1785473544,2126674116,2389107140,1785473427,2126674142,1785473511,1785473654,1785473340,1785473238,2126674180,2126674191,2590032472,698492585,2590032493,8373677220,8373671016,698492595,8373677218,599541212,8385091870,2466162831,8385091869,602989508,602989509,8384711162,602989510,1795293354,1795293262,1795293350,1795293441,9007531375,698492555,9572274495,10696141428,4012988375,4012988378,698492552,676069644,603438818,8368166246,2183006550,603438806,12565899795,603438811,9536187029,9536187041,9536187040,9536187028,9595946690,9075020193,2212559875,2394199669,2212559876,2212559882,2212559883,2212559881,2212559879,2212559878,8456364943,8459438737,2212559862,2212559849,2212559813,2212559784,8456364942,2212559768,2212559747,2212559735,2212559729,13287386670,2212559723,2212559719,2212559721,2212559725,9075020138,2212559733,9419763477,8459438775,8459438774,8459438773,2212559780,2212559802,8456364945,2212559840,8459438762,8456364972,391753192,315225066,1636934120,1636934139,8427474503,2441014235,1636934149,1636934155,1636934160,8427474485,2220378751,2220378764,2220378802,2220378822,2220378854,2441014237,2441014238,315226521,323942905,8365941793,2220378989,9309963143,8355285964,9068826350,8355285960,8355285959,2220379013,8355285958,2220379045,11081648809,1718842341,9816174021,2312198105,9042368177,2220379137,2220379178,8355285955,2220379216,9724070706,2220379256,4106074539,9950189853,3719465032,311359554,3719465033,8347669583,315029717,2113137343,2113137344,2113137346,2113137349,9641985261,315029572,2113137356,2113137358,2113137364,315029575,2113137372,9641985263,2113137377,9641985260,315029577,2113137380,9641985264,2113137379,9031318949,2113137376,7083405269,9670892389,9670892377,311362048,9570613489,3952902680,2113137408,310501358,311360806,310501477,11196874376,4341946254,310501188,4341946255,3952902739,310501176,7919097328,3952902747,308306728,2289661502,303214821,698492410,2289661567,1851061867,2318884993,310256065,8515866939,8686453437,303215161,8686453438,310287558,310500687,8398265856,310500993,310500994,9121601604,310500796,308300469,310500793,9905231735,310500794,310500795,310501000,1727306401,310502881,310502882,2933770663,2765190393,323982551,323978402,4929965587,310262504,648543481,8637329085,2577975115,2577975131,9090462298,648542366,9652874528,702511644,2577975282,2577975307,9090462294,648542369,648542365,9131177339,323972806,2763553535,702511613,2763553554,2763553563,8226219195,319762950,1637437071,9131083914,2763553594,9131083870,319762952,319762953,648534611,560101168,3709606816,3709606819,11727597290,497187494,3709607014,11727597288,3709607018,1497947893,5433999187,497187505,5433999186,5433895294,740519915,5433895292,1497947915,1497947892,740519920,13067849843,13067849853,13067849851,4679599413,12589580114,13383715977,740519921,7768396127,12519463522,7768396129,13383715982,740519924,7768396074,740519927,12519463515,1866314088,8290039272,3306658847,2022073889,1638831970,3307354192,2149915992,740519935,3306545241,3017389923,1637693348,740519939,3306545385,2149916023,2149916029,2149915995,10278969577,7072704945,2149916001,8263292333,8263292331,8263292330,8263292329,13140654991,13140654992,13140654993,13140654994,13140654995,13140654996,13140654997,13140654998,13140688729,13165567827,13140654999,13140688728,13140655000,13140688701,13140688702,13140688703,13140688704,13140688705,13140688706,13140688707,13140688708,13140688709,13140688712,13140688713,13165567830,13140688715,13140688717,13165567828,8263292336,13140654989,13140654990,8995042829,8766456961,8766456962,12458052685,12458052686,12564357767,8766456984,8766456967,12564375412,12564375406,13157256887,8995040989,13149493545,12564375410,8766456971,12458052678,8766456974,8995042868,11943965403,3313353244,8766456978,11943965405,11943965404,780226729,3313353256,10803337069,10803337065,1626959127,3684931903,13055658876,3684931900,780226870,3684931901,13088482153,1626958487,11054281929,1626959210,12616586650,2976928027,1626959297,1617619516,1617619594,2976928539,11943965423,3686023136,2976928540,3690440613,3686023193,3686023194,8995043286,12462397032,3690443967,3686023209,3690444009,1617619479,9470367818,1626958811,1626959072,9454048415,12462397023,12462397025,12462397021,3690444264,9470343797,3690444275,9470343800,9470367826,1617619437,9470367828,1626959604,1617619584,3687313581,3687313583,3687313584,1617619627,3687313609,3687313621,1617619601,3687316802,3687316809,11230480165,3687316830,1617619679,3687316884,3690561252,1617619528,3687316936,3687316960,3687316966,3687316977,3687317007,3687317020,3687317125,1617619542,3687317134,3687317140,3687317148,1617619501,3687317156,1617351976,3723750836,3723750845,3723750862,1617619591,3723960908,3723960910,1625954211,3723960914,3723960917,1625953071,1625954958,1626447248,1626447242,3723960986,1625954864,3723960997,1626447261,3723961021,1625954459,1626229752,1625954262,1626447238,3723961071,1625954415,1626229779,1625954158,1625954565,1625954467,1625954672,1625953702,8777692567,1625953223,3724879767,3724879787,3724879781,1626447259,3724879784,3724879792,3724879796,3724879802,3724879812,3724879816,3724879822,1625954700,3724879831,1625953432,3726252840,1625954049,3724879940,1625954520,3724879958,3724879959,3724879973,3724879988,3724880009,3724880015,3724880022,1625954046,3724880043,1625953088,3724880055,1625953078,1626229666,1625954062,1625954174,1625953523,1625954447,1625954202,3724880117,1625954030]},"gtfs":{"agency_id":15,"route_id":24,"services":[{"service_id":"Mo-Su","startTime":"06:00","endTime":"22:00","trip_id":9321521}],"filteredStops":{"nodes":[1046717311,1046716721,1046715602,1046715921,10925382322,1046716039,1046716844,3017431074,3290373019,3290373021,3290373020,806735313,1046716780,1046716483,806735263,1046715971,8207910821,7192579142,8207910822,8207910820,1046716605,1046717068,3287025535,806735285,1171504682,5964229988,1171505034,5964229987,1171504888,806735288,1171504933,807968454,807968196,3218389486,3287025540,9979787544,1171504813,9979787671,3915681471,9979787672,1171504842,9979787527,9979787677,807968559,1171504733,12993447402,1171504826,1171504909,11573959028,11573959027,1171505044,1171504960,1171504805,807968672,2317602308,5578476938,1171504791,2317602318,5578476935,2389106973,2317602321,807968451,807968151,807968530,807968396,807968389,601871181,1785473158,8253713324,601871191,601871206,602990175,602990176,9579636618,9579636316,9579636617,9192234377,9579636314,9579636315,9579636313,1785473495,601872709,601872740,2126671164,11026980048,9192234375,601872746,8616654972,2126672209,601872755,1785473290,8509264310,1785473441,1785473207,1785473612,1785473544,2126674116,2389107140,1785473427,2126674142,1785473511,1785473654,1785473340,1785473238,2126674180,2126674191,2590032472,698492585,2590032493,8373677220,8373671016,698492595,8373677218,599541212,8385091870,2466162831,8385091869,602989508,602989509,8384711162,602989510,1795293354,1795293262,1795293350,1795293441,9007531375,698492555,9572274495,10696141428,4012988375,4012988378,698492552,676069644,603438818,8368166246,2183006550,603438806,12565899795,603438811,9536187029,9536187041,9536187040,9536187028,9595946690,9075020193,2212559875,2394199669,2212559876,2212559882,2212559883,2212559881,2212559879,2212559878,8456364943,8459438737,2212559862,2212559849,2212559813,2212559784,8456364942,2212559768,2212559747,2212559735,2212559729,13287386670,2212559723,2212559719,2212559721,2212559725,9075020138,2212559733,9419763477,8459438775,8459438774,8459438773,2212559780,2212559802,8456364945,2212559840,8459438762,8456364972,391753192,315225066,1636934120,1636934139,8427474503,2441014235,1636934149,1636934155,1636934160,8427474485,2220378751,2220378764,2220378802,2220378822,2220378854,2441014237,2441014238,315226521,323942905,8365941793,2220378989,9309963143,8355285964,9068826350,8355285960,8355285959,2220379013,8355285958,2220379045,11081648809,1718842341,9816174021,2312198105,9042368177,2220379137,2220379178,8355285955,2220379216,9724070706,2220379256,4106074539,9950189853,3719465032,311359554,3719465033,8347669583,315029717,2113137343,2113137344,2113137346,2113137349,9641985261,315029572,2113137356,2113137358,2113137364,315029575,2113137372,9641985263,2113137377,9641985260,315029577,2113137380,9641985264,2113137379,9031318949,2113137376,7083405269,9670892389,9670892377,311362048,9570613489,3952902680,2113137408,310501358,311360806,310501477,11196874376,4341946254,310501188,4341946255,3952902739,310501176,7919097328,3952902747,308306728,2289661502,303214821,698492410,2289661567,1851061867,2318884993,310256065,8515866939,8686453437,303215161,8686453438,310287558,310500687,8398265856,310500993,310500994,9121601604,310500796,308300469,310500793,9905231735,310500794,310500795,310501000,1727306401,310502881,310502882,2933770663,2765190393,323982551,323978402,4929965587,310262504,648543481,8637329085,2577975115,2577975131,9090462298,648542366,9652874528,702511644,2577975282,2577975307,9090462294,648542369,648542365,9131177339,323972806,2763553535,702511613,2763553554,2763553563,8226219195,319762950,1637437071,9131083914,2763553594,9131083870,319762952,319762953,648534611,560101168,3709606816,3709606819,11727597290,497187494,3709607014,11727597288,3709607018,1497947893,5433999187,497187505,5433999186,5433895294,740519915,5433895292,1497947915,1497947892,740519920,13067849843,13067849853,13067849851,4679599413,12589580114,13383715977,740519921,7768396127,12519463522,7768396129,13383715982,740519924,7768396074,740519927,12519463515,1866314088,8290039272,3306658847,2022073889,1638831970,3307354192,2149915992,740519935,3306545241,3017389923,1637693348,740519939,3306545385,2149916023,2149916029,2149915995,10278969577,7072704945,2149916001,8263292333,8263292331,8263292330,8263292329,13140654991,13140654992,13140654993,13140654994,13140654995,13140654996,13140654997,13140654998,13140688729,13165567827,13140654999,13140688728,13140655000,13140688701,13140688702,13140688703,13140688704,13140688705,13140688706,13140688707,13140688708,13140688709,13140688712,13140688713,13165567830,13140688715,13140688717,13165567828,8263292336,13140654989,13140654990,8995042829,8766456961,8766456962,12458052685,12458052686,12564357767,8766456984,8766456967,12564375412,12564375406,13157256887,8995040989,13149493545,12564375410,8766456971,12458052678,8766456974,8995042868,11943965403,3313353244,8766456978,11943965405,11943965404,780226729,3313353256,10803337069,10803337065,1626959127,3684931903,13055658876,3684931900,780226870,3684931901,13088482153,1626958487,11054281929,1626959210,12616586650,2976928027,1626959297,1617619516,1617619594,2976928539,11943965423,3686023136,2976928540,3690440613,3686023193,3686023194,8995043286,12462397032,3690443967,3686023209,3690444009,1617619479,9470367818,1626958811,1626959072,9454048415,12462397023,12462397025,12462397021,3690444264,9470343797,3690444275,9470343800,9470367826,1617619437,9470367828,1626959604,1617619584,3687313581,3687313583,3687313584,1617619627,3687313609,3687313621,1617619601,3687316802,3687316809,11230480165,3687316830,1617619679,3687316884,3690561252,1617619528,3687316936,3687316960,3687316966,3687316977,3687317007,3687317020,3687317125,1617619542,3687317134,3687317140,3687317148,1617619501,3687317156,1617351976,3723750836,3723750845,3723750862,1617619591,3723960908,3723960910,1625954211,3723960914,3723960917,1625953071,1625954958,1626447248,1626447242,3723960986,1625954864,3723960997,1626447261,3723961021,1625954459,1626229752,1625954262,1626447238,3723961071,1625954415,1626229779,1625954158,1625954565,1625954467,1625954672,1625953702,8777692567,1625953223,3724879767,3724879787,3724879781,1626447259,3724879784,3724879792,3724879796,3724879802,3724879812,3724879816,3724879822,1625954700,3724879831,1625953432,3726252840,1625954049,3724879940,1625954520,3724879958,3724879959,3724879973,3724879988,3724880009,3724880015,3724880022,1625954046,3724880043,1625953088,3724880055,1625953078,1626229666,1625954062,1625954174,1625953523,1625954447,1625954202,3724880117,1625954030],"coordinates":[[-66.1272785,-17.364075800000002],[-66.1274358,-17.364129900000002],[-66.127784,-17.364253700000003],[-66.1278889,-17.364287800000003],[-66.12827320000001,-17.3644134],[-66.1283578,-17.364441000000003],[-66.1284353,-17.3644496],[-66.128522,-17.364445],[-66.12880630000001,-17.364466],[-66.12903010000001,-17.3644871],[-66.12931730000001,-17.3644919],[-66.12938120000001,-17.3644846],[-66.1299779,-17.3643679],[-66.1305952,-17.3642472],[-66.13109270000001,-17.3641499],[-66.131428,-17.364084400000003],[-66.13157650000001,-17.3646299],[-66.13161240000001,-17.3647603],[-66.1316759,-17.364735200000002],[-66.13175380000001,-17.3646968],[-66.1321815,-17.364610300000002],[-66.13270320000001,-17.364519400000002],[-66.1327231,-17.364594],[-66.13273500000001,-17.3646463],[-66.13285280000001,-17.3651708],[-66.13285520000001,-17.365192200000003],[-66.1328434,-17.365222900000003],[-66.1328271,-17.3652501],[-66.1328027,-17.365264600000003],[-66.13267570000001,-17.3653003],[-66.1329298,-17.365697400000002],[-66.13315370000001,-17.366047100000003],[-66.1334961,-17.3665823],[-66.13383830000001,-17.367116900000003],[-66.13398520000001,-17.3670325],[-66.1344677,-17.3667303],[-66.1346939,-17.3665974],[-66.1347497,-17.366575500000003],[-66.1348078,-17.3665582],[-66.1348406,-17.3665565],[-66.13487140000001,-17.3665629],[-66.13490150000001,-17.366577600000003],[-66.1349217,-17.366597300000002],[-66.1349807,-17.3666935],[-66.13509830000001,-17.366850900000003],[-66.1351312,-17.3668921],[-66.1352263,-17.367011400000003],[-66.1353536,-17.3671797],[-66.13560580000001,-17.367621800000002],[-66.1356224,-17.3676508],[-66.1356595,-17.3677159],[-66.13583700000001,-17.3676272],[-66.1362251,-17.367470500000003],[-66.1368075,-17.3672299],[-66.1371592,-17.3680346],[-66.1372127,-17.368207400000003],[-66.13728560000001,-17.368482800000002],[-66.1374174,-17.368475200000002],[-66.13746680000001,-17.3684738],[-66.1382334,-17.3684805],[-66.1383017,-17.3687159],[-66.138462,-17.3692753],[-66.1385408,-17.3695203],[-66.1393956,-17.369301500000002],[-66.1395243,-17.369596400000002],[-66.1397568,-17.370266100000002],[-66.1401469,-17.3713903],[-66.1402915,-17.3713313],[-66.1408183,-17.371032600000003],[-66.14092140000001,-17.3709735],[-66.141637,-17.370499600000002],[-66.14208090000001,-17.370198600000002],[-66.1422196,-17.3701016],[-66.1422769,-17.3701125],[-66.1423182,-17.3701285],[-66.1423408,-17.3701471],[-66.1423889,-17.370216900000003],[-66.14240810000001,-17.3702718],[-66.1424058,-17.3703074],[-66.1423694,-17.370484700000002],[-66.14235640000001,-17.370547900000002],[-66.1423443,-17.370692700000003],[-66.1423541,-17.370769600000003],[-66.142578,-17.371781300000002],[-66.1425818,-17.371799600000003],[-66.142587,-17.3718241],[-66.14260630000001,-17.3719131],[-66.1426357,-17.372050400000003],[-66.1427482,-17.372561100000002],[-66.1428951,-17.3731875],[-66.1429435,-17.3733058],[-66.142993,-17.3733776],[-66.143066,-17.3734399],[-66.1431441,-17.373479500000002],[-66.14320950000001,-17.3735363],[-66.14325810000001,-17.3736067],[-66.14328110000001,-17.3736636],[-66.143293,-17.3737236],[-66.14329350000001,-17.3737846],[-66.14328250000001,-17.373844700000003],[-66.1432451,-17.373929200000003],[-66.1431855,-17.374000900000002],[-66.14310780000001,-17.374054800000003],[-66.1430179,-17.3740869],[-66.1429705,-17.374129500000002],[-66.14293140000001,-17.374195800000003],[-66.1428264,-17.374870700000002],[-66.1428132,-17.3749632],[-66.1428008,-17.3750357],[-66.14275260000001,-17.3753405],[-66.14268390000001,-17.375774600000003],[-66.14267360000001,-17.3758395],[-66.14261900000001,-17.376235100000002],[-66.142601,-17.3763647],[-66.14261900000001,-17.3764751],[-66.1426309,-17.376530000000002],[-66.14264530000001,-17.3765778],[-66.1426682,-17.3766289],[-66.14270090000001,-17.376684500000003],[-66.1427336,-17.376728800000002],[-66.14277700000001,-17.3767713],[-66.1428288,-17.3768089],[-66.1428908,-17.3768408],[-66.1429782,-17.376867200000003],[-66.1434009,-17.3769755],[-66.1438203,-17.377079900000002],[-66.1438863,-17.3771315],[-66.144024,-17.3771641],[-66.1444486,-17.3772646],[-66.1446267,-17.377306700000002],[-66.14485520000001,-17.377359600000002],[-66.1451945,-17.377442100000003],[-66.1456692,-17.377556700000003],[-66.14610230000001,-17.3776642],[-66.1466537,-17.377809900000003],[-66.14687780000001,-17.3778633],[-66.14799140000001,-17.3781348],[-66.1484911,-17.3782548],[-66.14880910000001,-17.3783309],[-66.1491039,-17.3784457],[-66.1495711,-17.378564800000003],[-66.1499349,-17.378646500000002],[-66.1502794,-17.3787166],[-66.1504972,-17.378757],[-66.1506902,-17.3787929],[-66.15103230000001,-17.3788707],[-66.1512728,-17.378897700000003],[-66.15198740000001,-17.379063300000002],[-66.15203310000001,-17.3790592],[-66.15205870000001,-17.3790504],[-66.15208840000001,-17.3790321],[-66.1521148,-17.3789987],[-66.152129,-17.378966100000003],[-66.15210330000001,-17.378598],[-66.1520897,-17.3785653],[-66.1520699,-17.378535600000003],[-66.152038,-17.378510000000002],[-66.15200300000001,-17.3784849],[-66.1519693,-17.378450500000003],[-66.1519463,-17.378408800000003],[-66.1519354,-17.3783575],[-66.15194070000001,-17.3783053],[-66.1519631,-17.378260500000003],[-66.15199770000001,-17.378223300000002],[-66.15202810000001,-17.378204800000002],[-66.15204170000001,-17.3781965],[-66.1520916,-17.378182300000002],[-66.15214370000001,-17.3781816],[-66.1521941,-17.378194500000003],[-66.1522388,-17.378220000000002],[-66.152265,-17.3782445],[-66.1522858,-17.3782734],[-66.152299,-17.378308800000003],[-66.1523011,-17.378331900000003],[-66.1523004,-17.3783727],[-66.1522903,-17.3784123],[-66.1522712,-17.3784488],[-66.1522441,-17.378480300000003],[-66.1522145,-17.378505500000003],[-66.1521876,-17.378536],[-66.1521745,-17.378571400000002],[-66.15217170000001,-17.378594600000003],[-66.1521987,-17.3790121],[-66.1522041,-17.379136000000003],[-66.15220160000001,-17.3791936],[-66.152196,-17.379246600000002],[-66.1521831,-17.3793009],[-66.1521786,-17.3793188],[-66.15208550000001,-17.379685300000002],[-66.1520795,-17.379733100000003],[-66.1520888,-17.3798099],[-66.1521204,-17.3798676],[-66.15215450000001,-17.3799229],[-66.1521707,-17.3799853],[-66.1521677,-17.3800494],[-66.1521458,-17.3801102],[-66.1520931,-17.3801673],[-66.15205830000001,-17.3802363],[-66.15202950000001,-17.3803711],[-66.15200820000001,-17.380641],[-66.15199000000001,-17.3809334],[-66.1519803,-17.381014],[-66.1519205,-17.3815379],[-66.15191730000001,-17.381575700000003],[-66.1519287,-17.3816306],[-66.15194910000001,-17.3816773],[-66.1520457,-17.3817187],[-66.1521335,-17.3817752],[-66.1522101,-17.3818449],[-66.1522733,-17.381926],[-66.15228350000001,-17.3819453],[-66.1523209,-17.382016200000002],[-66.1523387,-17.3820841],[-66.15234980000001,-17.382163000000002],[-66.15234960000001,-17.382227500000003],[-66.1523415,-17.382301000000002],[-66.1523193,-17.3823884],[-66.1522786,-17.3824727],[-66.1522248,-17.382550100000003],[-66.15215930000001,-17.382618700000002],[-66.15208340000001,-17.3826766],[-66.1521378,-17.3827606],[-66.1521573,-17.3827907],[-66.1526343,-17.3835267],[-66.15267220000001,-17.383585200000002],[-66.15271530000001,-17.383650600000003],[-66.1530632,-17.3841788],[-66.1531075,-17.384246],[-66.1531824,-17.384231800000002],[-66.1532765,-17.384242200000003],[-66.15337070000001,-17.384286200000002],[-66.1534455,-17.3843481],[-66.15346890000001,-17.3843761],[-66.15350690000001,-17.384421800000002],[-66.15353850000001,-17.384482600000002],[-66.1535666,-17.3845642],[-66.15358260000001,-17.384625500000002],[-66.1535886,-17.3846716],[-66.15358900000001,-17.384732600000003],[-66.15358330000001,-17.384770800000002],[-66.15356410000001,-17.3848154],[-66.15354380000001,-17.3848443],[-66.15351270000001,-17.3848629],[-66.1534615,-17.384878500000003],[-66.15340300000001,-17.3848813],[-66.1533418,-17.384868800000003],[-66.1532854,-17.3848473],[-66.153238,-17.384821600000002],[-66.1531989,-17.384867],[-66.1531592,-17.3849164],[-66.15310600000001,-17.384985200000003],[-66.1527849,-17.385410800000002],[-66.15242880000001,-17.385884100000002],[-66.1522381,-17.386161],[-66.1521946,-17.386214900000002],[-66.1521465,-17.386272100000003],[-66.15207930000001,-17.3863479],[-66.1519887,-17.3867982],[-66.1518808,-17.3873561],[-66.151781,-17.387868700000002],[-66.15177080000001,-17.3879252],[-66.15175880000001,-17.3879999],[-66.1516101,-17.388925],[-66.151604,-17.3889628],[-66.1515995,-17.3889879],[-66.15159220000001,-17.389029100000002],[-66.1514143,-17.390025],[-66.1512469,-17.3911242],[-66.1512362,-17.391181200000002],[-66.1512194,-17.3912742],[-66.15121040000001,-17.391324800000003],[-66.1511296,-17.3917295],[-66.15103830000001,-17.3921922],[-66.15102800000001,-17.3922446],[-66.1510205,-17.3922844],[-66.1508421,-17.393226900000002],[-66.150834,-17.3932743],[-66.15082220000001,-17.3933342],[-66.15065460000001,-17.3943283],[-66.15044230000001,-17.3953552],[-66.1503862,-17.395644100000002],[-66.15023620000001,-17.396417500000002],[-66.1513099,-17.396614800000002],[-66.15189640000001,-17.396722],[-66.1524397,-17.396804000000003],[-66.1535317,-17.397006],[-66.15457980000001,-17.3971915],[-66.1546495,-17.397201000000003],[-66.1556929,-17.3973663],[-66.15678000000001,-17.3975624],[-66.15657990000001,-17.398655100000003],[-66.1564374,-17.399488700000003],[-66.1564225,-17.399578100000003],[-66.1561989,-17.4007931],[-66.1561157,-17.4013136],[-66.15594820000001,-17.4021963],[-66.1566669,-17.4022092],[-66.1567358,-17.4008781],[-66.15739280000001,-17.400973800000003],[-66.1574786,-17.400986300000003],[-66.1575885,-17.401002300000002],[-66.15757520000001,-17.401153700000002],[-66.157522,-17.4015753],[-66.1574818,-17.4020121],[-66.1574693,-17.4021498],[-66.1574602,-17.4022501],[-66.1574143,-17.4026402],[-66.15738040000001,-17.402927400000003],[-66.15730570000001,-17.403430800000002],[-66.1571981,-17.4039846],[-66.1571744,-17.4040293],[-66.15714940000001,-17.404081100000003],[-66.15697510000001,-17.4051438],[-66.156929,-17.4053964],[-66.15671490000001,-17.4065683],[-66.15667520000001,-17.4068311],[-66.1566081,-17.407373500000002],[-66.1565791,-17.4075962],[-66.1565643,-17.407672],[-66.15655220000001,-17.4077489],[-66.1563919,-17.408892],[-66.1562995,-17.4093093],[-66.1562526,-17.409537],[-66.1561494,-17.4101159],[-66.15610310000001,-17.410408800000003],[-66.1560788,-17.4106525],[-66.15603870000001,-17.411008600000002],[-66.1563064,-17.411838900000003],[-66.15636760000001,-17.412081200000003],[-66.15639820000001,-17.412262000000002],[-66.1564103,-17.412422900000003],[-66.15651580000001,-17.413048200000002],[-66.1565199,-17.413072200000002],[-66.1566585,-17.4138321],[-66.156664,-17.413863900000003],[-66.15678890000001,-17.4145922],[-66.15682930000001,-17.4147082],[-66.1569922,-17.4155388],[-66.15700910000001,-17.415626900000003],[-66.1570227,-17.415709600000003],[-66.15719700000001,-17.4165706],[-66.157207,-17.4166281],[-66.1572232,-17.416710700000003],[-66.1573721,-17.4176234],[-66.15754650000001,-17.4187052],[-66.1576093,-17.4191214],[-66.157644,-17.4193561],[-66.15768030000001,-17.419601],[-66.1576838,-17.419624900000002],[-66.15769390000001,-17.4196932],[-66.1577032,-17.4197518],[-66.1577297,-17.4199188],[-66.15777030000001,-17.420174600000003],[-66.15777890000001,-17.4202297],[-66.15781700000001,-17.420468300000003],[-66.15782060000001,-17.420491000000002],[-66.1578264,-17.420528],[-66.15788470000001,-17.4209201],[-66.15792160000001,-17.4211652],[-66.1580254,-17.421770900000002],[-66.1580356,-17.421839300000002],[-66.15816570000001,-17.422669600000003],[-66.15818300000001,-17.4227871],[-66.1582975,-17.4235739],[-66.1584775,-17.4245309],[-66.15872780000001,-17.4257287],[-66.15874480000001,-17.425796400000003],[-66.1590776,-17.4269849],[-66.15922520000001,-17.4275176],[-66.1593308,-17.427875500000003],[-66.15947,-17.428345500000002],[-66.15974840000001,-17.429348500000003],[-66.15977240000001,-17.4294201],[-66.16023120000001,-17.4309823],[-66.1602842,-17.4311843],[-66.1606818,-17.432574900000002],[-66.16093500000001,-17.4334016],[-66.1614655,-17.433316100000003],[-66.162014,-17.433229],[-66.1621046,-17.433230400000003],[-66.16208970000001,-17.4337883],[-66.1621339,-17.433873400000003],[-66.1621889,-17.4339239],[-66.1622696,-17.4339543],[-66.16235950000001,-17.433951500000003],[-66.1626028,-17.4339358],[-66.16269940000001,-17.4339389],[-66.1628223,-17.4339547],[-66.1630954,-17.434016900000003],[-66.1635937,-17.434141200000003],[-66.16404250000001,-17.434238],[-66.16414230000001,-17.434246700000003],[-66.16419760000001,-17.434247300000003],[-66.16422100000001,-17.434242400000002],[-66.16426030000001,-17.4342341],[-66.1643334,-17.4341969],[-66.1643975,-17.4341554],[-66.16486660000001,-17.433760300000003],[-66.165907,-17.4328606],[-66.16631860000001,-17.432513500000002],[-66.1669019,-17.4320129],[-66.1672971,-17.4316713],[-66.1676989,-17.431317800000002],[-66.16833910000001,-17.430764500000002],[-66.16938090000001,-17.4298554],[-66.16988070000001,-17.4294279],[-66.1718673,-17.4277172],[-66.1728022,-17.4269043],[-66.1748427,-17.4251468],[-66.1749228,-17.425077],[-66.1749994,-17.4250444],[-66.17509100000001,-17.425032400000003],[-66.1751591,-17.4250486],[-66.17523,-17.425075500000002],[-66.17531410000001,-17.425120600000003],[-66.1754061,-17.425183],[-66.1765366,-17.4261091],[-66.17672250000001,-17.426250300000003],[-66.17715310000001,-17.426590700000002],[-66.17741380000001,-17.4268088],[-66.1775034,-17.426877700000002],[-66.1779983,-17.427258600000002],[-66.1785188,-17.4276604],[-66.1793057,-17.428267100000003],[-66.1793378,-17.4282918],[-66.1794998,-17.428416700000003],[-66.1795443,-17.4284511],[-66.1795816,-17.4284798],[-66.17964520000001,-17.4285289],[-66.1806854,-17.429330800000002],[-66.18123650000001,-17.4297754],[-66.1816613,-17.4301098],[-66.1823962,-17.4306896],[-66.1830778,-17.4312213],[-66.1832083,-17.4313617],[-66.18332980000001,-17.431443700000003],[-66.183447,-17.431505],[-66.183554,-17.431554600000002],[-66.18370990000001,-17.4316177],[-66.18395240000001,-17.4316831],[-66.183986,-17.431691100000002],[-66.18411520000001,-17.431717600000002],[-66.18424970000001,-17.431734600000002],[-66.18448020000001,-17.4317472],[-66.1845854,-17.431735800000002],[-66.185084,-17.4316818],[-66.1852375,-17.4316864],[-66.18550130000001,-17.4317272],[-66.1856745,-17.431762900000003],[-66.18651790000001,-17.4319366],[-66.18891430000001,-17.4324243],[-66.19029130000001,-17.4327076],[-66.19071050000001,-17.432804200000003],[-66.19174960000001,-17.4330076],[-66.19266680000001,-17.433190500000002],[-66.192711,-17.4332004],[-66.1934258,-17.434267700000003],[-66.1936924,-17.4346718],[-66.1937824,-17.4348111],[-66.1941061,-17.4353121],[-66.1946642,-17.436170200000003],[-66.1957368,-17.437794],[-66.1960004,-17.4381798],[-66.1961823,-17.438481200000002],[-66.19636170000001,-17.438955800000002],[-66.1965313,-17.4394011],[-66.19690680000001,-17.440387400000002],[-66.1969545,-17.4405128],[-66.1975647,-17.4419843],[-66.19805880000001,-17.4431854],[-66.198116,-17.443350900000002],[-66.19825060000001,-17.4436605],[-66.1985976,-17.444524400000002],[-66.198632,-17.444607700000002],[-66.1988378,-17.4451062],[-66.19891670000001,-17.4452973],[-66.19898140000001,-17.4454539],[-66.1990229,-17.445554400000002],[-66.1990557,-17.4456339],[-66.19937800000001,-17.4464143],[-66.19943040000001,-17.446541200000002],[-66.1996682,-17.4471171],[-66.1997747,-17.447375100000002],[-66.1998147,-17.447469],[-66.19997640000001,-17.4478486],[-66.2003052,-17.4485919],[-66.20103560000001,-17.450312200000003],[-66.20113640000001,-17.4506018],[-66.2011849,-17.4508264],[-66.2012526,-17.4511708],[-66.20129440000001,-17.4516081],[-66.20135540000001,-17.4520468],[-66.20150290000001,-17.4529983],[-66.20165870000001,-17.4539514],[-66.20172210000001,-17.4542089],[-66.2017926,-17.4544742],[-66.20192370000001,-17.4549677],[-66.202166,-17.456426800000003],[-66.20227580000001,-17.4569797],[-66.2024305,-17.4575432],[-66.20249240000001,-17.4578427],[-66.20248450000001,-17.458028900000002],[-66.20245770000001,-17.458200700000003],[-66.20238930000001,-17.458367600000003],[-66.20227150000001,-17.458684700000003],[-66.2021802,-17.458939100000002],[-66.20210490000001,-17.459213700000003],[-66.2020634,-17.4594823],[-66.2020353,-17.459736900000003],[-66.2020183,-17.460149100000002],[-66.2020171,-17.460350400000003],[-66.2020011,-17.4605451],[-66.2019645,-17.460743],[-66.2018484,-17.461388900000003],[-66.2016943,-17.462534],[-66.201677,-17.462678800000003],[-66.2016143,-17.4632109],[-66.20151840000001,-17.4639296],[-66.20148400000001,-17.464082700000002],[-66.20154360000001,-17.464183100000003],[-66.2016294,-17.464262100000003],[-66.2017383,-17.464334400000002],[-66.2019563,-17.464505000000003],[-66.2020945,-17.464654300000003],[-66.20214270000001,-17.4647189],[-66.20243760000001,-17.465191800000003],[-66.2026058,-17.4654418],[-66.2027005,-17.465600700000003],[-66.20278900000001,-17.465764800000002],[-66.20288550000001,-17.465919200000002],[-66.2029639,-17.4660304],[-66.2031712,-17.466299600000003],[-66.2032985,-17.466453700000002],[-66.2034046,-17.4665749],[-66.20352340000001,-17.4666441],[-66.20375220000001,-17.4667792],[-66.2041772,-17.4669887],[-66.20437860000001,-17.467121900000002],[-66.20449930000001,-17.467197300000002],[-66.20462780000001,-17.4672197],[-66.2048475,-17.467237],[-66.20517410000001,-17.4672866],[-66.2055378,-17.4673534],[-66.2059832,-17.467408300000002],[-66.2064328,-17.467456000000002],[-66.20707030000001,-17.467495000000003],[-66.20713090000001,-17.467538],[-66.2071198,-17.4680772],[-66.2070815,-17.46828],[-66.20687310000001,-17.4681815],[-66.2068619,-17.4682351],[-66.20694490000001,-17.4682663],[-66.20708610000001,-17.4683418],[-66.20724240000001,-17.4684135],[-66.2075059,-17.4685339],[-66.20762110000001,-17.468609400000002],[-66.2077273,-17.4686744],[-66.20785430000001,-17.4687312],[-66.2079848,-17.468790000000002],[-66.2079794,-17.468850500000002],[-66.20796650000001,-17.4694812],[-66.20794360000001,-17.469877200000003],[-66.20793490000001,-17.4702191],[-66.20795120000001,-17.470296100000002],[-66.2080212,-17.4704583],[-66.20777650000001,-17.4705173],[-66.20770080000001,-17.470522000000003],[-66.20765850000001,-17.4706303],[-66.2076164,-17.4707545],[-66.2075964,-17.470874900000002],[-66.2075964,-17.470938],[-66.2076024,-17.471022100000003],[-66.2076624,-17.471170500000003],[-66.20773960000001,-17.4714373],[-66.2077749,-17.4715661],[-66.2077909,-17.4716586],[-66.2077873,-17.471711900000003],[-66.2077703,-17.4717558],[-66.20784160000001,-17.4719099],[-66.2079839,-17.4722234],[-66.20820420000001,-17.4726977],[-66.2084191,-17.473164500000003],[-66.2085292,-17.473105800000003],[-66.20868510000001,-17.4730309],[-66.2091347,-17.4728369]]}}}]}