{"type":"FeatureCollection","features":[{"type":"Feature","properties":{"from":"Plaza de Sacaba","name":"Trufi 230: Plaza de Sacaba → Calle Grover Suarez","network":"BO:CB:Cochabamba","on_demand":"yes","operator":"Sindicato mixto de auto transporte Sacaba","public_transport:version":"2","ref":"230","route":"bus","to":"Calle Grover Suarez","type":"route","wheelchair":"no","id":9377784},"geometry":{"type":"LineString","coordinates":[[-66.0400601,-17.404349],[-66.04002720000001,-17.404229],[-66.0397952,-17.403774700000003],[-66.0397593,-17.4037103],[-66.03973810000001,-17.403683700000002],[-66.0393616,-17.402984500000002],[-66.03895700000001,-17.4021931],[-66.0388808,-17.4021592],[-66.03852970000001,-17.4015115],[-66.03802320000001,-17.400521100000002],[-66.03800670000001,-17.400524700000002],[-66.0379707,-17.4005206],[-66.0379279,-17.400501400000003],[-66.0379118,-17.400474000000003],[-66.03786190000001,-17.4003775],[-66.03805750000001,-17.4002984],[-66.03815560000001,-17.400261],[-66.03867670000001,-17.400064500000003],[-66.0388896,-17.399994300000003],[-66.0389868,-17.399962300000002],[-66.0394716,-17.3998278],[-66.039996,-17.399709400000003],[-66.0402584,-17.399668700000003],[-66.04062180000001,-17.399618],[-66.04097130000001,-17.399585700000003],[-66.0415375,-17.399568300000002],[-66.0425251,-17.399573200000003],[-66.042997,-17.3995776],[-66.04346460000001,-17.3995827],[-66.04354190000001,-17.399583500000002],[-66.0437412,-17.399585300000002],[-66.04564160000001,-17.399601800000003],[-66.04736650000001,-17.3996329],[-66.04788040000001,-17.3996394],[-66.04791820000001,-17.3996375],[-66.04815070000001,-17.399614000000003],[-66.0484055,-17.3996013],[-66.0486844,-17.399605400000002],[-66.0488449,-17.399607800000002],[-66.04904900000001,-17.3996089],[-66.0494817,-17.3996113],[-66.049524,-17.399611500000002],[-66.0495724,-17.399607800000002],[-66.0498642,-17.399587200000003],[-66.0504956,-17.399515700000002],[-66.0506926,-17.399486600000003],[-66.0509268,-17.3994266],[-66.05099720000001,-17.3994086],[-66.05111400000001,-17.399368600000003],[-66.05142310000001,-17.3992627],[-66.0519831,-17.399083800000003],[-66.0522284,-17.398982800000002],[-66.05228360000001,-17.3989601],[-66.05249420000001,-17.3988559],[-66.0527431,-17.398712600000003],[-66.0529757,-17.398569000000002],[-66.05350580000001,-17.3982424],[-66.0535801,-17.3981971],[-66.05365160000001,-17.3981576],[-66.0538193,-17.3980554],[-66.0545955,-17.3975864],[-66.05471490000001,-17.3975095],[-66.0551652,-17.3972358],[-66.0555916,-17.3969644],[-66.05585830000001,-17.396807300000003],[-66.05612140000001,-17.3966236],[-66.0567891,-17.3961979],[-66.0574423,-17.3958313],[-66.0578983,-17.3955959],[-66.05806190000001,-17.3954986],[-66.0591133,-17.394848500000002],[-66.0593894,-17.3946958],[-66.0595624,-17.394588900000002],[-66.05990990000001,-17.394375],[-66.0603828,-17.3941032],[-66.0607787,-17.3939093],[-66.0611288,-17.393716400000002],[-66.0613148,-17.393627700000003],[-66.0615427,-17.393538900000003],[-66.06192250000001,-17.3934356],[-66.0619582,-17.393426100000003],[-66.06201730000001,-17.393410000000003],[-66.062589,-17.393270400000002],[-66.0626431,-17.3932594],[-66.06272890000001,-17.393242],[-66.0632059,-17.3931451],[-66.0634217,-17.3930969],[-66.06371370000001,-17.3930577],[-66.0640936,-17.393037300000003],[-66.06457560000001,-17.3929437],[-66.0652275,-17.392802900000003],[-66.06564490000001,-17.392717700000002],[-66.06596760000001,-17.3926534],[-66.06670510000001,-17.392506400000002],[-66.06742630000001,-17.392358700000003],[-66.06746770000001,-17.392350200000003],[-66.0679532,-17.392254400000002],[-66.0681979,-17.392203600000002],[-66.0688071,-17.3920704],[-66.0691034,-17.392007300000003],[-66.06941950000001,-17.3919399],[-66.07015670000001,-17.391785600000002],[-66.07104480000001,-17.391616300000003],[-66.07223610000001,-17.391378800000002],[-66.0737974,-17.391044400000002],[-66.07388470000001,-17.391027100000002],[-66.0741326,-17.390971200000003],[-66.0746708,-17.390814900000002],[-66.074837,-17.3907698],[-66.07508650000001,-17.390726],[-66.0754156,-17.390659600000003],[-66.0754825,-17.3906461],[-66.0755826,-17.3906245],[-66.07579820000001,-17.3905782],[-66.0758646,-17.3905643],[-66.07653300000001,-17.3904238],[-66.0768302,-17.390376900000003],[-66.07707070000001,-17.390353100000002],[-66.0772479,-17.390335500000003],[-66.07741770000001,-17.3903076],[-66.0780455,-17.390183200000003],[-66.0802003,-17.389731400000002],[-66.0803046,-17.389714700000003],[-66.0820898,-17.389341400000003],[-66.08236070000001,-17.3892907],[-66.08305220000001,-17.389156500000002],[-66.0833489,-17.389095400000002],[-66.0837257,-17.3889837],[-66.08402690000001,-17.388896000000003],[-66.08415330000001,-17.388866500000002],[-66.0844998,-17.3888],[-66.0846441,-17.388772300000003],[-66.0847114,-17.3887594],[-66.0848268,-17.3887348],[-66.08503560000001,-17.388690200000003],[-66.08513690000001,-17.3886678],[-66.08523960000001,-17.3886451],[-66.0857666,-17.388528700000002],[-66.0860536,-17.3884849],[-66.08659390000001,-17.388426900000002],[-66.0871412,-17.3883204],[-66.0872698,-17.388294000000002],[-66.0903304,-17.387665700000003],[-66.0935805,-17.387006500000002],[-66.09477770000001,-17.3867611],[-66.0956062,-17.3865942],[-66.09572680000001,-17.3865699],[-66.0959866,-17.3865176],[-66.0964055,-17.386431],[-66.09672780000001,-17.386354400000002],[-66.0971243,-17.3862373],[-66.09756130000001,-17.3861427],[-66.0979755,-17.3860531],[-66.0982907,-17.3859849],[-66.09884170000001,-17.385865600000002],[-66.0992957,-17.385774100000003],[-66.09953420000001,-17.385747400000003],[-66.0998677,-17.385717000000003],[-66.1007361,-17.3855545],[-66.1012826,-17.3854502],[-66.101487,-17.3854052],[-66.1016661,-17.3853729],[-66.1020273,-17.3852949],[-66.1034053,-17.3849957],[-66.1047381,-17.3847303],[-66.10558110000001,-17.384561],[-66.1068161,-17.3843111],[-66.1083892,-17.3840101],[-66.10887290000001,-17.383911],[-66.10913260000001,-17.3838559],[-66.1093003,-17.3838204],[-66.1097063,-17.383739100000003],[-66.1101186,-17.3836571],[-66.11055420000001,-17.3835704],[-66.1116279,-17.383347],[-66.1126926,-17.3831087],[-66.11373660000001,-17.382891800000003],[-66.11474120000001,-17.3826937],[-66.11609370000001,-17.3824299],[-66.1166355,-17.3823204],[-66.1167504,-17.3822972],[-66.1172233,-17.382195000000003],[-66.1178158,-17.3820392],[-66.11826740000001,-17.3819014],[-66.1185475,-17.381807000000002],[-66.1187728,-17.381719800000003],[-66.11928180000001,-17.381503600000002],[-66.11950370000001,-17.381410000000002],[-66.11999700000001,-17.381166800000003],[-66.12026010000001,-17.3810155],[-66.1208017,-17.380671500000002],[-66.1208417,-17.3806461],[-66.12168240000001,-17.3800861],[-66.12176980000001,-17.3800293],[-66.1218317,-17.379987800000002],[-66.1221658,-17.3797745],[-66.12243050000001,-17.3795986],[-66.1224694,-17.3795763],[-66.122742,-17.379389900000003],[-66.12360930000001,-17.378817400000003],[-66.12421330000001,-17.3784409],[-66.12471000000001,-17.3781074],[-66.12535980000001,-17.3776556],[-66.1257746,-17.377356000000002],[-66.12695810000001,-17.3765211],[-66.12702440000001,-17.376476],[-66.1271995,-17.3763545],[-66.1275504,-17.376112600000003],[-66.1279626,-17.3758313],[-66.1281352,-17.37571],[-66.1282882,-17.3756033],[-66.12881490000001,-17.3752302],[-66.1288741,-17.375188],[-66.12893100000001,-17.3751503],[-66.1289543,-17.3751348],[-66.12898410000001,-17.3751153],[-66.12898700000001,-17.375058600000003],[-66.1289921,-17.375002000000002],[-66.12898820000001,-17.3749174],[-66.12898270000001,-17.3748705],[-66.1289651,-17.3747618],[-66.12896330000001,-17.374751],[-66.1288784,-17.3742397],[-66.1288174,-17.3737855],[-66.1288109,-17.3737372],[-66.1287959,-17.373602100000003],[-66.12879240000001,-17.3735624],[-66.1287806,-17.373469],[-66.1288718,-17.373455900000003],[-66.1289804,-17.373427200000002],[-66.1290673,-17.3733898],[-66.1291753,-17.3733341],[-66.1293134,-17.3732714],[-66.12945570000001,-17.373222300000002],[-66.1295565,-17.3732012],[-66.129686,-17.3731739],[-66.1298501,-17.3731449],[-66.13031790000001,-17.3731127],[-66.1306023,-17.3730894],[-66.1307793,-17.373061],[-66.1309291,-17.3730212],[-66.1310179,-17.3729845],[-66.13148120000001,-17.3727838],[-66.13161930000001,-17.3727343],[-66.1318136,-17.372661200000003],[-66.13190850000001,-17.372646000000003],[-66.1329231,-17.372357100000002],[-66.13303040000001,-17.37233],[-66.13316590000001,-17.372312800000003],[-66.13329250000001,-17.3723089],[-66.13337720000001,-17.3723184],[-66.1335092,-17.3723479],[-66.13369150000001,-17.3723819],[-66.13412070000001,-17.3724619],[-66.13417390000001,-17.372471800000003],[-66.1342413,-17.3724859],[-66.1347484,-17.3725916],[-66.1350955,-17.3726555],[-66.13516150000001,-17.3726676],[-66.13521610000001,-17.3726819],[-66.1355236,-17.372736000000003],[-66.13569360000001,-17.372760600000003],[-66.1358009,-17.372762400000003],[-66.1358677,-17.372760300000003],[-66.13597130000001,-17.372756000000003],[-66.13607130000001,-17.372746300000003],[-66.13613020000001,-17.3727406],[-66.1362225,-17.372731700000003],[-66.1364442,-17.372705800000002],[-66.1365705,-17.372684500000002],[-66.13661850000001,-17.372672100000003],[-66.13668650000001,-17.372653800000002],[-66.1367319,-17.3726376],[-66.1367986,-17.3727325],[-66.1368269,-17.372781500000002],[-66.1368693,-17.3728583],[-66.13689480000001,-17.372917400000002],[-66.13690600000001,-17.3729586],[-66.1369073,-17.373002900000003],[-66.136881,-17.3732055],[-66.13684,-17.373471900000002],[-66.1368439,-17.373554400000003],[-66.13687420000001,-17.373674],[-66.1369629,-17.3739679],[-66.136975,-17.373977500000002],[-66.13702590000001,-17.373966900000003],[-66.13707670000001,-17.3739665],[-66.1371628,-17.3739898],[-66.13726190000001,-17.3740157],[-66.1373665,-17.3740291],[-66.1377544,-17.3740075],[-66.1379938,-17.3739923],[-66.13803100000001,-17.373989700000003],[-66.13806550000001,-17.373987300000003],[-66.13879820000001,-17.373941700000003],[-66.13884030000001,-17.373938900000002],[-66.13967260000001,-17.3738852],[-66.13977150000001,-17.3738792],[-66.1405964,-17.373829500000003],[-66.14160030000001,-17.373772000000002],[-66.1422624,-17.373734600000002],[-66.1423298,-17.373722200000003],[-66.1424276,-17.3736928],[-66.1424961,-17.3736651],[-66.1426187,-17.3736122],[-66.14265400000001,-17.3735557],[-66.1426742,-17.373532200000003],[-66.1427001,-17.3735067],[-66.1427463,-17.373472500000002],[-66.14279780000001,-17.373446100000002],[-66.1428532,-17.373428],[-66.14290650000001,-17.373419300000002],[-66.14296060000001,-17.373418400000002],[-66.1430141,-17.3734253],[-66.143066,-17.3734399],[-66.1431441,-17.373479500000002],[-66.14320950000001,-17.3735363],[-66.14325810000001,-17.3736067],[-66.1433648,-17.3736706],[-66.1434091,-17.3736789],[-66.143743,-17.373666],[-66.14381540000001,-17.3736615],[-66.1443457,-17.3736292],[-66.1445029,-17.3736196],[-66.1445734,-17.373616300000002],[-66.1446097,-17.3736146],[-66.14564530000001,-17.373547400000003],[-66.14585340000001,-17.3735342],[-66.1459105,-17.3735302],[-66.1466176,-17.3734812],[-66.1467391,-17.3734727],[-66.1468978,-17.3734617],[-66.14704470000001,-17.3734515],[-66.14716,-17.3734435],[-66.1477354,-17.373403600000003],[-66.1485729,-17.3733532],[-66.1491709,-17.3733174],[-66.1493762,-17.373305900000002],[-66.1494179,-17.3732966],[-66.14946540000001,-17.3732778],[-66.14948290000001,-17.373254000000003],[-66.1495055,-17.3732341],[-66.14952910000001,-17.3732207],[-66.1495551,-17.3732119],[-66.1495828,-17.3732079],[-66.14961690000001,-17.373210200000003],[-66.14965000000001,-17.3732204],[-66.1496795,-17.373237900000003],[-66.14970310000001,-17.3732611],[-66.1497561,-17.3732748],[-66.1497987,-17.3732787],[-66.1505133,-17.3732341],[-66.15095480000001,-17.373206600000003],[-66.1510593,-17.3732],[-66.15117380000001,-17.373193],[-66.15120830000001,-17.3731909],[-66.15144260000001,-17.3731741],[-66.1524613,-17.373111],[-66.15341910000001,-17.3730516],[-66.1535724,-17.373042100000003],[-66.1536725,-17.3730353],[-66.1537516,-17.373029900000002],[-66.15377450000001,-17.373028400000003],[-66.15462020000001,-17.372979200000003],[-66.1546879,-17.3729757],[-66.1547572,-17.3729707],[-66.15479110000001,-17.3729683],[-66.1564764,-17.3728483],[-66.156552,-17.3728389],[-66.15656940000001,-17.3727842],[-66.1565973,-17.3727336],[-66.15663470000001,-17.3726889],[-66.15668020000001,-17.372651700000002],[-66.15673220000001,-17.372623200000003],[-66.1567699,-17.3726096],[-66.15680920000001,-17.372600600000002],[-66.1568493,-17.3725972],[-66.1569111,-17.372604300000003],[-66.15697030000001,-17.372622900000003],[-66.15702440000001,-17.372652300000002],[-66.1570714,-17.372691300000003],[-66.15710940000001,-17.372738400000003],[-66.1571284,-17.3727719],[-66.1571777,-17.372797000000002],[-66.15724,-17.372803],[-66.158928,-17.372691300000003],[-66.15898530000001,-17.372688200000002],[-66.15907010000001,-17.372683400000003],[-66.1591482,-17.372678800000003],[-66.1592834,-17.372671],[-66.159475,-17.3726595],[-66.1597268,-17.3726458],[-66.1604978,-17.3725945],[-66.16058120000001,-17.3725908],[-66.16078270000001,-17.372576300000002],[-66.16079300000001,-17.3725756],[-66.1608853,-17.372569900000002],[-66.16104220000001,-17.3725601],[-66.16166670000001,-17.372521300000002],[-66.1625305,-17.372462000000002],[-66.1626071,-17.3724567],[-66.16272430000001,-17.372448600000002],[-66.16280760000001,-17.372444400000003],[-66.16281930000001,-17.3724437],[-66.1629565,-17.3724339],[-66.16368630000001,-17.3723902],[-66.16377960000001,-17.372384],[-66.1638592,-17.372380600000003],[-66.16504470000001,-17.372305],[-66.1659248,-17.37225],[-66.16601080000001,-17.372244000000002],[-66.1667106,-17.372195400000003],[-66.16762510000001,-17.372139800000003],[-66.1682109,-17.3720994],[-66.1682737,-17.3720962],[-66.16828840000001,-17.3720694],[-66.16830820000001,-17.372048200000002],[-66.16834270000001,-17.3720274],[-66.1683728,-17.3720193],[-66.16840400000001,-17.3720184],[-66.1684443,-17.3720287],[-66.16846190000001,-17.372038],[-66.1684843,-17.372056200000003],[-66.16850400000001,-17.3720828],[-66.16857750000001,-17.3720773],[-66.1690899,-17.3720399],[-66.1693731,-17.3720204],[-66.169897,-17.3719842],[-66.17065840000001,-17.3719374],[-66.1712894,-17.3718971],[-66.1717893,-17.3718609],[-66.17188970000001,-17.371842700000002],[-66.1719161,-17.3718232],[-66.17196290000001,-17.371807500000003],[-66.1720118,-17.371799300000003],[-66.1720614,-17.3717986],[-66.1721105,-17.371805600000002],[-66.1721498,-17.3718258],[-66.17220130000001,-17.371835],[-66.17224300000001,-17.3718393],[-66.1727697,-17.371804800000003],[-66.17286610000001,-17.3717995],[-66.1729274,-17.3717958],[-66.17311760000001,-17.3717843],[-66.17329360000001,-17.371774000000002],[-66.1735962,-17.3717572],[-66.1742529,-17.371712900000002],[-66.1749163,-17.3716633],[-66.17527840000001,-17.3716402],[-66.175621,-17.3716183],[-66.1756587,-17.3716161],[-66.1756964,-17.3716139],[-66.17575400000001,-17.3716106],[-66.17580530000001,-17.3716076],[-66.1758748,-17.371603500000003],[-66.1761305,-17.371589],[-66.1769981,-17.371539900000002],[-66.1776914,-17.371491000000002],[-66.17825930000001,-17.3714556],[-66.17935510000001,-17.3713824],[-66.1794548,-17.3713757],[-66.17987210000001,-17.371347800000002],[-66.18018640000001,-17.371328600000002],[-66.1802059,-17.3714388],[-66.1802189,-17.371512000000003],[-66.18046500000001,-17.3726425],[-66.18056680000001,-17.3731104],[-66.18078890000001,-17.3740425],[-66.1808381,-17.3742649],[-66.1808548,-17.374359700000003],[-66.18089140000001,-17.3745274],[-66.18090210000001,-17.374616500000002],[-66.1810339,-17.3759936],[-66.1811105,-17.3767362],[-66.18121520000001,-17.377316],[-66.18122960000001,-17.3773988],[-66.18125380000001,-17.3775292],[-66.1813535,-17.378086200000002],[-66.18148310000001,-17.3787442],[-66.1814949,-17.3788126],[-66.1815031,-17.378862400000003],[-66.18159530000001,-17.379831000000003],[-66.1816002,-17.3799083],[-66.181669,-17.380587000000002],[-66.1816754,-17.3806531],[-66.1816807,-17.3807106],[-66.18172340000001,-17.381140400000003],[-66.18176940000001,-17.3816041],[-66.18179540000001,-17.3819014],[-66.1818556,-17.3826475],[-66.1818793,-17.382832800000003],[-66.1818904,-17.382915800000003],[-66.18190770000001,-17.383102800000003],[-66.18192160000001,-17.3832042],[-66.18193600000001,-17.3833097],[-66.1820084,-17.3838393],[-66.1821846,-17.3851078],[-66.18219500000001,-17.385180700000003],[-66.18234260000001,-17.386328900000002],[-66.1824102,-17.386875200000002],[-66.18240630000001,-17.387101700000002],[-66.18240970000001,-17.387167400000003],[-66.1824069,-17.387429],[-66.18242020000001,-17.387517300000003],[-66.18242790000001,-17.387549200000002],[-66.18252580000001,-17.387829200000002],[-66.182806,-17.3886456],[-66.1828203,-17.388687100000002],[-66.1831317,-17.389616],[-66.1831757,-17.3897559],[-66.1832318,-17.3899344],[-66.1832967,-17.390141200000002],[-66.1834458,-17.390595700000002],[-66.18354240000001,-17.391022300000003],[-66.1835496,-17.3910528],[-66.183673,-17.391414800000003],[-66.18394570000001,-17.392211300000003],[-66.1842405,-17.393064900000002],[-66.1844337,-17.3937825],[-66.18462740000001,-17.3943984],[-66.1847762,-17.3949065],[-66.1849117,-17.395273900000003],[-66.18503530000001,-17.3954756],[-66.1851627,-17.395847200000002],[-66.1851785,-17.3958929],[-66.1852226,-17.395998600000002],[-66.1852662,-17.3960699],[-66.185291,-17.396089200000002],[-66.18531200000001,-17.396113000000003],[-66.18532800000001,-17.396140000000003],[-66.18533860000001,-17.3961694],[-66.1853432,-17.396200200000003],[-66.1853627,-17.396300800000002],[-66.18537180000001,-17.396356],[-66.18555880000001,-17.3969272],[-66.1856707,-17.397269100000003],[-66.1857882,-17.397620500000002],[-66.18583860000001,-17.3977711],[-66.18585510000001,-17.3978204],[-66.18592410000001,-17.397807200000003],[-66.18715560000001,-17.397706200000002],[-66.187216,-17.397719900000002]],"nodes":[1544967488,3943965736,3943965737,4265533947,1544967267,1544966991,1544966538,1544966515,1544966265,4308310795,6133430606,6133430607,6133430609,1544965877,6133430589,6133430618,11071726054,6133430590,6133430588,6133430591,6133430592,6133430593,6133430594,6133430595,6133430596,6133430586,8189128454,12512646893,12512656301,3917324685,6913320854,6133430597,6133430598,6133430585,12512863046,497147700,3839744316,12512656458,1544965631,12512808673,12512863072,1544965625,12512863073,497147705,3839755178,497147712,11081223539,1544965517,12512862902,4067009931,497147725,12512862991,3839755183,497147728,12512656396,3839755190,6301185915,1545731175,5276246606,497147731,497147734,3764806757,5158314412,2320095710,497147737,7352860819,2320095709,497147741,3764806636,2320095703,2320095698,4267227991,4267227990,497147744,2320095683,1721557143,8303818078,497147747,497147749,12529856291,8303818131,1551434932,497147762,12529856286,8303818079,4267227781,497147765,497147768,497147773,2320095667,2320095661,2894872170,7243278751,1609341587,11069359136,1609342101,2894872156,2320007441,4224951058,11069359130,1609295567,2320007440,1609295565,1609296300,4224992293,497167550,2894872126,497167560,2894872095,2894872077,12472745649,2894872069,4784971294,2894872054,12472745657,2320007426,497167565,4224990396,2894872009,497167945,1609296391,1609199990,4938009626,1609200312,4251839205,497167946,3238982971,3238982963,3238981557,497167948,8486768377,8486768346,1609200055,4938009400,3238981548,8486768344,8486768376,4251839058,497167949,3238981535,497167950,11069373691,1609199954,1609295515,1609295472,8641990308,8641990305,3593760407,4251838854,497168021,3301986359,3301986345,3593760363,3593760348,1715114773,3301986324,497168023,4251838707,11081145121,7243278757,11081145119,4251838692,3445610560,3445515644,1609295488,497168363,1609295335,1609295524,2956787636,11070202339,2508868828,2508868825,12529903869,1609295397,1609366183,1609295440,1609221020,1609221140,1609200185,9156300405,2450079042,7436412015,1609221063,497168741,9156300398,2398626869,1609200177,2398626833,2398626816,1609200081,8162958911,8162958910,7033772018,1609200049,8162958914,497169501,497169504,1485097031,1485097020,1485097014,9366321723,3877506232,1044379733,9366321725,8455317281,1009167683,8455317287,3290785083,11074088806,8162958964,1008238435,9012647241,497170001,9364555678,12952456793,1008238205,12952456794,2509202559,12952456773,2509202552,1485096848,12952456765,4172516985,9012647184,8455678729,8455678875,5734888010,8455678874,11071563641,601870928,2795698874,11081424006,11081424007,601870935,601870941,3287949025,601870952,601870961,601870970,2795698757,601870976,1044379829,8455678823,601870985,601870993,1724424381,601871004,601871013,4172517089,807968365,8455678822,1637609833,13370965887,13368859878,807968574,13368859877,807968474,13368859874,601871031,6835289598,1171505048,1171504684,3915681463,6835289600,601871050,11987099419,11073662405,8596958450,601871068,1171504996,8596958451,8596958448,2394199562,1171505011,8596958565,5605166007,8596958531,8596958532,5605166004,3300291781,7965603632,807968391,11987099449,1796486510,7965603616,11987099447,1796486554,2394199612,1796486560,1796486567,807968031,8509264286,8509264287,8509264250,807968085,9273627973,807968312,9973573068,807968090,807968685,8269304107,599541231,6331635775,1785473214,1785473202,8509264301,10830782197,1785473632,8509264302,1785473234,8616654975,2389107122,1785473260,8509264311,1785473441,1785473207,1785473612,1785473544,2126674113,599541226,8370221221,2126674112,4139785894,811023517,11557702162,4139785892,9581425537,808031551,11800461549,5078180975,808031568,9102939275,2126673841,5078180974,811023244,9561464243,2126673510,391737180,2126673484,2126673474,5074930328,2126673457,2126673436,2126673389,2126673375,2126673387,2126673429,2126673453,5074930329,2126673475,2126673485,9676159568,2126673372,2126673352,12883830695,2126673334,470849661,12883830690,10798762471,9112306457,2126672878,11949496227,9112306454,11949496246,676069628,11949496236,11949496245,2126672561,2126672453,10029085282,2126672420,2126672390,2126672361,10035562403,2126672321,2126672267,2126672306,10607483514,10607483515,2126672342,2126672394,10035562401,2126672428,2126672468,2126672499,2126672409,602989962,602989998,2126672397,10740413055,2287827755,2287827747,2126672316,602989749,10810399598,2126672290,11389364091,11389364093,9021398271,2287827726,391739983,598151867,2287827722,10705908998,9731395680,2287827719,845125506,9989015781,843386542,3297692925,10571690334,851594833,598179188,3669330252,2851924358,9875534157,9875534150,2851924356,12478975040,2851924353,2851924355,2851924357,9875534159,2851924360,2851924359,3297629226,2379706732,845125666,3297629224,845125577,391738016,2468433143,2468433127,2468433125,7170944310,2468433123,2468433126,2468433128,2468433137,391738018,7143274059,845125633,7143274060,845125605,9045167332,845125527,845125625,845125600,11836786390,3673525776,11836786406,391738019,11836778763,563279721,3673525775,11836778767,851594971,851595319,851594992,11836786509,11836786514,851594754,851595324,2196149240,2518322712,11071148848,2582004839,4933539340,4933539369,599541149,560522688,2582004954,698492529,9671010091,9018989688,1723594032,9018989689,9018487159,10314056478,560522686,9018487252,3266042571,2869785585,9018656370,698492362,9018656372,12979124152,7436277528,698492208,2544300019,9018656376,6806297280,7436277552,9018656405,2544300147,698492160,2137750215,598178864,698491997,599541116,2381924978,7961801403,7961801405,2379656017,1974650111,1974650113,9443391324,2140930460,560522575,9443391376,9443391380,5868953359,560522573,9017927906,9443391392,9017927905,5868953355,6326480498,6326480489,5868953352,4398499900,8474498221,4576706153,9018206644,6639012144,4576706151,6617483717,660012845,9336206521,6326480502,9336206525,5869420103,9336206536,6639012136,11081947316,8975254911,11081947326,12300697137,1583410623,10055728986,12300697138,1583410665]},"gtfs":{"agency_id":18,"route_id":9377784,"services":[{"service_id":"Mo-Su","startTime":"06:00","endTime":"22:00","trip_id":36}],"filteredStops":{"nodes":[1544967488,3943965736,3943965737,4265533947,1544967267,1544966991,1544966538,1544966515,1544966265,4308310795,6133430606,6133430607,6133430609,1544965877,6133430589,6133430618,11071726054,6133430590,6133430588,6133430591,6133430592,6133430593,6133430594,6133430595,6133430596,6133430586,8189128454,12512646893,12512656301,3917324685,6913320854,6133430597,6133430598,6133430585,12512863046,497147700,3839744316,12512656458,1544965631,12512808673,12512863072,1544965625,12512863073,497147705,3839755178,497147712,11081223539,1544965517,12512862902,4067009931,497147725,12512862991,3839755183,497147728,12512656396,3839755190,6301185915,1545731175,5276246606,497147731,497147734,3764806757,5158314412,2320095710,497147737,7352860819,2320095709,497147741,3764806636,2320095703,2320095698,4267227991,4267227990,497147744,2320095683,1721557143,8303818078,497147747,497147749,12529856291,8303818131,1551434932,497147762,12529856286,8303818079,4267227781,497147765,497147768,497147773,2320095667,2320095661,2894872170,7243278751,1609341587,11069359136,1609342101,2894872156,2320007441,4224951058,11069359130,1609295567,2320007440,1609295565,1609296300,4224992293,497167550,2894872126,497167560,2894872095,2894872077,12472745649,2894872069,4784971294,2894872054,12472745657,2320007426,497167565,4224990396,2894872009,497167945,1609296391,1609199990,4938009626,1609200312,4251839205,497167946,3238982971,3238982963,3238981557,497167948,8486768377,8486768346,1609200055,4938009400,3238981548,8486768344,8486768376,4251839058,497167949,3238981535,497167950,11069373691,1609199954,1609295515,1609295472,8641990308,8641990305,3593760407,4251838854,497168021,3301986359,3301986345,3593760363,3593760348,1715114773,3301986324,497168023,4251838707,11081145121,7243278757,11081145119,4251838692,3445610560,3445515644,1609295488,497168363,1609295335,1609295524,2956787636,11070202339,2508868828,2508868825,12529903869,1609295397,1609366183,1609295440,1609221020,1609221140,1609200185,9156300405,2450079042,7436412015,1609221063,497168741,9156300398,2398626869,1609200177,2398626833,2398626816,1609200081,8162958911,8162958910,7033772018,1609200049,8162958914,497169501,497169504,1485097031,1485097020,1485097014,9366321723,3877506232,1044379733,9366321725,8455317281,1009167683,8455317287,3290785083,11074088806,8162958964,1008238435,9012647241,497170001,9364555678,12952456793,1008238205,12952456794,2509202559,12952456773,2509202552,1485096848,12952456765,4172516985,9012647184,8455678729,8455678875,5734888010,8455678874,11071563641,601870928,2795698874,11081424006,11081424007,601870935,601870941,3287949025,601870952,601870961,601870970,2795698757,601870976,1044379829,8455678823,601870985,601870993,1724424381,601871004,601871013,4172517089,807968365,8455678822,1637609833,13370965887,13368859878,807968574,13368859877,807968474,13368859874,601871031,6835289598,1171505048,1171504684,3915681463,6835289600,601871050,11987099419,11073662405,8596958450,601871068,1171504996,8596958451,8596958448,2394199562,1171505011,8596958565,5605166007,8596958531,8596958532,5605166004,3300291781,7965603632,807968391,11987099449,1796486510,7965603616,11987099447,1796486554,2394199612,1796486560,1796486567,807968031,8509264286,8509264287,8509264250,807968085,9273627973,807968312,9973573068,807968090,807968685,8269304107,599541231,6331635775,1785473214,1785473202,8509264301,10830782197,1785473632,8509264302,1785473234,8616654975,2389107122,1785473260,8509264311,1785473441,1785473207,1785473612,1785473544,2126674113,599541226,8370221221,2126674112,4139785894,811023517,11557702162,4139785892,9581425537,808031551,11800461549,5078180975,808031568,9102939275,2126673841,5078180974,811023244,9561464243,2126673510,391737180,2126673484,2126673474,5074930328,2126673457,2126673436,2126673389,2126673375,2126673387,2126673429,2126673453,5074930329,2126673475,2126673485,9676159568,2126673372,2126673352,12883830695,2126673334,470849661,12883830690,10798762471,9112306457,2126672878,11949496227,9112306454,11949496246,676069628,11949496236,11949496245,2126672561,2126672453,10029085282,2126672420,2126672390,2126672361,10035562403,2126672321,2126672267,2126672306,10607483514,10607483515,2126672342,2126672394,10035562401,2126672428,2126672468,2126672499,2126672409,602989962,602989998,2126672397,10740413055,2287827755,2287827747,2126672316,602989749,10810399598,2126672290,11389364091,11389364093,9021398271,2287827726,391739983,598151867,2287827722,10705908998,9731395680,2287827719,845125506,9989015781,843386542,3297692925,10571690334,851594833,598179188,3669330252,2851924358,9875534157,9875534150,2851924356,12478975040,2851924353,2851924355,2851924357,9875534159,2851924360,2851924359,3297629226,2379706732,845125666,3297629224,845125577,391738016,2468433143,2468433127,2468433125,7170944310,2468433123,2468433126,2468433128,2468433137,391738018,7143274059,845125633,7143274060,845125605,9045167332,845125527,845125625,845125600,11836786390,3673525776,11836786406,391738019,11836778763,563279721,3673525775,11836778767,851594971,851595319,851594992,11836786509,11836786514,851594754,851595324,2196149240,2518322712,11071148848,2582004839,4933539340,4933539369,599541149,560522688,2582004954,698492529,9671010091,9018989688,1723594032,9018989689,9018487159,10314056478,560522686,9018487252,3266042571,2869785585,9018656370,698492362,9018656372,12979124152,7436277528,698492208,2544300019,9018656376,6806297280,7436277552,9018656405,2544300147,698492160,2137750215,598178864,698491997,599541116,2381924978,7961801403,7961801405,2379656017,1974650111,1974650113,9443391324,2140930460,560522575,9443391376,9443391380,5868953359,560522573,9017927906,9443391392,9017927905,5868953355,6326480498,6326480489,5868953352,4398499900,8474498221,4576706153,9018206644,6639012144,4576706151,6617483717,660012845,9336206521,6326480502,9336206525,5869420103,9336206536,6639012136,11081947316,8975254911,11081947326,12300697137,1583410623,10055728986,12300697138,1583410665],"coordinates":[[-66.0400601,-17.404349],[-66.04002720000001,-17.404229],[-66.0397952,-17.403774700000003],[-66.0397593,-17.4037103],[-66.03973810000001,-17.403683700000002],[-66.0393616,-17.402984500000002],[-66.03895700000001,-17.4021931],[-66.0388808,-17.4021592],[-66.03852970000001,-17.4015115],[-66.03802320000001,-17.400521100000002],[-66.03800670000001,-17.400524700000002],[-66.0379707,-17.4005206],[-66.0379279,-17.400501400000003],[-66.0379118,-17.400474000000003],[-66.03786190000001,-17.4003775],[-66.03805750000001,-17.4002984],[-66.03815560000001,-17.400261],[-66.03867670000001,-17.400064500000003],[-66.0388896,-17.399994300000003],[-66.0389868,-17.399962300000002],[-66.0394716,-17.3998278],[-66.039996,-17.399709400000003],[-66.0402584,-17.399668700000003],[-66.04062180000001,-17.399618],[-66.04097130000001,-17.399585700000003],[-66.0415375,-17.399568300000002],[-66.0425251,-17.399573200000003],[-66.042997,-17.3995776],[-66.04346460000001,-17.3995827],[-66.04354190000001,-17.399583500000002],[-66.0437412,-17.399585300000002],[-66.04564160000001,-17.399601800000003],[-66.04736650000001,-17.3996329],[-66.04788040000001,-17.3996394],[-66.04791820000001,-17.3996375],[-66.04815070000001,-17.399614000000003],[-66.0484055,-17.3996013],[-66.0486844,-17.399605400000002],[-66.0488449,-17.399607800000002],[-66.04904900000001,-17.3996089],[-66.0494817,-17.3996113],[-66.049524,-17.399611500000002],[-66.0495724,-17.399607800000002],[-66.0498642,-17.399587200000003],[-66.0504956,-17.399515700000002],[-66.0506926,-17.399486600000003],[-66.0509268,-17.3994266],[-66.05099720000001,-17.3994086],[-66.05111400000001,-17.399368600000003],[-66.05142310000001,-17.3992627],[-66.0519831,-17.399083800000003],[-66.0522284,-17.398982800000002],[-66.05228360000001,-17.3989601],[-66.05249420000001,-17.3988559],[-66.0527431,-17.398712600000003],[-66.0529757,-17.398569000000002],[-66.05350580000001,-17.3982424],[-66.0535801,-17.3981971],[-66.05365160000001,-17.3981576],[-66.0538193,-17.3980554],[-66.0545955,-17.3975864],[-66.05471490000001,-17.3975095],[-66.0551652,-17.3972358],[-66.0555916,-17.3969644],[-66.05585830000001,-17.396807300000003],[-66.05612140000001,-17.3966236],[-66.0567891,-17.3961979],[-66.0574423,-17.3958313],[-66.0578983,-17.3955959],[-66.05806190000001,-17.3954986],[-66.0591133,-17.394848500000002],[-66.0593894,-17.3946958],[-66.0595624,-17.394588900000002],[-66.05990990000001,-17.394375],[-66.0603828,-17.3941032],[-66.0607787,-17.3939093],[-66.0611288,-17.393716400000002],[-66.0613148,-17.393627700000003],[-66.0615427,-17.393538900000003],[-66.06192250000001,-17.3934356],[-66.0619582,-17.393426100000003],[-66.06201730000001,-17.393410000000003],[-66.062589,-17.393270400000002],[-66.0626431,-17.3932594],[-66.06272890000001,-17.393242],[-66.0632059,-17.3931451],[-66.0634217,-17.3930969],[-66.06371370000001,-17.3930577],[-66.0640936,-17.393037300000003],[-66.06457560000001,-17.3929437],[-66.0652275,-17.392802900000003],[-66.06564490000001,-17.392717700000002],[-66.06596760000001,-17.3926534],[-66.06670510000001,-17.392506400000002],[-66.06742630000001,-17.392358700000003],[-66.06746770000001,-17.392350200000003],[-66.0679532,-17.392254400000002],[-66.0681979,-17.392203600000002],[-66.0688071,-17.3920704],[-66.0691034,-17.392007300000003],[-66.06941950000001,-17.3919399],[-66.07015670000001,-17.391785600000002],[-66.07104480000001,-17.391616300000003],[-66.07223610000001,-17.391378800000002],[-66.0737974,-17.391044400000002],[-66.07388470000001,-17.391027100000002],[-66.0741326,-17.390971200000003],[-66.0746708,-17.390814900000002],[-66.074837,-17.3907698],[-66.07508650000001,-17.390726],[-66.0754156,-17.390659600000003],[-66.0754825,-17.3906461],[-66.0755826,-17.3906245],[-66.07579820000001,-17.3905782],[-66.0758646,-17.3905643],[-66.07653300000001,-17.3904238],[-66.0768302,-17.390376900000003],[-66.07707070000001,-17.390353100000002],[-66.0772479,-17.390335500000003],[-66.07741770000001,-17.3903076],[-66.0780455,-17.390183200000003],[-66.0802003,-17.389731400000002],[-66.0803046,-17.389714700000003],[-66.0820898,-17.389341400000003],[-66.08236070000001,-17.3892907],[-66.08305220000001,-17.389156500000002],[-66.0833489,-17.389095400000002],[-66.0837257,-17.3889837],[-66.08402690000001,-17.388896000000003],[-66.08415330000001,-17.388866500000002],[-66.0844998,-17.3888],[-66.0846441,-17.388772300000003],[-66.0847114,-17.3887594],[-66.0848268,-17.3887348],[-66.08503560000001,-17.388690200000003],[-66.08513690000001,-17.3886678],[-66.08523960000001,-17.3886451],[-66.0857666,-17.388528700000002],[-66.0860536,-17.3884849],[-66.08659390000001,-17.388426900000002],[-66.0871412,-17.3883204],[-66.0872698,-17.388294000000002],[-66.0903304,-17.387665700000003],[-66.0935805,-17.387006500000002],[-66.09477770000001,-17.3867611],[-66.0956062,-17.3865942],[-66.09572680000001,-17.3865699],[-66.0959866,-17.3865176],[-66.0964055,-17.386431],[-66.09672780000001,-17.386354400000002],[-66.0971243,-17.3862373],[-66.09756130000001,-17.3861427],[-66.0979755,-17.3860531],[-66.0982907,-17.3859849],[-66.09884170000001,-17.385865600000002],[-66.0992957,-17.385774100000003],[-66.09953420000001,-17.385747400000003],[-66.0998677,-17.385717000000003],[-66.1007361,-17.3855545],[-66.1012826,-17.3854502],[-66.101487,-17.3854052],[-66.1016661,-17.3853729],[-66.1020273,-17.3852949],[-66.1034053,-17.3849957],[-66.1047381,-17.3847303],[-66.10558110000001,-17.384561],[-66.1068161,-17.3843111],[-66.1083892,-17.3840101],[-66.10887290000001,-17.383911],[-66.10913260000001,-17.3838559],[-66.1093003,-17.3838204],[-66.1097063,-17.383739100000003],[-66.1101186,-17.3836571],[-66.11055420000001,-17.3835704],[-66.1116279,-17.383347],[-66.1126926,-17.3831087],[-66.11373660000001,-17.382891800000003],[-66.11474120000001,-17.3826937],[-66.11609370000001,-17.3824299],[-66.1166355,-17.3823204],[-66.1167504,-17.3822972],[-66.1172233,-17.382195000000003],[-66.1178158,-17.3820392],[-66.11826740000001,-17.3819014],[-66.1185475,-17.381807000000002],[-66.1187728,-17.381719800000003],[-66.11928180000001,-17.381503600000002],[-66.11950370000001,-17.381410000000002],[-66.11999700000001,-17.381166800000003],[-66.12026010000001,-17.3810155],[-66.1208017,-17.380671500000002],[-66.1208417,-17.3806461],[-66.12168240000001,-17.3800861],[-66.12176980000001,-17.3800293],[-66.1218317,-17.379987800000002],[-66.1221658,-17.3797745],[-66.12243050000001,-17.3795986],[-66.1224694,-17.3795763],[-66.122742,-17.379389900000003],[-66.12360930000001,-17.378817400000003],[-66.12421330000001,-17.3784409],[-66.12471000000001,-17.3781074],[-66.12535980000001,-17.3776556],[-66.1257746,-17.377356000000002],[-66.12695810000001,-17.3765211],[-66.12702440000001,-17.376476],[-66.1271995,-17.3763545],[-66.1275504,-17.376112600000003],[-66.1279626,-17.3758313],[-66.1281352,-17.37571],[-66.1282882,-17.3756033],[-66.12881490000001,-17.3752302],[-66.1288741,-17.375188],[-66.12893100000001,-17.3751503],[-66.1289543,-17.3751348],[-66.12898410000001,-17.3751153],[-66.12898700000001,-17.375058600000003],[-66.1289921,-17.375002000000002],[-66.12898820000001,-17.3749174],[-66.12898270000001,-17.3748705],[-66.1289651,-17.3747618],[-66.12896330000001,-17.374751],[-66.1288784,-17.3742397],[-66.1288174,-17.3737855],[-66.1288109,-17.3737372],[-66.1287959,-17.373602100000003],[-66.12879240000001,-17.3735624],[-66.1287806,-17.373469],[-66.1288718,-17.373455900000003],[-66.1289804,-17.373427200000002],[-66.1290673,-17.3733898],[-66.1291753,-17.3733341],[-66.1293134,-17.3732714],[-66.12945570000001,-17.373222300000002],[-66.1295565,-17.3732012],[-66.129686,-17.3731739],[-66.1298501,-17.3731449],[-66.13031790000001,-17.3731127],[-66.1306023,-17.3730894],[-66.1307793,-17.373061],[-66.1309291,-17.3730212],[-66.1310179,-17.3729845],[-66.13148120000001,-17.3727838],[-66.13161930000001,-17.3727343],[-66.1318136,-17.372661200000003],[-66.13190850000001,-17.372646000000003],[-66.1329231,-17.372357100000002],[-66.13303040000001,-17.37233],[-66.13316590000001,-17.372312800000003],[-66.13329250000001,-17.3723089],[-66.13337720000001,-17.3723184],[-66.1335092,-17.3723479],[-66.13369150000001,-17.3723819],[-66.13412070000001,-17.3724619],[-66.13417390000001,-17.372471800000003],[-66.1342413,-17.3724859],[-66.1347484,-17.3725916],[-66.1350955,-17.3726555],[-66.13516150000001,-17.3726676],[-66.13521610000001,-17.3726819],[-66.1355236,-17.372736000000003],[-66.13569360000001,-17.372760600000003],[-66.1358009,-17.372762400000003],[-66.1358677,-17.372760300000003],[-66.13597130000001,-17.372756000000003],[-66.13607130000001,-17.372746300000003],[-66.13613020000001,-17.3727406],[-66.1362225,-17.372731700000003],[-66.1364442,-17.372705800000002],[-66.1365705,-17.372684500000002],[-66.13661850000001,-17.372672100000003],[-66.13668650000001,-17.372653800000002],[-66.1367319,-17.3726376],[-66.1367986,-17.3727325],[-66.1368269,-17.372781500000002],[-66.1368693,-17.3728583],[-66.13689480000001,-17.372917400000002],[-66.13690600000001,-17.3729586],[-66.1369073,-17.373002900000003],[-66.136881,-17.3732055],[-66.13684,-17.373471900000002],[-66.1368439,-17.373554400000003],[-66.13687420000001,-17.373674],[-66.1369629,-17.3739679],[-66.136975,-17.373977500000002],[-66.13702590000001,-17.373966900000003],[-66.13707670000001,-17.3739665],[-66.1371628,-17.3739898],[-66.13726190000001,-17.3740157],[-66.1373665,-17.3740291],[-66.1377544,-17.3740075],[-66.1379938,-17.3739923],[-66.13803100000001,-17.373989700000003],[-66.13806550000001,-17.373987300000003],[-66.13879820000001,-17.373941700000003],[-66.13884030000001,-17.373938900000002],[-66.13967260000001,-17.3738852],[-66.13977150000001,-17.3738792],[-66.1405964,-17.373829500000003],[-66.14160030000001,-17.373772000000002],[-66.1422624,-17.373734600000002],[-66.1423298,-17.373722200000003],[-66.1424276,-17.3736928],[-66.1424961,-17.3736651],[-66.1426187,-17.3736122],[-66.14265400000001,-17.3735557],[-66.1426742,-17.373532200000003],[-66.1427001,-17.3735067],[-66.1427463,-17.373472500000002],[-66.14279780000001,-17.373446100000002],[-66.1428532,-17.373428],[-66.14290650000001,-17.373419300000002],[-66.14296060000001,-17.373418400000002],[-66.1430141,-17.3734253],[-66.143066,-17.3734399],[-66.1431441,-17.373479500000002],[-66.14320950000001,-17.3735363],[-66.14325810000001,-17.3736067],[-66.1433648,-17.3736706],[-66.1434091,-17.3736789],[-66.143743,-17.373666],[-66.14381540000001,-17.3736615],[-66.1443457,-17.3736292],[-66.1445029,-17.3736196],[-66.1445734,-17.373616300000002],[-66.1446097,-17.3736146],[-66.14564530000001,-17.373547400000003],[-66.14585340000001,-17.3735342],[-66.1459105,-17.3735302],[-66.1466176,-17.3734812],[-66.1467391,-17.3734727],[-66.1468978,-17.3734617],[-66.14704470000001,-17.3734515],[-66.14716,-17.3734435],[-66.1477354,-17.373403600000003],[-66.1485729,-17.3733532],[-66.1491709,-17.3733174],[-66.1493762,-17.373305900000002],[-66.1494179,-17.3732966],[-66.14946540000001,-17.3732778],[-66.14948290000001,-17.373254000000003],[-66.1495055,-17.3732341],[-66.14952910000001,-17.3732207],[-66.1495551,-17.3732119],[-66.1495828,-17.3732079],[-66.14961690000001,-17.373210200000003],[-66.14965000000001,-17.3732204],[-66.1496795,-17.373237900000003],[-66.14970310000001,-17.3732611],[-66.1497561,-17.3732748],[-66.1497987,-17.3732787],[-66.1505133,-17.3732341],[-66.15095480000001,-17.373206600000003],[-66.1510593,-17.3732],[-66.15117380000001,-17.373193],[-66.15120830000001,-17.3731909],[-66.15144260000001,-17.3731741],[-66.1524613,-17.373111],[-66.15341910000001,-17.3730516],[-66.1535724,-17.373042100000003],[-66.1536725,-17.3730353],[-66.1537516,-17.373029900000002],[-66.15377450000001,-17.373028400000003],[-66.15462020000001,-17.372979200000003],[-66.1546879,-17.3729757],[-66.1547572,-17.3729707],[-66.15479110000001,-17.3729683],[-66.1564764,-17.3728483],[-66.156552,-17.3728389],[-66.15656940000001,-17.3727842],[-66.1565973,-17.3727336],[-66.15663470000001,-17.3726889],[-66.15668020000001,-17.372651700000002],[-66.15673220000001,-17.372623200000003],[-66.1567699,-17.3726096],[-66.15680920000001,-17.372600600000002],[-66.1568493,-17.3725972],[-66.1569111,-17.372604300000003],[-66.15697030000001,-17.372622900000003],[-66.15702440000001,-17.372652300000002],[-66.1570714,-17.372691300000003],[-66.15710940000001,-17.372738400000003],[-66.1571284,-17.3727719],[-66.1571777,-17.372797000000002],[-66.15724,-17.372803],[-66.158928,-17.372691300000003],[-66.15898530000001,-17.372688200000002],[-66.15907010000001,-17.372683400000003],[-66.1591482,-17.372678800000003],[-66.1592834,-17.372671],[-66.159475,-17.3726595],[-66.1597268,-17.3726458],[-66.1604978,-17.3725945],[-66.16058120000001,-17.3725908],[-66.16078270000001,-17.372576300000002],[-66.16079300000001,-17.3725756],[-66.1608853,-17.372569900000002],[-66.16104220000001,-17.3725601],[-66.16166670000001,-17.372521300000002],[-66.1625305,-17.372462000000002],[-66.1626071,-17.3724567],[-66.16272430000001,-17.372448600000002],[-66.16280760000001,-17.372444400000003],[-66.16281930000001,-17.3724437],[-66.1629565,-17.3724339],[-66.16368630000001,-17.3723902],[-66.16377960000001,-17.372384],[-66.1638592,-17.372380600000003],[-66.16504470000001,-17.372305],[-66.1659248,-17.37225],[-66.16601080000001,-17.372244000000002],[-66.1667106,-17.372195400000003],[-66.16762510000001,-17.372139800000003],[-66.1682109,-17.3720994],[-66.1682737,-17.3720962],[-66.16828840000001,-17.3720694],[-66.16830820000001,-17.372048200000002],[-66.16834270000001,-17.3720274],[-66.1683728,-17.3720193],[-66.16840400000001,-17.3720184],[-66.1684443,-17.3720287],[-66.16846190000001,-17.372038],[-66.1684843,-17.372056200000003],[-66.16850400000001,-17.3720828],[-66.16857750000001,-17.3720773],[-66.1690899,-17.3720399],[-66.1693731,-17.3720204],[-66.169897,-17.3719842],[-66.17065840000001,-17.3719374],[-66.1712894,-17.3718971],[-66.1717893,-17.3718609],[-66.17188970000001,-17.371842700000002],[-66.1719161,-17.3718232],[-66.17196290000001,-17.371807500000003],[-66.1720118,-17.371799300000003],[-66.1720614,-17.3717986],[-66.1721105,-17.371805600000002],[-66.1721498,-17.3718258],[-66.17220130000001,-17.371835],[-66.17224300000001,-17.3718393],[-66.1727697,-17.371804800000003],[-66.17286610000001,-17.3717995],[-66.1729274,-17.3717958],[-66.17311760000001,-17.3717843],[-66.17329360000001,-17.371774000000002],[-66.1735962,-17.3717572],[-66.1742529,-17.371712900000002],[-66.1749163,-17.3716633],[-66.17527840000001,-17.3716402],[-66.175621,-17.3716183],[-66.1756587,-17.3716161],[-66.1756964,-17.3716139],[-66.17575400000001,-17.3716106],[-66.17580530000001,-17.3716076],[-66.1758748,-17.371603500000003],[-66.1761305,-17.371589],[-66.1769981,-17.371539900000002],[-66.1776914,-17.371491000000002],[-66.17825930000001,-17.3714556],[-66.17935510000001,-17.3713824],[-66.1794548,-17.3713757],[-66.17987210000001,-17.371347800000002],[-66.18018640000001,-17.371328600000002],[-66.1802059,-17.3714388],[-66.1802189,-17.371512000000003],[-66.18046500000001,-17.3726425],[-66.18056680000001,-17.3731104],[-66.18078890000001,-17.3740425],[-66.1808381,-17.3742649],[-66.1808548,-17.374359700000003],[-66.18089140000001,-17.3745274],[-66.18090210000001,-17.374616500000002],[-66.1810339,-17.3759936],[-66.1811105,-17.3767362],[-66.18121520000001,-17.377316],[-66.18122960000001,-17.3773988],[-66.18125380000001,-17.3775292],[-66.1813535,-17.378086200000002],[-66.18148310000001,-17.3787442],[-66.1814949,-17.3788126],[-66.1815031,-17.378862400000003],[-66.18159530000001,-17.379831000000003],[-66.1816002,-17.3799083],[-66.181669,-17.380587000000002],[-66.1816754,-17.3806531],[-66.1816807,-17.3807106],[-66.18172340000001,-17.381140400000003],[-66.18176940000001,-17.3816041],[-66.18179540000001,-17.3819014],[-66.1818556,-17.3826475],[-66.1818793,-17.382832800000003],[-66.1818904,-17.382915800000003],[-66.18190770000001,-17.383102800000003],[-66.18192160000001,-17.3832042],[-66.18193600000001,-17.3833097],[-66.1820084,-17.3838393],[-66.1821846,-17.3851078],[-66.18219500000001,-17.385180700000003],[-66.18234260000001,-17.386328900000002],[-66.1824102,-17.386875200000002],[-66.18240630000001,-17.387101700000002],[-66.18240970000001,-17.387167400000003],[-66.1824069,-17.387429],[-66.18242020000001,-17.387517300000003],[-66.18242790000001,-17.387549200000002],[-66.18252580000001,-17.387829200000002],[-66.182806,-17.3886456],[-66.1828203,-17.388687100000002],[-66.1831317,-17.389616],[-66.1831757,-17.3897559],[-66.1832318,-17.3899344],[-66.1832967,-17.390141200000002],[-66.1834458,-17.390595700000002],[-66.18354240000001,-17.391022300000003],[-66.1835496,-17.3910528],[-66.183673,-17.391414800000003],[-66.18394570000001,-17.392211300000003],[-66.1842405,-17.393064900000002],[-66.1844337,-17.3937825],[-66.18462740000001,-17.3943984],[-66.1847762,-17.3949065],[-66.1849117,-17.395273900000003],[-66.18503530000001,-17.3954756],[-66.1851627,-17.395847200000002],[-66.1851785,-17.3958929],[-66.1852226,-17.395998600000002],[-66.1852662,-17.3960699],[-66.185291,-17.396089200000002],[-66.18531200000001,-17.396113000000003],[-66.18532800000001,-17.396140000000003],[-66.18533860000001,-17.3961694],[-66.1853432,-17.396200200000003],[-66.1853627,-17.396300800000002],[-66.18537180000001,-17.396356],[-66.18555880000001,-17.3969272],[-66.1856707,-17.397269100000003],[-66.1857882,-17.397620500000002],[-66.18583860000001,-17.3977711],[-66.18585510000001,-17.3978204],[-66.18592410000001,-17.397807200000003],[-66.18715560000001,-17.397706200000002],[-66.187216,-17.397719900000002]]}}}]}