{"type":"FeatureCollection","features":[{"type":"Feature","properties":{"check_date":"29/12/2025","from":"Chilimarca","name":"Trufi 290: Chilimarca → Avenida Blanco Galindo","network":"BO:CB:Cochabamba","on_demand":"yes","operator":"Sindicato mixto de trufibuses Vinto","public_transport:version":"2","ref":"290","route":"bus","to":"Avenida Blanco Galindo","type":"route","wheelchair":"no","id":9379871},"geometry":{"type":"LineString","coordinates":[[-66.1977751,-17.3329246],[-66.1980256,-17.3332252],[-66.1986059,-17.3338938],[-66.1988881,-17.3340371],[-66.1990636,-17.3341396],[-66.1991943,-17.3342468],[-66.1993268,-17.3343878],[-66.1994471,-17.334548],[-66.1994872,-17.3347364],[-66.1994578,-17.3349358],[-66.199756,-17.3349784],[-66.2001358,-17.3350768],[-66.2006768,-17.3353734],[-66.20121,-17.3357132],[-66.2015484,-17.3358466],[-66.2015358,-17.3359368],[-66.2014531,-17.3362489],[-66.201327,-17.3365932],[-66.2013194,-17.3366893],[-66.2013038,-17.3368856],[-66.2013008,-17.3370274],[-66.2013101,-17.3374427],[-66.2013481,-17.3376909],[-66.2016809,-17.3384353],[-66.2017395,-17.3385809],[-66.2016981,-17.3389653],[-66.2016717,-17.3390164],[-66.2016007,-17.3391102],[-66.2013593,-17.3402655],[-66.2013295,-17.3404084],[-66.2012691,-17.340652],[-66.2012021,-17.3408351],[-66.2011104,-17.3410137],[-66.2009545,-17.3412723],[-66.2008276,-17.3414365],[-66.2006763,-17.3415774],[-66.2004001,-17.3418275],[-66.2003416,-17.3419304],[-66.2001581,-17.342411],[-66.1999192,-17.3428239],[-66.1998611,-17.3429244],[-66.1995596,-17.3434456],[-66.1994928,-17.343559],[-66.1995236,-17.3436395],[-66.1995982,-17.3437142],[-66.1997481,-17.3440387],[-66.1998802,-17.344359],[-66.1999044,-17.3444464],[-66.1987556,-17.3448451],[-66.1985505,-17.3449165],[-66.1984791,-17.344941],[-66.1983466,-17.3449882],[-66.1982999,-17.3450083],[-66.1980903,-17.3450893],[-66.1976443,-17.3452855],[-66.1975438,-17.3453297],[-66.196933,-17.3455887],[-66.1968513,-17.3456279],[-66.1967398,-17.3456781],[-66.1958607,-17.3462506],[-66.1951856,-17.3465609],[-66.1951142,-17.346591],[-66.1947754,-17.3467166],[-66.1942157,-17.3469335],[-66.1938183,-17.3470953],[-66.1932829,-17.3473124],[-66.192374,-17.3476822],[-66.1914675,-17.3480541],[-66.1913808,-17.3481011],[-66.1909263,-17.3484728],[-66.1908973,-17.3484817],[-66.1906966,-17.3485434],[-66.190481,-17.3486097],[-66.1895982,-17.3488421],[-66.1887657,-17.3490576],[-66.18862,-17.3491047],[-66.1885686,-17.3491181],[-66.1868069,-17.349577],[-66.185047,-17.3500309],[-66.1849357,-17.3500787],[-66.1848428,-17.3501483],[-66.1848093,-17.3501811],[-66.1847843,-17.3502056],[-66.1847301,-17.3502745],[-66.1847151,-17.3502935],[-66.184692,-17.3503251],[-66.1846538,-17.3503746],[-66.184655,-17.3503943],[-66.1846496,-17.3504322],[-66.1846372,-17.3504556],[-66.1846091,-17.3504884],[-66.1845714,-17.3505108],[-66.1845282,-17.3505203],[-66.1845006,-17.3505191],[-66.1844425,-17.3505431],[-66.1843923,-17.3505721],[-66.1841946,-17.3507311],[-66.1841508,-17.3507784],[-66.1841084,-17.350836],[-66.1840815,-17.3508954],[-66.18406,-17.3509523],[-66.1840456,-17.3510422],[-66.1840134,-17.3512286],[-66.1839853,-17.3512902],[-66.1839524,-17.3513446],[-66.1839275,-17.351369],[-66.1838791,-17.3514109],[-66.1834579,-17.3516688],[-66.1831279,-17.3518747],[-66.1828969,-17.3520167],[-66.1827802,-17.3520899],[-66.182686,-17.3521629],[-66.182555,-17.3522841],[-66.1824501,-17.3523854],[-66.1822672,-17.3525357],[-66.1813669,-17.3532761],[-66.1813022,-17.3533372],[-66.1812321,-17.3534059],[-66.1808762,-17.3538215],[-66.180516,-17.3542912],[-66.1802813,-17.3546065],[-66.1801915,-17.3546898],[-66.1801002,-17.3547582],[-66.1799722,-17.3548386],[-66.1797962,-17.3549127],[-66.1795298,-17.355013],[-66.1792974,-17.3551239],[-66.1791162,-17.355225],[-66.1789153,-17.3553564],[-66.1783911,-17.355716],[-66.1775394,-17.3562894],[-66.1770625,-17.3566075],[-66.1767196,-17.3568362],[-66.1765811,-17.3569286],[-66.1764761,-17.3569986],[-66.1762881,-17.3571575],[-66.1761984,-17.3572334],[-66.1759926,-17.357411],[-66.1761084,-17.357805],[-66.1761781,-17.3579826],[-66.1762749,-17.3581719],[-66.1763405,-17.3582753],[-66.1764361,-17.3584155],[-66.1767078,-17.3587998],[-66.1767866,-17.3589261],[-66.1768168,-17.3589787],[-66.1768469,-17.3590313],[-66.1768788,-17.3590954],[-66.1769107,-17.3591595],[-66.1772488,-17.3599491],[-66.1774791,-17.3605452],[-66.1775626,-17.3608503],[-66.1775833,-17.360929],[-66.1778886,-17.3621098],[-66.1779029,-17.3621924],[-66.1779232,-17.3622854],[-66.1781072,-17.3631817],[-66.1781191,-17.3632159],[-66.178227,-17.363558],[-66.1785027,-17.3643628],[-66.1785219,-17.3644163],[-66.1785679,-17.3645046],[-66.1785912,-17.3645534],[-66.1789145,-17.3652687],[-66.1789894,-17.3655867],[-66.1790132,-17.3657234],[-66.1790285,-17.3658009],[-66.1792236,-17.366814],[-66.179224,-17.3668158],[-66.179315,-17.3672263],[-66.1793906,-17.3676451],[-66.1794263,-17.3681269],[-66.1794342,-17.3682257],[-66.1794457,-17.3683711],[-66.1795956,-17.3689921],[-66.1796139,-17.3690676],[-66.1796306,-17.3691435],[-66.1798227,-17.3699003],[-66.1798333,-17.3699421],[-66.1800087,-17.370633],[-66.1800129,-17.3706496],[-66.1800484,-17.3707896],[-66.1801665,-17.3712556],[-66.1801864,-17.3713286],[-66.1802059,-17.3714388],[-66.1802189,-17.371512],[-66.180465,-17.3726425],[-66.1805668,-17.3731104],[-66.1807889,-17.3740425],[-66.1808381,-17.3742649],[-66.1808548,-17.3743597],[-66.1808914,-17.3745274],[-66.1809021,-17.3746165],[-66.1810339,-17.3759936],[-66.1811105,-17.3767362],[-66.1812152,-17.377316],[-66.1812296,-17.3773988],[-66.1812538,-17.3775292],[-66.1813535,-17.3780862],[-66.1814831,-17.3787442],[-66.1814949,-17.3788126],[-66.1815031,-17.3788624],[-66.1815953,-17.379831],[-66.1816002,-17.3799083],[-66.181669,-17.380587],[-66.1816754,-17.3806531],[-66.1816807,-17.3807106],[-66.1817234,-17.3811404],[-66.1817694,-17.3816041],[-66.1817954,-17.3819014],[-66.1818556,-17.3826475],[-66.1818793,-17.3828328],[-66.1818904,-17.3829158],[-66.1819077,-17.3831028],[-66.1819216,-17.3832042],[-66.181936,-17.3833097],[-66.1820084,-17.3838393],[-66.1821846,-17.3851078],[-66.182195,-17.3851807],[-66.1823426,-17.3863289],[-66.1824102,-17.3868752],[-66.1824063,-17.3871017],[-66.1824097,-17.3871674],[-66.1824069,-17.387429],[-66.1824202,-17.3875173],[-66.1824279,-17.3875492],[-66.1825258,-17.3878292],[-66.182806,-17.3886456],[-66.1828203,-17.3886871],[-66.1831317,-17.389616],[-66.1831757,-17.3897559],[-66.1832318,-17.3899344],[-66.1832967,-17.3901412],[-66.1834458,-17.3905957],[-66.1836023,-17.3910078],[-66.1837242,-17.3913696],[-66.1838668,-17.3917822],[-66.1839421,-17.3920313],[-66.1840019,-17.3922009],[-66.1842174,-17.3927838],[-66.1842731,-17.3929241],[-66.184325,-17.3930507],[-66.1843572,-17.393083],[-66.1844117,-17.3931067],[-66.1844481,-17.3931312],[-66.1845143,-17.3931583],[-66.1845797,-17.3931706],[-66.1847563,-17.3931666],[-66.185423,-17.3931427],[-66.1857642,-17.3931305],[-66.1864116,-17.3931714],[-66.1866393,-17.3931593],[-66.1874124,-17.3931268],[-66.1888567,-17.3930628],[-66.1892743,-17.3930444],[-66.1911252,-17.3929577],[-66.1921353,-17.3929072],[-66.1938986,-17.3928412],[-66.1947235,-17.3928088],[-66.1969299,-17.3927077],[-66.1970753,-17.3927008],[-66.1987218,-17.392627],[-66.1989338,-17.3926165],[-66.199474,-17.3925896],[-66.1995374,-17.3925864],[-66.1996008,-17.3925833],[-66.1996781,-17.39258],[-66.1998158,-17.3925734],[-66.2001909,-17.3925553],[-66.2025337,-17.3924534],[-66.2032418,-17.3924227],[-66.203618,-17.3924063],[-66.2050914,-17.3923528],[-66.2072128,-17.3922538],[-66.2074111,-17.3922446],[-66.2080046,-17.3922214],[-66.2080229,-17.3922206],[-66.2080916,-17.3922175],[-66.2081846,-17.3922143],[-66.2082887,-17.3922104],[-66.2085114,-17.3922021],[-66.2089727,-17.3921849],[-66.2091079,-17.392179],[-66.209809,-17.3921428],[-66.2099245,-17.3921368],[-66.210321,-17.392123],[-66.2103967,-17.392118],[-66.2111207,-17.3920846],[-66.212964,-17.3919997],[-66.2136675,-17.3919733],[-66.2143133,-17.391949],[-66.2154152,-17.3919077],[-66.2158619,-17.3918901],[-66.2168864,-17.3918417],[-66.2182483,-17.391766],[-66.2185741,-17.3917538],[-66.2193943,-17.3917164],[-66.2213267,-17.3916517],[-66.2215894,-17.3916389],[-66.2220618,-17.3916136],[-66.2233037,-17.3915541],[-66.2242367,-17.3915189],[-66.2245993,-17.3915051],[-66.2249474,-17.3914893],[-66.2258636,-17.3914462],[-66.2264962,-17.3914165],[-66.226663,-17.391409],[-66.2274214,-17.3913804],[-66.2284514,-17.3913315],[-66.2287988,-17.3913116],[-66.2291662,-17.3912966],[-66.2297343,-17.3912731],[-66.2297673,-17.3912717],[-66.2298409,-17.3912687],[-66.2300121,-17.3912616],[-66.2305661,-17.3912386],[-66.2320252,-17.3911775],[-66.2324271,-17.3911635],[-66.2336249,-17.3911146],[-66.2345974,-17.3910749],[-66.2363591,-17.3910045],[-66.2365822,-17.3909918],[-66.237921,-17.3909427],[-66.2382125,-17.3909071],[-66.2383299,-17.390888],[-66.2385075,-17.3908499],[-66.238539,-17.390845],[-66.2386552,-17.3908233],[-66.2386762,-17.3908128],[-66.2386987,-17.3908055],[-66.2387279,-17.3908011],[-66.2387574,-17.3908019],[-66.2387863,-17.390808],[-66.2389553,-17.3908324],[-66.2390359,-17.3908517],[-66.2391888,-17.3908644],[-66.2398993,-17.3908426],[-66.240912,-17.3908188],[-66.2411366,-17.390814],[-66.2420988,-17.3908022],[-66.2427852,-17.3907986],[-66.2435679,-17.3907949],[-66.2436525,-17.390786],[-66.2437193,-17.3907743],[-66.2437568,-17.3907665],[-66.2439573,-17.3907244],[-66.2444481,-17.3907345],[-66.2444669,-17.3907364],[-66.2446218,-17.3907623],[-66.2447073,-17.3907855],[-66.2447511,-17.3907996],[-66.2448526,-17.3908176],[-66.244949,-17.390826],[-66.2461527,-17.3908672],[-66.2462901,-17.3908757],[-66.2480066,-17.3909571],[-66.2484636,-17.3909797],[-66.2490276,-17.3910156],[-66.2494577,-17.3910255],[-66.2496164,-17.3910356],[-66.2499632,-17.3910579],[-66.2501971,-17.3910726],[-66.2502435,-17.3910755],[-66.2502905,-17.3910784],[-66.2504434,-17.391088],[-66.2506914,-17.3910616],[-66.2508008,-17.3910637],[-66.2508967,-17.3910763],[-66.2509344,-17.3910855],[-66.2509776,-17.3910961],[-66.2512161,-17.3911541],[-66.2513818,-17.3911859],[-66.2514689,-17.3911951],[-66.2526672,-17.3913123],[-66.2527928,-17.3913246],[-66.2542188,-17.3914622],[-66.2567501,-17.391716],[-66.2573333,-17.3917803],[-66.2577457,-17.3918257],[-66.2579393,-17.391844],[-66.2582763,-17.3918759],[-66.2590144,-17.3919395],[-66.2594909,-17.3919806],[-66.25952,-17.3919831],[-66.2595584,-17.3919864],[-66.2596428,-17.3919909],[-66.2601,-17.3920415],[-66.2603304,-17.3920654],[-66.2608025,-17.3921143],[-66.2620077,-17.392239],[-66.2643025,-17.3924716],[-66.2649633,-17.3925368],[-66.2662909,-17.3926642],[-66.2675492,-17.3927929],[-66.2678247,-17.3928199],[-66.2679871,-17.3928392],[-66.2680961,-17.3928518],[-66.2681726,-17.3928591],[-66.2682498,-17.3928669],[-66.2684282,-17.392885],[-66.2687823,-17.392921],[-66.2699511,-17.3930396],[-66.2701093,-17.3930492],[-66.2712023,-17.393158],[-66.2722402,-17.3932523],[-66.2723895,-17.3932515],[-66.2725216,-17.3932415],[-66.2726698,-17.3932388],[-66.272689,-17.3932258],[-66.2727154,-17.393213],[-66.2727381,-17.3932058],[-66.2727616,-17.3932016],[-66.2727854,-17.3932003],[-66.2728092,-17.393202],[-66.2728326,-17.3932068],[-66.2728551,-17.3932144],[-66.2728763,-17.3932248],[-66.2728916,-17.3932345],[-66.2729057,-17.3932457],[-66.2731599,-17.3932739],[-66.273306,-17.3932901],[-66.2734584,-17.393307],[-66.2742772,-17.393387],[-66.2744122,-17.3934011],[-66.2749658,-17.3934607],[-66.2756625,-17.3935319],[-66.2761702,-17.3935795],[-66.276919,-17.3936497],[-66.276929,-17.3936506],[-66.2770081,-17.3936583],[-66.2779056,-17.3937459],[-66.2780191,-17.3937577],[-66.2780498,-17.393761],[-66.2781005,-17.3937577],[-66.2781476,-17.3937681],[-66.2782028,-17.3937739],[-66.2783188,-17.3937856],[-66.2793687,-17.3938843],[-66.279509,-17.3938978],[-66.2805328,-17.393996],[-66.2806406,-17.3940055],[-66.2807486,-17.3940124],[-66.2815018,-17.3940605],[-66.2816,-17.3940668],[-66.2815709,-17.3943417],[-66.2814919,-17.3943373],[-66.2807205,-17.3942881],[-66.2806245,-17.394282],[-66.2804969,-17.3942675]],"nodes":[7790231611,2318885072,789429871,5417709186,789429557,12550723778,789429726,789429943,789429723,789429894,789429668,789429400,789429844,789429618,789429980,789402962,789403033,789402925,6040305574,789402995,2318885105,789403076,789402968,789403038,789429920,789402978,7234643140,789403047,7234643150,789402919,2318926609,5411799555,789402985,2318926611,5414198053,789403055,789402948,4688245220,2319145541,10286957095,6904093573,2319145562,2319145563,8535582470,7235781950,12542331626,6548530628,2317801090,8336001228,2317801095,6904093565,6904093566,8336001238,7235782712,12550420910,6150373532,8921352630,6150373531,6150373530,3549077652,6904093562,1577578127,1577578257,1577578170,1577578130,1577578345,1577578172,3549077662,6636240226,6636240227,11071697615,11071697610,1577578129,7242702090,6636260603,9049822119,11795063816,9083374391,9042253645,11486083229,9049566162,11795063806,9049822120,11813334846,11813298421,11795063808,5290354591,9049566116,2368317057,2368317054,2368317059,9049566113,5290354590,2368317060,9049566117,601871727,811023252,9049566126,2368317036,9049566127,811023431,7814223055,811023497,2368317039,9195242570,2368317040,9819008048,2368317042,2317755736,2368317041,8437237663,811023335,3279665081,2147373631,8437237675,2317755752,9819008090,9819008089,2317755760,1576391975,811023287,3541028647,9819008091,811023462,9819008094,9819008093,3279665141,811023528,2317755778,1576391820,1865014689,11081678154,11081678150,11081678146,3541028655,11081678145,1865014780,1865014647,1865014605,6331330556,3279603864,5262462754,1865014564,1865014808,8539613926,8914848351,1865014578,8914848350,8539597713,8914848363,1865014718,10747497948,8927805075,10747497939,1865014569,10747497938,4678897677,1865014733,3276962124,9175127259,1865014707,2468433001,2468433004,2468433012,1574087122,1574086891,4102697660,8932109902,2147373657,2317755902,1713523725,8932109907,1713523740,851595292,11070207794,1713523736,10281638873,1713523735,10156204505,1713521482,11836786552,12303209400,2518322660,851595324,2196149240,2518322712,11071148848,2582004839,4933539340,4933539369,599541149,560522688,2582004954,698492529,9671010091,9018989688,1723594032,9018989689,9018487159,10314056478,560522686,9018487252,3266042571,2869785585,9018656370,698492362,9018656372,12979124152,7436277528,698492208,2544300019,9018656376,6806297280,7436277552,9018656405,2544300147,698492160,2137750215,598178864,698491997,599541116,2381924978,7961801403,7961801405,2379656017,1974650111,1974650113,9443391324,2140930460,560522575,9443391376,9443391380,5868953359,560522573,9017927904,4576706142,9713005814,9713005815,4398499259,5868941109,4398499265,4398499267,4398318265,5869420118,4398318263,8474493071,4398499273,5868941098,4398499270,6326495610,4398499272,2635402927,2354386761,560522361,2292218251,2292218247,2418530992,5581228588,2418530981,2137733242,2137733243,1807038051,12650627924,8235455989,12650627935,1807038048,2354386770,2429829237,6846214146,11084175485,11084175483,6846214133,2417368043,11084175482,8200481419,8235936958,9374958478,5579061862,3641784408,8235936964,8235936932,2418530966,6845809618,11084175480,9241585477,3255507856,2417367882,11084175478,3255507852,11084175476,3255507849,560084503,560084507,3255507830,3255507821,9008269171,4158028115,794269983,4478225458,792630474,5605204668,2354386778,2354386781,794269932,11084175474,794269972,794269961,9008269167,5605232829,5605232823,8627399437,9786116630,9786116627,560084489,9786116634,8627399436,6282778240,794303535,10837430538,794303398,4586486623,794303570,4586487874,4586487873,8317038876,9008269189,8317038875,698491918,9355127775,7150288216,9355127774,792630390,698491877,9008269182,7933924058,698491863,792630233,785868153,6918618956,792630380,792630483,319773758,8630411872,10837513369,792630507,319773759,10837513367,319773760,8630411868,4586488214,8630411830,9008315709,319773761,4586488419,8316478466,7933924071,4317735512,3880715143,319773764,9008315784,9008315770,4650646887,3880715144,4650646888,7933924066,319773765,319773766,8310400080,8316478456,319773767,319773768,8310400066,319773138,10012571188,5870202500,3881280412,785868004,11084165269,4571961269,11031871495,5236806812,8316478290,12091174510,9262757165,8316478299,319772622,8316478289,8316478287,11084165260,785868517,4382907901,785868508,7931999285,11084165256,2138416891,9262757145,5870202368,5870202367,3195120410,785869180,2360589703,617337196,617337194,783869371,783870663,6179669345,3192787627,8048387329,8048387338,8048387339,2140912533,2140912536,9354911916,8048387327,9354911915,617337182,6917120250,8048387326,319771811,12706842541,12487415611,6917120244,783870340,8221419797,7527585416,783869019,8221419828,8221419837,783870788,8221419835,7527591099,7527591095,7527591091,783871023,7527591076,7527591094,7527591103,783871207,8221419844,6852610654,319771168,6852610653,6852610655,319771170,319771124,6852610656,6852610652,319771126,6728813998]},"gtfs":{"agency_id":4,"route_id":10,"services":[{"service_id":"Mo-Su","startTime":"06:00","endTime":"22:00","trip_id":9379871}],"filteredStops":{"nodes":[7790231611,2318885072,789429871,5417709186,789429557,12550723778,789429726,789429943,789429723,789429894,789429668,789429400,789429844,789429618,789429980,789402962,789403033,789402925,6040305574,789402995,2318885105,789403076,789402968,789403038,789429920,789402978,7234643140,789403047,7234643150,789402919,2318926609,5411799555,789402985,2318926611,5414198053,789403055,789402948,4688245220,2319145541,10286957095,6904093573,2319145562,2319145563,8535582470,7235781950,12542331626,6548530628,2317801090,8336001228,2317801095,6904093565,6904093566,8336001238,7235782712,12550420910,6150373532,8921352630,6150373531,6150373530,3549077652,6904093562,1577578127,1577578257,1577578170,1577578130,1577578345,1577578172,3549077662,6636240226,6636240227,11071697615,11071697610,1577578129,7242702090,6636260603,9049822119,11795063816,9083374391,9042253645,11486083229,9049566162,11795063806,9049822120,11813334846,11813298421,11795063808,5290354591,9049566116,2368317057,2368317054,2368317059,9049566113,5290354590,2368317060,9049566117,601871727,811023252,9049566126,2368317036,9049566127,811023431,7814223055,811023497,2368317039,9195242570,2368317040,9819008048,2368317042,2317755736,2368317041,8437237663,811023335,3279665081,2147373631,8437237675,2317755752,9819008090,9819008089,2317755760,1576391975,811023287,3541028647,9819008091,811023462,9819008094,9819008093,3279665141,811023528,2317755778,1576391820,1865014689,11081678154,11081678150,11081678146,3541028655,11081678145,1865014780,1865014647,1865014605,6331330556,3279603864,5262462754,1865014564,1865014808,8539613926,8914848351,1865014578,8914848350,8539597713,8914848363,1865014718,10747497948,8927805075,10747497939,1865014569,10747497938,4678897677,1865014733,3276962124,9175127259,1865014707,2468433001,2468433004,2468433012,1574087122,1574086891,4102697660,8932109902,2147373657,2317755902,1713523725,8932109907,1713523740,851595292,11070207794,1713523736,10281638873,1713523735,10156204505,1713521482,11836786552,12303209400,2518322660,851595324,2196149240,2518322712,11071148848,2582004839,4933539340,4933539369,599541149,560522688,2582004954,698492529,9671010091,9018989688,1723594032,9018989689,9018487159,10314056478,560522686,9018487252,3266042571,2869785585,9018656370,698492362,9018656372,12979124152,7436277528,698492208,2544300019,9018656376,6806297280,7436277552,9018656405,2544300147,698492160,2137750215,598178864,698491997,599541116,2381924978,7961801403,7961801405,2379656017,1974650111,1974650113,9443391324,2140930460,560522575,9443391376,9443391380,5868953359,560522573,9017927904,4576706142,9713005814,9713005815,4398499259,5868941109,4398499265,4398499267,4398318265,5869420118,4398318263,8474493071,4398499273,5868941098,4398499270,6326495610,4398499272,2635402927,2354386761,560522361,2292218251,2292218247,2418530992,5581228588,2418530981,2137733242,2137733243,1807038051,12650627924,8235455989,12650627935,1807038048,2354386770,2429829237,6846214146,11084175485,11084175483,6846214133,2417368043,11084175482,8200481419,8235936958,9374958478,5579061862,3641784408,8235936964,8235936932,2418530966,6845809618,11084175480,9241585477,3255507856,2417367882,11084175478,3255507852,11084175476,3255507849,560084503,560084507,3255507830,3255507821,9008269171,4158028115,794269983,4478225458,792630474,5605204668,2354386778,2354386781,794269932,11084175474,794269972,794269961,9008269167,5605232829,5605232823,8627399437,9786116630,9786116627,560084489,9786116634,8627399436,6282778240,794303535,10837430538,794303398,4586486623,794303570,4586487874,4586487873,8317038876,9008269189,8317038875,698491918,9355127775,7150288216,9355127774,792630390,698491877,9008269182,7933924058,698491863,792630233,785868153,6918618956,792630380,792630483,319773758,8630411872,10837513369,792630507,319773759,10837513367,319773760,8630411868,4586488214,8630411830,9008315709,319773761,4586488419,8316478466,7933924071,4317735512,3880715143,319773764,9008315784,9008315770,4650646887,3880715144,4650646888,7933924066,319773765,319773766,8310400080,8316478456,319773767,319773768,8310400066,319773138,10012571188,5870202500,3881280412,785868004,11084165269,4571961269,11031871495,5236806812,8316478290,12091174510,9262757165,8316478299,319772622,8316478289,8316478287,11084165260,785868517,4382907901,785868508,7931999285,11084165256,2138416891,9262757145,5870202368,5870202367,3195120410,785869180,2360589703,617337196,617337194,783869371,783870663,6179669345,3192787627,8048387329,8048387338,8048387339,2140912533,2140912536,9354911916,8048387327,9354911915,617337182,6917120250,8048387326,319771811,12706842541,12487415611,6917120244,783870340,8221419797,7527585416,783869019,8221419828,8221419837,783870788,8221419835,7527591099,7527591095,7527591091,783871023,7527591076,7527591094,7527591103,783871207,8221419844,6852610654,319771168,6852610653,6852610655,319771170,319771124,6852610656,6852610652,319771126,6728813998],"coordinates":[[-66.1977751,-17.3329246],[-66.1980256,-17.3332252],[-66.1986059,-17.3338938],[-66.1988881,-17.3340371],[-66.1990636,-17.3341396],[-66.1991943,-17.3342468],[-66.1993268,-17.3343878],[-66.1994471,-17.334548],[-66.1994872,-17.3347364],[-66.1994578,-17.3349358],[-66.199756,-17.3349784],[-66.2001358,-17.3350768],[-66.2006768,-17.3353734],[-66.20121,-17.3357132],[-66.2015484,-17.3358466],[-66.2015358,-17.3359368],[-66.2014531,-17.3362489],[-66.201327,-17.3365932],[-66.2013194,-17.3366893],[-66.2013038,-17.3368856],[-66.2013008,-17.3370274],[-66.2013101,-17.3374427],[-66.2013481,-17.3376909],[-66.2016809,-17.3384353],[-66.2017395,-17.3385809],[-66.2016981,-17.3389653],[-66.2016717,-17.3390164],[-66.2016007,-17.3391102],[-66.2013593,-17.3402655],[-66.2013295,-17.3404084],[-66.2012691,-17.340652],[-66.2012021,-17.3408351],[-66.2011104,-17.3410137],[-66.2009545,-17.3412723],[-66.2008276,-17.3414365],[-66.2006763,-17.3415774],[-66.2004001,-17.3418275],[-66.2003416,-17.3419304],[-66.2001581,-17.342411],[-66.1999192,-17.3428239],[-66.1998611,-17.3429244],[-66.1995596,-17.3434456],[-66.1994928,-17.343559],[-66.1995236,-17.3436395],[-66.1995982,-17.3437142],[-66.1997481,-17.3440387],[-66.1998802,-17.344359],[-66.1999044,-17.3444464],[-66.1987556,-17.3448451],[-66.1985505,-17.3449165],[-66.1984791,-17.344941],[-66.1983466,-17.3449882],[-66.1982999,-17.3450083],[-66.1980903,-17.3450893],[-66.1976443,-17.3452855],[-66.1975438,-17.3453297],[-66.196933,-17.3455887],[-66.1968513,-17.3456279],[-66.1967398,-17.3456781],[-66.1958607,-17.3462506],[-66.1951856,-17.3465609],[-66.1951142,-17.346591],[-66.1947754,-17.3467166],[-66.1942157,-17.3469335],[-66.1938183,-17.3470953],[-66.1932829,-17.3473124],[-66.192374,-17.3476822],[-66.1914675,-17.3480541],[-66.1913808,-17.3481011],[-66.1909263,-17.3484728],[-66.1908973,-17.3484817],[-66.1906966,-17.3485434],[-66.190481,-17.3486097],[-66.1895982,-17.3488421],[-66.1887657,-17.3490576],[-66.18862,-17.3491047],[-66.1885686,-17.3491181],[-66.1868069,-17.349577],[-66.185047,-17.3500309],[-66.1849357,-17.3500787],[-66.1848428,-17.3501483],[-66.1848093,-17.3501811],[-66.1847843,-17.3502056],[-66.1847301,-17.3502745],[-66.1847151,-17.3502935],[-66.184692,-17.3503251],[-66.1846538,-17.3503746],[-66.184655,-17.3503943],[-66.1846496,-17.3504322],[-66.1846372,-17.3504556],[-66.1846091,-17.3504884],[-66.1845714,-17.3505108],[-66.1845282,-17.3505203],[-66.1845006,-17.3505191],[-66.1844425,-17.3505431],[-66.1843923,-17.3505721],[-66.1841946,-17.3507311],[-66.1841508,-17.3507784],[-66.1841084,-17.350836],[-66.1840815,-17.3508954],[-66.18406,-17.3509523],[-66.1840456,-17.3510422],[-66.1840134,-17.3512286],[-66.1839853,-17.3512902],[-66.1839524,-17.3513446],[-66.1839275,-17.351369],[-66.1838791,-17.3514109],[-66.1834579,-17.3516688],[-66.1831279,-17.3518747],[-66.1828969,-17.3520167],[-66.1827802,-17.3520899],[-66.182686,-17.3521629],[-66.182555,-17.3522841],[-66.1824501,-17.3523854],[-66.1822672,-17.3525357],[-66.1813669,-17.3532761],[-66.1813022,-17.3533372],[-66.1812321,-17.3534059],[-66.1808762,-17.3538215],[-66.180516,-17.3542912],[-66.1802813,-17.3546065],[-66.1801915,-17.3546898],[-66.1801002,-17.3547582],[-66.1799722,-17.3548386],[-66.1797962,-17.3549127],[-66.1795298,-17.355013],[-66.1792974,-17.3551239],[-66.1791162,-17.355225],[-66.1789153,-17.3553564],[-66.1783911,-17.355716],[-66.1775394,-17.3562894],[-66.1770625,-17.3566075],[-66.1767196,-17.3568362],[-66.1765811,-17.3569286],[-66.1764761,-17.3569986],[-66.1762881,-17.3571575],[-66.1761984,-17.3572334],[-66.1759926,-17.357411],[-66.1761084,-17.357805],[-66.1761781,-17.3579826],[-66.1762749,-17.3581719],[-66.1763405,-17.3582753],[-66.1764361,-17.3584155],[-66.1767078,-17.3587998],[-66.1767866,-17.3589261],[-66.1768168,-17.3589787],[-66.1768469,-17.3590313],[-66.1768788,-17.3590954],[-66.1769107,-17.3591595],[-66.1772488,-17.3599491],[-66.1774791,-17.3605452],[-66.1775626,-17.3608503],[-66.1775833,-17.360929],[-66.1778886,-17.3621098],[-66.1779029,-17.3621924],[-66.1779232,-17.3622854],[-66.1781072,-17.3631817],[-66.1781191,-17.3632159],[-66.178227,-17.363558],[-66.1785027,-17.3643628],[-66.1785219,-17.3644163],[-66.1785679,-17.3645046],[-66.1785912,-17.3645534],[-66.1789145,-17.3652687],[-66.1789894,-17.3655867],[-66.1790132,-17.3657234],[-66.1790285,-17.3658009],[-66.1792236,-17.366814],[-66.179224,-17.3668158],[-66.179315,-17.3672263],[-66.1793906,-17.3676451],[-66.1794263,-17.3681269],[-66.1794342,-17.3682257],[-66.1794457,-17.3683711],[-66.1795956,-17.3689921],[-66.1796139,-17.3690676],[-66.1796306,-17.3691435],[-66.1798227,-17.3699003],[-66.1798333,-17.3699421],[-66.1800087,-17.370633],[-66.1800129,-17.3706496],[-66.1800484,-17.3707896],[-66.1801665,-17.3712556],[-66.1801864,-17.3713286],[-66.1802059,-17.3714388],[-66.1802189,-17.371512],[-66.180465,-17.3726425],[-66.1805668,-17.3731104],[-66.1807889,-17.3740425],[-66.1808381,-17.3742649],[-66.1808548,-17.3743597],[-66.1808914,-17.3745274],[-66.1809021,-17.3746165],[-66.1810339,-17.3759936],[-66.1811105,-17.3767362],[-66.1812152,-17.377316],[-66.1812296,-17.3773988],[-66.1812538,-17.3775292],[-66.1813535,-17.3780862],[-66.1814831,-17.3787442],[-66.1814949,-17.3788126],[-66.1815031,-17.3788624],[-66.1815953,-17.379831],[-66.1816002,-17.3799083],[-66.181669,-17.380587],[-66.1816754,-17.3806531],[-66.1816807,-17.3807106],[-66.1817234,-17.3811404],[-66.1817694,-17.3816041],[-66.1817954,-17.3819014],[-66.1818556,-17.3826475],[-66.1818793,-17.3828328],[-66.1818904,-17.3829158],[-66.1819077,-17.3831028],[-66.1819216,-17.3832042],[-66.181936,-17.3833097],[-66.1820084,-17.3838393],[-66.1821846,-17.3851078],[-66.182195,-17.3851807],[-66.1823426,-17.3863289],[-66.1824102,-17.3868752],[-66.1824063,-17.3871017],[-66.1824097,-17.3871674],[-66.1824069,-17.387429],[-66.1824202,-17.3875173],[-66.1824279,-17.3875492],[-66.1825258,-17.3878292],[-66.182806,-17.3886456],[-66.1828203,-17.3886871],[-66.1831317,-17.389616],[-66.1831757,-17.3897559],[-66.1832318,-17.3899344],[-66.1832967,-17.3901412],[-66.1834458,-17.3905957],[-66.1836023,-17.3910078],[-66.1837242,-17.3913696],[-66.1838668,-17.3917822],[-66.1839421,-17.3920313],[-66.1840019,-17.3922009],[-66.1842174,-17.3927838],[-66.1842731,-17.3929241],[-66.184325,-17.3930507],[-66.1843572,-17.393083],[-66.1844117,-17.3931067],[-66.1844481,-17.3931312],[-66.1845143,-17.3931583],[-66.1845797,-17.3931706],[-66.1847563,-17.3931666],[-66.185423,-17.3931427],[-66.1857642,-17.3931305],[-66.1864116,-17.3931714],[-66.1866393,-17.3931593],[-66.1874124,-17.3931268],[-66.1888567,-17.3930628],[-66.1892743,-17.3930444],[-66.1911252,-17.3929577],[-66.1921353,-17.3929072],[-66.1938986,-17.3928412],[-66.1947235,-17.3928088],[-66.1969299,-17.3927077],[-66.1970753,-17.3927008],[-66.1987218,-17.392627],[-66.1989338,-17.3926165],[-66.199474,-17.3925896],[-66.1995374,-17.3925864],[-66.1996008,-17.3925833],[-66.1996781,-17.39258],[-66.1998158,-17.3925734],[-66.2001909,-17.3925553],[-66.2025337,-17.3924534],[-66.2032418,-17.3924227],[-66.203618,-17.3924063],[-66.2050914,-17.3923528],[-66.2072128,-17.3922538],[-66.2074111,-17.3922446],[-66.2080046,-17.3922214],[-66.2080229,-17.3922206],[-66.2080916,-17.3922175],[-66.2081846,-17.3922143],[-66.2082887,-17.3922104],[-66.2085114,-17.3922021],[-66.2089727,-17.3921849],[-66.2091079,-17.392179],[-66.209809,-17.3921428],[-66.2099245,-17.3921368],[-66.210321,-17.392123],[-66.2103967,-17.392118],[-66.2111207,-17.3920846],[-66.212964,-17.3919997],[-66.2136675,-17.3919733],[-66.2143133,-17.391949],[-66.2154152,-17.3919077],[-66.2158619,-17.3918901],[-66.2168864,-17.3918417],[-66.2182483,-17.391766],[-66.2185741,-17.3917538],[-66.2193943,-17.3917164],[-66.2213267,-17.3916517],[-66.2215894,-17.3916389],[-66.2220618,-17.3916136],[-66.2233037,-17.3915541],[-66.2242367,-17.3915189],[-66.2245993,-17.3915051],[-66.2249474,-17.3914893],[-66.2258636,-17.3914462],[-66.2264962,-17.3914165],[-66.226663,-17.391409],[-66.2274214,-17.3913804],[-66.2284514,-17.3913315],[-66.2287988,-17.3913116],[-66.2291662,-17.3912966],[-66.2297343,-17.3912731],[-66.2297673,-17.3912717],[-66.2298409,-17.3912687],[-66.2300121,-17.3912616],[-66.2305661,-17.3912386],[-66.2320252,-17.3911775],[-66.2324271,-17.3911635],[-66.2336249,-17.3911146],[-66.2345974,-17.3910749],[-66.2363591,-17.3910045],[-66.2365822,-17.3909918],[-66.237921,-17.3909427],[-66.2382125,-17.3909071],[-66.2383299,-17.390888],[-66.2385075,-17.3908499],[-66.238539,-17.390845],[-66.2386552,-17.3908233],[-66.2386762,-17.3908128],[-66.2386987,-17.3908055],[-66.2387279,-17.3908011],[-66.2387574,-17.3908019],[-66.2387863,-17.390808],[-66.2389553,-17.3908324],[-66.2390359,-17.3908517],[-66.2391888,-17.3908644],[-66.2398993,-17.3908426],[-66.240912,-17.3908188],[-66.2411366,-17.390814],[-66.2420988,-17.3908022],[-66.2427852,-17.3907986],[-66.2435679,-17.3907949],[-66.2436525,-17.390786],[-66.2437193,-17.3907743],[-66.2437568,-17.3907665],[-66.2439573,-17.3907244],[-66.2444481,-17.3907345],[-66.2444669,-17.3907364],[-66.2446218,-17.3907623],[-66.2447073,-17.3907855],[-66.2447511,-17.3907996],[-66.2448526,-17.3908176],[-66.244949,-17.390826],[-66.2461527,-17.3908672],[-66.2462901,-17.3908757],[-66.2480066,-17.3909571],[-66.2484636,-17.3909797],[-66.2490276,-17.3910156],[-66.2494577,-17.3910255],[-66.2496164,-17.3910356],[-66.2499632,-17.3910579],[-66.2501971,-17.3910726],[-66.2502435,-17.3910755],[-66.2502905,-17.3910784],[-66.2504434,-17.391088],[-66.2506914,-17.3910616],[-66.2508008,-17.3910637],[-66.2508967,-17.3910763],[-66.2509344,-17.3910855],[-66.2509776,-17.3910961],[-66.2512161,-17.3911541],[-66.2513818,-17.3911859],[-66.2514689,-17.3911951],[-66.2526672,-17.3913123],[-66.2527928,-17.3913246],[-66.2542188,-17.3914622],[-66.2567501,-17.391716],[-66.2573333,-17.3917803],[-66.2577457,-17.3918257],[-66.2579393,-17.391844],[-66.2582763,-17.3918759],[-66.2590144,-17.3919395],[-66.2594909,-17.3919806],[-66.25952,-17.3919831],[-66.2595584,-17.3919864],[-66.2596428,-17.3919909],[-66.2601,-17.3920415],[-66.2603304,-17.3920654],[-66.2608025,-17.3921143],[-66.2620077,-17.392239],[-66.2643025,-17.3924716],[-66.2649633,-17.3925368],[-66.2662909,-17.3926642],[-66.2675492,-17.3927929],[-66.2678247,-17.3928199],[-66.2679871,-17.3928392],[-66.2680961,-17.3928518],[-66.2681726,-17.3928591],[-66.2682498,-17.3928669],[-66.2684282,-17.392885],[-66.2687823,-17.392921],[-66.2699511,-17.3930396],[-66.2701093,-17.3930492],[-66.2712023,-17.393158],[-66.2722402,-17.3932523],[-66.2723895,-17.3932515],[-66.2725216,-17.3932415],[-66.2726698,-17.3932388],[-66.272689,-17.3932258],[-66.2727154,-17.393213],[-66.2727381,-17.3932058],[-66.2727616,-17.3932016],[-66.2727854,-17.3932003],[-66.2728092,-17.393202],[-66.2728326,-17.3932068],[-66.2728551,-17.3932144],[-66.2728763,-17.3932248],[-66.2728916,-17.3932345],[-66.2729057,-17.3932457],[-66.2731599,-17.3932739],[-66.273306,-17.3932901],[-66.2734584,-17.393307],[-66.2742772,-17.393387],[-66.2744122,-17.3934011],[-66.2749658,-17.3934607],[-66.2756625,-17.3935319],[-66.2761702,-17.3935795],[-66.276919,-17.3936497],[-66.276929,-17.3936506],[-66.2770081,-17.3936583],[-66.2779056,-17.3937459],[-66.2780191,-17.3937577],[-66.2780498,-17.393761],[-66.2781005,-17.3937577],[-66.2781476,-17.3937681],[-66.2782028,-17.3937739],[-66.2783188,-17.3937856],[-66.2793687,-17.3938843],[-66.279509,-17.3938978],[-66.2805328,-17.393996],[-66.2806406,-17.3940055],[-66.2807486,-17.3940124],[-66.2815018,-17.3940605],[-66.2816,-17.3940668],[-66.2815709,-17.3943417],[-66.2814919,-17.3943373],[-66.2807205,-17.3942881],[-66.2806245,-17.394282],[-66.2804969,-17.3942675]]}}},{"type":"Feature","properties":{"addr:city":"Tiquipaya","bench":"no","bus":"yes","covered":"no","departures_board":"no","highway":"bus_stop","name":"Parada 290","public_transport":"platform","shelter":"no","id":789429486},"geometry":{"type":"Point","coordinates":[-66.1978107,-17.3329201]}},{"type":"Feature","properties":{"bench":"no","bin":"no","bus":"yes","departures_board":"no","highway":"bus_stop","informal":"yes","level":"0","lit":"yes","name":"d'Orbigny","public_transport":"platform","shelter":"no","tactile_paving":"no","wheelchair":"no","id":7961801408},"geometry":{"type":"Point","coordinates":[-66.1824764,-17.386799]}},{"type":"Feature","properties":{"bus":"yes","highway":"bus_stop","name":"Plaza Bolívar","public_transport":"platform","id":3255507885},"geometry":{"type":"Point","coordinates":[-66.2805659,-17.3943334]}},{"type":"Feature","properties":{"bench":"yes","bin":"no","bus":"yes","departures_board":"no","highway":"bus_stop","level":"0","lit":"no","loc_name":"KM 4","name":"Avenida Segunda","operator":"Administradora Boliviana de Carreteras","operator:short":"ABC","operator:type":"public","public_transport":"platform","shelter":"yes","tactile_paving":"no","wheelchair":"no","id":2418530979},"geometry":{"type":"Point","coordinates":[-66.1950804,-17.3927015]}}]}