{"type":"FeatureCollection","features":[{"type":"Feature","properties":{"check_date":"29/12/2025","from":"Chilimarca","name":"Trufi 118: Chilimarca → Calle Tupac Katari","network":"BO:CB:Cochabamba","on_demand":"yes","operator":"Asociación mixta de transporte y servicios Chilimarca","public_transport:version":"2","ref":"118","route":"bus","to":"Calle Tupac Katari","type":"route","wheelchair":"no","id":9380215},"geometry":{"type":"LineString","coordinates":[[-66.2014365,-17.3292289],[-66.2006706,-17.3295079],[-66.200734,-17.3296792],[-66.2003253,-17.3298801],[-66.2000125,-17.330128],[-66.1992973,-17.3306093],[-66.1986616,-17.3309622],[-66.1988776,-17.3313223],[-66.1985909,-17.3315059],[-66.1982136,-17.3317075],[-66.1980216,-17.3318637],[-66.1975222,-17.3322521],[-66.197252,-17.3324476],[-66.1966344,-17.3330533],[-66.1965895,-17.3331022],[-66.1966032,-17.3331778],[-66.1966596,-17.3332738],[-66.1967314,-17.3333796],[-66.1967978,-17.3334609],[-66.1968616,-17.3334979],[-66.1972837,-17.3339885],[-66.1978806,-17.3346861],[-66.1983076,-17.3351998],[-66.1989322,-17.335918],[-66.1989546,-17.3360146],[-66.1995154,-17.3366505],[-66.1996692,-17.3361875],[-66.1997444,-17.3359092],[-66.1997384,-17.3356746],[-66.1997716,-17.3352861],[-66.199756,-17.3349784],[-66.2001358,-17.3350768],[-66.2006768,-17.3353734],[-66.20121,-17.3357132],[-66.2015484,-17.3358466],[-66.2015358,-17.3359368],[-66.2014531,-17.3362489],[-66.201327,-17.3365932],[-66.2013194,-17.3366893],[-66.2013038,-17.3368856],[-66.2013008,-17.3370274],[-66.2013101,-17.3374427],[-66.2013481,-17.3376909],[-66.2016809,-17.3384353],[-66.2017395,-17.3385809],[-66.2020575,-17.3387958],[-66.2023627,-17.3390019],[-66.2024851,-17.3391266],[-66.2025986,-17.3393305],[-66.2027243,-17.3395563],[-66.2029788,-17.3400179],[-66.2031494,-17.3403211],[-66.203369,-17.3408097],[-66.2035255,-17.3411578],[-66.2036702,-17.3414642],[-66.2037157,-17.3415745],[-66.2038326,-17.3419689],[-66.2038473,-17.3420069],[-66.2038592,-17.342051],[-66.2038797,-17.3421043],[-66.2038952,-17.3421806],[-66.2038981,-17.3422546],[-66.2038875,-17.3423237],[-66.2037986,-17.3425187],[-66.2036206,-17.3427997],[-66.203578,-17.3428749],[-66.2035741,-17.3429114],[-66.2035791,-17.34295],[-66.2037089,-17.3431678],[-66.2037491,-17.343234],[-66.2039719,-17.3435719],[-66.2039904,-17.3436013],[-66.2045612,-17.3445203],[-66.2048326,-17.3449717],[-66.2048617,-17.3450189],[-66.2049133,-17.3451279],[-66.2043116,-17.3453634],[-66.2042144,-17.3453991],[-66.2041561,-17.3454287],[-66.2036611,-17.345667],[-66.2033826,-17.3458024],[-66.2029937,-17.3459914],[-66.2027057,-17.3461282],[-66.2025158,-17.3462099],[-66.2023733,-17.3462723],[-66.2022868,-17.3463085],[-66.2011817,-17.3467548],[-66.2005236,-17.347033],[-66.2003118,-17.3471131],[-66.1999673,-17.3472561],[-66.1999066,-17.3472805],[-66.1998019,-17.3473211],[-66.1996959,-17.3473615],[-66.1986244,-17.3478087],[-66.1983887,-17.3479038],[-66.1975452,-17.3482488],[-66.1969189,-17.3485083],[-66.1966774,-17.3486211],[-66.1965222,-17.3486977],[-66.1959066,-17.3490435],[-66.1946996,-17.3496712],[-66.1941674,-17.3499621],[-66.1939153,-17.3500999],[-66.1935202,-17.3503159],[-66.193244,-17.3504752],[-66.1929365,-17.3506544],[-66.1926213,-17.3508604],[-66.1923719,-17.3510234],[-66.1922896,-17.3510787],[-66.1920062,-17.351265],[-66.1917342,-17.3514518],[-66.1915437,-17.3515827],[-66.1913324,-17.3517395],[-66.1907466,-17.3521766],[-66.1907138,-17.3522011],[-66.1899628,-17.3528104],[-66.1898741,-17.3528787],[-66.1897727,-17.352958],[-66.1889861,-17.3535872],[-66.1889207,-17.3536392],[-66.1880863,-17.3542805],[-66.1878493,-17.354472],[-66.1877648,-17.3545343],[-66.1877324,-17.3545599],[-66.1876662,-17.3546102],[-66.1876366,-17.3546327],[-66.1875869,-17.3546705],[-66.1875266,-17.3547178],[-66.187126,-17.3550327],[-66.1866871,-17.3553771],[-66.185658,-17.3561774],[-66.1856109,-17.356214],[-66.1850746,-17.3565958],[-66.184936,-17.3567105],[-66.1848006,-17.3568306],[-66.1847301,-17.3569011],[-66.1846468,-17.3570138],[-66.1840773,-17.3578876],[-66.1833082,-17.3589644],[-66.1832508,-17.3590284],[-66.1831977,-17.3590967],[-66.1831341,-17.3591824],[-66.1830695,-17.3592918],[-66.1826633,-17.3601208],[-66.1821207,-17.3612509],[-66.1820694,-17.3613293],[-66.1817636,-17.3618311],[-66.1814995,-17.36224],[-66.1814453,-17.3623112],[-66.1813907,-17.3623714],[-66.1812461,-17.3625434],[-66.1810592,-17.3627734],[-66.1808856,-17.3629293],[-66.1806538,-17.3631396],[-66.1804759,-17.3632776],[-66.1799864,-17.3636602],[-66.1796769,-17.3638997],[-66.1794633,-17.364045],[-66.1793056,-17.3641448],[-66.1790011,-17.3643096],[-66.178873,-17.3643769],[-66.1787583,-17.3644371],[-66.1786344,-17.3644825],[-66.1785679,-17.3645046],[-66.1785234,-17.3645185],[-66.178408,-17.3645546],[-66.1783719,-17.3645654],[-66.178284,-17.3645885],[-66.1779812,-17.3646935],[-66.1767955,-17.3650514],[-66.1767575,-17.3650629],[-66.1766743,-17.3650875],[-66.1765439,-17.3651266],[-66.1764768,-17.3651467],[-66.1751548,-17.3655435],[-66.1750141,-17.3655887],[-66.1749184,-17.3656146],[-66.1748031,-17.3656383],[-66.1733237,-17.3657397],[-66.1718641,-17.365821],[-66.1717966,-17.3658248],[-66.1715775,-17.3658391],[-66.1714925,-17.3658447],[-66.1714101,-17.3658491],[-66.1712985,-17.3658629],[-66.1711497,-17.3658979],[-66.1711192,-17.3659051],[-66.1709461,-17.3659562],[-66.1706407,-17.3660461],[-66.1704853,-17.3660898],[-66.1703409,-17.3661184],[-66.1702301,-17.3661286],[-66.1701006,-17.3661299],[-66.1699469,-17.3661229],[-66.1697832,-17.3661045],[-66.1696172,-17.3660766],[-66.1694981,-17.3660445],[-66.1694323,-17.3660214],[-66.1693403,-17.3659874],[-66.1690477,-17.3658885],[-66.1688934,-17.3658519],[-66.1687179,-17.3658213],[-66.1686355,-17.3658171],[-66.1685651,-17.3658135],[-66.1682722,-17.3657976],[-66.1679002,-17.3657773],[-66.1678124,-17.3657801],[-66.167736,-17.3657875],[-66.16768,-17.365801],[-66.1676156,-17.3658199],[-66.1675492,-17.3658444],[-66.167449,-17.3658858],[-66.1672959,-17.3659658],[-66.1670355,-17.3661164],[-66.1669496,-17.366166],[-66.1668968,-17.3661974],[-66.1666857,-17.366323],[-66.1665063,-17.3664424],[-66.1661295,-17.3667085],[-66.1661032,-17.3667279],[-66.1658913,-17.366882],[-66.1658373,-17.3669237],[-66.1651421,-17.3674257],[-66.1642493,-17.3680575],[-66.1641573,-17.3681314],[-66.1640875,-17.3681998],[-66.1640592,-17.3682405],[-66.1640437,-17.368284],[-66.164057,-17.3683599],[-66.1640552,-17.3684238],[-66.1640528,-17.3684526],[-66.1640391,-17.3685209],[-66.1640145,-17.3685864],[-66.1639797,-17.3686476],[-66.1639354,-17.3687028],[-66.1638826,-17.3687505],[-66.1638262,-17.3688157],[-66.1637969,-17.3688607],[-66.1637566,-17.3689209],[-66.1637339,-17.368975],[-66.1635894,-17.3694995],[-66.1633104,-17.3704268],[-66.1632793,-17.3705342],[-66.1629707,-17.3716013],[-66.1629631,-17.3716275],[-66.1628606,-17.3719817],[-66.1627881,-17.3722325],[-66.1627415,-17.3723846],[-66.1627243,-17.3724486],[-66.1626975,-17.3725484],[-66.1626738,-17.3726282],[-66.1626655,-17.372657],[-66.1626469,-17.3727147],[-66.1624847,-17.3732722],[-66.1623417,-17.3737608],[-66.1619469,-17.3751099],[-66.1619132,-17.3752197],[-66.1618519,-17.3754289],[-66.1618315,-17.3754986],[-66.1615816,-17.3763513],[-66.1615755,-17.3763721],[-66.1615553,-17.3764448],[-66.1615333,-17.3765194],[-66.1613573,-17.3771167],[-66.1611004,-17.3779932],[-66.1610775,-17.3780745],[-66.1610462,-17.3781873],[-66.1610272,-17.3782558],[-66.1609592,-17.3784883],[-66.1609424,-17.3785457],[-66.1608112,-17.3789943],[-66.1607831,-17.3790903],[-66.1607443,-17.3792232],[-66.1604215,-17.3803268],[-66.1603952,-17.3804271],[-66.1603946,-17.380447],[-66.1603903,-17.3805384],[-66.1604026,-17.3806234],[-66.1604292,-17.3807053],[-66.160446,-17.3807533],[-66.1604502,-17.3808037],[-66.1604418,-17.3808536],[-66.1604211,-17.3809001],[-66.1603894,-17.3809406],[-66.1603483,-17.3810263],[-66.1603242,-17.3810949],[-66.1603011,-17.3811631],[-66.1602836,-17.3812089],[-66.1602648,-17.3812714],[-66.1602553,-17.381306],[-66.1601491,-17.3816632],[-66.1601392,-17.381699],[-66.160118,-17.3817783],[-66.1601068,-17.3818443],[-66.1600997,-17.3819171],[-66.1601024,-17.3820084],[-66.160124,-17.3821361],[-66.1601469,-17.3822132],[-66.1601468,-17.3822926],[-66.1601403,-17.382329],[-66.1601337,-17.3823653],[-66.1601052,-17.3824327],[-66.1600491,-17.3824933],[-66.1599485,-17.3825638],[-66.1598111,-17.3826671],[-66.1597435,-17.3827412],[-66.1596513,-17.3828653],[-66.1596135,-17.3829447],[-66.1595022,-17.3830911],[-66.1593386,-17.3833062],[-66.1593007,-17.383356],[-66.1591066,-17.3836114],[-66.1589959,-17.383757],[-66.1588865,-17.3839009],[-66.1588472,-17.3839526],[-66.1588041,-17.3840085],[-66.1587884,-17.3840289],[-66.1586145,-17.3842548],[-66.1584148,-17.384514],[-66.1583937,-17.3845414],[-66.1583738,-17.3845669],[-66.1582879,-17.3846768],[-66.1580811,-17.3849472],[-66.1579708,-17.3850718],[-66.1579598,-17.3850858],[-66.1579357,-17.3851178],[-66.1578614,-17.3852154],[-66.1577607,-17.3853388],[-66.1575084,-17.3856628],[-66.1568608,-17.38651],[-66.1567872,-17.3866071],[-66.1567448,-17.3866577],[-66.1564624,-17.3870295],[-66.1560665,-17.3875508],[-66.1560532,-17.3875977],[-66.1560502,-17.3876487],[-66.1560494,-17.3877097],[-66.1562979,-17.3877537],[-66.156277,-17.3878777],[-66.1562142,-17.3884451],[-66.156169,-17.3887191],[-66.1561573,-17.388816],[-66.1560704,-17.3887901],[-66.1554886,-17.3886972],[-66.1552071,-17.3886532],[-66.1551357,-17.3886467],[-66.1550609,-17.3886428],[-66.1540332,-17.3884258],[-66.1529838,-17.388202],[-66.1518364,-17.3879394],[-66.1517708,-17.3879252],[-66.1517588,-17.3879999],[-66.1516101,-17.388925],[-66.151604,-17.3889628],[-66.1515995,-17.3889879],[-66.1515922,-17.3890291],[-66.1514143,-17.390025],[-66.1512469,-17.3911242],[-66.1512362,-17.3911812],[-66.1512194,-17.3912742],[-66.1512104,-17.3913248],[-66.1511296,-17.3917295],[-66.1510383,-17.3921922],[-66.151028,-17.3922446],[-66.1510205,-17.3922844],[-66.1508421,-17.3932269],[-66.150834,-17.3932743],[-66.1508222,-17.3933342],[-66.1506546,-17.3943283],[-66.1504423,-17.3953552],[-66.1503862,-17.3956441],[-66.1502362,-17.3964175],[-66.1500348,-17.3975665],[-66.150021,-17.3976385],[-66.1500136,-17.3976877],[-66.1499487,-17.3984764],[-66.1499407,-17.3985529],[-66.1499065,-17.3990035],[-66.1498494,-17.3998668],[-66.1500222,-17.3998728],[-66.1501395,-17.3998796],[-66.1502575,-17.399903],[-66.1503592,-17.3999303],[-66.1504801,-17.3999711],[-66.1506108,-17.4000341],[-66.1507434,-17.4001219],[-66.1508693,-17.4002252],[-66.150939,-17.4002895],[-66.1510132,-17.4003714],[-66.1510832,-17.4004668],[-66.1511583,-17.4005867],[-66.1512403,-17.4007535],[-66.1512896,-17.400901],[-66.1513107,-17.4010414],[-66.1513179,-17.401207],[-66.1513116,-17.4013496],[-66.1512901,-17.4014743],[-66.1512351,-17.4016052],[-66.1510926,-17.4019104],[-66.1510363,-17.4020268],[-66.1510003,-17.4021361],[-66.1509697,-17.4022563],[-66.1509643,-17.4023812]],"nodes":[789429554,789429389,2318926442,13195228781,789429813,789429546,789429985,789429623,789429906,789429516,5087687428,2318885066,5417692961,2318926512,2318926493,12550741928,7790231605,7790231606,12550741927,789429445,789429686,789429917,789429946,4292497912,789429919,2318885095,2318926581,5422513993,2318926574,2318926556,789429668,789429400,789429844,789429618,789429980,789402962,789403033,789402925,6040305574,789402995,2318885105,789403076,789402968,789403038,789429920,7244001666,2318926599,789429533,7235717955,2318926607,2319145521,789429816,11305988949,789429408,2318926612,12542331629,6548530625,12542331628,789429585,11071572389,2318926613,2318926615,7235717915,789429889,2318926616,2318926621,12550245677,789429502,2319145553,8921352629,8228333118,2319145564,2319145582,10286957077,391742182,786837188,8921352626,851595223,4092054738,4826368371,9421257730,5423606637,1849462822,4826368384,4092053658,1573956127,11079404847,2317801102,2938504605,2938504607,3281552574,3281552575,8336001235,1573955997,5395813233,1577578193,2317801105,851594958,2317801107,1849462862,2938504639,4293894336,4293894903,3549077680,2555201623,1574086933,4293894917,1849462889,5040236968,5040236973,1577578151,3283363688,1849462895,11296295738,1849462897,4092054740,1865014746,1849462899,4503707176,1849462903,2160400899,11535045442,11707600500,851594766,11707600508,11707600537,1849462931,11707600531,2160400887,11071395285,11071395287,2160399194,1849462952,1849462955,3267779271,851594781,1849462957,11071450643,1849462968,2468432986,851594784,3267779294,1849462970,1849462977,851594885,2555201638,1849462984,851595399,11071450645,11070168865,1849462988,851595224,1849462993,3267790091,851595009,1849462996,1849462999,851595124,8927805091,851595343,11071300152,851594756,3658380318,2468433001,11069861999,11069861998,851594726,9175127262,851595044,5262484220,3658380321,851594788,12551721135,3658380322,563279735,563279728,1849463009,1849463010,851595235,10774545005,2331301978,10774545014,3296125249,9845867331,851594830,2290559025,9531771391,9768692252,9529353644,3300171298,2851923904,9768692251,3300171307,2851923908,3300171306,7304392738,9482805073,13161542286,851595381,7304392739,851595065,3275133584,9875778017,851594888,9948774394,2851923697,851595095,9482805148,9875772987,851594793,3275133586,9768692260,9768692261,9875778108,851594812,9875778128,9875778124,2331301984,9482805154,4929965582,9875778078,851594894,851595276,3674260515,2331302074,2331302094,9655177095,2331302104,7436801323,4261955416,11071382475,7436801327,9003433500,2331302139,2331302155,2331302169,4728105068,1726098719,598151876,9021398260,4728105055,2331302188,9655267009,12509888237,5560268904,12509911134,9731395675,2287827715,598151867,599541188,2287827757,10705908990,2287827775,9731395623,11941128474,2538203114,2287827791,8587411318,2370240939,11997866376,9797631610,689437336,11997826500,2296580487,2296580493,598151865,8423552836,2296580502,12409937736,11079100480,11079057399,11079105205,11079057401,598151864,9309922472,2296580751,2296580762,2296580773,2296580797,2296580808,8356437270,2296580827,2296580841,2296580860,2745674359,8356393909,2296580889,8356393896,8356393898,315120853,1636934221,8362746232,2296580913,8362746230,315121330,2312198087,315121318,315123534,315121319,10859658790,315123540,315121320,315121321,315121322,315121324,315121326,315032954,315122225,2312198310,8498956719,315120406,2312198349,12410976762,2312198364,843382865,2686119186,9141014729,9141014739,8147646008,12361931195,12361931196,2316430803,1718842329,2316430856,10839957166,2900514433,2900514438,8267963999,8365550317,2316430973,315033203,2296981998,10996487166,315032956,8326919828,2296982079,319768764,8326914441,2296982114,10684678844,2294524811,310501185,2294519106,8365550218,2294519093,308300562,2294524810,310501186,310501187,4341946253,310501188,4341946255,3952902739,310501176,7919097328,3952902747,308306728,2289661502,303214821,698492410,2289661567,1851061867,2318884993,310256065,8515866939,8686453437,303215161,8686453438,310287558,310500687,8398265856,310500993,9121686991,310501008,9121686993,1727306399,648548725,311361483,323985741,8089836059,3322574432,8089836057,2236815474,323985099,3322574439,323985098,3322574447,12313136860,3322574450,323985733,323985728,323985094,3322575566,3322575582,323985091,3322575621,702511972,323985713,323985089,323985705,323985934,6129312154,6129312155]},"gtfs":{"agency_id":17,"route_id":38,"services":[{"service_id":"Mo-Su","startTime":"06:00","endTime":"22:00","trip_id":9380215}],"filteredStops":{"nodes":[789429554,789429389,2318926442,13195228781,789429813,789429546,789429985,789429623,789429906,789429516,5087687428,2318885066,5417692961,2318926512,2318926493,12550741928,7790231605,7790231606,12550741927,789429445,789429686,789429917,789429946,4292497912,789429919,2318885095,2318926581,5422513993,2318926574,2318926556,789429668,789429400,789429844,789429618,789429980,789402962,789403033,789402925,6040305574,789402995,2318885105,789403076,789402968,789403038,789429920,7244001666,2318926599,789429533,7235717955,2318926607,2319145521,789429816,11305988949,789429408,2318926612,12542331629,6548530625,12542331628,789429585,11071572389,2318926613,2318926615,7235717915,789429889,2318926616,2318926621,12550245677,789429502,2319145553,8921352629,8228333118,2319145564,2319145582,10286957077,391742182,786837188,8921352626,851595223,4092054738,4826368371,9421257730,5423606637,1849462822,4826368384,4092053658,1573956127,11079404847,2317801102,2938504605,2938504607,3281552574,3281552575,8336001235,1573955997,5395813233,1577578193,2317801105,851594958,2317801107,1849462862,2938504639,4293894336,4293894903,3549077680,2555201623,1574086933,4293894917,1849462889,5040236968,5040236973,1577578151,3283363688,1849462895,11296295738,1849462897,4092054740,1865014746,1849462899,4503707176,1849462903,2160400899,11535045442,11707600500,851594766,11707600508,11707600537,1849462931,11707600531,2160400887,11071395285,11071395287,2160399194,1849462952,1849462955,3267779271,851594781,1849462957,11071450643,1849462968,2468432986,851594784,3267779294,1849462970,1849462977,851594885,2555201638,1849462984,851595399,11071450645,11070168865,1849462988,851595224,1849462993,3267790091,851595009,1849462996,1849462999,851595124,8927805091,851595343,11071300152,851594756,3658380318,2468433001,11069861999,11069861998,851594726,9175127262,851595044,5262484220,3658380321,851594788,12551721135,3658380322,563279735,563279728,1849463009,1849463010,851595235,10774545005,2331301978,10774545014,3296125249,9845867331,851594830,2290559025,9531771391,9768692252,9529353644,3300171298,2851923904,9768692251,3300171307,2851923908,3300171306,7304392738,9482805073,13161542286,851595381,7304392739,851595065,3275133584,9875778017,851594888,9948774394,2851923697,851595095,9482805148,9875772987,851594793,3275133586,9768692260,9768692261,9875778108,851594812,9875778128,9875778124,2331301984,9482805154,4929965582,9875778078,851594894,851595276,3674260515,2331302074,2331302094,9655177095,2331302104,7436801323,4261955416,11071382475,7436801327,9003433500,2331302139,2331302155,2331302169,4728105068,1726098719,598151876,9021398260,4728105055,2331302188,9655267009,12509888237,5560268904,12509911134,9731395675,2287827715,598151867,599541188,2287827757,10705908990,2287827775,9731395623,11941128474,2538203114,2287827791,8587411318,2370240939,11997866376,9797631610,689437336,11997826500,2296580487,2296580493,598151865,8423552836,2296580502,12409937736,11079100480,11079057399,11079105205,11079057401,598151864,9309922472,2296580751,2296580762,2296580773,2296580797,2296580808,8356437270,2296580827,2296580841,2296580860,2745674359,8356393909,2296580889,8356393896,8356393898,315120853,1636934221,8362746232,2296580913,8362746230,315121330,2312198087,315121318,315123534,315121319,10859658790,315123540,315121320,315121321,315121322,315121324,315121326,315032954,315122225,2312198310,8498956719,315120406,2312198349,12410976762,2312198364,843382865,2686119186,9141014729,9141014739,8147646008,12361931195,12361931196,2316430803,1718842329,2316430856,10839957166,2900514433,2900514438,8267963999,8365550317,2316430973,315033203,2296981998,10996487166,315032956,8326919828,2296982079,319768764,8326914441,2296982114,10684678844,2294524811,310501185,2294519106,8365550218,2294519093,308300562,2294524810,310501186,310501187,4341946253,310501188,4341946255,3952902739,310501176,7919097328,3952902747,308306728,2289661502,303214821,698492410,2289661567,1851061867,2318884993,310256065,8515866939,8686453437,303215161,8686453438,310287558,310500687,8398265856,310500993,9121686991,310501008,9121686993,1727306399,648548725,311361483,323985741,8089836059,3322574432,8089836057,2236815474,323985099,3322574439,323985098,3322574447,12313136860,3322574450,323985733,323985728,323985094,3322575566,3322575582,323985091,3322575621,702511972,323985713,323985089,323985705,323985934,6129312154,6129312155],"coordinates":[[-66.2014365,-17.3292289],[-66.2006706,-17.3295079],[-66.200734,-17.3296792],[-66.2003253,-17.3298801],[-66.2000125,-17.330128],[-66.1992973,-17.3306093],[-66.1986616,-17.3309622],[-66.1988776,-17.3313223],[-66.1985909,-17.3315059],[-66.1982136,-17.3317075],[-66.1980216,-17.3318637],[-66.1975222,-17.3322521],[-66.197252,-17.3324476],[-66.1966344,-17.3330533],[-66.1965895,-17.3331022],[-66.1966032,-17.3331778],[-66.1966596,-17.3332738],[-66.1967314,-17.3333796],[-66.1967978,-17.3334609],[-66.1968616,-17.3334979],[-66.1972837,-17.3339885],[-66.1978806,-17.3346861],[-66.1983076,-17.3351998],[-66.1989322,-17.335918],[-66.1989546,-17.3360146],[-66.1995154,-17.3366505],[-66.1996692,-17.3361875],[-66.1997444,-17.3359092],[-66.1997384,-17.3356746],[-66.1997716,-17.3352861],[-66.199756,-17.3349784],[-66.2001358,-17.3350768],[-66.2006768,-17.3353734],[-66.20121,-17.3357132],[-66.2015484,-17.3358466],[-66.2015358,-17.3359368],[-66.2014531,-17.3362489],[-66.201327,-17.3365932],[-66.2013194,-17.3366893],[-66.2013038,-17.3368856],[-66.2013008,-17.3370274],[-66.2013101,-17.3374427],[-66.2013481,-17.3376909],[-66.2016809,-17.3384353],[-66.2017395,-17.3385809],[-66.2020575,-17.3387958],[-66.2023627,-17.3390019],[-66.2024851,-17.3391266],[-66.2025986,-17.3393305],[-66.2027243,-17.3395563],[-66.2029788,-17.3400179],[-66.2031494,-17.3403211],[-66.203369,-17.3408097],[-66.2035255,-17.3411578],[-66.2036702,-17.3414642],[-66.2037157,-17.3415745],[-66.2038326,-17.3419689],[-66.2038473,-17.3420069],[-66.2038592,-17.342051],[-66.2038797,-17.3421043],[-66.2038952,-17.3421806],[-66.2038981,-17.3422546],[-66.2038875,-17.3423237],[-66.2037986,-17.3425187],[-66.2036206,-17.3427997],[-66.203578,-17.3428749],[-66.2035741,-17.3429114],[-66.2035791,-17.34295],[-66.2037089,-17.3431678],[-66.2037491,-17.343234],[-66.2039719,-17.3435719],[-66.2039904,-17.3436013],[-66.2045612,-17.3445203],[-66.2048326,-17.3449717],[-66.2048617,-17.3450189],[-66.2049133,-17.3451279],[-66.2043116,-17.3453634],[-66.2042144,-17.3453991],[-66.2041561,-17.3454287],[-66.2036611,-17.345667],[-66.2033826,-17.3458024],[-66.2029937,-17.3459914],[-66.2027057,-17.3461282],[-66.2025158,-17.3462099],[-66.2023733,-17.3462723],[-66.2022868,-17.3463085],[-66.2011817,-17.3467548],[-66.2005236,-17.347033],[-66.2003118,-17.3471131],[-66.1999673,-17.3472561],[-66.1999066,-17.3472805],[-66.1998019,-17.3473211],[-66.1996959,-17.3473615],[-66.1986244,-17.3478087],[-66.1983887,-17.3479038],[-66.1975452,-17.3482488],[-66.1969189,-17.3485083],[-66.1966774,-17.3486211],[-66.1965222,-17.3486977],[-66.1959066,-17.3490435],[-66.1946996,-17.3496712],[-66.1941674,-17.3499621],[-66.1939153,-17.3500999],[-66.1935202,-17.3503159],[-66.193244,-17.3504752],[-66.1929365,-17.3506544],[-66.1926213,-17.3508604],[-66.1923719,-17.3510234],[-66.1922896,-17.3510787],[-66.1920062,-17.351265],[-66.1917342,-17.3514518],[-66.1915437,-17.3515827],[-66.1913324,-17.3517395],[-66.1907466,-17.3521766],[-66.1907138,-17.3522011],[-66.1899628,-17.3528104],[-66.1898741,-17.3528787],[-66.1897727,-17.352958],[-66.1889861,-17.3535872],[-66.1889207,-17.3536392],[-66.1880863,-17.3542805],[-66.1878493,-17.354472],[-66.1877648,-17.3545343],[-66.1877324,-17.3545599],[-66.1876662,-17.3546102],[-66.1876366,-17.3546327],[-66.1875869,-17.3546705],[-66.1875266,-17.3547178],[-66.187126,-17.3550327],[-66.1866871,-17.3553771],[-66.185658,-17.3561774],[-66.1856109,-17.356214],[-66.1850746,-17.3565958],[-66.184936,-17.3567105],[-66.1848006,-17.3568306],[-66.1847301,-17.3569011],[-66.1846468,-17.3570138],[-66.1840773,-17.3578876],[-66.1833082,-17.3589644],[-66.1832508,-17.3590284],[-66.1831977,-17.3590967],[-66.1831341,-17.3591824],[-66.1830695,-17.3592918],[-66.1826633,-17.3601208],[-66.1821207,-17.3612509],[-66.1820694,-17.3613293],[-66.1817636,-17.3618311],[-66.1814995,-17.36224],[-66.1814453,-17.3623112],[-66.1813907,-17.3623714],[-66.1812461,-17.3625434],[-66.1810592,-17.3627734],[-66.1808856,-17.3629293],[-66.1806538,-17.3631396],[-66.1804759,-17.3632776],[-66.1799864,-17.3636602],[-66.1796769,-17.3638997],[-66.1794633,-17.364045],[-66.1793056,-17.3641448],[-66.1790011,-17.3643096],[-66.178873,-17.3643769],[-66.1787583,-17.3644371],[-66.1786344,-17.3644825],[-66.1785679,-17.3645046],[-66.1785234,-17.3645185],[-66.178408,-17.3645546],[-66.1783719,-17.3645654],[-66.178284,-17.3645885],[-66.1779812,-17.3646935],[-66.1767955,-17.3650514],[-66.1767575,-17.3650629],[-66.1766743,-17.3650875],[-66.1765439,-17.3651266],[-66.1764768,-17.3651467],[-66.1751548,-17.3655435],[-66.1750141,-17.3655887],[-66.1749184,-17.3656146],[-66.1748031,-17.3656383],[-66.1733237,-17.3657397],[-66.1718641,-17.365821],[-66.1717966,-17.3658248],[-66.1715775,-17.3658391],[-66.1714925,-17.3658447],[-66.1714101,-17.3658491],[-66.1712985,-17.3658629],[-66.1711497,-17.3658979],[-66.1711192,-17.3659051],[-66.1709461,-17.3659562],[-66.1706407,-17.3660461],[-66.1704853,-17.3660898],[-66.1703409,-17.3661184],[-66.1702301,-17.3661286],[-66.1701006,-17.3661299],[-66.1699469,-17.3661229],[-66.1697832,-17.3661045],[-66.1696172,-17.3660766],[-66.1694981,-17.3660445],[-66.1694323,-17.3660214],[-66.1693403,-17.3659874],[-66.1690477,-17.3658885],[-66.1688934,-17.3658519],[-66.1687179,-17.3658213],[-66.1686355,-17.3658171],[-66.1685651,-17.3658135],[-66.1682722,-17.3657976],[-66.1679002,-17.3657773],[-66.1678124,-17.3657801],[-66.167736,-17.3657875],[-66.16768,-17.365801],[-66.1676156,-17.3658199],[-66.1675492,-17.3658444],[-66.167449,-17.3658858],[-66.1672959,-17.3659658],[-66.1670355,-17.3661164],[-66.1669496,-17.366166],[-66.1668968,-17.3661974],[-66.1666857,-17.366323],[-66.1665063,-17.3664424],[-66.1661295,-17.3667085],[-66.1661032,-17.3667279],[-66.1658913,-17.366882],[-66.1658373,-17.3669237],[-66.1651421,-17.3674257],[-66.1642493,-17.3680575],[-66.1641573,-17.3681314],[-66.1640875,-17.3681998],[-66.1640592,-17.3682405],[-66.1640437,-17.368284],[-66.164057,-17.3683599],[-66.1640552,-17.3684238],[-66.1640528,-17.3684526],[-66.1640391,-17.3685209],[-66.1640145,-17.3685864],[-66.1639797,-17.3686476],[-66.1639354,-17.3687028],[-66.1638826,-17.3687505],[-66.1638262,-17.3688157],[-66.1637969,-17.3688607],[-66.1637566,-17.3689209],[-66.1637339,-17.368975],[-66.1635894,-17.3694995],[-66.1633104,-17.3704268],[-66.1632793,-17.3705342],[-66.1629707,-17.3716013],[-66.1629631,-17.3716275],[-66.1628606,-17.3719817],[-66.1627881,-17.3722325],[-66.1627415,-17.3723846],[-66.1627243,-17.3724486],[-66.1626975,-17.3725484],[-66.1626738,-17.3726282],[-66.1626655,-17.372657],[-66.1626469,-17.3727147],[-66.1624847,-17.3732722],[-66.1623417,-17.3737608],[-66.1619469,-17.3751099],[-66.1619132,-17.3752197],[-66.1618519,-17.3754289],[-66.1618315,-17.3754986],[-66.1615816,-17.3763513],[-66.1615755,-17.3763721],[-66.1615553,-17.3764448],[-66.1615333,-17.3765194],[-66.1613573,-17.3771167],[-66.1611004,-17.3779932],[-66.1610775,-17.3780745],[-66.1610462,-17.3781873],[-66.1610272,-17.3782558],[-66.1609592,-17.3784883],[-66.1609424,-17.3785457],[-66.1608112,-17.3789943],[-66.1607831,-17.3790903],[-66.1607443,-17.3792232],[-66.1604215,-17.3803268],[-66.1603952,-17.3804271],[-66.1603946,-17.380447],[-66.1603903,-17.3805384],[-66.1604026,-17.3806234],[-66.1604292,-17.3807053],[-66.160446,-17.3807533],[-66.1604502,-17.3808037],[-66.1604418,-17.3808536],[-66.1604211,-17.3809001],[-66.1603894,-17.3809406],[-66.1603483,-17.3810263],[-66.1603242,-17.3810949],[-66.1603011,-17.3811631],[-66.1602836,-17.3812089],[-66.1602648,-17.3812714],[-66.1602553,-17.381306],[-66.1601491,-17.3816632],[-66.1601392,-17.381699],[-66.160118,-17.3817783],[-66.1601068,-17.3818443],[-66.1600997,-17.3819171],[-66.1601024,-17.3820084],[-66.160124,-17.3821361],[-66.1601469,-17.3822132],[-66.1601468,-17.3822926],[-66.1601403,-17.382329],[-66.1601337,-17.3823653],[-66.1601052,-17.3824327],[-66.1600491,-17.3824933],[-66.1599485,-17.3825638],[-66.1598111,-17.3826671],[-66.1597435,-17.3827412],[-66.1596513,-17.3828653],[-66.1596135,-17.3829447],[-66.1595022,-17.3830911],[-66.1593386,-17.3833062],[-66.1593007,-17.383356],[-66.1591066,-17.3836114],[-66.1589959,-17.383757],[-66.1588865,-17.3839009],[-66.1588472,-17.3839526],[-66.1588041,-17.3840085],[-66.1587884,-17.3840289],[-66.1586145,-17.3842548],[-66.1584148,-17.384514],[-66.1583937,-17.3845414],[-66.1583738,-17.3845669],[-66.1582879,-17.3846768],[-66.1580811,-17.3849472],[-66.1579708,-17.3850718],[-66.1579598,-17.3850858],[-66.1579357,-17.3851178],[-66.1578614,-17.3852154],[-66.1577607,-17.3853388],[-66.1575084,-17.3856628],[-66.1568608,-17.38651],[-66.1567872,-17.3866071],[-66.1567448,-17.3866577],[-66.1564624,-17.3870295],[-66.1560665,-17.3875508],[-66.1560532,-17.3875977],[-66.1560502,-17.3876487],[-66.1560494,-17.3877097],[-66.1562979,-17.3877537],[-66.156277,-17.3878777],[-66.1562142,-17.3884451],[-66.156169,-17.3887191],[-66.1561573,-17.388816],[-66.1560704,-17.3887901],[-66.1554886,-17.3886972],[-66.1552071,-17.3886532],[-66.1551357,-17.3886467],[-66.1550609,-17.3886428],[-66.1540332,-17.3884258],[-66.1529838,-17.388202],[-66.1518364,-17.3879394],[-66.1517708,-17.3879252],[-66.1517588,-17.3879999],[-66.1516101,-17.388925],[-66.151604,-17.3889628],[-66.1515995,-17.3889879],[-66.1515922,-17.3890291],[-66.1514143,-17.390025],[-66.1512469,-17.3911242],[-66.1512362,-17.3911812],[-66.1512194,-17.3912742],[-66.1512104,-17.3913248],[-66.1511296,-17.3917295],[-66.1510383,-17.3921922],[-66.151028,-17.3922446],[-66.1510205,-17.3922844],[-66.1508421,-17.3932269],[-66.150834,-17.3932743],[-66.1508222,-17.3933342],[-66.1506546,-17.3943283],[-66.1504423,-17.3953552],[-66.1503862,-17.3956441],[-66.1502362,-17.3964175],[-66.1500348,-17.3975665],[-66.150021,-17.3976385],[-66.1500136,-17.3976877],[-66.1499487,-17.3984764],[-66.1499407,-17.3985529],[-66.1499065,-17.3990035],[-66.1498494,-17.3998668],[-66.1500222,-17.3998728],[-66.1501395,-17.3998796],[-66.1502575,-17.399903],[-66.1503592,-17.3999303],[-66.1504801,-17.3999711],[-66.1506108,-17.4000341],[-66.1507434,-17.4001219],[-66.1508693,-17.4002252],[-66.150939,-17.4002895],[-66.1510132,-17.4003714],[-66.1510832,-17.4004668],[-66.1511583,-17.4005867],[-66.1512403,-17.4007535],[-66.1512896,-17.400901],[-66.1513107,-17.4010414],[-66.1513179,-17.401207],[-66.1513116,-17.4013496],[-66.1512901,-17.4014743],[-66.1512351,-17.4016052],[-66.1510926,-17.4019104],[-66.1510363,-17.4020268],[-66.1510003,-17.4021361],[-66.1509697,-17.4022563],[-66.1509643,-17.4023812]]}}}]}