{"type":"FeatureCollection","features":[{"type":"Feature","properties":{"from":"Calle Litoral","name":"MicroBus 200: Calle Litoral → Avenida Blanco Galindo","network":"BO:CB:Cochabamba","on_demand":"yes","operator":"Sindicato mixto de transportistas línea 7 Nuestra Señora de Urkupiña","public_transport:version":"2","ref":"200","route":"bus","to":"Avenida Blanco Galindo","type":"route","wheelchair":"no","id":9380122},"geometry":{"type":"LineString","coordinates":[[-66.14171160000001,-17.399952300000002],[-66.14175350000001,-17.399958700000003],[-66.1419329,-17.399986100000003],[-66.14220800000001,-17.4000272],[-66.142426,-17.399084700000003],[-66.1419213,-17.399018700000003],[-66.1412178,-17.398923200000002],[-66.1411635,-17.3989158],[-66.14106980000001,-17.398902600000003],[-66.1407435,-17.3988568],[-66.1406343,-17.398841400000002],[-66.1405517,-17.3988298],[-66.13962590000001,-17.398693700000003],[-66.1396562,-17.3986281],[-66.13989330000001,-17.398115200000003],[-66.1399786,-17.397932100000002],[-66.14070770000001,-17.396336400000003],[-66.14073540000001,-17.3962758],[-66.1407681,-17.3962043],[-66.14145420000001,-17.394703200000002],[-66.141484,-17.3946387],[-66.14150590000001,-17.3945896],[-66.14177520000001,-17.3940245],[-66.1418082,-17.3939294],[-66.14178980000001,-17.3939184],[-66.14177620000001,-17.3939047],[-66.1417677,-17.393890900000002],[-66.1417617,-17.393872100000003],[-66.1417608,-17.3938522],[-66.14176520000001,-17.393832800000002],[-66.14177500000001,-17.3938147],[-66.1417888,-17.393800000000002],[-66.1418057,-17.393789400000003],[-66.14182480000001,-17.3937831],[-66.1418395,-17.3937814],[-66.1418543,-17.3937823],[-66.14187790000001,-17.3937896],[-66.1419298,-17.393674700000002],[-66.1423273,-17.3927935],[-66.14234640000001,-17.3927549],[-66.1427214,-17.3919144],[-66.14274520000001,-17.3918573],[-66.142807,-17.3918675],[-66.1430857,-17.3919132],[-66.1436259,-17.3920019],[-66.143713,-17.3920162],[-66.1441346,-17.3920855],[-66.1442415,-17.392103000000002],[-66.14437070000001,-17.392124300000003],[-66.14440970000001,-17.392130700000003],[-66.1445767,-17.392158100000003],[-66.1448295,-17.3921996],[-66.1451071,-17.392245600000003],[-66.1453273,-17.392282],[-66.1458099,-17.3923619],[-66.14664900000001,-17.3925276],[-66.14683430000001,-17.3925626],[-66.1468937,-17.3925734],[-66.1473167,-17.3926404],[-66.14743340000001,-17.3926589],[-66.1474477,-17.392583400000003],[-66.1474795,-17.3924182],[-66.1475326,-17.3921537],[-66.1475868,-17.3918748],[-66.1476172,-17.391718200000003],[-66.14761220000001,-17.391651300000003],[-66.14769030000001,-17.391283],[-66.14773620000001,-17.391052000000002],[-66.14781880000001,-17.3906941],[-66.14783290000001,-17.390629500000003],[-66.1478539,-17.3905406],[-66.14791960000001,-17.3905534],[-66.14884900000001,-17.390734100000003],[-66.14890910000001,-17.3907458],[-66.1489818,-17.3907597],[-66.1498937,-17.3909339],[-66.14996670000001,-17.3909479],[-66.14997810000001,-17.390874],[-66.15009660000001,-17.390268900000002],[-66.15018280000001,-17.3898291],[-66.1501946,-17.3897684],[-66.15014330000001,-17.389758200000003],[-66.1500862,-17.3897464],[-66.1500285,-17.3896792],[-66.1499919,-17.389626900000003],[-66.14985870000001,-17.3894366],[-66.1496274,-17.3891111],[-66.14944530000001,-17.3888366],[-66.1493179,-17.388644900000003],[-66.148589,-17.3875935],[-66.1484621,-17.3874105],[-66.14843490000001,-17.387371400000003],[-66.14833270000001,-17.387223900000002],[-66.14830710000001,-17.387187400000002],[-66.14793540000001,-17.386657500000002],[-66.14772880000001,-17.386363000000003],[-66.14756630000001,-17.386131300000002],[-66.1475097,-17.386091200000003],[-66.1474661,-17.386071700000002],[-66.1473526,-17.386028600000003],[-66.14667370000001,-17.3858035],[-66.14623200000001,-17.385745200000002],[-66.14608410000001,-17.385725700000002],[-66.14602980000001,-17.3857253],[-66.14596940000001,-17.385730900000002],[-66.14592560000001,-17.3857441],[-66.1458719,-17.3856827],[-66.1452079,-17.384857200000003],[-66.14510870000001,-17.3847357],[-66.145082,-17.384703100000003],[-66.1450446,-17.384657400000002],[-66.1449984,-17.384598200000003],[-66.14507,-17.384572400000003],[-66.146158,-17.384180500000003],[-66.14622080000001,-17.3841579],[-66.1462906,-17.384132800000003],[-66.1463477,-17.3841122],[-66.1472727,-17.383778300000003],[-66.14820420000001,-17.3834474],[-66.1485894,-17.3833106],[-66.1489533,-17.383179700000003],[-66.1490955,-17.383129],[-66.14916210000001,-17.3831053],[-66.1492743,-17.383065100000003],[-66.14933350000001,-17.3830439],[-66.1494967,-17.3829853],[-66.149764,-17.3828897],[-66.14985940000001,-17.382855300000003],[-66.1502562,-17.3827128],[-66.1503052,-17.3826952],[-66.15036950000001,-17.382672000000003],[-66.15045400000001,-17.382641500000002],[-66.15108470000001,-17.382414500000003],[-66.151104,-17.3824076],[-66.1511249,-17.3824],[-66.15120510000001,-17.3823717],[-66.1511821,-17.382277900000002],[-66.1511753,-17.3821817],[-66.1511847,-17.382085800000002],[-66.15120870000001,-17.3819921],[-66.1512426,-17.381916500000003],[-66.15128870000001,-17.3818471],[-66.1513456,-17.381785400000002],[-66.15141200000001,-17.381733],[-66.1514719,-17.3816993],[-66.15149600000001,-17.381685800000003],[-66.15159390000001,-17.3816542],[-66.15166280000001,-17.3816452],[-66.15170730000001,-17.3816394],[-66.15173970000001,-17.3816251],[-66.1517833,-17.381598],[-66.1518025,-17.3815591],[-66.1518475,-17.3811894],[-66.1518611,-17.381000500000003],[-66.1518774,-17.3809356],[-66.1519038,-17.380875600000003],[-66.1519208,-17.380693700000002],[-66.1519222,-17.380536900000003],[-66.151916,-17.380429200000002],[-66.15189400000001,-17.380340200000003],[-66.15185410000001,-17.380171200000003],[-66.1518253,-17.3801178],[-66.15180400000001,-17.380065300000002],[-66.15179640000001,-17.3799886],[-66.1518147,-17.379913600000002],[-66.1518573,-17.3798485],[-66.15194650000001,-17.379775900000002],[-66.1519992,-17.379713600000002],[-66.15201180000001,-17.379693500000002],[-66.1520205,-17.3796697],[-66.15211330000001,-17.379303200000003],[-66.15211810000001,-17.3792855],[-66.1521299,-17.379230500000002],[-66.1521326,-17.3791766],[-66.1521338,-17.379120200000003],[-66.152129,-17.378966100000003],[-66.15210330000001,-17.378598],[-66.1520897,-17.3785653],[-66.1520699,-17.378535600000003],[-66.152038,-17.378510000000002],[-66.15200300000001,-17.3784849],[-66.1519693,-17.378450500000003],[-66.1519463,-17.378408800000003],[-66.1519354,-17.3783575],[-66.15194070000001,-17.3783053],[-66.1519631,-17.378260500000003],[-66.15199770000001,-17.378223300000002],[-66.15202810000001,-17.378204800000002],[-66.15204170000001,-17.3781965],[-66.1520916,-17.378182300000002],[-66.15214370000001,-17.3781816],[-66.1521941,-17.378194500000003],[-66.1522388,-17.378220000000002],[-66.152265,-17.3782445],[-66.1522858,-17.3782734],[-66.152299,-17.378308800000003],[-66.1523011,-17.378331900000003],[-66.1523004,-17.3783727],[-66.1522903,-17.3784123],[-66.1522712,-17.3784488],[-66.1522441,-17.378480300000003],[-66.1522145,-17.378505500000003],[-66.1521876,-17.378536],[-66.1521745,-17.378571400000002],[-66.15217170000001,-17.378594600000003],[-66.1521987,-17.3790121],[-66.15222680000001,-17.379056300000002],[-66.1522508,-17.3790839],[-66.1522966,-17.379119300000003],[-66.15235670000001,-17.3791465],[-66.15283020000001,-17.3792751],[-66.15288770000001,-17.3792894],[-66.15304900000001,-17.379343000000002],[-66.1533497,-17.3794398],[-66.15404840000001,-17.379605400000003],[-66.15413720000001,-17.379626400000003],[-66.1542197,-17.379646700000002],[-66.1549129,-17.3798172],[-66.15502740000001,-17.379844900000002],[-66.15541540000001,-17.379939],[-66.15592840000001,-17.380063500000002],[-66.1559909,-17.3800801],[-66.15602840000001,-17.380089700000003],[-66.1562384,-17.3801843],[-66.1565436,-17.380263300000003],[-66.15667380000001,-17.3802974],[-66.1567579,-17.3803088],[-66.15694160000001,-17.380309],[-66.15717070000001,-17.380307000000002],[-66.15742110000001,-17.3802971],[-66.15759750000001,-17.380294000000003],[-66.1577262,-17.3803032],[-66.1578521,-17.380318300000003],[-66.1589235,-17.380448100000002],[-66.1592037,-17.380482100000002],[-66.1593155,-17.3805471],[-66.1593934,-17.3805681],[-66.15943510000001,-17.3805853],[-66.15951550000001,-17.380641],[-66.159608,-17.3807151],[-66.15972450000001,-17.3808311],[-66.1598051,-17.380904100000002],[-66.15987650000001,-17.3809508],[-66.1599716,-17.3809925],[-66.160435,-17.381082600000003],[-66.1604844,-17.3810949],[-66.1605509,-17.3811196],[-66.16060590000001,-17.3811436],[-66.1606771,-17.3811895],[-66.16077870000001,-17.3812557],[-66.1608803,-17.381308100000002],[-66.1609686,-17.381345500000002],[-66.1612379,-17.3814224],[-66.16134450000001,-17.3814561],[-66.1614857,-17.3815062],[-66.16167490000001,-17.3815925],[-66.16186920000001,-17.381692800000003],[-66.1620764,-17.3818343],[-66.16218160000001,-17.381906100000002],[-66.1622347,-17.3819422],[-66.16238720000001,-17.3820532],[-66.16248270000001,-17.3821271],[-66.16252150000001,-17.3821562],[-66.1626507,-17.3822593],[-66.16273170000001,-17.382323900000003],[-66.1628726,-17.3824392],[-66.1630963,-17.3826392],[-66.16331360000001,-17.3828502],[-66.1635655,-17.383110300000002],[-66.1639368,-17.383520800000003],[-66.1639763,-17.383565100000002],[-66.1640313,-17.3835315],[-66.1644234,-17.3833163],[-66.1649338,-17.383026400000002],[-66.165,-17.382982900000002],[-66.1650955,-17.382928800000002],[-66.1657984,-17.3825353],[-66.16587220000001,-17.3824927],[-66.1659211,-17.382451200000002],[-66.1660554,-17.382349],[-66.1661292,-17.382301400000003],[-66.166132,-17.3822696],[-66.1661419,-17.3822377],[-66.16615870000001,-17.382208400000003],[-66.16618890000001,-17.3821741],[-66.166223,-17.382149100000003],[-66.166252,-17.3821347],[-66.166283,-17.382125000000002],[-66.16631530000001,-17.3821201],[-66.166348,-17.3821203],[-66.1663762,-17.3821245],[-66.1664173,-17.382137500000002],[-66.16645580000001,-17.3821608],[-66.1664805,-17.382183],[-66.1664988,-17.3822048],[-66.16651440000001,-17.382231100000002],[-66.1665256,-17.3822593],[-66.16653190000001,-17.3822884],[-66.16660040000001,-17.382337600000003],[-66.16666310000001,-17.3823766],[-66.1667128,-17.3824067],[-66.16676100000001,-17.3824352],[-66.1668271,-17.3824638],[-66.16690050000001,-17.3824949],[-66.1669851,-17.382526000000002],[-66.16705830000001,-17.3825523],[-66.1679091,-17.382858000000002],[-66.16798200000001,-17.382884],[-66.16875280000001,-17.3831589],[-66.16928990000001,-17.3833324],[-66.1694037,-17.3833641],[-66.16955180000001,-17.3833987],[-66.16955610000001,-17.3833941],[-66.1695931,-17.383366300000002],[-66.1696373,-17.3833509],[-66.1696843,-17.383349300000003],[-66.16972960000001,-17.3833616],[-66.16974110000001,-17.3833673],[-66.1697836,-17.3834021],[-66.16980980000001,-17.3834494],[-66.16981600000001,-17.383502500000002],[-66.16980140000001,-17.3835541],[-66.169797,-17.3835622],[-66.1697821,-17.383658200000003],[-66.16976360000001,-17.3837505],[-66.1697503,-17.3838437],[-66.16974230000001,-17.3839374],[-66.1697396,-17.3840314],[-66.1698097,-17.3843673],[-66.1700096,-17.3853754],[-66.1700272,-17.3854642],[-66.17004510000001,-17.3855502],[-66.1700773,-17.3857043],[-66.17009150000001,-17.385772600000003],[-66.17015020000001,-17.385868300000002],[-66.17025050000001,-17.3863562],[-66.17038520000001,-17.387011700000002],[-66.17048190000001,-17.3874454],[-66.1705034,-17.387504900000003],[-66.1705393,-17.387559800000002],[-66.17064880000001,-17.3877039],[-66.1706686,-17.387726200000003],[-66.1706841,-17.3877513],[-66.1706953,-17.387779300000002],[-66.1707014,-17.387808600000003],[-66.1707023,-17.387838400000003],[-66.17069620000001,-17.3878768],[-66.17067870000001,-17.387915300000003],[-66.1706552,-17.387945900000002],[-66.17063320000001,-17.387965700000002],[-66.17058610000001,-17.3880455],[-66.17057600000001,-17.3880765],[-66.1705659,-17.3881075],[-66.1705579,-17.3881811],[-66.170568,-17.3888256],[-66.1705932,-17.3895269],[-66.17059420000001,-17.389574500000002],[-66.170602,-17.3899538],[-66.1706029,-17.3900058],[-66.1706042,-17.3900614],[-66.1706053,-17.3901173],[-66.1706154,-17.3906075],[-66.1706166,-17.3906646],[-66.1706322,-17.3912321],[-66.17063320000001,-17.3913963],[-66.1706443,-17.392117900000002],[-66.170648,-17.3921944],[-66.1706589,-17.3922576],[-66.1706765,-17.392855500000003],[-66.17069640000001,-17.3936521],[-66.17074980000001,-17.3936785],[-66.17079840000001,-17.3936913],[-66.1708693,-17.3936917],[-66.1723743,-17.3936297],[-66.173901,-17.3935555],[-66.17390370000001,-17.393598400000002],[-66.17391160000001,-17.393719800000003],[-66.17400640000001,-17.393716400000002],[-66.1743586,-17.393702100000002],[-66.1744115,-17.393699700000003],[-66.17644320000001,-17.393610000000002],[-66.17657580000001,-17.393604],[-66.17680170000001,-17.3935944],[-66.1775114,-17.393564400000002],[-66.17858620000001,-17.3935123],[-66.17997820000001,-17.3934515],[-66.18095240000001,-17.3934044],[-66.181751,-17.393372900000003],[-66.1823452,-17.3933444],[-66.1841002,-17.393278300000002],[-66.1844521,-17.3932597],[-66.1864116,-17.3931714],[-66.18663930000001,-17.3931593],[-66.1874124,-17.3931268],[-66.1888567,-17.393062800000003],[-66.18927430000001,-17.3930444],[-66.1911252,-17.3929577],[-66.1921353,-17.3929072],[-66.19389860000001,-17.392841200000003],[-66.19472350000001,-17.3928088],[-66.1969299,-17.392707700000003],[-66.19707530000001,-17.3927008],[-66.1987218,-17.392627],[-66.1989338,-17.392616500000003],[-66.19947400000001,-17.3925896],[-66.19953740000001,-17.392586400000003],[-66.1996008,-17.392583300000002],[-66.1996781,-17.392580000000002],[-66.19981580000001,-17.3925734],[-66.20019090000001,-17.3925553],[-66.2025337,-17.3924534],[-66.2032418,-17.3924227],[-66.203618,-17.3924063],[-66.2050914,-17.3923528],[-66.20721280000001,-17.392253800000002],[-66.2074111,-17.3922446],[-66.20800460000001,-17.3922214],[-66.2080229,-17.3922206],[-66.2080916,-17.3922175],[-66.20818460000001,-17.392214300000003]],"nodes":[8090151671,11910834852,8090151707,8090151674,702512053,702512054,9886703803,702512055,9886703805,9886703801,9886703804,702512056,391725774,8250700095,598788350,8090197938,8619110577,598789213,8619110576,8253508695,598787365,8253508693,9886485059,9886485061,11072493720,11072493714,11072493717,2033335336,11072493721,2033335237,11072493722,2033335171,11072493725,11072493716,11072493726,10597422695,2033335103,9886485075,315134805,8584400934,8620183347,303221552,8620183345,8620183423,3578038899,303221553,8661106030,2702743907,303215031,5096122271,8623738790,8978596851,3740735352,8978596850,3232582109,360129540,2089612819,8674788834,12153256567,3201986249,6164251645,11909154044,8686453506,9068706359,2524491869,310255844,1851061810,9565672264,1873958880,698492417,303212786,1873958873,1873958883,303214819,1873958885,2866811500,303214820,2866811499,13041417514,9591270798,303217664,2470422220,2295135876,9400884786,9591270797,8568166668,2470422192,3201986226,315096054,1720012828,6179473251,6179485008,1720012825,6179473246,2160406974,11827181929,360137304,9889059626,6179473094,6179473090,360137247,360137246,10597781300,360137245,9027225291,360136833,9027225290,360136722,5092157041,2210596428,2361168092,360136442,2590032711,2590032683,1720012829,1807100710,2590032671,310501195,10733874389,312425652,2321582862,9351779449,2321582859,2321582858,9351779444,2321582853,10733874386,312425546,9068826697,2321582843,9068826501,9351779435,9891062434,10597815716,2220379187,2441014290,2220379125,6179537718,9068826356,8355285956,9068826355,8355285957,2220379067,9068826368,11815830409,2220379033,6606671263,11081648808,6606671264,9068826353,9068826351,8355285965,9068826448,2220378980,312425272,9311178495,8365941768,9068826414,315226441,2220378931,2220378894,8365941769,2220378835,2220378817,2220378788,2220378759,8427474484,1636934157,8427474482,315225069,315225067,2441014234,8427474504,1636934136,1636934117,2212559878,8456364943,8459438737,2212559862,2212559849,2212559813,2212559784,8456364942,2212559768,2212559747,2212559735,2212559729,13287386670,2212559723,2212559719,2212559721,2212559725,9075020138,2212559733,9419763477,8459438775,8459438774,8459438773,2212559780,2212559802,8456364945,2212559840,8459438762,8456364972,391753192,315225066,1636934105,1636934125,2494503257,1636934128,10125348129,8456362897,1636934148,602989634,9042466410,391756530,9042489741,598151881,9042489745,2384907379,497207708,9042489753,9042489752,2296981819,8347818498,4867424190,2296981828,602989635,497207728,2296981826,8337095603,1636883435,8337099516,2296981839,8337095602,8337099493,497207744,8337099492,497207748,2296580798,497207753,2555090894,2296580847,497207757,497208130,7703825389,7703825388,8356393889,1636934197,8356393890,7703825392,598151852,2971955861,8415715280,1636934201,497207225,2296580910,8427474469,4322549908,5548631716,2296580917,2296580919,8415784729,9736931535,8415784720,2971956189,8415784749,497207229,2312521288,5243810857,1722458958,5243810840,598179068,4478186976,598179075,4478186970,4478186959,598179046,8398804556,1722458928,2971955929,11079435443,11079435441,9352684183,2971955921,8398804552,2971955920,2971955919,6806354346,6806354345,9352684186,9736311253,9352684189,2971955922,9352684190,9352684191,9352684192,6806354344,2971956164,8398804559,8398769912,8398804560,598179040,8398804561,2971956191,11045409903,598179038,9736311249,599541132,6806354340,2972424291,6806412400,2972424293,2972424288,3593740854,2972424286,6806354338,2972424289,9356030773,2972424299,2972424311,6806354331,2972424325,2972424437,11079435447,2972424438,598178983,8947856390,598178980,9894887117,598178976,9894887103,9894887104,598178974,9892523601,9892523578,598178941,1806931203,3250373482,7058428982,1718722266,9343503250,3250373496,9343503249,3250373501,3250373512,11361265661,11361265660,9343503246,3250373518,3250373523,9894977666,1806931207,9194618753,563279669,563279671,9873615236,9222357059,6175794740,3729619524,9222357024,9873615234,563279659,3250373525,563279552,563279556,12300469248,13140253489,563279529,13303071584,13303071596,13303071592,11081593218,563279519,563279515,2527263173,2527263184,12585601545,2527263182,9081435138,563279499,2339557951,9081523771,2354386743,560522668,563279456,689437115,4398499281,9017927548,6326490902,4398318267,4398499272,2635402927,2354386761,560522361,2292218251,2292218247,2418530992,5581228588,2418530981,2137733242,2137733243,1807038051,12650627924,8235455989,12650627935,1807038048,2354386770,2429829237,6846214146,11084175485,11084175483,6846214133,2417368043,11084175482,8200481419,8235936958,9374958478,5579061862,3641784408]},"gtfs":{"agency_id":1,"route_id":"200","services":[{"service_id":"Mo-Su","startTime":"06:00","endTime":"22:00","trip_id":9380122}],"filteredStops":{"nodes":[8090151671,11910834852,8090151707,8090151674,702512053,702512054,9886703803,702512055,9886703805,9886703801,9886703804,702512056,391725774,8250700095,598788350,8090197938,8619110577,598789213,8619110576,8253508695,598787365,8253508693,9886485059,9886485061,11072493720,11072493714,11072493717,2033335336,11072493721,2033335237,11072493722,2033335171,11072493725,11072493716,11072493726,10597422695,2033335103,9886485075,315134805,8584400934,8620183347,303221552,8620183345,8620183423,3578038899,303221553,8661106030,2702743907,303215031,5096122271,8623738790,8978596851,3740735352,8978596850,3232582109,360129540,2089612819,8674788834,12153256567,3201986249,6164251645,11909154044,8686453506,9068706359,2524491869,310255844,1851061810,9565672264,1873958880,698492417,303212786,1873958873,1873958883,303214819,1873958885,2866811500,303214820,2866811499,13041417514,9591270798,303217664,2470422220,2295135876,9400884786,9591270797,8568166668,2470422192,3201986226,315096054,1720012828,6179473251,6179485008,1720012825,6179473246,2160406974,11827181929,360137304,9889059626,6179473094,6179473090,360137247,360137246,10597781300,360137245,9027225291,360136833,9027225290,360136722,5092157041,2210596428,2361168092,360136442,2590032711,2590032683,1720012829,1807100710,2590032671,310501195,10733874389,312425652,2321582862,9351779449,2321582859,2321582858,9351779444,2321582853,10733874386,312425546,9068826697,2321582843,9068826501,9351779435,9891062434,10597815716,2220379187,2441014290,2220379125,6179537718,9068826356,8355285956,9068826355,8355285957,2220379067,9068826368,11815830409,2220379033,6606671263,11081648808,6606671264,9068826353,9068826351,8355285965,9068826448,2220378980,312425272,9311178495,8365941768,9068826414,315226441,2220378931,2220378894,8365941769,2220378835,2220378817,2220378788,2220378759,8427474484,1636934157,8427474482,315225069,315225067,2441014234,8427474504,1636934136,1636934117,2212559878,8456364943,8459438737,2212559862,2212559849,2212559813,2212559784,8456364942,2212559768,2212559747,2212559735,2212559729,13287386670,2212559723,2212559719,2212559721,2212559725,9075020138,2212559733,9419763477,8459438775,8459438774,8459438773,2212559780,2212559802,8456364945,2212559840,8459438762,8456364972,391753192,315225066,1636934105,1636934125,2494503257,1636934128,10125348129,8456362897,1636934148,602989634,9042466410,391756530,9042489741,598151881,9042489745,2384907379,497207708,9042489753,9042489752,2296981819,8347818498,4867424190,2296981828,602989635,497207728,2296981826,8337095603,1636883435,8337099516,2296981839,8337095602,8337099493,497207744,8337099492,497207748,2296580798,497207753,2555090894,2296580847,497207757,497208130,7703825389,7703825388,8356393889,1636934197,8356393890,7703825392,598151852,2971955861,8415715280,1636934201,497207225,2296580910,8427474469,4322549908,5548631716,2296580917,2296580919,8415784729,9736931535,8415784720,2971956189,8415784749,497207229,2312521288,5243810857,1722458958,5243810840,598179068,4478186976,598179075,4478186970,4478186959,598179046,8398804556,1722458928,2971955929,11079435443,11079435441,9352684183,2971955921,8398804552,2971955920,2971955919,6806354346,6806354345,9352684186,9736311253,9352684189,2971955922,9352684190,9352684191,9352684192,6806354344,2971956164,8398804559,8398769912,8398804560,598179040,8398804561,2971956191,11045409903,598179038,9736311249,599541132,6806354340,2972424291,6806412400,2972424293,2972424288,3593740854,2972424286,6806354338,2972424289,9356030773,2972424299,2972424311,6806354331,2972424325,2972424437,11079435447,2972424438,598178983,8947856390,598178980,9894887117,598178976,9894887103,9894887104,598178974,9892523601,9892523578,598178941,1806931203,3250373482,7058428982,1718722266,9343503250,3250373496,9343503249,3250373501,3250373512,11361265661,11361265660,9343503246,3250373518,3250373523,9894977666,1806931207,9194618753,563279669,563279671,9873615236,9222357059,6175794740,3729619524,9222357024,9873615234,563279659,3250373525,563279552,563279556,12300469248,13140253489,563279529,13303071584,13303071596,13303071592,11081593218,563279519,563279515,2527263173,2527263184,12585601545,2527263182,9081435138,563279499,2339557951,9081523771,2354386743,560522668,563279456,689437115,4398499281,9017927548,6326490902,4398318267,4398499272,2635402927,2354386761,560522361,2292218251,2292218247,2418530992,5581228588,2418530981,2137733242,2137733243,1807038051,12650627924,8235455989,12650627935,1807038048,2354386770,2429829237,6846214146,11084175485,11084175483,6846214133,2417368043,11084175482,8200481419,8235936958,9374958478,5579061862,3641784408],"coordinates":[[-66.14171160000001,-17.399952300000002],[-66.14175350000001,-17.399958700000003],[-66.1419329,-17.399986100000003],[-66.14220800000001,-17.4000272],[-66.142426,-17.399084700000003],[-66.1419213,-17.399018700000003],[-66.1412178,-17.398923200000002],[-66.1411635,-17.3989158],[-66.14106980000001,-17.398902600000003],[-66.1407435,-17.3988568],[-66.1406343,-17.398841400000002],[-66.1405517,-17.3988298],[-66.13962590000001,-17.398693700000003],[-66.1396562,-17.3986281],[-66.13989330000001,-17.398115200000003],[-66.1399786,-17.397932100000002],[-66.14070770000001,-17.396336400000003],[-66.14073540000001,-17.3962758],[-66.1407681,-17.3962043],[-66.14145420000001,-17.394703200000002],[-66.141484,-17.3946387],[-66.14150590000001,-17.3945896],[-66.14177520000001,-17.3940245],[-66.1418082,-17.3939294],[-66.14178980000001,-17.3939184],[-66.14177620000001,-17.3939047],[-66.1417677,-17.393890900000002],[-66.1417617,-17.393872100000003],[-66.1417608,-17.3938522],[-66.14176520000001,-17.393832800000002],[-66.14177500000001,-17.3938147],[-66.1417888,-17.393800000000002],[-66.1418057,-17.393789400000003],[-66.14182480000001,-17.3937831],[-66.1418395,-17.3937814],[-66.1418543,-17.3937823],[-66.14187790000001,-17.3937896],[-66.1419298,-17.393674700000002],[-66.1423273,-17.3927935],[-66.14234640000001,-17.3927549],[-66.1427214,-17.3919144],[-66.14274520000001,-17.3918573],[-66.142807,-17.3918675],[-66.1430857,-17.3919132],[-66.1436259,-17.3920019],[-66.143713,-17.3920162],[-66.1441346,-17.3920855],[-66.1442415,-17.392103000000002],[-66.14437070000001,-17.392124300000003],[-66.14440970000001,-17.392130700000003],[-66.1445767,-17.392158100000003],[-66.1448295,-17.3921996],[-66.1451071,-17.392245600000003],[-66.1453273,-17.392282],[-66.1458099,-17.3923619],[-66.14664900000001,-17.3925276],[-66.14683430000001,-17.3925626],[-66.1468937,-17.3925734],[-66.1473167,-17.3926404],[-66.14743340000001,-17.3926589],[-66.1474477,-17.392583400000003],[-66.1474795,-17.3924182],[-66.1475326,-17.3921537],[-66.1475868,-17.3918748],[-66.1476172,-17.391718200000003],[-66.14761220000001,-17.391651300000003],[-66.14769030000001,-17.391283],[-66.14773620000001,-17.391052000000002],[-66.14781880000001,-17.3906941],[-66.14783290000001,-17.390629500000003],[-66.1478539,-17.3905406],[-66.14791960000001,-17.3905534],[-66.14884900000001,-17.390734100000003],[-66.14890910000001,-17.3907458],[-66.1489818,-17.3907597],[-66.1498937,-17.3909339],[-66.14996670000001,-17.3909479],[-66.14997810000001,-17.390874],[-66.15009660000001,-17.390268900000002],[-66.15018280000001,-17.3898291],[-66.1501946,-17.3897684],[-66.15014330000001,-17.389758200000003],[-66.1500862,-17.3897464],[-66.1500285,-17.3896792],[-66.1499919,-17.389626900000003],[-66.14985870000001,-17.3894366],[-66.1496274,-17.3891111],[-66.14944530000001,-17.3888366],[-66.1493179,-17.388644900000003],[-66.148589,-17.3875935],[-66.1484621,-17.3874105],[-66.14843490000001,-17.387371400000003],[-66.14833270000001,-17.387223900000002],[-66.14830710000001,-17.387187400000002],[-66.14793540000001,-17.386657500000002],[-66.14772880000001,-17.386363000000003],[-66.14756630000001,-17.386131300000002],[-66.1475097,-17.386091200000003],[-66.1474661,-17.386071700000002],[-66.1473526,-17.386028600000003],[-66.14667370000001,-17.3858035],[-66.14623200000001,-17.385745200000002],[-66.14608410000001,-17.385725700000002],[-66.14602980000001,-17.3857253],[-66.14596940000001,-17.385730900000002],[-66.14592560000001,-17.3857441],[-66.1458719,-17.3856827],[-66.1452079,-17.384857200000003],[-66.14510870000001,-17.3847357],[-66.145082,-17.384703100000003],[-66.1450446,-17.384657400000002],[-66.1449984,-17.384598200000003],[-66.14507,-17.384572400000003],[-66.146158,-17.384180500000003],[-66.14622080000001,-17.3841579],[-66.1462906,-17.384132800000003],[-66.1463477,-17.3841122],[-66.1472727,-17.383778300000003],[-66.14820420000001,-17.3834474],[-66.1485894,-17.3833106],[-66.1489533,-17.383179700000003],[-66.1490955,-17.383129],[-66.14916210000001,-17.3831053],[-66.1492743,-17.383065100000003],[-66.14933350000001,-17.3830439],[-66.1494967,-17.3829853],[-66.149764,-17.3828897],[-66.14985940000001,-17.382855300000003],[-66.1502562,-17.3827128],[-66.1503052,-17.3826952],[-66.15036950000001,-17.382672000000003],[-66.15045400000001,-17.382641500000002],[-66.15108470000001,-17.382414500000003],[-66.151104,-17.3824076],[-66.1511249,-17.3824],[-66.15120510000001,-17.3823717],[-66.1511821,-17.382277900000002],[-66.1511753,-17.3821817],[-66.1511847,-17.382085800000002],[-66.15120870000001,-17.3819921],[-66.1512426,-17.381916500000003],[-66.15128870000001,-17.3818471],[-66.1513456,-17.381785400000002],[-66.15141200000001,-17.381733],[-66.1514719,-17.3816993],[-66.15149600000001,-17.381685800000003],[-66.15159390000001,-17.3816542],[-66.15166280000001,-17.3816452],[-66.15170730000001,-17.3816394],[-66.15173970000001,-17.3816251],[-66.1517833,-17.381598],[-66.1518025,-17.3815591],[-66.1518475,-17.3811894],[-66.1518611,-17.381000500000003],[-66.1518774,-17.3809356],[-66.1519038,-17.380875600000003],[-66.1519208,-17.380693700000002],[-66.1519222,-17.380536900000003],[-66.151916,-17.380429200000002],[-66.15189400000001,-17.380340200000003],[-66.15185410000001,-17.380171200000003],[-66.1518253,-17.3801178],[-66.15180400000001,-17.380065300000002],[-66.15179640000001,-17.3799886],[-66.1518147,-17.379913600000002],[-66.1518573,-17.3798485],[-66.15194650000001,-17.379775900000002],[-66.1519992,-17.379713600000002],[-66.15201180000001,-17.379693500000002],[-66.1520205,-17.3796697],[-66.15211330000001,-17.379303200000003],[-66.15211810000001,-17.3792855],[-66.1521299,-17.379230500000002],[-66.1521326,-17.3791766],[-66.1521338,-17.379120200000003],[-66.152129,-17.378966100000003],[-66.15210330000001,-17.378598],[-66.1520897,-17.3785653],[-66.1520699,-17.378535600000003],[-66.152038,-17.378510000000002],[-66.15200300000001,-17.3784849],[-66.1519693,-17.378450500000003],[-66.1519463,-17.378408800000003],[-66.1519354,-17.3783575],[-66.15194070000001,-17.3783053],[-66.1519631,-17.378260500000003],[-66.15199770000001,-17.378223300000002],[-66.15202810000001,-17.378204800000002],[-66.15204170000001,-17.3781965],[-66.1520916,-17.378182300000002],[-66.15214370000001,-17.3781816],[-66.1521941,-17.378194500000003],[-66.1522388,-17.378220000000002],[-66.152265,-17.3782445],[-66.1522858,-17.3782734],[-66.152299,-17.378308800000003],[-66.1523011,-17.378331900000003],[-66.1523004,-17.3783727],[-66.1522903,-17.3784123],[-66.1522712,-17.3784488],[-66.1522441,-17.378480300000003],[-66.1522145,-17.378505500000003],[-66.1521876,-17.378536],[-66.1521745,-17.378571400000002],[-66.15217170000001,-17.378594600000003],[-66.1521987,-17.3790121],[-66.15222680000001,-17.379056300000002],[-66.1522508,-17.3790839],[-66.1522966,-17.379119300000003],[-66.15235670000001,-17.3791465],[-66.15283020000001,-17.3792751],[-66.15288770000001,-17.3792894],[-66.15304900000001,-17.379343000000002],[-66.1533497,-17.3794398],[-66.15404840000001,-17.379605400000003],[-66.15413720000001,-17.379626400000003],[-66.1542197,-17.379646700000002],[-66.1549129,-17.3798172],[-66.15502740000001,-17.379844900000002],[-66.15541540000001,-17.379939],[-66.15592840000001,-17.380063500000002],[-66.1559909,-17.3800801],[-66.15602840000001,-17.380089700000003],[-66.1562384,-17.3801843],[-66.1565436,-17.380263300000003],[-66.15667380000001,-17.3802974],[-66.1567579,-17.3803088],[-66.15694160000001,-17.380309],[-66.15717070000001,-17.380307000000002],[-66.15742110000001,-17.3802971],[-66.15759750000001,-17.380294000000003],[-66.1577262,-17.3803032],[-66.1578521,-17.380318300000003],[-66.1589235,-17.380448100000002],[-66.1592037,-17.380482100000002],[-66.1593155,-17.3805471],[-66.1593934,-17.3805681],[-66.15943510000001,-17.3805853],[-66.15951550000001,-17.380641],[-66.159608,-17.3807151],[-66.15972450000001,-17.3808311],[-66.1598051,-17.380904100000002],[-66.15987650000001,-17.3809508],[-66.1599716,-17.3809925],[-66.160435,-17.381082600000003],[-66.1604844,-17.3810949],[-66.1605509,-17.3811196],[-66.16060590000001,-17.3811436],[-66.1606771,-17.3811895],[-66.16077870000001,-17.3812557],[-66.1608803,-17.381308100000002],[-66.1609686,-17.381345500000002],[-66.1612379,-17.3814224],[-66.16134450000001,-17.3814561],[-66.1614857,-17.3815062],[-66.16167490000001,-17.3815925],[-66.16186920000001,-17.381692800000003],[-66.1620764,-17.3818343],[-66.16218160000001,-17.381906100000002],[-66.1622347,-17.3819422],[-66.16238720000001,-17.3820532],[-66.16248270000001,-17.3821271],[-66.16252150000001,-17.3821562],[-66.1626507,-17.3822593],[-66.16273170000001,-17.382323900000003],[-66.1628726,-17.3824392],[-66.1630963,-17.3826392],[-66.16331360000001,-17.3828502],[-66.1635655,-17.383110300000002],[-66.1639368,-17.383520800000003],[-66.1639763,-17.383565100000002],[-66.1640313,-17.3835315],[-66.1644234,-17.3833163],[-66.1649338,-17.383026400000002],[-66.165,-17.382982900000002],[-66.1650955,-17.382928800000002],[-66.1657984,-17.3825353],[-66.16587220000001,-17.3824927],[-66.1659211,-17.382451200000002],[-66.1660554,-17.382349],[-66.1661292,-17.382301400000003],[-66.166132,-17.3822696],[-66.1661419,-17.3822377],[-66.16615870000001,-17.382208400000003],[-66.16618890000001,-17.3821741],[-66.166223,-17.382149100000003],[-66.166252,-17.3821347],[-66.166283,-17.382125000000002],[-66.16631530000001,-17.3821201],[-66.166348,-17.3821203],[-66.1663762,-17.3821245],[-66.1664173,-17.382137500000002],[-66.16645580000001,-17.3821608],[-66.1664805,-17.382183],[-66.1664988,-17.3822048],[-66.16651440000001,-17.382231100000002],[-66.1665256,-17.3822593],[-66.16653190000001,-17.3822884],[-66.16660040000001,-17.382337600000003],[-66.16666310000001,-17.3823766],[-66.1667128,-17.3824067],[-66.16676100000001,-17.3824352],[-66.1668271,-17.3824638],[-66.16690050000001,-17.3824949],[-66.1669851,-17.382526000000002],[-66.16705830000001,-17.3825523],[-66.1679091,-17.382858000000002],[-66.16798200000001,-17.382884],[-66.16875280000001,-17.3831589],[-66.16928990000001,-17.3833324],[-66.1694037,-17.3833641],[-66.16955180000001,-17.3833987],[-66.16955610000001,-17.3833941],[-66.1695931,-17.383366300000002],[-66.1696373,-17.3833509],[-66.1696843,-17.383349300000003],[-66.16972960000001,-17.3833616],[-66.16974110000001,-17.3833673],[-66.1697836,-17.3834021],[-66.16980980000001,-17.3834494],[-66.16981600000001,-17.383502500000002],[-66.16980140000001,-17.3835541],[-66.169797,-17.3835622],[-66.1697821,-17.383658200000003],[-66.16976360000001,-17.3837505],[-66.1697503,-17.3838437],[-66.16974230000001,-17.3839374],[-66.1697396,-17.3840314],[-66.1698097,-17.3843673],[-66.1700096,-17.3853754],[-66.1700272,-17.3854642],[-66.17004510000001,-17.3855502],[-66.1700773,-17.3857043],[-66.17009150000001,-17.385772600000003],[-66.17015020000001,-17.385868300000002],[-66.17025050000001,-17.3863562],[-66.17038520000001,-17.387011700000002],[-66.17048190000001,-17.3874454],[-66.1705034,-17.387504900000003],[-66.1705393,-17.387559800000002],[-66.17064880000001,-17.3877039],[-66.1706686,-17.387726200000003],[-66.1706841,-17.3877513],[-66.1706953,-17.387779300000002],[-66.1707014,-17.387808600000003],[-66.1707023,-17.387838400000003],[-66.17069620000001,-17.3878768],[-66.17067870000001,-17.387915300000003],[-66.1706552,-17.387945900000002],[-66.17063320000001,-17.387965700000002],[-66.17058610000001,-17.3880455],[-66.17057600000001,-17.3880765],[-66.1705659,-17.3881075],[-66.1705579,-17.3881811],[-66.170568,-17.3888256],[-66.1705932,-17.3895269],[-66.17059420000001,-17.389574500000002],[-66.170602,-17.3899538],[-66.1706029,-17.3900058],[-66.1706042,-17.3900614],[-66.1706053,-17.3901173],[-66.1706154,-17.3906075],[-66.1706166,-17.3906646],[-66.1706322,-17.3912321],[-66.17063320000001,-17.3913963],[-66.1706443,-17.392117900000002],[-66.170648,-17.3921944],[-66.1706589,-17.3922576],[-66.1706765,-17.392855500000003],[-66.17069640000001,-17.3936521],[-66.17074980000001,-17.3936785],[-66.17079840000001,-17.3936913],[-66.1708693,-17.3936917],[-66.1723743,-17.3936297],[-66.173901,-17.3935555],[-66.17390370000001,-17.393598400000002],[-66.17391160000001,-17.393719800000003],[-66.17400640000001,-17.393716400000002],[-66.1743586,-17.393702100000002],[-66.1744115,-17.393699700000003],[-66.17644320000001,-17.393610000000002],[-66.17657580000001,-17.393604],[-66.17680170000001,-17.3935944],[-66.1775114,-17.393564400000002],[-66.17858620000001,-17.3935123],[-66.17997820000001,-17.3934515],[-66.18095240000001,-17.3934044],[-66.181751,-17.393372900000003],[-66.1823452,-17.3933444],[-66.1841002,-17.393278300000002],[-66.1844521,-17.3932597],[-66.1864116,-17.3931714],[-66.18663930000001,-17.3931593],[-66.1874124,-17.3931268],[-66.1888567,-17.393062800000003],[-66.18927430000001,-17.3930444],[-66.1911252,-17.3929577],[-66.1921353,-17.3929072],[-66.19389860000001,-17.392841200000003],[-66.19472350000001,-17.3928088],[-66.1969299,-17.392707700000003],[-66.19707530000001,-17.3927008],[-66.1987218,-17.392627],[-66.1989338,-17.392616500000003],[-66.19947400000001,-17.3925896],[-66.19953740000001,-17.392586400000003],[-66.1996008,-17.392583300000002],[-66.1996781,-17.392580000000002],[-66.19981580000001,-17.3925734],[-66.20019090000001,-17.3925553],[-66.2025337,-17.3924534],[-66.2032418,-17.3924227],[-66.203618,-17.3924063],[-66.2050914,-17.3923528],[-66.20721280000001,-17.392253800000002],[-66.2074111,-17.3922446],[-66.20800460000001,-17.3922214],[-66.2080229,-17.3922206],[-66.2080916,-17.3922175],[-66.20818460000001,-17.392214300000003]]}}}]}