{"type":"FeatureCollection","features":[{"type":"Feature","properties":{"check_date":"29/12/2025","from":"Puente Khora","name":"Trufi 113: Puente Khora → La Serena Calicanto","network":"BO:CB:Cochabamba","on_demand":"yes","operator":"Sindicato mixto de transporte 12 de octubre","public_transport:version":"2","ref":"113","route":"bus","to":"La Serena Calicanto","type":"route","wheelchair":"no","id":9392695},"geometry":{"type":"LineString","coordinates":[[-66.2137916,-17.3412532],[-66.2137019,-17.3412961],[-66.2136206,-17.3413254],[-66.2134291,-17.3413925],[-66.2133654,-17.3414171],[-66.213119,-17.3415124],[-66.212918,-17.3415901],[-66.2124306,-17.3418024],[-66.212404,-17.341814],[-66.212223,-17.3419047],[-66.2121759,-17.3419282],[-66.2112055,-17.3424478],[-66.2110347,-17.3425321],[-66.2086319,-17.3436059],[-66.2085626,-17.3436348],[-66.2079192,-17.3439025],[-66.2078418,-17.3439374],[-66.2072476,-17.3441831],[-66.2069779,-17.3443003],[-66.2068557,-17.3443524],[-66.2064436,-17.3445009],[-66.2062535,-17.3445722],[-66.2061959,-17.3446008],[-66.2061006,-17.3446431],[-66.2058889,-17.3447398],[-66.2054994,-17.3449178],[-66.2050749,-17.3450618],[-66.2049133,-17.3451279],[-66.2043116,-17.3453634],[-66.2042144,-17.3453991],[-66.2041561,-17.3454287],[-66.2036611,-17.345667],[-66.2033826,-17.3458024],[-66.2029937,-17.3459914],[-66.2027057,-17.3461282],[-66.2025158,-17.3462099],[-66.2023733,-17.3462723],[-66.2022868,-17.3463085],[-66.2011817,-17.3467548],[-66.2005236,-17.347033],[-66.2003118,-17.3471131],[-66.1999673,-17.3472561],[-66.1999066,-17.3472805],[-66.1998019,-17.3473211],[-66.1996959,-17.3473615],[-66.1986244,-17.3478087],[-66.1983887,-17.3479038],[-66.1975452,-17.3482488],[-66.1969189,-17.3485083],[-66.1966774,-17.3486211],[-66.1965222,-17.3486977],[-66.1959066,-17.3490435],[-66.1946996,-17.3496712],[-66.1941674,-17.3499621],[-66.1939153,-17.3500999],[-66.1935202,-17.3503159],[-66.193244,-17.3504752],[-66.1929365,-17.3506544],[-66.1926213,-17.3508604],[-66.1923719,-17.3510234],[-66.1922896,-17.3510787],[-66.1920062,-17.351265],[-66.1917342,-17.3514518],[-66.1915437,-17.3515827],[-66.1913324,-17.3517395],[-66.1907466,-17.3521766],[-66.1907138,-17.3522011],[-66.1899628,-17.3528104],[-66.1898741,-17.3528787],[-66.1897727,-17.352958],[-66.1889861,-17.3535872],[-66.1889207,-17.3536392],[-66.1880863,-17.3542805],[-66.1878493,-17.354472],[-66.1877648,-17.3545343],[-66.1877324,-17.3545599],[-66.1876662,-17.3546102],[-66.1876366,-17.3546327],[-66.1875869,-17.3546705],[-66.1875266,-17.3547178],[-66.187126,-17.3550327],[-66.1866871,-17.3553771],[-66.185658,-17.3561774],[-66.1856109,-17.356214],[-66.1850746,-17.3565958],[-66.184936,-17.3567105],[-66.1848006,-17.3568306],[-66.1847301,-17.3569011],[-66.1846468,-17.3570138],[-66.1840773,-17.3578876],[-66.1833082,-17.3589644],[-66.1832508,-17.3590284],[-66.1831977,-17.3590967],[-66.1831341,-17.3591824],[-66.1830695,-17.3592918],[-66.1826633,-17.3601208],[-66.1821207,-17.3612509],[-66.1820694,-17.3613293],[-66.1817636,-17.3618311],[-66.1814995,-17.36224],[-66.1814453,-17.3623112],[-66.1813907,-17.3623714],[-66.1812461,-17.3625434],[-66.1810592,-17.3627734],[-66.1808856,-17.3629293],[-66.1806538,-17.3631396],[-66.1804759,-17.3632776],[-66.1799864,-17.3636602],[-66.1796769,-17.3638997],[-66.1794633,-17.364045],[-66.1793056,-17.3641448],[-66.1790011,-17.3643096],[-66.178873,-17.3643769],[-66.1787583,-17.3644371],[-66.1786344,-17.3644825],[-66.1785679,-17.3645046],[-66.1785234,-17.3645185],[-66.178408,-17.3645546],[-66.1783719,-17.3645654],[-66.178284,-17.3645885],[-66.1779812,-17.3646935],[-66.1767955,-17.3650514],[-66.1767575,-17.3650629],[-66.1766743,-17.3650875],[-66.1765439,-17.3651266],[-66.1764768,-17.3651467],[-66.1751548,-17.3655435],[-66.1750141,-17.3655887],[-66.1749184,-17.3656146],[-66.1748031,-17.3656383],[-66.1733237,-17.3657397],[-66.1718641,-17.365821],[-66.1717966,-17.3658248],[-66.1715775,-17.3658391],[-66.1714925,-17.3658447],[-66.1714101,-17.3658491],[-66.1712985,-17.3658629],[-66.1711497,-17.3658979],[-66.171117,-17.3659059],[-66.1709461,-17.3659562],[-66.1706407,-17.3660461],[-66.1704853,-17.3660898],[-66.1703409,-17.3661184],[-66.1702301,-17.3661286],[-66.1701006,-17.3661299],[-66.1699469,-17.3661229],[-66.1697832,-17.3661045],[-66.1696172,-17.3660766],[-66.1694981,-17.3660445],[-66.1694323,-17.3660214],[-66.1693403,-17.3659874],[-66.1690477,-17.3658885],[-66.1688934,-17.3658519],[-66.1687179,-17.3658213],[-66.1686355,-17.3658171],[-66.1685651,-17.3658135],[-66.1682722,-17.3657976],[-66.1679002,-17.3657773],[-66.1678124,-17.3657801],[-66.167736,-17.3657875],[-66.16768,-17.365801],[-66.1676156,-17.3658199],[-66.1675492,-17.3658444],[-66.167449,-17.3658858],[-66.1672959,-17.3659658],[-66.1670355,-17.3661164],[-66.1669496,-17.366166],[-66.1668968,-17.3661974],[-66.1666857,-17.366323],[-66.1665063,-17.3664424],[-66.1661032,-17.3667279],[-66.1658913,-17.366882],[-66.1658373,-17.3669237],[-66.1651421,-17.3674257],[-66.1642493,-17.3680575],[-66.1641573,-17.3681314],[-66.1640875,-17.3681998],[-66.1640592,-17.3682405],[-66.1640437,-17.368284],[-66.164057,-17.3683599],[-66.1640552,-17.3684238],[-66.1640528,-17.3684526],[-66.1640391,-17.3685209],[-66.1640145,-17.3685864],[-66.1639797,-17.3686476],[-66.1639354,-17.3687028],[-66.1638826,-17.3687505],[-66.1638262,-17.3688157],[-66.1637969,-17.3688607],[-66.1637566,-17.3689209],[-66.1637339,-17.368975],[-66.1635894,-17.3694995],[-66.1633104,-17.3704268],[-66.1632793,-17.3705342],[-66.1629707,-17.3716013],[-66.1629631,-17.3716275],[-66.1628606,-17.3719817],[-66.1627881,-17.3722325],[-66.1627415,-17.3723846],[-66.1627243,-17.3724486],[-66.1626975,-17.3725484],[-66.1626738,-17.3726282],[-66.1626655,-17.372657],[-66.1626469,-17.3727147],[-66.1624847,-17.3732722],[-66.1623417,-17.3737608],[-66.1619469,-17.3751099],[-66.1619132,-17.3752197],[-66.1618519,-17.3754289],[-66.1618315,-17.3754986],[-66.1615816,-17.3763513],[-66.1615755,-17.3763721],[-66.1615553,-17.3764448],[-66.1615333,-17.3765194],[-66.1613573,-17.3771167],[-66.1611004,-17.3779932],[-66.1610775,-17.3780745],[-66.1610462,-17.3781873],[-66.1610272,-17.3782558],[-66.1609592,-17.3784883],[-66.1609424,-17.3785457],[-66.1608112,-17.3789943],[-66.1607831,-17.3790903],[-66.1607443,-17.3792232],[-66.1604215,-17.3803268],[-66.1603952,-17.3804271],[-66.1603946,-17.380447],[-66.1603903,-17.3805384],[-66.1604026,-17.3806234],[-66.1604292,-17.3807053],[-66.160446,-17.3807533],[-66.1604502,-17.3808037],[-66.1604418,-17.3808536],[-66.1604211,-17.3809001],[-66.1603894,-17.3809406],[-66.1603483,-17.3810263],[-66.1603242,-17.3810949],[-66.1603011,-17.3811631],[-66.1602836,-17.3812089],[-66.1602648,-17.3812714],[-66.1602553,-17.381306],[-66.1601491,-17.3816632],[-66.1601392,-17.381699],[-66.160118,-17.3817783],[-66.1601068,-17.3818443],[-66.1600997,-17.3819171],[-66.1601024,-17.3820084],[-66.160124,-17.3821361],[-66.1601469,-17.3822132],[-66.1601468,-17.3822926],[-66.1601403,-17.382329],[-66.1601337,-17.3823653],[-66.1601052,-17.3824327],[-66.1600491,-17.3824933],[-66.1599485,-17.3825638],[-66.1598111,-17.3826671],[-66.1597435,-17.3827412],[-66.1596513,-17.3828653],[-66.1596135,-17.3829447],[-66.1595022,-17.3830911],[-66.1593386,-17.3833062],[-66.1593007,-17.383356],[-66.1591066,-17.3836114],[-66.1589959,-17.383757],[-66.1588865,-17.3839009],[-66.1588472,-17.3839526],[-66.1588041,-17.3840085],[-66.1587884,-17.3840289],[-66.1586145,-17.3842548],[-66.1584148,-17.384514],[-66.1583937,-17.3845414],[-66.1583738,-17.3845669],[-66.1582879,-17.3846768],[-66.1580811,-17.3849472],[-66.1579708,-17.3850718],[-66.1579598,-17.3850858],[-66.1579357,-17.3851178],[-66.1578614,-17.3852154],[-66.1577607,-17.3853388],[-66.1575084,-17.3856628],[-66.1568608,-17.38651],[-66.1567872,-17.3866071],[-66.1568384,-17.3866422],[-66.1575918,-17.3869932],[-66.1576501,-17.3870048],[-66.1577375,-17.3870171],[-66.1586202,-17.387137],[-66.1587007,-17.387146],[-66.1587433,-17.387153],[-66.1598506,-17.3873411],[-66.1599197,-17.3873512],[-66.1607699,-17.3875037],[-66.1608537,-17.3875198],[-66.1609408,-17.3875334],[-66.1613999,-17.3876049],[-66.1619575,-17.3876918],[-66.162025,-17.3877024],[-66.1620126,-17.3877665],[-66.1618625,-17.3885519],[-66.1618505,-17.3886137],[-66.1618391,-17.3886718],[-66.161672,-17.3895113],[-66.1616616,-17.3895634],[-66.1616378,-17.389679],[-66.1616253,-17.3897356],[-66.1616144,-17.3897943],[-66.1614226,-17.3907626],[-66.1612411,-17.3918198],[-66.1610682,-17.3928888],[-66.1610608,-17.3929264],[-66.1610467,-17.3930087],[-66.1610381,-17.393062],[-66.160992,-17.3933439],[-66.1608619,-17.393944],[-66.1606351,-17.3950057],[-66.160432,-17.3960638],[-66.1602321,-17.397104],[-66.1602452,-17.3971867],[-66.1600736,-17.3981211],[-66.1600638,-17.3981838],[-66.1603377,-17.3982298],[-66.1603371,-17.3983246],[-66.1603343,-17.3987565],[-66.1603307,-17.3993122],[-66.1603302,-17.3993931],[-66.1603212,-17.3995399],[-66.1601864,-17.3995393],[-66.160062,-17.3995387],[-66.1600096,-17.3995378],[-66.1591993,-17.3995202],[-66.1587775,-17.3995107],[-66.1587426,-17.39951],[-66.1586708,-17.3995086],[-66.1585614,-17.3995064],[-66.1578434,-17.3994899],[-66.1577288,-17.3994867],[-66.1576362,-17.3994821],[-66.1575773,-17.3994804],[-66.1575564,-17.3994809],[-66.1568789,-17.399583],[-66.1567734,-17.3995917],[-66.1564914,-17.3995873],[-66.1564225,-17.3995781],[-66.1561989,-17.4007931],[-66.1567358,-17.4008781],[-66.1573928,-17.4009738],[-66.1574786,-17.4009863],[-66.1575885,-17.4010023],[-66.1575752,-17.4011537],[-66.157522,-17.4015753],[-66.1574818,-17.4020121],[-66.1574693,-17.4021498],[-66.1574602,-17.4022501],[-66.1574143,-17.4026402],[-66.1573804,-17.4029274],[-66.1573057,-17.4034308],[-66.1571981,-17.4039846],[-66.1571744,-17.4040293],[-66.1571494,-17.4040811],[-66.1569751,-17.4051438],[-66.156929,-17.4053964],[-66.1567149,-17.4065683],[-66.1566752,-17.4068311],[-66.1566081,-17.4073735],[-66.1565791,-17.4075962],[-66.1565643,-17.407672],[-66.1565522,-17.4077489],[-66.1563919,-17.408892],[-66.1562995,-17.4093093],[-66.1562526,-17.409537],[-66.1561494,-17.4101159],[-66.1561031,-17.4104088],[-66.1560788,-17.4106525],[-66.1560387,-17.4110086],[-66.1560072,-17.4112245],[-66.1559384,-17.4117773],[-66.1558986,-17.4121602],[-66.1558652,-17.412308],[-66.15582,-17.4128021],[-66.155802,-17.4129772],[-66.1557786,-17.4130746],[-66.1556684,-17.4134516],[-66.155597,-17.4137089],[-66.1554623,-17.4141784],[-66.1553583,-17.4145796],[-66.1553538,-17.4146993],[-66.1553029,-17.4149216],[-66.1551968,-17.4153846],[-66.1551548,-17.415568],[-66.1551388,-17.415636],[-66.1550868,-17.4158685],[-66.1550003,-17.4162445],[-66.1549887,-17.4163245],[-66.1549873,-17.4165664],[-66.1549843,-17.4166374],[-66.1549456,-17.4175755],[-66.1549104,-17.4185968],[-66.1548531,-17.4196206],[-66.154809,-17.4206282],[-66.1547645,-17.4216432],[-66.1547212,-17.4226723],[-66.1546793,-17.4234506],[-66.1546654,-17.4236667],[-66.1546408,-17.4238334],[-66.1545523,-17.4242489],[-66.1545235,-17.4243591],[-66.1545127,-17.4243973],[-66.1543578,-17.4249471],[-66.1542077,-17.4254905],[-66.154185,-17.4255725],[-66.1541682,-17.4256387],[-66.154041,-17.4260954],[-66.1538003,-17.426738],[-66.153725,-17.4268128],[-66.1535654,-17.4272125],[-66.1534399,-17.4274808],[-66.1532347,-17.4278347],[-66.1530162,-17.4281548],[-66.152997,-17.428241],[-66.1528549,-17.4284418],[-66.1528335,-17.4284849],[-66.152818,-17.4285459],[-66.152818,-17.42862],[-66.1528396,-17.4287073],[-66.152858,-17.4287521],[-66.1528637,-17.4288115],[-66.15285,-17.4288696],[-66.1528182,-17.428921],[-66.1527715,-17.4289607],[-66.152714,-17.4289848],[-66.1526503,-17.4289908],[-66.1525436,-17.4290109],[-66.1524047,-17.4290557],[-66.1522787,-17.4291078],[-66.1521565,-17.4291651],[-66.1520577,-17.4292224],[-66.1519256,-17.429317],[-66.1517503,-17.4294756],[-66.1517,-17.4295437],[-66.1516662,-17.4295894],[-66.1515965,-17.4297048],[-66.1515301,-17.4298395],[-66.1514221,-17.4301143],[-66.1513541,-17.430087],[-66.1512355,-17.4300356],[-66.1511546,-17.4300071],[-66.1511043,-17.4301117],[-66.1509976,-17.4303033],[-66.150945,-17.4303946],[-66.150789,-17.4306762],[-66.1506345,-17.4309354],[-66.1506004,-17.4309925],[-66.1502801,-17.4314649],[-66.150135,-17.4316622],[-66.1500936,-17.4317166],[-66.1498155,-17.4320997],[-66.1496641,-17.4323082],[-66.1488863,-17.4333528],[-66.1485237,-17.4338383],[-66.1482313,-17.4342345],[-66.1479919,-17.434548],[-66.1475408,-17.4351592],[-66.1472387,-17.4355684],[-66.1467522,-17.4362226],[-66.1460377,-17.4371834],[-66.1458844,-17.4374059],[-66.1458164,-17.4375177],[-66.1456856,-17.4377986],[-66.1456591,-17.4378575],[-66.1455681,-17.43802],[-66.145516,-17.4381076],[-66.1454212,-17.4382336],[-66.1452343,-17.4384832],[-66.1451443,-17.4386041],[-66.1450507,-17.4387473],[-66.1449104,-17.4389937],[-66.144151,-17.4403279],[-66.1439442,-17.4406448],[-66.1437244,-17.4409369],[-66.1435908,-17.441086],[-66.1433053,-17.4413912],[-66.1430945,-17.4415835],[-66.1429338,-17.441761],[-66.1428343,-17.4418749],[-66.1427773,-17.4419358],[-66.1426918,-17.4420173],[-66.1423569,-17.4422815],[-66.1421412,-17.4424672],[-66.1411404,-17.4434002],[-66.1408851,-17.4436313],[-66.1408417,-17.4436743],[-66.1404922,-17.4439415],[-66.140133,-17.4441917],[-66.1396954,-17.4444584],[-66.1396471,-17.444485],[-66.1392078,-17.4447273],[-66.138894,-17.4449004],[-66.1371378,-17.4458715],[-66.1362388,-17.4463779],[-66.1353746,-17.4468512],[-66.1352792,-17.4468983],[-66.1352101,-17.4469314],[-66.1351107,-17.4469952],[-66.1349511,-17.4471287],[-66.1348774,-17.447187],[-66.1347861,-17.4472565],[-66.1346633,-17.4473263],[-66.1345591,-17.447386],[-66.1344266,-17.4474486],[-66.1341652,-17.4475761],[-66.1339354,-17.4476831],[-66.1337937,-17.4477683],[-66.1332234,-17.44813],[-66.1326181,-17.4485449],[-66.1319883,-17.4490224],[-66.1314758,-17.4494467],[-66.1312617,-17.4496408],[-66.1309989,-17.4498648],[-66.1307926,-17.4500579],[-66.1307227,-17.4501234],[-66.1304295,-17.4504194],[-66.1300722,-17.4508052],[-66.1299707,-17.4509294],[-66.1296224,-17.4513588],[-66.1293525,-17.4516933],[-66.1293282,-17.4517234],[-66.1292015,-17.4518577],[-66.1290844,-17.451977],[-66.1286531,-17.4524792],[-66.12826,-17.4528841],[-66.1279706,-17.4532096],[-66.1273378,-17.4539386],[-66.1270479,-17.4542759],[-66.126642,-17.4547537],[-66.1262358,-17.4552477],[-66.1260019,-17.4555686],[-66.1259549,-17.4556331],[-66.1257786,-17.4558963],[-66.1256425,-17.4561212],[-66.1255324,-17.4562958],[-66.1252929,-17.4567347],[-66.1248354,-17.4575768],[-66.1245743,-17.4580573],[-66.1245072,-17.4581664],[-66.1243735,-17.4583847],[-66.1243004,-17.4584974],[-66.1242691,-17.4585457],[-66.1241148,-17.4588149],[-66.1240823,-17.458869],[-66.1240139,-17.4589828],[-66.1238857,-17.4592038],[-66.1234167,-17.4600122],[-66.1230833,-17.4605262],[-66.1228547,-17.4608075],[-66.1226836,-17.4610027],[-66.1225635,-17.4611376],[-66.122159,-17.4615922],[-66.1220642,-17.4616953],[-66.1220403,-17.4617213],[-66.1220165,-17.4617472],[-66.1218036,-17.4619789],[-66.1217627,-17.4620233],[-66.1217081,-17.4620864],[-66.1215888,-17.4622219],[-66.1214791,-17.4623671],[-66.1213333,-17.4625602],[-66.1211907,-17.4627853],[-66.1210217,-17.4630932],[-66.1209784,-17.4631901],[-66.1207644,-17.4636165],[-66.1205691,-17.464055],[-66.1204146,-17.4644017],[-66.1203393,-17.4645608],[-66.1202434,-17.4647516],[-66.1201285,-17.4649323],[-66.1199687,-17.4651349],[-66.119796,-17.4653287],[-66.1196337,-17.4654861],[-66.1194765,-17.4656234],[-66.1192649,-17.4657683],[-66.1190736,-17.4658885],[-66.1188416,-17.466005],[-66.118578,-17.4661003],[-66.1182524,-17.4661983],[-66.1179569,-17.4662577],[-66.1174614,-17.4663395],[-66.1172915,-17.4664597],[-66.1172352,-17.4664908],[-66.1171902,-17.4665314],[-66.1171341,-17.4665565],[-66.1170726,-17.4665634],[-66.1170119,-17.4665515],[-66.1169582,-17.466522],[-66.1169082,-17.4664736],[-66.1168895,-17.4664288],[-66.1168778,-17.4663785],[-66.116825,-17.4663475],[-66.1167479,-17.4663154],[-66.1161812,-17.4665434],[-66.1160469,-17.4666225],[-66.1158379,-17.4667968],[-66.1153351,-17.467231],[-66.115216,-17.4673344],[-66.1144921,-17.4679285],[-66.114031,-17.4675749],[-66.1139547,-17.4676607],[-66.1138991,-17.4677232],[-66.1137278,-17.4679158],[-66.1136604,-17.4679985],[-66.1130329,-17.4687926],[-66.1124397,-17.469498],[-66.1123182,-17.4696576],[-66.1122463,-17.4695451],[-66.1116198,-17.4684822],[-66.1114794,-17.4685879],[-66.1113321,-17.4686697],[-66.1111289,-17.4687843],[-66.1110477,-17.4688201],[-66.110971,-17.4688314],[-66.1107146,-17.468822],[-66.1101777,-17.4688468],[-66.1101245,-17.4688285],[-66.110073,-17.4688009],[-66.110025,-17.4687671],[-66.1098514,-17.468773],[-66.1095619,-17.4687607],[-66.1094826,-17.4687488],[-66.1093849,-17.4687549],[-66.1093214,-17.4687514],[-66.109277,-17.4687286],[-66.1092551,-17.4686724]],"nodes":[6335462522,3139141424,786837132,3139141426,4583308780,9903373357,789429412,4143105665,786837419,786837304,4231190578,3139141532,786837158,3139141541,12639791582,8921352622,8542797897,4319053283,8228333119,8228327808,4232319967,8921352624,3139141548,786837049,12639797709,786837335,10286957085,786837188,8921352626,851595223,4092054738,4826368371,9421257730,5423606637,1849462822,4826368384,4092053658,1573956127,11079404847,2317801102,2938504605,2938504607,3281552574,3281552575,8336001235,1573955997,5395813233,1577578193,2317801105,851594958,2317801107,1849462862,2938504639,4293894336,4293894903,3549077680,2555201623,1574086933,4293894917,1849462889,5040236968,5040236973,1577578151,3283363688,1849462895,11296295738,1849462897,4092054740,1865014746,1849462899,4503707176,1849462903,2160400899,11535045442,11707600500,851594766,11707600508,11707600537,1849462931,11707600531,2160400887,11071395285,11071395287,2160399194,1849462952,1849462955,3267779271,851594781,1849462957,11071450643,1849462968,2468432986,851594784,3267779294,1849462970,1849462977,851594885,2555201638,1849462984,851595399,11071450645,11070168865,1849462988,851595224,1849462993,3267790091,851595009,1849462996,1849462999,851595124,8927805091,851595343,11071300152,851594756,3658380318,2468433001,11069861999,11069861998,851594726,9175127262,851595044,5262484220,3658380321,851594788,12551721135,3658380322,563279735,563279728,1849463009,1849463010,851595235,10774545005,2331301978,10774545014,3296125249,9845867331,851594830,2290559025,9531771391,9768692252,9529353644,3300171298,2851923904,9768692251,3300171307,2851923908,3300171306,7304392738,9482805073,13161542286,851595381,7304392739,851595065,3275133584,9875778017,851594888,9948774394,2851923697,851595095,9482805148,9875772987,851594793,3275133586,9768692260,9768692261,9875778108,851594812,9875778128,9875778124,2331301984,4929965582,9875778078,851594894,851595276,3674260515,2331302074,2331302094,9655177095,2331302104,7436801323,4261955416,11071382475,7436801327,9003433500,2331302139,2331302155,2331302169,4728105068,1726098719,598151876,9021398260,4728105055,2331302188,9655267009,12509888237,5560268904,12509911134,9731395675,2287827715,598151867,599541188,2287827757,10705908990,2287827775,9731395623,11941128474,2538203114,2287827791,8587411318,2370240939,11997866376,9797631610,689437336,11997826500,2296580487,2296580493,598151865,8423552836,2296580502,12409937736,11079100480,11079057399,11079105205,11079057401,598151864,9309922472,2296580751,2296580762,2296580773,2296580797,2296580808,8356437270,2296580827,2296580841,2296580860,2745674359,8356393909,2296580889,8356393896,8356393898,315120853,1636934221,8362746232,2296580913,8362746230,315121330,2312198087,315121318,315123534,315121319,10859658790,315123540,315121320,315121321,315121322,315121324,315121326,315032954,315122225,2312198310,8498956719,315120406,2312198349,12410976762,2312198364,843382865,2686119186,9141014729,9141014739,8147646008,12361931195,12361931196,2316430803,1718842329,2316430856,10839957166,2900514433,2900514438,8267963999,8365550317,2316430973,315033203,2296981992,2600878703,310501277,5350197578,3555473521,310501275,3555473520,310263858,648546074,2312521461,310501273,2312521466,2312521478,2312521484,310501272,2312521492,2312521563,310501226,2312521572,13363606474,4636734247,10792253166,310501181,10792253164,310502265,308304264,2694171666,308297346,698492339,2694171672,310502623,310499276,310499297,310258959,5143443460,10274952173,9175513412,310500789,323970198,9175513410,9175513406,2892759697,323969927,8374185329,8374185342,315111093,4959147106,659970418,659970419,9593572470,13484099735,9593572466,2398944651,648548910,315111095,2398944649,10921117754,7767900406,648548697,2577975059,310502881,310502882,323978402,4929965587,310262504,648543481,8637329085,2577975115,2577975131,9090462298,648542366,9652874528,702511644,2577975282,2577975307,9090462294,648542369,648542365,9131177339,323972806,2763553535,702511613,2763553554,2763553563,8226219195,319762950,1637437071,9131083914,2763553594,9131083870,319762952,319762953,6563373032,2763553661,2763553721,3709606824,648534630,9599936958,4770480908,4770480907,3709607012,2763553766,11892386582,11892386581,11892386606,11892386604,1497947900,3649296858,11892386600,2763553779,11892386602,648537648,3649296859,648537649,1497947902,1497953233,648537651,1497953293,1497953296,648537652,1497953246,3307353815,3307353818,10040814110,1497953267,1497953253,10040758779,1615155247,3307354163,648537654,13416147689,3307354230,10038423931,2778806437,648537656,1638830123,13416147688,2778806441,648537657,648534706,2778806446,2778806450,2778806452,2778806455,6887895196,2778806461,2778806463,2778806465,2778806466,648534728,2778806467,648538239,2778806470,648538240,2778806474,2778806476,10038420090,698597046,648538241,648538242,648538243,9189235807,2778806494,648538234,2778806495,3307473814,2778806499,648536541,10038420076,2778806501,319754134,2778806504,5781854853,10040814054,2778806508,3308828365,9188521971,2778806523,2778806528,10032606930,2778806532,10032606929,319754141,8462994882,2778806542,1637648629,1637648635,1637648656,2778806566,2778806574,6471362209,2778806576,1637648666,10030867293,319754148,2778806589,3577187562,1637668078,2778806596,2778806597,3669248189,2778806608,319754154,3669248190,9188496080,2778806629,6290495137,10028610987,1617344981,319754164,2528680442,319764160,10028610970,10028610973,6185969483,2528680502,2528680551,10030867228,10028610940,6734000394,8462984257,2528680683,8462984278,2528680692,627239865,2528680737,10028486964,2528680765,6734000399,319754172,2528680812,2528680855,1627109112,2528680895,3534069405,9528470257,11898090512,319754187,2528680943,3534069424,8462486890,2528680976,12544889680,627239866,11813155701,7064894163,8462472609,8038200536,3534069499,319754196,6326510335,9528470226,319754205,11898090487,2677221251,9528470225,319764221,7904043724,9528470220,10466415059,9528460897,11832631970,3620629179,9528460883,6186229193,6186229551,9528460880,7555124985,11898090483,9528460865,7157110100,6326519625,6186229549,11898053463,6326519623,10008015630,11898090474,7940871953,6186229548,11832632017,7940871963,6326519622,11898053465,7157110101,6186229547,10008002013,3620629279,6326519621,8484163733,6186229545,6326519620,6186229544,6326519619,6186229543,6326519618,6186229542,7940871608,6186229541,6186229540,6326519616,6326519615,6326519614,6787670105,7940871637,7940871640,7940871628,7940871629,7940871621,7940871622,7940871630,7940871636,6326519613,7940871632,627239860,7940871645,7940871604,3016870288,3620629435,3016870298,3016870293,3016870290,3016870291,3016873531,7940871674,7940871673,3016887928,3016887841,3016887857,3016887852,3016887876,3016887877,3016887902,3623712845,3623712857,3016887847,3623713099,3623713104,3017262166,3016887903,3016887933,3016887904,3017262169,3623712891,3016887935,3016887905,3623712884,3623712881,3623712873,6335465982]},"gtfs":{"agency_id":22,"route_id":45,"services":[{"service_id":"Mo-Su","startTime":"06:00","endTime":"22:00","trip_id":9392695}],"filteredStops":{"nodes":[6335462522,3139141424,786837132,3139141426,4583308780,9903373357,789429412,4143105665,786837419,786837304,4231190578,3139141532,786837158,3139141541,12639791582,8921352622,8542797897,4319053283,8228333119,8228327808,4232319967,8921352624,3139141548,786837049,12639797709,786837335,10286957085,786837188,8921352626,851595223,4092054738,4826368371,9421257730,5423606637,1849462822,4826368384,4092053658,1573956127,11079404847,2317801102,2938504605,2938504607,3281552574,3281552575,8336001235,1573955997,5395813233,1577578193,2317801105,851594958,2317801107,1849462862,2938504639,4293894336,4293894903,3549077680,2555201623,1574086933,4293894917,1849462889,5040236968,5040236973,1577578151,3283363688,1849462895,11296295738,1849462897,4092054740,1865014746,1849462899,4503707176,1849462903,2160400899,11535045442,11707600500,851594766,11707600508,11707600537,1849462931,11707600531,2160400887,11071395285,11071395287,2160399194,1849462952,1849462955,3267779271,851594781,1849462957,11071450643,1849462968,2468432986,851594784,3267779294,1849462970,1849462977,851594885,2555201638,1849462984,851595399,11071450645,11070168865,1849462988,851595224,1849462993,3267790091,851595009,1849462996,1849462999,851595124,8927805091,851595343,11071300152,851594756,3658380318,2468433001,11069861999,11069861998,851594726,9175127262,851595044,5262484220,3658380321,851594788,12551721135,3658380322,563279735,563279728,1849463009,1849463010,851595235,10774545005,2331301978,10774545014,3296125249,9845867331,851594830,2290559025,9531771391,9768692252,9529353644,3300171298,2851923904,9768692251,3300171307,2851923908,3300171306,7304392738,9482805073,13161542286,851595381,7304392739,851595065,3275133584,9875778017,851594888,9948774394,2851923697,851595095,9482805148,9875772987,851594793,3275133586,9768692260,9768692261,9875778108,851594812,9875778128,9875778124,2331301984,4929965582,9875778078,851594894,851595276,3674260515,2331302074,2331302094,9655177095,2331302104,7436801323,4261955416,11071382475,7436801327,9003433500,2331302139,2331302155,2331302169,4728105068,1726098719,598151876,9021398260,4728105055,2331302188,9655267009,12509888237,5560268904,12509911134,9731395675,2287827715,598151867,599541188,2287827757,10705908990,2287827775,9731395623,11941128474,2538203114,2287827791,8587411318,2370240939,11997866376,9797631610,689437336,11997826500,2296580487,2296580493,598151865,8423552836,2296580502,12409937736,11079100480,11079057399,11079105205,11079057401,598151864,9309922472,2296580751,2296580762,2296580773,2296580797,2296580808,8356437270,2296580827,2296580841,2296580860,2745674359,8356393909,2296580889,8356393896,8356393898,315120853,1636934221,8362746232,2296580913,8362746230,315121330,2312198087,315121318,315123534,315121319,10859658790,315123540,315121320,315121321,315121322,315121324,315121326,315032954,315122225,2312198310,8498956719,315120406,2312198349,12410976762,2312198364,843382865,2686119186,9141014729,9141014739,8147646008,12361931195,12361931196,2316430803,1718842329,2316430856,10839957166,2900514433,2900514438,8267963999,8365550317,2316430973,315033203,2296981992,2600878703,310501277,5350197578,3555473521,310501275,3555473520,310263858,648546074,2312521461,310501273,2312521466,2312521478,2312521484,310501272,2312521492,2312521563,310501226,2312521572,13363606474,4636734247,10792253166,310501181,10792253164,310502265,308304264,2694171666,308297346,698492339,2694171672,310502623,310499276,310499297,310258959,5143443460,10274952173,9175513412,310500789,323970198,9175513410,9175513406,2892759697,323969927,8374185329,8374185342,315111093,4959147106,659970418,659970419,9593572470,13484099735,9593572466,2398944651,648548910,315111095,2398944649,10921117754,7767900406,648548697,2577975059,310502881,310502882,323978402,4929965587,310262504,648543481,8637329085,2577975115,2577975131,9090462298,648542366,9652874528,702511644,2577975282,2577975307,9090462294,648542369,648542365,9131177339,323972806,2763553535,702511613,2763553554,2763553563,8226219195,319762950,1637437071,9131083914,2763553594,9131083870,319762952,319762953,6563373032,2763553661,2763553721,3709606824,648534630,9599936958,4770480908,4770480907,3709607012,2763553766,11892386582,11892386581,11892386606,11892386604,1497947900,3649296858,11892386600,2763553779,11892386602,648537648,3649296859,648537649,1497947902,1497953233,648537651,1497953293,1497953296,648537652,1497953246,3307353815,3307353818,10040814110,1497953267,1497953253,10040758779,1615155247,3307354163,648537654,13416147689,3307354230,10038423931,2778806437,648537656,1638830123,13416147688,2778806441,648537657,648534706,2778806446,2778806450,2778806452,2778806455,6887895196,2778806461,2778806463,2778806465,2778806466,648534728,2778806467,648538239,2778806470,648538240,2778806474,2778806476,10038420090,698597046,648538241,648538242,648538243,9189235807,2778806494,648538234,2778806495,3307473814,2778806499,648536541,10038420076,2778806501,319754134,2778806504,5781854853,10040814054,2778806508,3308828365,9188521971,2778806523,2778806528,10032606930,2778806532,10032606929,319754141,8462994882,2778806542,1637648629,1637648635,1637648656,2778806566,2778806574,6471362209,2778806576,1637648666,10030867293,319754148,2778806589,3577187562,1637668078,2778806596,2778806597,3669248189,2778806608,319754154,3669248190,9188496080,2778806629,6290495137,10028610987,1617344981,319754164,2528680442,319764160,10028610970,10028610973,6185969483,2528680502,2528680551,10030867228,10028610940,6734000394,8462984257,2528680683,8462984278,2528680692,627239865,2528680737,10028486964,2528680765,6734000399,319754172,2528680812,2528680855,1627109112,2528680895,3534069405,9528470257,11898090512,319754187,2528680943,3534069424,8462486890,2528680976,12544889680,627239866,11813155701,7064894163,8462472609,8038200536,3534069499,319754196,6326510335,9528470226,319754205,11898090487,2677221251,9528470225,319764221,7904043724,9528470220,10466415059,9528460897,11832631970,3620629179,9528460883,6186229193,6186229551,9528460880,7555124985,11898090483,9528460865,7157110100,6326519625,6186229549,11898053463,6326519623,10008015630,11898090474,7940871953,6186229548,11832632017,7940871963,6326519622,11898053465,7157110101,6186229547,10008002013,3620629279,6326519621,8484163733,6186229545,6326519620,6186229544,6326519619,6186229543,6326519618,6186229542,7940871608,6186229541,6186229540,6326519616,6326519615,6326519614,6787670105,7940871637,7940871640,7940871628,7940871629,7940871621,7940871622,7940871630,7940871636,6326519613,7940871632,627239860,7940871645,7940871604,3016870288,3620629435,3016870298,3016870293,3016870290,3016870291,3016873531,7940871674,7940871673,3016887928,3016887841,3016887857,3016887852,3016887876,3016887877,3016887902,3623712845,3623712857,3016887847,3623713099,3623713104,3017262166,3016887903,3016887933,3016887904,3017262169,3623712891,3016887935,3016887905,3623712884,3623712881,3623712873,6335465982],"coordinates":[[-66.2137916,-17.3412532],[-66.2137019,-17.3412961],[-66.2136206,-17.3413254],[-66.2134291,-17.3413925],[-66.2133654,-17.3414171],[-66.213119,-17.3415124],[-66.212918,-17.3415901],[-66.2124306,-17.3418024],[-66.212404,-17.341814],[-66.212223,-17.3419047],[-66.2121759,-17.3419282],[-66.2112055,-17.3424478],[-66.2110347,-17.3425321],[-66.2086319,-17.3436059],[-66.2085626,-17.3436348],[-66.2079192,-17.3439025],[-66.2078418,-17.3439374],[-66.2072476,-17.3441831],[-66.2069779,-17.3443003],[-66.2068557,-17.3443524],[-66.2064436,-17.3445009],[-66.2062535,-17.3445722],[-66.2061959,-17.3446008],[-66.2061006,-17.3446431],[-66.2058889,-17.3447398],[-66.2054994,-17.3449178],[-66.2050749,-17.3450618],[-66.2049133,-17.3451279],[-66.2043116,-17.3453634],[-66.2042144,-17.3453991],[-66.2041561,-17.3454287],[-66.2036611,-17.345667],[-66.2033826,-17.3458024],[-66.2029937,-17.3459914],[-66.2027057,-17.3461282],[-66.2025158,-17.3462099],[-66.2023733,-17.3462723],[-66.2022868,-17.3463085],[-66.2011817,-17.3467548],[-66.2005236,-17.347033],[-66.2003118,-17.3471131],[-66.1999673,-17.3472561],[-66.1999066,-17.3472805],[-66.1998019,-17.3473211],[-66.1996959,-17.3473615],[-66.1986244,-17.3478087],[-66.1983887,-17.3479038],[-66.1975452,-17.3482488],[-66.1969189,-17.3485083],[-66.1966774,-17.3486211],[-66.1965222,-17.3486977],[-66.1959066,-17.3490435],[-66.1946996,-17.3496712],[-66.1941674,-17.3499621],[-66.1939153,-17.3500999],[-66.1935202,-17.3503159],[-66.193244,-17.3504752],[-66.1929365,-17.3506544],[-66.1926213,-17.3508604],[-66.1923719,-17.3510234],[-66.1922896,-17.3510787],[-66.1920062,-17.351265],[-66.1917342,-17.3514518],[-66.1915437,-17.3515827],[-66.1913324,-17.3517395],[-66.1907466,-17.3521766],[-66.1907138,-17.3522011],[-66.1899628,-17.3528104],[-66.1898741,-17.3528787],[-66.1897727,-17.352958],[-66.1889861,-17.3535872],[-66.1889207,-17.3536392],[-66.1880863,-17.3542805],[-66.1878493,-17.354472],[-66.1877648,-17.3545343],[-66.1877324,-17.3545599],[-66.1876662,-17.3546102],[-66.1876366,-17.3546327],[-66.1875869,-17.3546705],[-66.1875266,-17.3547178],[-66.187126,-17.3550327],[-66.1866871,-17.3553771],[-66.185658,-17.3561774],[-66.1856109,-17.356214],[-66.1850746,-17.3565958],[-66.184936,-17.3567105],[-66.1848006,-17.3568306],[-66.1847301,-17.3569011],[-66.1846468,-17.3570138],[-66.1840773,-17.3578876],[-66.1833082,-17.3589644],[-66.1832508,-17.3590284],[-66.1831977,-17.3590967],[-66.1831341,-17.3591824],[-66.1830695,-17.3592918],[-66.1826633,-17.3601208],[-66.1821207,-17.3612509],[-66.1820694,-17.3613293],[-66.1817636,-17.3618311],[-66.1814995,-17.36224],[-66.1814453,-17.3623112],[-66.1813907,-17.3623714],[-66.1812461,-17.3625434],[-66.1810592,-17.3627734],[-66.1808856,-17.3629293],[-66.1806538,-17.3631396],[-66.1804759,-17.3632776],[-66.1799864,-17.3636602],[-66.1796769,-17.3638997],[-66.1794633,-17.364045],[-66.1793056,-17.3641448],[-66.1790011,-17.3643096],[-66.178873,-17.3643769],[-66.1787583,-17.3644371],[-66.1786344,-17.3644825],[-66.1785679,-17.3645046],[-66.1785234,-17.3645185],[-66.178408,-17.3645546],[-66.1783719,-17.3645654],[-66.178284,-17.3645885],[-66.1779812,-17.3646935],[-66.1767955,-17.3650514],[-66.1767575,-17.3650629],[-66.1766743,-17.3650875],[-66.1765439,-17.3651266],[-66.1764768,-17.3651467],[-66.1751548,-17.3655435],[-66.1750141,-17.3655887],[-66.1749184,-17.3656146],[-66.1748031,-17.3656383],[-66.1733237,-17.3657397],[-66.1718641,-17.365821],[-66.1717966,-17.3658248],[-66.1715775,-17.3658391],[-66.1714925,-17.3658447],[-66.1714101,-17.3658491],[-66.1712985,-17.3658629],[-66.1711497,-17.3658979],[-66.171117,-17.3659059],[-66.1709461,-17.3659562],[-66.1706407,-17.3660461],[-66.1704853,-17.3660898],[-66.1703409,-17.3661184],[-66.1702301,-17.3661286],[-66.1701006,-17.3661299],[-66.1699469,-17.3661229],[-66.1697832,-17.3661045],[-66.1696172,-17.3660766],[-66.1694981,-17.3660445],[-66.1694323,-17.3660214],[-66.1693403,-17.3659874],[-66.1690477,-17.3658885],[-66.1688934,-17.3658519],[-66.1687179,-17.3658213],[-66.1686355,-17.3658171],[-66.1685651,-17.3658135],[-66.1682722,-17.3657976],[-66.1679002,-17.3657773],[-66.1678124,-17.3657801],[-66.167736,-17.3657875],[-66.16768,-17.365801],[-66.1676156,-17.3658199],[-66.1675492,-17.3658444],[-66.167449,-17.3658858],[-66.1672959,-17.3659658],[-66.1670355,-17.3661164],[-66.1669496,-17.366166],[-66.1668968,-17.3661974],[-66.1666857,-17.366323],[-66.1665063,-17.3664424],[-66.1661032,-17.3667279],[-66.1658913,-17.366882],[-66.1658373,-17.3669237],[-66.1651421,-17.3674257],[-66.1642493,-17.3680575],[-66.1641573,-17.3681314],[-66.1640875,-17.3681998],[-66.1640592,-17.3682405],[-66.1640437,-17.368284],[-66.164057,-17.3683599],[-66.1640552,-17.3684238],[-66.1640528,-17.3684526],[-66.1640391,-17.3685209],[-66.1640145,-17.3685864],[-66.1639797,-17.3686476],[-66.1639354,-17.3687028],[-66.1638826,-17.3687505],[-66.1638262,-17.3688157],[-66.1637969,-17.3688607],[-66.1637566,-17.3689209],[-66.1637339,-17.368975],[-66.1635894,-17.3694995],[-66.1633104,-17.3704268],[-66.1632793,-17.3705342],[-66.1629707,-17.3716013],[-66.1629631,-17.3716275],[-66.1628606,-17.3719817],[-66.1627881,-17.3722325],[-66.1627415,-17.3723846],[-66.1627243,-17.3724486],[-66.1626975,-17.3725484],[-66.1626738,-17.3726282],[-66.1626655,-17.372657],[-66.1626469,-17.3727147],[-66.1624847,-17.3732722],[-66.1623417,-17.3737608],[-66.1619469,-17.3751099],[-66.1619132,-17.3752197],[-66.1618519,-17.3754289],[-66.1618315,-17.3754986],[-66.1615816,-17.3763513],[-66.1615755,-17.3763721],[-66.1615553,-17.3764448],[-66.1615333,-17.3765194],[-66.1613573,-17.3771167],[-66.1611004,-17.3779932],[-66.1610775,-17.3780745],[-66.1610462,-17.3781873],[-66.1610272,-17.3782558],[-66.1609592,-17.3784883],[-66.1609424,-17.3785457],[-66.1608112,-17.3789943],[-66.1607831,-17.3790903],[-66.1607443,-17.3792232],[-66.1604215,-17.3803268],[-66.1603952,-17.3804271],[-66.1603946,-17.380447],[-66.1603903,-17.3805384],[-66.1604026,-17.3806234],[-66.1604292,-17.3807053],[-66.160446,-17.3807533],[-66.1604502,-17.3808037],[-66.1604418,-17.3808536],[-66.1604211,-17.3809001],[-66.1603894,-17.3809406],[-66.1603483,-17.3810263],[-66.1603242,-17.3810949],[-66.1603011,-17.3811631],[-66.1602836,-17.3812089],[-66.1602648,-17.3812714],[-66.1602553,-17.381306],[-66.1601491,-17.3816632],[-66.1601392,-17.381699],[-66.160118,-17.3817783],[-66.1601068,-17.3818443],[-66.1600997,-17.3819171],[-66.1601024,-17.3820084],[-66.160124,-17.3821361],[-66.1601469,-17.3822132],[-66.1601468,-17.3822926],[-66.1601403,-17.382329],[-66.1601337,-17.3823653],[-66.1601052,-17.3824327],[-66.1600491,-17.3824933],[-66.1599485,-17.3825638],[-66.1598111,-17.3826671],[-66.1597435,-17.3827412],[-66.1596513,-17.3828653],[-66.1596135,-17.3829447],[-66.1595022,-17.3830911],[-66.1593386,-17.3833062],[-66.1593007,-17.383356],[-66.1591066,-17.3836114],[-66.1589959,-17.383757],[-66.1588865,-17.3839009],[-66.1588472,-17.3839526],[-66.1588041,-17.3840085],[-66.1587884,-17.3840289],[-66.1586145,-17.3842548],[-66.1584148,-17.384514],[-66.1583937,-17.3845414],[-66.1583738,-17.3845669],[-66.1582879,-17.3846768],[-66.1580811,-17.3849472],[-66.1579708,-17.3850718],[-66.1579598,-17.3850858],[-66.1579357,-17.3851178],[-66.1578614,-17.3852154],[-66.1577607,-17.3853388],[-66.1575084,-17.3856628],[-66.1568608,-17.38651],[-66.1567872,-17.3866071],[-66.1568384,-17.3866422],[-66.1575918,-17.3869932],[-66.1576501,-17.3870048],[-66.1577375,-17.3870171],[-66.1586202,-17.387137],[-66.1587007,-17.387146],[-66.1587433,-17.387153],[-66.1598506,-17.3873411],[-66.1599197,-17.3873512],[-66.1607699,-17.3875037],[-66.1608537,-17.3875198],[-66.1609408,-17.3875334],[-66.1613999,-17.3876049],[-66.1619575,-17.3876918],[-66.162025,-17.3877024],[-66.1620126,-17.3877665],[-66.1618625,-17.3885519],[-66.1618505,-17.3886137],[-66.1618391,-17.3886718],[-66.161672,-17.3895113],[-66.1616616,-17.3895634],[-66.1616378,-17.389679],[-66.1616253,-17.3897356],[-66.1616144,-17.3897943],[-66.1614226,-17.3907626],[-66.1612411,-17.3918198],[-66.1610682,-17.3928888],[-66.1610608,-17.3929264],[-66.1610467,-17.3930087],[-66.1610381,-17.393062],[-66.160992,-17.3933439],[-66.1608619,-17.393944],[-66.1606351,-17.3950057],[-66.160432,-17.3960638],[-66.1602321,-17.397104],[-66.1602452,-17.3971867],[-66.1600736,-17.3981211],[-66.1600638,-17.3981838],[-66.1603377,-17.3982298],[-66.1603371,-17.3983246],[-66.1603343,-17.3987565],[-66.1603307,-17.3993122],[-66.1603302,-17.3993931],[-66.1603212,-17.3995399],[-66.1601864,-17.3995393],[-66.160062,-17.3995387],[-66.1600096,-17.3995378],[-66.1591993,-17.3995202],[-66.1587775,-17.3995107],[-66.1587426,-17.39951],[-66.1586708,-17.3995086],[-66.1585614,-17.3995064],[-66.1578434,-17.3994899],[-66.1577288,-17.3994867],[-66.1576362,-17.3994821],[-66.1575773,-17.3994804],[-66.1575564,-17.3994809],[-66.1568789,-17.399583],[-66.1567734,-17.3995917],[-66.1564914,-17.3995873],[-66.1564225,-17.3995781],[-66.1561989,-17.4007931],[-66.1567358,-17.4008781],[-66.1573928,-17.4009738],[-66.1574786,-17.4009863],[-66.1575885,-17.4010023],[-66.1575752,-17.4011537],[-66.157522,-17.4015753],[-66.1574818,-17.4020121],[-66.1574693,-17.4021498],[-66.1574602,-17.4022501],[-66.1574143,-17.4026402],[-66.1573804,-17.4029274],[-66.1573057,-17.4034308],[-66.1571981,-17.4039846],[-66.1571744,-17.4040293],[-66.1571494,-17.4040811],[-66.1569751,-17.4051438],[-66.156929,-17.4053964],[-66.1567149,-17.4065683],[-66.1566752,-17.4068311],[-66.1566081,-17.4073735],[-66.1565791,-17.4075962],[-66.1565643,-17.407672],[-66.1565522,-17.4077489],[-66.1563919,-17.408892],[-66.1562995,-17.4093093],[-66.1562526,-17.409537],[-66.1561494,-17.4101159],[-66.1561031,-17.4104088],[-66.1560788,-17.4106525],[-66.1560387,-17.4110086],[-66.1560072,-17.4112245],[-66.1559384,-17.4117773],[-66.1558986,-17.4121602],[-66.1558652,-17.412308],[-66.15582,-17.4128021],[-66.155802,-17.4129772],[-66.1557786,-17.4130746],[-66.1556684,-17.4134516],[-66.155597,-17.4137089],[-66.1554623,-17.4141784],[-66.1553583,-17.4145796],[-66.1553538,-17.4146993],[-66.1553029,-17.4149216],[-66.1551968,-17.4153846],[-66.1551548,-17.415568],[-66.1551388,-17.415636],[-66.1550868,-17.4158685],[-66.1550003,-17.4162445],[-66.1549887,-17.4163245],[-66.1549873,-17.4165664],[-66.1549843,-17.4166374],[-66.1549456,-17.4175755],[-66.1549104,-17.4185968],[-66.1548531,-17.4196206],[-66.154809,-17.4206282],[-66.1547645,-17.4216432],[-66.1547212,-17.4226723],[-66.1546793,-17.4234506],[-66.1546654,-17.4236667],[-66.1546408,-17.4238334],[-66.1545523,-17.4242489],[-66.1545235,-17.4243591],[-66.1545127,-17.4243973],[-66.1543578,-17.4249471],[-66.1542077,-17.4254905],[-66.154185,-17.4255725],[-66.1541682,-17.4256387],[-66.154041,-17.4260954],[-66.1538003,-17.426738],[-66.153725,-17.4268128],[-66.1535654,-17.4272125],[-66.1534399,-17.4274808],[-66.1532347,-17.4278347],[-66.1530162,-17.4281548],[-66.152997,-17.428241],[-66.1528549,-17.4284418],[-66.1528335,-17.4284849],[-66.152818,-17.4285459],[-66.152818,-17.42862],[-66.1528396,-17.4287073],[-66.152858,-17.4287521],[-66.1528637,-17.4288115],[-66.15285,-17.4288696],[-66.1528182,-17.428921],[-66.1527715,-17.4289607],[-66.152714,-17.4289848],[-66.1526503,-17.4289908],[-66.1525436,-17.4290109],[-66.1524047,-17.4290557],[-66.1522787,-17.4291078],[-66.1521565,-17.4291651],[-66.1520577,-17.4292224],[-66.1519256,-17.429317],[-66.1517503,-17.4294756],[-66.1517,-17.4295437],[-66.1516662,-17.4295894],[-66.1515965,-17.4297048],[-66.1515301,-17.4298395],[-66.1514221,-17.4301143],[-66.1513541,-17.430087],[-66.1512355,-17.4300356],[-66.1511546,-17.4300071],[-66.1511043,-17.4301117],[-66.1509976,-17.4303033],[-66.150945,-17.4303946],[-66.150789,-17.4306762],[-66.1506345,-17.4309354],[-66.1506004,-17.4309925],[-66.1502801,-17.4314649],[-66.150135,-17.4316622],[-66.1500936,-17.4317166],[-66.1498155,-17.4320997],[-66.1496641,-17.4323082],[-66.1488863,-17.4333528],[-66.1485237,-17.4338383],[-66.1482313,-17.4342345],[-66.1479919,-17.434548],[-66.1475408,-17.4351592],[-66.1472387,-17.4355684],[-66.1467522,-17.4362226],[-66.1460377,-17.4371834],[-66.1458844,-17.4374059],[-66.1458164,-17.4375177],[-66.1456856,-17.4377986],[-66.1456591,-17.4378575],[-66.1455681,-17.43802],[-66.145516,-17.4381076],[-66.1454212,-17.4382336],[-66.1452343,-17.4384832],[-66.1451443,-17.4386041],[-66.1450507,-17.4387473],[-66.1449104,-17.4389937],[-66.144151,-17.4403279],[-66.1439442,-17.4406448],[-66.1437244,-17.4409369],[-66.1435908,-17.441086],[-66.1433053,-17.4413912],[-66.1430945,-17.4415835],[-66.1429338,-17.441761],[-66.1428343,-17.4418749],[-66.1427773,-17.4419358],[-66.1426918,-17.4420173],[-66.1423569,-17.4422815],[-66.1421412,-17.4424672],[-66.1411404,-17.4434002],[-66.1408851,-17.4436313],[-66.1408417,-17.4436743],[-66.1404922,-17.4439415],[-66.140133,-17.4441917],[-66.1396954,-17.4444584],[-66.1396471,-17.444485],[-66.1392078,-17.4447273],[-66.138894,-17.4449004],[-66.1371378,-17.4458715],[-66.1362388,-17.4463779],[-66.1353746,-17.4468512],[-66.1352792,-17.4468983],[-66.1352101,-17.4469314],[-66.1351107,-17.4469952],[-66.1349511,-17.4471287],[-66.1348774,-17.447187],[-66.1347861,-17.4472565],[-66.1346633,-17.4473263],[-66.1345591,-17.447386],[-66.1344266,-17.4474486],[-66.1341652,-17.4475761],[-66.1339354,-17.4476831],[-66.1337937,-17.4477683],[-66.1332234,-17.44813],[-66.1326181,-17.4485449],[-66.1319883,-17.4490224],[-66.1314758,-17.4494467],[-66.1312617,-17.4496408],[-66.1309989,-17.4498648],[-66.1307926,-17.4500579],[-66.1307227,-17.4501234],[-66.1304295,-17.4504194],[-66.1300722,-17.4508052],[-66.1299707,-17.4509294],[-66.1296224,-17.4513588],[-66.1293525,-17.4516933],[-66.1293282,-17.4517234],[-66.1292015,-17.4518577],[-66.1290844,-17.451977],[-66.1286531,-17.4524792],[-66.12826,-17.4528841],[-66.1279706,-17.4532096],[-66.1273378,-17.4539386],[-66.1270479,-17.4542759],[-66.126642,-17.4547537],[-66.1262358,-17.4552477],[-66.1260019,-17.4555686],[-66.1259549,-17.4556331],[-66.1257786,-17.4558963],[-66.1256425,-17.4561212],[-66.1255324,-17.4562958],[-66.1252929,-17.4567347],[-66.1248354,-17.4575768],[-66.1245743,-17.4580573],[-66.1245072,-17.4581664],[-66.1243735,-17.4583847],[-66.1243004,-17.4584974],[-66.1242691,-17.4585457],[-66.1241148,-17.4588149],[-66.1240823,-17.458869],[-66.1240139,-17.4589828],[-66.1238857,-17.4592038],[-66.1234167,-17.4600122],[-66.1230833,-17.4605262],[-66.1228547,-17.4608075],[-66.1226836,-17.4610027],[-66.1225635,-17.4611376],[-66.122159,-17.4615922],[-66.1220642,-17.4616953],[-66.1220403,-17.4617213],[-66.1220165,-17.4617472],[-66.1218036,-17.4619789],[-66.1217627,-17.4620233],[-66.1217081,-17.4620864],[-66.1215888,-17.4622219],[-66.1214791,-17.4623671],[-66.1213333,-17.4625602],[-66.1211907,-17.4627853],[-66.1210217,-17.4630932],[-66.1209784,-17.4631901],[-66.1207644,-17.4636165],[-66.1205691,-17.464055],[-66.1204146,-17.4644017],[-66.1203393,-17.4645608],[-66.1202434,-17.4647516],[-66.1201285,-17.4649323],[-66.1199687,-17.4651349],[-66.119796,-17.4653287],[-66.1196337,-17.4654861],[-66.1194765,-17.4656234],[-66.1192649,-17.4657683],[-66.1190736,-17.4658885],[-66.1188416,-17.466005],[-66.118578,-17.4661003],[-66.1182524,-17.4661983],[-66.1179569,-17.4662577],[-66.1174614,-17.4663395],[-66.1172915,-17.4664597],[-66.1172352,-17.4664908],[-66.1171902,-17.4665314],[-66.1171341,-17.4665565],[-66.1170726,-17.4665634],[-66.1170119,-17.4665515],[-66.1169582,-17.466522],[-66.1169082,-17.4664736],[-66.1168895,-17.4664288],[-66.1168778,-17.4663785],[-66.116825,-17.4663475],[-66.1167479,-17.4663154],[-66.1161812,-17.4665434],[-66.1160469,-17.4666225],[-66.1158379,-17.4667968],[-66.1153351,-17.467231],[-66.115216,-17.4673344],[-66.1144921,-17.4679285],[-66.114031,-17.4675749],[-66.1139547,-17.4676607],[-66.1138991,-17.4677232],[-66.1137278,-17.4679158],[-66.1136604,-17.4679985],[-66.1130329,-17.4687926],[-66.1124397,-17.469498],[-66.1123182,-17.4696576],[-66.1122463,-17.4695451],[-66.1116198,-17.4684822],[-66.1114794,-17.4685879],[-66.1113321,-17.4686697],[-66.1111289,-17.4687843],[-66.1110477,-17.4688201],[-66.110971,-17.4688314],[-66.1107146,-17.468822],[-66.1101777,-17.4688468],[-66.1101245,-17.4688285],[-66.110073,-17.4688009],[-66.110025,-17.4687671],[-66.1098514,-17.468773],[-66.1095619,-17.4687607],[-66.1094826,-17.4687488],[-66.1093849,-17.4687549],[-66.1093214,-17.4687514],[-66.109277,-17.4687286],[-66.1092551,-17.4686724]]}}},{"type":"Feature","properties":{"addr:city":"Tiquipaya","bench":"no","bin":"no","bus":"yes","covered":"no","departures_board":"no","highway":"bus_stop","lit":"no","name":"Parada 113","operator":"Sindicato 12 de Octubre","public_transport":"platform","shelter":"no","id":3139141423},"geometry":{"type":"Point","coordinates":[-66.2138575,-17.3412507]}},{"type":"Feature","properties":{"bench":"yes","bus":"yes","departures_board":"no","highway":"bus_stop","lit":"no","name":"Casona Mayorazgo","public_transport":"platform","shelter":"yes","id":4261955413},"geometry":{"type":"Point","coordinates":[-66.1753167,-17.3655384]}},{"type":"Feature","properties":{"bench":"no","bin":"no","bus":"yes","departures_board":"no","highway":"bus_stop","informal":"yes","kerb":"raised","level":"0","lit":"no","name":"Ricardo Jaimes Freire","public_transport":"platform","shelter":"no","tactile_paving":"no","wheelchair":"no","id":4929965580},"geometry":{"type":"Point","coordinates":[-66.1679739,-17.3658333]}},{"type":"Feature","properties":{"bench":"no","bin":"no","bus":"yes","departures_board":"no","highway":"bus_stop","informal":"yes","kerb":"raised","lit":"no","name":"Plaza Luis Felipe Guzmán Achá","public_transport":"platform","shelter":"no","tactile_paving":"no","wheelchair":"no","id":9655323870},"geometry":{"type":"Point","coordinates":[-66.1641868,-17.3681724]}},{"type":"Feature","properties":{"bench":"yes","bin":"no","bus":"yes","departures_board":"no","highway":"bus_stop","kerb":"raised","level":"0","lit":"no","name":"América","operator":"Gobierno Autónomo Municipal de Cochabamba","public_transport":"platform","shelter":"yes","tactile_paving":"no","wheelchair":"no","id":4929965584},"geometry":{"type":"Point","coordinates":[-66.1628456,-17.3722531]}},{"type":"Feature","properties":{"bench":"yes","bin":"no","bus":"yes","departures_board":"no","highway":"bus_stop","level":"0","lit":"no","name":"Teófilo Vargas","public_transport":"platform","shelter":"yes","tactile_paving":"no","id":2370240952},"geometry":{"type":"Point","coordinates":[-66.16205,-17.3749141]}},{"type":"Feature","properties":{"bench":"yes","bin":"no","bus":"yes","departures_board":"no","highway":"bus_stop","kerb":"raised","level":"0","lit":"no","name":"Juan de la Rosa","operator":"Gobierno Autónomo Municipal de Cochabamba","public_transport":"platform","shelter":"yes","tactile_paving":"no","wheelchair":"no","id":8591667681},"geometry":{"type":"Point","coordinates":[-66.1611938,-17.3778538]}},{"type":"Feature","properties":{"bench":"yes","bin":"no","bus":"yes","departures_board":"no","highway":"bus_stop","kerb":"raised","level":"0","lit":"no","name":"Teniente Arévalo","network":"BO:CB:Cochabamba","operator":"Gobierno Autónomo Municipal de Cochabamba","operator:short":"GAMC","operator:type":"government","public_transport":"platform","shelter":"yes","tactile_paving":"no","wheelchair":"no","id":2381924851},"geometry":{"type":"Point","coordinates":[-66.1594211,-17.3832905]}},{"type":"Feature","properties":{"bench":"yes","bin":"no","bus":"yes","departures_board":"no","highway":"bus_stop","level":"0","lit":"no","name":"La Paz","operator":"Gobierno Autónomo Municipal de Cochabamba","operator:short":"GAMC","operator:type":"government","public_transport":"platform","shelter":"yes","tactile_paving":"no","wheelchair":"yes","id":3283363711},"geometry":{"type":"Point","coordinates":[-66.1581533,-17.3849291]}},{"type":"Feature","properties":{"bench":"no","bin":"no","bus":"yes","departures_board":"no","highway":"bus_stop","lit":"no","name":"Ayacucho","pole":"yes","public_transport":"platform","shelter":"no","id":6546789758},"geometry":{"type":"Point","coordinates":[-66.1597358,-17.3872702]}},{"type":"Feature","properties":{"bench":"no","bin":"no","bus":"yes","departures_board":"no","highway":"bus_stop","kerb":"raised","level":"0","lit":"no","name":"Ladislao Cabrera","operator":"Gobierno Autónomo Municipal de Cochabamba","pole":"yes","public_transport":"platform","shelter":"no","tactile_paving":"no","wheelchair":"no","id":6546789732},"geometry":{"type":"Point","coordinates":[-66.1601373,-17.3980684]}},{"type":"Feature","properties":{"bench":"yes","bin":"no","bus":"yes","departures_board":"no","highway":"bus_stop","kerb":"raised","level":"0","lit":"no","name":"Aroma","operator":"Gobierno Autónomo Municipal de Cochabamba","operator:short":"GAMC","operator:type":"government","public_transport":"platform","shelter":"yes","tactile_paving":"no","wheelchair":"yes","id":4929965563},"geometry":{"type":"Point","coordinates":[-66.1579112,-17.3995436]}},{"type":"Feature","properties":{"addr:city":"Cochabamba","bench":"no","bus":"yes","covered":"no","departures_board":"no","highway":"bus_stop","name":"Parada 113","operator":"Sindicato 12 de Octubre","public_transport":"platform","shelter":"no","id":3016887906},"geometry":{"type":"Point","coordinates":[-66.109264,-17.4686252]}},{"type":"Feature","properties":{"bench":"no","bin":"no","bus":"yes","departures_board":"no","highway":"bus_stop","informal":"yes","level":"0","lit":"no","name":"Cruce Taquiña","operator":"Gobierno Autónomo Municipal de Cochabamba","public_transport":"platform","shelter":"no","tactile_paving":"no","wheelchair":"no","id":4710462982},"geometry":{"type":"Point","coordinates":[-66.187902,-17.3545067]}},{"type":"Feature","properties":{"bench":"no","bin":"no","bus":"yes","departures_board":"no","highway":"bus_stop","level":"0","lit":"no","name":"Japón","public_transport":"platform","shelter":"no","tactile_paving":"no","wheelchair":"no","id":7940850852},"geometry":{"type":"Point","coordinates":[-66.1226734,-17.4611745]}},{"type":"Feature","properties":{"bench":"no","bin":"no","bus":"yes","departures_board":"no","highway":"bus_stop","level":"0","lit":"no","name":"Santa Veracruz","public_transport":"platform","shelter":"no","wheelchair":"no","id":6186224880},"geometry":{"type":"Point","coordinates":[-66.123763,-17.459652]}},{"type":"Feature","properties":{"bench":"yes","bin":"no","bus":"yes","departures_board":"no","highway":"bus_stop","level":"0","lit":"no","name":"Obispo Anaya","operator":"Gobierno Autónomo Municipal de Cochabamba","public_transport":"platform","shelter":"yes","tactile_paving":"no","wheelchair":"no","id":2384907360},"geometry":{"type":"Point","coordinates":[-66.1616316,-17.3763349]}}]}