{"type":"FeatureCollection","features":[{"type":"Feature","properties":{"check_date":"29/12/2025","from":"Calle Curupau","name":"Trufi 03: Calle Curupau → Calle Luis Zegarra","network":"BO:CB:Cochabamba","on_demand":"yes","operator":"Sindicato mixto de transporte público 6 de mayo","public_transport:version":"2","ref":"03","route":"bus","to":"Calle Luis Zegarra","type":"route","wheelchair":"no","id":9397822},"geometry":{"type":"LineString","coordinates":[[-66.1410957,-17.424975],[-66.1410928,-17.4242874],[-66.1411101,-17.4239461],[-66.1412418,-17.4234506],[-66.1413337,-17.4232579],[-66.1413932,-17.4231312],[-66.1416315,-17.4227644],[-66.1417179,-17.4226395],[-66.1418129,-17.4225525],[-66.14191,-17.4224692],[-66.142007,-17.4224176],[-66.1423177,-17.4223071],[-66.1424343,-17.4222615],[-66.1428758,-17.4220728],[-66.1429085,-17.4220588],[-66.1430271,-17.4220197],[-66.1431585,-17.4220184],[-66.1432997,-17.4219977],[-66.1434347,-17.4219657],[-66.1435119,-17.4219335],[-66.1435625,-17.4218452],[-66.1436452,-17.4217921],[-66.1438499,-17.421719],[-66.1441266,-17.4216255],[-66.1442811,-17.4215743],[-66.1444258,-17.4215076],[-66.1445197,-17.4214588],[-66.1447254,-17.4213395],[-66.1452699,-17.4210583],[-66.1453641,-17.4210277],[-66.1455427,-17.4209905],[-66.1456821,-17.4209755],[-66.1458648,-17.4209693],[-66.1464817,-17.4209553],[-66.1464472,-17.4201902],[-66.1470716,-17.420156],[-66.1473349,-17.4201424],[-66.147289,-17.4195627],[-66.14703,-17.4195757],[-66.1465061,-17.419609],[-66.1464101,-17.4196151],[-66.1460215,-17.4196391],[-66.1447007,-17.4197207],[-66.1445939,-17.4197273],[-66.1439634,-17.4197669],[-66.1439589,-17.4197038],[-66.1439477,-17.419545],[-66.143944,-17.4194861],[-66.1439955,-17.419483],[-66.1445591,-17.419449],[-66.1459997,-17.4193621],[-66.1463029,-17.4193438],[-66.1463686,-17.4193399],[-66.1470017,-17.4193017],[-66.1476106,-17.4192639],[-66.1482076,-17.4192269],[-66.1486513,-17.4191993],[-66.1487638,-17.4192063],[-66.1488158,-17.4192121],[-66.1488565,-17.4192166],[-66.1492033,-17.4192837],[-66.1492609,-17.4193039],[-66.1493015,-17.4193352],[-66.1493218,-17.4193665],[-66.1493834,-17.4196166],[-66.1494379,-17.4196021],[-66.1495252,-17.419568],[-66.1502317,-17.4192448],[-66.1508206,-17.4189812],[-66.1508025,-17.4189457],[-66.1518134,-17.4185232],[-66.1517008,-17.4183133],[-66.1515933,-17.418084],[-66.1515593,-17.4179762],[-66.1515388,-17.4178989],[-66.1515294,-17.4178383],[-66.1515214,-17.4177646],[-66.1515169,-17.4176692],[-66.1515174,-17.4176253],[-66.151519,-17.4174973],[-66.1515362,-17.4173158],[-66.1515451,-17.4171988],[-66.1515701,-17.4170807],[-66.1515696,-17.4170454],[-66.1515766,-17.4170107],[-66.151572,-17.4168489],[-66.1515563,-17.4165445],[-66.151454,-17.4156139],[-66.1514434,-17.4155291],[-66.1512807,-17.4140147],[-66.1512609,-17.4138782],[-66.151189,-17.4132531],[-66.1511181,-17.4126965],[-66.1510765,-17.4123794],[-66.1510407,-17.4119011],[-66.1510011,-17.4114093],[-66.1507869,-17.409366],[-66.1507647,-17.4087703],[-66.1507358,-17.4084235],[-66.1507125,-17.4076317],[-66.1507746,-17.4049827],[-66.150771,-17.4049716],[-66.15077,-17.4049601],[-66.1506665,-17.4049659],[-66.1505845,-17.4049529],[-66.1504894,-17.4049148],[-66.1500244,-17.4046123],[-66.1502065,-17.4043824],[-66.1502746,-17.4042764],[-66.1503278,-17.4041742],[-66.150363,-17.4040704],[-66.1503796,-17.4039576],[-66.1503679,-17.4038321],[-66.1503467,-17.4037109],[-66.1502396,-17.403362],[-66.1502232,-17.4031543],[-66.1501721,-17.4024063],[-66.150428,-17.4024026],[-66.1507616,-17.4024063],[-66.1508098,-17.4024175],[-66.1508417,-17.4024377],[-66.1508641,-17.4024089],[-66.1508921,-17.4023908],[-66.1508899,-17.4022599],[-66.1509141,-17.4021192],[-66.1509729,-17.4019459],[-66.1510198,-17.4018412],[-66.1511813,-17.4014973],[-66.1512002,-17.4014544],[-66.1512301,-17.4013183],[-66.1512356,-17.4011615],[-66.1512236,-17.4010129],[-66.1511996,-17.4009084],[-66.1511599,-17.400784],[-66.1511079,-17.4006717],[-66.1510673,-17.4005979],[-66.1509999,-17.4004932],[-66.1509233,-17.4003938],[-66.1508146,-17.4002864],[-66.150718,-17.4002083],[-66.1505979,-17.4001282],[-66.1505042,-17.4000796],[-66.1503866,-17.4000312],[-66.1502731,-17.3999956],[-66.1501808,-17.3999807],[-66.1500799,-17.3999658],[-66.1498455,-17.3999622],[-66.1493316,-17.3999508],[-66.1488302,-17.3999397],[-66.1483038,-17.3999281],[-66.1482116,-17.3998729],[-66.1483229,-17.3993423],[-66.1483573,-17.3991716],[-66.1483945,-17.3989818],[-66.1484931,-17.3984547],[-66.148511,-17.3983678],[-66.1485231,-17.3983088],[-66.1486874,-17.3975094],[-66.1486986,-17.3974593],[-66.1487112,-17.3973963],[-66.1487809,-17.397047],[-66.1488158,-17.396872],[-66.1488764,-17.3965683],[-66.1488961,-17.3964633],[-66.1489511,-17.3961794],[-66.1489617,-17.3961286],[-66.1490339,-17.3957809],[-66.1491557,-17.3951858],[-66.149167,-17.3951292],[-66.1491829,-17.3950604],[-66.1492372,-17.3947783],[-66.1493039,-17.3944315],[-66.1493561,-17.3941416],[-66.1493544,-17.3940925],[-66.1494038,-17.3941012],[-66.1498271,-17.3941781],[-66.1498691,-17.3941857],[-66.1506546,-17.3943283],[-66.1509627,-17.3943874],[-66.1510886,-17.3944105],[-66.1517102,-17.3945138],[-66.1519057,-17.3934654],[-66.152094,-17.3924306],[-66.1522715,-17.391539],[-66.1522861,-17.3914711],[-66.1523052,-17.391382],[-66.1523158,-17.3913281],[-66.1523262,-17.3912652],[-66.1523394,-17.3911896],[-66.1525071,-17.3902546],[-66.1527543,-17.3892223],[-66.1527614,-17.3891927],[-66.1534182,-17.3893487],[-66.1538354,-17.3894455],[-66.1540205,-17.3894885],[-66.154371,-17.3895681],[-66.1549205,-17.3896929],[-66.1549294,-17.3896497],[-66.155119,-17.3887314],[-66.1551357,-17.3886467],[-66.1551489,-17.3885714],[-66.1553164,-17.3876634],[-66.1553366,-17.3875835],[-66.1556337,-17.3876361],[-66.1556802,-17.3875781],[-66.1558106,-17.3874102],[-66.1564466,-17.3865414],[-66.1565033,-17.3864649],[-66.1565911,-17.3864726],[-66.1567198,-17.3865609],[-66.1567872,-17.3866071],[-66.1568384,-17.3866422],[-66.1575918,-17.3869932],[-66.1576501,-17.3870048],[-66.1577375,-17.3870171],[-66.1586202,-17.387137],[-66.1587007,-17.387146],[-66.1587433,-17.387153],[-66.1598506,-17.3873411],[-66.1599197,-17.3873512],[-66.1607699,-17.3875037],[-66.1608537,-17.3875198],[-66.1609408,-17.3875334],[-66.1613999,-17.3876049],[-66.1619575,-17.3876918],[-66.162025,-17.3877024],[-66.1620816,-17.3877126],[-66.1627663,-17.3878335],[-66.1628286,-17.3878447],[-66.1628914,-17.3878546],[-66.1631828,-17.387904],[-66.1637337,-17.3879975],[-66.1637673,-17.3879902],[-66.1637957,-17.3879805],[-66.1638795,-17.3879509],[-66.163953,-17.387925],[-66.164177,-17.387846],[-66.1643272,-17.3877922],[-66.1643848,-17.3877711],[-66.1644441,-17.3877488],[-66.1645162,-17.3877208],[-66.1648578,-17.3875809],[-66.1649018,-17.3875643],[-66.164924,-17.3875552],[-66.1650363,-17.3875237],[-66.1655829,-17.3873123],[-66.1657108,-17.3872507],[-66.1657931,-17.3871905],[-66.1658953,-17.3870972],[-66.1659533,-17.3870258],[-66.1659986,-17.3869648],[-66.1661071,-17.3868187],[-66.1663218,-17.3865558],[-66.1665707,-17.3862431],[-66.1666104,-17.3861957],[-66.1670888,-17.3856646],[-66.1675962,-17.3850394],[-66.168338,-17.3841414],[-66.1684906,-17.3839992],[-66.1686087,-17.3839101],[-66.1687242,-17.3838415],[-66.1690317,-17.3836671],[-66.1692719,-17.3835371],[-66.1693484,-17.3834931],[-66.1695477,-17.3834035],[-66.1695518,-17.3833987],[-66.1695561,-17.3833941],[-66.1695931,-17.3833663],[-66.1696373,-17.3833509],[-66.1696843,-17.3833493],[-66.1697296,-17.3833616],[-66.1697411,-17.3833673],[-66.1697941,-17.383358],[-66.1698425,-17.3833535],[-66.1699256,-17.3833409],[-66.1700092,-17.3833219],[-66.1705347,-17.383184],[-66.1708107,-17.383105],[-66.171589,-17.3829013],[-66.1721956,-17.3827419],[-66.172794,-17.3825846],[-66.1741378,-17.3822358],[-66.1746654,-17.3820984],[-66.1747525,-17.3820731],[-66.1748021,-17.3820611],[-66.1751885,-17.381968],[-66.1752482,-17.381949],[-66.1753938,-17.381889],[-66.1754721,-17.3818687],[-66.1755706,-17.3818446],[-66.175669,-17.3818282],[-66.175803,-17.381812],[-66.1759129,-17.3818052],[-66.1760443,-17.3818111],[-66.176198,-17.3818316],[-66.1763611,-17.3818644],[-66.1764425,-17.3818874],[-66.1765583,-17.381925],[-66.1780298,-17.3823567],[-66.1787832,-17.3825769],[-66.1794707,-17.3827741],[-66.1800553,-17.3829345],[-66.180204,-17.38295],[-66.1804507,-17.3829476],[-66.180529,-17.3829489],[-66.1814669,-17.3829363],[-66.1815029,-17.3829334],[-66.1815848,-17.3829139],[-66.1816457,-17.382894],[-66.1816966,-17.382884],[-66.1817667,-17.3828816],[-66.1818244,-17.382894],[-66.1818904,-17.3829158],[-66.1819263,-17.382929],[-66.1819723,-17.3829389],[-66.1820387,-17.3829444],[-66.1827962,-17.3829294],[-66.1835651,-17.3829246],[-66.1838469,-17.3829228],[-66.1839679,-17.382922],[-66.1841292,-17.3829203],[-66.1843826,-17.3828958],[-66.1849898,-17.3828246],[-66.1850597,-17.3828146],[-66.1858256,-17.3826834],[-66.1858504,-17.3826792],[-66.1859155,-17.3826645],[-66.1859698,-17.3826448],[-66.1860184,-17.3826304],[-66.1860638,-17.3826241],[-66.1861549,-17.3826217],[-66.1862285,-17.3826217],[-66.1862883,-17.3826218],[-66.1863156,-17.3826212],[-66.1863505,-17.3826204],[-66.1874729,-17.3825845],[-66.187516,-17.3825812],[-66.1889998,-17.3825305],[-66.1890439,-17.3824664],[-66.18902,-17.382308],[-66.1889695,-17.3821938],[-66.1889059,-17.3819202],[-66.1888487,-17.3816418],[-66.18874,-17.3811827],[-66.1887134,-17.3810509],[-66.1887158,-17.3809506],[-66.1885291,-17.3800767],[-66.1886213,-17.380048],[-66.1897024,-17.3797017],[-66.1903556,-17.379501],[-66.1906324,-17.3794184],[-66.1908286,-17.3794199],[-66.191207,-17.3794227],[-66.1919314,-17.3793598],[-66.1927862,-17.3792856],[-66.1927175,-17.3788171],[-66.1926986,-17.3786799],[-66.1926286,-17.3781721],[-66.1925944,-17.377684],[-66.1925543,-17.3772961],[-66.1925237,-17.3768556],[-66.1924644,-17.3762247],[-66.1924006,-17.3761802],[-66.1923585,-17.3761402],[-66.1924031,-17.3760512],[-66.1924285,-17.3759728],[-66.1924539,-17.375943],[-66.1925076,-17.3759379],[-66.1924659,-17.3758472],[-66.192475,-17.3756958],[-66.1924717,-17.3752988],[-66.1924862,-17.3743965],[-66.1924991,-17.373705],[-66.1924663,-17.3735741],[-66.1924005,-17.3734664],[-66.1922569,-17.3732891],[-66.1921476,-17.3727653],[-66.1919684,-17.3719388],[-66.1925037,-17.37196],[-66.1925981,-17.37196],[-66.192735,-17.37196],[-66.1935502,-17.3718597],[-66.1941423,-17.3717937],[-66.1946951,-17.3716824],[-66.1951962,-17.3715687],[-66.1953541,-17.3715164],[-66.195727,-17.3713855],[-66.1960738,-17.3713292],[-66.196212,-17.3712275],[-66.1972418,-17.3705611],[-66.1972183,-17.3704557],[-66.1967427,-17.3691533],[-66.1966954,-17.3690176],[-66.196656,-17.3689104],[-66.1966292,-17.3688398],[-66.1961491,-17.3674252],[-66.1956813,-17.366025],[-66.1956509,-17.3659266],[-66.1954638,-17.3654462],[-66.1952769,-17.3648442],[-66.1951852,-17.3645486],[-66.1950825,-17.3642144],[-66.1949937,-17.3639651],[-66.1948255,-17.3634528],[-66.1944649,-17.362207],[-66.1953313,-17.361952],[-66.1957396,-17.3618171],[-66.1963937,-17.3616304],[-66.1970325,-17.3614669],[-66.1976389,-17.3611815],[-66.197881,-17.3610528],[-66.1983615,-17.3607829],[-66.1992822,-17.3602806]],"nodes":[2032952224,3017334247,2033020628,3017339693,2033020687,3344187300,2032986968,3344187208,3344185878,9342320235,3344185868,2032987058,3350252765,12487614747,2032986939,3350252764,3350252763,3344185823,3344185818,2032952050,3335582723,2032952302,2032952254,2033020677,3335582712,3335582711,2032952287,2033020641,2032951967,3335582709,2032952183,8744521905,3017339684,2032951855,2032987103,2033020649,2032986691,2032986866,8748098537,12484607563,2032951848,12484607565,12484607567,2032986775,2033020706,8984342686,8984342687,3335502893,12484607568,2032952107,12484607566,12484607564,3017377565,2032952030,2032951897,2032952142,4871222800,8748098602,12487614728,1600426552,12484607542,4871222807,12484607544,12484607543,2032951962,12484607545,8945406867,3017377422,8236485275,2032951889,3017372545,8236494244,646061085,3315367739,3315367731,3315367725,3315367723,3315367710,3675745347,646061086,646061088,3675745345,646061145,3315367671,646061153,646061175,3675745342,3675745340,646065252,646065256,3675745338,646065259,646065262,5610210872,3315366926,5610210854,5610210462,2768899163,5610210855,2768899137,2768899091,2768899088,2768899086,10830662562,702511793,2240937421,702511801,2240937287,2768899067,702511800,702511798,2240937283,2240937279,2240937272,702511819,2240937264,702511825,702511827,12313146805,12313146806,6129312152,12313146807,8192846541,2768899017,2768899015,12313146763,2768899012,2768899009,7197849281,2768899006,2768899001,2768899000,2768898998,2768898997,3322574459,2768898995,2768898994,8089836053,2768898991,8089836052,9121680489,2768898987,8089836054,2768898984,12313146720,2768898983,2768898982,12313136885,12313136888,2768898980,308297683,598789383,2031313819,8089836066,648548704,315031543,8515841687,8515841685,308297685,8515841684,2892642981,2892642977,8398265984,315098242,303217531,9121465672,8515841707,5018719455,303217532,5018719458,2303485397,2303485390,9121465671,303217533,8004756940,9934878049,9934878047,310287558,9186476425,8398265819,310281534,303217865,310256285,2289661585,698492406,303218726,2289661566,2289661556,2289661523,308306727,7919097329,310501177,7919097307,310501175,7919097336,10277111394,308300563,10920825770,2294524812,308300562,2294524809,2296982096,308300561,8326919823,2296982031,315032928,2296981978,843385471,2296981969,8267964000,315033203,2296981992,2600878703,310501277,5350197578,3555473521,310501275,3555473520,310263858,648546074,2312521461,310501273,2312521466,2312521478,2312521484,310501272,2312521487,2312521497,310501271,2312521499,12098045807,2312521516,9163629267,1636978129,3297079279,1636978122,2312521506,2312521495,676069598,9163629263,9163629266,11079349297,11079424622,676069597,1636978099,1636978093,1636978087,1636978084,1636978082,6481891030,12956643101,8667184717,1636978075,598178961,9686979844,598179000,598179002,598178996,2971956228,9736277914,598178994,6806354333,2972424324,560437521,11079292076,6806412400,2972424293,2972424288,3593740854,2972424286,6806354338,2972424289,2972424290,2972424287,9736277883,9356030787,598178985,3296016834,598178927,9736277841,598178925,9021457174,6481891032,6481891031,9021456994,8997922788,9843437744,8997922789,3296016829,9843437742,2869785589,9021457007,9843437743,560437509,2869785590,8997922795,560437508,560437507,689437148,3017419917,689437146,560437506,2544300069,2544300066,2544300064,2381924820,7436277546,7436277547,7436277538,7436277539,7436277540,7436277541,6806297280,9018486819,7436277553,560437481,560437480,4984179016,4984179014,560437479,9018656417,2544300049,560437478,5353043947,9630553874,7143106014,9630553873,2544300021,5353045238,9018656460,9018656468,7143106015,9018989661,9630553879,5353043987,689437100,4984179010,560437471,2137739527,11574102643,10798560508,3268302903,3268302896,2147343336,11574102642,2147343334,698492222,11054357065,689437111,689437110,3266371426,3017419915,689437113,682384965,689437108,809705443,809705519,682384960,809705623,682384962,809705633,682384963,3268355950,3268355949,12185456654,12185456655,12185456656,809705407,2147365673,5431880037,2168278860,2563978669,2563978660,2563978658,809705553,809705614,5025545583,12185456641,5025545585,12185456643,1577578173,1577578268,1577578331,1577578177,2563978623,1577578194,1577578171,1577578186,1577578237,1577578208,2563978589,11794879813,5025545599,4569188457,5025545598,1576391784,11794879804,1577578217,4569188475,4896172809,9129577057,11078284842,9998798839,4569188477,1576391822,3783948325,1576391791,5422295579,1573956002,3783961347,3783948321,3268163574,3099893141]},"gtfs":{"agency_id":7,"route_id":44,"services":[{"service_id":"Mo-Su","startTime":"06:00","endTime":"22:00","trip_id":9397822}],"filteredStops":{"nodes":[2032952224,3017334247,2033020628,3017339693,2033020687,3344187300,2032986968,3344187208,3344185878,9342320235,3344185868,2032987058,3350252765,12487614747,2032986939,3350252764,3350252763,3344185823,3344185818,2032952050,3335582723,2032952302,2032952254,2033020677,3335582712,3335582711,2032952287,2033020641,2032951967,3335582709,2032952183,8744521905,3017339684,2032951855,2032987103,2033020649,2032986691,2032986866,8748098537,12484607563,2032951848,12484607565,12484607567,2032986775,2033020706,8984342686,8984342687,3335502893,12484607568,2032952107,12484607566,12484607564,3017377565,2032952030,2032951897,2032952142,4871222800,8748098602,12487614728,1600426552,12484607542,4871222807,12484607544,12484607543,2032951962,12484607545,8945406867,3017377422,8236485275,2032951889,3017372545,8236494244,646061085,3315367739,3315367731,3315367725,3315367723,3315367710,3675745347,646061086,646061088,3675745345,646061145,3315367671,646061153,646061175,3675745342,3675745340,646065252,646065256,3675745338,646065259,646065262,5610210872,3315366926,5610210854,5610210462,2768899163,5610210855,2768899137,2768899091,2768899088,2768899086,10830662562,702511793,2240937421,702511801,2240937287,2768899067,702511800,702511798,2240937283,2240937279,2240937272,702511819,2240937264,702511825,702511827,12313146805,12313146806,6129312152,12313146807,8192846541,2768899017,2768899015,12313146763,2768899012,2768899009,7197849281,2768899006,2768899001,2768899000,2768898998,2768898997,3322574459,2768898995,2768898994,8089836053,2768898991,8089836052,9121680489,2768898987,8089836054,2768898984,12313146720,2768898983,2768898982,12313136885,12313136888,2768898980,308297683,598789383,2031313819,8089836066,648548704,315031543,8515841687,8515841685,308297685,8515841684,2892642981,2892642977,8398265984,315098242,303217531,9121465672,8515841707,5018719455,303217532,5018719458,2303485397,2303485390,9121465671,303217533,8004756940,9934878049,9934878047,310287558,9186476425,8398265819,310281534,303217865,310256285,2289661585,698492406,303218726,2289661566,2289661556,2289661523,308306727,7919097329,310501177,7919097307,310501175,7919097336,10277111394,308300563,10920825770,2294524812,308300562,2294524809,2296982096,308300561,8326919823,2296982031,315032928,2296981978,843385471,2296981969,8267964000,315033203,2296981992,2600878703,310501277,5350197578,3555473521,310501275,3555473520,310263858,648546074,2312521461,310501273,2312521466,2312521478,2312521484,310501272,2312521487,2312521497,310501271,2312521499,12098045807,2312521516,9163629267,1636978129,3297079279,1636978122,2312521506,2312521495,676069598,9163629263,9163629266,11079349297,11079424622,676069597,1636978099,1636978093,1636978087,1636978084,1636978082,6481891030,12956643101,8667184717,1636978075,598178961,9686979844,598179000,598179002,598178996,2971956228,9736277914,598178994,6806354333,2972424324,560437521,11079292076,6806412400,2972424293,2972424288,3593740854,2972424286,6806354338,2972424289,2972424290,2972424287,9736277883,9356030787,598178985,3296016834,598178927,9736277841,598178925,9021457174,6481891032,6481891031,9021456994,8997922788,9843437744,8997922789,3296016829,9843437742,2869785589,9021457007,9843437743,560437509,2869785590,8997922795,560437508,560437507,689437148,3017419917,689437146,560437506,2544300069,2544300066,2544300064,2381924820,7436277546,7436277547,7436277538,7436277539,7436277540,7436277541,6806297280,9018486819,7436277553,560437481,560437480,4984179016,4984179014,560437479,9018656417,2544300049,560437478,5353043947,9630553874,7143106014,9630553873,2544300021,5353045238,9018656460,9018656468,7143106015,9018989661,9630553879,5353043987,689437100,4984179010,560437471,2137739527,11574102643,10798560508,3268302903,3268302896,2147343336,11574102642,2147343334,698492222,11054357065,689437111,689437110,3266371426,3017419915,689437113,682384965,689437108,809705443,809705519,682384960,809705623,682384962,809705633,682384963,3268355950,3268355949,12185456654,12185456655,12185456656,809705407,2147365673,5431880037,2168278860,2563978669,2563978660,2563978658,809705553,809705614,5025545583,12185456641,5025545585,12185456643,1577578173,1577578268,1577578331,1577578177,2563978623,1577578194,1577578171,1577578186,1577578237,1577578208,2563978589,11794879813,5025545599,4569188457,5025545598,1576391784,11794879804,1577578217,4569188475,4896172809,9129577057,11078284842,9998798839,4569188477,1576391822,3783948325,1576391791,5422295579,1573956002,3783961347,3783948321,3268163574,3099893141],"coordinates":[[-66.1410957,-17.424975],[-66.1410928,-17.4242874],[-66.1411101,-17.4239461],[-66.1412418,-17.4234506],[-66.1413337,-17.4232579],[-66.1413932,-17.4231312],[-66.1416315,-17.4227644],[-66.1417179,-17.4226395],[-66.1418129,-17.4225525],[-66.14191,-17.4224692],[-66.142007,-17.4224176],[-66.1423177,-17.4223071],[-66.1424343,-17.4222615],[-66.1428758,-17.4220728],[-66.1429085,-17.4220588],[-66.1430271,-17.4220197],[-66.1431585,-17.4220184],[-66.1432997,-17.4219977],[-66.1434347,-17.4219657],[-66.1435119,-17.4219335],[-66.1435625,-17.4218452],[-66.1436452,-17.4217921],[-66.1438499,-17.421719],[-66.1441266,-17.4216255],[-66.1442811,-17.4215743],[-66.1444258,-17.4215076],[-66.1445197,-17.4214588],[-66.1447254,-17.4213395],[-66.1452699,-17.4210583],[-66.1453641,-17.4210277],[-66.1455427,-17.4209905],[-66.1456821,-17.4209755],[-66.1458648,-17.4209693],[-66.1464817,-17.4209553],[-66.1464472,-17.4201902],[-66.1470716,-17.420156],[-66.1473349,-17.4201424],[-66.147289,-17.4195627],[-66.14703,-17.4195757],[-66.1465061,-17.419609],[-66.1464101,-17.4196151],[-66.1460215,-17.4196391],[-66.1447007,-17.4197207],[-66.1445939,-17.4197273],[-66.1439634,-17.4197669],[-66.1439589,-17.4197038],[-66.1439477,-17.419545],[-66.143944,-17.4194861],[-66.1439955,-17.419483],[-66.1445591,-17.419449],[-66.1459997,-17.4193621],[-66.1463029,-17.4193438],[-66.1463686,-17.4193399],[-66.1470017,-17.4193017],[-66.1476106,-17.4192639],[-66.1482076,-17.4192269],[-66.1486513,-17.4191993],[-66.1487638,-17.4192063],[-66.1488158,-17.4192121],[-66.1488565,-17.4192166],[-66.1492033,-17.4192837],[-66.1492609,-17.4193039],[-66.1493015,-17.4193352],[-66.1493218,-17.4193665],[-66.1493834,-17.4196166],[-66.1494379,-17.4196021],[-66.1495252,-17.419568],[-66.1502317,-17.4192448],[-66.1508206,-17.4189812],[-66.1508025,-17.4189457],[-66.1518134,-17.4185232],[-66.1517008,-17.4183133],[-66.1515933,-17.418084],[-66.1515593,-17.4179762],[-66.1515388,-17.4178989],[-66.1515294,-17.4178383],[-66.1515214,-17.4177646],[-66.1515169,-17.4176692],[-66.1515174,-17.4176253],[-66.151519,-17.4174973],[-66.1515362,-17.4173158],[-66.1515451,-17.4171988],[-66.1515701,-17.4170807],[-66.1515696,-17.4170454],[-66.1515766,-17.4170107],[-66.151572,-17.4168489],[-66.1515563,-17.4165445],[-66.151454,-17.4156139],[-66.1514434,-17.4155291],[-66.1512807,-17.4140147],[-66.1512609,-17.4138782],[-66.151189,-17.4132531],[-66.1511181,-17.4126965],[-66.1510765,-17.4123794],[-66.1510407,-17.4119011],[-66.1510011,-17.4114093],[-66.1507869,-17.409366],[-66.1507647,-17.4087703],[-66.1507358,-17.4084235],[-66.1507125,-17.4076317],[-66.1507746,-17.4049827],[-66.150771,-17.4049716],[-66.15077,-17.4049601],[-66.1506665,-17.4049659],[-66.1505845,-17.4049529],[-66.1504894,-17.4049148],[-66.1500244,-17.4046123],[-66.1502065,-17.4043824],[-66.1502746,-17.4042764],[-66.1503278,-17.4041742],[-66.150363,-17.4040704],[-66.1503796,-17.4039576],[-66.1503679,-17.4038321],[-66.1503467,-17.4037109],[-66.1502396,-17.403362],[-66.1502232,-17.4031543],[-66.1501721,-17.4024063],[-66.150428,-17.4024026],[-66.1507616,-17.4024063],[-66.1508098,-17.4024175],[-66.1508417,-17.4024377],[-66.1508641,-17.4024089],[-66.1508921,-17.4023908],[-66.1508899,-17.4022599],[-66.1509141,-17.4021192],[-66.1509729,-17.4019459],[-66.1510198,-17.4018412],[-66.1511813,-17.4014973],[-66.1512002,-17.4014544],[-66.1512301,-17.4013183],[-66.1512356,-17.4011615],[-66.1512236,-17.4010129],[-66.1511996,-17.4009084],[-66.1511599,-17.400784],[-66.1511079,-17.4006717],[-66.1510673,-17.4005979],[-66.1509999,-17.4004932],[-66.1509233,-17.4003938],[-66.1508146,-17.4002864],[-66.150718,-17.4002083],[-66.1505979,-17.4001282],[-66.1505042,-17.4000796],[-66.1503866,-17.4000312],[-66.1502731,-17.3999956],[-66.1501808,-17.3999807],[-66.1500799,-17.3999658],[-66.1498455,-17.3999622],[-66.1493316,-17.3999508],[-66.1488302,-17.3999397],[-66.1483038,-17.3999281],[-66.1482116,-17.3998729],[-66.1483229,-17.3993423],[-66.1483573,-17.3991716],[-66.1483945,-17.3989818],[-66.1484931,-17.3984547],[-66.148511,-17.3983678],[-66.1485231,-17.3983088],[-66.1486874,-17.3975094],[-66.1486986,-17.3974593],[-66.1487112,-17.3973963],[-66.1487809,-17.397047],[-66.1488158,-17.396872],[-66.1488764,-17.3965683],[-66.1488961,-17.3964633],[-66.1489511,-17.3961794],[-66.1489617,-17.3961286],[-66.1490339,-17.3957809],[-66.1491557,-17.3951858],[-66.149167,-17.3951292],[-66.1491829,-17.3950604],[-66.1492372,-17.3947783],[-66.1493039,-17.3944315],[-66.1493561,-17.3941416],[-66.1493544,-17.3940925],[-66.1494038,-17.3941012],[-66.1498271,-17.3941781],[-66.1498691,-17.3941857],[-66.1506546,-17.3943283],[-66.1509627,-17.3943874],[-66.1510886,-17.3944105],[-66.1517102,-17.3945138],[-66.1519057,-17.3934654],[-66.152094,-17.3924306],[-66.1522715,-17.391539],[-66.1522861,-17.3914711],[-66.1523052,-17.391382],[-66.1523158,-17.3913281],[-66.1523262,-17.3912652],[-66.1523394,-17.3911896],[-66.1525071,-17.3902546],[-66.1527543,-17.3892223],[-66.1527614,-17.3891927],[-66.1534182,-17.3893487],[-66.1538354,-17.3894455],[-66.1540205,-17.3894885],[-66.154371,-17.3895681],[-66.1549205,-17.3896929],[-66.1549294,-17.3896497],[-66.155119,-17.3887314],[-66.1551357,-17.3886467],[-66.1551489,-17.3885714],[-66.1553164,-17.3876634],[-66.1553366,-17.3875835],[-66.1556337,-17.3876361],[-66.1556802,-17.3875781],[-66.1558106,-17.3874102],[-66.1564466,-17.3865414],[-66.1565033,-17.3864649],[-66.1565911,-17.3864726],[-66.1567198,-17.3865609],[-66.1567872,-17.3866071],[-66.1568384,-17.3866422],[-66.1575918,-17.3869932],[-66.1576501,-17.3870048],[-66.1577375,-17.3870171],[-66.1586202,-17.387137],[-66.1587007,-17.387146],[-66.1587433,-17.387153],[-66.1598506,-17.3873411],[-66.1599197,-17.3873512],[-66.1607699,-17.3875037],[-66.1608537,-17.3875198],[-66.1609408,-17.3875334],[-66.1613999,-17.3876049],[-66.1619575,-17.3876918],[-66.162025,-17.3877024],[-66.1620816,-17.3877126],[-66.1627663,-17.3878335],[-66.1628286,-17.3878447],[-66.1628914,-17.3878546],[-66.1631828,-17.387904],[-66.1637337,-17.3879975],[-66.1637673,-17.3879902],[-66.1637957,-17.3879805],[-66.1638795,-17.3879509],[-66.163953,-17.387925],[-66.164177,-17.387846],[-66.1643272,-17.3877922],[-66.1643848,-17.3877711],[-66.1644441,-17.3877488],[-66.1645162,-17.3877208],[-66.1648578,-17.3875809],[-66.1649018,-17.3875643],[-66.164924,-17.3875552],[-66.1650363,-17.3875237],[-66.1655829,-17.3873123],[-66.1657108,-17.3872507],[-66.1657931,-17.3871905],[-66.1658953,-17.3870972],[-66.1659533,-17.3870258],[-66.1659986,-17.3869648],[-66.1661071,-17.3868187],[-66.1663218,-17.3865558],[-66.1665707,-17.3862431],[-66.1666104,-17.3861957],[-66.1670888,-17.3856646],[-66.1675962,-17.3850394],[-66.168338,-17.3841414],[-66.1684906,-17.3839992],[-66.1686087,-17.3839101],[-66.1687242,-17.3838415],[-66.1690317,-17.3836671],[-66.1692719,-17.3835371],[-66.1693484,-17.3834931],[-66.1695477,-17.3834035],[-66.1695518,-17.3833987],[-66.1695561,-17.3833941],[-66.1695931,-17.3833663],[-66.1696373,-17.3833509],[-66.1696843,-17.3833493],[-66.1697296,-17.3833616],[-66.1697411,-17.3833673],[-66.1697941,-17.383358],[-66.1698425,-17.3833535],[-66.1699256,-17.3833409],[-66.1700092,-17.3833219],[-66.1705347,-17.383184],[-66.1708107,-17.383105],[-66.171589,-17.3829013],[-66.1721956,-17.3827419],[-66.172794,-17.3825846],[-66.1741378,-17.3822358],[-66.1746654,-17.3820984],[-66.1747525,-17.3820731],[-66.1748021,-17.3820611],[-66.1751885,-17.381968],[-66.1752482,-17.381949],[-66.1753938,-17.381889],[-66.1754721,-17.3818687],[-66.1755706,-17.3818446],[-66.175669,-17.3818282],[-66.175803,-17.381812],[-66.1759129,-17.3818052],[-66.1760443,-17.3818111],[-66.176198,-17.3818316],[-66.1763611,-17.3818644],[-66.1764425,-17.3818874],[-66.1765583,-17.381925],[-66.1780298,-17.3823567],[-66.1787832,-17.3825769],[-66.1794707,-17.3827741],[-66.1800553,-17.3829345],[-66.180204,-17.38295],[-66.1804507,-17.3829476],[-66.180529,-17.3829489],[-66.1814669,-17.3829363],[-66.1815029,-17.3829334],[-66.1815848,-17.3829139],[-66.1816457,-17.382894],[-66.1816966,-17.382884],[-66.1817667,-17.3828816],[-66.1818244,-17.382894],[-66.1818904,-17.3829158],[-66.1819263,-17.382929],[-66.1819723,-17.3829389],[-66.1820387,-17.3829444],[-66.1827962,-17.3829294],[-66.1835651,-17.3829246],[-66.1838469,-17.3829228],[-66.1839679,-17.382922],[-66.1841292,-17.3829203],[-66.1843826,-17.3828958],[-66.1849898,-17.3828246],[-66.1850597,-17.3828146],[-66.1858256,-17.3826834],[-66.1858504,-17.3826792],[-66.1859155,-17.3826645],[-66.1859698,-17.3826448],[-66.1860184,-17.3826304],[-66.1860638,-17.3826241],[-66.1861549,-17.3826217],[-66.1862285,-17.3826217],[-66.1862883,-17.3826218],[-66.1863156,-17.3826212],[-66.1863505,-17.3826204],[-66.1874729,-17.3825845],[-66.187516,-17.3825812],[-66.1889998,-17.3825305],[-66.1890439,-17.3824664],[-66.18902,-17.382308],[-66.1889695,-17.3821938],[-66.1889059,-17.3819202],[-66.1888487,-17.3816418],[-66.18874,-17.3811827],[-66.1887134,-17.3810509],[-66.1887158,-17.3809506],[-66.1885291,-17.3800767],[-66.1886213,-17.380048],[-66.1897024,-17.3797017],[-66.1903556,-17.379501],[-66.1906324,-17.3794184],[-66.1908286,-17.3794199],[-66.191207,-17.3794227],[-66.1919314,-17.3793598],[-66.1927862,-17.3792856],[-66.1927175,-17.3788171],[-66.1926986,-17.3786799],[-66.1926286,-17.3781721],[-66.1925944,-17.377684],[-66.1925543,-17.3772961],[-66.1925237,-17.3768556],[-66.1924644,-17.3762247],[-66.1924006,-17.3761802],[-66.1923585,-17.3761402],[-66.1924031,-17.3760512],[-66.1924285,-17.3759728],[-66.1924539,-17.375943],[-66.1925076,-17.3759379],[-66.1924659,-17.3758472],[-66.192475,-17.3756958],[-66.1924717,-17.3752988],[-66.1924862,-17.3743965],[-66.1924991,-17.373705],[-66.1924663,-17.3735741],[-66.1924005,-17.3734664],[-66.1922569,-17.3732891],[-66.1921476,-17.3727653],[-66.1919684,-17.3719388],[-66.1925037,-17.37196],[-66.1925981,-17.37196],[-66.192735,-17.37196],[-66.1935502,-17.3718597],[-66.1941423,-17.3717937],[-66.1946951,-17.3716824],[-66.1951962,-17.3715687],[-66.1953541,-17.3715164],[-66.195727,-17.3713855],[-66.1960738,-17.3713292],[-66.196212,-17.3712275],[-66.1972418,-17.3705611],[-66.1972183,-17.3704557],[-66.1967427,-17.3691533],[-66.1966954,-17.3690176],[-66.196656,-17.3689104],[-66.1966292,-17.3688398],[-66.1961491,-17.3674252],[-66.1956813,-17.366025],[-66.1956509,-17.3659266],[-66.1954638,-17.3654462],[-66.1952769,-17.3648442],[-66.1951852,-17.3645486],[-66.1950825,-17.3642144],[-66.1949937,-17.3639651],[-66.1948255,-17.3634528],[-66.1944649,-17.362207],[-66.1953313,-17.361952],[-66.1957396,-17.3618171],[-66.1963937,-17.3616304],[-66.1970325,-17.3614669],[-66.1976389,-17.3611815],[-66.197881,-17.3610528],[-66.1983615,-17.3607829],[-66.1992822,-17.3602806]]}}}]}