{"type":"FeatureCollection","features":[{"type":"Feature","properties":{"from":"Calle Luis Zegarra","name":"Trufi 03: Calle Luis Zegarra → Calle Curupau","network":"BO:CB:Cochabamba","on_demand":"yes","operator":"Sindicato mixto de transporte público 6 de mayo","public_transport:version":"2","ref":"03","route":"bus","to":"Calle Curupau","type":"route","wheelchair":"no","id":9397824},"geometry":{"type":"LineString","coordinates":[[-66.1992822,-17.360280600000003],[-66.1983615,-17.3607829],[-66.19788100000001,-17.361052800000003],[-66.1976389,-17.3611815],[-66.1970325,-17.3614669],[-66.1963937,-17.361630400000003],[-66.19573960000001,-17.361817100000003],[-66.1953313,-17.361952000000002],[-66.1944649,-17.362207],[-66.19482550000001,-17.3634528],[-66.19499370000001,-17.3639651],[-66.19508250000001,-17.3642144],[-66.19518520000001,-17.364548600000003],[-66.19527690000001,-17.3648442],[-66.1954638,-17.3654462],[-66.1956509,-17.3659266],[-66.1956813,-17.366025],[-66.1961491,-17.367425200000003],[-66.1966292,-17.3688398],[-66.196656,-17.3689104],[-66.19669540000001,-17.369017600000003],[-66.1967427,-17.3691533],[-66.1972183,-17.3704557],[-66.1972418,-17.3705611],[-66.196212,-17.3712275],[-66.19607380000001,-17.3713292],[-66.195727,-17.371385500000002],[-66.1953541,-17.3715164],[-66.19519620000001,-17.3715687],[-66.1946951,-17.3716824],[-66.19414230000001,-17.3717937],[-66.1935502,-17.3718597],[-66.192735,-17.37196],[-66.19259810000001,-17.37196],[-66.1925037,-17.37196],[-66.19196840000001,-17.371938800000002],[-66.19214760000001,-17.3727653],[-66.1922569,-17.3732891],[-66.1924005,-17.3734664],[-66.1924663,-17.373574100000003],[-66.1924991,-17.373705],[-66.1924862,-17.374396500000003],[-66.1924717,-17.375298800000003],[-66.192475,-17.375695800000003],[-66.1924659,-17.375847200000003],[-66.1925076,-17.3759379],[-66.19251650000001,-17.375980300000002],[-66.19249500000001,-17.376040000000003],[-66.1924754,-17.376118400000003],[-66.1924644,-17.3762247],[-66.19252370000001,-17.376855600000003],[-66.19255430000001,-17.377296100000002],[-66.1925944,-17.377684000000002],[-66.1926286,-17.3781721],[-66.1926986,-17.3786799],[-66.1927175,-17.378817100000003],[-66.1927862,-17.379285600000003],[-66.1929178,-17.3800871],[-66.19296510000001,-17.3803142],[-66.1930165,-17.3806142],[-66.1932123,-17.381970900000002],[-66.19322740000001,-17.382102300000003],[-66.1928781,-17.382125900000002],[-66.19279590000001,-17.3821325],[-66.192127,-17.382186800000003],[-66.1920479,-17.3821978],[-66.1919819,-17.382209300000003],[-66.19104920000001,-17.3824104],[-66.190944,-17.3824335],[-66.1902687,-17.382581700000003],[-66.19008640000001,-17.3826146],[-66.18998710000001,-17.382627600000003],[-66.1895523,-17.3826517],[-66.1889749,-17.3826655],[-66.18890230000001,-17.382751900000002],[-66.1883796,-17.384221800000002],[-66.1883624,-17.3842725],[-66.1883454,-17.384354000000002],[-66.1883318,-17.384455000000003],[-66.18831200000001,-17.3847519],[-66.18826890000001,-17.385613900000003],[-66.1882499,-17.385739400000002],[-66.1882463,-17.3858332],[-66.1882472,-17.3858773],[-66.18825770000001,-17.385922400000002],[-66.18827920000001,-17.3859555],[-66.18820810000001,-17.385997300000003],[-66.1881529,-17.386042600000003],[-66.18812820000001,-17.3860563],[-66.1880632,-17.3861026],[-66.1879632,-17.386157800000003],[-66.18786630000001,-17.3861858],[-66.1877602,-17.386190900000003],[-66.18766790000001,-17.3861846],[-66.1874997,-17.386163500000002],[-66.1873422,-17.3861446],[-66.1872982,-17.386137700000003],[-66.1872707,-17.3861342],[-66.1868642,-17.386084200000003],[-66.18672450000001,-17.3860759],[-66.1865707,-17.386078],[-66.1864336,-17.386085100000003],[-66.1858967,-17.3861217],[-66.18573830000001,-17.3861372],[-66.18548340000001,-17.38616],[-66.1854315,-17.386165400000003],[-66.1853107,-17.3861765],[-66.1852125,-17.3861944],[-66.1851326,-17.386212500000003],[-66.1850581,-17.3862366],[-66.18495340000001,-17.386277600000003],[-66.18416180000001,-17.3866246],[-66.18359240000001,-17.3868738],[-66.18277900000001,-17.387218700000002],[-66.18258870000001,-17.387300800000002],[-66.18248410000001,-17.387349200000003],[-66.1824443,-17.3873824],[-66.1824069,-17.387429],[-66.18236180000001,-17.387484200000003],[-66.1823016,-17.387517300000003],[-66.18222580000001,-17.387535900000003],[-66.18216890000001,-17.3875445],[-66.1820538,-17.387585400000003],[-66.1813681,-17.387850200000003],[-66.18131290000001,-17.3878643],[-66.1810861,-17.3878857],[-66.1802452,-17.387935900000002],[-66.1800544,-17.387945300000002],[-66.17980920000001,-17.387960600000003],[-66.17966530000001,-17.3879693],[-66.1795716,-17.3879753],[-66.17942520000001,-17.387984200000002],[-66.179337,-17.387992],[-66.1792875,-17.387993100000003],[-66.17919930000001,-17.3879993],[-66.1791247,-17.3880045],[-66.17904650000001,-17.38801],[-66.17890600000001,-17.3880199],[-66.17881890000001,-17.3880242],[-66.17859130000001,-17.3880252],[-66.1779558,-17.388028300000002],[-66.1778429,-17.388027700000002],[-66.1776751,-17.388027],[-66.17758690000001,-17.3880264],[-66.1774681,-17.387997900000002],[-66.1769045,-17.388003700000002],[-66.1763336,-17.388012500000002],[-66.1762478,-17.3880142],[-66.1756089,-17.388016],[-66.1748398,-17.3880181],[-66.17476210000001,-17.3880184],[-66.17468480000001,-17.3880149],[-66.17379620000001,-17.3879756],[-66.17364620000001,-17.3879689],[-66.1735707,-17.387965700000002],[-66.17297760000001,-17.3879406],[-66.1721275,-17.3879047],[-66.1709328,-17.3878524],[-66.1707925,-17.3878439],[-66.1707023,-17.387838400000003],[-66.17069620000001,-17.3878768],[-66.17067870000001,-17.387915300000003],[-66.1706552,-17.387945900000002],[-66.17063320000001,-17.387965700000002],[-66.17060520000001,-17.387983400000003],[-66.1705742,-17.3879959],[-66.17054130000001,-17.388002800000002],[-66.1705077,-17.388004000000002],[-66.17047450000001,-17.387999200000003],[-66.17044270000001,-17.387988800000002],[-66.1704133,-17.3879732],[-66.17038960000001,-17.3879546],[-66.17025720000001,-17.387891200000002],[-66.1701723,-17.387858400000002],[-66.1700943,-17.3878452],[-66.1693487,-17.3878048],[-66.16927720000001,-17.3877966],[-66.1691883,-17.387782100000003],[-66.1682071,-17.387616400000002],[-66.16808230000001,-17.3875713],[-66.1679524,-17.3875493],[-66.1679258,-17.3875448],[-66.167439,-17.3874624],[-66.1673167,-17.3874417],[-66.1670254,-17.387392000000002],[-66.1663362,-17.3872743],[-66.1662455,-17.3872611],[-66.1661936,-17.387256100000002],[-66.16616110000001,-17.3872529],[-66.1661153,-17.3872538],[-66.1660695,-17.387254600000002],[-66.1660231,-17.3872566],[-66.16596000000001,-17.387263500000003],[-66.1658587,-17.387282300000003],[-66.16573720000001,-17.387316300000002],[-66.1656062,-17.3873676],[-66.1650578,-17.3875798],[-66.16495520000001,-17.3876187],[-66.1648866,-17.3876464],[-66.1645448,-17.3877859],[-66.164473,-17.387815200000002],[-66.16441420000001,-17.387838700000003],[-66.1643482,-17.387870200000002],[-66.1641805,-17.3879418],[-66.1641189,-17.387970600000003],[-66.1640618,-17.3880069],[-66.16401040000001,-17.388050300000003],[-66.1639593,-17.388110700000002],[-66.163939,-17.3881386],[-66.16391920000001,-17.3881775],[-66.16389860000001,-17.3882307],[-66.1638597,-17.388703600000003],[-66.16384020000001,-17.3888937],[-66.16383330000001,-17.388961300000002],[-66.163742,-17.3889445],[-66.1627619,-17.388763500000003],[-66.162692,-17.388752],[-66.1626227,-17.388740600000002],[-66.1619046,-17.3886226],[-66.1618505,-17.3886137],[-66.16183910000001,-17.3886718],[-66.16167200000001,-17.389511300000002],[-66.1616616,-17.3895634],[-66.16163780000001,-17.389679],[-66.16162530000001,-17.3897356],[-66.1616144,-17.389794300000002],[-66.16142260000001,-17.390762600000002],[-66.16124110000001,-17.3918198],[-66.16010960000001,-17.391642400000002],[-66.1593569,-17.391514500000003],[-66.1591564,-17.3914785],[-66.1590985,-17.3914702],[-66.15902120000001,-17.3914589],[-66.1589684,-17.3914514],[-66.15853530000001,-17.3913854],[-66.1579619,-17.391287700000003],[-66.15688080000001,-17.391099500000003],[-66.15579980000001,-17.3909053],[-66.1547766,-17.390720100000003],[-66.1547221,-17.3907102],[-66.15441390000001,-17.390651400000003],[-66.1536219,-17.3904922],[-66.15250710000001,-17.390254600000002],[-66.1514143,-17.390025],[-66.15032930000001,-17.389795900000003],[-66.15029030000001,-17.389787400000003],[-66.1501946,-17.3897684],[-66.15014330000001,-17.389758200000003],[-66.1500862,-17.3897464],[-66.14942520000001,-17.389604000000002],[-66.1491441,-17.389543900000003],[-66.1490107,-17.390230600000002],[-66.148919,-17.390703000000002],[-66.14890910000001,-17.3907458],[-66.14889430000001,-17.390824400000003],[-66.14888640000001,-17.3908667],[-66.1487038,-17.3917663],[-66.14869060000001,-17.3918339],[-66.148651,-17.391928200000002],[-66.14864180000001,-17.3919718],[-66.14858770000001,-17.3922279],[-66.1485432,-17.392443],[-66.1485231,-17.392540200000003],[-66.1484738,-17.392778800000002],[-66.1484626,-17.392832900000002],[-66.14793900000001,-17.3927435],[-66.14743340000001,-17.3926589],[-66.1473167,-17.3926404],[-66.1468937,-17.3925734],[-66.14683430000001,-17.3925626],[-66.14664900000001,-17.3925276],[-66.1458099,-17.3923619],[-66.1453273,-17.392282],[-66.1451071,-17.392245600000003],[-66.1448295,-17.3921996],[-66.1445767,-17.392158100000003],[-66.14440970000001,-17.392130700000003],[-66.14437070000001,-17.392124300000003],[-66.1442415,-17.392103000000002],[-66.1441346,-17.3920855],[-66.143713,-17.3920162],[-66.1436259,-17.3920019],[-66.1430857,-17.3919132],[-66.142807,-17.3918675],[-66.14274520000001,-17.3918573],[-66.1427214,-17.3919144],[-66.14234640000001,-17.3927549],[-66.1423273,-17.3927935],[-66.1419298,-17.393674700000002],[-66.14187790000001,-17.3937896],[-66.14189300000001,-17.393798800000003],[-66.14190550000001,-17.393811000000003],[-66.141917,-17.393830100000002],[-66.1419226,-17.3938534],[-66.14192050000001,-17.3938773],[-66.1419595,-17.3939217],[-66.1425597,-17.3946913],[-66.14292370000001,-17.3951433],[-66.1431094,-17.3953528],[-66.1432772,-17.3955556],[-66.1434016,-17.395681900000003],[-66.14379020000001,-17.3960495],[-66.1440656,-17.3962608],[-66.14431180000001,-17.396443400000003],[-66.14457460000001,-17.3966099],[-66.14482170000001,-17.396751400000003],[-66.1451356,-17.3969281],[-66.14539470000001,-17.397057200000003],[-66.14574250000001,-17.397234800000003],[-66.14678470000001,-17.3977645],[-66.14745690000001,-17.3981037],[-66.1474343,-17.3982059],[-66.14736160000001,-17.398568400000002],[-66.1471965,-17.3993918],[-66.1471293,-17.399726700000002],[-66.1471925,-17.399734000000002],[-66.14821160000001,-17.399872900000002],[-66.14829800000001,-17.3998478],[-66.14883130000001,-17.3998543],[-66.14933400000001,-17.399860500000003],[-66.14984940000001,-17.3998668],[-66.14984550000001,-17.3999622],[-66.1497827,-17.400028900000002],[-66.1498026,-17.400102],[-66.1498239,-17.4001805],[-66.1499017,-17.4004668],[-66.1498937,-17.4005316],[-66.14986090000001,-17.400584700000003],[-66.149775,-17.4006681],[-66.14944220000001,-17.400971400000003],[-66.14937060000001,-17.401059500000002],[-66.149319,-17.4011365],[-66.149269,-17.4012475],[-66.14927080000001,-17.401304200000002],[-66.14937540000001,-17.401751700000002],[-66.14937660000001,-17.4018376],[-66.1493899,-17.4018833],[-66.1494074,-17.4019461],[-66.1494072,-17.401976700000002],[-66.14940010000001,-17.4020081],[-66.1493665,-17.402073100000003],[-66.149365,-17.402112600000002],[-66.1493916,-17.402146300000002],[-66.14944150000001,-17.4020872],[-66.1495007,-17.4019987],[-66.1495634,-17.401875800000003],[-66.14960620000001,-17.401730500000003],[-66.1496651,-17.401482700000003],[-66.1496972,-17.4013956],[-66.1497453,-17.401320100000003],[-66.14979670000001,-17.401271],[-66.1498751,-17.4012271],[-66.14995710000001,-17.401217000000003],[-66.14997930000001,-17.4012193],[-66.1500309,-17.4012248],[-66.1500922,-17.4012466],[-66.15014240000001,-17.4012804],[-66.15017370000001,-17.4013168],[-66.1502239,-17.4013965],[-66.15024070000001,-17.4014466],[-66.15025080000001,-17.401529200000002],[-66.1502487,-17.4015792],[-66.1502416,-17.4016655],[-66.15022420000001,-17.401733200000002],[-66.1502032,-17.4018011],[-66.15009830000001,-17.4020873],[-66.15006310000001,-17.402154900000003],[-66.1500269,-17.402232700000003],[-66.1499912,-17.402292900000003],[-66.1499624,-17.4023414],[-66.1500946,-17.4023836],[-66.1501721,-17.402406300000003],[-66.1502232,-17.4031543],[-66.1502396,-17.403362],[-66.1503467,-17.4037109],[-66.1503679,-17.403832100000002],[-66.15037960000001,-17.403957600000002],[-66.150363,-17.404070400000002],[-66.1503278,-17.4041742],[-66.1502746,-17.4042764],[-66.15020650000001,-17.404382400000003],[-66.1500244,-17.4046123],[-66.15048940000001,-17.4049148],[-66.15058450000001,-17.4049529],[-66.1506665,-17.4049659],[-66.15077000000001,-17.4049601],[-66.15077190000001,-17.404948400000002],[-66.1507766,-17.4049374],[-66.1507837,-17.404927700000002],[-66.15079460000001,-17.4049188],[-66.15080760000001,-17.404913],[-66.15082170000001,-17.404910700000002],[-66.1508359,-17.4049121],[-66.1508493,-17.4049169],[-66.150857,-17.4049218],[-66.15086360000001,-17.404927800000003],[-66.1508695,-17.404935400000003],[-66.1508738,-17.404943900000003],[-66.1508769,-17.404956400000003],[-66.15087670000001,-17.4049692],[-66.15087310000001,-17.404981600000003],[-66.15086640000001,-17.404992800000002],[-66.150857,-17.405002000000003],[-66.15085950000001,-17.405027],[-66.1508603,-17.4050958],[-66.1508022,-17.407629800000002],[-66.1508067,-17.4084116],[-66.1507991,-17.4087701],[-66.1508148,-17.409363300000003],[-66.15102850000001,-17.4114067],[-66.1510873,-17.411899700000003],[-66.1511538,-17.412364200000003],[-66.15119460000001,-17.4126857],[-66.1512648,-17.413213600000002],[-66.151189,-17.413253100000002],[-66.1503342,-17.413720400000003],[-66.1493566,-17.4142422],[-66.1495903,-17.414493800000002],[-66.14978500000001,-17.4146895],[-66.14991640000001,-17.414880800000002],[-66.1500479,-17.415089100000003],[-66.1501472,-17.415268400000002],[-66.15022250000001,-17.4154568],[-66.1502789,-17.4156198],[-66.15031160000001,-17.4157882],[-66.15033290000001,-17.415936100000003],[-66.150362,-17.416201400000002],[-66.1503703,-17.4164868],[-66.1503649,-17.416584800000003],[-66.150343,-17.4167342],[-66.1502777,-17.417102],[-66.150174,-17.417653700000002],[-66.1501324,-17.417915800000003],[-66.1500836,-17.418057700000002],[-66.1500316,-17.418177200000002],[-66.14980870000001,-17.4185285],[-66.1492609,-17.419303900000003],[-66.1493015,-17.419335200000003],[-66.14932180000001,-17.419366500000002],[-66.1493834,-17.4196166],[-66.1493075,-17.4196369],[-66.14924300000001,-17.4196464],[-66.149203,-17.4196354],[-66.1489045,-17.4195144],[-66.14885550000001,-17.4194958],[-66.14879690000001,-17.4194859],[-66.1487551,-17.4194825],[-66.14865780000001,-17.419482300000002],[-66.1482426,-17.4195059],[-66.1476294,-17.4195424],[-66.1477363,-17.4211256],[-66.1477399,-17.421178700000002],[-66.14778460000001,-17.421840500000002],[-66.1477339,-17.4218386],[-66.1475855,-17.421781300000003],[-66.1474673,-17.421744500000003],[-66.14732810000001,-17.4217264],[-66.1471436,-17.4217295],[-66.14684340000001,-17.421759],[-66.14669880000001,-17.4217717],[-66.1465131,-17.421790100000003],[-66.146511,-17.421850300000003],[-66.1464165,-17.421847000000003],[-66.14633620000001,-17.421834],[-66.146252,-17.4218127],[-66.14605080000001,-17.4217239],[-66.14593620000001,-17.4216795],[-66.14563050000001,-17.4215732],[-66.14556900000001,-17.421558800000003],[-66.14547110000001,-17.421557200000002],[-66.1453218,-17.4215921],[-66.1452699,-17.421058300000002],[-66.1447254,-17.421339500000002],[-66.1445197,-17.4214588],[-66.14442580000001,-17.4215076],[-66.1442811,-17.421574300000003],[-66.1441266,-17.4216255],[-66.1438499,-17.421719000000003],[-66.14364520000001,-17.4217921],[-66.1435625,-17.4218452],[-66.14351190000001,-17.4219335],[-66.14352170000001,-17.4219848],[-66.14351520000001,-17.422018700000002],[-66.14347380000001,-17.4220581],[-66.14343000000001,-17.4220839],[-66.1433765,-17.422101],[-66.14331270000001,-17.4221261],[-66.14296470000001,-17.4222897],[-66.14287250000001,-17.422333000000002],[-66.14278870000001,-17.4223724],[-66.1427067,-17.4224219],[-66.14259890000001,-17.4225043],[-66.1423637,-17.422749600000003],[-66.1421998,-17.4229346],[-66.1420394,-17.423131400000003],[-66.1419395,-17.4232847],[-66.1417234,-17.4237436],[-66.14167880000001,-17.4238295],[-66.1416312,-17.4239576],[-66.14154880000001,-17.4242673],[-66.14147720000001,-17.4248656],[-66.14134170000001,-17.4249492],[-66.141203,-17.424977900000002],[-66.14109570000001,-17.424975]],"nodes":[3099893141,3268163574,3783948321,3783961347,1573956002,5422295579,1576391791,3783948325,1576391822,4569188477,9998798839,11078284842,9129577057,4896172809,4569188475,1577578217,11794879804,1576391784,5025545598,4569188457,5025545599,11794879813,2563978589,1577578208,1577578237,1577578186,1577578171,1577578194,2563978623,1577578177,1577578331,1577578268,1577578173,12185456643,5025545585,12185456641,5025545583,809705614,809705553,2563978658,2563978660,2563978669,2168278860,5431880037,2147365673,809705407,12185456653,12185456652,12185456651,682384963,809705633,682384962,809705623,682384960,809705519,809705443,689437108,689437107,2147365676,2147365671,682384958,698491972,698491963,4984179007,560437474,3783610620,4984179009,698492077,9019031973,689437098,9019031937,560437473,698492063,11070134539,9018475312,2137750209,5353043982,3265654700,9000087206,9000104329,7956609166,4173546440,4173546434,9000087210,9000087211,2265578409,8051906136,7956609179,9000104324,2265578424,560522503,2265578462,560522505,2265578464,5869436078,7956609158,7956609160,560522511,2265578451,2265578443,5869436081,560522629,5869436892,3040552982,560522633,5869436887,560522608,3265528132,9000087197,2381924946,3265528145,5869436896,560522646,560522637,9443391361,2381925005,9443391362,7961801405,7961798480,6806324309,9443391363,2381925033,9000087181,560522672,2379656106,7961801488,2379656100,7961288735,2381925077,7961288737,2381925082,9930397068,9900785349,9930397076,9930397063,9928780892,2381925093,2381925127,9928780894,1807087124,9220533380,2381925101,11074006130,11074006129,11074006128,563279605,598178868,563279606,563279644,5213287334,563279642,5213287338,5213287326,598178874,5213287330,10809785785,563279649,7943494882,1718722262,3250373512,11361265661,11361265660,9343503246,3250373518,9343503244,3250373520,9343503245,3250373522,9343503243,3250373521,3250373519,3250373514,5213287364,9873615123,5213287367,5213287382,9686979827,5213287369,9686979833,563279693,9892649520,9686979830,2410715884,1637648616,1636978092,8667184715,1636978090,12956643102,1636978088,12956643104,2971956447,11079484936,1636978091,5213287386,2971956448,8667184716,1636978106,851595003,11079349296,9163629265,9163629264,851594930,598178970,1636978125,1636978136,11079349295,2312521530,8143793593,2312521543,8143793612,1636978158,1636978181,851595264,310502291,2312521609,4770271222,310501225,4770271221,2312521569,310501226,2312521572,13363606474,4636734247,10792253166,310501181,10792253164,310502265,308304264,308304265,7916079555,2295541570,648546076,308304266,2295541569,7916079548,308306723,308306724,308306725,13158279615,308300564,1684044840,308306726,308306727,308306728,9591270787,2470422221,303217664,2470422220,2295135876,9021697605,308306729,11827181890,2524491857,303214819,698492415,2524491860,2524491871,310256064,2892642950,11909190787,8686638951,8686638950,9852140997,3924761818,303215163,2296580941,3201986249,12153256567,8674788834,2089612819,360129540,3232582109,8978596850,3740735352,8978596851,8623738790,5096122271,303215031,2702743907,8661106030,303221553,3578038899,8620183423,8620183345,303221552,8620183347,8584400934,315134805,9886485075,2033335103,11072493727,2033335200,2033335257,11072493723,2033335311,2033335550,8619283530,8253508719,315031289,598789073,598789071,8253508706,315031292,315031293,315031294,8250070339,598789057,391727105,2033336773,702512026,315031513,1745102852,8250061913,8250061914,598789376,2031313826,308297683,11072042765,12313136886,12313136883,323985741,2768898982,659962343,12313136868,12313136867,3322574455,3322574457,2236815538,8089836050,2236815592,2236815597,3322575583,702511997,3322575607,702511999,702511981,3322575658,2236815706,3322575763,3322575767,9928232795,3322575773,702511983,2236815741,3322575764,702511985,9928232794,9928232793,702512005,2236815607,3322575606,2236815601,2236815599,8192846569,3322575591,3322575604,2236815606,3322575618,2236815617,702511973,3322575639,3322575641,3322575648,3322575651,2236815694,702511967,3322575780,3322575789,8192846546,2236815836,6129312138,702511825,2240937264,702511819,2240937272,2240937279,2240937283,702511798,702511800,2768899067,2240937287,702511801,2240937421,702511793,10830662562,2768899086,2768899085,2768899083,2768899082,2768899080,2768899077,2768899076,2768899078,2768899081,8208190712,2768899084,9343198168,9343198169,9343198167,9343198163,9343198164,9343198165,2768899087,8208190715,8208190714,659960380,5610210856,659960379,659960354,3315366893,5610210853,5610210870,646065231,2545423147,646065259,2545423149,2032952251,3017377551,2032952104,3331947177,3017377431,3331947185,8945406894,2032951784,3017377429,2032952190,2032952152,3017377428,3331947244,2032951903,3017377426,1737906678,2032952249,2032951979,2032952227,3331947272,4871222807,12484607544,12484607543,2032951962,12484607546,2032952053,12484607548,12484607547,1600426582,8748098570,8748098571,4871222802,2033020660,2033020734,2033020620,2033020742,2032952259,2032952300,2032952080,3335582715,3335582714,2032951970,2032951938,3335582716,3335582718,2032951822,3344185810,2032952076,3344185807,2032952038,3017339685,3344185804,2032951985,2032952065,2032951996,2032951967,2033020641,2032952287,3335582711,3335582712,2033020677,2032952254,2032952302,3335582723,2032952050,3017339681,2032952180,3335582724,3344185842,3344185844,2032952229,12487614746,12487614745,12487614737,2032951790,2032951906,2032951892,3344187253,2032952139,3344187308,3344187346,2032952072,2032952074,5561911179,3350253816,3344187351,3344187353,2032952224]},"gtfs":{"agency_id":8,"route_id":38,"services":[{"service_id":"Mo-Su","startTime":"06:00","endTime":"22:00","trip_id":9397824}],"filteredStops":{"nodes":[3099893141,3268163574,3783948321,3783961347,1573956002,5422295579,1576391791,3783948325,1576391822,4569188477,9998798839,11078284842,9129577057,4896172809,4569188475,1577578217,11794879804,1576391784,5025545598,4569188457,5025545599,11794879813,2563978589,1577578208,1577578237,1577578186,1577578171,1577578194,2563978623,1577578177,1577578331,1577578268,1577578173,12185456643,5025545585,12185456641,5025545583,809705614,809705553,2563978658,2563978660,2563978669,2168278860,5431880037,2147365673,809705407,12185456653,12185456652,12185456651,682384963,809705633,682384962,809705623,682384960,809705519,809705443,689437108,689437107,2147365676,2147365671,682384958,698491972,698491963,4984179007,560437474,3783610620,4984179009,698492077,9019031973,689437098,9019031937,560437473,698492063,11070134539,9018475312,2137750209,5353043982,3265654700,9000087206,9000104329,7956609166,4173546440,4173546434,9000087210,9000087211,2265578409,8051906136,7956609179,9000104324,2265578424,560522503,2265578462,560522505,2265578464,5869436078,7956609158,7956609160,560522511,2265578451,2265578443,5869436081,560522629,5869436892,3040552982,560522633,5869436887,560522608,3265528132,9000087197,2381924946,3265528145,5869436896,560522646,560522637,9443391361,2381925005,9443391362,7961801405,7961798480,6806324309,9443391363,2381925033,9000087181,560522672,2379656106,7961801488,2379656100,7961288735,2381925077,7961288737,2381925082,9930397068,9900785349,9930397076,9930397063,9928780892,2381925093,2381925127,9928780894,1807087124,9220533380,2381925101,11074006130,11074006129,11074006128,563279605,598178868,563279606,563279644,5213287334,563279642,5213287338,5213287326,598178874,5213287330,10809785785,563279649,7943494882,1718722262,3250373512,11361265661,11361265660,9343503246,3250373518,9343503244,3250373520,9343503245,3250373522,9343503243,3250373521,3250373519,3250373514,5213287364,9873615123,5213287367,5213287382,9686979827,5213287369,9686979833,563279693,9892649520,9686979830,2410715884,1637648616,1636978092,8667184715,1636978090,12956643102,1636978088,12956643104,2971956447,11079484936,1636978091,5213287386,2971956448,8667184716,1636978106,851595003,11079349296,9163629265,9163629264,851594930,598178970,1636978125,1636978136,11079349295,2312521530,8143793593,2312521543,8143793612,1636978158,1636978181,851595264,310502291,2312521609,4770271222,310501225,4770271221,2312521569,310501226,2312521572,13363606474,4636734247,10792253166,310501181,10792253164,310502265,308304264,308304265,7916079555,2295541570,648546076,308304266,2295541569,7916079548,308306723,308306724,308306725,13158279615,308300564,1684044840,308306726,308306727,308306728,9591270787,2470422221,303217664,2470422220,2295135876,9021697605,308306729,11827181890,2524491857,303214819,698492415,2524491860,2524491871,310256064,2892642950,11909190787,8686638951,8686638950,9852140997,3924761818,303215163,2296580941,3201986249,12153256567,8674788834,2089612819,360129540,3232582109,8978596850,3740735352,8978596851,8623738790,5096122271,303215031,2702743907,8661106030,303221553,3578038899,8620183423,8620183345,303221552,8620183347,8584400934,315134805,9886485075,2033335103,11072493727,2033335200,2033335257,11072493723,2033335311,2033335550,8619283530,8253508719,315031289,598789073,598789071,8253508706,315031292,315031293,315031294,8250070339,598789057,391727105,2033336773,702512026,315031513,1745102852,8250061913,8250061914,598789376,2031313826,308297683,11072042765,12313136886,12313136883,323985741,2768898982,659962343,12313136868,12313136867,3322574455,3322574457,2236815538,8089836050,2236815592,2236815597,3322575583,702511997,3322575607,702511999,702511981,3322575658,2236815706,3322575763,3322575767,9928232795,3322575773,702511983,2236815741,3322575764,702511985,9928232794,9928232793,702512005,2236815607,3322575606,2236815601,2236815599,8192846569,3322575591,3322575604,2236815606,3322575618,2236815617,702511973,3322575639,3322575641,3322575648,3322575651,2236815694,702511967,3322575780,3322575789,8192846546,2236815836,6129312138,702511825,2240937264,702511819,2240937272,2240937279,2240937283,702511798,702511800,2768899067,2240937287,702511801,2240937421,702511793,10830662562,2768899086,2768899085,2768899083,2768899082,2768899080,2768899077,2768899076,2768899078,2768899081,8208190712,2768899084,9343198168,9343198169,9343198167,9343198163,9343198164,9343198165,2768899087,8208190715,8208190714,659960380,5610210856,659960379,659960354,3315366893,5610210853,5610210870,646065231,2545423147,646065259,2545423149,2032952251,3017377551,2032952104,3331947177,3017377431,3331947185,8945406894,2032951784,3017377429,2032952190,2032952152,3017377428,3331947244,2032951903,3017377426,1737906678,2032952249,2032951979,2032952227,3331947272,4871222807,12484607544,12484607543,2032951962,12484607546,2032952053,12484607548,12484607547,1600426582,8748098570,8748098571,4871222802,2033020660,2033020734,2033020620,2033020742,2032952259,2032952300,2032952080,3335582715,3335582714,2032951970,2032951938,3335582716,3335582718,2032951822,3344185810,2032952076,3344185807,2032952038,3017339685,3344185804,2032951985,2032952065,2032951996,2032951967,2033020641,2032952287,3335582711,3335582712,2033020677,2032952254,2032952302,3335582723,2032952050,3017339681,2032952180,3335582724,3344185842,3344185844,2032952229,12487614746,12487614745,12487614737,2032951790,2032951906,2032951892,3344187253,2032952139,3344187308,3344187346,2032952072,2032952074,5561911179,3350253816,3344187351,3344187353,2032952224],"coordinates":[[-66.1992822,-17.360280600000003],[-66.1983615,-17.3607829],[-66.19788100000001,-17.361052800000003],[-66.1976389,-17.3611815],[-66.1970325,-17.3614669],[-66.1963937,-17.361630400000003],[-66.19573960000001,-17.361817100000003],[-66.1953313,-17.361952000000002],[-66.1944649,-17.362207],[-66.19482550000001,-17.3634528],[-66.19499370000001,-17.3639651],[-66.19508250000001,-17.3642144],[-66.19518520000001,-17.364548600000003],[-66.19527690000001,-17.3648442],[-66.1954638,-17.3654462],[-66.1956509,-17.3659266],[-66.1956813,-17.366025],[-66.1961491,-17.367425200000003],[-66.1966292,-17.3688398],[-66.196656,-17.3689104],[-66.19669540000001,-17.369017600000003],[-66.1967427,-17.3691533],[-66.1972183,-17.3704557],[-66.1972418,-17.3705611],[-66.196212,-17.3712275],[-66.19607380000001,-17.3713292],[-66.195727,-17.371385500000002],[-66.1953541,-17.3715164],[-66.19519620000001,-17.3715687],[-66.1946951,-17.3716824],[-66.19414230000001,-17.3717937],[-66.1935502,-17.3718597],[-66.192735,-17.37196],[-66.19259810000001,-17.37196],[-66.1925037,-17.37196],[-66.19196840000001,-17.371938800000002],[-66.19214760000001,-17.3727653],[-66.1922569,-17.3732891],[-66.1924005,-17.3734664],[-66.1924663,-17.373574100000003],[-66.1924991,-17.373705],[-66.1924862,-17.374396500000003],[-66.1924717,-17.375298800000003],[-66.192475,-17.375695800000003],[-66.1924659,-17.375847200000003],[-66.1925076,-17.3759379],[-66.19251650000001,-17.375980300000002],[-66.19249500000001,-17.376040000000003],[-66.1924754,-17.376118400000003],[-66.1924644,-17.3762247],[-66.19252370000001,-17.376855600000003],[-66.19255430000001,-17.377296100000002],[-66.1925944,-17.377684000000002],[-66.1926286,-17.3781721],[-66.1926986,-17.3786799],[-66.1927175,-17.378817100000003],[-66.1927862,-17.379285600000003],[-66.1929178,-17.3800871],[-66.19296510000001,-17.3803142],[-66.1930165,-17.3806142],[-66.1932123,-17.381970900000002],[-66.19322740000001,-17.382102300000003],[-66.1928781,-17.382125900000002],[-66.19279590000001,-17.3821325],[-66.192127,-17.382186800000003],[-66.1920479,-17.3821978],[-66.1919819,-17.382209300000003],[-66.19104920000001,-17.3824104],[-66.190944,-17.3824335],[-66.1902687,-17.382581700000003],[-66.19008640000001,-17.3826146],[-66.18998710000001,-17.382627600000003],[-66.1895523,-17.3826517],[-66.1889749,-17.3826655],[-66.18890230000001,-17.382751900000002],[-66.1883796,-17.384221800000002],[-66.1883624,-17.3842725],[-66.1883454,-17.384354000000002],[-66.1883318,-17.384455000000003],[-66.18831200000001,-17.3847519],[-66.18826890000001,-17.385613900000003],[-66.1882499,-17.385739400000002],[-66.1882463,-17.3858332],[-66.1882472,-17.3858773],[-66.18825770000001,-17.385922400000002],[-66.18827920000001,-17.3859555],[-66.18820810000001,-17.385997300000003],[-66.1881529,-17.386042600000003],[-66.18812820000001,-17.3860563],[-66.1880632,-17.3861026],[-66.1879632,-17.386157800000003],[-66.18786630000001,-17.3861858],[-66.1877602,-17.386190900000003],[-66.18766790000001,-17.3861846],[-66.1874997,-17.386163500000002],[-66.1873422,-17.3861446],[-66.1872982,-17.386137700000003],[-66.1872707,-17.3861342],[-66.1868642,-17.386084200000003],[-66.18672450000001,-17.3860759],[-66.1865707,-17.386078],[-66.1864336,-17.386085100000003],[-66.1858967,-17.3861217],[-66.18573830000001,-17.3861372],[-66.18548340000001,-17.38616],[-66.1854315,-17.386165400000003],[-66.1853107,-17.3861765],[-66.1852125,-17.3861944],[-66.1851326,-17.386212500000003],[-66.1850581,-17.3862366],[-66.18495340000001,-17.386277600000003],[-66.18416180000001,-17.3866246],[-66.18359240000001,-17.3868738],[-66.18277900000001,-17.387218700000002],[-66.18258870000001,-17.387300800000002],[-66.18248410000001,-17.387349200000003],[-66.1824443,-17.3873824],[-66.1824069,-17.387429],[-66.18236180000001,-17.387484200000003],[-66.1823016,-17.387517300000003],[-66.18222580000001,-17.387535900000003],[-66.18216890000001,-17.3875445],[-66.1820538,-17.387585400000003],[-66.1813681,-17.387850200000003],[-66.18131290000001,-17.3878643],[-66.1810861,-17.3878857],[-66.1802452,-17.387935900000002],[-66.1800544,-17.387945300000002],[-66.17980920000001,-17.387960600000003],[-66.17966530000001,-17.3879693],[-66.1795716,-17.3879753],[-66.17942520000001,-17.387984200000002],[-66.179337,-17.387992],[-66.1792875,-17.387993100000003],[-66.17919930000001,-17.3879993],[-66.1791247,-17.3880045],[-66.17904650000001,-17.38801],[-66.17890600000001,-17.3880199],[-66.17881890000001,-17.3880242],[-66.17859130000001,-17.3880252],[-66.1779558,-17.388028300000002],[-66.1778429,-17.388027700000002],[-66.1776751,-17.388027],[-66.17758690000001,-17.3880264],[-66.1774681,-17.387997900000002],[-66.1769045,-17.388003700000002],[-66.1763336,-17.388012500000002],[-66.1762478,-17.3880142],[-66.1756089,-17.388016],[-66.1748398,-17.3880181],[-66.17476210000001,-17.3880184],[-66.17468480000001,-17.3880149],[-66.17379620000001,-17.3879756],[-66.17364620000001,-17.3879689],[-66.1735707,-17.387965700000002],[-66.17297760000001,-17.3879406],[-66.1721275,-17.3879047],[-66.1709328,-17.3878524],[-66.1707925,-17.3878439],[-66.1707023,-17.387838400000003],[-66.17069620000001,-17.3878768],[-66.17067870000001,-17.387915300000003],[-66.1706552,-17.387945900000002],[-66.17063320000001,-17.387965700000002],[-66.17060520000001,-17.387983400000003],[-66.1705742,-17.3879959],[-66.17054130000001,-17.388002800000002],[-66.1705077,-17.388004000000002],[-66.17047450000001,-17.387999200000003],[-66.17044270000001,-17.387988800000002],[-66.1704133,-17.3879732],[-66.17038960000001,-17.3879546],[-66.17025720000001,-17.387891200000002],[-66.1701723,-17.387858400000002],[-66.1700943,-17.3878452],[-66.1693487,-17.3878048],[-66.16927720000001,-17.3877966],[-66.1691883,-17.387782100000003],[-66.1682071,-17.387616400000002],[-66.16808230000001,-17.3875713],[-66.1679524,-17.3875493],[-66.1679258,-17.3875448],[-66.167439,-17.3874624],[-66.1673167,-17.3874417],[-66.1670254,-17.387392000000002],[-66.1663362,-17.3872743],[-66.1662455,-17.3872611],[-66.1661936,-17.387256100000002],[-66.16616110000001,-17.3872529],[-66.1661153,-17.3872538],[-66.1660695,-17.387254600000002],[-66.1660231,-17.3872566],[-66.16596000000001,-17.387263500000003],[-66.1658587,-17.387282300000003],[-66.16573720000001,-17.387316300000002],[-66.1656062,-17.3873676],[-66.1650578,-17.3875798],[-66.16495520000001,-17.3876187],[-66.1648866,-17.3876464],[-66.1645448,-17.3877859],[-66.164473,-17.387815200000002],[-66.16441420000001,-17.387838700000003],[-66.1643482,-17.387870200000002],[-66.1641805,-17.3879418],[-66.1641189,-17.387970600000003],[-66.1640618,-17.3880069],[-66.16401040000001,-17.388050300000003],[-66.1639593,-17.388110700000002],[-66.163939,-17.3881386],[-66.16391920000001,-17.3881775],[-66.16389860000001,-17.3882307],[-66.1638597,-17.388703600000003],[-66.16384020000001,-17.3888937],[-66.16383330000001,-17.388961300000002],[-66.163742,-17.3889445],[-66.1627619,-17.388763500000003],[-66.162692,-17.388752],[-66.1626227,-17.388740600000002],[-66.1619046,-17.3886226],[-66.1618505,-17.3886137],[-66.16183910000001,-17.3886718],[-66.16167200000001,-17.389511300000002],[-66.1616616,-17.3895634],[-66.16163780000001,-17.389679],[-66.16162530000001,-17.3897356],[-66.1616144,-17.389794300000002],[-66.16142260000001,-17.390762600000002],[-66.16124110000001,-17.3918198],[-66.16010960000001,-17.391642400000002],[-66.1593569,-17.391514500000003],[-66.1591564,-17.3914785],[-66.1590985,-17.3914702],[-66.15902120000001,-17.3914589],[-66.1589684,-17.3914514],[-66.15853530000001,-17.3913854],[-66.1579619,-17.391287700000003],[-66.15688080000001,-17.391099500000003],[-66.15579980000001,-17.3909053],[-66.1547766,-17.390720100000003],[-66.1547221,-17.3907102],[-66.15441390000001,-17.390651400000003],[-66.1536219,-17.3904922],[-66.15250710000001,-17.390254600000002],[-66.1514143,-17.390025],[-66.15032930000001,-17.389795900000003],[-66.15029030000001,-17.389787400000003],[-66.1501946,-17.3897684],[-66.15014330000001,-17.389758200000003],[-66.1500862,-17.3897464],[-66.14942520000001,-17.389604000000002],[-66.1491441,-17.389543900000003],[-66.1490107,-17.390230600000002],[-66.148919,-17.390703000000002],[-66.14890910000001,-17.3907458],[-66.14889430000001,-17.390824400000003],[-66.14888640000001,-17.3908667],[-66.1487038,-17.3917663],[-66.14869060000001,-17.3918339],[-66.148651,-17.391928200000002],[-66.14864180000001,-17.3919718],[-66.14858770000001,-17.3922279],[-66.1485432,-17.392443],[-66.1485231,-17.392540200000003],[-66.1484738,-17.392778800000002],[-66.1484626,-17.392832900000002],[-66.14793900000001,-17.3927435],[-66.14743340000001,-17.3926589],[-66.1473167,-17.3926404],[-66.1468937,-17.3925734],[-66.14683430000001,-17.3925626],[-66.14664900000001,-17.3925276],[-66.1458099,-17.3923619],[-66.1453273,-17.392282],[-66.1451071,-17.392245600000003],[-66.1448295,-17.3921996],[-66.1445767,-17.392158100000003],[-66.14440970000001,-17.392130700000003],[-66.14437070000001,-17.392124300000003],[-66.1442415,-17.392103000000002],[-66.1441346,-17.3920855],[-66.143713,-17.3920162],[-66.1436259,-17.3920019],[-66.1430857,-17.3919132],[-66.142807,-17.3918675],[-66.14274520000001,-17.3918573],[-66.1427214,-17.3919144],[-66.14234640000001,-17.3927549],[-66.1423273,-17.3927935],[-66.1419298,-17.393674700000002],[-66.14187790000001,-17.3937896],[-66.14189300000001,-17.393798800000003],[-66.14190550000001,-17.393811000000003],[-66.141917,-17.393830100000002],[-66.1419226,-17.3938534],[-66.14192050000001,-17.3938773],[-66.1419595,-17.3939217],[-66.1425597,-17.3946913],[-66.14292370000001,-17.3951433],[-66.1431094,-17.3953528],[-66.1432772,-17.3955556],[-66.1434016,-17.395681900000003],[-66.14379020000001,-17.3960495],[-66.1440656,-17.3962608],[-66.14431180000001,-17.396443400000003],[-66.14457460000001,-17.3966099],[-66.14482170000001,-17.396751400000003],[-66.1451356,-17.3969281],[-66.14539470000001,-17.397057200000003],[-66.14574250000001,-17.397234800000003],[-66.14678470000001,-17.3977645],[-66.14745690000001,-17.3981037],[-66.1474343,-17.3982059],[-66.14736160000001,-17.398568400000002],[-66.1471965,-17.3993918],[-66.1471293,-17.399726700000002],[-66.1471925,-17.399734000000002],[-66.14821160000001,-17.399872900000002],[-66.14829800000001,-17.3998478],[-66.14883130000001,-17.3998543],[-66.14933400000001,-17.399860500000003],[-66.14984940000001,-17.3998668],[-66.14984550000001,-17.3999622],[-66.1497827,-17.400028900000002],[-66.1498026,-17.400102],[-66.1498239,-17.4001805],[-66.1499017,-17.4004668],[-66.1498937,-17.4005316],[-66.14986090000001,-17.400584700000003],[-66.149775,-17.4006681],[-66.14944220000001,-17.400971400000003],[-66.14937060000001,-17.401059500000002],[-66.149319,-17.4011365],[-66.149269,-17.4012475],[-66.14927080000001,-17.401304200000002],[-66.14937540000001,-17.401751700000002],[-66.14937660000001,-17.4018376],[-66.1493899,-17.4018833],[-66.1494074,-17.4019461],[-66.1494072,-17.401976700000002],[-66.14940010000001,-17.4020081],[-66.1493665,-17.402073100000003],[-66.149365,-17.402112600000002],[-66.1493916,-17.402146300000002],[-66.14944150000001,-17.4020872],[-66.1495007,-17.4019987],[-66.1495634,-17.401875800000003],[-66.14960620000001,-17.401730500000003],[-66.1496651,-17.401482700000003],[-66.1496972,-17.4013956],[-66.1497453,-17.401320100000003],[-66.14979670000001,-17.401271],[-66.1498751,-17.4012271],[-66.14995710000001,-17.401217000000003],[-66.14997930000001,-17.4012193],[-66.1500309,-17.4012248],[-66.1500922,-17.4012466],[-66.15014240000001,-17.4012804],[-66.15017370000001,-17.4013168],[-66.1502239,-17.4013965],[-66.15024070000001,-17.4014466],[-66.15025080000001,-17.401529200000002],[-66.1502487,-17.4015792],[-66.1502416,-17.4016655],[-66.15022420000001,-17.401733200000002],[-66.1502032,-17.4018011],[-66.15009830000001,-17.4020873],[-66.15006310000001,-17.402154900000003],[-66.1500269,-17.402232700000003],[-66.1499912,-17.402292900000003],[-66.1499624,-17.4023414],[-66.1500946,-17.4023836],[-66.1501721,-17.402406300000003],[-66.1502232,-17.4031543],[-66.1502396,-17.403362],[-66.1503467,-17.4037109],[-66.1503679,-17.403832100000002],[-66.15037960000001,-17.403957600000002],[-66.150363,-17.404070400000002],[-66.1503278,-17.4041742],[-66.1502746,-17.4042764],[-66.15020650000001,-17.404382400000003],[-66.1500244,-17.4046123],[-66.15048940000001,-17.4049148],[-66.15058450000001,-17.4049529],[-66.1506665,-17.4049659],[-66.15077000000001,-17.4049601],[-66.15077190000001,-17.404948400000002],[-66.1507766,-17.4049374],[-66.1507837,-17.404927700000002],[-66.15079460000001,-17.4049188],[-66.15080760000001,-17.404913],[-66.15082170000001,-17.404910700000002],[-66.1508359,-17.4049121],[-66.1508493,-17.4049169],[-66.150857,-17.4049218],[-66.15086360000001,-17.404927800000003],[-66.1508695,-17.404935400000003],[-66.1508738,-17.404943900000003],[-66.1508769,-17.404956400000003],[-66.15087670000001,-17.4049692],[-66.15087310000001,-17.404981600000003],[-66.15086640000001,-17.404992800000002],[-66.150857,-17.405002000000003],[-66.15085950000001,-17.405027],[-66.1508603,-17.4050958],[-66.1508022,-17.407629800000002],[-66.1508067,-17.4084116],[-66.1507991,-17.4087701],[-66.1508148,-17.409363300000003],[-66.15102850000001,-17.4114067],[-66.1510873,-17.411899700000003],[-66.1511538,-17.412364200000003],[-66.15119460000001,-17.4126857],[-66.1512648,-17.413213600000002],[-66.151189,-17.413253100000002],[-66.1503342,-17.413720400000003],[-66.1493566,-17.4142422],[-66.1495903,-17.414493800000002],[-66.14978500000001,-17.4146895],[-66.14991640000001,-17.414880800000002],[-66.1500479,-17.415089100000003],[-66.1501472,-17.415268400000002],[-66.15022250000001,-17.4154568],[-66.1502789,-17.4156198],[-66.15031160000001,-17.4157882],[-66.15033290000001,-17.415936100000003],[-66.150362,-17.416201400000002],[-66.1503703,-17.4164868],[-66.1503649,-17.416584800000003],[-66.150343,-17.4167342],[-66.1502777,-17.417102],[-66.150174,-17.417653700000002],[-66.1501324,-17.417915800000003],[-66.1500836,-17.418057700000002],[-66.1500316,-17.418177200000002],[-66.14980870000001,-17.4185285],[-66.1492609,-17.419303900000003],[-66.1493015,-17.419335200000003],[-66.14932180000001,-17.419366500000002],[-66.1493834,-17.4196166],[-66.1493075,-17.4196369],[-66.14924300000001,-17.4196464],[-66.149203,-17.4196354],[-66.1489045,-17.4195144],[-66.14885550000001,-17.4194958],[-66.14879690000001,-17.4194859],[-66.1487551,-17.4194825],[-66.14865780000001,-17.419482300000002],[-66.1482426,-17.4195059],[-66.1476294,-17.4195424],[-66.1477363,-17.4211256],[-66.1477399,-17.421178700000002],[-66.14778460000001,-17.421840500000002],[-66.1477339,-17.4218386],[-66.1475855,-17.421781300000003],[-66.1474673,-17.421744500000003],[-66.14732810000001,-17.4217264],[-66.1471436,-17.4217295],[-66.14684340000001,-17.421759],[-66.14669880000001,-17.4217717],[-66.1465131,-17.421790100000003],[-66.146511,-17.421850300000003],[-66.1464165,-17.421847000000003],[-66.14633620000001,-17.421834],[-66.146252,-17.4218127],[-66.14605080000001,-17.4217239],[-66.14593620000001,-17.4216795],[-66.14563050000001,-17.4215732],[-66.14556900000001,-17.421558800000003],[-66.14547110000001,-17.421557200000002],[-66.1453218,-17.4215921],[-66.1452699,-17.421058300000002],[-66.1447254,-17.421339500000002],[-66.1445197,-17.4214588],[-66.14442580000001,-17.4215076],[-66.1442811,-17.421574300000003],[-66.1441266,-17.4216255],[-66.1438499,-17.421719000000003],[-66.14364520000001,-17.4217921],[-66.1435625,-17.4218452],[-66.14351190000001,-17.4219335],[-66.14352170000001,-17.4219848],[-66.14351520000001,-17.422018700000002],[-66.14347380000001,-17.4220581],[-66.14343000000001,-17.4220839],[-66.1433765,-17.422101],[-66.14331270000001,-17.4221261],[-66.14296470000001,-17.4222897],[-66.14287250000001,-17.422333000000002],[-66.14278870000001,-17.4223724],[-66.1427067,-17.4224219],[-66.14259890000001,-17.4225043],[-66.1423637,-17.422749600000003],[-66.1421998,-17.4229346],[-66.1420394,-17.423131400000003],[-66.1419395,-17.4232847],[-66.1417234,-17.4237436],[-66.14167880000001,-17.4238295],[-66.1416312,-17.4239576],[-66.14154880000001,-17.4242673],[-66.14147720000001,-17.4248656],[-66.14134170000001,-17.4249492],[-66.141203,-17.424977900000002],[-66.14109570000001,-17.424975]]}}},{"type":"Feature","properties":{"bus":"yes","highway":"bus_stop","name":"Parada 03","public_transport":"platform","id":9138856836},"geometry":{"type":"Point","coordinates":[-66.1410937,-17.425013900000003]}},{"type":"Feature","properties":{"amenity":"bus_station","bus":"yes","highway":"bus_stop","name":"Parada Trufi 03","public_transport":"platform","id":11186972644},"geometry":{"type":"Point","coordinates":[-66.1991514,-17.3605261]}},{"type":"Feature","properties":{"bench":"no","bin":"no","bus":"yes","departures_board":"no","highway":"bus_stop","level":"0","lit":"no","name":"México","operator":"Gobierno Autónomo Municipal de Cochabamba","pole":"yes","public_transport":"platform","shelter":"no","tactile_paving":"no","wheelchair":"no","id":9774122172},"geometry":{"type":"Point","coordinates":[-66.16355990000001,-17.388957700000002]}},{"type":"Feature","properties":{"bench":"no","bin":"no","bus":"yes","departures_board":"no","highway":"bus_stop","level":"0","lit":"no","name":"Plaza Sucre","operator":"Gobierno Autónomo Municipal de Cochabamba","public_transport":"platform","shelter":"no","tactile_paving":"no","wheelchair":"yes","id":3255507872},"geometry":{"type":"Point","coordinates":[-66.1479977,-17.392825700000003]}}]}