{"type":"FeatureCollection","features":[{"type":"Feature","properties":{"check_date":"29/12/2025","from":"Buena Vista","name":"Trufi 122: Buena Vista → Calle Qhochapampa","network":"BO:CB:Cochabamba","on_demand":"yes","operator":"Sindicato de colectiveros y microbuses radio urbano y suburbano ciudad de Cochabamba","public_transport:version":"2","ref":"122","route":"bus","to":"Calle Qhochapampa","type":"route","wheelchair":"no","id":9427015},"geometry":{"type":"LineString","coordinates":[[-66.141114,-17.476055000000002],[-66.13999340000001,-17.475791700000002],[-66.1395962,-17.4757047],[-66.13983400000001,-17.4750799],[-66.14010560000001,-17.4743733],[-66.1396687,-17.474238500000002],[-66.1396081,-17.4742247],[-66.13985100000001,-17.473600400000002],[-66.14006970000001,-17.4730393],[-66.1398599,-17.473026500000003],[-66.1394956,-17.4730136],[-66.13882570000001,-17.472989700000003],[-66.1380934,-17.4729773],[-66.1379419,-17.472995200000003],[-66.13784170000001,-17.4730066],[-66.1375915,-17.4730683],[-66.137448,-17.473121900000002],[-66.13730530000001,-17.4731905],[-66.1371752,-17.4732658],[-66.13704100000001,-17.473363900000003],[-66.13691030000001,-17.4734854],[-66.1368084,-17.4735926],[-66.1367254,-17.4737061],[-66.13666230000001,-17.4738104],[-66.13660030000001,-17.473928500000003],[-66.1365399,-17.4740377],[-66.13650390000001,-17.4741234],[-66.13645790000001,-17.4742688],[-66.1364262,-17.4744412],[-66.1364022,-17.4745965],[-66.1363728,-17.4748081],[-66.1364259,-17.475123200000002],[-66.13635880000001,-17.4751343],[-66.1361638,-17.4751173],[-66.13608140000001,-17.475178900000003],[-66.1359101,-17.4752294],[-66.13585400000001,-17.475285900000003],[-66.1358021,-17.4753437],[-66.1357249,-17.475444300000003],[-66.13546070000001,-17.475329700000003],[-66.1353284,-17.475272200000003],[-66.1351058,-17.475163600000002],[-66.13488930000001,-17.475070600000002],[-66.13487040000001,-17.4751192],[-66.1348165,-17.475155100000002],[-66.1347097,-17.475177000000002],[-66.1342774,-17.475265500000003],[-66.13415350000001,-17.4752706],[-66.13408550000001,-17.4752705],[-66.1333733,-17.475100100000002],[-66.1331983,-17.475084000000003],[-66.1330782,-17.475088300000003],[-66.1329127,-17.475111100000003],[-66.1327584,-17.475143300000003],[-66.1326155,-17.475183400000002],[-66.13249610000001,-17.4752481],[-66.1322782,-17.475428500000003],[-66.1322052,-17.4753058],[-66.13203530000001,-17.475324800000003],[-66.13199250000001,-17.475336300000002],[-66.13183880000001,-17.4753818],[-66.13141180000001,-17.4755663],[-66.13124280000001,-17.4756439],[-66.1310971,-17.475721500000002],[-66.13085910000001,-17.475851900000002],[-66.1306998,-17.4759829],[-66.1306143,-17.476104600000003],[-66.13046050000001,-17.476279700000003],[-66.1302658,-17.476427800000003],[-66.13020490000001,-17.4764741],[-66.1295688,-17.476929300000002],[-66.12937550000001,-17.477043400000003],[-66.12915530000001,-17.4771548],[-66.1289478,-17.4772526],[-66.1288349,-17.477340100000003],[-66.1287305,-17.477460500000003],[-66.12866720000001,-17.477549600000003],[-66.1285558,-17.4776045],[-66.1283995,-17.477649800000002],[-66.12834620000001,-17.477653800000002],[-66.1282887,-17.477667],[-66.12816330000001,-17.477682],[-66.12755990000001,-17.4778166],[-66.1268144,-17.4779199],[-66.1261458,-17.4780909],[-66.12548600000001,-17.478244800000002],[-66.12485170000001,-17.4784231],[-66.1242323,-17.478563400000002],[-66.12385060000001,-17.4786553],[-66.1236154,-17.4788207],[-66.12349400000001,-17.4788786],[-66.1233924,-17.4788877],[-66.12309420000001,-17.4788852],[-66.123078,-17.4791318],[-66.1230824,-17.479754200000002],[-66.1230886,-17.4804348],[-66.12300180000001,-17.4803713],[-66.12238430000001,-17.480025],[-66.1217797,-17.479703100000002],[-66.12141220000001,-17.4795072],[-66.1209371,-17.479264500000003],[-66.1208457,-17.4792311],[-66.12065750000001,-17.47848],[-66.1204726,-17.477805200000002],[-66.1204562,-17.477674200000003],[-66.1204503,-17.4769946],[-66.1204488,-17.4768262],[-66.11976840000001,-17.4763975],[-66.1196427,-17.476306],[-66.1195067,-17.476193400000003],[-66.11936700000001,-17.476065600000002],[-66.11923060000001,-17.475906300000002],[-66.1191244,-17.475755600000003],[-66.11900770000001,-17.475589900000003],[-66.1185763,-17.475074900000003],[-66.11845770000001,-17.4749564],[-66.1183031,-17.4748604],[-66.1182076,-17.4747869],[-66.11807440000001,-17.4746558],[-66.1179304,-17.474476900000003],[-66.1178139,-17.474323700000003],[-66.11769190000001,-17.4741231],[-66.11752960000001,-17.473862200000003],[-66.11741500000001,-17.473685000000003],[-66.1173361,-17.4735808],[-66.11726780000001,-17.4734985],[-66.1172138,-17.473450000000003],[-66.1176411,-17.473124300000002],[-66.11777450000001,-17.4730537],[-66.11810360000001,-17.472934000000002],[-66.11839,-17.472802],[-66.1184264,-17.472771100000003],[-66.1184441,-17.4727427],[-66.1184602,-17.472591100000002],[-66.1184896,-17.472542800000003],[-66.11885640000001,-17.4723046],[-66.1189712,-17.4722292],[-66.119561,-17.471960600000003],[-66.1200056,-17.4717664],[-66.12020500000001,-17.471697900000002],[-66.1204532,-17.4716123],[-66.1205101,-17.471601200000002],[-66.12056720000001,-17.4716077],[-66.12069550000001,-17.4716588],[-66.12082050000001,-17.4716501],[-66.12107990000001,-17.4715995],[-66.1211693,-17.4715779],[-66.1212883,-17.471517300000002],[-66.12143680000001,-17.4715764],[-66.121792,-17.471745400000003],[-66.12232510000001,-17.4720194],[-66.12251300000001,-17.4720897],[-66.1235547,-17.4724928],[-66.1235884,-17.4725237],[-66.12362440000001,-17.4725566],[-66.12410440000001,-17.472072100000002],[-66.1245619,-17.471596400000003],[-66.12512380000001,-17.4710752],[-66.12540800000001,-17.471032700000002],[-66.1253466,-17.470396400000002],[-66.1253621,-17.4701449],[-66.1254423,-17.469797500000002],[-66.1255407,-17.469540100000003],[-66.12556260000001,-17.4694556],[-66.1256268,-17.4692276],[-66.12566220000001,-17.469101900000002],[-66.12570810000001,-17.468854200000003],[-66.125718,-17.468803400000002],[-66.1257185,-17.4687351],[-66.1257192,-17.4686258],[-66.12573250000001,-17.4682341],[-66.1258102,-17.467798900000002],[-66.1258562,-17.4676756],[-66.12592380000001,-17.4675724],[-66.1260824,-17.4673744],[-66.12617350000001,-17.467257800000002],[-66.12633600000001,-17.466835200000002],[-66.1264787,-17.466586200000002],[-66.1265808,-17.466420600000003],[-66.12665430000001,-17.466289300000003],[-66.1267222,-17.4661592],[-66.1267696,-17.466044],[-66.126822,-17.4659085],[-66.1270222,-17.4655188],[-66.12715,-17.4653385],[-66.12754220000001,-17.464946700000002],[-66.127628,-17.4648408],[-66.1277352,-17.4646735],[-66.127868,-17.464588300000003],[-66.1279456,-17.464479400000002],[-66.12805990000001,-17.464196],[-66.12816210000001,-17.464014900000002],[-66.1282166,-17.463931600000002],[-66.12833780000001,-17.4637758],[-66.12846590000001,-17.463684],[-66.1285453,-17.463652500000002],[-66.1286982,-17.4636168],[-66.1289215,-17.463594800000003],[-66.1295343,-17.463555900000003],[-66.1297219,-17.463506300000002],[-66.1298462,-17.463459800000003],[-66.12988530000001,-17.463445200000002],[-66.1299745,-17.4633819],[-66.13013520000001,-17.4632438],[-66.1303779,-17.462976400000002],[-66.13054670000001,-17.462803800000003],[-66.1306354,-17.4626954],[-66.1307003,-17.4626319],[-66.1308218,-17.4625214],[-66.1309373,-17.462426800000003],[-66.1310907,-17.4622925],[-66.13116570000001,-17.462208200000003],[-66.1312243,-17.462113300000002],[-66.13127820000001,-17.4619906],[-66.13132780000001,-17.4618405],[-66.1313674,-17.461753],[-66.13141660000001,-17.461676500000003],[-66.1315866,-17.461422300000002],[-66.13171530000001,-17.461204700000003],[-66.131928,-17.460763],[-66.132024,-17.460614900000003],[-66.1325197,-17.460111700000002],[-66.1325583,-17.4600292],[-66.13252290000001,-17.459903200000003],[-66.13224120000001,-17.459347400000002],[-66.1322104,-17.459220900000002],[-66.13222640000001,-17.4588532],[-66.13223880000001,-17.458660700000003],[-66.1322322,-17.458463000000002],[-66.1321966,-17.4582461],[-66.1321075,-17.457931600000002],[-66.13208180000001,-17.457837700000002],[-66.131972,-17.457626400000002],[-66.13188840000001,-17.457464400000003],[-66.13178300000001,-17.457079],[-66.1316951,-17.456654800000003],[-66.1316061,-17.455983],[-66.13149840000001,-17.455218900000002],[-66.1314777,-17.455135300000002],[-66.13145220000001,-17.455049900000002],[-66.13141350000001,-17.4549787],[-66.1313872,-17.4549412],[-66.1312676,-17.454780600000003],[-66.13121240000001,-17.454673500000002],[-66.1310751,-17.454458600000002],[-66.13057690000001,-17.453855200000003],[-66.12970370000001,-17.4526857],[-66.1296769,-17.4526527],[-66.129396,-17.452307100000002],[-66.129323,-17.452218100000003],[-66.1292949,-17.4521924],[-66.12925870000001,-17.4521546],[-66.1291422,-17.452034700000002],[-66.1291133,-17.452005900000003],[-66.12908440000001,-17.451977000000003],[-66.12865310000001,-17.452479200000003],[-66.1285156,-17.4523891],[-66.12848310000001,-17.4523678],[-66.1285742,-17.452265200000003],[-66.12878300000001,-17.452029800000002],[-66.1289235,-17.451867],[-66.12913970000001,-17.451620000000002],[-66.1291657,-17.451590200000002],[-66.1294345,-17.4513159],[-66.12968950000001,-17.4510541],[-66.12988080000001,-17.4508577],[-66.12998160000001,-17.4507572],[-66.1306673,-17.4500597],[-66.13072770000001,-17.4500025],[-66.1309258,-17.449815100000002],[-66.1311443,-17.449614800000003],[-66.1313635,-17.449430200000002],[-66.13193220000001,-17.448960500000002],[-66.13243440000001,-17.4485794],[-66.13302780000001,-17.4481623],[-66.13315390000001,-17.448073500000003],[-66.1336701,-17.4477489],[-66.1339081,-17.4475984],[-66.1340349,-17.4475349],[-66.1341388,-17.447470000000003],[-66.1342731,-17.4473629],[-66.13433640000001,-17.4473102],[-66.134454,-17.4472126],[-66.13453080000001,-17.447159600000003],[-66.13463560000001,-17.4470981],[-66.13476290000001,-17.447030100000003],[-66.13488070000001,-17.4469715],[-66.1352121,-17.4468129],[-66.1354716,-17.446696300000003],[-66.1359012,-17.4464788],[-66.13695460000001,-17.445887300000003],[-66.13725690000001,-17.4457182],[-66.1374399,-17.445615800000002],[-66.13883990000001,-17.4448353],[-66.13989760000001,-17.444245600000002],[-66.1401165,-17.4441092],[-66.14047040000001,-17.443862000000003],[-66.1407858,-17.443612],[-66.14082900000001,-17.443572900000003],[-66.14103510000001,-17.4433803],[-66.14224560000001,-17.442256200000003],[-66.1423104,-17.442200800000002],[-66.14236890000001,-17.4421295],[-66.1424013,-17.4420784],[-66.1424279,-17.442036400000003],[-66.14251490000001,-17.4419016],[-66.1425487,-17.441851900000003],[-66.14259030000001,-17.4418022],[-66.1427171,-17.441682],[-66.1427848,-17.441626300000003],[-66.1429796,-17.4414878],[-66.14330170000001,-17.441260500000002],[-66.1433971,-17.441185400000002],[-66.14347690000001,-17.441114900000002],[-66.14355660000001,-17.4410285],[-66.1435969,-17.4409782],[-66.14382040000001,-17.4406992],[-66.14399470000001,-17.440435100000002],[-66.14419330000001,-17.4401057],[-66.1442117,-17.440072200000003],[-66.14445710000001,-17.4396257],[-66.144834,-17.438950700000003],[-66.1448555,-17.438912300000002],[-66.14509550000001,-17.4385072],[-66.1451778,-17.4383541],[-66.1452495,-17.438213],[-66.14528460000001,-17.438131400000003],[-66.145324,-17.438039800000002],[-66.1453867,-17.437914000000003],[-66.14541120000001,-17.437866300000003],[-66.1454418,-17.4378068],[-66.1454977,-17.437707000000003],[-66.14569680000001,-17.4374639],[-66.14591820000001,-17.4372088],[-66.14611380000001,-17.4369489],[-66.1466853,-17.436179600000003],[-66.14733860000001,-17.4353002],[-66.1474728,-17.4351141],[-66.14793250000001,-17.4344888],[-66.1482129,-17.4341118],[-66.1485268,-17.4336898],[-66.1489382,-17.4331591],[-66.14925550000001,-17.4327246],[-66.14939190000001,-17.4325213],[-66.149747,-17.432055000000002],[-66.1500503,-17.4316567],[-66.1502384,-17.4313818],[-66.15037170000001,-17.431185300000003],[-66.1504225,-17.4311054],[-66.15052250000001,-17.4309346],[-66.15054930000001,-17.4308836],[-66.1507479,-17.4305056],[-66.15081190000001,-17.4303664],[-66.1509092,-17.430102400000003],[-66.1509693,-17.429924800000002],[-66.150999,-17.4298541],[-66.15102200000001,-17.4298055],[-66.1511069,-17.4296341],[-66.1512046,-17.429471600000003],[-66.1512951,-17.429341800000003],[-66.15135910000001,-17.4292678],[-66.1514234,-17.429199500000003],[-66.1515071,-17.429114000000002],[-66.1520629,-17.4286034],[-66.1524789,-17.428200500000003],[-66.1527178,-17.427944200000002],[-66.1529307,-17.4276804],[-66.1530846,-17.4274518],[-66.1532732,-17.4270934],[-66.1534092,-17.426773400000002],[-66.1535061,-17.426477100000003],[-66.1536583,-17.4258662],[-66.1537421,-17.4255007],[-66.15378410000001,-17.425112700000003],[-66.153788,-17.425082800000002],[-66.15378910000001,-17.4250127],[-66.1537952,-17.4246383],[-66.1537825,-17.424189100000003],[-66.15375490000001,-17.4238131],[-66.1537423,-17.4236599],[-66.15374,-17.4236463],[-66.1536868,-17.4233294],[-66.15361530000001,-17.422936800000002],[-66.1535906,-17.422801200000002],[-66.15347030000001,-17.4222569],[-66.15345710000001,-17.422197],[-66.1534055,-17.4220523],[-66.15331730000001,-17.421904100000003],[-66.15325990000001,-17.421819600000003],[-66.15320480000001,-17.421748200000003],[-66.153108,-17.421653600000003],[-66.15308850000001,-17.421645400000003],[-66.1530706,-17.421633200000002],[-66.15305310000001,-17.4216146],[-66.1530292,-17.421584300000003],[-66.15301210000001,-17.4215488],[-66.15300470000001,-17.4215206],[-66.15300230000001,-17.4214819],[-66.153006,-17.421454100000002],[-66.15301410000001,-17.421427100000002],[-66.15302650000001,-17.421401600000003],[-66.15303990000001,-17.4213819],[-66.1530548,-17.421365100000003],[-66.1530582,-17.4212451],[-66.1530651,-17.4211661],[-66.1530566,-17.4210391],[-66.1530058,-17.420819700000003],[-66.15293630000001,-17.420663],[-66.15280650000001,-17.420377000000002],[-66.15261190000001,-17.4199819],[-66.1525969,-17.419952400000003],[-66.15247810000001,-17.419718800000002],[-66.1523142,-17.4194022],[-66.15218300000001,-17.419165600000003],[-66.15181340000001,-17.418523200000003],[-66.1517008,-17.4183133],[-66.1515933,-17.418084],[-66.1515593,-17.417976200000002],[-66.15153880000001,-17.4178989],[-66.1515294,-17.417838300000003],[-66.15152140000001,-17.4177646],[-66.1515169,-17.417669200000002],[-66.1515174,-17.4176253],[-66.15151900000001,-17.4174973],[-66.15153620000001,-17.4173158],[-66.1515451,-17.4171988],[-66.1515701,-17.417080700000003],[-66.1515696,-17.417045400000003],[-66.15157660000001,-17.417010700000002],[-66.1515921,-17.4169759],[-66.151615,-17.416945100000003],[-66.15164440000001,-17.4169197],[-66.15167890000001,-17.416901000000003],[-66.15171670000001,-17.4168898],[-66.15181050000001,-17.4168418],[-66.1518939,-17.4167913],[-66.15196060000001,-17.4167248],[-66.1520277,-17.416647400000002],[-66.15288980000001,-17.4155516],[-66.15303750000001,-17.415364500000003],[-66.1531339,-17.415198],[-66.1532202,-17.415029],[-66.15328720000001,-17.4148891],[-66.15337190000001,-17.414694800000003],[-66.153436,-17.4145295],[-66.15350140000001,-17.414284900000002],[-66.1535365,-17.4141511],[-66.1535908,-17.413928600000002],[-66.1536069,-17.413714900000002],[-66.1535953,-17.4131712],[-66.1535386,-17.411177900000002],[-66.1535267,-17.410476600000003],[-66.1534922,-17.410274400000002],[-66.153473,-17.409858500000002],[-66.1534302,-17.408289],[-66.15340370000001,-17.407548600000002],[-66.1525781,-17.40757],[-66.1525507,-17.4075707],[-66.1516888,-17.4075963],[-66.1515162,-17.407603400000003],[-66.1508022,-17.407629800000002],[-66.15071250000001,-17.407631700000003],[-66.14991380000001,-17.407637700000002],[-66.14989460000001,-17.4076378],[-66.1498474,-17.407629200000002],[-66.1498107,-17.4076185],[-66.1497894,-17.407638300000002],[-66.14980630000001,-17.407674200000002],[-66.1498153,-17.407710100000003],[-66.14985180000001,-17.408840700000002],[-66.14877360000001,-17.408144800000002],[-66.1486627,-17.4080063],[-66.14846010000001,-17.4080616],[-66.1480884,-17.408146400000003],[-66.148024,-17.4081604],[-66.1478735,-17.4082022],[-66.14784250000001,-17.4082161],[-66.1477828,-17.4082396],[-66.14766850000001,-17.4083055],[-66.1472061,-17.407984600000002],[-66.14696740000001,-17.407818900000002],[-66.1467095,-17.4076354],[-66.1465021,-17.407487900000003],[-66.1457422,-17.4069606],[-66.1455086,-17.4068016],[-66.14522690000001,-17.4066194],[-66.1451773,-17.406587400000003],[-66.1451344,-17.4065596],[-66.14507230000001,-17.4065163],[-66.1450434,-17.406436000000003],[-66.1450291,-17.406415000000003],[-66.14501800000001,-17.4063923],[-66.1450104,-17.4063684],[-66.1450064,-17.406343600000003],[-66.1450061,-17.406316800000003],[-66.14499930000001,-17.406212800000002],[-66.14501080000001,-17.406109],[-66.14529300000001,-17.4055715],[-66.14542180000001,-17.4053073],[-66.1454853,-17.405170000000002],[-66.14557470000001,-17.405032700000003],[-66.14565250000001,-17.4048461],[-66.1457908,-17.4045641],[-66.14591150000001,-17.404335800000002],[-66.1460246,-17.4041685],[-66.14625690000001,-17.403881300000002],[-66.14656020000001,-17.4035453],[-66.14673540000001,-17.4033443],[-66.1468116,-17.403175200000003],[-66.1468785,-17.403069700000003],[-66.14692380000001,-17.4029986],[-66.1469869,-17.4028497],[-66.14703700000001,-17.402718500000002],[-66.14706240000001,-17.402651900000002],[-66.1470936,-17.4025344],[-66.147125,-17.4023666],[-66.1471298,-17.4021304],[-66.147153,-17.4020486],[-66.14717180000001,-17.402008000000002],[-66.1471961,-17.401979100000002],[-66.1472339,-17.4019505],[-66.1472995,-17.401910700000002],[-66.1473653,-17.4018908],[-66.14741570000001,-17.4019018],[-66.14750570000001,-17.4018777],[-66.14756410000001,-17.401858],[-66.14763330000001,-17.4018178],[-66.1476868,-17.401763900000002],[-66.1477981,-17.401607100000003],[-66.1478917,-17.401321000000003],[-66.1479899,-17.400962500000002],[-66.14800340000001,-17.400894800000003],[-66.1480179,-17.4008307],[-66.1481961,-17.399952300000002],[-66.14821160000001,-17.399872900000002],[-66.14832290000001,-17.3993423],[-66.1483573,-17.399171600000003],[-66.14839450000001,-17.3989818],[-66.14849310000001,-17.398454700000002],[-66.148511,-17.398367800000003],[-66.1485231,-17.398308800000002],[-66.1486874,-17.3975094],[-66.1486986,-17.3974593],[-66.14871120000001,-17.3973963],[-66.1487809,-17.397047],[-66.14881580000001,-17.396872000000002],[-66.1488764,-17.396568300000002],[-66.1488961,-17.3964633],[-66.1489511,-17.3961794],[-66.1489617,-17.3961286],[-66.1490339,-17.395780900000002],[-66.14915570000001,-17.3951858],[-66.149167,-17.395129200000003],[-66.1491829,-17.395060400000002],[-66.1492372,-17.394778300000002],[-66.1493039,-17.394431500000003],[-66.1493561,-17.3941416],[-66.1493544,-17.394092500000003],[-66.1493561,-17.394017700000003],[-66.1495434,-17.393104800000003],[-66.14955570000001,-17.393052200000003],[-66.1495696,-17.3929855],[-66.1497525,-17.3920777],[-66.1497628,-17.3920265],[-66.14977370000001,-17.391967400000002],[-66.1498584,-17.3915058],[-66.14993820000001,-17.391094000000002],[-66.14995180000001,-17.391033500000002],[-66.14996670000001,-17.3909479],[-66.14997810000001,-17.390874],[-66.15009660000001,-17.390268900000002],[-66.15018280000001,-17.3898291],[-66.1501946,-17.3897684],[-66.15025340000001,-17.389679],[-66.1502971,-17.3894661],[-66.1504185,-17.3888752],[-66.1504324,-17.3888061],[-66.1504479,-17.388726300000002],[-66.1505623,-17.388206200000003],[-66.1506379,-17.387748400000003],[-66.1506511,-17.387696700000003],[-66.15068430000001,-17.3875092],[-66.15071900000001,-17.387353700000002],[-66.1507318,-17.387296900000003],[-66.15088890000001,-17.3866008],[-66.1508979,-17.3865461],[-66.1509087,-17.386498600000003],[-66.15109310000001,-17.3855979],[-66.15110890000001,-17.385506600000003],[-66.15116540000001,-17.3852221],[-66.15124180000001,-17.385236300000003],[-66.15125760000001,-17.385239400000003],[-66.15137920000001,-17.3852629],[-66.1516692,-17.3848908],[-66.1520139,-17.3844485],[-66.1522305,-17.3841655],[-66.1523557,-17.384001],[-66.15259830000001,-17.3836821],[-66.1526163,-17.383658500000003],[-66.15267220000001,-17.383585200000002],[-66.15286850000001,-17.3833273],[-66.1532798,-17.3827871],[-66.15332280000001,-17.382730900000002],[-66.1533799,-17.382750100000003],[-66.1544073,-17.3831081],[-66.15444140000001,-17.383120100000003],[-66.1545013,-17.383140500000003],[-66.15455510000001,-17.3831577],[-66.15485050000001,-17.3832519],[-66.1554912,-17.383470300000003],[-66.1555527,-17.383495],[-66.15603,-17.382882300000002],[-66.156046,-17.3828618],[-66.1561734,-17.3826982],[-66.1564707,-17.3823165],[-66.15648180000001,-17.3822565],[-66.15673460000001,-17.381920200000003],[-66.15674750000001,-17.3818832],[-66.1567603,-17.3818331],[-66.15676710000001,-17.3817717],[-66.1567794,-17.3816965],[-66.156925,-17.380955],[-66.1569403,-17.380876100000002],[-66.15702,-17.3805069],[-66.15703330000001,-17.3804242],[-66.1570329,-17.3803398],[-66.1570327,-17.3802747],[-66.15703230000001,-17.3801744],[-66.15703160000001,-17.380025900000003],[-66.15705000000001,-17.379907900000003],[-66.15703570000001,-17.379124800000003],[-66.1570224,-17.3783914],[-66.1570188,-17.3781946],[-66.1570174,-17.3781195],[-66.1570796,-17.378116700000003],[-66.1576426,-17.3780748],[-66.1577493,-17.378067700000003],[-66.1583107,-17.3780304],[-66.1586024,-17.378011],[-66.1586329,-17.3780089],[-66.15921700000001,-17.377970100000002],[-66.15926950000001,-17.3779666],[-66.1593014,-17.3779645],[-66.1593801,-17.3779587],[-66.1594412,-17.3779542],[-66.16017280000001,-17.3778963],[-66.16031620000001,-17.37789],[-66.1603403,-17.377888900000002],[-66.1603997,-17.3778913],[-66.16046060000001,-17.377904],[-66.16085860000001,-17.3780152],[-66.1609389,-17.3780389],[-66.16097470000001,-17.378049400000002],[-66.1610775,-17.3780745],[-66.1611914,-17.378104200000003],[-66.1612862,-17.3781283],[-66.1613384,-17.378133400000003],[-66.16138480000001,-17.378131200000002],[-66.1616032,-17.378120600000003],[-66.16174090000001,-17.378114],[-66.16184750000001,-17.378117900000003],[-66.16195400000001,-17.3781332],[-66.162097,-17.378180500000003],[-66.16223450000001,-17.3782435],[-66.1623057,-17.3782889],[-66.1623308,-17.3783049],[-66.16239610000001,-17.3783621],[-66.1625016,-17.378446],[-66.1625298,-17.3784639],[-66.16256460000001,-17.378478700000002],[-66.1626243,-17.3785007],[-66.16267900000001,-17.3785127],[-66.1629159,-17.378564700000002],[-66.1630751,-17.378599700000002],[-66.1633049,-17.3786501],[-66.1635117,-17.378695500000003],[-66.16400390000001,-17.378810700000002],[-66.16431850000001,-17.3788844],[-66.16447930000001,-17.3789212],[-66.1649319,-17.379026900000003],[-66.16500020000001,-17.3790307],[-66.16506840000001,-17.3790242],[-66.16512870000001,-17.379009800000002],[-66.16519330000001,-17.378986700000002],[-66.16523090000001,-17.378953900000003],[-66.16527500000001,-17.378929600000003],[-66.1653235,-17.3789145],[-66.1653742,-17.3789094],[-66.1654249,-17.378914400000003],[-66.16545830000001,-17.378923500000003],[-66.1654915,-17.3789379],[-66.16552220000001,-17.3789568],[-66.1655496,-17.3789799],[-66.16557300000001,-17.3790066],[-66.165592,-17.3790364],[-66.1656061,-17.379068500000002],[-66.1656162,-17.3791087],[-66.16561730000001,-17.3791586],[-66.165609,-17.3792085],[-66.1655927,-17.3792557],[-66.165864,-17.379390200000003],[-66.16656370000001,-17.379690500000002],[-66.16732280000001,-17.3800236],[-66.16738790000001,-17.3800399],[-66.1674936,-17.380058100000003],[-66.16798650000001,-17.3801139],[-66.1683756,-17.380026700000002],[-66.1688987,-17.3799095],[-66.1689389,-17.3799005],[-66.16928990000001,-17.379821800000002],[-66.169385,-17.3797998],[-66.16944310000001,-17.379785400000003],[-66.1700053,-17.3796269],[-66.17012860000001,-17.3795922],[-66.1706786,-17.3794544],[-66.1707726,-17.3794328],[-66.1713021,-17.379310800000003],[-66.1719726,-17.3792671],[-66.17266240000001,-17.379230900000003],[-66.1737044,-17.3791675],[-66.1738031,-17.3791654],[-66.1744532,-17.3791268],[-66.17453350000001,-17.379109500000002],[-66.1747364,-17.379054800000002],[-66.17527890000001,-17.3790079],[-66.1753556,-17.379001300000002],[-66.1753997,-17.3793098],[-66.17540430000001,-17.3793423],[-66.1761398,-17.3793048],[-66.17616790000001,-17.3793034],[-66.1760436,-17.3782505],[-66.17600580000001,-17.377892300000003],[-66.1759318,-17.377157800000003],[-66.1758588,-17.376582300000003],[-66.1758533,-17.3764664],[-66.1758281,-17.3759412],[-66.17580650000001,-17.3751353],[-66.1757803,-17.374242600000002],[-66.1757786,-17.374183400000003],[-66.1757601,-17.373502400000003],[-66.1757585,-17.3734438],[-66.1757048,-17.371790200000003],[-66.17570230000001,-17.3717405],[-66.1757008,-17.3717118],[-66.1756964,-17.3716139],[-66.1756951,-17.371545],[-66.1756948,-17.3715288],[-66.1756912,-17.3714456],[-66.1756182,-17.369744],[-66.1756223,-17.369667200000002],[-66.1756421,-17.369253800000003],[-66.17564610000001,-17.3691701],[-66.1756527,-17.3690812],[-66.17569560000001,-17.3684154],[-66.1757202,-17.367964100000002],[-66.17571980000001,-17.3678536],[-66.1757077,-17.367737700000003],[-66.1756787,-17.3676268],[-66.1754131,-17.366797000000002],[-66.17538180000001,-17.3666877],[-66.17508810000001,-17.365743900000002],[-66.17505870000001,-17.3656764],[-66.17501410000001,-17.3655887],[-66.17495690000001,-17.365499200000002],[-66.17490570000001,-17.3654109],[-66.1748776,-17.3653471],[-66.17480900000001,-17.3650063],[-66.1748032,-17.364977600000003],[-66.17478820000001,-17.364904300000003],[-66.17476450000001,-17.3648425],[-66.17469270000001,-17.364719700000002],[-66.1746274,-17.3646184],[-66.1745422,-17.3644736],[-66.174384,-17.3642258],[-66.17420510000001,-17.3639453],[-66.1741755,-17.363890400000003],[-66.17415670000001,-17.3638556],[-66.17411940000001,-17.3637546],[-66.17409830000001,-17.3636923],[-66.1740651,-17.363625000000003],[-66.17362630000001,-17.3629041],[-66.17357990000001,-17.362874],[-66.1735168,-17.362847400000003],[-66.1734285,-17.362809700000003],[-66.1733748,-17.3627727],[-66.17333810000001,-17.362731],[-66.17330630000001,-17.362675900000003],[-66.17330000000001,-17.3626159],[-66.1732889,-17.3624443],[-66.1732705,-17.362381300000003],[-66.1732266,-17.3622786],[-66.1732046,-17.362242100000003],[-66.1729809,-17.361872],[-66.17293930000001,-17.361791800000002],[-66.1729026,-17.361721000000003],[-66.1728669,-17.3616241],[-66.17279040000001,-17.361396900000003],[-66.17268050000001,-17.361047900000003],[-66.17266090000001,-17.360985900000003],[-66.1726402,-17.3609118],[-66.1725342,-17.360572],[-66.1724209,-17.3602087],[-66.1724057,-17.360159900000003],[-66.1722483,-17.3596429],[-66.1722067,-17.359526300000002],[-66.1721754,-17.359466100000002],[-66.1721035,-17.3593714],[-66.1720646,-17.3593207],[-66.17199520000001,-17.359243600000003],[-66.1722036,-17.3591403],[-66.1722477,-17.3591173],[-66.17321310000001,-17.3586686],[-66.17479110000001,-17.3579401],[-66.1749872,-17.357837200000002],[-66.17442650000001,-17.3568643],[-66.1739295,-17.3559936],[-66.1734775,-17.355178600000002],[-66.17344340000001,-17.355115100000003],[-66.172973,-17.354229800000002],[-66.1724587,-17.3533589],[-66.1719752,-17.3524943],[-66.1716001,-17.351850600000002],[-66.17179750000001,-17.3517437],[-66.1724073,-17.351441400000002],[-66.1721761,-17.35096],[-66.171897,-17.350415700000003],[-66.17142510000001,-17.3495084],[-66.17136140000001,-17.3494157],[-66.1707023,-17.348527],[-66.1699983,-17.3475988],[-66.1699797,-17.3475743],[-66.169618,-17.347097],[-66.16910990000001,-17.346404000000003],[-66.16853180000001,-17.346780900000002]],"nodes":[3667369378,3667369363,3667369360,3667369325,3667369305,3667369297,3667369296,3667369256,3667369226,1627089432,9411393672,1627089632,1627089616,3667369222,1627089471,3666521579,1627089553,3666521591,3666521595,1627089559,3666521606,3666521609,3666521610,1627089404,3666521613,1627089708,3666521616,3666521619,3666521622,3666521623,1627089779,3666521630,10004010576,10004010572,10004010575,10004010574,10004010573,3666302167,3666302160,3666302157,3666302154,3666302148,1492625255,3666302143,1492625478,3666302149,1492625402,1492625267,1492625491,3666302138,3666302136,3666302137,3666302139,3666302142,3666302146,1492625456,1492625365,3664604878,3664604876,3664604881,3664604885,3664604892,3664604894,3664604900,3664604903,3664604909,3664604915,3664604920,13335057217,3664604930,3664604945,3664604953,3664604958,3664604962,3664604965,3664604971,3664604979,3664604986,3664604999,12199556568,3664605007,7152991066,3664691618,3664691621,3664698328,3664698339,3664698342,3664698346,3664698349,3664698351,3664698363,3664698368,3664698366,3664698384,3664698417,3664698558,3664698555,3664698531,3664698414,3664698404,3664698393,3664698385,3664698345,3664691611,3640223596,13334382961,3640223558,3664009268,3640223531,3664009263,3640223516,3664009259,13334382971,3640223385,3640223336,3640223325,3640223317,3664009229,3640223191,3640223153,3664009079,3664009056,3640223124,3664009037,3664009035,3640223111,3640223107,3640223085,3640223082,3640223075,3640223068,3640223061,3664008894,3640223058,3640223054,3640223044,3640223022,3640223001,3640222996,7152991124,3640222984,3640222979,3640222981,3640222991,3640222989,3664008712,3640222982,3640222976,3640222977,3640222995,3640223013,3664008862,3640223043,13596355094,3640223051,3640223016,3640222985,3640222948,3640222945,3640222915,3640222900,3664008507,3640222887,3664008491,7154495480,3640222874,12243119784,3640222851,3664008452,3664008444,3640222836,3640222811,3640222794,3640222678,3664008390,3640222664,3664008358,3640222639,8946095619,3640222625,8946095618,3640222609,8946095620,8946095621,8946095622,8946095623,11350152495,11350152494,3640222427,8946095642,1492625366,3640222406,1492625519,1492625455,3640222394,3663855434,1492625458,3640222384,3663855324,1492625580,1492625475,11638764754,3640222365,3663855304,1492625431,3640222326,3663855257,3663855251,3663855240,3663855231,3640222317,1492625251,1492625367,1492625334,3663855103,3663855101,1492625309,3663855089,3663855081,1492625302,1492625476,3640221470,3640221467,1492625399,1492625364,1492625477,3640221456,1492625574,11638797716,1492625300,11813155766,1492625479,3640221449,1492625591,1492625360,3647864237,1492625462,1492625511,3640221444,10062964720,1492625424,1492625335,2528681112,8946095473,6186043681,3620629135,1492625428,9036918646,9036918617,11813155695,10028389505,2528681042,10057812401,11898090496,7064894163,8462472609,9528470238,1600457628,9528470242,7064894162,627239867,12544889678,1499573861,6733961583,11898090501,8462486891,2528680937,497182734,11898090511,6185969459,6185969461,4414152689,497182739,2032685190,10028602215,2528680788,9036572241,2528680753,8462984274,2528680726,8462984273,10028486962,2528680660,2528680664,2528680635,8462984275,2528680609,6326510336,1499941832,2528680557,2528680511,6734000429,2528680496,2104228933,497182742,6185973499,2528680440,8462994668,10028610984,497182743,4402059971,8462994636,2778806620,8462994751,2778806617,3675745358,10030672001,1637668183,1637668139,3669248188,3675745356,2778806592,1637668079,10030745064,497182745,8462994722,3539625577,497182746,3951278856,8462994808,2778806580,10030867290,3017405857,1637648664,2778806571,3577187542,9188521934,3577187540,1637648641,9188521936,2778806551,3675745354,3574907097,2778806536,2045530066,10032549115,2778806531,3573684453,2778806526,3017405869,2045529859,8465159296,3573684257,2778806507,10040814048,2053282980,4414218814,4414218817,497182748,2045529783,10038420070,497182749,2778806498,2778806496,2778806486,9188620433,2778806481,648536528,646061387,646061391,3307473715,3307473697,2778806472,2778806447,3307473640,646061394,2778806438,646061399,2778806435,3307473550,2778806433,646061406,1638830107,10040814017,646061410,13416155728,2778806425,2778806422,2778806420,10040814088,10040814089,646061414,10040977410,2045510866,10040986817,646061425,3315367976,3315367972,10040986823,3675745353,10040986829,10830574938,646061429,10040986826,3315367951,646061554,10040986835,3577938002,646061558,10040986836,3315367938,10040986831,2045510732,3675745351,646061079,646061081,3315367911,3315367906,2045510589,3315367878,8236485309,2045510724,4414240043,2045510959,3017372545,8236494244,646061085,3315367739,3315367731,3315367725,3315367723,3315367710,3675745347,646061086,646061088,3675745345,646061145,3315367671,646061153,3315367666,702511586,3315367459,646061155,3315367455,3315367447,3315367434,3315367429,648538850,8226236120,648538851,3017372524,648538853,648538855,3315367365,3315367364,648538857,648538859,5610210470,3315366947,648538861,648538865,5610210471,5610210512,702511599,843383892,702511670,10923297987,702511672,702511667,8208217821,659960380,2768899137,11789289646,11789289645,11789289653,11789289655,2240938079,11789289665,11789289652,702511607,11789289641,702511850,3325688458,702511852,9413017879,9413017876,11789289639,646072472,2240938195,11789307079,2240938107,11789289640,3329495309,646072446,3017377586,2033336803,12508280785,5726438858,2031079584,2031079555,9352225505,3017385037,9352225504,9052272499,2031079547,9052272488,5434000150,12777576107,2031079518,2031079513,12777576108,2031079515,5227462564,3325466473,2674328752,843385352,324015376,8192377531,12777576115,8192368910,324015373,324015371,8192377560,324015370,598789673,324015368,5227527455,324015367,2031079468,8192368877,2031079460,2031079448,10830662561,8192368884,10677741931,2031079440,2031079436,2031079434,4941281629,8192368866,8542732655,308297682,8192368864,8542732656,308297683,598789383,2031313819,8089836066,648548704,315031543,8515841687,8515841685,308297685,8515841684,2892642981,2892642977,8398265984,315098242,303217531,9121465672,8515841707,5018719455,303217532,5018719458,2303485397,2303485390,9121465671,303217533,8398265924,3924761796,303215162,3924761795,8515866923,303217534,5309804691,1851061835,2866813904,698492413,303214820,2866811499,13041417514,9591270798,303217664,2470422219,13041417511,2470422186,303217665,2470422184,3783547283,2470422182,7517222306,310501189,2470422172,13041385796,2327853065,303217726,2327853062,2470422169,303217727,360562473,6199916337,6199916327,311359555,2113137381,9287273704,310501389,11927510600,11927510620,8347669512,311359554,2327839020,4867424553,310501328,4867424551,3201986223,4867424560,310501327,9880404958,4603130093,8344129669,310501326,13353688846,2364044105,8343523392,310501374,8337099520,8337099521,8337099522,8337099523,8337099524,8337099525,8337099543,8337099526,8337099527,8337099528,8337099532,8337099534,602989842,8337099529,8337099517,9936630991,13725750787,4341961466,391745658,4341961464,598151878,10236708487,10857352360,8423552871,4341961463,4341961462,391743998,13735210076,13735210074,4341961460,391745854,11525745860,3775062997,391745886,8423552890,2296580494,1722458959,13735210078,13735210081,1722458896,2296580495,8423483611,10744627739,1722458890,8423552819,1722458963,8591667687,2296580496,2296580501,9569953251,1722458942,1722458910,8591667691,8591667692,2296580534,1722458951,9569953285,11068696660,9950523262,9950523260,1807037992,11378893849,1722458918,8591687997,1722458870,2296580600,7246417129,2296580598,2422613651,3178842377,2422613640,689437281,2422613637,9034972382,2422613638,2422613642,9352337097,8591688042,9352337098,2422613653,2422613660,9352337099,9569962468,2422613669,3928838403,3178842392,598179148,9278251780,2422613981,598179145,1865090713,9278275241,9278251805,12121557188,4478186813,4478186812,2422613892,11079435444,598179131,598179109,11079435445,598179108,598179110,598179111,1723604936,598179093,2409437005,598179095,2409436994,12075820926,598179092,12075820929,698492539,12075820913,698492542,11070650882,598179102,598179119,391739352,599541142,9586883587,1723598856,9054936641,689437242,9054936644,689437251,3673525780,11836786404,599541152,391738019,11836778764,3673525774,11836786397,843383928,8559151134,9044836803,843384184,3658380323,845125568,2331302065,563279724,3267530560,563279725,845125598,851595344,3182040601,2331301975,563279728,391740928,8546998966,563279729,8546998962,563279731,8539635594,2869785567,8539651935,811023474,8539651818,8539651930,2869785555,8539635612,563279736,811023229,8539635609,563279738,563279739,2869785547,811023260,2869785544,2869785542,2869785536,8546999023,2869785529,811023426,3959056476,811023471,8547124812,8546999033,8547156319,3959056474,563279746,851595388,8547156396,811023379,8547156394,8577144334,8577144337,851595359,8577142297,3709437884,3260875585,8577142298,3709437878,3709437876,8577144587,3959051140,1579041441,8914801935,601871440,1860890518,1860872471,3017419920,1860872473,1860872454,1860872455,1860872477,1860872485,1860872469,1860872475,3278552144,1860872476,1862351124,3278552067,2317720991,914202133,8914765911,8914765909,2317720982,8112565535]},"gtfs":{"agency_id":3,"route_id":55,"services":[{"service_id":"Mo-Su","startTime":"06:00","endTime":"22:00","trip_id":9427015}],"filteredStops":{"nodes":[3667369378,3667369363,3667369360,3667369325,3667369305,3667369297,3667369296,3667369256,3667369226,1627089432,9411393672,1627089632,1627089616,3667369222,1627089471,3666521579,1627089553,3666521591,3666521595,1627089559,3666521606,3666521609,3666521610,1627089404,3666521613,1627089708,3666521616,3666521619,3666521622,3666521623,1627089779,3666521630,10004010576,10004010572,10004010575,10004010574,10004010573,3666302167,3666302160,3666302157,3666302154,3666302148,1492625255,3666302143,1492625478,3666302149,1492625402,1492625267,1492625491,3666302138,3666302136,3666302137,3666302139,3666302142,3666302146,1492625456,1492625365,3664604878,3664604876,3664604881,3664604885,3664604892,3664604894,3664604900,3664604903,3664604909,3664604915,3664604920,13335057217,3664604930,3664604945,3664604953,3664604958,3664604962,3664604965,3664604971,3664604979,3664604986,3664604999,12199556568,3664605007,7152991066,3664691618,3664691621,3664698328,3664698339,3664698342,3664698346,3664698349,3664698351,3664698363,3664698368,3664698366,3664698384,3664698417,3664698558,3664698555,3664698531,3664698414,3664698404,3664698393,3664698385,3664698345,3664691611,3640223596,13334382961,3640223558,3664009268,3640223531,3664009263,3640223516,3664009259,13334382971,3640223385,3640223336,3640223325,3640223317,3664009229,3640223191,3640223153,3664009079,3664009056,3640223124,3664009037,3664009035,3640223111,3640223107,3640223085,3640223082,3640223075,3640223068,3640223061,3664008894,3640223058,3640223054,3640223044,3640223022,3640223001,3640222996,7152991124,3640222984,3640222979,3640222981,3640222991,3640222989,3664008712,3640222982,3640222976,3640222977,3640222995,3640223013,3664008862,3640223043,13596355094,3640223051,3640223016,3640222985,3640222948,3640222945,3640222915,3640222900,3664008507,3640222887,3664008491,7154495480,3640222874,12243119784,3640222851,3664008452,3664008444,3640222836,3640222811,3640222794,3640222678,3664008390,3640222664,3664008358,3640222639,8946095619,3640222625,8946095618,3640222609,8946095620,8946095621,8946095622,8946095623,11350152495,11350152494,3640222427,8946095642,1492625366,3640222406,1492625519,1492625455,3640222394,3663855434,1492625458,3640222384,3663855324,1492625580,1492625475,11638764754,3640222365,3663855304,1492625431,3640222326,3663855257,3663855251,3663855240,3663855231,3640222317,1492625251,1492625367,1492625334,3663855103,3663855101,1492625309,3663855089,3663855081,1492625302,1492625476,3640221470,3640221467,1492625399,1492625364,1492625477,3640221456,1492625574,11638797716,1492625300,11813155766,1492625479,3640221449,1492625591,1492625360,3647864237,1492625462,1492625511,3640221444,10062964720,1492625424,1492625335,2528681112,8946095473,6186043681,3620629135,1492625428,9036918646,9036918617,11813155695,10028389505,2528681042,10057812401,11898090496,7064894163,8462472609,9528470238,1600457628,9528470242,7064894162,627239867,12544889678,1499573861,6733961583,11898090501,8462486891,2528680937,497182734,11898090511,6185969459,6185969461,4414152689,497182739,2032685190,10028602215,2528680788,9036572241,2528680753,8462984274,2528680726,8462984273,10028486962,2528680660,2528680664,2528680635,8462984275,2528680609,6326510336,1499941832,2528680557,2528680511,6734000429,2528680496,2104228933,497182742,6185973499,2528680440,8462994668,10028610984,497182743,4402059971,8462994636,2778806620,8462994751,2778806617,3675745358,10030672001,1637668183,1637668139,3669248188,3675745356,2778806592,1637668079,10030745064,497182745,8462994722,3539625577,497182746,3951278856,8462994808,2778806580,10030867290,3017405857,1637648664,2778806571,3577187542,9188521934,3577187540,1637648641,9188521936,2778806551,3675745354,3574907097,2778806536,2045530066,10032549115,2778806531,3573684453,2778806526,3017405869,2045529859,8465159296,3573684257,2778806507,10040814048,2053282980,4414218814,4414218817,497182748,2045529783,10038420070,497182749,2778806498,2778806496,2778806486,9188620433,2778806481,648536528,646061387,646061391,3307473715,3307473697,2778806472,2778806447,3307473640,646061394,2778806438,646061399,2778806435,3307473550,2778806433,646061406,1638830107,10040814017,646061410,13416155728,2778806425,2778806422,2778806420,10040814088,10040814089,646061414,10040977410,2045510866,10040986817,646061425,3315367976,3315367972,10040986823,3675745353,10040986829,10830574938,646061429,10040986826,3315367951,646061554,10040986835,3577938002,646061558,10040986836,3315367938,10040986831,2045510732,3675745351,646061079,646061081,3315367911,3315367906,2045510589,3315367878,8236485309,2045510724,4414240043,2045510959,3017372545,8236494244,646061085,3315367739,3315367731,3315367725,3315367723,3315367710,3675745347,646061086,646061088,3675745345,646061145,3315367671,646061153,3315367666,702511586,3315367459,646061155,3315367455,3315367447,3315367434,3315367429,648538850,8226236120,648538851,3017372524,648538853,648538855,3315367365,3315367364,648538857,648538859,5610210470,3315366947,648538861,648538865,5610210471,5610210512,702511599,843383892,702511670,10923297987,702511672,702511667,8208217821,659960380,2768899137,11789289646,11789289645,11789289653,11789289655,2240938079,11789289665,11789289652,702511607,11789289641,702511850,3325688458,702511852,9413017879,9413017876,11789289639,646072472,2240938195,11789307079,2240938107,11789289640,3329495309,646072446,3017377586,2033336803,12508280785,5726438858,2031079584,2031079555,9352225505,3017385037,9352225504,9052272499,2031079547,9052272488,5434000150,12777576107,2031079518,2031079513,12777576108,2031079515,5227462564,3325466473,2674328752,843385352,324015376,8192377531,12777576115,8192368910,324015373,324015371,8192377560,324015370,598789673,324015368,5227527455,324015367,2031079468,8192368877,2031079460,2031079448,10830662561,8192368884,10677741931,2031079440,2031079436,2031079434,4941281629,8192368866,8542732655,308297682,8192368864,8542732656,308297683,598789383,2031313819,8089836066,648548704,315031543,8515841687,8515841685,308297685,8515841684,2892642981,2892642977,8398265984,315098242,303217531,9121465672,8515841707,5018719455,303217532,5018719458,2303485397,2303485390,9121465671,303217533,8398265924,3924761796,303215162,3924761795,8515866923,303217534,5309804691,1851061835,2866813904,698492413,303214820,2866811499,13041417514,9591270798,303217664,2470422219,13041417511,2470422186,303217665,2470422184,3783547283,2470422182,7517222306,310501189,2470422172,13041385796,2327853065,303217726,2327853062,2470422169,303217727,360562473,6199916337,6199916327,311359555,2113137381,9287273704,310501389,11927510600,11927510620,8347669512,311359554,2327839020,4867424553,310501328,4867424551,3201986223,4867424560,310501327,9880404958,4603130093,8344129669,310501326,13353688846,2364044105,8343523392,310501374,8337099520,8337099521,8337099522,8337099523,8337099524,8337099525,8337099543,8337099526,8337099527,8337099528,8337099532,8337099534,602989842,8337099529,8337099517,9936630991,13725750787,4341961466,391745658,4341961464,598151878,10236708487,10857352360,8423552871,4341961463,4341961462,391743998,13735210076,13735210074,4341961460,391745854,11525745860,3775062997,391745886,8423552890,2296580494,1722458959,13735210078,13735210081,1722458896,2296580495,8423483611,10744627739,1722458890,8423552819,1722458963,8591667687,2296580496,2296580501,9569953251,1722458942,1722458910,8591667691,8591667692,2296580534,1722458951,9569953285,11068696660,9950523262,9950523260,1807037992,11378893849,1722458918,8591687997,1722458870,2296580600,7246417129,2296580598,2422613651,3178842377,2422613640,689437281,2422613637,9034972382,2422613638,2422613642,9352337097,8591688042,9352337098,2422613653,2422613660,9352337099,9569962468,2422613669,3928838403,3178842392,598179148,9278251780,2422613981,598179145,1865090713,9278275241,9278251805,12121557188,4478186813,4478186812,2422613892,11079435444,598179131,598179109,11079435445,598179108,598179110,598179111,1723604936,598179093,2409437005,598179095,2409436994,12075820926,598179092,12075820929,698492539,12075820913,698492542,11070650882,598179102,598179119,391739352,599541142,9586883587,1723598856,9054936641,689437242,9054936644,689437251,3673525780,11836786404,599541152,391738019,11836778764,3673525774,11836786397,843383928,8559151134,9044836803,843384184,3658380323,845125568,2331302065,563279724,3267530560,563279725,845125598,851595344,3182040601,2331301975,563279728,391740928,8546998966,563279729,8546998962,563279731,8539635594,2869785567,8539651935,811023474,8539651818,8539651930,2869785555,8539635612,563279736,811023229,8539635609,563279738,563279739,2869785547,811023260,2869785544,2869785542,2869785536,8546999023,2869785529,811023426,3959056476,811023471,8547124812,8546999033,8547156319,3959056474,563279746,851595388,8547156396,811023379,8547156394,8577144334,8577144337,851595359,8577142297,3709437884,3260875585,8577142298,3709437878,3709437876,8577144587,3959051140,1579041441,8914801935,601871440,1860890518,1860872471,3017419920,1860872473,1860872454,1860872455,1860872477,1860872485,1860872469,1860872475,3278552144,1860872476,1862351124,3278552067,2317720991,914202133,8914765911,8914765909,2317720982,8112565535],"coordinates":[[-66.141114,-17.476055000000002],[-66.13999340000001,-17.475791700000002],[-66.1395962,-17.4757047],[-66.13983400000001,-17.4750799],[-66.14010560000001,-17.4743733],[-66.1396687,-17.474238500000002],[-66.1396081,-17.4742247],[-66.13985100000001,-17.473600400000002],[-66.14006970000001,-17.4730393],[-66.1398599,-17.473026500000003],[-66.1394956,-17.4730136],[-66.13882570000001,-17.472989700000003],[-66.1380934,-17.4729773],[-66.1379419,-17.472995200000003],[-66.13784170000001,-17.4730066],[-66.1375915,-17.4730683],[-66.137448,-17.473121900000002],[-66.13730530000001,-17.4731905],[-66.1371752,-17.4732658],[-66.13704100000001,-17.473363900000003],[-66.13691030000001,-17.4734854],[-66.1368084,-17.4735926],[-66.1367254,-17.4737061],[-66.13666230000001,-17.4738104],[-66.13660030000001,-17.473928500000003],[-66.1365399,-17.4740377],[-66.13650390000001,-17.4741234],[-66.13645790000001,-17.4742688],[-66.1364262,-17.4744412],[-66.1364022,-17.4745965],[-66.1363728,-17.4748081],[-66.1364259,-17.475123200000002],[-66.13635880000001,-17.4751343],[-66.1361638,-17.4751173],[-66.13608140000001,-17.475178900000003],[-66.1359101,-17.4752294],[-66.13585400000001,-17.475285900000003],[-66.1358021,-17.4753437],[-66.1357249,-17.475444300000003],[-66.13546070000001,-17.475329700000003],[-66.1353284,-17.475272200000003],[-66.1351058,-17.475163600000002],[-66.13488930000001,-17.475070600000002],[-66.13487040000001,-17.4751192],[-66.1348165,-17.475155100000002],[-66.1347097,-17.475177000000002],[-66.1342774,-17.475265500000003],[-66.13415350000001,-17.4752706],[-66.13408550000001,-17.4752705],[-66.1333733,-17.475100100000002],[-66.1331983,-17.475084000000003],[-66.1330782,-17.475088300000003],[-66.1329127,-17.475111100000003],[-66.1327584,-17.475143300000003],[-66.1326155,-17.475183400000002],[-66.13249610000001,-17.4752481],[-66.1322782,-17.475428500000003],[-66.1322052,-17.4753058],[-66.13203530000001,-17.475324800000003],[-66.13199250000001,-17.475336300000002],[-66.13183880000001,-17.4753818],[-66.13141180000001,-17.4755663],[-66.13124280000001,-17.4756439],[-66.1310971,-17.475721500000002],[-66.13085910000001,-17.475851900000002],[-66.1306998,-17.4759829],[-66.1306143,-17.476104600000003],[-66.13046050000001,-17.476279700000003],[-66.1302658,-17.476427800000003],[-66.13020490000001,-17.4764741],[-66.1295688,-17.476929300000002],[-66.12937550000001,-17.477043400000003],[-66.12915530000001,-17.4771548],[-66.1289478,-17.4772526],[-66.1288349,-17.477340100000003],[-66.1287305,-17.477460500000003],[-66.12866720000001,-17.477549600000003],[-66.1285558,-17.4776045],[-66.1283995,-17.477649800000002],[-66.12834620000001,-17.477653800000002],[-66.1282887,-17.477667],[-66.12816330000001,-17.477682],[-66.12755990000001,-17.4778166],[-66.1268144,-17.4779199],[-66.1261458,-17.4780909],[-66.12548600000001,-17.478244800000002],[-66.12485170000001,-17.4784231],[-66.1242323,-17.478563400000002],[-66.12385060000001,-17.4786553],[-66.1236154,-17.4788207],[-66.12349400000001,-17.4788786],[-66.1233924,-17.4788877],[-66.12309420000001,-17.4788852],[-66.123078,-17.4791318],[-66.1230824,-17.479754200000002],[-66.1230886,-17.4804348],[-66.12300180000001,-17.4803713],[-66.12238430000001,-17.480025],[-66.1217797,-17.479703100000002],[-66.12141220000001,-17.4795072],[-66.1209371,-17.479264500000003],[-66.1208457,-17.4792311],[-66.12065750000001,-17.47848],[-66.1204726,-17.477805200000002],[-66.1204562,-17.477674200000003],[-66.1204503,-17.4769946],[-66.1204488,-17.4768262],[-66.11976840000001,-17.4763975],[-66.1196427,-17.476306],[-66.1195067,-17.476193400000003],[-66.11936700000001,-17.476065600000002],[-66.11923060000001,-17.475906300000002],[-66.1191244,-17.475755600000003],[-66.11900770000001,-17.475589900000003],[-66.1185763,-17.475074900000003],[-66.11845770000001,-17.4749564],[-66.1183031,-17.4748604],[-66.1182076,-17.4747869],[-66.11807440000001,-17.4746558],[-66.1179304,-17.474476900000003],[-66.1178139,-17.474323700000003],[-66.11769190000001,-17.4741231],[-66.11752960000001,-17.473862200000003],[-66.11741500000001,-17.473685000000003],[-66.1173361,-17.4735808],[-66.11726780000001,-17.4734985],[-66.1172138,-17.473450000000003],[-66.1176411,-17.473124300000002],[-66.11777450000001,-17.4730537],[-66.11810360000001,-17.472934000000002],[-66.11839,-17.472802],[-66.1184264,-17.472771100000003],[-66.1184441,-17.4727427],[-66.1184602,-17.472591100000002],[-66.1184896,-17.472542800000003],[-66.11885640000001,-17.4723046],[-66.1189712,-17.4722292],[-66.119561,-17.471960600000003],[-66.1200056,-17.4717664],[-66.12020500000001,-17.471697900000002],[-66.1204532,-17.4716123],[-66.1205101,-17.471601200000002],[-66.12056720000001,-17.4716077],[-66.12069550000001,-17.4716588],[-66.12082050000001,-17.4716501],[-66.12107990000001,-17.4715995],[-66.1211693,-17.4715779],[-66.1212883,-17.471517300000002],[-66.12143680000001,-17.4715764],[-66.121792,-17.471745400000003],[-66.12232510000001,-17.4720194],[-66.12251300000001,-17.4720897],[-66.1235547,-17.4724928],[-66.1235884,-17.4725237],[-66.12362440000001,-17.4725566],[-66.12410440000001,-17.472072100000002],[-66.1245619,-17.471596400000003],[-66.12512380000001,-17.4710752],[-66.12540800000001,-17.471032700000002],[-66.1253466,-17.470396400000002],[-66.1253621,-17.4701449],[-66.1254423,-17.469797500000002],[-66.1255407,-17.469540100000003],[-66.12556260000001,-17.4694556],[-66.1256268,-17.4692276],[-66.12566220000001,-17.469101900000002],[-66.12570810000001,-17.468854200000003],[-66.125718,-17.468803400000002],[-66.1257185,-17.4687351],[-66.1257192,-17.4686258],[-66.12573250000001,-17.4682341],[-66.1258102,-17.467798900000002],[-66.1258562,-17.4676756],[-66.12592380000001,-17.4675724],[-66.1260824,-17.4673744],[-66.12617350000001,-17.467257800000002],[-66.12633600000001,-17.466835200000002],[-66.1264787,-17.466586200000002],[-66.1265808,-17.466420600000003],[-66.12665430000001,-17.466289300000003],[-66.1267222,-17.4661592],[-66.1267696,-17.466044],[-66.126822,-17.4659085],[-66.1270222,-17.4655188],[-66.12715,-17.4653385],[-66.12754220000001,-17.464946700000002],[-66.127628,-17.4648408],[-66.1277352,-17.4646735],[-66.127868,-17.464588300000003],[-66.1279456,-17.464479400000002],[-66.12805990000001,-17.464196],[-66.12816210000001,-17.464014900000002],[-66.1282166,-17.463931600000002],[-66.12833780000001,-17.4637758],[-66.12846590000001,-17.463684],[-66.1285453,-17.463652500000002],[-66.1286982,-17.4636168],[-66.1289215,-17.463594800000003],[-66.1295343,-17.463555900000003],[-66.1297219,-17.463506300000002],[-66.1298462,-17.463459800000003],[-66.12988530000001,-17.463445200000002],[-66.1299745,-17.4633819],[-66.13013520000001,-17.4632438],[-66.1303779,-17.462976400000002],[-66.13054670000001,-17.462803800000003],[-66.1306354,-17.4626954],[-66.1307003,-17.4626319],[-66.1308218,-17.4625214],[-66.1309373,-17.462426800000003],[-66.1310907,-17.4622925],[-66.13116570000001,-17.462208200000003],[-66.1312243,-17.462113300000002],[-66.13127820000001,-17.4619906],[-66.13132780000001,-17.4618405],[-66.1313674,-17.461753],[-66.13141660000001,-17.461676500000003],[-66.1315866,-17.461422300000002],[-66.13171530000001,-17.461204700000003],[-66.131928,-17.460763],[-66.132024,-17.460614900000003],[-66.1325197,-17.460111700000002],[-66.1325583,-17.4600292],[-66.13252290000001,-17.459903200000003],[-66.13224120000001,-17.459347400000002],[-66.1322104,-17.459220900000002],[-66.13222640000001,-17.4588532],[-66.13223880000001,-17.458660700000003],[-66.1322322,-17.458463000000002],[-66.1321966,-17.4582461],[-66.1321075,-17.457931600000002],[-66.13208180000001,-17.457837700000002],[-66.131972,-17.457626400000002],[-66.13188840000001,-17.457464400000003],[-66.13178300000001,-17.457079],[-66.1316951,-17.456654800000003],[-66.1316061,-17.455983],[-66.13149840000001,-17.455218900000002],[-66.1314777,-17.455135300000002],[-66.13145220000001,-17.455049900000002],[-66.13141350000001,-17.4549787],[-66.1313872,-17.4549412],[-66.1312676,-17.454780600000003],[-66.13121240000001,-17.454673500000002],[-66.1310751,-17.454458600000002],[-66.13057690000001,-17.453855200000003],[-66.12970370000001,-17.4526857],[-66.1296769,-17.4526527],[-66.129396,-17.452307100000002],[-66.129323,-17.452218100000003],[-66.1292949,-17.4521924],[-66.12925870000001,-17.4521546],[-66.1291422,-17.452034700000002],[-66.1291133,-17.452005900000003],[-66.12908440000001,-17.451977000000003],[-66.12865310000001,-17.452479200000003],[-66.1285156,-17.4523891],[-66.12848310000001,-17.4523678],[-66.1285742,-17.452265200000003],[-66.12878300000001,-17.452029800000002],[-66.1289235,-17.451867],[-66.12913970000001,-17.451620000000002],[-66.1291657,-17.451590200000002],[-66.1294345,-17.4513159],[-66.12968950000001,-17.4510541],[-66.12988080000001,-17.4508577],[-66.12998160000001,-17.4507572],[-66.1306673,-17.4500597],[-66.13072770000001,-17.4500025],[-66.1309258,-17.449815100000002],[-66.1311443,-17.449614800000003],[-66.1313635,-17.449430200000002],[-66.13193220000001,-17.448960500000002],[-66.13243440000001,-17.4485794],[-66.13302780000001,-17.4481623],[-66.13315390000001,-17.448073500000003],[-66.1336701,-17.4477489],[-66.1339081,-17.4475984],[-66.1340349,-17.4475349],[-66.1341388,-17.447470000000003],[-66.1342731,-17.4473629],[-66.13433640000001,-17.4473102],[-66.134454,-17.4472126],[-66.13453080000001,-17.447159600000003],[-66.13463560000001,-17.4470981],[-66.13476290000001,-17.447030100000003],[-66.13488070000001,-17.4469715],[-66.1352121,-17.4468129],[-66.1354716,-17.446696300000003],[-66.1359012,-17.4464788],[-66.13695460000001,-17.445887300000003],[-66.13725690000001,-17.4457182],[-66.1374399,-17.445615800000002],[-66.13883990000001,-17.4448353],[-66.13989760000001,-17.444245600000002],[-66.1401165,-17.4441092],[-66.14047040000001,-17.443862000000003],[-66.1407858,-17.443612],[-66.14082900000001,-17.443572900000003],[-66.14103510000001,-17.4433803],[-66.14224560000001,-17.442256200000003],[-66.1423104,-17.442200800000002],[-66.14236890000001,-17.4421295],[-66.1424013,-17.4420784],[-66.1424279,-17.442036400000003],[-66.14251490000001,-17.4419016],[-66.1425487,-17.441851900000003],[-66.14259030000001,-17.4418022],[-66.1427171,-17.441682],[-66.1427848,-17.441626300000003],[-66.1429796,-17.4414878],[-66.14330170000001,-17.441260500000002],[-66.1433971,-17.441185400000002],[-66.14347690000001,-17.441114900000002],[-66.14355660000001,-17.4410285],[-66.1435969,-17.4409782],[-66.14382040000001,-17.4406992],[-66.14399470000001,-17.440435100000002],[-66.14419330000001,-17.4401057],[-66.1442117,-17.440072200000003],[-66.14445710000001,-17.4396257],[-66.144834,-17.438950700000003],[-66.1448555,-17.438912300000002],[-66.14509550000001,-17.4385072],[-66.1451778,-17.4383541],[-66.1452495,-17.438213],[-66.14528460000001,-17.438131400000003],[-66.145324,-17.438039800000002],[-66.1453867,-17.437914000000003],[-66.14541120000001,-17.437866300000003],[-66.1454418,-17.4378068],[-66.1454977,-17.437707000000003],[-66.14569680000001,-17.4374639],[-66.14591820000001,-17.4372088],[-66.14611380000001,-17.4369489],[-66.1466853,-17.436179600000003],[-66.14733860000001,-17.4353002],[-66.1474728,-17.4351141],[-66.14793250000001,-17.4344888],[-66.1482129,-17.4341118],[-66.1485268,-17.4336898],[-66.1489382,-17.4331591],[-66.14925550000001,-17.4327246],[-66.14939190000001,-17.4325213],[-66.149747,-17.432055000000002],[-66.1500503,-17.4316567],[-66.1502384,-17.4313818],[-66.15037170000001,-17.431185300000003],[-66.1504225,-17.4311054],[-66.15052250000001,-17.4309346],[-66.15054930000001,-17.4308836],[-66.1507479,-17.4305056],[-66.15081190000001,-17.4303664],[-66.1509092,-17.430102400000003],[-66.1509693,-17.429924800000002],[-66.150999,-17.4298541],[-66.15102200000001,-17.4298055],[-66.1511069,-17.4296341],[-66.1512046,-17.429471600000003],[-66.1512951,-17.429341800000003],[-66.15135910000001,-17.4292678],[-66.1514234,-17.429199500000003],[-66.1515071,-17.429114000000002],[-66.1520629,-17.4286034],[-66.1524789,-17.428200500000003],[-66.1527178,-17.427944200000002],[-66.1529307,-17.4276804],[-66.1530846,-17.4274518],[-66.1532732,-17.4270934],[-66.1534092,-17.426773400000002],[-66.1535061,-17.426477100000003],[-66.1536583,-17.4258662],[-66.1537421,-17.4255007],[-66.15378410000001,-17.425112700000003],[-66.153788,-17.425082800000002],[-66.15378910000001,-17.4250127],[-66.1537952,-17.4246383],[-66.1537825,-17.424189100000003],[-66.15375490000001,-17.4238131],[-66.1537423,-17.4236599],[-66.15374,-17.4236463],[-66.1536868,-17.4233294],[-66.15361530000001,-17.422936800000002],[-66.1535906,-17.422801200000002],[-66.15347030000001,-17.4222569],[-66.15345710000001,-17.422197],[-66.1534055,-17.4220523],[-66.15331730000001,-17.421904100000003],[-66.15325990000001,-17.421819600000003],[-66.15320480000001,-17.421748200000003],[-66.153108,-17.421653600000003],[-66.15308850000001,-17.421645400000003],[-66.1530706,-17.421633200000002],[-66.15305310000001,-17.4216146],[-66.1530292,-17.421584300000003],[-66.15301210000001,-17.4215488],[-66.15300470000001,-17.4215206],[-66.15300230000001,-17.4214819],[-66.153006,-17.421454100000002],[-66.15301410000001,-17.421427100000002],[-66.15302650000001,-17.421401600000003],[-66.15303990000001,-17.4213819],[-66.1530548,-17.421365100000003],[-66.1530582,-17.4212451],[-66.1530651,-17.4211661],[-66.1530566,-17.4210391],[-66.1530058,-17.420819700000003],[-66.15293630000001,-17.420663],[-66.15280650000001,-17.420377000000002],[-66.15261190000001,-17.4199819],[-66.1525969,-17.419952400000003],[-66.15247810000001,-17.419718800000002],[-66.1523142,-17.4194022],[-66.15218300000001,-17.419165600000003],[-66.15181340000001,-17.418523200000003],[-66.1517008,-17.4183133],[-66.1515933,-17.418084],[-66.1515593,-17.417976200000002],[-66.15153880000001,-17.4178989],[-66.1515294,-17.417838300000003],[-66.15152140000001,-17.4177646],[-66.1515169,-17.417669200000002],[-66.1515174,-17.4176253],[-66.15151900000001,-17.4174973],[-66.15153620000001,-17.4173158],[-66.1515451,-17.4171988],[-66.1515701,-17.417080700000003],[-66.1515696,-17.417045400000003],[-66.15157660000001,-17.417010700000002],[-66.1515921,-17.4169759],[-66.151615,-17.416945100000003],[-66.15164440000001,-17.4169197],[-66.15167890000001,-17.416901000000003],[-66.15171670000001,-17.4168898],[-66.15181050000001,-17.4168418],[-66.1518939,-17.4167913],[-66.15196060000001,-17.4167248],[-66.1520277,-17.416647400000002],[-66.15288980000001,-17.4155516],[-66.15303750000001,-17.415364500000003],[-66.1531339,-17.415198],[-66.1532202,-17.415029],[-66.15328720000001,-17.4148891],[-66.15337190000001,-17.414694800000003],[-66.153436,-17.4145295],[-66.15350140000001,-17.414284900000002],[-66.1535365,-17.4141511],[-66.1535908,-17.413928600000002],[-66.1536069,-17.413714900000002],[-66.1535953,-17.4131712],[-66.1535386,-17.411177900000002],[-66.1535267,-17.410476600000003],[-66.1534922,-17.410274400000002],[-66.153473,-17.409858500000002],[-66.1534302,-17.408289],[-66.15340370000001,-17.407548600000002],[-66.1525781,-17.40757],[-66.1525507,-17.4075707],[-66.1516888,-17.4075963],[-66.1515162,-17.407603400000003],[-66.1508022,-17.407629800000002],[-66.15071250000001,-17.407631700000003],[-66.14991380000001,-17.407637700000002],[-66.14989460000001,-17.4076378],[-66.1498474,-17.407629200000002],[-66.1498107,-17.4076185],[-66.1497894,-17.407638300000002],[-66.14980630000001,-17.407674200000002],[-66.1498153,-17.407710100000003],[-66.14985180000001,-17.408840700000002],[-66.14877360000001,-17.408144800000002],[-66.1486627,-17.4080063],[-66.14846010000001,-17.4080616],[-66.1480884,-17.408146400000003],[-66.148024,-17.4081604],[-66.1478735,-17.4082022],[-66.14784250000001,-17.4082161],[-66.1477828,-17.4082396],[-66.14766850000001,-17.4083055],[-66.1472061,-17.407984600000002],[-66.14696740000001,-17.407818900000002],[-66.1467095,-17.4076354],[-66.1465021,-17.407487900000003],[-66.1457422,-17.4069606],[-66.1455086,-17.4068016],[-66.14522690000001,-17.4066194],[-66.1451773,-17.406587400000003],[-66.1451344,-17.4065596],[-66.14507230000001,-17.4065163],[-66.1450434,-17.406436000000003],[-66.1450291,-17.406415000000003],[-66.14501800000001,-17.4063923],[-66.1450104,-17.4063684],[-66.1450064,-17.406343600000003],[-66.1450061,-17.406316800000003],[-66.14499930000001,-17.406212800000002],[-66.14501080000001,-17.406109],[-66.14529300000001,-17.4055715],[-66.14542180000001,-17.4053073],[-66.1454853,-17.405170000000002],[-66.14557470000001,-17.405032700000003],[-66.14565250000001,-17.4048461],[-66.1457908,-17.4045641],[-66.14591150000001,-17.404335800000002],[-66.1460246,-17.4041685],[-66.14625690000001,-17.403881300000002],[-66.14656020000001,-17.4035453],[-66.14673540000001,-17.4033443],[-66.1468116,-17.403175200000003],[-66.1468785,-17.403069700000003],[-66.14692380000001,-17.4029986],[-66.1469869,-17.4028497],[-66.14703700000001,-17.402718500000002],[-66.14706240000001,-17.402651900000002],[-66.1470936,-17.4025344],[-66.147125,-17.4023666],[-66.1471298,-17.4021304],[-66.147153,-17.4020486],[-66.14717180000001,-17.402008000000002],[-66.1471961,-17.401979100000002],[-66.1472339,-17.4019505],[-66.1472995,-17.401910700000002],[-66.1473653,-17.4018908],[-66.14741570000001,-17.4019018],[-66.14750570000001,-17.4018777],[-66.14756410000001,-17.401858],[-66.14763330000001,-17.4018178],[-66.1476868,-17.401763900000002],[-66.1477981,-17.401607100000003],[-66.1478917,-17.401321000000003],[-66.1479899,-17.400962500000002],[-66.14800340000001,-17.400894800000003],[-66.1480179,-17.4008307],[-66.1481961,-17.399952300000002],[-66.14821160000001,-17.399872900000002],[-66.14832290000001,-17.3993423],[-66.1483573,-17.399171600000003],[-66.14839450000001,-17.3989818],[-66.14849310000001,-17.398454700000002],[-66.148511,-17.398367800000003],[-66.1485231,-17.398308800000002],[-66.1486874,-17.3975094],[-66.1486986,-17.3974593],[-66.14871120000001,-17.3973963],[-66.1487809,-17.397047],[-66.14881580000001,-17.396872000000002],[-66.1488764,-17.396568300000002],[-66.1488961,-17.3964633],[-66.1489511,-17.3961794],[-66.1489617,-17.3961286],[-66.1490339,-17.395780900000002],[-66.14915570000001,-17.3951858],[-66.149167,-17.395129200000003],[-66.1491829,-17.395060400000002],[-66.1492372,-17.394778300000002],[-66.1493039,-17.394431500000003],[-66.1493561,-17.3941416],[-66.1493544,-17.394092500000003],[-66.1493561,-17.394017700000003],[-66.1495434,-17.393104800000003],[-66.14955570000001,-17.393052200000003],[-66.1495696,-17.3929855],[-66.1497525,-17.3920777],[-66.1497628,-17.3920265],[-66.14977370000001,-17.391967400000002],[-66.1498584,-17.3915058],[-66.14993820000001,-17.391094000000002],[-66.14995180000001,-17.391033500000002],[-66.14996670000001,-17.3909479],[-66.14997810000001,-17.390874],[-66.15009660000001,-17.390268900000002],[-66.15018280000001,-17.3898291],[-66.1501946,-17.3897684],[-66.15025340000001,-17.389679],[-66.1502971,-17.3894661],[-66.1504185,-17.3888752],[-66.1504324,-17.3888061],[-66.1504479,-17.388726300000002],[-66.1505623,-17.388206200000003],[-66.1506379,-17.387748400000003],[-66.1506511,-17.387696700000003],[-66.15068430000001,-17.3875092],[-66.15071900000001,-17.387353700000002],[-66.1507318,-17.387296900000003],[-66.15088890000001,-17.3866008],[-66.1508979,-17.3865461],[-66.1509087,-17.386498600000003],[-66.15109310000001,-17.3855979],[-66.15110890000001,-17.385506600000003],[-66.15116540000001,-17.3852221],[-66.15124180000001,-17.385236300000003],[-66.15125760000001,-17.385239400000003],[-66.15137920000001,-17.3852629],[-66.1516692,-17.3848908],[-66.1520139,-17.3844485],[-66.1522305,-17.3841655],[-66.1523557,-17.384001],[-66.15259830000001,-17.3836821],[-66.1526163,-17.383658500000003],[-66.15267220000001,-17.383585200000002],[-66.15286850000001,-17.3833273],[-66.1532798,-17.3827871],[-66.15332280000001,-17.382730900000002],[-66.1533799,-17.382750100000003],[-66.1544073,-17.3831081],[-66.15444140000001,-17.383120100000003],[-66.1545013,-17.383140500000003],[-66.15455510000001,-17.3831577],[-66.15485050000001,-17.3832519],[-66.1554912,-17.383470300000003],[-66.1555527,-17.383495],[-66.15603,-17.382882300000002],[-66.156046,-17.3828618],[-66.1561734,-17.3826982],[-66.1564707,-17.3823165],[-66.15648180000001,-17.3822565],[-66.15673460000001,-17.381920200000003],[-66.15674750000001,-17.3818832],[-66.1567603,-17.3818331],[-66.15676710000001,-17.3817717],[-66.1567794,-17.3816965],[-66.156925,-17.380955],[-66.1569403,-17.380876100000002],[-66.15702,-17.3805069],[-66.15703330000001,-17.3804242],[-66.1570329,-17.3803398],[-66.1570327,-17.3802747],[-66.15703230000001,-17.3801744],[-66.15703160000001,-17.380025900000003],[-66.15705000000001,-17.379907900000003],[-66.15703570000001,-17.379124800000003],[-66.1570224,-17.3783914],[-66.1570188,-17.3781946],[-66.1570174,-17.3781195],[-66.1570796,-17.378116700000003],[-66.1576426,-17.3780748],[-66.1577493,-17.378067700000003],[-66.1583107,-17.3780304],[-66.1586024,-17.378011],[-66.1586329,-17.3780089],[-66.15921700000001,-17.377970100000002],[-66.15926950000001,-17.3779666],[-66.1593014,-17.3779645],[-66.1593801,-17.3779587],[-66.1594412,-17.3779542],[-66.16017280000001,-17.3778963],[-66.16031620000001,-17.37789],[-66.1603403,-17.377888900000002],[-66.1603997,-17.3778913],[-66.16046060000001,-17.377904],[-66.16085860000001,-17.3780152],[-66.1609389,-17.3780389],[-66.16097470000001,-17.378049400000002],[-66.1610775,-17.3780745],[-66.1611914,-17.378104200000003],[-66.1612862,-17.3781283],[-66.1613384,-17.378133400000003],[-66.16138480000001,-17.378131200000002],[-66.1616032,-17.378120600000003],[-66.16174090000001,-17.378114],[-66.16184750000001,-17.378117900000003],[-66.16195400000001,-17.3781332],[-66.162097,-17.378180500000003],[-66.16223450000001,-17.3782435],[-66.1623057,-17.3782889],[-66.1623308,-17.3783049],[-66.16239610000001,-17.3783621],[-66.1625016,-17.378446],[-66.1625298,-17.3784639],[-66.16256460000001,-17.378478700000002],[-66.1626243,-17.3785007],[-66.16267900000001,-17.3785127],[-66.1629159,-17.378564700000002],[-66.1630751,-17.378599700000002],[-66.1633049,-17.3786501],[-66.1635117,-17.378695500000003],[-66.16400390000001,-17.378810700000002],[-66.16431850000001,-17.3788844],[-66.16447930000001,-17.3789212],[-66.1649319,-17.379026900000003],[-66.16500020000001,-17.3790307],[-66.16506840000001,-17.3790242],[-66.16512870000001,-17.379009800000002],[-66.16519330000001,-17.378986700000002],[-66.16523090000001,-17.378953900000003],[-66.16527500000001,-17.378929600000003],[-66.1653235,-17.3789145],[-66.1653742,-17.3789094],[-66.1654249,-17.378914400000003],[-66.16545830000001,-17.378923500000003],[-66.1654915,-17.3789379],[-66.16552220000001,-17.3789568],[-66.1655496,-17.3789799],[-66.16557300000001,-17.3790066],[-66.165592,-17.3790364],[-66.1656061,-17.379068500000002],[-66.1656162,-17.3791087],[-66.16561730000001,-17.3791586],[-66.165609,-17.3792085],[-66.1655927,-17.3792557],[-66.165864,-17.379390200000003],[-66.16656370000001,-17.379690500000002],[-66.16732280000001,-17.3800236],[-66.16738790000001,-17.3800399],[-66.1674936,-17.380058100000003],[-66.16798650000001,-17.3801139],[-66.1683756,-17.380026700000002],[-66.1688987,-17.3799095],[-66.1689389,-17.3799005],[-66.16928990000001,-17.379821800000002],[-66.169385,-17.3797998],[-66.16944310000001,-17.379785400000003],[-66.1700053,-17.3796269],[-66.17012860000001,-17.3795922],[-66.1706786,-17.3794544],[-66.1707726,-17.3794328],[-66.1713021,-17.379310800000003],[-66.1719726,-17.3792671],[-66.17266240000001,-17.379230900000003],[-66.1737044,-17.3791675],[-66.1738031,-17.3791654],[-66.1744532,-17.3791268],[-66.17453350000001,-17.379109500000002],[-66.1747364,-17.379054800000002],[-66.17527890000001,-17.3790079],[-66.1753556,-17.379001300000002],[-66.1753997,-17.3793098],[-66.17540430000001,-17.3793423],[-66.1761398,-17.3793048],[-66.17616790000001,-17.3793034],[-66.1760436,-17.3782505],[-66.17600580000001,-17.377892300000003],[-66.1759318,-17.377157800000003],[-66.1758588,-17.376582300000003],[-66.1758533,-17.3764664],[-66.1758281,-17.3759412],[-66.17580650000001,-17.3751353],[-66.1757803,-17.374242600000002],[-66.1757786,-17.374183400000003],[-66.1757601,-17.373502400000003],[-66.1757585,-17.3734438],[-66.1757048,-17.371790200000003],[-66.17570230000001,-17.3717405],[-66.1757008,-17.3717118],[-66.1756964,-17.3716139],[-66.1756951,-17.371545],[-66.1756948,-17.3715288],[-66.1756912,-17.3714456],[-66.1756182,-17.369744],[-66.1756223,-17.369667200000002],[-66.1756421,-17.369253800000003],[-66.17564610000001,-17.3691701],[-66.1756527,-17.3690812],[-66.17569560000001,-17.3684154],[-66.1757202,-17.367964100000002],[-66.17571980000001,-17.3678536],[-66.1757077,-17.367737700000003],[-66.1756787,-17.3676268],[-66.1754131,-17.366797000000002],[-66.17538180000001,-17.3666877],[-66.17508810000001,-17.365743900000002],[-66.17505870000001,-17.3656764],[-66.17501410000001,-17.3655887],[-66.17495690000001,-17.365499200000002],[-66.17490570000001,-17.3654109],[-66.1748776,-17.3653471],[-66.17480900000001,-17.3650063],[-66.1748032,-17.364977600000003],[-66.17478820000001,-17.364904300000003],[-66.17476450000001,-17.3648425],[-66.17469270000001,-17.364719700000002],[-66.1746274,-17.3646184],[-66.1745422,-17.3644736],[-66.174384,-17.3642258],[-66.17420510000001,-17.3639453],[-66.1741755,-17.363890400000003],[-66.17415670000001,-17.3638556],[-66.17411940000001,-17.3637546],[-66.17409830000001,-17.3636923],[-66.1740651,-17.363625000000003],[-66.17362630000001,-17.3629041],[-66.17357990000001,-17.362874],[-66.1735168,-17.362847400000003],[-66.1734285,-17.362809700000003],[-66.1733748,-17.3627727],[-66.17333810000001,-17.362731],[-66.17330630000001,-17.362675900000003],[-66.17330000000001,-17.3626159],[-66.1732889,-17.3624443],[-66.1732705,-17.362381300000003],[-66.1732266,-17.3622786],[-66.1732046,-17.362242100000003],[-66.1729809,-17.361872],[-66.17293930000001,-17.361791800000002],[-66.1729026,-17.361721000000003],[-66.1728669,-17.3616241],[-66.17279040000001,-17.361396900000003],[-66.17268050000001,-17.361047900000003],[-66.17266090000001,-17.360985900000003],[-66.1726402,-17.3609118],[-66.1725342,-17.360572],[-66.1724209,-17.3602087],[-66.1724057,-17.360159900000003],[-66.1722483,-17.3596429],[-66.1722067,-17.359526300000002],[-66.1721754,-17.359466100000002],[-66.1721035,-17.3593714],[-66.1720646,-17.3593207],[-66.17199520000001,-17.359243600000003],[-66.1722036,-17.3591403],[-66.1722477,-17.3591173],[-66.17321310000001,-17.3586686],[-66.17479110000001,-17.3579401],[-66.1749872,-17.357837200000002],[-66.17442650000001,-17.3568643],[-66.1739295,-17.3559936],[-66.1734775,-17.355178600000002],[-66.17344340000001,-17.355115100000003],[-66.172973,-17.354229800000002],[-66.1724587,-17.3533589],[-66.1719752,-17.3524943],[-66.1716001,-17.351850600000002],[-66.17179750000001,-17.3517437],[-66.1724073,-17.351441400000002],[-66.1721761,-17.35096],[-66.171897,-17.350415700000003],[-66.17142510000001,-17.3495084],[-66.17136140000001,-17.3494157],[-66.1707023,-17.348527],[-66.1699983,-17.3475988],[-66.1699797,-17.3475743],[-66.169618,-17.347097],[-66.16910990000001,-17.346404000000003],[-66.16853180000001,-17.346780900000002]]}}},{"type":"Feature","properties":{"bus":"yes","highway":"bus_stop","name":"Parada Trufi 122","public_transport":"platform","id":9159978618},"geometry":{"type":"Point","coordinates":[-66.1410274,-17.4761251]}},{"type":"Feature","properties":{"bench":"no","bin":"no","bus":"yes","departures_board":"no","highway":"bus_stop","kerb":"raised","level":"0","lit":"no","name":"Austria","operator":"Administradora Boliviana de Carreteras","operator:short":"ABC","operator:type":"public","public_transport":"platform","shelter":"no","tactile_paving":"no","wheelchair":"no","id":6733961584},"geometry":{"type":"Point","coordinates":[-66.12931520000001,-17.4513098]}},{"type":"Feature","properties":{"bench":"no","bin":"no","bus":"yes","departures_board":"no","highway":"bus_stop","kerb":"raised","level":"0","lit":"no","name":"Montevideo","public_transport":"platform","shelter":"no","tactile_paving":"no","wheelchair":"no","id":7904043766},"geometry":{"type":"Point","coordinates":[-66.1392545,-17.4445255]}},{"type":"Feature","properties":{"bench":"no","bin":"no","bus":"yes","departures_board":"no","highway":"bus_stop","name":"Aroma","operator":"Gobierno Autónomo Municipal de Cochabamba","operator:type":"government","public_transport":"platform","shelter":"no","id":6546789718},"geometry":{"type":"Point","coordinates":[-66.1484034,-17.398620100000002]}},{"type":"Feature","properties":{"bench":"no","bin":"no","bus":"yes","departures_board":"no","highway":"bus_stop","lit":"no","name":"Mariano Ricardo Terrazas","pole":"yes","public_transport":"platform","shelter":"no","id":8614087733},"geometry":{"type":"Point","coordinates":[-66.14880720000001,-17.396606000000002]}},{"type":"Feature","properties":{"bench":"yes","bin":"no","bus":"yes","departures_board":"no","highway":"bus_stop","kerb":"raised","level":"0","lit":"no","name":"Jordán","operator":"Gobierno Autónomo Municipal de Cochabamba","pole":"yes","public_transport":"platform","shelter":"yes","tactile_paving":"no","wheelchair":"no","id":6546789737},"geometry":{"type":"Point","coordinates":[-66.1492786,-17.3942543]}},{"type":"Feature","properties":{"bench":"no","bin":"no","bus":"yes","departures_board":"no","highway":"bus_stop","kerb":"raised","level":"0","lit":"no","name":"Heroínas","operator":"Gobierno Autónomo Municipal de Cochabamba","operator:short":"GAMC","operator:type":"government","operator:wikidata":"Q124635344","pole":"yes","public_transport":"platform","shelter":"no","tactile_paving":"no","traffic_sign":"yes","wheelchair":"no","id":4868993435},"geometry":{"type":"Point","coordinates":[-66.1498749,-17.3911373]}},{"type":"Feature","properties":{"bench":"no","bin":"no","bus":"yes","departures_board":"no","highway":"bus_stop","lit":"no","name":"Colombia","operator":"Gobierno Autónomo Municipal de Cochabamba","pole":"yes","public_transport":"platform","shelter":"no","tactile_paving":"no","traffic_sign":"yes","id":6285093143},"geometry":{"type":"Point","coordinates":[-66.1501164,-17.389920200000002]}},{"type":"Feature","properties":{"bench":"no","bin":"no","bus":"yes","highway":"bus_stop","kerb":"raised","lit":"no","name":"Paccieri","operator":"Gobierno Autónomo Municipal de Cochabamba","pole":"yes","public_transport":"platform","shelter":"no","tactile_paving":"no","wheelchair":"no","id":5368460671},"geometry":{"type":"Point","coordinates":[-66.1509839,-17.3856149]}},{"type":"Feature","properties":{"bench":"no","bin":"no","bus":"yes","departures_board":"no","highway":"bus_stop","informal":"yes","kerb":"raised","lit":"no","name":"Antezana","public_transport":"platform","shelter":"no","tactile_paving":"no","wheelchair":"no","id":9612259299},"geometry":{"type":"Point","coordinates":[-66.1555294,-17.383414900000002]}},{"type":"Feature","properties":{"bench":"yes","bin":"no","bus":"yes","departures_board":"no","highway":"bus_stop","kerb":"raised","level":"0","lit":"no","name":"Libertador Simón Bolívar","operator":"Gobierno Autónomo Municipal de Cochabamba","public_transport":"platform","shelter":"yes","tactile_paving":"no","wheelchair":"no","id":2384907362},"geometry":{"type":"Point","coordinates":[-66.16069250000001,-17.3779213]}},{"type":"Feature","properties":{"addr:city":"Cochabamba","bench":"no","bus":"yes","covered":"no","departures_board":"no","highway":"bus_stop","name":"Parada 122","operator":"Sindicato Ciudad de Cochabamba","public_transport":"platform","shelter":"no","id":2317720986},"geometry":{"type":"Point","coordinates":[-66.1685413,-17.3467091]}},{"type":"Feature","properties":{"bench":"no","bin":"no","bus":"yes","departures_board":"no","highway":"bus_stop","level":"0","lit":"no","name":"16 de Julio","operator":"Gobierno Autónomo Municipal de Cochabamba","public_transport":"platform","shelter":"no","wheelchair":"no","id":11815826545},"geometry":{"type":"Point","coordinates":[-66.15440290000001,-17.383056]}},{"type":"Feature","properties":{"bench":"no","bin":"no","bus":"yes","departures_board":"no","highway":"bus_stop","informal":"yes","level":"0","lit":"yes","name":"Melchor Perez de Olguín","operator":"Gobierno Autónomo Municipal de Cochabamba","operator:short":"GAMC","operator:type":"government","public_transport":"platform","shelter":"no","tactile_paving":"no","wheelchair":"no","id":12075820993},"geometry":{"type":"Point","coordinates":[-66.1760431,-17.379284100000003]}}]}