{"type":"FeatureCollection","features":[{"type":"Feature","properties":{"bicycle":"no","check_date":"29/12/2025","from":"Avenida Eliodoro Villazón","name":"MicroBus 220: Avenida Eliodoro Villazón → Calle Eric Asplund","network":"BO:CB:Cochabamba","on_demand":"yes","operator":"Sindicato mixto de transportistas Santa Rosa de Lima","public_transport:version":"2","ref":"220","roundtrip":"no","route":"bus","to":"Calle Eric Asplund","type":"route","wheelchair":"no","id":9458460},"geometry":{"type":"LineString","coordinates":[[-66.0444234,-17.4019183],[-66.0445888,-17.4022924],[-66.0446312,-17.4023629],[-66.0447007,-17.4023334],[-66.0451178,-17.4021564],[-66.0452196,-17.4020688],[-66.045791,-17.4018198],[-66.0458551,-17.4017919],[-66.0459232,-17.4017622],[-66.046146,-17.4016652],[-66.0475858,-17.4010396],[-66.0490814,-17.4003863],[-66.0495338,-17.4001878],[-66.0495774,-17.4001561],[-66.0496091,-17.4001052],[-66.0496242,-17.400058],[-66.04962,-17.3999973],[-66.0495627,-17.3998158],[-66.0495296,-17.3997003],[-66.0495226,-17.399654],[-66.049524,-17.3996115],[-66.0495535,-17.3995501],[-66.0495776,-17.3995255],[-66.0496203,-17.3995069],[-66.0496666,-17.3994968],[-66.0497133,-17.3994983],[-66.0497403,-17.3995132],[-66.0497761,-17.3995329],[-66.0498642,-17.3995872],[-66.0504956,-17.3995157],[-66.0506926,-17.3994866],[-66.0509268,-17.3994266],[-66.0509972,-17.3994086],[-66.051114,-17.3993686],[-66.0514231,-17.3992627],[-66.0519831,-17.3990838],[-66.0522284,-17.3989828],[-66.0522836,-17.3989601],[-66.0524942,-17.3988559],[-66.0527431,-17.3987126],[-66.0529757,-17.398569],[-66.0535058,-17.3982424],[-66.0535801,-17.3981971],[-66.0536516,-17.3981576],[-66.0538193,-17.3980554],[-66.0545955,-17.3975864],[-66.0547149,-17.3975095],[-66.0551652,-17.3972358],[-66.0555916,-17.3969644],[-66.0558583,-17.3968073],[-66.0561214,-17.3966236],[-66.0567891,-17.3961979],[-66.0574423,-17.3958313],[-66.0578983,-17.3955959],[-66.0580619,-17.3954986],[-66.0591133,-17.3948485],[-66.0593894,-17.3946958],[-66.0595624,-17.3945889],[-66.0599099,-17.394375],[-66.0603828,-17.3941032],[-66.0607787,-17.3939093],[-66.0611288,-17.3937164],[-66.0613148,-17.3936277],[-66.0615427,-17.3935389],[-66.0619225,-17.3934356],[-66.0619582,-17.3934261],[-66.0620173,-17.39341],[-66.062589,-17.3932704],[-66.0626431,-17.3932594],[-66.0627289,-17.393242],[-66.0632059,-17.3931451],[-66.0634217,-17.3930969],[-66.0637137,-17.3930577],[-66.0640936,-17.3930373],[-66.0645756,-17.3929437],[-66.0652275,-17.3928029],[-66.0656449,-17.3927177],[-66.0659676,-17.3926534],[-66.0667051,-17.3925064],[-66.0674263,-17.3923587],[-66.0674677,-17.3923502],[-66.0679532,-17.3922544],[-66.0681979,-17.3922036],[-66.0688071,-17.3920704],[-66.0691034,-17.3920073],[-66.0694195,-17.3919399],[-66.0701567,-17.3917856],[-66.0710448,-17.3916163],[-66.0722361,-17.3913788],[-66.0737974,-17.3910444],[-66.0738847,-17.3910271],[-66.0741326,-17.3909712],[-66.0746708,-17.3908149],[-66.074837,-17.3907698],[-66.0750865,-17.390726],[-66.0754156,-17.3906596],[-66.0754825,-17.3906461],[-66.0755826,-17.3906245],[-66.0757982,-17.3905782],[-66.0758646,-17.3905643],[-66.076533,-17.3904238],[-66.0768302,-17.3903769],[-66.0770707,-17.3903531],[-66.0772479,-17.3903355],[-66.0774177,-17.3903076],[-66.0780455,-17.3901832],[-66.0802003,-17.3897314],[-66.0803046,-17.3897147],[-66.0820898,-17.3893414],[-66.0823607,-17.3892907],[-66.0830522,-17.3891565],[-66.0833489,-17.3890954],[-66.0837257,-17.3889837],[-66.0840269,-17.388896],[-66.0841533,-17.3888665],[-66.0844998,-17.3888],[-66.0846441,-17.3887723],[-66.0847114,-17.3887594],[-66.0848268,-17.3887348],[-66.0850356,-17.3886902],[-66.0851369,-17.3886678],[-66.0852396,-17.3886451],[-66.0857666,-17.3885287],[-66.0860536,-17.3884849],[-66.0865939,-17.3884269],[-66.0871412,-17.3883204],[-66.0872698,-17.388294],[-66.0903304,-17.3876657],[-66.0935805,-17.3870065],[-66.0947777,-17.3867611],[-66.0956062,-17.3865942],[-66.0957268,-17.3865699],[-66.0959866,-17.3865176],[-66.0964055,-17.386431],[-66.0967278,-17.3863544],[-66.0971243,-17.3862373],[-66.0975613,-17.3861427],[-66.0979755,-17.3860531],[-66.0982907,-17.3859849],[-66.0988417,-17.3858656],[-66.0992957,-17.3857741],[-66.0995342,-17.3857474],[-66.0998677,-17.385717],[-66.1007361,-17.3855545],[-66.1012826,-17.3854502],[-66.101487,-17.3854052],[-66.1016661,-17.3853729],[-66.1020273,-17.3852949],[-66.1034053,-17.3849957],[-66.1047381,-17.3847303],[-66.1055811,-17.384561],[-66.1068161,-17.3843111],[-66.1083892,-17.3840101],[-66.1088729,-17.383911],[-66.1091326,-17.3838559],[-66.1093003,-17.3838204],[-66.1097063,-17.3837391],[-66.1101186,-17.3836571],[-66.1105542,-17.3835704],[-66.1116279,-17.383347],[-66.1126926,-17.3831087],[-66.1137366,-17.3828918],[-66.1147412,-17.3826937],[-66.1160937,-17.3824299],[-66.1166355,-17.3823204],[-66.1167504,-17.3822972],[-66.1172233,-17.382195],[-66.1178158,-17.3820392],[-66.1182674,-17.3819014],[-66.1185475,-17.381807],[-66.1187728,-17.3817198],[-66.1192818,-17.3815036],[-66.1195037,-17.38141],[-66.119997,-17.3811668],[-66.1202601,-17.3810155],[-66.1208017,-17.3806715],[-66.1208417,-17.3806461],[-66.1216824,-17.3800861],[-66.1217698,-17.3800293],[-66.1218317,-17.3799878],[-66.1221658,-17.3797745],[-66.1224305,-17.3795986],[-66.1224694,-17.3795763],[-66.122742,-17.3793899],[-66.1236093,-17.3788174],[-66.1242133,-17.3784409],[-66.12471,-17.3781074],[-66.1253598,-17.3776556],[-66.1257746,-17.377356],[-66.1269581,-17.3765211],[-66.1270244,-17.376476],[-66.1271995,-17.3763545],[-66.1275504,-17.3761126],[-66.1279626,-17.3758313],[-66.1281352,-17.37571],[-66.1282882,-17.3756033],[-66.1288149,-17.3752302],[-66.1288741,-17.375188],[-66.128931,-17.3751503],[-66.1289543,-17.3751348],[-66.1289841,-17.3751153],[-66.128987,-17.3750586],[-66.1289921,-17.375002],[-66.1289882,-17.3749174],[-66.1289827,-17.3748705],[-66.1289651,-17.3747618],[-66.1289633,-17.374751],[-66.1288784,-17.3742397],[-66.1288174,-17.3737855],[-66.1288109,-17.3737372],[-66.1287959,-17.3736021],[-66.1287924,-17.3735624],[-66.1287806,-17.373469],[-66.1288718,-17.3734559],[-66.1289804,-17.3734272],[-66.1290673,-17.3733898],[-66.1291753,-17.3733341],[-66.1293134,-17.3732714],[-66.1294557,-17.3732223],[-66.1295565,-17.3732012],[-66.129686,-17.3731739],[-66.1298501,-17.3731449],[-66.1303179,-17.3731127],[-66.1306023,-17.3730894],[-66.1307793,-17.373061],[-66.1309291,-17.3730212],[-66.1310179,-17.3729845],[-66.1314812,-17.3727838],[-66.1316193,-17.3727343],[-66.1318136,-17.3726612],[-66.1319085,-17.372646],[-66.1329231,-17.3723571],[-66.1330304,-17.37233],[-66.1331659,-17.3723128],[-66.1332925,-17.3723089],[-66.1333772,-17.3723184],[-66.1335092,-17.3723479],[-66.1336915,-17.3723819],[-66.1341207,-17.3724619],[-66.1341739,-17.3724718],[-66.1342413,-17.3724859],[-66.1347484,-17.3725916],[-66.1350955,-17.3726555],[-66.1351615,-17.3726676],[-66.1352161,-17.3726819],[-66.1355236,-17.372736],[-66.1356936,-17.3727606],[-66.1358009,-17.3727624],[-66.1358677,-17.3727603],[-66.1359713,-17.372756],[-66.1360713,-17.3727463],[-66.1361302,-17.3727406],[-66.1362225,-17.3727317],[-66.1364442,-17.3727058],[-66.1365705,-17.3726845],[-66.1366185,-17.3726721],[-66.1366865,-17.3726538],[-66.1367319,-17.3726376],[-66.1367986,-17.3727325],[-66.1368269,-17.3727815],[-66.1368693,-17.3728583],[-66.1368948,-17.3729174],[-66.136906,-17.3729586],[-66.1369073,-17.3730029],[-66.136881,-17.3732055],[-66.13684,-17.3734719],[-66.1368439,-17.3735544],[-66.1368742,-17.373674],[-66.1369629,-17.3739679],[-66.136975,-17.3739775],[-66.1370259,-17.3739669],[-66.1370767,-17.3739665],[-66.1371628,-17.3739898],[-66.1372619,-17.3740157],[-66.1373665,-17.3740291],[-66.1377544,-17.3740075],[-66.1379938,-17.3739923],[-66.138031,-17.3739897],[-66.1380655,-17.3739873],[-66.1387982,-17.3739417],[-66.1388403,-17.3739389],[-66.1396726,-17.3738852],[-66.1397715,-17.3738792],[-66.1405964,-17.3738295],[-66.1416003,-17.373772],[-66.1422624,-17.3737346],[-66.1423298,-17.3737222],[-66.1424276,-17.3736928],[-66.1424961,-17.3736651],[-66.1426187,-17.3736122],[-66.142654,-17.3735557],[-66.1426742,-17.3735322],[-66.1427001,-17.3735067],[-66.1427463,-17.3734725],[-66.1427978,-17.3734461],[-66.1428532,-17.373428],[-66.1429065,-17.3734193],[-66.1429606,-17.3734184],[-66.1430141,-17.3734253],[-66.143066,-17.3734399],[-66.1431441,-17.3734795],[-66.1432095,-17.3735363],[-66.1432581,-17.3736067],[-66.1433648,-17.3736706],[-66.1434091,-17.3736789],[-66.143743,-17.373666],[-66.1438154,-17.3736615],[-66.1443457,-17.3736292],[-66.1445029,-17.3736196],[-66.1445734,-17.3736163],[-66.1446097,-17.3736146],[-66.1456453,-17.3735474],[-66.1458534,-17.3735342],[-66.1459105,-17.3735302],[-66.1466176,-17.3734812],[-66.1467391,-17.3734727],[-66.1468978,-17.3734617],[-66.1470447,-17.3734515],[-66.14716,-17.3734435],[-66.1477354,-17.3734036],[-66.1485729,-17.3733532],[-66.1491709,-17.3733174],[-66.1493762,-17.3733059],[-66.1494179,-17.3732966],[-66.1494654,-17.3732778],[-66.1494829,-17.373254],[-66.1495055,-17.3732341],[-66.1495291,-17.3732207],[-66.1495551,-17.3732119],[-66.1495828,-17.3732079],[-66.1496169,-17.3732102],[-66.14965,-17.3732204],[-66.1496795,-17.3732379],[-66.1497031,-17.3732611],[-66.1497561,-17.3732748],[-66.1497987,-17.3732787],[-66.1505133,-17.3732341],[-66.1509548,-17.3732066],[-66.1510593,-17.3732],[-66.1511738,-17.373193],[-66.1512083,-17.3731909],[-66.1514426,-17.3731741],[-66.1524613,-17.373111],[-66.1534191,-17.3730516],[-66.1535724,-17.3730421],[-66.1536725,-17.3730353],[-66.1537516,-17.3730299],[-66.1537745,-17.3730284],[-66.1546202,-17.3729792],[-66.1546879,-17.3729757],[-66.1547572,-17.3729707],[-66.1547911,-17.3729683],[-66.1564764,-17.3728483],[-66.156552,-17.3728389],[-66.1565694,-17.3727842],[-66.1565973,-17.3727336],[-66.1566347,-17.3726889],[-66.1566802,-17.3726517],[-66.1567322,-17.3726232],[-66.1567699,-17.3726096],[-66.1568092,-17.3726006],[-66.1568493,-17.3725972],[-66.1569111,-17.3726043],[-66.1569703,-17.3726229],[-66.1570244,-17.3726523],[-66.1570714,-17.3726913],[-66.1571094,-17.3727384],[-66.1571284,-17.3727719],[-66.1571471,-17.3728227],[-66.1571538,-17.3728762],[-66.1571481,-17.3729298],[-66.157128,-17.3729915],[-66.1570942,-17.3730475],[-66.1570483,-17.3730951],[-66.1569993,-17.3731282],[-66.1569358,-17.3731547],[-66.1568749,-17.3731659],[-66.1568835,-17.3734259],[-66.1568939,-17.3738764],[-66.1569051,-17.3742412],[-66.1569136,-17.3745156],[-66.156915,-17.3748036],[-66.156918,-17.37488],[-66.1569207,-17.374959],[-66.156923,-17.3750577],[-66.1569255,-17.3751091],[-66.1569368,-17.3755094],[-66.1569628,-17.3763095],[-66.1569647,-17.376371],[-66.1569655,-17.3764221],[-66.156977,-17.3769453],[-66.1569782,-17.3770234],[-66.1569803,-17.3770764],[-66.1570123,-17.3780292],[-66.1570174,-17.3781195],[-66.1570796,-17.3781167],[-66.1576426,-17.3780748],[-66.1577493,-17.3780677],[-66.1583107,-17.3780304],[-66.1586024,-17.378011],[-66.1586329,-17.3780089],[-66.159217,-17.3779701],[-66.1593014,-17.3779645],[-66.1593801,-17.3779587],[-66.1594412,-17.3779542],[-66.1601728,-17.3778963],[-66.1603162,-17.37789],[-66.1603403,-17.3778889],[-66.1603997,-17.3778913],[-66.1604606,-17.377904],[-66.1608586,-17.3780152],[-66.1609747,-17.3780494],[-66.1610775,-17.3780745],[-66.1610462,-17.3781873],[-66.1610272,-17.3782558],[-66.1609592,-17.3784883],[-66.1609424,-17.3785457],[-66.1608112,-17.3789943],[-66.1607831,-17.3790903],[-66.1607443,-17.3792232],[-66.1604215,-17.3803268],[-66.1603952,-17.3804271],[-66.1603946,-17.380447],[-66.1603903,-17.3805384],[-66.1604026,-17.3806234],[-66.1604292,-17.3807053],[-66.160446,-17.3807533],[-66.1604502,-17.3808037],[-66.1604418,-17.3808536],[-66.1604211,-17.3809001],[-66.1603894,-17.3809406],[-66.1603483,-17.3810263],[-66.1603242,-17.3810949],[-66.1603011,-17.3811631],[-66.1602836,-17.3812089],[-66.1602648,-17.3812714],[-66.1602553,-17.381306],[-66.1601491,-17.3816632],[-66.1601392,-17.381699],[-66.160118,-17.3817783],[-66.1601068,-17.3818443],[-66.1600997,-17.3819171],[-66.1601024,-17.3820084],[-66.160124,-17.3821361],[-66.1601469,-17.3822132],[-66.1601468,-17.3822926],[-66.1601403,-17.382329],[-66.1601337,-17.3823653],[-66.1601052,-17.3824327],[-66.1600491,-17.3824933],[-66.1599485,-17.3825638],[-66.1598111,-17.3826671],[-66.1597435,-17.3827412],[-66.1596513,-17.3828653],[-66.1596135,-17.3829447],[-66.1595022,-17.3830911],[-66.1593386,-17.3833062],[-66.1593007,-17.383356],[-66.1591066,-17.3836114],[-66.1589959,-17.383757],[-66.1588865,-17.3839009],[-66.1588472,-17.3839526],[-66.1588041,-17.3840085],[-66.1587884,-17.3840289],[-66.1586145,-17.3842548],[-66.1584148,-17.384514],[-66.1583937,-17.3845414],[-66.1583738,-17.3845669],[-66.1582879,-17.3846768],[-66.1580811,-17.3849472],[-66.1579708,-17.3850718],[-66.1579598,-17.3850858],[-66.1579357,-17.3851178],[-66.1578614,-17.3852154],[-66.1577607,-17.3853388],[-66.1575084,-17.3856628],[-66.1568608,-17.38651],[-66.1567872,-17.3866071],[-66.1568384,-17.3866422],[-66.1575918,-17.3869932],[-66.1576501,-17.3870048],[-66.1577375,-17.3870171],[-66.1586202,-17.387137],[-66.1587007,-17.387146],[-66.1587433,-17.387153],[-66.1598506,-17.3873411],[-66.1599197,-17.3873512],[-66.1607699,-17.3875037],[-66.1608537,-17.3875198],[-66.1609408,-17.3875334],[-66.1613999,-17.3876049],[-66.1619575,-17.3876918],[-66.162025,-17.3877024],[-66.1620816,-17.3877126],[-66.1627663,-17.3878335],[-66.1628286,-17.3878447],[-66.1628914,-17.3878546],[-66.1631828,-17.387904],[-66.1637337,-17.3879975],[-66.1637673,-17.3879902],[-66.1637957,-17.3879805],[-66.1638795,-17.3879509],[-66.163953,-17.387925],[-66.164177,-17.387846],[-66.1643272,-17.3877922],[-66.1643848,-17.3877711],[-66.1644441,-17.3877488],[-66.1645162,-17.3877208],[-66.1648578,-17.3875809],[-66.1649018,-17.3875643],[-66.164924,-17.3875552],[-66.1650363,-17.3875237],[-66.1655829,-17.3873123],[-66.1657108,-17.3872507],[-66.1657931,-17.3871905],[-66.1658953,-17.3870972],[-66.1659533,-17.3870258],[-66.1659986,-17.3869648],[-66.1661071,-17.3868187],[-66.1663218,-17.3865558],[-66.1665707,-17.3862431],[-66.1666104,-17.3861957],[-66.1670888,-17.3856646],[-66.1675962,-17.3850394],[-66.168338,-17.3841414],[-66.1684906,-17.3839992],[-66.1686087,-17.3839101],[-66.1687242,-17.3838415],[-66.1690317,-17.3836671],[-66.1692719,-17.3835371],[-66.1693484,-17.3834931],[-66.1695477,-17.3834035],[-66.1695518,-17.3833987],[-66.1695561,-17.3833941],[-66.1695931,-17.3833663],[-66.1696373,-17.3833509],[-66.1696843,-17.3833493],[-66.1697296,-17.3833616],[-66.1697411,-17.3833673],[-66.1697836,-17.3834021],[-66.1698098,-17.3834494],[-66.169816,-17.3835025],[-66.1698014,-17.3835541],[-66.169797,-17.3835622],[-66.1697821,-17.3836582],[-66.1697636,-17.3837505],[-66.1697503,-17.3838437],[-66.1697423,-17.3839374],[-66.1697396,-17.3840314],[-66.1698097,-17.3843673],[-66.1700096,-17.3853754],[-66.1700272,-17.3854642],[-66.1700451,-17.3855502],[-66.1700773,-17.3857043],[-66.1700915,-17.3857726],[-66.1701502,-17.3858683],[-66.1702505,-17.3863562],[-66.1703852,-17.3870117],[-66.1704819,-17.3874454],[-66.1705034,-17.3875049],[-66.1705393,-17.3875598],[-66.1706488,-17.3877039],[-66.1706686,-17.3877262],[-66.1706841,-17.3877513],[-66.1706953,-17.3877793],[-66.1707014,-17.3878086],[-66.1707023,-17.3878384],[-66.1706962,-17.3878768],[-66.1706787,-17.3879153],[-66.1706552,-17.3879459],[-66.1706332,-17.3879657],[-66.1705861,-17.3880455],[-66.170576,-17.3880765],[-66.1705659,-17.3881075],[-66.1705579,-17.3881811],[-66.170568,-17.3888256],[-66.1705932,-17.3895269],[-66.1705942,-17.3895745],[-66.170602,-17.3899538],[-66.1706029,-17.3900058],[-66.1706042,-17.3900614],[-66.1706053,-17.3901173],[-66.1706154,-17.3906075],[-66.1706166,-17.3906646],[-66.1706322,-17.3912321],[-66.1706332,-17.3913963],[-66.1706443,-17.3921179],[-66.170648,-17.3921944],[-66.1706589,-17.3922576],[-66.1706764,-17.392854],[-66.1706963,-17.3936412],[-66.1707008,-17.3937272],[-66.1707334,-17.3937374],[-66.1707636,-17.3937528],[-66.1707906,-17.3937729],[-66.1708136,-17.3937971],[-66.1708318,-17.3938247],[-66.1708448,-17.3938549],[-66.1708522,-17.3938868],[-66.1708537,-17.3939195],[-66.1708493,-17.3939519],[-66.1708391,-17.393983],[-66.1708234,-17.3940121],[-66.1708028,-17.3940381],[-66.1707777,-17.3940604],[-66.1707491,-17.3940782],[-66.1707177,-17.394089],[-66.1706843,-17.3940986],[-66.1706885,-17.3942241],[-66.1707092,-17.3947161],[-66.170711,-17.3947584],[-66.1707132,-17.394804],[-66.170742,-17.3953917],[-66.170744,-17.3954384],[-66.1707503,-17.3955851],[-66.1707691,-17.3960207],[-66.1707764,-17.3961509],[-66.1707885,-17.3964634],[-66.1707891,-17.3964782],[-66.1707935,-17.3965547],[-66.1707553,-17.3966302],[-66.1707612,-17.3967643],[-66.1704274,-17.3971944],[-66.170368,-17.3972862],[-66.1703281,-17.3973611],[-66.1700963,-17.3978116],[-66.1698672,-17.3982544],[-66.1698367,-17.3983035],[-66.1699162,-17.3983442],[-66.1704348,-17.3986278],[-66.1710027,-17.3989349],[-66.1715764,-17.3992479],[-66.1720812,-17.3995283],[-66.1722011,-17.3995454],[-66.1721012,-17.399709],[-66.1720486,-17.3997914],[-66.1719697,-17.3999305],[-66.1719277,-17.4000203],[-66.1719237,-17.4001081],[-66.1719872,-17.4004028],[-66.1720359,-17.4006194],[-66.172069,-17.4007246],[-66.1722111,-17.4011091],[-66.1722574,-17.4011956],[-66.1723479,-17.4012547],[-66.1726207,-17.4013997],[-66.1727372,-17.4014616],[-66.1728703,-17.4015324],[-66.1729793,-17.4015902],[-66.1730882,-17.4016481],[-66.1735714,-17.4019035],[-66.1741942,-17.4022511],[-66.1742217,-17.4022664],[-66.1743012,-17.4022931],[-66.1743116,-17.4022821],[-66.174324,-17.4022731],[-66.1743848,-17.4022151],[-66.1745129,-17.4021069],[-66.1747562,-17.4018884],[-66.1750138,-17.4015935],[-66.1751405,-17.4014471],[-66.1752908,-17.4012575],[-66.1756483,-17.4008411],[-66.175734,-17.4009042],[-66.1753875,-17.4013154],[-66.176355,-17.4018338],[-66.177402,-17.4023978],[-66.1774889,-17.4024446],[-66.1775818,-17.4023997],[-66.1781866,-17.4020822],[-66.1788618,-17.4017249],[-66.1789754,-17.4016398],[-66.179083,-17.401548],[-66.1791837,-17.4014493],[-66.1792646,-17.4013588],[-66.1792721,-17.4013441],[-66.1793015,-17.4013018],[-66.1793266,-17.4012788],[-66.179356,-17.401261],[-66.1793933,-17.4012481],[-66.1794227,-17.4012431],[-66.1794575,-17.4012438],[-66.1795183,-17.4012495],[-66.1795372,-17.4012614],[-66.1796075,-17.4012621],[-66.1797107,-17.401256],[-66.179813,-17.4012417],[-66.1799146,-17.4012205],[-66.1804371,-17.4009828],[-66.1807739,-17.4008565],[-66.1812549,-17.4006969],[-66.1819846,-17.400492],[-66.1824099,-17.400392],[-66.1826304,-17.4003436],[-66.1824426,-17.3996393],[-66.1824175,-17.3995433],[-66.1823797,-17.3994114],[-66.1820701,-17.3983238],[-66.1820506,-17.3982528],[-66.1819153,-17.3977473],[-66.1818973,-17.39768],[-66.1818788,-17.3976151],[-66.1816975,-17.39698],[-66.1816321,-17.3967177],[-66.1815381,-17.3963993],[-66.1815163,-17.3963255],[-66.1814887,-17.3962532],[-66.1816401,-17.3962469],[-66.1818534,-17.3962397],[-66.1825446,-17.3962259],[-66.1832139,-17.3962111],[-66.1839346,-17.3961958],[-66.1844878,-17.3961893],[-66.1847642,-17.396186],[-66.1848172,-17.3961794],[-66.1848662,-17.3961654],[-66.1848967,-17.3961566],[-66.1850171,-17.3961234],[-66.1850449,-17.3960894],[-66.1850716,-17.3960688],[-66.185102,-17.3960536],[-66.1851349,-17.3960443],[-66.1851691,-17.3960412],[-66.1852032,-17.3960446],[-66.185236,-17.3960543],[-66.1852662,-17.3960699],[-66.185291,-17.3960892],[-66.185341,-17.3961035],[-66.1854178,-17.3961198],[-66.1855083,-17.3961318],[-66.1869211,-17.3963195],[-66.1875657,-17.3964076],[-66.1876619,-17.3964215],[-66.1882037,-17.3965022],[-66.1887562,-17.3965676],[-66.1888016,-17.3965728],[-66.1892568,-17.3966255],[-66.1893644,-17.396638],[-66.1897803,-17.3966629],[-66.1905166,-17.3966948],[-66.1911948,-17.3967256],[-66.1911414,-17.395679],[-66.1910701,-17.3944578],[-66.1919336,-17.3944248],[-66.1932448,-17.3943715],[-66.1933217,-17.3943441],[-66.1933224,-17.39427],[-66.1932843,-17.3941389],[-66.1938332,-17.394187],[-66.1944613,-17.3942359],[-66.1948148,-17.3956537],[-66.1948383,-17.3957396],[-66.1951304,-17.3957121],[-66.195532,-17.3956742],[-66.1956084,-17.3957023],[-66.1957958,-17.3956732],[-66.1957405,-17.3952911],[-66.1956023,-17.3944822],[-66.1962296,-17.3943634],[-66.1963852,-17.395195],[-66.1964195,-17.3953683],[-66.1964656,-17.3956248],[-66.1965318,-17.3959929],[-66.1965932,-17.3963795]],"nodes":[1544966470,4265533923,497150789,4265533925,4265533922,1544966525,6913302610,6601249002,6913302611,1544966317,1544965971,8304826337,1544965815,4265533884,1544965810,1544965739,1544965704,497147679,1544965652,12512863009,1544965625,1544965594,12512656416,3839755179,1544965572,1544965564,12588089881,1544965588,497147705,3839755178,497147712,11081223539,1544965517,12512862902,4067009931,497147725,12512862991,3839755183,497147728,12512656396,3839755190,6301185915,1545731175,5276246606,497147731,497147734,3764806757,5158314412,2320095710,497147737,7352860819,2320095709,497147741,3764806636,2320095703,2320095698,4267227991,4267227990,497147744,2320095683,1721557143,8303818078,497147747,497147749,12529856291,8303818131,1551434932,497147762,12529856286,8303818079,4267227781,497147765,497147768,497147773,2320095667,2320095661,2894872170,7243278751,1609341587,11069359136,1609342101,2894872156,2320007441,4224951058,11069359130,1609295567,2320007440,1609295565,1609296300,4224992293,497167550,2894872126,497167560,2894872095,2894872077,12472745649,2894872069,4784971294,2894872054,12472745657,2320007426,497167565,4224990396,2894872009,497167945,1609296391,1609199990,4938009626,1609200312,4251839205,497167946,3238982971,3238982963,3238981557,497167948,8486768377,8486768346,1609200055,4938009400,3238981548,8486768344,8486768376,4251839058,497167949,3238981535,497167950,11069373691,1609199954,1609295515,1609295472,8641990308,8641990305,3593760407,4251838854,497168021,3301986359,3301986345,3593760363,3593760348,1715114773,3301986324,497168023,4251838707,11081145121,7243278757,11081145119,4251838692,3445610560,3445515644,1609295488,497168363,1609295335,1609295524,2956787636,11070202339,2508868828,2508868825,12529903869,1609295397,1609366183,1609295440,1609221020,1609221140,1609200185,9156300405,2450079042,7436412015,1609221063,497168741,9156300398,2398626869,1609200177,2398626833,2398626816,1609200081,8162958911,8162958910,7033772018,1609200049,8162958914,497169501,497169504,1485097031,1485097020,1485097014,9366321723,3877506232,1044379733,9366321725,8455317281,1009167683,8455317287,3290785083,11074088806,8162958964,1008238435,9012647241,497170001,9364555678,12952456793,1008238205,12952456794,2509202559,12952456773,2509202552,1485096848,12952456765,4172516985,9012647184,8455678729,8455678875,5734888010,8455678874,11071563641,601870928,2795698874,11081424006,11081424007,601870935,601870941,3287949025,601870952,601870961,601870970,2795698757,601870976,1044379829,8455678823,601870985,601870993,1724424381,601871004,601871013,4172517089,807968365,8455678822,1637609833,13370965887,13368859878,807968574,13368859877,807968474,13368859874,601871031,6835289598,1171505048,1171504684,3915681463,6835289600,601871050,11987099419,11073662405,8596958450,601871068,1171504996,8596958451,8596958448,2394199562,1171505011,8596958565,5605166007,8596958531,8596958532,5605166004,3300291781,7965603632,807968391,11987099449,1796486510,7965603616,11987099447,1796486554,2394199612,1796486560,1796486567,807968031,8509264286,8509264287,8509264250,807968085,9273627973,807968312,9973573068,807968090,807968685,8269304107,599541231,6331635775,1785473214,1785473202,8509264301,10830782197,1785473632,8509264302,1785473234,8616654975,2389107122,1785473260,8509264311,1785473441,1785473207,1785473612,1785473544,2126674113,599541226,8370221221,2126674112,4139785894,811023517,11557702162,4139785892,9581425537,808031551,11800461549,5078180975,808031568,9102939275,2126673841,5078180974,811023244,9561464243,2126673510,391737180,2126673484,2126673474,5074930328,2126673457,2126673436,2126673389,2126673375,2126673387,2126673429,2126673453,5074930329,2126673475,2126673485,9676159568,2126673372,2126673352,12883830695,2126673334,470849661,12883830690,10798762471,9112306457,2126672878,11949496227,9112306454,11949496246,676069628,11949496236,11949496245,2126672561,2126672453,10029085282,2126672420,2126672390,2126672361,10035562403,2126672321,2126672267,2126672306,10607483514,10607483515,2126672342,2126672394,10035562401,2126672428,2126672461,2126672571,2126672764,10029085283,2126672935,2126673021,2126673080,12813146199,2126673139,10810399530,601508607,12879432102,2282808507,9925978505,10595711853,676069615,676069616,5448974512,2380943039,10595711839,676069612,10595711840,10685222866,391753903,10685222867,4341961467,391745658,4341961464,598151878,10236708487,10857352360,8423552871,4341961463,4341961462,391743998,602990001,4341961460,391745854,11525745860,3775062997,391745886,8423552890,2296580494,1722458959,598151865,8423552836,2296580502,12409937736,11079100480,11079057399,11079105205,11079057401,598151864,9309922472,2296580751,2296580762,2296580773,2296580797,2296580808,8356437270,2296580827,2296580841,2296580860,2745674359,8356393909,2296580889,8356393896,8356393898,315120853,1636934221,8362746232,2296580913,8362746230,315121330,2312198087,315121318,315123534,315121319,10859658790,315123540,315121320,315121321,315121322,315121324,315121326,315032954,315122225,2312198310,8498956719,315120406,2312198349,12410976762,2312198364,843382865,2686119186,9141014729,9141014739,8147646008,12361931195,12361931196,2316430803,1718842329,2316430856,10839957166,2900514433,2900514438,8267963999,8365550317,2316430973,315033203,2296981992,2600878703,310501277,5350197578,3555473521,310501275,3555473520,310263858,648546074,2312521461,310501273,2312521466,2312521478,2312521484,310501272,2312521487,2312521497,310501271,2312521499,12098045807,2312521516,9163629267,1636978129,3297079279,1636978122,2312521506,2312521495,676069598,9163629263,9163629266,11079349297,11079424622,676069597,1636978099,1636978093,1636978087,1636978084,1636978082,6481891030,12956643101,8667184717,1636978075,598178961,9686979844,598179000,598179002,598178996,2971956228,9736277914,598178994,6806354333,2972424324,560437521,11079292076,6806412400,2972424293,2972424288,3593740854,2972424286,6806354338,2972424289,9356030773,2972424299,2972424311,6806354331,2972424325,2972424437,11079435447,2972424438,598178983,8947856390,598178980,9894887117,598178976,9894887103,9894887104,598178974,9892523601,9892523578,598178941,1806931203,3250373482,7058428982,1718722266,9343503250,3250373496,9343503249,3250373501,3250373512,11361265661,11361265660,9343503246,3250373518,3250373523,9894977666,1806931207,9194618753,563279669,563279671,9873615236,9222357059,6175794740,3729619524,9222357024,9873615234,563279659,3250373525,563279552,563279556,12300469248,13140253489,563279529,13303071584,13416534070,13303071587,13416534058,13303071580,13303071575,13416534036,13303071576,13303071577,13303071578,13303071582,13303071579,13416534043,13416534035,13416534061,13416534042,13303075825,13416534071,660004648,13431520300,800044283,13431528701,800043980,13432830729,12404973190,800044171,2636956097,12405014009,2477244310,2477244324,8272264734,660004667,11056127874,8272264737,11056127875,8907983023,8907982980,660004594,4959096052,660004593,800044098,800043988,2528889671,2528889678,2528889733,8340824236,8340824050,800044033,2528889856,843384254,800043977,8269047789,843384508,800044340,2528889887,800044107,800044178,9049255934,11056131417,800043970,9049255910,10050319596,8340824144,800043992,9352772543,800044028,2528889923,9049255921,2528889916,9049255918,2528889911,2528889889,4959096734,800044046,800044144,3262573472,9201251897,660004621,9201251896,843387018,2800230398,9049249870,2800230378,7144329962,2800230362,2800230356,9345523648,2800230348,9345523647,9049249861,2800230343,2800230342,4175289831,9049249901,9008700783,9049249857,2800230345,2800230341,800043943,9008700787,2800230311,2354386722,6465820566,800044093,7144349799,800044197,7144349796,9506951553,5562434949,7144349793,800044100,7144349795,800044278,5539017882,2869785618,560522655,660012891,660012892,6621278940,698597065,660012866,800044016,9506951519,3262573329,6639012129,660012893,8564652538,9336206540,6617483718,2900514448,9336206522,2900514441,9336206523,4012103519,9336206524,6617483717,660012845,9336206519,6639012139,9336206517,809705600,2635402992,809705590,10117836328,809705273,10117836330,10117836336,617198621,617198620,809705441,809705596,809705609,809705490,809705402,2160491571,2160491577,809705420,809705354,809705218,809705461,2282824050,2334089679,10584717054,10055284721,809705303,809705417,2334089684,809705344,809705220,2334089683,2334089682,2334089680,2334089686,809705279]},"gtfs":{"agency_id":16,"route_id":65,"services":[{"service_id":"Mo-Su","startTime":"06:00","endTime":"22:00","trip_id":9458460}],"filteredStops":{"nodes":[1544966470,4265533923,497150789,4265533925,4265533922,1544966525,6913302610,6601249002,6913302611,1544966317,1544965971,8304826337,1544965815,4265533884,1544965810,1544965739,1544965704,497147679,1544965652,12512863009,1544965625,1544965594,12512656416,3839755179,1544965572,1544965564,12588089881,1544965588,497147705,3839755178,497147712,11081223539,1544965517,12512862902,4067009931,497147725,12512862991,3839755183,497147728,12512656396,3839755190,6301185915,1545731175,5276246606,497147731,497147734,3764806757,5158314412,2320095710,497147737,7352860819,2320095709,497147741,3764806636,2320095703,2320095698,4267227991,4267227990,497147744,2320095683,1721557143,8303818078,497147747,497147749,12529856291,8303818131,1551434932,497147762,12529856286,8303818079,4267227781,497147765,497147768,497147773,2320095667,2320095661,2894872170,7243278751,1609341587,11069359136,1609342101,2894872156,2320007441,4224951058,11069359130,1609295567,2320007440,1609295565,1609296300,4224992293,497167550,2894872126,497167560,2894872095,2894872077,12472745649,2894872069,4784971294,2894872054,12472745657,2320007426,497167565,4224990396,2894872009,497167945,1609296391,1609199990,4938009626,1609200312,4251839205,497167946,3238982971,3238982963,3238981557,497167948,8486768377,8486768346,1609200055,4938009400,3238981548,8486768344,8486768376,4251839058,497167949,3238981535,497167950,11069373691,1609199954,1609295515,1609295472,8641990308,8641990305,3593760407,4251838854,497168021,3301986359,3301986345,3593760363,3593760348,1715114773,3301986324,497168023,4251838707,11081145121,7243278757,11081145119,4251838692,3445610560,3445515644,1609295488,497168363,1609295335,1609295524,2956787636,11070202339,2508868828,2508868825,12529903869,1609295397,1609366183,1609295440,1609221020,1609221140,1609200185,9156300405,2450079042,7436412015,1609221063,497168741,9156300398,2398626869,1609200177,2398626833,2398626816,1609200081,8162958911,8162958910,7033772018,1609200049,8162958914,497169501,497169504,1485097031,1485097020,1485097014,9366321723,3877506232,1044379733,9366321725,8455317281,1009167683,8455317287,3290785083,11074088806,8162958964,1008238435,9012647241,497170001,9364555678,12952456793,1008238205,12952456794,2509202559,12952456773,2509202552,1485096848,12952456765,4172516985,9012647184,8455678729,8455678875,5734888010,8455678874,11071563641,601870928,2795698874,11081424006,11081424007,601870935,601870941,3287949025,601870952,601870961,601870970,2795698757,601870976,1044379829,8455678823,601870985,601870993,1724424381,601871004,601871013,4172517089,807968365,8455678822,1637609833,13370965887,13368859878,807968574,13368859877,807968474,13368859874,601871031,6835289598,1171505048,1171504684,3915681463,6835289600,601871050,11987099419,11073662405,8596958450,601871068,1171504996,8596958451,8596958448,2394199562,1171505011,8596958565,5605166007,8596958531,8596958532,5605166004,3300291781,7965603632,807968391,11987099449,1796486510,7965603616,11987099447,1796486554,2394199612,1796486560,1796486567,807968031,8509264286,8509264287,8509264250,807968085,9273627973,807968312,9973573068,807968090,807968685,8269304107,599541231,6331635775,1785473214,1785473202,8509264301,10830782197,1785473632,8509264302,1785473234,8616654975,2389107122,1785473260,8509264311,1785473441,1785473207,1785473612,1785473544,2126674113,599541226,8370221221,2126674112,4139785894,811023517,11557702162,4139785892,9581425537,808031551,11800461549,5078180975,808031568,9102939275,2126673841,5078180974,811023244,9561464243,2126673510,391737180,2126673484,2126673474,5074930328,2126673457,2126673436,2126673389,2126673375,2126673387,2126673429,2126673453,5074930329,2126673475,2126673485,9676159568,2126673372,2126673352,12883830695,2126673334,470849661,12883830690,10798762471,9112306457,2126672878,11949496227,9112306454,11949496246,676069628,11949496236,11949496245,2126672561,2126672453,10029085282,2126672420,2126672390,2126672361,10035562403,2126672321,2126672267,2126672306,10607483514,10607483515,2126672342,2126672394,10035562401,2126672428,2126672461,2126672571,2126672764,10029085283,2126672935,2126673021,2126673080,12813146199,2126673139,10810399530,601508607,12879432102,2282808507,9925978505,10595711853,676069615,676069616,5448974512,2380943039,10595711839,676069612,10595711840,10685222866,391753903,10685222867,4341961467,391745658,4341961464,598151878,10236708487,10857352360,8423552871,4341961463,4341961462,391743998,602990001,4341961460,391745854,11525745860,3775062997,391745886,8423552890,2296580494,1722458959,598151865,8423552836,2296580502,12409937736,11079100480,11079057399,11079105205,11079057401,598151864,9309922472,2296580751,2296580762,2296580773,2296580797,2296580808,8356437270,2296580827,2296580841,2296580860,2745674359,8356393909,2296580889,8356393896,8356393898,315120853,1636934221,8362746232,2296580913,8362746230,315121330,2312198087,315121318,315123534,315121319,10859658790,315123540,315121320,315121321,315121322,315121324,315121326,315032954,315122225,2312198310,8498956719,315120406,2312198349,12410976762,2312198364,843382865,2686119186,9141014729,9141014739,8147646008,12361931195,12361931196,2316430803,1718842329,2316430856,10839957166,2900514433,2900514438,8267963999,8365550317,2316430973,315033203,2296981992,2600878703,310501277,5350197578,3555473521,310501275,3555473520,310263858,648546074,2312521461,310501273,2312521466,2312521478,2312521484,310501272,2312521487,2312521497,310501271,2312521499,12098045807,2312521516,9163629267,1636978129,3297079279,1636978122,2312521506,2312521495,676069598,9163629263,9163629266,11079349297,11079424622,676069597,1636978099,1636978093,1636978087,1636978084,1636978082,6481891030,12956643101,8667184717,1636978075,598178961,9686979844,598179000,598179002,598178996,2971956228,9736277914,598178994,6806354333,2972424324,560437521,11079292076,6806412400,2972424293,2972424288,3593740854,2972424286,6806354338,2972424289,9356030773,2972424299,2972424311,6806354331,2972424325,2972424437,11079435447,2972424438,598178983,8947856390,598178980,9894887117,598178976,9894887103,9894887104,598178974,9892523601,9892523578,598178941,1806931203,3250373482,7058428982,1718722266,9343503250,3250373496,9343503249,3250373501,3250373512,11361265661,11361265660,9343503246,3250373518,3250373523,9894977666,1806931207,9194618753,563279669,563279671,9873615236,9222357059,6175794740,3729619524,9222357024,9873615234,563279659,3250373525,563279552,563279556,12300469248,13140253489,563279529,13303071584,13416534070,13303071587,13416534058,13303071580,13303071575,13416534036,13303071576,13303071577,13303071578,13303071582,13303071579,13416534043,13416534035,13416534061,13416534042,13303075825,13416534071,660004648,13431520300,800044283,13431528701,800043980,13432830729,12404973190,800044171,2636956097,12405014009,2477244310,2477244324,8272264734,660004667,11056127874,8272264737,11056127875,8907983023,8907982980,660004594,4959096052,660004593,800044098,800043988,2528889671,2528889678,2528889733,8340824236,8340824050,800044033,2528889856,843384254,800043977,8269047789,843384508,800044340,2528889887,800044107,800044178,9049255934,11056131417,800043970,9049255910,10050319596,8340824144,800043992,9352772543,800044028,2528889923,9049255921,2528889916,9049255918,2528889911,2528889889,4959096734,800044046,800044144,3262573472,9201251897,660004621,9201251896,843387018,2800230398,9049249870,2800230378,7144329962,2800230362,2800230356,9345523648,2800230348,9345523647,9049249861,2800230343,2800230342,4175289831,9049249901,9008700783,9049249857,2800230345,2800230341,800043943,9008700787,2800230311,2354386722,6465820566,800044093,7144349799,800044197,7144349796,9506951553,5562434949,7144349793,800044100,7144349795,800044278,5539017882,2869785618,560522655,660012891,660012892,6621278940,698597065,660012866,800044016,9506951519,3262573329,6639012129,660012893,8564652538,9336206540,6617483718,2900514448,9336206522,2900514441,9336206523,4012103519,9336206524,6617483717,660012845,9336206519,6639012139,9336206517,809705600,2635402992,809705590,10117836328,809705273,10117836330,10117836336,617198621,617198620,809705441,809705596,809705609,809705490,809705402,2160491571,2160491577,809705420,809705354,809705218,809705461,2282824050,2334089679,10584717054,10055284721,809705303,809705417,2334089684,809705344,809705220,2334089683,2334089682,2334089680,2334089686,809705279],"coordinates":[[-66.0444234,-17.4019183],[-66.0445888,-17.4022924],[-66.0446312,-17.4023629],[-66.0447007,-17.4023334],[-66.0451178,-17.4021564],[-66.0452196,-17.4020688],[-66.045791,-17.4018198],[-66.0458551,-17.4017919],[-66.0459232,-17.4017622],[-66.046146,-17.4016652],[-66.0475858,-17.4010396],[-66.0490814,-17.4003863],[-66.0495338,-17.4001878],[-66.0495774,-17.4001561],[-66.0496091,-17.4001052],[-66.0496242,-17.400058],[-66.04962,-17.3999973],[-66.0495627,-17.3998158],[-66.0495296,-17.3997003],[-66.0495226,-17.399654],[-66.049524,-17.3996115],[-66.0495535,-17.3995501],[-66.0495776,-17.3995255],[-66.0496203,-17.3995069],[-66.0496666,-17.3994968],[-66.0497133,-17.3994983],[-66.0497403,-17.3995132],[-66.0497761,-17.3995329],[-66.0498642,-17.3995872],[-66.0504956,-17.3995157],[-66.0506926,-17.3994866],[-66.0509268,-17.3994266],[-66.0509972,-17.3994086],[-66.051114,-17.3993686],[-66.0514231,-17.3992627],[-66.0519831,-17.3990838],[-66.0522284,-17.3989828],[-66.0522836,-17.3989601],[-66.0524942,-17.3988559],[-66.0527431,-17.3987126],[-66.0529757,-17.398569],[-66.0535058,-17.3982424],[-66.0535801,-17.3981971],[-66.0536516,-17.3981576],[-66.0538193,-17.3980554],[-66.0545955,-17.3975864],[-66.0547149,-17.3975095],[-66.0551652,-17.3972358],[-66.0555916,-17.3969644],[-66.0558583,-17.3968073],[-66.0561214,-17.3966236],[-66.0567891,-17.3961979],[-66.0574423,-17.3958313],[-66.0578983,-17.3955959],[-66.0580619,-17.3954986],[-66.0591133,-17.3948485],[-66.0593894,-17.3946958],[-66.0595624,-17.3945889],[-66.0599099,-17.394375],[-66.0603828,-17.3941032],[-66.0607787,-17.3939093],[-66.0611288,-17.3937164],[-66.0613148,-17.3936277],[-66.0615427,-17.3935389],[-66.0619225,-17.3934356],[-66.0619582,-17.3934261],[-66.0620173,-17.39341],[-66.062589,-17.3932704],[-66.0626431,-17.3932594],[-66.0627289,-17.393242],[-66.0632059,-17.3931451],[-66.0634217,-17.3930969],[-66.0637137,-17.3930577],[-66.0640936,-17.3930373],[-66.0645756,-17.3929437],[-66.0652275,-17.3928029],[-66.0656449,-17.3927177],[-66.0659676,-17.3926534],[-66.0667051,-17.3925064],[-66.0674263,-17.3923587],[-66.0674677,-17.3923502],[-66.0679532,-17.3922544],[-66.0681979,-17.3922036],[-66.0688071,-17.3920704],[-66.0691034,-17.3920073],[-66.0694195,-17.3919399],[-66.0701567,-17.3917856],[-66.0710448,-17.3916163],[-66.0722361,-17.3913788],[-66.0737974,-17.3910444],[-66.0738847,-17.3910271],[-66.0741326,-17.3909712],[-66.0746708,-17.3908149],[-66.074837,-17.3907698],[-66.0750865,-17.390726],[-66.0754156,-17.3906596],[-66.0754825,-17.3906461],[-66.0755826,-17.3906245],[-66.0757982,-17.3905782],[-66.0758646,-17.3905643],[-66.076533,-17.3904238],[-66.0768302,-17.3903769],[-66.0770707,-17.3903531],[-66.0772479,-17.3903355],[-66.0774177,-17.3903076],[-66.0780455,-17.3901832],[-66.0802003,-17.3897314],[-66.0803046,-17.3897147],[-66.0820898,-17.3893414],[-66.0823607,-17.3892907],[-66.0830522,-17.3891565],[-66.0833489,-17.3890954],[-66.0837257,-17.3889837],[-66.0840269,-17.388896],[-66.0841533,-17.3888665],[-66.0844998,-17.3888],[-66.0846441,-17.3887723],[-66.0847114,-17.3887594],[-66.0848268,-17.3887348],[-66.0850356,-17.3886902],[-66.0851369,-17.3886678],[-66.0852396,-17.3886451],[-66.0857666,-17.3885287],[-66.0860536,-17.3884849],[-66.0865939,-17.3884269],[-66.0871412,-17.3883204],[-66.0872698,-17.388294],[-66.0903304,-17.3876657],[-66.0935805,-17.3870065],[-66.0947777,-17.3867611],[-66.0956062,-17.3865942],[-66.0957268,-17.3865699],[-66.0959866,-17.3865176],[-66.0964055,-17.386431],[-66.0967278,-17.3863544],[-66.0971243,-17.3862373],[-66.0975613,-17.3861427],[-66.0979755,-17.3860531],[-66.0982907,-17.3859849],[-66.0988417,-17.3858656],[-66.0992957,-17.3857741],[-66.0995342,-17.3857474],[-66.0998677,-17.385717],[-66.1007361,-17.3855545],[-66.1012826,-17.3854502],[-66.101487,-17.3854052],[-66.1016661,-17.3853729],[-66.1020273,-17.3852949],[-66.1034053,-17.3849957],[-66.1047381,-17.3847303],[-66.1055811,-17.384561],[-66.1068161,-17.3843111],[-66.1083892,-17.3840101],[-66.1088729,-17.383911],[-66.1091326,-17.3838559],[-66.1093003,-17.3838204],[-66.1097063,-17.3837391],[-66.1101186,-17.3836571],[-66.1105542,-17.3835704],[-66.1116279,-17.383347],[-66.1126926,-17.3831087],[-66.1137366,-17.3828918],[-66.1147412,-17.3826937],[-66.1160937,-17.3824299],[-66.1166355,-17.3823204],[-66.1167504,-17.3822972],[-66.1172233,-17.382195],[-66.1178158,-17.3820392],[-66.1182674,-17.3819014],[-66.1185475,-17.381807],[-66.1187728,-17.3817198],[-66.1192818,-17.3815036],[-66.1195037,-17.38141],[-66.119997,-17.3811668],[-66.1202601,-17.3810155],[-66.1208017,-17.3806715],[-66.1208417,-17.3806461],[-66.1216824,-17.3800861],[-66.1217698,-17.3800293],[-66.1218317,-17.3799878],[-66.1221658,-17.3797745],[-66.1224305,-17.3795986],[-66.1224694,-17.3795763],[-66.122742,-17.3793899],[-66.1236093,-17.3788174],[-66.1242133,-17.3784409],[-66.12471,-17.3781074],[-66.1253598,-17.3776556],[-66.1257746,-17.377356],[-66.1269581,-17.3765211],[-66.1270244,-17.376476],[-66.1271995,-17.3763545],[-66.1275504,-17.3761126],[-66.1279626,-17.3758313],[-66.1281352,-17.37571],[-66.1282882,-17.3756033],[-66.1288149,-17.3752302],[-66.1288741,-17.375188],[-66.128931,-17.3751503],[-66.1289543,-17.3751348],[-66.1289841,-17.3751153],[-66.128987,-17.3750586],[-66.1289921,-17.375002],[-66.1289882,-17.3749174],[-66.1289827,-17.3748705],[-66.1289651,-17.3747618],[-66.1289633,-17.374751],[-66.1288784,-17.3742397],[-66.1288174,-17.3737855],[-66.1288109,-17.3737372],[-66.1287959,-17.3736021],[-66.1287924,-17.3735624],[-66.1287806,-17.373469],[-66.1288718,-17.3734559],[-66.1289804,-17.3734272],[-66.1290673,-17.3733898],[-66.1291753,-17.3733341],[-66.1293134,-17.3732714],[-66.1294557,-17.3732223],[-66.1295565,-17.3732012],[-66.129686,-17.3731739],[-66.1298501,-17.3731449],[-66.1303179,-17.3731127],[-66.1306023,-17.3730894],[-66.1307793,-17.373061],[-66.1309291,-17.3730212],[-66.1310179,-17.3729845],[-66.1314812,-17.3727838],[-66.1316193,-17.3727343],[-66.1318136,-17.3726612],[-66.1319085,-17.372646],[-66.1329231,-17.3723571],[-66.1330304,-17.37233],[-66.1331659,-17.3723128],[-66.1332925,-17.3723089],[-66.1333772,-17.3723184],[-66.1335092,-17.3723479],[-66.1336915,-17.3723819],[-66.1341207,-17.3724619],[-66.1341739,-17.3724718],[-66.1342413,-17.3724859],[-66.1347484,-17.3725916],[-66.1350955,-17.3726555],[-66.1351615,-17.3726676],[-66.1352161,-17.3726819],[-66.1355236,-17.372736],[-66.1356936,-17.3727606],[-66.1358009,-17.3727624],[-66.1358677,-17.3727603],[-66.1359713,-17.372756],[-66.1360713,-17.3727463],[-66.1361302,-17.3727406],[-66.1362225,-17.3727317],[-66.1364442,-17.3727058],[-66.1365705,-17.3726845],[-66.1366185,-17.3726721],[-66.1366865,-17.3726538],[-66.1367319,-17.3726376],[-66.1367986,-17.3727325],[-66.1368269,-17.3727815],[-66.1368693,-17.3728583],[-66.1368948,-17.3729174],[-66.136906,-17.3729586],[-66.1369073,-17.3730029],[-66.136881,-17.3732055],[-66.13684,-17.3734719],[-66.1368439,-17.3735544],[-66.1368742,-17.373674],[-66.1369629,-17.3739679],[-66.136975,-17.3739775],[-66.1370259,-17.3739669],[-66.1370767,-17.3739665],[-66.1371628,-17.3739898],[-66.1372619,-17.3740157],[-66.1373665,-17.3740291],[-66.1377544,-17.3740075],[-66.1379938,-17.3739923],[-66.138031,-17.3739897],[-66.1380655,-17.3739873],[-66.1387982,-17.3739417],[-66.1388403,-17.3739389],[-66.1396726,-17.3738852],[-66.1397715,-17.3738792],[-66.1405964,-17.3738295],[-66.1416003,-17.373772],[-66.1422624,-17.3737346],[-66.1423298,-17.3737222],[-66.1424276,-17.3736928],[-66.1424961,-17.3736651],[-66.1426187,-17.3736122],[-66.142654,-17.3735557],[-66.1426742,-17.3735322],[-66.1427001,-17.3735067],[-66.1427463,-17.3734725],[-66.1427978,-17.3734461],[-66.1428532,-17.373428],[-66.1429065,-17.3734193],[-66.1429606,-17.3734184],[-66.1430141,-17.3734253],[-66.143066,-17.3734399],[-66.1431441,-17.3734795],[-66.1432095,-17.3735363],[-66.1432581,-17.3736067],[-66.1433648,-17.3736706],[-66.1434091,-17.3736789],[-66.143743,-17.373666],[-66.1438154,-17.3736615],[-66.1443457,-17.3736292],[-66.1445029,-17.3736196],[-66.1445734,-17.3736163],[-66.1446097,-17.3736146],[-66.1456453,-17.3735474],[-66.1458534,-17.3735342],[-66.1459105,-17.3735302],[-66.1466176,-17.3734812],[-66.1467391,-17.3734727],[-66.1468978,-17.3734617],[-66.1470447,-17.3734515],[-66.14716,-17.3734435],[-66.1477354,-17.3734036],[-66.1485729,-17.3733532],[-66.1491709,-17.3733174],[-66.1493762,-17.3733059],[-66.1494179,-17.3732966],[-66.1494654,-17.3732778],[-66.1494829,-17.373254],[-66.1495055,-17.3732341],[-66.1495291,-17.3732207],[-66.1495551,-17.3732119],[-66.1495828,-17.3732079],[-66.1496169,-17.3732102],[-66.14965,-17.3732204],[-66.1496795,-17.3732379],[-66.1497031,-17.3732611],[-66.1497561,-17.3732748],[-66.1497987,-17.3732787],[-66.1505133,-17.3732341],[-66.1509548,-17.3732066],[-66.1510593,-17.3732],[-66.1511738,-17.373193],[-66.1512083,-17.3731909],[-66.1514426,-17.3731741],[-66.1524613,-17.373111],[-66.1534191,-17.3730516],[-66.1535724,-17.3730421],[-66.1536725,-17.3730353],[-66.1537516,-17.3730299],[-66.1537745,-17.3730284],[-66.1546202,-17.3729792],[-66.1546879,-17.3729757],[-66.1547572,-17.3729707],[-66.1547911,-17.3729683],[-66.1564764,-17.3728483],[-66.156552,-17.3728389],[-66.1565694,-17.3727842],[-66.1565973,-17.3727336],[-66.1566347,-17.3726889],[-66.1566802,-17.3726517],[-66.1567322,-17.3726232],[-66.1567699,-17.3726096],[-66.1568092,-17.3726006],[-66.1568493,-17.3725972],[-66.1569111,-17.3726043],[-66.1569703,-17.3726229],[-66.1570244,-17.3726523],[-66.1570714,-17.3726913],[-66.1571094,-17.3727384],[-66.1571284,-17.3727719],[-66.1571471,-17.3728227],[-66.1571538,-17.3728762],[-66.1571481,-17.3729298],[-66.157128,-17.3729915],[-66.1570942,-17.3730475],[-66.1570483,-17.3730951],[-66.1569993,-17.3731282],[-66.1569358,-17.3731547],[-66.1568749,-17.3731659],[-66.1568835,-17.3734259],[-66.1568939,-17.3738764],[-66.1569051,-17.3742412],[-66.1569136,-17.3745156],[-66.156915,-17.3748036],[-66.156918,-17.37488],[-66.1569207,-17.374959],[-66.156923,-17.3750577],[-66.1569255,-17.3751091],[-66.1569368,-17.3755094],[-66.1569628,-17.3763095],[-66.1569647,-17.376371],[-66.1569655,-17.3764221],[-66.156977,-17.3769453],[-66.1569782,-17.3770234],[-66.1569803,-17.3770764],[-66.1570123,-17.3780292],[-66.1570174,-17.3781195],[-66.1570796,-17.3781167],[-66.1576426,-17.3780748],[-66.1577493,-17.3780677],[-66.1583107,-17.3780304],[-66.1586024,-17.378011],[-66.1586329,-17.3780089],[-66.159217,-17.3779701],[-66.1593014,-17.3779645],[-66.1593801,-17.3779587],[-66.1594412,-17.3779542],[-66.1601728,-17.3778963],[-66.1603162,-17.37789],[-66.1603403,-17.3778889],[-66.1603997,-17.3778913],[-66.1604606,-17.377904],[-66.1608586,-17.3780152],[-66.1609747,-17.3780494],[-66.1610775,-17.3780745],[-66.1610462,-17.3781873],[-66.1610272,-17.3782558],[-66.1609592,-17.3784883],[-66.1609424,-17.3785457],[-66.1608112,-17.3789943],[-66.1607831,-17.3790903],[-66.1607443,-17.3792232],[-66.1604215,-17.3803268],[-66.1603952,-17.3804271],[-66.1603946,-17.380447],[-66.1603903,-17.3805384],[-66.1604026,-17.3806234],[-66.1604292,-17.3807053],[-66.160446,-17.3807533],[-66.1604502,-17.3808037],[-66.1604418,-17.3808536],[-66.1604211,-17.3809001],[-66.1603894,-17.3809406],[-66.1603483,-17.3810263],[-66.1603242,-17.3810949],[-66.1603011,-17.3811631],[-66.1602836,-17.3812089],[-66.1602648,-17.3812714],[-66.1602553,-17.381306],[-66.1601491,-17.3816632],[-66.1601392,-17.381699],[-66.160118,-17.3817783],[-66.1601068,-17.3818443],[-66.1600997,-17.3819171],[-66.1601024,-17.3820084],[-66.160124,-17.3821361],[-66.1601469,-17.3822132],[-66.1601468,-17.3822926],[-66.1601403,-17.382329],[-66.1601337,-17.3823653],[-66.1601052,-17.3824327],[-66.1600491,-17.3824933],[-66.1599485,-17.3825638],[-66.1598111,-17.3826671],[-66.1597435,-17.3827412],[-66.1596513,-17.3828653],[-66.1596135,-17.3829447],[-66.1595022,-17.3830911],[-66.1593386,-17.3833062],[-66.1593007,-17.383356],[-66.1591066,-17.3836114],[-66.1589959,-17.383757],[-66.1588865,-17.3839009],[-66.1588472,-17.3839526],[-66.1588041,-17.3840085],[-66.1587884,-17.3840289],[-66.1586145,-17.3842548],[-66.1584148,-17.384514],[-66.1583937,-17.3845414],[-66.1583738,-17.3845669],[-66.1582879,-17.3846768],[-66.1580811,-17.3849472],[-66.1579708,-17.3850718],[-66.1579598,-17.3850858],[-66.1579357,-17.3851178],[-66.1578614,-17.3852154],[-66.1577607,-17.3853388],[-66.1575084,-17.3856628],[-66.1568608,-17.38651],[-66.1567872,-17.3866071],[-66.1568384,-17.3866422],[-66.1575918,-17.3869932],[-66.1576501,-17.3870048],[-66.1577375,-17.3870171],[-66.1586202,-17.387137],[-66.1587007,-17.387146],[-66.1587433,-17.387153],[-66.1598506,-17.3873411],[-66.1599197,-17.3873512],[-66.1607699,-17.3875037],[-66.1608537,-17.3875198],[-66.1609408,-17.3875334],[-66.1613999,-17.3876049],[-66.1619575,-17.3876918],[-66.162025,-17.3877024],[-66.1620816,-17.3877126],[-66.1627663,-17.3878335],[-66.1628286,-17.3878447],[-66.1628914,-17.3878546],[-66.1631828,-17.387904],[-66.1637337,-17.3879975],[-66.1637673,-17.3879902],[-66.1637957,-17.3879805],[-66.1638795,-17.3879509],[-66.163953,-17.387925],[-66.164177,-17.387846],[-66.1643272,-17.3877922],[-66.1643848,-17.3877711],[-66.1644441,-17.3877488],[-66.1645162,-17.3877208],[-66.1648578,-17.3875809],[-66.1649018,-17.3875643],[-66.164924,-17.3875552],[-66.1650363,-17.3875237],[-66.1655829,-17.3873123],[-66.1657108,-17.3872507],[-66.1657931,-17.3871905],[-66.1658953,-17.3870972],[-66.1659533,-17.3870258],[-66.1659986,-17.3869648],[-66.1661071,-17.3868187],[-66.1663218,-17.3865558],[-66.1665707,-17.3862431],[-66.1666104,-17.3861957],[-66.1670888,-17.3856646],[-66.1675962,-17.3850394],[-66.168338,-17.3841414],[-66.1684906,-17.3839992],[-66.1686087,-17.3839101],[-66.1687242,-17.3838415],[-66.1690317,-17.3836671],[-66.1692719,-17.3835371],[-66.1693484,-17.3834931],[-66.1695477,-17.3834035],[-66.1695518,-17.3833987],[-66.1695561,-17.3833941],[-66.1695931,-17.3833663],[-66.1696373,-17.3833509],[-66.1696843,-17.3833493],[-66.1697296,-17.3833616],[-66.1697411,-17.3833673],[-66.1697836,-17.3834021],[-66.1698098,-17.3834494],[-66.169816,-17.3835025],[-66.1698014,-17.3835541],[-66.169797,-17.3835622],[-66.1697821,-17.3836582],[-66.1697636,-17.3837505],[-66.1697503,-17.3838437],[-66.1697423,-17.3839374],[-66.1697396,-17.3840314],[-66.1698097,-17.3843673],[-66.1700096,-17.3853754],[-66.1700272,-17.3854642],[-66.1700451,-17.3855502],[-66.1700773,-17.3857043],[-66.1700915,-17.3857726],[-66.1701502,-17.3858683],[-66.1702505,-17.3863562],[-66.1703852,-17.3870117],[-66.1704819,-17.3874454],[-66.1705034,-17.3875049],[-66.1705393,-17.3875598],[-66.1706488,-17.3877039],[-66.1706686,-17.3877262],[-66.1706841,-17.3877513],[-66.1706953,-17.3877793],[-66.1707014,-17.3878086],[-66.1707023,-17.3878384],[-66.1706962,-17.3878768],[-66.1706787,-17.3879153],[-66.1706552,-17.3879459],[-66.1706332,-17.3879657],[-66.1705861,-17.3880455],[-66.170576,-17.3880765],[-66.1705659,-17.3881075],[-66.1705579,-17.3881811],[-66.170568,-17.3888256],[-66.1705932,-17.3895269],[-66.1705942,-17.3895745],[-66.170602,-17.3899538],[-66.1706029,-17.3900058],[-66.1706042,-17.3900614],[-66.1706053,-17.3901173],[-66.1706154,-17.3906075],[-66.1706166,-17.3906646],[-66.1706322,-17.3912321],[-66.1706332,-17.3913963],[-66.1706443,-17.3921179],[-66.170648,-17.3921944],[-66.1706589,-17.3922576],[-66.1706764,-17.392854],[-66.1706963,-17.3936412],[-66.1707008,-17.3937272],[-66.1707334,-17.3937374],[-66.1707636,-17.3937528],[-66.1707906,-17.3937729],[-66.1708136,-17.3937971],[-66.1708318,-17.3938247],[-66.1708448,-17.3938549],[-66.1708522,-17.3938868],[-66.1708537,-17.3939195],[-66.1708493,-17.3939519],[-66.1708391,-17.393983],[-66.1708234,-17.3940121],[-66.1708028,-17.3940381],[-66.1707777,-17.3940604],[-66.1707491,-17.3940782],[-66.1707177,-17.394089],[-66.1706843,-17.3940986],[-66.1706885,-17.3942241],[-66.1707092,-17.3947161],[-66.170711,-17.3947584],[-66.1707132,-17.394804],[-66.170742,-17.3953917],[-66.170744,-17.3954384],[-66.1707503,-17.3955851],[-66.1707691,-17.3960207],[-66.1707764,-17.3961509],[-66.1707885,-17.3964634],[-66.1707891,-17.3964782],[-66.1707935,-17.3965547],[-66.1707553,-17.3966302],[-66.1707612,-17.3967643],[-66.1704274,-17.3971944],[-66.170368,-17.3972862],[-66.1703281,-17.3973611],[-66.1700963,-17.3978116],[-66.1698672,-17.3982544],[-66.1698367,-17.3983035],[-66.1699162,-17.3983442],[-66.1704348,-17.3986278],[-66.1710027,-17.3989349],[-66.1715764,-17.3992479],[-66.1720812,-17.3995283],[-66.1722011,-17.3995454],[-66.1721012,-17.399709],[-66.1720486,-17.3997914],[-66.1719697,-17.3999305],[-66.1719277,-17.4000203],[-66.1719237,-17.4001081],[-66.1719872,-17.4004028],[-66.1720359,-17.4006194],[-66.172069,-17.4007246],[-66.1722111,-17.4011091],[-66.1722574,-17.4011956],[-66.1723479,-17.4012547],[-66.1726207,-17.4013997],[-66.1727372,-17.4014616],[-66.1728703,-17.4015324],[-66.1729793,-17.4015902],[-66.1730882,-17.4016481],[-66.1735714,-17.4019035],[-66.1741942,-17.4022511],[-66.1742217,-17.4022664],[-66.1743012,-17.4022931],[-66.1743116,-17.4022821],[-66.174324,-17.4022731],[-66.1743848,-17.4022151],[-66.1745129,-17.4021069],[-66.1747562,-17.4018884],[-66.1750138,-17.4015935],[-66.1751405,-17.4014471],[-66.1752908,-17.4012575],[-66.1756483,-17.4008411],[-66.175734,-17.4009042],[-66.1753875,-17.4013154],[-66.176355,-17.4018338],[-66.177402,-17.4023978],[-66.1774889,-17.4024446],[-66.1775818,-17.4023997],[-66.1781866,-17.4020822],[-66.1788618,-17.4017249],[-66.1789754,-17.4016398],[-66.179083,-17.401548],[-66.1791837,-17.4014493],[-66.1792646,-17.4013588],[-66.1792721,-17.4013441],[-66.1793015,-17.4013018],[-66.1793266,-17.4012788],[-66.179356,-17.401261],[-66.1793933,-17.4012481],[-66.1794227,-17.4012431],[-66.1794575,-17.4012438],[-66.1795183,-17.4012495],[-66.1795372,-17.4012614],[-66.1796075,-17.4012621],[-66.1797107,-17.401256],[-66.179813,-17.4012417],[-66.1799146,-17.4012205],[-66.1804371,-17.4009828],[-66.1807739,-17.4008565],[-66.1812549,-17.4006969],[-66.1819846,-17.400492],[-66.1824099,-17.400392],[-66.1826304,-17.4003436],[-66.1824426,-17.3996393],[-66.1824175,-17.3995433],[-66.1823797,-17.3994114],[-66.1820701,-17.3983238],[-66.1820506,-17.3982528],[-66.1819153,-17.3977473],[-66.1818973,-17.39768],[-66.1818788,-17.3976151],[-66.1816975,-17.39698],[-66.1816321,-17.3967177],[-66.1815381,-17.3963993],[-66.1815163,-17.3963255],[-66.1814887,-17.3962532],[-66.1816401,-17.3962469],[-66.1818534,-17.3962397],[-66.1825446,-17.3962259],[-66.1832139,-17.3962111],[-66.1839346,-17.3961958],[-66.1844878,-17.3961893],[-66.1847642,-17.396186],[-66.1848172,-17.3961794],[-66.1848662,-17.3961654],[-66.1848967,-17.3961566],[-66.1850171,-17.3961234],[-66.1850449,-17.3960894],[-66.1850716,-17.3960688],[-66.185102,-17.3960536],[-66.1851349,-17.3960443],[-66.1851691,-17.3960412],[-66.1852032,-17.3960446],[-66.185236,-17.3960543],[-66.1852662,-17.3960699],[-66.185291,-17.3960892],[-66.185341,-17.3961035],[-66.1854178,-17.3961198],[-66.1855083,-17.3961318],[-66.1869211,-17.3963195],[-66.1875657,-17.3964076],[-66.1876619,-17.3964215],[-66.1882037,-17.3965022],[-66.1887562,-17.3965676],[-66.1888016,-17.3965728],[-66.1892568,-17.3966255],[-66.1893644,-17.396638],[-66.1897803,-17.3966629],[-66.1905166,-17.3966948],[-66.1911948,-17.3967256],[-66.1911414,-17.395679],[-66.1910701,-17.3944578],[-66.1919336,-17.3944248],[-66.1932448,-17.3943715],[-66.1933217,-17.3943441],[-66.1933224,-17.39427],[-66.1932843,-17.3941389],[-66.1938332,-17.394187],[-66.1944613,-17.3942359],[-66.1948148,-17.3956537],[-66.1948383,-17.3957396],[-66.1951304,-17.3957121],[-66.195532,-17.3956742],[-66.1956084,-17.3957023],[-66.1957958,-17.3956732],[-66.1957405,-17.3952911],[-66.1956023,-17.3944822],[-66.1962296,-17.3943634],[-66.1963852,-17.395195],[-66.1964195,-17.3953683],[-66.1964656,-17.3956248],[-66.1965318,-17.3959929],[-66.1965932,-17.3963795]]}}}]}