{"type":"FeatureCollection","features":[{"type":"Feature","properties":{"check_date":"2026-05-25","from":"Avenida Conchupata","name":"MiniBus 6: Avenida Conchupata → Avenida Sexta","network":"BO:CB:Cochabamba","on_demand":"yes","operator":"Sindicato de taxis y trufis 14 de septiembre","public_transport:version":"2","ref":"6","route":"bus","to":"Avenida Sexta","type":"route","wheelchair":"no","id":9466783},"geometry":{"type":"LineString","coordinates":[[-66.11270280000001,-17.442428200000002],[-66.11254050000001,-17.4424099],[-66.1126359,-17.441843900000002],[-66.11274870000001,-17.4412671],[-66.11286480000001,-17.4406296],[-66.1129009,-17.440431800000002],[-66.11292590000001,-17.4402946],[-66.11303170000001,-17.4397142],[-66.1131356,-17.4391439],[-66.1132018,-17.438780700000002],[-66.11331220000001,-17.4381749],[-66.11339120000001,-17.4377019],[-66.1134928,-17.4371839],[-66.1136429,-17.4371988],[-66.11401190000001,-17.437229400000003],[-66.1143507,-17.4372575],[-66.1147179,-17.4372358],[-66.1149498,-17.4371899],[-66.11510080000001,-17.4371541],[-66.1152486,-17.437119000000003],[-66.1154173,-17.4370948],[-66.1158104,-17.4370547],[-66.1162577,-17.436988200000002],[-66.1164136,-17.4369751],[-66.1168576,-17.4369212],[-66.1169127,-17.4368175],[-66.1168959,-17.436698600000003],[-66.1170197,-17.4366647],[-66.11737670000001,-17.436566900000003],[-66.1176748,-17.4364929],[-66.1178833,-17.4364351],[-66.1183105,-17.4363244],[-66.1186576,-17.4362736],[-66.1188808,-17.4362652],[-66.119428,-17.436244600000002],[-66.1194517,-17.4369532],[-66.11961810000001,-17.4369492],[-66.1196187,-17.4366656],[-66.1196053,-17.4361773],[-66.119584,-17.4359606],[-66.1195678,-17.435838],[-66.11954340000001,-17.435730900000003],[-66.1194844,-17.435555500000003],[-66.1193794,-17.435320700000002],[-66.1193023,-17.435179700000003],[-66.12013610000001,-17.4353067],[-66.1213618,-17.435507700000002],[-66.1223338,-17.4356787],[-66.12255780000001,-17.4344788],[-66.1226632,-17.433941200000003],[-66.12268680000001,-17.4338209],[-66.1227693,-17.433334900000002],[-66.1228433,-17.4326359],[-66.1228832,-17.431594500000003],[-66.12294100000001,-17.4305148],[-66.1229469,-17.430403100000003],[-66.12295420000001,-17.4302664],[-66.12307360000001,-17.4280356],[-66.1239226,-17.4280784],[-66.12441050000001,-17.4281031],[-66.1249315,-17.4281283],[-66.12560400000001,-17.4281682],[-66.12582450000001,-17.428178300000003],[-66.1264786,-17.4282143],[-66.1272496,-17.428253100000003],[-66.1273146,-17.4270856],[-66.1273646,-17.426460300000002],[-66.12736740000001,-17.4264139],[-66.127397,-17.425847400000002],[-66.1274453,-17.425095900000002],[-66.12747320000001,-17.4246078],[-66.1275289,-17.423436900000002],[-66.12753210000001,-17.423368500000002],[-66.1275365,-17.4232601],[-66.12753930000001,-17.4232099],[-66.1275731,-17.422605],[-66.1276157,-17.4220359],[-66.1276175,-17.422010800000002],[-66.1276229,-17.4219462],[-66.12762740000001,-17.4218899],[-66.12762930000001,-17.4218578],[-66.12765680000001,-17.4213869],[-66.12769460000001,-17.420740700000003],[-66.127722,-17.42028],[-66.1277237,-17.4202514],[-66.1277257,-17.4202179],[-66.12772650000001,-17.4202039],[-66.12772980000001,-17.420148700000002],[-66.1277333,-17.4200902],[-66.1277348,-17.4200646],[-66.12775450000001,-17.419732300000003],[-66.1277764,-17.4193633],[-66.127778,-17.4193372],[-66.1277824,-17.419262800000002],[-66.1277853,-17.4192082],[-66.1277867,-17.4191819],[-66.1278082,-17.418777300000002],[-66.12781910000001,-17.4185756],[-66.1278204,-17.418551200000003],[-66.12782410000001,-17.418482800000003],[-66.1278286,-17.418398600000003],[-66.1278302,-17.418368400000002],[-66.12786510000001,-17.4177138],[-66.12788690000001,-17.4174271],[-66.127892,-17.4173961],[-66.1279014,-17.4173292],[-66.12791080000001,-17.4172623],[-66.12801350000001,-17.417240600000003],[-66.12916270000001,-17.4174633],[-66.1291949,-17.4174693],[-66.1292336,-17.4174766],[-66.13000380000001,-17.4176207],[-66.13004090000001,-17.417627600000003],[-66.13010720000001,-17.417640000000002],[-66.13100610000001,-17.417808200000003],[-66.13115930000001,-17.4178369],[-66.13118220000001,-17.4178412],[-66.13134310000001,-17.4178779],[-66.1315374,-17.417923000000002],[-66.131685,-17.4179654],[-66.1318439,-17.4180187],[-66.1319897,-17.4180716],[-66.1321085,-17.418118],[-66.13222180000001,-17.418171700000002],[-66.1323799,-17.4182516],[-66.1325147,-17.41833],[-66.13268400000001,-17.4184358],[-66.13279700000001,-17.418512800000002],[-66.13291020000001,-17.418589800000003],[-66.1331396,-17.418740300000003],[-66.13335550000001,-17.418874900000002],[-66.1335217,-17.418969800000003],[-66.13372170000001,-17.4190533],[-66.1337981,-17.419081900000002],[-66.13391920000001,-17.419115],[-66.1340337,-17.4191405],[-66.1340596,-17.4191462],[-66.1341589,-17.4191605],[-66.13430170000001,-17.4191702],[-66.1344873,-17.4191718],[-66.134679,-17.419149800000003],[-66.1348851,-17.4191073],[-66.1351046,-17.4190302],[-66.13528020000001,-17.418941500000003],[-66.13545350000001,-17.4188374],[-66.1356068,-17.418733200000002],[-66.13565530000001,-17.418785800000002],[-66.13575560000001,-17.4189015],[-66.13602390000001,-17.4191587],[-66.1365076,-17.4196074],[-66.13721690000001,-17.4202653],[-66.1372329,-17.4202802],[-66.137522,-17.4205384],[-66.13801950000001,-17.420991100000002],[-66.13871750000001,-17.420301400000003],[-66.1392069,-17.4197886],[-66.1392703,-17.4197221],[-66.13936000000001,-17.4196315],[-66.1394624,-17.4195755],[-66.1394879,-17.419541300000002],[-66.139515,-17.4195141],[-66.1395526,-17.4194861],[-66.1395923,-17.4194651],[-66.13963480000001,-17.4194503],[-66.1396792,-17.4194418],[-66.1397245,-17.4194399],[-66.13976960000001,-17.419444700000003],[-66.1398175,-17.4194575],[-66.1398614,-17.419477200000003],[-66.13989790000001,-17.419500900000003],[-66.1399258,-17.419525],[-66.14000770000001,-17.419521800000002],[-66.1400514,-17.419520100000003],[-66.1402115,-17.419513900000002],[-66.1405216,-17.419496600000002],[-66.14089290000001,-17.4194776],[-66.14149160000001,-17.419443100000002],[-66.1415853,-17.419438300000003],[-66.14194490000001,-17.4194199],[-66.14210580000001,-17.4194116],[-66.1426639,-17.419379000000003],[-66.14272220000001,-17.419375600000002],[-66.1431326,-17.4193563],[-66.1432274,-17.419372000000003],[-66.14325120000001,-17.4193824],[-66.14329070000001,-17.419399700000003],[-66.1433949,-17.4194579],[-66.1434629,-17.419485400000003],[-66.143516,-17.4195031],[-66.14357170000001,-17.4195087],[-66.1439574,-17.4194855],[-66.1439955,-17.419483000000003],[-66.1445819,-17.419447700000003],[-66.1459997,-17.4193621],[-66.14630290000001,-17.4193438],[-66.1463686,-17.4193399],[-66.1470017,-17.419301700000002],[-66.14761060000001,-17.4192639],[-66.1482076,-17.4192269],[-66.14865130000001,-17.419199300000002],[-66.14876380000001,-17.419206300000003],[-66.14885600000001,-17.4192159],[-66.14920330000001,-17.4192837],[-66.1492609,-17.419303900000003],[-66.14980870000001,-17.4185285],[-66.1500316,-17.418177200000002],[-66.1500836,-17.418057700000002],[-66.1501324,-17.417915800000003],[-66.150174,-17.417653700000002],[-66.1502777,-17.417102],[-66.150343,-17.4167342],[-66.1503649,-17.416584800000003],[-66.1503703,-17.4164868],[-66.150362,-17.416201400000002],[-66.15033290000001,-17.415936100000003],[-66.15031160000001,-17.4157882],[-66.1502789,-17.4156198],[-66.15022250000001,-17.4154568],[-66.1501472,-17.415268400000002],[-66.1500479,-17.415089100000003],[-66.14991640000001,-17.414880800000002],[-66.14978500000001,-17.4146895],[-66.1495903,-17.414493800000002],[-66.1493566,-17.4142422],[-66.1503342,-17.413720400000003],[-66.151189,-17.413253100000002],[-66.1511181,-17.412696500000003],[-66.1510765,-17.412379400000003],[-66.15104070000001,-17.4119011],[-66.1510011,-17.411409300000003],[-66.1507869,-17.409366000000002],[-66.15076470000001,-17.4087703],[-66.1507358,-17.4084235],[-66.15071250000001,-17.407631700000003],[-66.1507746,-17.4049827],[-66.150771,-17.404971600000003],[-66.15077000000001,-17.4049601],[-66.15077190000001,-17.404948400000002],[-66.1507766,-17.4049374],[-66.1507837,-17.404927700000002],[-66.1508472,-17.4046287],[-66.150896,-17.404378100000002],[-66.1509295,-17.404109400000003],[-66.1509427,-17.403939700000002],[-66.15092440000001,-17.403489],[-66.1509204,-17.4033251],[-66.1508986,-17.402581700000002],[-66.15089210000001,-17.402390800000003],[-66.15088990000001,-17.4022599],[-66.15091410000001,-17.4021192],[-66.1509729,-17.4019459],[-66.1510198,-17.4018412],[-66.1511813,-17.401497300000003],[-66.1512002,-17.401454400000002],[-66.1512301,-17.4013183],[-66.1512356,-17.4011615],[-66.15122360000001,-17.4010129],[-66.15119960000001,-17.400908400000002],[-66.15115990000001,-17.400784],[-66.1511079,-17.4006717],[-66.15106730000001,-17.4005979],[-66.1509999,-17.400493200000003],[-66.1509233,-17.4003938],[-66.1508146,-17.400286400000002],[-66.15086930000001,-17.4002252],[-66.15089730000001,-17.400136600000003],[-66.1509151,-17.399965],[-66.1509855,-17.3992846],[-66.1510846,-17.398539600000003],[-66.1510902,-17.398456600000003],[-66.15115630000001,-17.397774700000003],[-66.1513099,-17.396614800000002],[-66.15150530000001,-17.395542600000002],[-66.1515705,-17.395216400000002],[-66.15171020000001,-17.394513800000002],[-66.1519057,-17.3934654],[-66.152094,-17.3924306],[-66.15227150000001,-17.391539],[-66.15228610000001,-17.3914711],[-66.1523052,-17.391382],[-66.15238160000001,-17.3913942],[-66.1533232,-17.3915757],[-66.1533744,-17.3915849],[-66.15342190000001,-17.3915933],[-66.1540423,-17.3917031],[-66.1544525,-17.3917758],[-66.1545177,-17.3917873],[-66.1545971,-17.3918012],[-66.1550581,-17.3918822],[-66.155297,-17.391924200000002],[-66.15553580000001,-17.3919661],[-66.1556072,-17.391979000000003],[-66.15566120000001,-17.3919889],[-66.1566289,-17.3921703],[-66.15667280000001,-17.3921785],[-66.156727,-17.392187500000002],[-66.1573168,-17.3922886],[-66.1577055,-17.3923552],[-66.157753,-17.3923634],[-66.1577984,-17.3923713],[-66.15796230000001,-17.392399700000002],[-66.1585898,-17.3925084],[-66.158634,-17.3925161],[-66.1587059,-17.3925285],[-66.1587863,-17.3925424],[-66.158879,-17.3925589],[-66.1589397,-17.3925698],[-66.1598762,-17.3927236],[-66.1599202,-17.3927307],[-66.1599716,-17.3927397],[-66.1610041,-17.392913500000002],[-66.1610608,-17.3929264],[-66.1611287,-17.392944],[-66.1613786,-17.392987700000003],[-66.1615323,-17.393014500000003],[-66.1619926,-17.393095000000002],[-66.1620628,-17.3931073],[-66.16207010000001,-17.393052700000002],[-66.16221990000001,-17.3919797],[-66.16229560000001,-17.391444],[-66.16231730000001,-17.3912911],[-66.1623653,-17.390951400000002],[-66.1623725,-17.390900700000003],[-66.1623799,-17.390851],[-66.162501,-17.3900365],[-66.16251220000001,-17.389961200000002],[-66.1625217,-17.3898975],[-66.1625312,-17.389833300000003],[-66.1626847,-17.388801],[-66.162692,-17.388752],[-66.16270200000001,-17.3886861],[-66.1627605,-17.3883003],[-66.1628213,-17.387900700000003],[-66.16282860000001,-17.387844700000002],[-66.1628914,-17.3878546],[-66.1631828,-17.387904000000002],[-66.16373370000001,-17.3879975],[-66.1637673,-17.3879902],[-66.16379570000001,-17.3879805],[-66.16387950000001,-17.3879509],[-66.163953,-17.387925000000003],[-66.16417700000001,-17.387846000000003],[-66.1643272,-17.3877922],[-66.16438480000001,-17.387771100000002],[-66.16444410000001,-17.3877488],[-66.16451620000001,-17.3877208],[-66.16485780000001,-17.387580900000003],[-66.16490180000001,-17.3875643],[-66.164924,-17.3875552],[-66.16503630000001,-17.387523700000003],[-66.1655829,-17.3873123],[-66.1657108,-17.387250700000003],[-66.1657931,-17.387190500000003],[-66.1658953,-17.387097200000003],[-66.16595330000001,-17.3870258],[-66.16599860000001,-17.3869648],[-66.1661071,-17.386818700000003],[-66.1663218,-17.3865558],[-66.16657070000001,-17.3862431],[-66.16661040000001,-17.386195700000002],[-66.1670888,-17.385664600000002],[-66.1675962,-17.3850394],[-66.16802790000001,-17.385542400000002],[-66.16836430000001,-17.3859622],[-66.1684075,-17.3860142],[-66.16847480000001,-17.3860952],[-66.168515,-17.3861436],[-66.16920850000001,-17.3869547],[-66.1703121,-17.387007200000003],[-66.17038520000001,-17.387011700000002],[-66.17048190000001,-17.3874454],[-66.1705034,-17.387504900000003],[-66.1705393,-17.387559800000002],[-66.17064880000001,-17.3877039],[-66.1706686,-17.387726200000003],[-66.1706841,-17.3877513],[-66.1706953,-17.387779300000002],[-66.1707014,-17.387808600000003],[-66.1707023,-17.387838400000003],[-66.1707925,-17.3878439],[-66.1709328,-17.3878524],[-66.1721275,-17.3879047],[-66.17297760000001,-17.3879406],[-66.1735707,-17.387965700000002],[-66.17364620000001,-17.3879689],[-66.17379620000001,-17.3879756],[-66.17468480000001,-17.3880149],[-66.17476210000001,-17.3880184],[-66.1748398,-17.3880181],[-66.1756089,-17.388016],[-66.1762478,-17.3880142],[-66.1763336,-17.388012500000002],[-66.1769045,-17.388003700000002],[-66.1774681,-17.387997900000002],[-66.17758590000001,-17.387967000000003],[-66.17765650000001,-17.3879665],[-66.177802,-17.387968500000003],[-66.1779564,-17.3879695],[-66.17867620000001,-17.387958100000002],[-66.1787724,-17.387954500000003],[-66.1788008,-17.387949600000002],[-66.17888190000001,-17.387927400000002],[-66.17901520000001,-17.3878877],[-66.17908700000001,-17.387865],[-66.1792439,-17.387826800000003],[-66.17928710000001,-17.3878199],[-66.179648,-17.3877999],[-66.18004810000001,-17.3877762],[-66.1810382,-17.387717700000003],[-66.1810664,-17.387716],[-66.1811431,-17.387713100000003],[-66.18126210000001,-17.387699400000002],[-66.1813422,-17.387679400000003],[-66.1814154,-17.3876531],[-66.18186250000001,-17.387467800000003],[-66.1819651,-17.387408200000003],[-66.18202840000001,-17.3873648],[-66.18210660000001,-17.3872758],[-66.18215950000001,-17.387233700000003],[-66.1822229,-17.3872022],[-66.18240970000001,-17.387167400000003],[-66.1824069,-17.387429],[-66.18242020000001,-17.387517300000003],[-66.18242790000001,-17.387549200000002],[-66.18252580000001,-17.387829200000002],[-66.18377450000001,-17.3872657],[-66.18398090000001,-17.3876893],[-66.1848511,-17.3872815],[-66.185721,-17.3890019],[-66.1858559,-17.3889806],[-66.18594440000001,-17.3889673],[-66.1860451,-17.388945300000003],[-66.18632170000001,-17.3888849],[-66.18647370000001,-17.388813000000003],[-66.18665080000001,-17.3887594],[-66.1873439,-17.388558900000003],[-66.188046,-17.3883502],[-66.18810880000001,-17.3883356],[-66.18822420000001,-17.3882997],[-66.1883444,-17.3882453],[-66.18857480000001,-17.3881866],[-66.1886903,-17.388186800000003],[-66.1887559,-17.3881303],[-66.18880750000001,-17.3880714],[-66.18908610000001,-17.3876825],[-66.1891813,-17.387546500000003],[-66.1892523,-17.3874673],[-66.1893304,-17.387415500000003],[-66.1896974,-17.3873298],[-66.1898331,-17.3872922],[-66.1901285,-17.3872101],[-66.19025090000001,-17.3871536],[-66.19045220000001,-17.3870392],[-66.19057930000001,-17.388058500000003],[-66.1905832,-17.3880887],[-66.1906354,-17.388607800000003],[-66.1906592,-17.388788700000003],[-66.19070810000001,-17.389159000000003],[-66.1907266,-17.3892989],[-66.19074450000001,-17.3894348],[-66.1908612,-17.389705000000003],[-66.19242910000001,-17.3896632],[-66.1936644,-17.389602800000002],[-66.19362770000001,-17.389478],[-66.1941707,-17.389462],[-66.19396950000001,-17.387977600000003],[-66.1944965,-17.3879653],[-66.19518400000001,-17.3879525],[-66.1950987,-17.387402400000003],[-66.19502560000001,-17.386876400000002],[-66.19490180000001,-17.3868763],[-66.19488940000001,-17.386748100000002],[-66.1954314,-17.386737],[-66.19556650000001,-17.386753600000002],[-66.1958005,-17.3868052],[-66.19628460000001,-17.3869329],[-66.19636000000001,-17.386941200000003],[-66.1964499,-17.386943600000002],[-66.1965395,-17.3869387],[-66.19659940000001,-17.386925700000003],[-66.1970563,-17.386786400000002],[-66.197282,-17.386715300000002],[-66.1979249,-17.386418600000002],[-66.1985779,-17.3861014],[-66.19891480000001,-17.385939500000003],[-66.1990255,-17.385876600000003],[-66.1990775,-17.385848900000003],[-66.19908380000001,-17.3858308],[-66.19909480000001,-17.3858149],[-66.19910970000001,-17.3858022],[-66.1991268,-17.3857921],[-66.19914580000001,-17.385785900000002],[-66.19916570000001,-17.3857837],[-66.1991857,-17.385785400000003],[-66.19920490000001,-17.385791],[-66.1992165,-17.3857967],[-66.199281,-17.385776],[-66.1993642,-17.385756500000003],[-66.1994926,-17.385716400000003],[-66.1999461,-17.3855639],[-66.2002259,-17.3854764],[-66.2014896,-17.3850607],[-66.2017105,-17.384965100000002],[-66.2017654,-17.3849413],[-66.20183130000001,-17.384912],[-66.2023188,-17.384695100000002],[-66.20249820000001,-17.384627400000003],[-66.20275880000001,-17.384562900000002],[-66.2027525,-17.3835905],[-66.203293,-17.383560600000003],[-66.203991,-17.383471200000002],[-66.2043957,-17.3834394],[-66.2051826,-17.3833804],[-66.2066875,-17.3832597],[-66.2067507,-17.383194500000002],[-66.20685350000001,-17.383058000000002],[-66.20702410000001,-17.383090900000003],[-66.2077836,-17.383069300000002],[-66.2079027,-17.383032500000002]],"nodes":[2677220995,1600641459,2677410675,3016798118,3016798112,3016784700,3016786055,3016786056,3016786079,3016786066,3016786076,3016769402,1600623774,2677220948,3412878133,1600623761,3016769400,3412878129,11384823801,3016769399,3016769393,1600623758,1600623818,1600599806,1600599499,13061879204,1600599629,13061879205,1600599637,1600599608,1600599522,1600599670,3412878058,1600599605,1600599694,1600599642,2032749242,2032749282,2032749283,3365328350,3365328347,2032749219,3365328340,8313817447,2032749243,2675803690,2675803692,2675803694,2675803681,2675803666,2032749284,3365328299,2032749230,2032749187,2032749238,3365228117,3365228116,2032749251,3362500843,2675803416,2675803418,2675803423,3017315874,2675803429,2266514674,2675803352,2675803284,11407724234,2675803227,2675803165,2675803090,13793025113,13793025110,13793025111,13793025112,2043334384,12924969215,12599401430,1610527007,4868982766,12924969214,8692475765,2035868712,12560641895,12560641893,3354347609,11407724261,2043334192,12560641894,12560641896,9411678285,12598730947,12598730943,3354347372,12598730944,12598730948,2035868261,12598730949,12598730945,2674329199,12598730946,9411678222,2674329108,13056685927,2674329054,13444552319,560155913,8273149246,8692481642,11846333305,8273149247,11846333306,8273149248,8689673698,13778989367,13056685917,8273149249,8730115034,8730115035,8730115049,8730115037,8730115050,8730115038,8730115043,8730115044,8730115066,8730115045,8730115055,8730115046,8730115047,8730115056,8730115057,8730115058,9309456880,8730115060,13778989380,8730115061,8730115084,8730115085,8730115086,8730115087,8730115088,8730115089,8730115090,8730115091,8730115092,1610527024,2272229817,1610527036,1610527062,13755642386,2272229882,2272229895,1610526987,3337319129,10258291963,1610527049,13203351491,2674329297,8729961977,9378197653,3543082784,2674329292,3543082782,3337319094,3543082783,2674329294,9378197650,9378197651,3543082787,8729962050,10258381350,8945388381,2674329301,8729962103,2032952265,2032951994,13203309784,13203309788,2032952019,13203351573,2032951778,1600426562,3335494284,13203351610,3335494286,1600426599,3335502895,8744530001,1600426627,3335502893,12484607568,2032952107,12484607566,12484607564,3017377565,2032952030,2032951897,2032952142,4871222800,8748098602,1600426552,12484607542,4871222807,3331947272,2032952227,2032951979,2032952249,1737906678,3017377426,2032951903,3331947244,3017377428,2032952152,2032952190,3017377429,2032951784,8945406894,3331947185,3017377431,3331947177,2032952104,3017377551,2032952251,2545423149,646065259,646065262,5610210872,3315366926,5610210854,5610210462,2768899163,5610210855,2768899137,2768899091,2768899088,2768899086,2768899085,2768899083,2768899082,2768899070,2768899068,12313146773,3325688394,7424209198,2768899058,2768899047,8192846541,2768899017,2768899015,12313146763,2768899012,2768899009,7197849281,2768899006,2768899001,2768899000,2768898998,2768898997,3322574459,2768898995,2768898994,8089836053,2768898991,3322574447,2768898988,8089836061,311358095,648548806,1727306395,310501007,310500994,310500614,8398256514,310281534,303217865,310256285,2289661585,698492406,303218726,2289661575,2289661586,303218727,2289661587,2377781522,2292218207,303218728,2292218208,9567473057,10884624348,4503778522,303218729,2292218216,2295541574,303218730,2295541575,8609183214,2295541589,308297343,2295541594,11043280710,9704099835,13835163241,2295541614,308297344,648546083,2295541617,2694171662,308297345,2694171663,2694171668,308297346,2694171669,9155792279,9155792272,8565985149,308297347,10879431897,308304263,5111785434,8226868915,9650376675,310502266,8143694038,310502423,8143694041,310501179,8667184720,4770271224,310501225,4770271223,2312521554,2312521504,310501271,2312521499,12098045807,2312521516,9163629267,1636978129,3297079279,1636978122,2312521506,2312521495,676069598,9163629263,9163629266,11079349297,11079424622,676069597,1636978099,1636978093,1636978087,1636978084,1636978082,6481891030,12956643101,8667184717,1636978075,598178961,9686979844,598179000,598179002,2602832696,598178947,9894887115,9894887116,598178945,598178943,1724886152,598178941,1806931203,3250373482,7058428982,1718722266,9343503250,3250373496,9343503249,3250373501,3250373512,1718722262,7943494882,563279649,10809785785,5213287330,598178874,5213287326,5213287338,563279642,5213287334,563279644,563279606,598178868,563279605,11074006128,9220533400,1807087123,7961288724,9220533381,9896747494,2381925081,9928780893,2381925068,2381925054,9900785336,9930397062,12652477638,7961288736,7961288734,7961801487,2381925035,2381925034,2690718995,9000087168,560522680,7961801417,560522640,9000087180,2381925009,7961801385,7961798473,7961801403,7961801405,2379656017,1974650111,1974650113,1974650109,560522642,560522602,560522566,560522564,560522552,12723648812,560522562,12723648811,560522558,560522469,560522489,8060490692,8060452271,560522495,3265460934,2265578498,560522488,2265578497,2265578489,560522487,560522486,2265578486,560522491,560522485,560522484,9701692985,560522481,560522476,12650611357,3783610630,3265460943,12650627900,12650627904,560522460,560522458,560522459,560522403,560522405,560522404,560522428,12650611377,560522425,2137443971,560522435,560522430,560522433,2137733239,3706871967,3265528155,560522421,3265528365,6376331865,9316680352,3265528364,6376331864,560084604,560522423,560522391,8670188797,8670188798,3263807769,11071425290,11071425289,3263807767,3263807766,2357127467,9355419496,9355419497,9355419501,3263807764,8670188803,8670188802,8670188801,6558458732,560437436,560437432,10875062212,548128171,10875062209,2160418472,3265528121,560084612,560437433,8508027699,560437414,8508027700,560437410,560437413,560437409,560437425,3259851990,3259851989,560437424]},"gtfs":{"agency_id":10,"route_id":64,"services":[{"service_id":"Mo-Su","startTime":"06:00","endTime":"22:00","trip_id":9466783}],"filteredStops":{"nodes":[2677220995,3016798112,3016786079,2677220948,3412878129,1600623758,13061879204,1600599608,1600599694,2032749283,3365328340,2675803692,2032749284,3365228117,2675803416,2675803429,11407724234,13793025113,12924969215,12924969214,12560641893,12560641894,12598730943,2035868261,9411678222,13444552319,11846333305,8689673698,8730115034,8730115038,8730115045,8730115056,8730115060,8730115085,8730115090,2272229817,2272229895,1610526987,2674329297,2674329292,9378197650,10258381350,2032951994,2032951778,3335494286,3335502893,12484607564,4871222800,3331947272,1737906678,2032952152,8945406894,2032952251,2545423149,646065259,646065262,5610210854,2768899163,2768899091,2768899086,2768899082,2768899068,7424209198,8192846541,2768899015,2768899009,2768899006,2768898998,3322574459,2768898991,3322574447,2768898988,311358095,648548806,1727306395,310501007,310500994,310500614,8398256514,310281534,303217865,310256285,303218726,2289661587,303218728,4503778522,2295541574,8609183214,11043280710,308297344,648546083,2694171668,9155792272,5111785434,310502423,4770271224,310501271,1636978129,676069598,11079424622,1636978084,1636978075,598179002,598178943,1724886152,3250373482,9343503250,3250373512,563279649,598178874,563279642,563279606,9220533400,9220533381,2381925068,2381925054,7961288736,2690718995,560522640,7961798473,1974650113,560522566,560522562,560522489,2265578498,560522487,560522485,12650611357,560522460,560522458,560522405,560522425,560522430,3706871967,3265528365,6376331864,560522391,3263807769,3263807766,9355419497,8670188803,6558458732,548128171,560084612,560437433,560437414,8508027700,560437413,560437409,3259851990,560437424],"coordinates":[[-66.11270280000001,-17.442428200000002],[-66.11286480000001,-17.4406296],[-66.1131356,-17.4391439],[-66.1136429,-17.4371988],[-66.1149498,-17.4371899],[-66.1158104,-17.4370547],[-66.1169127,-17.4368175],[-66.1176748,-17.4364929],[-66.119428,-17.436244600000002],[-66.1196053,-17.4361773],[-66.1194844,-17.435555500000003],[-66.1213618,-17.435507700000002],[-66.12268680000001,-17.4338209],[-66.1229469,-17.430403100000003],[-66.12441050000001,-17.4281031],[-66.1264786,-17.4282143],[-66.12736740000001,-17.4264139],[-66.1275289,-17.423436900000002],[-66.1276157,-17.4220359],[-66.12762930000001,-17.4218578],[-66.1277237,-17.4202514],[-66.1277333,-17.4200902],[-66.127778,-17.4193372],[-66.1278082,-17.418777300000002],[-66.1278302,-17.418368400000002],[-66.1279014,-17.4173292],[-66.1291949,-17.4174693],[-66.13010720000001,-17.417640000000002],[-66.13134310000001,-17.4178779],[-66.1321085,-17.418118],[-66.13268400000001,-17.4184358],[-66.13335550000001,-17.418874900000002],[-66.13391920000001,-17.419115],[-66.13430170000001,-17.4191702],[-66.13528020000001,-17.418941500000003],[-66.13575560000001,-17.4189015],[-66.137522,-17.4205384],[-66.13801950000001,-17.420991100000002],[-66.1394624,-17.4195755],[-66.1395923,-17.4194651],[-66.1398175,-17.4194575],[-66.14000770000001,-17.419521800000002],[-66.14149160000001,-17.419443100000002],[-66.14272220000001,-17.419375600000002],[-66.14329070000001,-17.419399700000003],[-66.1439574,-17.4194855],[-66.14630290000001,-17.4193438],[-66.14865130000001,-17.419199300000002],[-66.14980870000001,-17.4185285],[-66.150174,-17.417653700000002],[-66.150362,-17.416201400000002],[-66.15022250000001,-17.4154568],[-66.1493566,-17.4142422],[-66.1503342,-17.413720400000003],[-66.151189,-17.413253100000002],[-66.1511181,-17.412696500000003],[-66.1510011,-17.411409300000003],[-66.15076470000001,-17.4087703],[-66.1507746,-17.4049827],[-66.15077000000001,-17.4049601],[-66.1507837,-17.404927700000002],[-66.150896,-17.404378100000002],[-66.15092440000001,-17.403489],[-66.15089210000001,-17.402390800000003],[-66.15091410000001,-17.4021192],[-66.1511813,-17.401497300000003],[-66.1512301,-17.4013183],[-66.15119960000001,-17.400908400000002],[-66.1511079,-17.4006717],[-66.1508146,-17.400286400000002],[-66.15086930000001,-17.4002252],[-66.15089730000001,-17.400136600000003],[-66.1509855,-17.3992846],[-66.1510846,-17.398539600000003],[-66.1510902,-17.398456600000003],[-66.15115630000001,-17.397774700000003],[-66.1513099,-17.396614800000002],[-66.15150530000001,-17.395542600000002],[-66.1515705,-17.395216400000002],[-66.15171020000001,-17.394513800000002],[-66.1519057,-17.3934654],[-66.152094,-17.3924306],[-66.1523052,-17.391382],[-66.15342190000001,-17.3915933],[-66.1545177,-17.3917873],[-66.15553580000001,-17.3919661],[-66.1566289,-17.3921703],[-66.1573168,-17.3922886],[-66.15796230000001,-17.392399700000002],[-66.1587863,-17.3925424],[-66.158879,-17.3925589],[-66.1610041,-17.392913500000002],[-66.1615323,-17.393014500000003],[-66.16229560000001,-17.391444],[-66.162501,-17.3900365],[-66.1626847,-17.388801],[-66.16282860000001,-17.387844700000002],[-66.16379570000001,-17.3879805],[-66.16438480000001,-17.387771100000002],[-66.16490180000001,-17.3875643],[-66.1657931,-17.387190500000003],[-66.1663218,-17.3865558],[-66.1675962,-17.3850394],[-66.16920850000001,-17.3869547],[-66.1703121,-17.387007200000003],[-66.1705034,-17.387504900000003],[-66.1706686,-17.387726200000003],[-66.1707023,-17.387838400000003],[-66.1721275,-17.3879047],[-66.17364620000001,-17.3879689],[-66.17476210000001,-17.3880184],[-66.1762478,-17.3880142],[-66.17758590000001,-17.387967000000003],[-66.1779564,-17.3879695],[-66.17888190000001,-17.387927400000002],[-66.17901520000001,-17.3878877],[-66.179648,-17.3877999],[-66.18126210000001,-17.387699400000002],[-66.1819651,-17.387408200000003],[-66.1822229,-17.3872022],[-66.18252580000001,-17.387829200000002],[-66.185721,-17.3890019],[-66.18632170000001,-17.3888849],[-66.188046,-17.3883502],[-66.1886903,-17.388186800000003],[-66.1891813,-17.387546500000003],[-66.1898331,-17.3872922],[-66.1905832,-17.3880887],[-66.19074450000001,-17.3894348],[-66.1908612,-17.389705000000003],[-66.19362770000001,-17.389478],[-66.19518400000001,-17.3879525],[-66.19490180000001,-17.3868763],[-66.19556650000001,-17.386753600000002],[-66.19636000000001,-17.386941200000003],[-66.1970563,-17.386786400000002],[-66.1985779,-17.3861014],[-66.1990775,-17.385848900000003],[-66.1991268,-17.3857921],[-66.1991857,-17.385785400000003],[-66.199281,-17.385776],[-66.1999461,-17.3855639],[-66.2017654,-17.3849413],[-66.20275880000001,-17.384562900000002],[-66.2027525,-17.3835905],[-66.203991,-17.383471200000002],[-66.2043957,-17.3834394],[-66.2066875,-17.3832597],[-66.2067507,-17.383194500000002],[-66.20702410000001,-17.383090900000003],[-66.2079027,-17.383032500000002]]}}},{"type":"Feature","properties":{"addr:city":"Cochabamba","bench":"no","bus":"yes","covered":"no","departures_board":"no","highway":"bus_stop","name":"Parada 6","public_transport":"platform","shelter":"no","id":7254170124},"geometry":{"type":"Point","coordinates":[-66.11274850000001,-17.4423838]}},{"type":"Feature","properties":{"bench":"no","bin":"yes","bus":"yes","departures_board":"no","highway":"bus_stop","level":"0","lit":"no","name":"Campo Ferial Alalay","pole":"yes","public_transport":"platform","shelter":"no","wheelchair":"no","id":9546323316},"geometry":{"type":"Point","coordinates":[-66.12773510000001,-17.418648100000002]}},{"type":"Feature","properties":{"bench":"no","bin":"no","bus":"yes","departures_board":"no","highway":"bus_stop","lit":"no","name":"Lanza","pole":"yes","public_transport":"platform","shelter":"no","id":5472737093},"geometry":{"type":"Point","coordinates":[-66.1532679,-17.3915168]}},{"type":"Feature","properties":{"bench":"no","bin":"no","bus":"yes","departures_board":"no","highway":"bus_stop","kerb":"raised","level":"0","lit":"no","name":"Baptista","operator":"Gobierno Autónomo Municipal de Cochabamba","pole":"yes","public_transport":"platform","shelter":"no","tactile_paving":"no","wheelchair":"no","id":6546789754},"geometry":{"type":"Point","coordinates":[-66.15767260000001,-17.392301900000003]}},{"type":"Feature","properties":{"bench":"yes","bin":"no","bus":"yes","departures_board":"no","highway":"bus_stop","kerb":"raised","level":"0","lit":"no","name":"Melchor Pérez de Olguín","operator":"Gobierno Autónomo Municipal de Cochabamba","public_transport":"platform","shelter":"yes","tactile_paving":"no","wheelchair":"no","id":6426985929},"geometry":{"type":"Point","coordinates":[-66.1786515,-17.387922800000002]}},{"type":"Feature","properties":{"bench":"no","bin":"no","bus":"yes","departures_board":"no","highway":"bus_stop","informal":"yes","level":"0","lit":"no","name":"Beijing y d'Orbigny","public_transport":"platform","shelter":"no","tactile_paving":"no","wheelchair":"no","id":7961801409},"geometry":{"type":"Point","coordinates":[-66.1818889,-17.3874046]}},{"type":"Feature","properties":{"addr:city":"Cochabamba","bench":"no","bus":"yes","covered":"no","departures_board":"no","highway":"bus_stop","name":"Parada 6","public_transport":"platform","shelter":"no","id":7254170125},"geometry":{"type":"Point","coordinates":[-66.20788200000001,-17.383013700000003]}}]}