{"type":"FeatureCollection","features":[{"type":"Feature","properties":{"check_date":"2025-12-10","colour":"#006600","colour:text":"#FFFFFF","fee":"yes","from":"Avenida Manuel Seoane","hash":"16830","interval":"3","name":"Avenida Manuel Seoane → Via Panamericana Norte","network":"Transporte Público Urbano Trujillo","opening_hours":"Mo-Su 05:00-23:00","operator":"CALIFORNIA S.A.","public_transport:version":"2","ref":"M-01 C","route":"bus","survey:avg_speed:kmh":"20","to":"Via Panamericana Norte","type":"route","id":19946938},"geometry":{"type":"LineString","coordinates":[[-79.0518622,-8.1468076],[-79.0516173,-8.1465108],[-79.0511629,-8.1459644],[-79.0507061,-8.1453913],[-79.0506466,-8.1453244],[-79.0499075,-8.1443797],[-79.0498664,-8.1442991],[-79.049682,-8.1439794],[-79.0493032,-8.1435325],[-79.0492352,-8.1434523],[-79.0487194,-8.1428523],[-79.0478485,-8.1418522],[-79.0468662,-8.1407255],[-79.046312,-8.1400846],[-79.0458306,-8.139534],[-79.0450505,-8.1386491],[-79.0447663,-8.1383077],[-79.0446671,-8.1381884],[-79.0441871,-8.1376403],[-79.0437451,-8.1371288],[-79.0433341,-8.1366539],[-79.0431784,-8.1364729],[-79.0427061,-8.1359052],[-79.0424937,-8.135964],[-79.0419235,-8.1361058],[-79.0418417,-8.1361147],[-79.0414147,-8.1361702],[-79.0410434,-8.1362738],[-79.0404559,-8.136506],[-79.0393048,-8.137004],[-79.0389247,-8.137166],[-79.0383026,-8.1374218],[-79.0378535,-8.1376065],[-79.0377274,-8.1376461],[-79.0376807,-8.1375746],[-79.0375855,-8.1374346],[-79.0375024,-8.1372668],[-79.0374407,-8.1370281],[-79.0373976,-8.1368612],[-79.0370948,-8.1357206],[-79.0370748,-8.1356672],[-79.0370609,-8.1356302],[-79.0370188,-8.1355478],[-79.0369514,-8.1354639],[-79.0367413,-8.135263],[-79.036682,-8.1352076],[-79.0366348,-8.1351635],[-79.036585,-8.135117],[-79.0365072,-8.1350389],[-79.0364741,-8.1350021],[-79.0361336,-8.1346237],[-79.036066,-8.1345424],[-79.0356959,-8.1341252],[-79.0354072,-8.1337715],[-79.0350949,-8.1334225],[-79.0347908,-8.1330769],[-79.0336459,-8.1317665],[-79.0335786,-8.1316825],[-79.0334353,-8.131521],[-79.0333411,-8.1314119],[-79.0329775,-8.131],[-79.0325901,-8.1305611],[-79.0325258,-8.1304852],[-79.0324392,-8.1303831],[-79.0323073,-8.1302408],[-79.0320215,-8.1299147],[-79.030873,-8.1284725],[-79.030587,-8.1281101],[-79.0304174,-8.1278805],[-79.0303286,-8.127691],[-79.0302664,-8.1274747],[-79.0302541,-8.1273557],[-79.0302541,-8.1271147],[-79.0303076,-8.1267914],[-79.0303135,-8.1267253],[-79.0302526,-8.1267171],[-79.0299185,-8.1266745],[-79.0295335,-8.1266304],[-79.0293173,-8.1266056],[-79.0288559,-8.1265113],[-79.0282974,-8.1263971],[-79.0272399,-8.1260503],[-79.0262905,-8.1257014],[-79.0261484,-8.1256251],[-79.0259428,-8.1255147],[-79.0253822,-8.1252137],[-79.0244836,-8.1246723],[-79.0237336,-8.1241795],[-79.0236823,-8.1241458],[-79.023635,-8.1241261],[-79.0235902,-8.1241222],[-79.0234928,-8.1241332],[-79.0233923,-8.1241853],[-79.0232745,-8.1242196],[-79.0231521,-8.1242295],[-79.0230407,-8.1242171],[-79.0229336,-8.1241844],[-79.0228344,-8.1241327],[-79.022741,-8.1240583],[-79.0226643,-8.1239672],[-79.0226056,-8.1238588],[-79.0225705,-8.1237408],[-79.0225606,-8.1236181],[-79.0225722,-8.123515],[-79.0226016,-8.1234153],[-79.022648,-8.1233223],[-79.0226302,-8.1232373],[-79.0226174,-8.1231959],[-79.0225965,-8.1231517],[-79.0225738,-8.1231178],[-79.0217142,-8.1223186],[-79.0216371,-8.1222102],[-79.0213509,-8.121947],[-79.0210135,-8.1216482],[-79.0209833,-8.1216215],[-79.0208992,-8.1215398],[-79.0201851,-8.1208454],[-79.0198441,-8.1205092],[-79.01926,-8.1199234],[-79.0191778,-8.1198423],[-79.018871,-8.1194931],[-79.0185844,-8.1191612],[-79.0183603,-8.1189003],[-79.0182148,-8.1187268],[-79.0176554,-8.1180688],[-79.0176132,-8.1180192],[-79.0171913,-8.117523],[-79.016788,-8.1170486],[-79.0164702,-8.116631],[-79.0160971,-8.1161408],[-79.0158589,-8.1158277],[-79.0154267,-8.1152432],[-79.0151665,-8.1148914],[-79.0151129,-8.1148203],[-79.0148553,-8.1144167],[-79.0148298,-8.1143574],[-79.0147829,-8.1142839],[-79.0140645,-8.1128645],[-79.0139744,-8.1126865],[-79.0139228,-8.1125846],[-79.0136885,-8.1121218],[-79.0134903,-8.1117178],[-79.0130867,-8.1108703],[-79.0129591,-8.1106062],[-79.0127269,-8.1101257],[-79.0122533,-8.1091454],[-79.0121693,-8.1089804],[-79.0120304,-8.1087077],[-79.0120112,-8.1086683],[-79.0112078,-8.1070219],[-79.0108205,-8.1062206],[-79.0106874,-8.1059493],[-79.0106175,-8.1058067],[-79.0104006,-8.1053255],[-79.0103271,-8.1050546],[-79.0102999,-8.1049029],[-79.0102912,-8.1047385],[-79.0103336,-8.1044571],[-79.0104194,-8.104173],[-79.0108772,-8.1032432],[-79.0109127,-8.1031689],[-79.0110643,-8.1027749],[-79.0109298,-8.1026138],[-79.0108637,-8.1025337],[-79.0105134,-8.1021316],[-79.0100805,-8.1016148],[-79.0099966,-8.1015149],[-79.0097798,-8.1012538],[-79.0095466,-8.1009729],[-79.009278,-8.1006493],[-79.0089313,-8.1002317],[-79.008914,-8.1002109],[-79.0086681,-8.0999308],[-79.0084436,-8.0996751],[-79.008434,-8.0996632],[-79.0082817,-8.0994854],[-79.0075549,-8.0986333],[-79.0074679,-8.0985344],[-79.0075678,-8.0984727],[-79.0084058,-8.0980018],[-79.0088747,-8.0977384],[-79.0093535,-8.0974728],[-79.009454,-8.0974321],[-79.0094962,-8.0974149],[-79.0096324,-8.0973745],[-79.009985,-8.0972693],[-79.0101515,-8.0972259],[-79.0104264,-8.0971183],[-79.010498,-8.0970804],[-79.0106168,-8.0970121],[-79.0108563,-8.0968553],[-79.0109315,-8.0968047],[-79.0113972,-8.0964901],[-79.0115014,-8.0964198],[-79.0115392,-8.0963948],[-79.011907,-8.0961518],[-79.012748,-8.0955952],[-79.0135335,-8.0950845],[-79.0138578,-8.0948744],[-79.0150384,-8.094128],[-79.0151223,-8.0940819],[-79.0160225,-8.0934943],[-79.0166357,-8.0931125],[-79.0167318,-8.0930611],[-79.0168557,-8.0930063],[-79.0171148,-8.0929177],[-79.0180446,-8.0925975],[-79.018125,-8.0925687],[-79.018205,-8.0925328],[-79.0184609,-8.0924314],[-79.0185712,-8.0923887],[-79.0187502,-8.092327],[-79.0189438,-8.0922829],[-79.0189947,-8.0922654],[-79.0192844,-8.0920968],[-79.0194045,-8.0920516],[-79.0195145,-8.0920273],[-79.0196639,-8.0920397],[-79.0201025,-8.0921127],[-79.0208092,-8.0922243],[-79.0211552,-8.0922601],[-79.0214235,-8.0922867],[-79.021689,-8.0923451],[-79.0218202,-8.0923666],[-79.0223224,-8.0924625],[-79.0224373,-8.0924712],[-79.0226492,-8.0924686],[-79.0228263,-8.0924746],[-79.0229993,-8.0924991],[-79.0237785,-8.092742],[-79.0238509,-8.0927713],[-79.0241123,-8.0929421],[-79.0242022,-8.0929824],[-79.0243243,-8.0930129],[-79.0245067,-8.0930488],[-79.0246555,-8.0930753],[-79.0248587,-8.0931106],[-79.025149,-8.093161],[-79.0254246,-8.0931895],[-79.025623,-8.0932185],[-79.0256938,-8.0932357],[-79.0261139,-8.0933274],[-79.0262013,-8.0933386],[-79.0264714,-8.0933572],[-79.026792,-8.0933636],[-79.0268821,-8.0933654],[-79.026985,-8.0933643],[-79.0274989,-8.0933589],[-79.0275317,-8.0934992],[-79.0277506,-8.0937168],[-79.0280451,-8.0940095],[-79.0284259,-8.094388],[-79.0289511,-8.0949222],[-79.0292904,-8.0945916],[-79.0295023,-8.0944004],[-79.029717,-8.094268],[-79.0299341,-8.0941614],[-79.0300722,-8.0941121],[-79.0301648,-8.0940791],[-79.0303729,-8.0940321],[-79.030551,-8.0940074],[-79.0307028,-8.0939958],[-79.0308031,-8.0939915],[-79.0311116,-8.0940181],[-79.0313798,-8.0940924],[-79.031572,-8.094174],[-79.0317306,-8.0942542],[-79.0319127,-8.0943918],[-79.0321321,-8.094589],[-79.0323706,-8.0948246],[-79.0327829,-8.0944246],[-79.0332354,-8.0939857],[-79.0337462,-8.09349],[-79.0343712,-8.0928849],[-79.0349734,-8.092302],[-79.0350896,-8.0921869],[-79.0355392,-8.0917591],[-79.0356054,-8.0916908],[-79.0361955,-8.0911371],[-79.0364437,-8.0908977],[-79.0366434,-8.0907051],[-79.036996,-8.090365],[-79.0370332,-8.0903291],[-79.0379742,-8.0894198],[-79.0384279,-8.088993],[-79.0388741,-8.0885773],[-79.0390052,-8.088448],[-79.0391799,-8.0882758],[-79.0392239,-8.0882324],[-79.0395057,-8.0879657],[-79.0398728,-8.0876075],[-79.0403722,-8.0871202],[-79.0405474,-8.0868928],[-79.0406309,-8.0867897],[-79.0406796,-8.0867092],[-79.0408662,-8.086433],[-79.0411107,-8.0860727],[-79.0416471,-8.085165],[-79.0421637,-8.0842423],[-79.042691,-8.0833188],[-79.0427627,-8.0831927],[-79.0432811,-8.0822844],[-79.0438974,-8.0812177],[-79.0445035,-8.0801485],[-79.0445412,-8.0800823],[-79.0452446,-8.0788423],[-79.0454339,-8.0785037],[-79.0456866,-8.0780675],[-79.0464601,-8.0767157],[-79.0471464,-8.075498],[-79.0478967,-8.0742114],[-79.0481042,-8.0738459],[-79.0486225,-8.0729329],[-79.0488288,-8.0725167],[-79.049012,-8.0721568],[-79.0492842,-8.0716739],[-79.0496356,-8.0706316],[-79.0497883,-8.0702155],[-79.050053,-8.0694305],[-79.0501889,-8.0690276],[-79.0502106,-8.0689548],[-79.050232,-8.068883],[-79.050659,-8.0674563],[-79.0508552,-8.066857],[-79.0509247,-8.0666446],[-79.0510772,-8.0661776],[-79.0512448,-8.0656719],[-79.051374,-8.0652832],[-79.0514426,-8.065077],[-79.0515657,-8.0647067],[-79.0517289,-8.0641995],[-79.0517489,-8.0641375],[-79.0519873,-8.0633187],[-79.0522553,-8.0624989],[-79.0523318,-8.0622665],[-79.0524691,-8.0618445],[-79.0527552,-8.0609434],[-79.0528271,-8.0607248],[-79.0528977,-8.0605024],[-79.0530438,-8.0600586],[-79.0531081,-8.0598625],[-79.0531784,-8.0596481],[-79.0533217,-8.0591865],[-79.0535063,-8.0586245],[-79.0539058,-8.0573528],[-79.0539685,-8.0571654],[-79.0541055,-8.0567557],[-79.0542765,-8.0562608],[-79.0544082,-8.0559003],[-79.0546099,-8.05533],[-79.0548793,-8.0544646],[-79.0554075,-8.0528914],[-79.055561,-8.0524515],[-79.0556267,-8.0522367],[-79.0557002,-8.0519812],[-79.0558474,-8.0514695],[-79.0562631,-8.0501681],[-79.056524,-8.0493753],[-79.0566535,-8.0489378],[-79.0570924,-8.0477341],[-79.0571807,-8.0474322],[-79.0572741,-8.0470778],[-79.0575908,-8.046071],[-79.0578769,-8.0451626],[-79.0581179,-8.0443879],[-79.0584628,-8.0433406],[-79.0588091,-8.0422399],[-79.0589114,-8.0419089],[-79.0589773,-8.041676],[-79.0592911,-8.0406688],[-79.0593414,-8.0405215],[-79.0596323,-8.0396448],[-79.0596857,-8.0394936],[-79.0600244,-8.0384175],[-79.0603568,-8.0373562],[-79.0603767,-8.0372841],[-79.0605156,-8.0368127],[-79.0607618,-8.0360555],[-79.0612267,-8.0346473],[-79.0615845,-8.0335434],[-79.0618761,-8.0326655],[-79.0618874,-8.0326105],[-79.0620929,-8.0319159],[-79.0622332,-8.0315161],[-79.0622953,-8.0313267],[-79.0625942,-8.0303539],[-79.0628321,-8.0295824],[-79.0628901,-8.029398],[-79.0631824,-8.0284704],[-79.0633094,-8.028081],[-79.0635083,-8.0274664],[-79.0637487,-8.0267397],[-79.0638236,-8.0265087],[-79.0641691,-8.0254613],[-79.06423,-8.0252933],[-79.0644435,-8.0246295],[-79.0645712,-8.0242281],[-79.0645909,-8.0241499],[-79.0647442,-8.0236724],[-79.06505,-8.0227815],[-79.0653948,-8.021758],[-79.0655561,-8.0212802],[-79.0657266,-8.020749],[-79.0659645,-8.019905],[-79.0660266,-8.0197137],[-79.0662901,-8.0189228],[-79.0663502,-8.0187383],[-79.0665346,-8.0181668],[-79.066681,-8.0177276],[-79.0667816,-8.0174235],[-79.0670709,-8.0165492],[-79.067254,-8.015995],[-79.0674321,-8.0154737],[-79.0674919,-8.015284],[-79.0675968,-8.0149513],[-79.0677509,-8.0145374],[-79.0678331,-8.0143077],[-79.0682182,-8.0131333],[-79.0683061,-8.0128547],[-79.0688509,-8.0111747],[-79.0688596,-8.011148],[-79.0689043,-8.0110427],[-79.0690806,-8.0105888],[-79.0691354,-8.0104546],[-79.0694423,-8.0094773],[-79.0695302,-8.0092021],[-79.0696107,-8.0088967],[-79.0697636,-8.0081224],[-79.0698507,-8.0077426],[-79.0698802,-8.0076271],[-79.0699257,-8.0074993],[-79.0701377,-8.0068302],[-79.0702295,-8.0065593],[-79.0706716,-8.0052551],[-79.071558,-8.0025523],[-79.0715689,-8.0025166],[-79.0718935,-8.001526],[-79.0721024,-8.0008886],[-79.0721267,-8.0008143],[-79.0721756,-8.0006347],[-79.0724046,-7.9998997],[-79.0725512,-7.9994173],[-79.0727908,-7.9986615],[-79.072976,-7.9980693],[-79.0731686,-7.9974556],[-79.0732505,-7.9971823],[-79.073685,-7.9958539],[-79.0737855,-7.9955219],[-79.0741495,-7.994375],[-79.0745743,-7.9930206],[-79.0746925,-7.9926597],[-79.0748775,-7.992068],[-79.0749009,-7.9919999]],"nodes":[1091301861,1089222491,1091301825,5073954125,1089222516,1015292532,1091301849,1091301993,11033310349,1088227256,5474051616,1098641473,1098629787,1098648201,1088227306,1098625461,10724559039,1098635581,5082064376,1098598706,5082089641,5082089642,1015292528,5436439933,1000411875,2600311951,1142679901,1098591919,13099199767,1015366179,5436439967,2600312022,1557312594,1557312597,2600312016,1557312588,1557312579,3015040226,1557312571,1557312570,11033461599,6195970405,1557312561,1557312543,1557312528,11033461596,13408573947,1098594502,316265237,13408573950,1098587844,1098645061,1098632798,1098633036,1098622408,1098583860,316265238,1189541544,9149936184,11033492880,9149936187,11033492877,11089249091,10726443464,3015067511,1098593049,1098598271,316265243,316265244,316265245,316265246,316265247,316265248,13086967438,320114884,13086967422,288409665,6119482459,1098650103,13086967411,288409296,1098611390,1098622334,12909185080,12909185072,3293558514,1098587311,12566648340,316254501,12566648337,3670684009,3670684004,316254506,2591061034,288406679,12566648334,3670684011,316254426,316254427,1098644892,3670684727,316254428,1098632617,316254429,6195970422,316265440,3670684737,5082434193,316265439,3670684740,3670684741,3670684736,1098612747,13084463942,1098623435,13084463951,320114999,1098606836,1098594518,1538242472,1098645087,316265127,1098645687,11033205297,11102649340,11102649332,11102649335,1015347837,320114994,1098629210,1015292420,11037619757,1088227229,316265123,316265121,11851392177,999069484,11033227508,1088227369,316265115,11032994355,1098646156,1007816584,11032994354,11033195479,1007816701,11032994350,1007816605,11033195481,316265113,1098598651,11033195484,1098591795,316265111,3569346207,316265110,1026647531,316265109,316265108,5084379759,11033500609,1088227363,1098591604,11023381283,5482905646,5482905645,1098598553,1098647683,5087163892,1098643555,11037375458,11023671193,11037375460,11023976597,1098589923,5087053972,1026647809,1098633721,2399656830,2399656812,5088910541,5480659674,5480659663,10765350040,5480659675,10765350037,5480659676,5480659677,11030757520,5480659678,5079385438,5079385440,1050964097,1050964121,11030668424,5088917844,1098600772,5480827368,10735814567,1098618318,5089097714,5483053644,5432184386,11030636671,5432184385,5483053646,5054197902,1098648253,8189256698,5483037334,8189256699,11030636673,11030636674,5483037335,5483037337,5483054122,5432199743,5483037338,5483037339,5483037340,5483037341,5483037342,5483037343,5483053694,11032362460,5483037344,5483037345,11032362459,5483037346,5483037348,5483037349,11032362461,5483037350,5483037351,5483037352,5483037353,1098635227,10733716085,10733716086,9727770474,1098596796,1098587369,1098644599,5483080326,11032383236,1098596951,11032383233,5089356949,5089356954,10991119016,10991119020,9218480464,5483080330,5432137617,5432137618,11032459635,5432137619,11037482643,5432137620,11032459638,5432138621,11037482648,5432138622,5432138623,5432138624,11032459640,10732171716,5432138626,5432138627,1098597771,11032811715,11032811714,1098629914,11037627715,1088227477,1088227284,1144498425,11030528043,4427121116,10732171713,9750389795,9750389798,1142680061,1142680112,5088980727,5088980739,11032418478,11032418476,1142679893,5088994603,12864310808,5088994616,11032252306,316263615,316262096,5089240021,316263616,1142680018,1287009781,1098612431,5089019936,1098610831,1098643949,1098601422,13656791744,1098634790,1287009740,1098639865,1098602152,1098628358,1098628188,5089024917,1098613633,1286991463,1098584234,1286991558,1098630492,1098642773,11023841239,1098635583,11030338722,11030338724,1286991549,3981106617,1098585824,1286991511,1873334455,10578866570,10578823310,1286991478,10578823297,1873334451,1286991560,3981106616,1873334447,1286991520,1098625102,1286991485,1098590958,1098585580,11021532899,1286991567,1098598681,1286991530,1873334442,3981106615,320113092,11023849494,11023366504,1098618166,5453884048,5489611518,1098600808,1098590948,5453884050,5489611726,1098586464,1098609015,1098614755,1286991513,8134200994,11023223472,8134298763,8134298762,1098612209,1098594821,5463865441,11023223475,11023365338,11023223476,1873334431,11023223477,4438549628,3110225076,3110225074,8089658062,8089658065,5491760454,11023223486,1098640018,1873334412,11023223487,11023223492,1098601279,1873334402,1873334400,1098623493,1873334391,1098646213,1873334383,1098589764,1286991515,1098607101,1098617982,9148497677,5463851058,9148497683,1873334368,1098618780,1873334364,1098625991,1286991562,1098649119,1873334353,1098599021,1873334346,1098609636,1286991522,1098630656,1873334321,1873334317,1098615155,1098621624,3981106611,1098597044,1873334301,1873334296,1873334289,1286991453,13406780257,5491760686,5622983455,1286991534,11541962082,320113098,11541962077,5079648982,11541962080,11541962079,11541962078,5622983468,5622983467,11863146149,3743516628,8449634318,10993265745,10980257049,10980257041,6383771946,9099253135,9099253138,3743516627,11033003495,13650281408,11539601121,11539601119,11539601145,11539601130,11087490488,11793990948,11793990947,12396884263,5252493420]},"gtfs":{"agency_id":0,"route_id":0,"services":[{"service_id":"Mo-Su","startTime":"05:00","endTime":"23:00","trip_id":19946938}],"filteredStops":{"nodes":[1091301861,13546545406,13546545407,13546546199,13546546184,13546545399,13546546186,13546545907,13546545909,13546546046,11910518853,13546545239,13546545237,13546546051,13546546044,13546545232,13546546045,13546546017,13546545216,13546545975,13546545978,13546545869,13546535046,13546535045,13546545668,13546546362,13546546364,13546546337,13546546335,13546545681,13546546351,13546546281,13546545546,13546545536,13546546282,13546546283,13546545537,13546545538,13546546284,13546545534,13546546279,13546546280,5252493420],"coordinates":[[-79.0518622,-8.1468076],[-79.0508975,-8.1456717],[-79.0485188,-8.1426839],[-79.0461916,-8.1400251],[-79.0438568,-8.13733],[-79.0400662,-8.136725],[-79.035325,-8.1337548],[-79.0328825,-8.1309298],[-79.0302115,-8.1274259],[-79.0288355,-8.1265481],[-79.0213577,-8.1220046],[-79.0194789,-8.1202075],[-79.0174214,-8.1178561],[-79.0152931,-8.1151359],[-79.0135919,-8.1120279],[-79.0123298,-8.1094122],[-79.0103382,-8.1042923],[-79.0104204,-8.1021046],[-79.0080925,-8.0993433],[-79.0112576,-8.0965246],[-79.0239658,-8.092803],[-79.0314311,-8.0940701],[-79.0328858,-8.0942573],[-79.0381553,-8.0891923],[-79.0424038,-8.0837219],[-79.0477413,-8.0743929],[-79.0506014,-8.0675378],[-79.0531725,-8.0595439],[-79.0542504,-8.0561854],[-79.0552004,-8.0533903],[-79.056398,-8.0496251],[-79.0588193,-8.0420859],[-79.0602161,-8.037652],[-79.0612127,-8.0345205],[-79.062506,-8.0304768],[-79.0636221,-8.0269653],[-79.0649331,-8.0229639],[-79.0661336,-8.019158],[-79.0673739,-8.0155533],[-79.0686155,-8.0117564],[-79.0730531,-7.9976473],[-79.0745595,-7.9929131],[-79.0749009,-7.9919999]]},"forcedEndpointStops":[{"stop_id":1091301861,"stop_name":"Calle Callao y Avenida Manuel Seoane","position":"first"},{"stop_id":5252493420,"stop_name":"Carretera Panamericana Norte","position":"last"}]}},{"type":"Feature","properties":{"bus":"yes","highway":"bus_stop","name":"PVL-12","network":"Transporte Público Urbano Trujillo","public_transport":"platform","ref":"PVL-12","source":"Gerencia de Transporte Metropolitano de Trujillo","id":13546545406},"geometry":{"type":"Point","coordinates":[-79.0508975,-8.1456717]}},{"type":"Feature","properties":{"bus":"yes","highway":"bus_stop","name":"PVL-11","network":"Transporte Público Urbano Trujillo","public_transport":"platform","ref":"PVL-11","source":"Gerencia de Transporte Metropolitano de Trujillo","id":13546545407},"geometry":{"type":"Point","coordinates":[-79.0485188,-8.1426839]}},{"type":"Feature","properties":{"bus":"yes","highway":"bus_stop","name":"PVL-10","network":"Transporte Público Urbano Trujillo","public_transport":"platform","ref":"PVL-10","source":"Gerencia de Transporte Metropolitano de Trujillo","id":13546546199},"geometry":{"type":"Point","coordinates":[-79.0461916,-8.1400251]}},{"type":"Feature","properties":{"bus":"yes","highway":"bus_stop","name":"PVL-9","network":"Transporte Público Urbano Trujillo","public_transport":"platform","ref":"PVL-9","source":"Gerencia de Transporte Metropolitano de Trujillo","id":13546546184},"geometry":{"type":"Point","coordinates":[-79.0438568,-8.13733]}},{"type":"Feature","properties":{"bus":"yes","highway":"bus_stop","name":"PVL-24","network":"Transporte Público Urbano Trujillo","public_transport":"platform","ref":"PVL-24","source":"Gerencia de Transporte Metropolitano de Trujillo","id":13546545399},"geometry":{"type":"Point","coordinates":[-79.0400662,-8.136725]}},{"type":"Feature","properties":{"bus":"yes","highway":"bus_stop","name":"PVL-7","network":"Transporte Público Urbano Trujillo","public_transport":"platform","ref":"PVL-7","source":"Gerencia de Transporte Metropolitano de Trujillo","id":13546546186},"geometry":{"type":"Point","coordinates":[-79.035325,-8.1337548]}},{"type":"Feature","properties":{"bus":"yes","highway":"bus_stop","name":"PCVT-195","network":"Transporte Público Urbano Trujillo","public_transport":"platform","ref":"PCVT-195","source":"Gerencia de Transporte Metropolitano de Trujillo","id":13546545907},"geometry":{"type":"Point","coordinates":[-79.0328825,-8.1309298]}},{"type":"Feature","properties":{"bus":"yes","highway":"bus_stop","name":"PCVT-192","network":"Transporte Público Urbano Trujillo","public_transport":"platform","ref":"PCVT-192","source":"Gerencia de Transporte Metropolitano de Trujillo","id":13546545909},"geometry":{"type":"Point","coordinates":[-79.0302115,-8.1274259]}},{"type":"Feature","properties":{"bus":"yes","highway":"bus_stop","name":"AMS-51","network":"Transporte Público Urbano Trujillo","public_transport":"platform","ref":"AMS-51","source":"Gerencia de Transporte Metropolitano de Trujillo","id":13546546046},"geometry":{"type":"Point","coordinates":[-79.0288355,-8.1265481]}},{"type":"Feature","properties":{"advertising":"no","bench":"no","bicycle_parking":"no","bin":"no","bus":"yes","departures_board":"no","highway":"bus_stop","level":"0","lit":"yes","name":"AMS-52 Calle Calcuchimac","network":"Transporte Público Urbano Trujillo","passenger_information_display:speech_output":"no","pole":"yes","public_transport":"platform","ramp":"yes","ref":"AMS-52","shelter":"no","source:ref":"Gerencia de Transporte Metropolitano de Trujillo","tactile_paving":"no","tactile_writing:braille:es":"no","id":11910518853},"geometry":{"type":"Point","coordinates":[-79.0213577,-8.1220046]}},{"type":"Feature","properties":{"bus":"yes","highway":"bus_stop","name":"AMS-54","network":"Transporte Público Urbano Trujillo","public_transport":"platform","ref":"AMS-54","source":"Gerencia de Transporte Metropolitano de Trujillo","id":13546545239},"geometry":{"type":"Point","coordinates":[-79.0194789,-8.1202075]}},{"type":"Feature","properties":{"bus":"yes","highway":"bus_stop","name":"AMS-56","network":"Transporte Público Urbano Trujillo","public_transport":"platform","ref":"AMS-56","source":"Gerencia de Transporte Metropolitano de Trujillo","id":13546545237},"geometry":{"type":"Point","coordinates":[-79.0174214,-8.1178561]}},{"type":"Feature","properties":{"bus":"yes","highway":"bus_stop","name":"AMS-41","network":"Transporte Público Urbano Trujillo","public_transport":"platform","ref":"AMS-41","source":"Gerencia de Transporte Metropolitano de Trujillo","id":13546546051},"geometry":{"type":"Point","coordinates":[-79.0152931,-8.1151359]}},{"type":"Feature","properties":{"bus":"yes","highway":"bus_stop","name":"AMS-61","network":"Transporte Público Urbano Trujillo","public_transport":"platform","ref":"AMS-61","source":"Gerencia de Transporte Metropolitano de Trujillo","id":13546546044},"geometry":{"type":"Point","coordinates":[-79.0135919,-8.1120279]}},{"type":"Feature","properties":{"bus":"yes","highway":"bus_stop","name":"AMS-65","network":"Transporte Público Urbano Trujillo","public_transport":"platform","ref":"AMS-65","source":"Gerencia de Transporte Metropolitano de Trujillo","id":13546545232},"geometry":{"type":"Point","coordinates":[-79.0123298,-8.1094122]}},{"type":"Feature","properties":{"bus":"yes","highway":"bus_stop","name":"AMS-60","network":"Transporte Público Urbano Trujillo","public_transport":"platform","ref":"AMS-60","source":"Gerencia de Transporte Metropolitano de Trujillo","id":13546546045},"geometry":{"type":"Point","coordinates":[-79.0103382,-8.1042923]}},{"type":"Feature","properties":{"bus":"yes","highway":"bus_stop","name":"CEV-182","network":"Transporte Público Urbano Trujillo","public_transport":"platform","ref":"CEV-182","source":"Gerencia de Transporte Metropolitano de Trujillo","id":13546546017},"geometry":{"type":"Point","coordinates":[-79.0104204,-8.1021046]}},{"type":"Feature","properties":{"bus":"yes","highway":"bus_stop","name":"CEV-181","network":"Transporte Público Urbano Trujillo","public_transport":"platform","ref":"CEV-181","source":"Gerencia de Transporte Metropolitano de Trujillo","id":13546545216},"geometry":{"type":"Point","coordinates":[-79.0080925,-8.0993433]}},{"type":"Feature","properties":{"bus":"yes","highway":"bus_stop","name":"FEVI-225","network":"Transporte Público Urbano Trujillo","public_transport":"platform","ref":"FEVI-225","source":"Gerencia de Transporte Metropolitano de Trujillo","id":13546545975},"geometry":{"type":"Point","coordinates":[-79.0112576,-8.0965246]}},{"type":"Feature","properties":{"bus":"yes","highway":"bus_stop","name":"FEVI-216","network":"Transporte Público Urbano Trujillo","public_transport":"platform","ref":"FEVI-216","source":"Gerencia de Transporte Metropolitano de Trujillo","id":13546545978},"geometry":{"type":"Point","coordinates":[-79.0239658,-8.092803]}},{"type":"Feature","properties":{"bus":"yes","highway":"bus_stop","name":"TEVA-340","network":"Transporte Público Urbano Trujillo","public_transport":"platform","ref":"TEVA-340","source":"Gerencia de Transporte Metropolitano de Trujillo","id":13546545869},"geometry":{"type":"Point","coordinates":[-79.0314311,-8.0940701]}},{"type":"Feature","properties":{"bus":"yes","highway":"bus_stop","name":"TUPAT-122","network":"Transporte Público Urbano Trujillo","public_transport":"platform","ref":"TUPAT-122","source":"Gerencia de Transporte Metropolitano de Trujillo","id":13546535046},"geometry":{"type":"Point","coordinates":[-79.0328858,-8.0942573]}},{"type":"Feature","properties":{"bus":"yes","highway":"bus_stop","name":"TUPAT-125","network":"Transporte Público Urbano Trujillo","public_transport":"platform","ref":"TUPAT-125","source":"Gerencia de Transporte Metropolitano de Trujillo","id":13546535045},"geometry":{"type":"Point","coordinates":[-79.0381553,-8.0891923]}},{"type":"Feature","properties":{"bus":"yes","highway":"bus_stop","name":"PE-302","network":"Transporte Público Urbano Trujillo","public_transport":"platform","ref":"PE-302","source":"Gerencia de Transporte Metropolitano de Trujillo","id":13546545668},"geometry":{"type":"Point","coordinates":[-79.0424038,-8.0837219]}},{"type":"Feature","properties":{"bus":"yes","highway":"bus_stop","name":"PE-198","network":"Transporte Público Urbano Trujillo","public_transport":"platform","ref":"PE-198","source":"Gerencia de Transporte Metropolitano de Trujillo","id":13546546362},"geometry":{"type":"Point","coordinates":[-79.0477413,-8.0743929]}},{"type":"Feature","properties":{"bus":"yes","highway":"bus_stop","name":"PE-189","network":"Transporte Público Urbano Trujillo","public_transport":"platform","ref":"PE-189","source":"Gerencia de Transporte Metropolitano de Trujillo","id":13546546364},"geometry":{"type":"Point","coordinates":[-79.0506014,-8.0675378]}},{"type":"Feature","properties":{"bus":"yes","highway":"bus_stop","name":"PE-272","network":"Transporte Público Urbano Trujillo","public_transport":"platform","ref":"PE-272","source":"Gerencia de Transporte Metropolitano de Trujillo","id":13546546337},"geometry":{"type":"Point","coordinates":[-79.0531725,-8.0595439]}},{"type":"Feature","properties":{"bus":"yes","highway":"bus_stop","name":"PE-274","network":"Transporte Público Urbano Trujillo","public_transport":"platform","ref":"PE-274","source":"Gerencia de Transporte Metropolitano de Trujillo","id":13546546335},"geometry":{"type":"Point","coordinates":[-79.0542504,-8.0561854]}},{"type":"Feature","properties":{"bus":"yes","highway":"bus_stop","name":"PE-275","network":"Transporte Público Urbano Trujillo","public_transport":"platform","ref":"PE-275","source":"Gerencia de Transporte Metropolitano de Trujillo","id":13546545681},"geometry":{"type":"Point","coordinates":[-79.0552004,-8.0533903]}},{"type":"Feature","properties":{"bus":"yes","highway":"bus_stop","name":"PE-237","network":"Transporte Público Urbano Trujillo","public_transport":"platform","ref":"PE-237","source":"Gerencia de Transporte Metropolitano de Trujillo","id":13546546351},"geometry":{"type":"Point","coordinates":[-79.056398,-8.0496251]}},{"type":"Feature","properties":{"bus":"yes","highway":"bus_stop","name":"PH-135","network":"Transporte Público Urbano Trujillo","public_transport":"platform","ref":"PH-135","source":"Gerencia de Transporte Metropolitano de Trujillo","id":13546546281},"geometry":{"type":"Point","coordinates":[-79.0588193,-8.0420859]}},{"type":"Feature","properties":{"bus":"yes","highway":"bus_stop","name":"PH-115","network":"Transporte Público Urbano Trujillo","public_transport":"platform","ref":"PH-115","source":"Gerencia de Transporte Metropolitano de Trujillo","id":13546545546},"geometry":{"type":"Point","coordinates":[-79.0602161,-8.037652]}},{"type":"Feature","properties":{"bus":"yes","highway":"bus_stop","name":"PH-133","network":"Transporte Público Urbano Trujillo","public_transport":"platform","ref":"PH-133","source":"Gerencia de Transporte Metropolitano de Trujillo","id":13546545536},"geometry":{"type":"Point","coordinates":[-79.0612127,-8.0345205]}},{"type":"Feature","properties":{"bus":"yes","highway":"bus_stop","name":"PH-132","network":"Transporte Público Urbano Trujillo","public_transport":"platform","ref":"PH-132","source":"Gerencia de Transporte Metropolitano de Trujillo","id":13546546282},"geometry":{"type":"Point","coordinates":[-79.062506,-8.0304768]}},{"type":"Feature","properties":{"bus":"yes","highway":"bus_stop","name":"PH-131","network":"Transporte Público Urbano Trujillo","public_transport":"platform","ref":"PH-131","source":"Gerencia de Transporte Metropolitano de Trujillo","id":13546546283},"geometry":{"type":"Point","coordinates":[-79.0636221,-8.0269653]}},{"type":"Feature","properties":{"bus":"yes","highway":"bus_stop","name":"PH-130","network":"Transporte Público Urbano Trujillo","public_transport":"platform","ref":"PH-130","source":"Gerencia de Transporte Metropolitano de Trujillo","id":13546545537},"geometry":{"type":"Point","coordinates":[-79.0649331,-8.0229639]}},{"type":"Feature","properties":{"bus":"yes","highway":"bus_stop","name":"PH-129","network":"Transporte Público Urbano Trujillo","public_transport":"platform","ref":"PH-129","source":"Gerencia de Transporte Metropolitano de Trujillo","id":13546545538},"geometry":{"type":"Point","coordinates":[-79.0661336,-8.019158]}},{"type":"Feature","properties":{"bus":"yes","highway":"bus_stop","name":"PH-128","network":"Transporte Público Urbano Trujillo","public_transport":"platform","ref":"PH-128","source":"Gerencia de Transporte Metropolitano de Trujillo","id":13546546284},"geometry":{"type":"Point","coordinates":[-79.0673739,-8.0155533]}},{"type":"Feature","properties":{"bus":"yes","highway":"bus_stop","name":"PH-140","network":"Transporte Público Urbano Trujillo","public_transport":"platform","ref":"PH-140","source":"Gerencia de Transporte Metropolitano de Trujillo","id":13546545534},"geometry":{"type":"Point","coordinates":[-79.0686155,-8.0117564]}},{"type":"Feature","properties":{"bus":"yes","highway":"bus_stop","name":"PH-137","network":"Transporte Público Urbano Trujillo","public_transport":"platform","ref":"PH-137","source":"Gerencia de Transporte Metropolitano de Trujillo","id":13546546279},"geometry":{"type":"Point","coordinates":[-79.0730531,-7.9976473]}},{"type":"Feature","properties":{"bus":"yes","highway":"bus_stop","name":"PH-136","network":"Transporte Público Urbano Trujillo","public_transport":"platform","ref":"PH-136","source":"Gerencia de Transporte Metropolitano de Trujillo","id":13546546280},"geometry":{"type":"Point","coordinates":[-79.0745595,-7.9929131]}}]}