{"type":"FeatureCollection","features":[{"type":"Feature","properties":{"check_date":"2025-12-18","colour":"#006600","colour:text":"#FFFFFF","fee":"yes","from":"Via Panamericana Norte","hash":"16382","interval":"3","name":"Via Panamericana Norte → Avenida Manuel Seoane","network":"Transporte Público Urbano Trujillo","opening_hours":"Mo-Su 05:00-23:00","operator":"CALIFORNIA S.A.","public_transport:version":"2","ref":"M-01 C","route":"bus","survey:avg_speed:kmh":"20","to":"Avenida Manuel Seoane","type":"route","id":19946662},"geometry":{"type":"LineString","coordinates":[[-79.075065,-7.9920742],[-79.0743091,-7.9944451],[-79.0739237,-7.9956401],[-79.0733501,-7.997505],[-79.073087,-7.9982972],[-79.0730429,-7.9984314],[-79.0730029,-7.9985623],[-79.0722741,-8.0008596],[-79.0720294,-8.0016081],[-79.0717366,-8.002504],[-79.071574,-8.0030015],[-79.0708152,-8.0053048],[-79.070386,-8.0066116],[-79.0702981,-8.0068794],[-79.0701131,-8.007495],[-79.0700009,-8.0081344],[-79.070013,-8.008946],[-79.0700344,-8.0091623],[-79.0700853,-8.0093455],[-79.0701628,-8.0095145],[-79.0702635,-8.0095872],[-79.0703409,-8.009684],[-79.0703893,-8.0097977],[-79.0703962,-8.0098507],[-79.0704052,-8.0099202],[-79.0703874,-8.0100423],[-79.0703373,-8.0101553],[-79.0702637,-8.010246],[-79.0701693,-8.0103153],[-79.0700604,-8.0103588],[-79.0699438,-8.0103737],[-79.0698273,-8.0103589],[-79.069718,-8.0103153],[-79.0695322,-8.0102916],[-79.0694182,-8.010317],[-79.0693317,-8.0103409],[-79.0692566,-8.0103907],[-79.0690806,-8.0105888],[-79.0689043,-8.0110427],[-79.0688596,-8.011148],[-79.0688509,-8.0111747],[-79.0683061,-8.0128547],[-79.0682182,-8.0131333],[-79.0678331,-8.0143077],[-79.0677509,-8.0145374],[-79.0675968,-8.0149513],[-79.0674919,-8.015284],[-79.0674321,-8.0154737],[-79.067254,-8.015995],[-79.0670709,-8.0165492],[-79.0667816,-8.0174235],[-79.066681,-8.0177276],[-79.0665346,-8.0181668],[-79.0663502,-8.0187383],[-79.0662901,-8.0189228],[-79.0660266,-8.0197137],[-79.0659645,-8.019905],[-79.0657266,-8.020749],[-79.0655561,-8.0212802],[-79.0653948,-8.021758],[-79.06505,-8.0227815],[-79.0647442,-8.0236724],[-79.0645909,-8.0241499],[-79.0645712,-8.0242281],[-79.0644435,-8.0246295],[-79.06423,-8.0252933],[-79.0641691,-8.0254613],[-79.0638236,-8.0265087],[-79.0637487,-8.0267397],[-79.0635083,-8.0274664],[-79.0633094,-8.028081],[-79.0631824,-8.0284704],[-79.0628901,-8.029398],[-79.0628321,-8.0295824],[-79.0625942,-8.0303539],[-79.0622953,-8.0313267],[-79.0622332,-8.0315161],[-79.0620929,-8.0319159],[-79.0618874,-8.0326105],[-79.0618761,-8.0326655],[-79.0615845,-8.0335434],[-79.0612267,-8.0346473],[-79.0607618,-8.0360555],[-79.0605156,-8.0368127],[-79.0603767,-8.0372841],[-79.0603568,-8.0373562],[-79.0600244,-8.0384175],[-79.0596857,-8.0394936],[-79.0596323,-8.0396448],[-79.0593414,-8.0405215],[-79.0592911,-8.0406688],[-79.0589773,-8.041676],[-79.0589114,-8.0419089],[-79.0588091,-8.0422399],[-79.0584628,-8.0433406],[-79.0581179,-8.0443879],[-79.0578769,-8.0451626],[-79.0575908,-8.046071],[-79.0572741,-8.0470778],[-79.0571807,-8.0474322],[-79.0570924,-8.0477341],[-79.0569175,-8.0486276],[-79.056839,-8.04901],[-79.0567743,-8.0493906],[-79.0567069,-8.0497849],[-79.0566758,-8.049992],[-79.0565538,-8.0506948],[-79.0565003,-8.0510524],[-79.056421,-8.0515036],[-79.0562985,-8.0520193],[-79.0561792,-8.052417],[-79.0559513,-8.0530202],[-79.0557205,-8.0535114],[-79.0555327,-8.0538997],[-79.0551931,-8.054537],[-79.0549609,-8.055032],[-79.0546064,-8.055791],[-79.0545361,-8.0559489],[-79.054287,-8.0565081],[-79.0541959,-8.0567859],[-79.0541032,-8.0570844],[-79.0540048,-8.0573878],[-79.0536598,-8.05845],[-79.0535249,-8.058863],[-79.0534122,-8.0592113],[-79.0532761,-8.0596321],[-79.0531942,-8.0598903],[-79.0529708,-8.0605939],[-79.0528424,-8.0610202],[-79.0527962,-8.0611688],[-79.0526386,-8.0616434],[-79.0524284,-8.0622932],[-79.0522538,-8.0628187],[-79.0518335,-8.0641705],[-79.0514531,-8.0653464],[-79.0513385,-8.0656957],[-79.0510317,-8.0666742],[-79.0509534,-8.0669079],[-79.0504633,-8.0683895],[-79.050265,-8.0690553],[-79.0498945,-8.0702461],[-79.0497602,-8.0706682],[-79.0493821,-8.0717987],[-79.049253,-8.0721841],[-79.0490404,-8.0728413],[-79.0488843,-8.0733676],[-79.0486731,-8.0734419],[-79.0485355,-8.0734997],[-79.048427,-8.0735792],[-79.0483165,-8.073711],[-79.0482297,-8.0738532],[-79.048206,-8.0738965],[-79.0480484,-8.074185],[-79.0480053,-8.0742704],[-79.0472856,-8.0755745],[-79.0465942,-8.0767853],[-79.045817,-8.0781416],[-79.0453731,-8.0789351],[-79.0447825,-8.0799654],[-79.0446919,-8.0801257],[-79.0446421,-8.0802139],[-79.0440289,-8.0812776],[-79.0434134,-8.0823453],[-79.0428963,-8.083272],[-79.0428254,-8.0833982],[-79.0422802,-8.0843091],[-79.0417771,-8.0851985],[-79.0412044,-8.0861269],[-79.04084,-8.0866928],[-79.0407844,-8.0867703],[-79.0404846,-8.0871889],[-79.0395779,-8.0880656],[-79.0395207,-8.0881239],[-79.0393229,-8.0883163],[-79.0389555,-8.0886704],[-79.0387985,-8.088817],[-79.0385236,-8.0890878],[-79.0380213,-8.0895632],[-79.0379709,-8.0896107],[-79.0377092,-8.0898576],[-79.0371195,-8.0904138],[-79.0370395,-8.090499],[-79.0362938,-8.0912315],[-79.0358456,-8.0916719],[-79.0357713,-8.0917449],[-79.0352091,-8.0922947],[-79.0350886,-8.0924132],[-79.0344583,-8.0929777],[-79.0342204,-8.0931908],[-79.0338274,-8.0935742],[-79.0333212,-8.094068],[-79.0328647,-8.0945134],[-79.0324536,-8.0949145],[-79.0323676,-8.0949984],[-79.0322814,-8.0949112],[-79.0320638,-8.0946713],[-79.0318493,-8.0944729],[-79.0316722,-8.094342],[-79.0315324,-8.0942683],[-79.0313476,-8.094196],[-79.0310955,-8.0941163],[-79.0308004,-8.0940836],[-79.0307078,-8.094085],[-79.0305587,-8.0940938],[-79.0303847,-8.0941149],[-79.0301838,-8.0941622],[-79.0301021,-8.0941933],[-79.0299904,-8.0942358],[-79.0297747,-8.094342],[-79.0295666,-8.0944774],[-79.0293923,-8.094642],[-79.0290186,-8.0949955],[-79.0288575,-8.0951483],[-79.0281093,-8.0958733],[-79.0280193,-8.0959598],[-79.0279495,-8.0958874],[-79.0276496,-8.0955764],[-79.0272346,-8.0951598],[-79.0271742,-8.0950979],[-79.0267646,-8.0946714],[-79.0265733,-8.0944824],[-79.0264045,-8.0943396],[-79.026238,-8.0942225],[-79.0260569,-8.094126],[-79.0258446,-8.0940214],[-79.0257092,-8.0939681],[-79.0256622,-8.0939496],[-79.0254615,-8.0938911],[-79.0253775,-8.0938696],[-79.0252328,-8.0938391],[-79.024988,-8.0938078],[-79.0247998,-8.0938029],[-79.0247945,-8.0936876],[-79.0247749,-8.0932552],[-79.0244758,-8.0932201],[-79.0241917,-8.0931711],[-79.0240815,-8.0931404],[-79.0239901,-8.0930878],[-79.0238106,-8.0929664],[-79.0236667,-8.0928905],[-79.0229617,-8.0926731],[-79.0228397,-8.0926518],[-79.022373,-8.0926386],[-79.0223113,-8.0926292],[-79.0216015,-8.0924984],[-79.0210399,-8.0924274],[-79.020288,-8.0922912],[-79.0201011,-8.0922574],[-79.0198678,-8.0922189],[-79.0196262,-8.0921984],[-79.019533,-8.0922045],[-79.0194322,-8.0922253],[-79.0193421,-8.0922535],[-79.0190832,-8.0923916],[-79.0190277,-8.0924119],[-79.018743,-8.0924731],[-79.0187018,-8.0924881],[-79.018189,-8.0926905],[-79.0180816,-8.0927007],[-79.0171762,-8.0930422],[-79.0168449,-8.0931577],[-79.0167703,-8.0931898],[-79.0166947,-8.0932294],[-79.0163739,-8.0934318],[-79.0160785,-8.0936182],[-79.0151503,-8.094227],[-79.0150811,-8.0942699],[-79.0139377,-8.0949883],[-79.0128139,-8.095722],[-79.011999,-8.0962983],[-79.0115653,-8.0965728],[-79.0114521,-8.0966151],[-79.0110018,-8.096913],[-79.0109237,-8.096984],[-79.0106544,-8.097146],[-79.010567,-8.0972046],[-79.0104666,-8.0972604],[-79.0102078,-8.0973613],[-79.0098375,-8.0974622],[-79.0095104,-8.0975563],[-79.0094139,-8.0975976],[-79.0089463,-8.097864],[-79.0084644,-8.098127],[-79.0076517,-8.098572],[-79.0083944,-8.0994314],[-79.0085442,-8.0996016],[-79.0085839,-8.0996537],[-79.0087484,-8.0998647],[-79.008991,-8.1001416],[-79.0090087,-8.100162],[-79.0093621,-8.1005765],[-79.009639,-8.1009069],[-79.0098723,-8.1011854],[-79.0101736,-8.1015449],[-79.0105971,-8.1020404],[-79.0109292,-8.1024628],[-79.0109417,-8.1024792],[-79.0110017,-8.1025539],[-79.0111039,-8.1026761],[-79.0112152,-8.1028092],[-79.0111726,-8.1029044],[-79.011125,-8.1030126],[-79.0110411,-8.103176],[-79.0110094,-8.1032376],[-79.0108557,-8.103536],[-79.0105079,-8.1042049],[-79.0104302,-8.1044916],[-79.0104114,-8.1047389],[-79.0104275,-8.1048873],[-79.0104472,-8.1050283],[-79.0105107,-8.1052618],[-79.0108078,-8.1058903],[-79.0110505,-8.1064035],[-79.0113531,-8.1070437],[-79.0121173,-8.1086181],[-79.0123503,-8.1090981],[-79.0128306,-8.1100763],[-79.0130667,-8.1105571],[-79.0131945,-8.1108215],[-79.0136089,-8.1116618],[-79.013802,-8.1120654],[-79.01403,-8.1125377],[-79.0140803,-8.1126394],[-79.0141666,-8.1128076],[-79.0148956,-8.1142282],[-79.0149573,-8.1143583],[-79.0151912,-8.114755],[-79.0152362,-8.1148309],[-79.0155067,-8.1151895],[-79.0159535,-8.1157663],[-79.0161848,-8.1160762],[-79.0165503,-8.1165661],[-79.0168995,-8.117034],[-79.0186634,-8.1190968],[-79.01895,-8.1194212],[-79.0191968,-8.1196903],[-79.0192752,-8.1197673],[-79.0193418,-8.1198343],[-79.0199355,-8.1204321],[-79.0202652,-8.1207691],[-79.0209763,-8.1214582],[-79.0210503,-8.1215299],[-79.021413,-8.1218878],[-79.0217086,-8.1221559],[-79.0217629,-8.1221922],[-79.0218157,-8.1222275],[-79.0223189,-8.1226887],[-79.0226813,-8.1230094],[-79.0227001,-8.1230243],[-79.0227588,-8.1230526],[-79.0228321,-8.1230652],[-79.0229815,-8.1230626],[-79.0230917,-8.123039],[-79.0232045,-8.123036],[-79.0233225,-8.1230557],[-79.0234343,-8.123098],[-79.0235355,-8.1231613],[-79.0236356,-8.1232592],[-79.02371,-8.1233774],[-79.0237547,-8.1235095],[-79.0237673,-8.1236482],[-79.0237545,-8.123736],[-79.0237472,-8.123786],[-79.0237661,-8.1238549],[-79.0237841,-8.1238946],[-79.0238139,-8.1239298],[-79.0238764,-8.1239826],[-79.0243998,-8.1243532],[-79.0244692,-8.1244023],[-79.0254499,-8.125075],[-79.0256342,-8.1251722],[-79.0263585,-8.125555],[-79.0267907,-8.1257306],[-79.0272936,-8.1259085],[-79.028355,-8.1262453],[-79.0288238,-8.1263573],[-79.0293562,-8.1264569],[-79.0298906,-8.1265298],[-79.0299698,-8.1265405],[-79.0302821,-8.1265783],[-79.030328,-8.1265827],[-79.0304145,-8.126594],[-79.030474,-8.1265955],[-79.0304716,-8.126662],[-79.0304694,-8.1267061],[-79.0304667,-8.1267397],[-79.0304592,-8.1268054],[-79.0303989,-8.1271361],[-79.0303928,-8.1273282],[-79.0304113,-8.1275021],[-79.0304737,-8.1276857],[-79.0305468,-8.1278437],[-79.0306916,-8.1280481],[-79.0308525,-8.1282441],[-79.0309519,-8.1283639],[-79.0309782,-8.1283958],[-79.0312791,-8.1287731],[-79.0313045,-8.128805],[-79.0315132,-8.1290667],[-79.0321102,-8.1298153],[-79.0322513,-8.1299826],[-79.0323963,-8.1301383],[-79.0325235,-8.1302865],[-79.0328796,-8.1306839],[-79.0334289,-8.1313301],[-79.0336689,-8.1316089],[-79.0337343,-8.1316772],[-79.0348805,-8.1329927],[-79.0351922,-8.1333356],[-79.0354977,-8.1336982],[-79.0358058,-8.134053],[-79.0361589,-8.1344508],[-79.0365634,-8.1349117],[-79.0365967,-8.1349496],[-79.0366757,-8.135032],[-79.0367231,-8.1350749],[-79.0369571,-8.1352863],[-79.0370464,-8.1353706],[-79.0371142,-8.1354611],[-79.0371749,-8.1355722],[-79.0372171,-8.1356774],[-79.037235,-8.1357221],[-79.0372438,-8.135757],[-79.0374654,-8.1366416],[-79.0375487,-8.1369998],[-79.0376102,-8.1371875],[-79.0377088,-8.1373797],[-79.0377835,-8.1374983],[-79.0378125,-8.1375443],[-79.0392833,-8.1369433],[-79.0399647,-8.1366465],[-79.040043,-8.1366135],[-79.0410131,-8.1362187],[-79.0412595,-8.1361323],[-79.0413796,-8.1361041],[-79.0418445,-8.136027],[-79.0426685,-8.1358001],[-79.0430026,-8.1357117],[-79.0430437,-8.1358103],[-79.0430023,-8.1359359],[-79.0430023,-8.136062],[-79.0430446,-8.1361914],[-79.0432506,-8.136429],[-79.0434156,-8.1366108],[-79.043811,-8.1370752],[-79.0440779,-8.1373888],[-79.0442466,-8.1375916],[-79.0448298,-8.1382548],[-79.045633,-8.1391703],[-79.0459016,-8.1394652],[-79.0463906,-8.1400236],[-79.046946,-8.1406589],[-79.0479236,-8.1417717],[-79.0487737,-8.1428065],[-79.0489733,-8.1430191],[-79.049303,-8.1433821],[-79.0492352,-8.1434523],[-79.0486982,-8.1438979],[-79.0486483,-8.1439418],[-79.048188,-8.1443334],[-79.0478576,-8.1446283],[-79.047508,-8.1449268],[-79.0473739,-8.1450413],[-79.0473515,-8.1450605],[-79.0471409,-8.1452408],[-79.0466195,-8.1456852],[-79.045876,-8.1463151],[-79.045406,-8.1467206],[-79.0453547,-8.1467648],[-79.0452836,-8.1468255],[-79.0452384,-8.1468641],[-79.0450596,-8.1470168],[-79.0442165,-8.1477329],[-79.0438928,-8.1480128],[-79.0432504,-8.1485611],[-79.0447929,-8.150555],[-79.045173,-8.1500705],[-79.0456878,-8.1496093],[-79.0459348,-8.1494038],[-79.0463588,-8.1490293],[-79.0466792,-8.1487579],[-79.0472235,-8.148302],[-79.0472755,-8.1483641],[-79.0477784,-8.1489086],[-79.0480045,-8.1491803],[-79.0481974,-8.1494199],[-79.0483166,-8.1495724],[-79.0484275,-8.1497085],[-79.049291,-8.1490145],[-79.0500549,-8.1483411],[-79.050824,-8.1476752],[-79.0513482,-8.1472544],[-79.0518622,-8.1468076]],"nodes":[10281362769,11087490489,11539601146,11030688164,11030688158,13376888218,11033003496,3981106609,12077203797,10980257050,3712942148,5622983465,11863146150,5622983463,5622983462,5622983461,5079648998,5622983470,5622983472,5622983471,5079648966,5079648967,5079648985,11690648324,5079648968,5079648984,5622983474,5079648969,5079648963,5079648959,5079648964,5079648965,5079648978,5079648994,10980257031,5622983485,10980257032,1286991534,5622983455,5491760686,13406780257,1286991453,1873334289,1873334296,1873334301,1098597044,3981106611,1098621624,1098615155,1873334317,1873334321,1098630656,1286991522,1098609636,1873334346,1098599021,1873334353,1098649119,1286991562,1098625991,1873334364,1098618780,1873334368,9148497683,5463851058,9148497677,1098617982,1098607101,1286991515,1098589764,1873334383,1098646213,1873334391,1098623493,1873334400,1873334402,1098601279,11023223492,11023223487,1873334412,1098640018,11023223486,5491760454,8089658065,8089658062,3110225074,3110225076,4438549628,11023223477,1873334431,11023223476,11023365338,11023223475,5463865441,1098594821,1098612209,8134298762,8134298763,11023223472,8134200994,1286991513,1286991524,1633196988,1098619364,1286991489,1098607890,1286991454,5489611730,1286991535,1286991499,320113093,1286991465,1098584351,1286991546,1098599588,1286991509,1286991476,11023448205,1286991557,1098620666,1286991518,1098646681,1098648085,1098591844,11023849499,1286991517,5472554259,1098635252,11021532889,1286991482,1098636272,1098640104,1286991564,1098625046,1098586300,1098635165,1873334459,1286991456,1286991536,1286991500,5489453255,5489453254,5456181685,1098613117,1286991490,1098623805,1286991551,1287009763,1287009794,1287009855,1287009758,5089024918,1287009818,1098587116,1142679959,1142679874,1142680102,1142680048,4593388352,4593388346,1142679948,1142680012,1142680000,5089019937,316262095,1098600041,8760555319,1098589870,13472500523,13472500527,5088994617,5489046578,9750477265,1098590424,5088980738,9750421951,5088980728,1098646665,11032400878,11032400875,4427121128,1098634625,4427121117,11030528045,1693582401,1287009874,1088227429,11037627716,1098641709,1098620469,1098608783,5425541301,1098624555,1098585118,1098607147,5432138639,5432138638,5432138637,11032459641,5432138636,5432138635,11032459639,11037482649,11037482645,5432138633,11032459637,11037482644,5432138632,11032459636,5432138631,5432138630,9138668638,5432137616,5432137615,1098595124,11032459642,1051035706,1051036038,1051035752,1051035698,5145238220,316265152,7123146901,316265151,7123146898,11032795708,316265150,7123146896,11032795709,316265149,4706097931,5071955848,1268310331,1268310382,5483037321,11032362463,5483037322,11032480215,5483037323,11032362462,5483037324,5483037325,5483037326,5483037327,5483053693,5483037329,11030663208,5483037333,5483037332,11030636672,5432199742,5483054123,5483037331,5483037330,11030636676,11030636675,11030636677,1098584449,5054197901,5483053647,5432184387,5475265998,5432184388,5475265997,9138673483,5089097704,1098607308,10735814568,5432184401,5432184397,5432184396,5432184395,5079396737,5079385439,5480659673,5481008193,5480659672,5480659671,5481008191,5480659664,5475283791,5088910540,5475283790,1098607239,5087053971,11023976598,5475283789,11037375459,11023671194,5480877998,1098620805,5087163891,1026647961,1026647964,5087163889,11023381284,7118056428,11037375456,316265105,316265134,316265133,11032994345,11033500607,316265132,1026647572,316265131,316265129,1026647527,316265126,11033195486,316265124,11033195483,1098627620,316265122,11033195482,1088227255,11033195480,1098594792,1098634071,1026647227,1026646809,316265120,1088227326,11033195476,1098633802,316265119,316265118,1015347808,11037619758,1015292423,1098595328,316488151,316265117,316265116,1098612124,1098632182,2604839551,8089024592,1098589459,320114996,13084463950,1098613378,1098594789,3670684735,13084463978,1088227350,3670684731,12566648339,316265389,3670684729,3670684728,316254431,2591061029,288406889,2591061030,3670684743,316254433,316254504,316254434,2591061031,2591061032,13513627511,316254505,3670684008,12566648338,3670684007,12566648341,12433537360,3670684001,3670684003,3670684002,1098599784,2892557353,316256470,316256471,2892557352,2482796388,8234359405,5455991385,13086967423,320114882,12216693900,320114879,12216693885,13089000222,320114890,13086967439,316265268,316265269,316265270,316265271,316265272,316265273,5473953077,5473953080,1098604257,11086134223,11086134225,11086134105,1873564622,10726427314,3015067510,10726443462,1098636653,11033492886,526591144,526591145,1098638447,1098594619,1098599298,1098611003,1098621794,13408573952,316265279,1098583796,13408573946,1557312534,2481823627,1557312545,1557312563,13408573992,2600311979,13408573966,1557312575,1557312584,2481823632,1557312592,13408573929,2600312017,2600311959,2600311958,3918974705,2600311957,2600311956,2600311952,2600311950,1098609491,5082089644,1000411876,1015292544,1015292543,1015292542,5082089643,1000411942,10724559046,3920658745,5082064375,1000411955,5474155868,1088227243,1000411809,1098635458,5427673530,1098603406,1098595877,1088227205,1088227256,1098614425,5436439946,1098625044,1098635169,10700933337,1098647233,10700933342,1098591235,3918770230,1098623587,10724559040,5676451522,10724559044,3112073689,1098634162,3920602002,3918766819,1098639871,1098628638,5073954124,1089222557,1098607538,1098590469,1098646696,7901099865,5073954131,5473828406,13378985276,1089222569,13378985275,1091301819,1098620348,1098632591,1098627154,1098588596,1091301861]},"gtfs":{"agency_id":0,"route_id":0,"services":[{"service_id":"Mo-Su","startTime":"05:00","endTime":"23:00","trip_id":19946662}],"filteredStops":{"nodes":[10281362769,13546546295,13546546294,13546545550,13546546296,13546546293,13546546291,11911534030,13546546290,13546546289,13546545547,13546546288,13546545612,13546546334,13546546333,13546546336,13546546338,13546545638,13546546319,13546545633,13546546318,13546545637,13546545636,13546545669,13546535044,13546545867,13546535047,13546535052,13546545243,13546545977,13546545181,13546545976,13546545180,13546545974,13546545215,13546546014,13546546043,13546545231,13546546042,13546545233,13546546052,13546545238,13546545240,13546545236,13546545242,13546545908,13546546196,13546546195,13546545385,13546545400,13546546194,13546546193,13546545398,13546545387,13546545388,13546545389,13546545390,13546546198,13546545405,1091301861],"coordinates":[[-79.075065,-7.9920742],[-79.0747991,-7.9929843],[-79.0733612,-7.9975336],[-79.0722103,-8.0012454],[-79.0709029,-8.0053188],[-79.0673078,-8.015995],[-79.0661602,-8.0196706],[-79.0648297,-8.0235139],[-79.0636536,-8.0273704],[-79.0626536,-8.0306138],[-79.0613915,-8.0342637],[-79.0587534,-8.042531],[-79.0574802,-8.0466333],[-79.0567702,-8.0494699],[-79.0560623,-8.0529364],[-79.0542699,-8.0566946],[-79.0533255,-8.0596597],[-79.0520044,-8.0637257],[-79.0507251,-8.0677612],[-79.0492565,-8.0724897],[-79.0480679,-8.074271],[-79.0468353,-8.0763807],[-79.0451941,-8.0792547],[-79.0430778,-8.083007],[-79.0402613,-8.0875554],[-79.0362607,-8.0913512],[-79.0336175,-8.093915],[-79.0285712,-8.095454],[-79.0269907,-8.0950012],[-79.0199207,-8.0922674],[-79.0177695,-8.0928692],[-79.0153012,-8.0941722],[-79.0131353,-8.0955967],[-79.0106446,-8.0971678],[-79.0082032,-8.0991114],[-79.0104063,-8.1017614],[-79.0106145,-8.1041752],[-79.0123393,-8.1089068],[-79.0135767,-8.1115319],[-79.014746,-8.113926],[-79.0164486,-8.1164039],[-79.0185796,-8.1189281],[-79.0207348,-8.1211376],[-79.0224984,-8.122784],[-79.0246367,-8.124507],[-79.0304563,-8.1271661],[-79.0357809,-8.1339475],[-79.0375234,-8.1367137],[-79.0395374,-8.1367921],[-79.0423196,-8.1358544],[-79.0439149,-8.1371477],[-79.0462118,-8.1397377],[-79.0481355,-8.1419808],[-79.0490274,-8.1436942],[-79.0469949,-8.145435],[-79.0444878,-8.1476653],[-79.0446185,-8.1503048],[-79.0468642,-8.1485718],[-79.0498466,-8.1485167],[-79.0518622,-8.1468076]]},"forcedEndpointStops":[{"stop_id":10281362769,"stop_name":"Carretera Panamericana Norte","position":"first"},{"stop_id":1091301861,"stop_name":"Calle Callao y Avenida Manuel Seoane","position":"last"}]}},{"type":"Feature","properties":{"bus":"yes","highway":"bus_stop","network":"Transporte Público Urbano Trujillo","public_transport":"platform","ref":"PH-102","source":"Gerencia de Transporte Metropolitano de Trujillo","id":13546546295},"geometry":{"type":"Point","coordinates":[-79.0747991,-7.9929843]}},{"type":"Feature","properties":{"bus":"yes","highway":"bus_stop","network":"Transporte Público Urbano Trujillo","public_transport":"platform","ref":"PH-103","source":"Gerencia de Transporte Metropolitano de Trujillo","id":13546546294},"geometry":{"type":"Point","coordinates":[-79.0733612,-7.9975336]}},{"type":"Feature","properties":{"bus":"yes","highway":"bus_stop","network":"Transporte Público Urbano Trujillo","public_transport":"platform","ref":"PH-104","source":"Gerencia de Transporte Metropolitano de Trujillo","id":13546545550},"geometry":{"type":"Point","coordinates":[-79.0722103,-8.0012454]}},{"type":"Feature","properties":{"bus":"yes","highway":"bus_stop","network":"Transporte Público Urbano Trujillo","public_transport":"platform","ref":"PH-101","source":"Gerencia de Transporte Metropolitano de Trujillo","id":13546546296},"geometry":{"type":"Point","coordinates":[-79.0709029,-8.0053188]}},{"type":"Feature","properties":{"bus":"yes","highway":"bus_stop","network":"Transporte Público Urbano Trujillo","public_transport":"platform","ref":"PH-109","source":"Gerencia de Transporte Metropolitano de Trujillo","id":13546546293},"geometry":{"type":"Point","coordinates":[-79.0673078,-8.015995]}},{"type":"Feature","properties":{"bus":"yes","highway":"bus_stop","network":"Transporte Público Urbano Trujillo","public_transport":"platform","ref":"PH-110","source":"Gerencia de Transporte Metropolitano de Trujillo","id":13546546291},"geometry":{"type":"Point","coordinates":[-79.0661602,-8.0196706]}},{"type":"Feature","properties":{"advertising":"no","bench":"yes","bicycle_parking":"no","bin":"no","bus":"yes","departures_board":"no","highway":"bus_stop","level":"0","lit":"no","name":"Calle Alfonso Ugarte","network":"Transporte Público Urbano Trujillo","passenger_information_display:speech_output":"no","pole":"yes","public_transport":"platform","ramp":"no","ref":"PH-111","shelter":"yes","source:ref":"Gerencia de Transporte Metropolitano de Trujillo","tactile_paving":"no","tactile_writing:braille:es":"no","id":11911534030},"geometry":{"type":"Point","coordinates":[-79.0648297,-8.0235139]}},{"type":"Feature","properties":{"bus":"yes","highway":"bus_stop","network":"Transporte Público Urbano Trujillo","public_transport":"platform","ref":"PH-112","source":"Gerencia de Transporte Metropolitano de Trujillo","id":13546546290},"geometry":{"type":"Point","coordinates":[-79.0636536,-8.0273704]}},{"type":"Feature","properties":{"bus":"yes","highway":"bus_stop","network":"Transporte Público Urbano Trujillo","public_transport":"platform","ref":"PH-113","source":"Gerencia de Transporte Metropolitano de Trujillo","id":13546546289},"geometry":{"type":"Point","coordinates":[-79.0626536,-8.0306138]}},{"type":"Feature","properties":{"bus":"yes","highway":"bus_stop","network":"Transporte Público Urbano Trujillo","public_transport":"platform","ref":"PH-114","source":"Gerencia de Transporte Metropolitano de Trujillo","id":13546545547},"geometry":{"type":"Point","coordinates":[-79.0613915,-8.0342637]}},{"type":"Feature","properties":{"bus":"yes","highway":"bus_stop","network":"Transporte Público Urbano Trujillo","public_transport":"platform","ref":"PH-116","source":"Gerencia de Transporte Metropolitano de Trujillo","id":13546546288},"geometry":{"type":"Point","coordinates":[-79.0587534,-8.042531]}},{"type":"Feature","properties":{"bus":"yes","highway":"bus_stop","network":"Transporte Público Urbano Trujillo","public_transport":"platform","ref":"PE-98","source":"Gerencia de Transporte Metropolitano de Trujillo","id":13546545612},"geometry":{"type":"Point","coordinates":[-79.0574802,-8.0466333]}},{"type":"Feature","properties":{"bus":"yes","highway":"bus_stop","network":"Transporte Público Urbano Trujillo","public_transport":"platform","ref":"PE-276","source":"Gerencia de Transporte Metropolitano de Trujillo","id":13546546334},"geometry":{"type":"Point","coordinates":[-79.0567702,-8.0494699]}},{"type":"Feature","properties":{"bus":"yes","highway":"bus_stop","network":"Transporte Público Urbano Trujillo","public_transport":"platform","ref":"PE-277","source":"Gerencia de Transporte Metropolitano de Trujillo","id":13546546333},"geometry":{"type":"Point","coordinates":[-79.0560623,-8.0529364]}},{"type":"Feature","properties":{"bus":"yes","highway":"bus_stop","network":"Transporte Público Urbano Trujillo","public_transport":"platform","ref":"PE-273","source":"Gerencia de Transporte Metropolitano de Trujillo","id":13546546336},"geometry":{"type":"Point","coordinates":[-79.0542699,-8.0566946]}},{"type":"Feature","properties":{"bus":"yes","highway":"bus_stop","network":"Transporte Público Urbano Trujillo","public_transport":"platform","ref":"PE-271","source":"Gerencia de Transporte Metropolitano de Trujillo","id":13546546338},"geometry":{"type":"Point","coordinates":[-79.0533255,-8.0596597]}},{"type":"Feature","properties":{"bus":"yes","highway":"bus_stop","network":"Transporte Público Urbano Trujillo","public_transport":"platform","ref":"PE-43","source":"Gerencia de Transporte Metropolitano de Trujillo","id":13546545638},"geometry":{"type":"Point","coordinates":[-79.0520044,-8.0637257]}},{"type":"Feature","properties":{"bus":"yes","highway":"bus_stop","network":"Transporte Público Urbano Trujillo","public_transport":"platform","ref":"PE-42","source":"Gerencia de Transporte Metropolitano de Trujillo","id":13546546319},"geometry":{"type":"Point","coordinates":[-79.0507251,-8.0677612]}},{"type":"Feature","properties":{"bus":"yes","highway":"bus_stop","network":"Transporte Público Urbano Trujillo","public_transport":"platform","ref":"PE-50","source":"Gerencia de Transporte Metropolitano de Trujillo","id":13546545633},"geometry":{"type":"Point","coordinates":[-79.0492565,-8.0724897]}},{"type":"Feature","properties":{"bus":"yes","highway":"bus_stop","network":"Transporte Público Urbano Trujillo","public_transport":"platform","ref":"PE-44","source":"Gerencia de Transporte Metropolitano de Trujillo","id":13546546318},"geometry":{"type":"Point","coordinates":[-79.0480679,-8.074271]}},{"type":"Feature","properties":{"bus":"yes","highway":"bus_stop","network":"Transporte Público Urbano Trujillo","public_transport":"platform","ref":"PE-45","source":"Gerencia de Transporte Metropolitano de Trujillo","id":13546545637},"geometry":{"type":"Point","coordinates":[-79.0468353,-8.0763807]}},{"type":"Feature","properties":{"bus":"yes","highway":"bus_stop","network":"Transporte Público Urbano Trujillo","public_transport":"platform","ref":"PE-46","source":"Gerencia de Transporte Metropolitano de Trujillo","id":13546545636},"geometry":{"type":"Point","coordinates":[-79.0451941,-8.0792547]}},{"type":"Feature","properties":{"bus":"yes","highway":"bus_stop","network":"Transporte Público Urbano Trujillo","public_transport":"platform","ref":"PE-301","source":"Gerencia de Transporte Metropolitano de Trujillo","id":13546545669},"geometry":{"type":"Point","coordinates":[-79.0430778,-8.083007]}},{"type":"Feature","properties":{"bus":"yes","highway":"bus_stop","network":"Transporte Público Urbano Trujillo","public_transport":"platform","ref":"TUPAT-126","source":"Gerencia de Transporte Metropolitano de Trujillo","id":13546535044},"geometry":{"type":"Point","coordinates":[-79.0402613,-8.0875554]}},{"type":"Feature","properties":{"bus":"yes","highway":"bus_stop","network":"Transporte Público Urbano Trujillo","public_transport":"platform","ref":"TUPAT-124","source":"Gerencia de Transporte Metropolitano de Trujillo","id":13546545867},"geometry":{"type":"Point","coordinates":[-79.0362607,-8.0913512]}},{"type":"Feature","properties":{"bus":"yes","highway":"bus_stop","network":"Transporte Público Urbano Trujillo","public_transport":"platform","ref":"TUPAT-121","source":"Gerencia de Transporte Metropolitano de Trujillo","id":13546535047},"geometry":{"type":"Point","coordinates":[-79.0336175,-8.093915]}},{"type":"Feature","properties":{"bus":"yes","highway":"bus_stop","network":"Transporte Público Urbano Trujillo","public_transport":"platform","ref":"TEVA-338","source":"Gerencia de Transporte Metropolitano de Trujillo","id":13546535052},"geometry":{"type":"Point","coordinates":[-79.0285712,-8.095454]}},{"type":"Feature","properties":{"bus":"yes","highway":"bus_stop","network":"Transporte Público Urbano Trujillo","public_transport":"platform","ref":"AMN-35","source":"Gerencia de Transporte Metropolitano de Trujillo","id":13546545243},"geometry":{"type":"Point","coordinates":[-79.0269907,-8.0950012]}},{"type":"Feature","properties":{"bus":"yes","highway":"bus_stop","network":"Transporte Público Urbano Trujillo","public_transport":"platform","ref":"FEVI-219","source":"Gerencia de Transporte Metropolitano de Trujillo","id":13546545977},"geometry":{"type":"Point","coordinates":[-79.0199207,-8.0922674]}},{"type":"Feature","properties":{"bus":"yes","highway":"bus_stop","network":"Transporte Público Urbano Trujillo","public_transport":"platform","ref":"FEVI-220","source":"Gerencia de Transporte Metropolitano de Trujillo","id":13546545181},"geometry":{"type":"Point","coordinates":[-79.0177695,-8.0928692]}},{"type":"Feature","properties":{"bus":"yes","highway":"bus_stop","network":"Transporte Público Urbano Trujillo","public_transport":"platform","ref":"FEVI-222","source":"Gerencia de Transporte Metropolitano de Trujillo","id":13546545976},"geometry":{"type":"Point","coordinates":[-79.0153012,-8.0941722]}},{"type":"Feature","properties":{"bus":"yes","highway":"bus_stop","network":"Transporte Público Urbano Trujillo","public_transport":"platform","ref":"FEVI-224","source":"Gerencia de Transporte Metropolitano de Trujillo","id":13546545180},"geometry":{"type":"Point","coordinates":[-79.0131353,-8.0955967]}},{"type":"Feature","properties":{"bus":"yes","highway":"bus_stop","network":"Transporte Público Urbano Trujillo","public_transport":"platform","ref":"FEVI-226","source":"Gerencia de Transporte Metropolitano de Trujillo","id":13546545974},"geometry":{"type":"Point","coordinates":[-79.0106446,-8.0971678]}},{"type":"Feature","properties":{"bus":"yes","highway":"bus_stop","network":"Transporte Público Urbano Trujillo","public_transport":"platform","ref":"CEV-185","source":"Gerencia de Transporte Metropolitano de Trujillo","id":13546545215},"geometry":{"type":"Point","coordinates":[-79.0082032,-8.0991114]}},{"type":"Feature","properties":{"bus":"yes","highway":"bus_stop","network":"Transporte Público Urbano Trujillo","public_transport":"platform","ref":"CEV-186","source":"Gerencia de Transporte Metropolitano de Trujillo","id":13546546014},"geometry":{"type":"Point","coordinates":[-79.0104063,-8.1017614]}},{"type":"Feature","properties":{"bus":"yes","highway":"bus_stop","network":"Transporte Público Urbano Trujillo","public_transport":"platform","ref":"AMS-63","source":"Gerencia de Transporte Metropolitano de Trujillo","id":13546546043},"geometry":{"type":"Point","coordinates":[-79.0106145,-8.1041752]}},{"type":"Feature","properties":{"bus":"yes","highway":"bus_stop","network":"Transporte Público Urbano Trujillo","public_transport":"platform","ref":"AMS-66","source":"Gerencia de Transporte Metropolitano de Trujillo","id":13546545231},"geometry":{"type":"Point","coordinates":[-79.0123393,-8.1089068]}},{"type":"Feature","properties":{"bus":"yes","highway":"bus_stop","network":"Transporte Público Urbano Trujillo","public_transport":"platform","ref":"AMS-64","source":"Gerencia de Transporte Metropolitano de Trujillo","id":13546546042},"geometry":{"type":"Point","coordinates":[-79.0135767,-8.1115319]}},{"type":"Feature","properties":{"bus":"yes","highway":"bus_stop","network":"Transporte Público Urbano Trujillo","public_transport":"platform","ref":"AMS-62","source":"Gerencia de Transporte Metropolitano de Trujillo","id":13546545233},"geometry":{"type":"Point","coordinates":[-79.014746,-8.113926]}},{"type":"Feature","properties":{"bus":"yes","highway":"bus_stop","network":"Transporte Público Urbano Trujillo","public_transport":"platform","ref":"AMS-40","source":"Gerencia de Transporte Metropolitano de Trujillo","id":13546546052},"geometry":{"type":"Point","coordinates":[-79.0164486,-8.1164039]}},{"type":"Feature","properties":{"bus":"yes","highway":"bus_stop","network":"Transporte Público Urbano Trujillo","public_transport":"platform","ref":"AMS-55","source":"Gerencia de Transporte Metropolitano de Trujillo","id":13546545238},"geometry":{"type":"Point","coordinates":[-79.0185796,-8.1189281]}},{"type":"Feature","properties":{"bus":"yes","highway":"bus_stop","network":"Transporte Público Urbano Trujillo","public_transport":"platform","ref":"AMS-53","source":"Gerencia de Transporte Metropolitano de Trujillo","id":13546545240},"geometry":{"type":"Point","coordinates":[-79.0207348,-8.1211376]}},{"type":"Feature","properties":{"bus":"yes","highway":"bus_stop","network":"Transporte Público Urbano Trujillo","public_transport":"platform","ref":"AMS-57","source":"Gerencia de Transporte Metropolitano de Trujillo","id":13546545236},"geometry":{"type":"Point","coordinates":[-79.0224984,-8.122784]}},{"type":"Feature","properties":{"bus":"yes","highway":"bus_stop","network":"Transporte Público Urbano Trujillo","public_transport":"platform","ref":"AMS-37","source":"Gerencia de Transporte Metropolitano de Trujillo","id":13546545242},"geometry":{"type":"Point","coordinates":[-79.0246367,-8.124507]}},{"type":"Feature","properties":{"bus":"yes","highway":"bus_stop","network":"Transporte Público Urbano Trujillo","public_transport":"platform","ref":"PCVT-193","source":"Gerencia de Transporte Metropolitano de Trujillo","id":13546545908},"geometry":{"type":"Point","coordinates":[-79.0304563,-8.1271661]}},{"type":"Feature","properties":{"bus":"yes","highway":"bus_stop","network":"Transporte Público Urbano Trujillo","public_transport":"platform","ref":"PVL-25","source":"Gerencia de Transporte Metropolitano de Trujillo","id":13546546196},"geometry":{"type":"Point","coordinates":[-79.0357809,-8.1339475]}},{"type":"Feature","properties":{"bus":"yes","highway":"bus_stop","network":"Transporte Público Urbano Trujillo","public_transport":"platform","ref":"PVL-26","source":"Gerencia de Transporte Metropolitano de Trujillo","id":13546546195},"geometry":{"type":"Point","coordinates":[-79.0375234,-8.1367137]}},{"type":"Feature","properties":{"bus":"yes","highway":"bus_stop","network":"Transporte Público Urbano Trujillo","public_transport":"platform","ref":"PVL-SC-HUAMAN","source":"Gerencia de Transporte Metropolitano de Trujillo","id":13546545385},"geometry":{"type":"Point","coordinates":[-79.0395374,-8.1367921]}},{"type":"Feature","properties":{"bus":"yes","highway":"bus_stop","network":"Transporte Público Urbano Trujillo","public_transport":"platform","ref":"PVL-23","source":"Gerencia de Transporte Metropolitano de Trujillo","id":13546545400},"geometry":{"type":"Point","coordinates":[-79.0423196,-8.1358544]}},{"type":"Feature","properties":{"bus":"yes","highway":"bus_stop","network":"Transporte Público Urbano Trujillo","public_transport":"platform","ref":"PVL-27","source":"Gerencia de Transporte Metropolitano de Trujillo","id":13546546194},"geometry":{"type":"Point","coordinates":[-79.0439149,-8.1371477]}},{"type":"Feature","properties":{"bus":"yes","highway":"bus_stop","network":"Transporte Público Urbano Trujillo","public_transport":"platform","ref":"PVL-28","source":"Gerencia de Transporte Metropolitano de Trujillo","id":13546546193},"geometry":{"type":"Point","coordinates":[-79.0462118,-8.1397377]}},{"type":"Feature","properties":{"bus":"yes","highway":"bus_stop","network":"Transporte Público Urbano Trujillo","public_transport":"platform","ref":"PVL-29","source":"Gerencia de Transporte Metropolitano de Trujillo","id":13546545398},"geometry":{"type":"Point","coordinates":[-79.0481355,-8.1419808]}},{"type":"Feature","properties":{"bus":"yes","highway":"bus_stop","network":"Transporte Público Urbano Trujillo","public_transport":"platform","ref":"PVL-46","source":"Gerencia de Transporte Metropolitano de Trujillo","id":13546545387},"geometry":{"type":"Point","coordinates":[-79.0490274,-8.1436942]}},{"type":"Feature","properties":{"bus":"yes","highway":"bus_stop","network":"Transporte Público Urbano Trujillo","public_transport":"platform","ref":"PVL-45","source":"Gerencia de Transporte Metropolitano de Trujillo","id":13546545388},"geometry":{"type":"Point","coordinates":[-79.0469949,-8.145435]}},{"type":"Feature","properties":{"bus":"yes","highway":"bus_stop","network":"Transporte Público Urbano Trujillo","public_transport":"platform","ref":"PVL-44","source":"Gerencia de Transporte Metropolitano de Trujillo","id":13546545389},"geometry":{"type":"Point","coordinates":[-79.0444878,-8.1476653]}},{"type":"Feature","properties":{"bus":"yes","highway":"bus_stop","network":"Transporte Público Urbano Trujillo","public_transport":"platform","ref":"PVL-42","source":"Gerencia de Transporte Metropolitano de Trujillo","id":13546545390},"geometry":{"type":"Point","coordinates":[-79.0446185,-8.1503048]}},{"type":"Feature","properties":{"bus":"yes","highway":"bus_stop","network":"Transporte Público Urbano Trujillo","public_transport":"platform","ref":"PVL-14","source":"Gerencia de Transporte Metropolitano de Trujillo","id":13546546198},"geometry":{"type":"Point","coordinates":[-79.0468642,-8.1485718]}},{"type":"Feature","properties":{"bus":"yes","highway":"bus_stop","network":"Transporte Público Urbano Trujillo","public_transport":"platform","ref":"PVL-13","source":"Gerencia de Transporte Metropolitano de Trujillo","id":13546545405},"geometry":{"type":"Point","coordinates":[-79.0498466,-8.1485167]}}]}