{"type":"FeatureCollection","features":[{"type":"Feature","properties":{"check_date":"2025-12-12","colour":"#ff9966","colour:text":"#000000","fee":"yes","from":"Avenida la Paz","hash":"14152","interval":"3","name":"Avenida la Paz → Avenida la Paz","network":"Transporte Público Urbano Trujillo","opening_hours":"Mo-Su 05:00-23:00","operator":"HUANCHACO S.A.","public_transport:version":"2","ref":"M-05 H","route":"bus","survey:avg_speed:kmh":"20","to":"Avenida la Paz","type":"route","id":19959151},"geometry":{"type":"LineString","coordinates":[[-79.1155744,-8.0902207],[-79.1153814,-8.0890763],[-79.1152642,-8.0883721],[-79.1151612,-8.0877714],[-79.1150206,-8.0869381],[-79.1147264,-8.0869991],[-79.1144258,-8.0858085],[-79.1142883,-8.0853551],[-79.1141553,-8.0849163],[-79.1139498,-8.0842386],[-79.1138056,-8.0837681],[-79.1136749,-8.0833103],[-79.1135466,-8.082861],[-79.1134179,-8.082424],[-79.1132936,-8.0820047],[-79.113196,-8.081633],[-79.1142422,-8.0816174],[-79.1151116,-8.0815895],[-79.1158335,-8.0815823],[-79.1159272,-8.0815794],[-79.1161111,-8.0815742],[-79.1162194,-8.0815729],[-79.1163724,-8.0815677],[-79.1171407,-8.0815497],[-79.1174847,-8.0815429],[-79.1187132,-8.0814884],[-79.1190534,-8.0814342],[-79.1188312,-8.0807031],[-79.1187051,-8.0803127],[-79.1184315,-8.0796143],[-79.1182894,-8.0791788],[-79.1182009,-8.0789451],[-79.1181284,-8.0787592],[-79.1179856,-8.0783071],[-79.1178864,-8.0780415],[-79.1178691,-8.0779585],[-79.1178628,-8.0778767],[-79.1178585,-8.077806],[-79.1178493,-8.0776777],[-79.1178635,-8.0775138],[-79.1178778,-8.0774476],[-79.1178596,-8.0773431],[-79.1178247,-8.0771785],[-79.1177281,-8.0767934],[-79.1176477,-8.0764747],[-79.1175984,-8.0761687],[-79.1175887,-8.0761083],[-79.1175845,-8.0759882],[-79.1175806,-8.0758746],[-79.1175913,-8.0753142],[-79.1176021,-8.0751151],[-79.1176463,-8.0748216],[-79.1177228,-8.0745069],[-79.1178166,-8.0742148],[-79.1179145,-8.0739161],[-79.1180004,-8.0737116],[-79.1180513,-8.0736067],[-79.1181452,-8.0735403],[-79.118219,-8.0734991],[-79.1184121,-8.0734322],[-79.118616,-8.0733923],[-79.1187286,-8.0733737],[-79.1193472,-8.0733842],[-79.1192402,-8.0737109],[-79.1191316,-8.0743005],[-79.1190022,-8.075068],[-79.1189908,-8.0752976],[-79.1189861,-8.0755354],[-79.1190154,-8.0757872],[-79.1190551,-8.076079],[-79.1191367,-8.0767282],[-79.1191569,-8.0767872],[-79.1191951,-8.076862],[-79.1196184,-8.0775321],[-79.1197713,-8.0777355],[-79.1198974,-8.0779373],[-79.1201066,-8.0782201],[-79.1202403,-8.0783663],[-79.1203417,-8.0784772],[-79.1208399,-8.0788983],[-79.1212588,-8.0793861],[-79.1221281,-8.0805668],[-79.1224665,-8.0809776],[-79.1225116,-8.0810314],[-79.1226291,-8.0812114],[-79.122688,-8.0812675],[-79.1227476,-8.081356],[-79.1228487,-8.0815331],[-79.1230056,-8.0818368],[-79.1230983,-8.0820566],[-79.1231528,-8.082186],[-79.1232259,-8.082527],[-79.1232769,-8.0830311],[-79.1232817,-8.0832778],[-79.1232739,-8.083546],[-79.1232468,-8.0837863],[-79.1232131,-8.0840127],[-79.1231967,-8.0841084],[-79.1231731,-8.0842249],[-79.1231214,-8.0844541],[-79.1230371,-8.0846795],[-79.1229311,-8.0848946],[-79.1228323,-8.085076],[-79.1227559,-8.0851999],[-79.1227055,-8.0852817],[-79.1223123,-8.0858054],[-79.122084,-8.0860903],[-79.1217488,-8.0865029],[-79.1211468,-8.0872407],[-79.1205734,-8.0879434],[-79.1195487,-8.0892087],[-79.1193545,-8.0894485],[-79.1192093,-8.0896278],[-79.118994,-8.0898936],[-79.1180044,-8.0911155],[-79.1176418,-8.0915482],[-79.1173764,-8.0918733],[-79.1139161,-8.0961116],[-79.1135979,-8.0964571],[-79.1131099,-8.0968345],[-79.1126855,-8.0970633],[-79.1122043,-8.0972388],[-79.111742,-8.0973602],[-79.1114505,-8.0974051],[-79.1112144,-8.0974237],[-79.1110796,-8.0974246],[-79.1108054,-8.0974078],[-79.1105287,-8.0973775],[-79.1100689,-8.0972721],[-79.1095297,-8.0970757],[-79.1091382,-8.096866],[-79.1089631,-8.0967585],[-79.1086434,-8.0964884],[-79.1085927,-8.0964516],[-79.1084988,-8.0963523],[-79.1084353,-8.0962742],[-79.1083991,-8.0962296],[-79.1080706,-8.0958115],[-79.1076827,-8.0953309],[-79.1073084,-8.0948671],[-79.1060813,-8.0933446],[-79.1055498,-8.0926852],[-79.1053269,-8.0924086],[-79.1050745,-8.0920954],[-79.104766,-8.0917126],[-79.1046549,-8.0915699],[-79.104413,-8.0912592],[-79.103389,-8.0900011],[-79.1016626,-8.0878118],[-79.1013322,-8.0874904],[-79.1010298,-8.0872646],[-79.1006695,-8.0870542],[-79.1003838,-8.0869248],[-79.1000893,-8.0868218],[-79.0998357,-8.0867555],[-79.0995536,-8.0867056],[-79.0992162,-8.0866721],[-79.0990218,-8.0866665],[-79.0988211,-8.0866711],[-79.098398,-8.0867157],[-79.0978698,-8.0868588],[-79.0975445,-8.0869736],[-79.097352,-8.0870672],[-79.0971696,-8.0872147],[-79.0970618,-8.0873182],[-79.0970113,-8.0873668],[-79.0968664,-8.0874869],[-79.0967991,-8.0875826],[-79.0967387,-8.0876403],[-79.0966693,-8.087687],[-79.0965928,-8.0877214],[-79.0965116,-8.0877424],[-79.096428,-8.0877495],[-79.0963443,-8.0877425],[-79.0962631,-8.0877215],[-79.0961892,-8.0876886],[-79.0961249,-8.0876406],[-79.096027,-8.0876201],[-79.0958966,-8.087601],[-79.0957517,-8.087603],[-79.0956134,-8.08763],[-79.0954817,-8.0876696],[-79.0952703,-8.0877416],[-79.0951931,-8.0877653],[-79.0935344,-8.0882704],[-79.0928688,-8.0885041],[-79.0928566,-8.0885083],[-79.0927291,-8.0885519],[-79.092358,-8.0886713],[-79.0921857,-8.088729],[-79.091761,-8.0888712],[-79.0911145,-8.0890876],[-79.0909959,-8.0891266],[-79.0906787,-8.0892308],[-79.0905793,-8.0892635],[-79.0899724,-8.089463],[-79.089877,-8.0894944],[-79.0896467,-8.0895701],[-79.0893202,-8.0896773],[-79.0886055,-8.0899142],[-79.0883407,-8.0899993],[-79.0881509,-8.0900617],[-79.0878424,-8.0901631],[-79.0875731,-8.0902516],[-79.0872013,-8.0903725],[-79.086564,-8.0905805],[-79.0852898,-8.0909965],[-79.0843068,-8.0913152],[-79.0836019,-8.0915453],[-79.0830125,-8.0917351],[-79.0826372,-8.0918572],[-79.0821193,-8.0920429],[-79.0819293,-8.0920975],[-79.0816959,-8.0921635],[-79.0815178,-8.0922107],[-79.0811987,-8.092283],[-79.0788696,-8.0927391],[-79.0776584,-8.0929879],[-79.0759121,-8.0933703],[-79.0758211,-8.0933912],[-79.0756274,-8.0934352],[-79.074618,-8.0936316],[-79.0735358,-8.0938833],[-79.0731579,-8.0940154],[-79.0727884,-8.0941674],[-79.0724929,-8.094315],[-79.0720135,-8.0946223],[-79.0716768,-8.094915],[-79.0712852,-8.0953024],[-79.0695464,-8.0972747],[-79.069358,-8.0974713],[-79.0689179,-8.097966],[-79.0683759,-8.0984749],[-79.0681705,-8.0986401],[-79.068066,-8.0987205],[-79.0679538,-8.0987933],[-79.0678417,-8.0988621],[-79.0677205,-8.0989322],[-79.0674239,-8.0990689],[-79.0669602,-8.0992447],[-79.0664623,-8.0993825],[-79.0651914,-8.0996676],[-79.0637256,-8.0999968],[-79.0636457,-8.1000146],[-79.0634189,-8.1000651],[-79.0624767,-8.1002542],[-79.0621464,-8.1003205],[-79.0619992,-8.1003454],[-79.0611706,-8.100508],[-79.0604102,-8.1006738],[-79.0596369,-8.1008519],[-79.0593082,-8.1009136],[-79.0590247,-8.1009667],[-79.0583972,-8.1010715],[-79.0576599,-8.1010661],[-79.0573634,-8.1010644],[-79.0570315,-8.1010528],[-79.0564653,-8.1010271],[-79.0559612,-8.1010059],[-79.0558023,-8.100996],[-79.0554769,-8.1009772],[-79.054763,-8.1009459],[-79.0540237,-8.1009134],[-79.0537311,-8.1009033],[-79.0532525,-8.1008868],[-79.0529489,-8.1008763],[-79.0521027,-8.1008526],[-79.0517247,-8.100842],[-79.0512521,-8.1008287],[-79.0503593,-8.1008178],[-79.0502604,-8.1008257],[-79.0498062,-8.1008733],[-79.0493216,-8.1008776],[-79.0491776,-8.100879],[-79.0484092,-8.1008863],[-79.0481827,-8.1008879],[-79.048041,-8.100888],[-79.047306,-8.10097],[-79.0464375,-8.1010669],[-79.0455221,-8.1012535],[-79.0452564,-8.1013077],[-79.0451142,-8.1013367],[-79.0449748,-8.1013651],[-79.044493,-8.1014696],[-79.0443739,-8.1014935],[-79.0437825,-8.1016247],[-79.0433215,-8.101727],[-79.0429163,-8.1018169],[-79.0422055,-8.1019746],[-79.0417087,-8.10206],[-79.0415762,-8.1020864],[-79.0413616,-8.1021367],[-79.0411635,-8.1021871],[-79.041065,-8.1022187],[-79.0406388,-8.1023554],[-79.0395627,-8.1027305],[-79.0394122,-8.102805],[-79.0388679,-8.1030928],[-79.0382654,-8.1034053],[-79.0379433,-8.10357],[-79.037563,-8.1037699],[-79.0369493,-8.1040795],[-79.0368095,-8.1041544],[-79.0368396,-8.1042254],[-79.0367014,-8.1043007],[-79.0363244,-8.1045064],[-79.0358117,-8.104786],[-79.0357479,-8.1048306],[-79.0356973,-8.1048961],[-79.0356934,-8.104972],[-79.0357223,-8.1050351],[-79.0357485,-8.1050922],[-79.0358273,-8.1052641],[-79.036067,-8.1057871],[-79.0362184,-8.1061526],[-79.0362525,-8.1062342],[-79.0365364,-8.1069179],[-79.0369485,-8.1079294],[-79.0372699,-8.1087139],[-79.037388,-8.108956],[-79.0375097,-8.1091387],[-79.0380939,-8.1098517],[-79.0381839,-8.1099631],[-79.0380882,-8.1100254],[-79.0376847,-8.1103207],[-79.036251,-8.1113451],[-79.0359712,-8.1115469],[-79.0359243,-8.1115837],[-79.035893,-8.1116049],[-79.0357964,-8.1116733],[-79.0357345,-8.111719],[-79.0356706,-8.1117669],[-79.0351109,-8.1121722],[-79.0345397,-8.1125864],[-79.0352592,-8.113417],[-79.035618,-8.1138322],[-79.0363968,-8.1147305],[-79.0371221,-8.115568],[-79.037158,-8.1156094],[-79.0372053,-8.115664],[-79.0372611,-8.1157285],[-79.0373127,-8.1157881],[-79.0382054,-8.1168188],[-79.0387902,-8.1174939],[-79.0388463,-8.1175587],[-79.0389084,-8.1176301],[-79.0389556,-8.1176846],[-79.0391835,-8.117948],[-79.0402011,-8.119123],[-79.0402752,-8.1192085],[-79.0403922,-8.1191843],[-79.0405106,-8.1192008],[-79.0406163,-8.1192561],[-79.0406635,-8.1192999],[-79.0407018,-8.1193515],[-79.0407417,-8.119449],[-79.04075,-8.1195538],[-79.0407259,-8.1196562],[-79.0406717,-8.1197466],[-79.0406227,-8.1197948],[-79.0405651,-8.1198324],[-79.0404945,-8.1198598],[-79.0404196,-8.1198714],[-79.0403005,-8.1200142],[-79.0400457,-8.1207535],[-79.0399113,-8.1211686],[-79.0396543,-8.1220817],[-79.0396267,-8.1221648],[-79.0392166,-8.1234016],[-79.0391189,-8.1237295],[-79.0390364,-8.1240113],[-79.0390038,-8.124114],[-79.0389915,-8.1242378],[-79.0389556,-8.1243868],[-79.0389836,-8.1244282],[-79.0390168,-8.1245127],[-79.039037,-8.1246216],[-79.0390107,-8.1246984],[-79.0389794,-8.1247544],[-79.0389177,-8.1248082],[-79.0388469,-8.1248317],[-79.0387624,-8.1248285],[-79.0386906,-8.1248101],[-79.0386372,-8.124784],[-79.038423,-8.1247582],[-79.0382867,-8.1247564],[-79.0381611,-8.1247757],[-79.0378097,-8.1249194],[-79.0377753,-8.1249334],[-79.0372834,-8.1251423],[-79.0362991,-8.1255304],[-79.0357596,-8.1257514],[-79.0357007,-8.1257726],[-79.0356366,-8.1258005],[-79.0347785,-8.1261254],[-79.0343005,-8.1262837],[-79.0339226,-8.126386],[-79.0336986,-8.1264482],[-79.0331612,-8.1265934],[-79.0326043,-8.1266954],[-79.0325305,-8.1267089],[-79.0324376,-8.1267209],[-79.0320876,-8.1267651],[-79.0317662,-8.1267836],[-79.0316522,-8.1267885],[-79.0314342,-8.1267881],[-79.0313567,-8.126788],[-79.0312896,-8.1267849],[-79.0309179,-8.126768],[-79.0307428,-8.1267543],[-79.0305879,-8.1267476],[-79.0304667,-8.1267397],[-79.0304075,-8.1267326],[-79.0303135,-8.1267253],[-79.0302526,-8.1267171],[-79.0299185,-8.1266745],[-79.0295335,-8.1266304],[-79.0293173,-8.1266056],[-79.0288559,-8.1265113],[-79.0282974,-8.1263971],[-79.0272399,-8.1260503],[-79.0262905,-8.1257014],[-79.0261484,-8.1256251],[-79.0259428,-8.1255147],[-79.0253822,-8.1252137],[-79.0244836,-8.1246723],[-79.0237336,-8.1241795],[-79.0236823,-8.1241458],[-79.023635,-8.1241261],[-79.0235902,-8.1241222],[-79.0234928,-8.1241332],[-79.0233923,-8.1241853],[-79.0232745,-8.1242196],[-79.0231521,-8.1242295],[-79.0230407,-8.1242171],[-79.0229336,-8.1241844],[-79.0228344,-8.1241327],[-79.022741,-8.1240583],[-79.0226643,-8.1239672],[-79.0226056,-8.1238588],[-79.0225705,-8.1237408],[-79.0225606,-8.1236181],[-79.0225722,-8.123515],[-79.0226016,-8.1234153],[-79.022648,-8.1233223],[-79.0226302,-8.1232373],[-79.0226174,-8.1231959],[-79.0225965,-8.1231517],[-79.0225738,-8.1231178],[-79.0217142,-8.1223186],[-79.0216371,-8.1222102],[-79.0213509,-8.121947],[-79.0210135,-8.1216482],[-79.0209833,-8.1216215],[-79.0208992,-8.1215398],[-79.0201851,-8.1208454],[-79.0198441,-8.1205092],[-79.01926,-8.1199234],[-79.0191778,-8.1198423],[-79.018871,-8.1194931],[-79.0185844,-8.1191612],[-79.0183603,-8.1189003],[-79.0182148,-8.1187268],[-79.0176554,-8.1180688],[-79.0176132,-8.1180192],[-79.0171913,-8.117523],[-79.016788,-8.1170486],[-79.0164702,-8.116631],[-79.0160971,-8.1161408],[-79.0158589,-8.1158277],[-79.0154267,-8.1152432],[-79.0151665,-8.1148914],[-79.0151129,-8.1148203],[-79.0148553,-8.1144167],[-79.0148298,-8.1143574],[-79.0147829,-8.1142839],[-79.0140645,-8.1128645],[-79.0139744,-8.1126865],[-79.0138109,-8.1127642],[-79.0133708,-8.1129735],[-79.012948,-8.113184],[-79.0127528,-8.113273],[-79.0125303,-8.1133304],[-79.0123662,-8.1133465],[-79.0122026,-8.1133414],[-79.0113726,-8.1132136],[-79.0104756,-8.1130823],[-79.0100301,-8.11302],[-79.009009,-8.112864],[-79.0088043,-8.1128295],[-79.0084043,-8.1127661],[-79.0075623,-8.1126325],[-79.0068653,-8.1125219],[-79.0068839,-8.1124116],[-79.0069633,-8.1118991],[-79.0071408,-8.1107538],[-79.0071541,-8.1106678],[-79.0072138,-8.1102826],[-79.0074268,-8.1089075],[-79.0075002,-8.1084337],[-79.0075747,-8.1079529],[-79.0076474,-8.1074834],[-79.0077204,-8.1070125],[-79.0077981,-8.1065109],[-79.0076634,-8.1064907],[-79.0074136,-8.1059722],[-79.0069773,-8.1050369],[-79.0062865,-8.1036091],[-79.0067269,-8.103395],[-79.0071452,-8.103193],[-79.0075341,-8.1030097],[-79.0079681,-8.1028074],[-79.0084025,-8.1026003],[-79.0085896,-8.10299],[-79.0090736,-8.1039976],[-79.0095095,-8.10379],[-79.0101428,-8.1034883],[-79.0104839,-8.1033268],[-79.0107927,-8.1031807],[-79.0109127,-8.1031689],[-79.0110643,-8.1027749],[-79.0111039,-8.1026761],[-79.011198,-8.1024167],[-79.0112866,-8.102192],[-79.0114159,-8.1019145],[-79.0116076,-8.1016025],[-79.0117418,-8.1014326],[-79.0118356,-8.101329],[-79.0123764,-8.10082],[-79.0127128,-8.1005306],[-79.013052,-8.1002262],[-79.013115,-8.1001744],[-79.0132303,-8.1000777],[-79.0134721,-8.0999041],[-79.0140374,-8.099438],[-79.0140853,-8.0993954],[-79.0153502,-8.0983201],[-79.0156556,-8.0980592],[-79.0162565,-8.0975504],[-79.0163224,-8.0974945],[-79.0171209,-8.0968216],[-79.0175534,-8.0964329],[-79.0179282,-8.0961226],[-79.0182007,-8.0960213],[-79.0192627,-8.0956227],[-79.0193672,-8.095583],[-79.020003,-8.0953414],[-79.0209139,-8.0949933],[-79.0216779,-8.0946983],[-79.0217962,-8.0946526],[-79.0218858,-8.0946132],[-79.0223491,-8.0944305],[-79.0228166,-8.0942553],[-79.0228682,-8.094236],[-79.0230846,-8.0941549],[-79.023781,-8.0938842],[-79.024227,-8.093749],[-79.0245066,-8.093704],[-79.0247945,-8.0936876],[-79.0249853,-8.0936908],[-79.0252554,-8.0937219],[-79.0253966,-8.0937499],[-79.0254886,-8.0937737],[-79.0257098,-8.0938322],[-79.0257497,-8.0938473],[-79.0259212,-8.093912],[-79.026124,-8.0940075],[-79.0263109,-8.0941169],[-79.0264865,-8.0942425],[-79.0266608,-8.0943797],[-79.0268601,-8.0945813],[-79.0272717,-8.0950072],[-79.0273313,-8.0950685],[-79.0277361,-8.0954904],[-79.0280436,-8.0958043],[-79.0281093,-8.0958733],[-79.0285236,-8.0962979],[-79.0296627,-8.097465],[-79.0297622,-8.0975681],[-79.0299341,-8.0977425],[-79.03015,-8.0979621],[-79.0303946,-8.0982191],[-79.03053,-8.098369],[-79.0306697,-8.0985534],[-79.0308063,-8.0987806],[-79.0315076,-8.1001224],[-79.0315613,-8.1002232],[-79.0317974,-8.1006595],[-79.0325047,-8.101998],[-79.0327669,-8.1024797],[-79.0330027,-8.1029008],[-79.0330448,-8.1029781],[-79.0334047,-8.1036667],[-79.0336554,-8.1041335],[-79.0338867,-8.1045503],[-79.0340721,-8.1048958],[-79.0341355,-8.1050007],[-79.0341565,-8.1050326],[-79.0342258,-8.1051172],[-79.0343081,-8.1051894],[-79.0343997,-8.1052473],[-79.0344981,-8.1052881],[-79.0346003,-8.1053133],[-79.0347052,-8.1053225],[-79.0348477,-8.1053259],[-79.0350511,-8.1052429],[-79.0353172,-8.1051343],[-79.0354138,-8.1048883],[-79.0355034,-8.1047732],[-79.035663,-8.104694],[-79.0360076,-8.1045136],[-79.0367912,-8.1041102],[-79.0369314,-8.1040345],[-79.0379182,-8.1035043],[-79.0382349,-8.1033466],[-79.0393827,-8.1027516],[-79.0395335,-8.1026743],[-79.0398143,-8.1025775],[-79.0406237,-8.1022958],[-79.0410434,-8.1021507],[-79.0411374,-8.1021182],[-79.0415588,-8.1020103],[-79.0416924,-8.1019843],[-79.0421767,-8.1018823],[-79.0425162,-8.1018074],[-79.0428889,-8.1017252],[-79.0432935,-8.1016332],[-79.0434727,-8.1015933],[-79.0437537,-8.1015306],[-79.0439517,-8.101492],[-79.0440854,-8.1014659],[-79.0443467,-8.101415],[-79.0444704,-8.1013911],[-79.0445703,-8.1013691],[-79.04496,-8.1012834],[-79.045238,-8.1012223],[-79.045502,-8.1011642],[-79.0464087,-8.1009649],[-79.0472935,-8.1008592],[-79.0480278,-8.1007778],[-79.0484112,-8.1007686],[-79.0491768,-8.1007611],[-79.0492804,-8.1007601],[-79.0494033,-8.1007601],[-79.0500186,-8.1007343],[-79.0502781,-8.1007234],[-79.0504154,-8.1007199],[-79.0512481,-8.1007282],[-79.0521056,-8.1007598],[-79.0528013,-8.1007855],[-79.0529503,-8.1007923],[-79.0530684,-8.1007977],[-79.054022,-8.1008413],[-79.0547632,-8.1008749],[-79.055481,-8.1009075],[-79.0559667,-8.1009364],[-79.0564725,-8.100959],[-79.0571844,-8.1009974],[-79.0573342,-8.1009986],[-79.0576535,-8.1010035],[-79.0583768,-8.1010024],[-79.0592932,-8.1008303],[-79.0596181,-8.1007693],[-79.0598458,-8.1007211],[-79.0601603,-8.1006547],[-79.0603929,-8.1006055],[-79.0607502,-8.1005266],[-79.0611568,-8.1004368],[-79.0620191,-8.1002344],[-79.0621009,-8.1002184],[-79.0622483,-8.1001867],[-79.0623813,-8.100158],[-79.0624506,-8.100143],[-79.0634002,-8.0999443],[-79.0636157,-8.0998975],[-79.0636899,-8.0998814],[-79.0647799,-8.0996516],[-79.0651525,-8.099573],[-79.0664654,-8.099296],[-79.0669694,-8.0991567],[-79.0672098,-8.0990634],[-79.0673878,-8.0989918],[-79.0676129,-8.0988825],[-79.067834,-8.0987579],[-79.0680802,-8.098603],[-79.0683281,-8.09841],[-79.0688715,-8.0979095],[-79.0692977,-8.0974189],[-79.0694793,-8.0972099],[-79.0698626,-8.0967737],[-79.0712388,-8.0952492],[-79.0716351,-8.0948639],[-79.0719782,-8.0945655],[-79.0724515,-8.0942625],[-79.0727527,-8.0941049],[-79.0731284,-8.0939503],[-79.0735132,-8.0938124],[-79.0746052,-8.0935585],[-79.0758694,-8.0933121],[-79.0772934,-8.0929953],[-79.0776421,-8.0929237],[-79.0788602,-8.0926736],[-79.0807177,-8.0923034],[-79.0812028,-8.0922067],[-79.0814024,-8.092167],[-79.0816506,-8.0921098],[-79.08191,-8.0920388],[-79.0821065,-8.0919778],[-79.0827776,-8.0917474],[-79.082991,-8.0916768],[-79.0835798,-8.0914834],[-79.0842839,-8.0912521],[-79.0852673,-8.0909269],[-79.0861151,-8.0906452],[-79.0865425,-8.0905097],[-79.0871777,-8.090301],[-79.0875523,-8.0901779],[-79.0878168,-8.0900904],[-79.08813,-8.0899868],[-79.0885834,-8.0898369],[-79.0892876,-8.0896041],[-79.0896222,-8.0894934],[-79.0902526,-8.0892836],[-79.0906553,-8.0891518],[-79.0910834,-8.0890103],[-79.0918658,-8.0887559],[-79.092358,-8.0885958],[-79.0923899,-8.0885851],[-79.0927029,-8.0884806],[-79.0928472,-8.0884353],[-79.0928602,-8.0884312],[-79.0935126,-8.088209],[-79.093799,-8.0881171],[-79.0941732,-8.087997],[-79.0950784,-8.0877066],[-79.0951681,-8.0876778],[-79.0952422,-8.0876524],[-79.0953414,-8.0876158],[-79.0954966,-8.0875225],[-79.095628,-8.0874183],[-79.0957887,-8.0872528],[-79.0958711,-8.0871694],[-79.0959795,-8.0870617],[-79.0960119,-8.0870031],[-79.096023,-8.0869829],[-79.0960776,-8.0869176],[-79.0961528,-8.0868549],[-79.096239,-8.0868083],[-79.0963329,-8.0867796],[-79.0964306,-8.0867698],[-79.0965284,-8.0867794],[-79.0966105,-8.0868033],[-79.0967617,-8.086896],[-79.0968636,-8.0869297],[-79.0969652,-8.0869623],[-79.0970251,-8.0869738],[-79.0972037,-8.0869733],[-79.0974072,-8.0869372],[-79.0978544,-8.0867978],[-79.0983753,-8.0866543],[-79.0986175,-8.0866209],[-79.0988537,-8.0866018],[-79.0990906,-8.0865989],[-79.0993271,-8.0866122],[-79.0995622,-8.0866415],[-79.0999103,-8.0867048],[-79.100249,-8.0868071],[-79.1005762,-8.0869408],[-79.1008891,-8.0871049],[-79.1011848,-8.0872978],[-79.1014605,-8.0875177],[-79.1017138,-8.0877626],[-79.1026741,-8.0889547],[-79.1034672,-8.0899388],[-79.1036045,-8.0901126],[-79.1044722,-8.0912116],[-79.104823,-8.091668],[-79.1053844,-8.0923645],[-79.107365,-8.0948219],[-79.1085256,-8.0962264],[-79.108694,-8.096436],[-79.1089787,-8.0966564],[-79.1090144,-8.0966841],[-79.1091777,-8.0968053],[-79.1095597,-8.0970099],[-79.1101191,-8.0972028],[-79.1105381,-8.0973061],[-79.1108067,-8.0973427],[-79.111075,-8.0973598],[-79.1112072,-8.0973597],[-79.1114599,-8.0973374],[-79.111729,-8.0972893],[-79.1121831,-8.0971697],[-79.1126529,-8.0969987],[-79.113067,-8.0967762],[-79.1135478,-8.0964048],[-79.1138614,-8.0960641],[-79.1160973,-8.0933303],[-79.1169837,-8.0922465],[-79.1175864,-8.0915096],[-79.1180057,-8.0910028],[-79.119301,-8.0894022],[-79.119491,-8.0891674],[-79.1205084,-8.0879102],[-79.1216711,-8.0864514],[-79.1220081,-8.0860285],[-79.122177,-8.0858166],[-79.1225937,-8.0852375],[-79.1226556,-8.0851694],[-79.1227408,-8.0850313],[-79.1229386,-8.0846676],[-79.1230301,-8.0844458],[-79.1230971,-8.0842161],[-79.1231205,-8.0841014],[-79.1231373,-8.0840034],[-79.1231744,-8.083777],[-79.1232055,-8.0835294],[-79.1232133,-8.0832725],[-79.1232108,-8.0830394],[-79.1231547,-8.0825415],[-79.123074,-8.08221],[-79.1230276,-8.0820833],[-79.122954,-8.0818824],[-79.1229169,-8.081826],[-79.122889,-8.0818051],[-79.1228502,-8.0817928],[-79.1228113,-8.0817951],[-79.1227372,-8.0818178],[-79.1222338,-8.0819637],[-79.1212706,-8.0822061],[-79.120937,-8.0823124],[-79.1205485,-8.0824066],[-79.1197488,-8.0826213],[-79.1193329,-8.0827441],[-79.1192239,-8.0822512],[-79.1191076,-8.0817871],[-79.1190534,-8.0814342],[-79.1188312,-8.0807031],[-79.1187051,-8.0803127],[-79.1184315,-8.0796143],[-79.1182894,-8.0791788],[-79.1182009,-8.0789451],[-79.1181284,-8.0787592],[-79.1179856,-8.0783071],[-79.1178864,-8.0780415],[-79.1178691,-8.0779585],[-79.1178628,-8.0778767],[-79.1178585,-8.077806],[-79.1178493,-8.0776777],[-79.1178635,-8.0775138],[-79.1178778,-8.0774476],[-79.1178596,-8.0773431],[-79.1178247,-8.0771785],[-79.1177281,-8.0767934],[-79.1176477,-8.0764747],[-79.1175984,-8.0761687],[-79.1175887,-8.0761083],[-79.1175845,-8.0759882],[-79.1175806,-8.0758746],[-79.1175913,-8.0753142],[-79.1176021,-8.0751151],[-79.1176463,-8.0748216],[-79.1177228,-8.0745069],[-79.1178166,-8.0742148],[-79.1179145,-8.0739161],[-79.1180004,-8.0737116],[-79.1180513,-8.0736067],[-79.1181452,-8.0735403],[-79.118219,-8.0734991],[-79.1184121,-8.0734322],[-79.118616,-8.0733923],[-79.1187286,-8.0733737],[-79.1193472,-8.0733842],[-79.1192402,-8.0737109],[-79.1191316,-8.0743005],[-79.1190022,-8.075068],[-79.1189908,-8.0752976],[-79.1189861,-8.0755354],[-79.1190154,-8.0757872],[-79.1190551,-8.076079],[-79.1191367,-8.0767282],[-79.1191569,-8.0767872],[-79.1191951,-8.076862],[-79.1189952,-8.0769916],[-79.1187412,-8.0771386],[-79.1179974,-8.0775018],[-79.1179424,-8.0775991],[-79.1178978,-8.0777001],[-79.1178585,-8.077806],[-79.1178628,-8.0778767],[-79.1178691,-8.0779585],[-79.1178864,-8.0780415],[-79.1179856,-8.0783071],[-79.1181284,-8.0787592],[-79.1182009,-8.0789451],[-79.1182894,-8.0791788],[-79.1184315,-8.0796143],[-79.1187051,-8.0803127],[-79.1188312,-8.0807031],[-79.1190534,-8.0814342],[-79.1187132,-8.0814884],[-79.1174847,-8.0815429],[-79.1171407,-8.0815497],[-79.1163724,-8.0815677],[-79.1162194,-8.0815729],[-79.1161111,-8.0815742],[-79.1159272,-8.0815794],[-79.1158335,-8.0815823],[-79.1151116,-8.0815895],[-79.1142422,-8.0816174],[-79.113196,-8.081633],[-79.1132936,-8.0820047],[-79.1134179,-8.082424],[-79.1135466,-8.082861],[-79.1136749,-8.0833103],[-79.1138056,-8.0837681],[-79.1139498,-8.0842386],[-79.1141553,-8.0849163],[-79.1142883,-8.0853551],[-79.1144258,-8.0858085],[-79.1147264,-8.0869991],[-79.1150206,-8.0869381],[-79.1151612,-8.0877714],[-79.1152642,-8.0883721],[-79.1153814,-8.0890763],[-79.1155744,-8.0902207]],"nodes":[5491675677,11866188180,5491675596,5491675601,5491675672,5491675715,5491675666,5491675660,5491675655,5491675701,5491675699,5491675696,5491675693,5491675379,5491675688,1091407231,1091407010,1091407028,5491675645,5491675565,5471256057,12073273264,5459808823,5459808825,1091407076,1091407058,1091407122,1098598572,1098603280,1091407113,1098614226,1813344270,1091406993,1098620233,1483788224,12987945698,1091407167,5635774445,1091407137,1091407108,5635774443,1091407143,1091407116,1091407077,1091407034,5471256061,1098585366,11023382043,1091407272,1098608706,1091407247,1091407219,1091407174,1098614894,1091407256,1091407227,1091407196,1091407165,1091407051,1091407020,1091407002,1098648034,1091407281,1098591819,316266847,4933258142,316266846,4933258141,1098614355,1098602823,1098595622,12988031604,316266845,1098641599,1098629854,1091407009,1098648731,4802397148,3833021922,316266843,1098643567,316265605,1098630392,9261031508,1813344271,9261031487,9261031489,9261031490,1815033062,9261031460,1815033063,1815033064,1815033065,9261031480,1815033066,9261031482,1815033067,1815033068,9261031484,9261031478,1815033069,1815033070,6203518668,9261031461,316267010,316267012,11023042541,6489470903,8109293939,316267013,11023034574,11023027751,8109293970,8109293951,1098595027,1098633367,8109293989,316267014,316267016,316267017,316267018,316267019,316267021,9138744282,9138744278,1142679915,9138744280,316267023,316267024,316267025,316267027,1145579841,316267028,10722225982,1142679945,13614474937,1142679885,6610699438,7952881480,316267029,8137012826,8137012850,11022987819,8137012871,316267030,8137004312,1142679829,1142680056,316267031,7172752110,316267032,1142680250,5491524687,1142680108,316267035,7118225077,316267036,12987952209,7172752106,316267037,316267038,316265810,6383817242,316265811,13172500621,316265812,316265739,3728397526,3728397528,1142680069,8374743717,3728397529,8374705116,316265740,3728397530,316265741,3728397527,316265969,5079514209,316265970,316265972,5491524688,10722340795,316265973,1098638810,1098600734,5676451456,3128364220,1098627674,10818868959,12756462125,5079514205,9099786519,5079514203,9099779916,12062325458,10818868949,5079514199,5079514194,10722318766,3728397532,10722325939,5079514192,316491272,5079514191,10722318767,5079582194,10722318768,10722318769,8137256503,5041338330,316491273,5089692672,5089692673,5089692674,316491274,5089692671,5089692669,4567025842,288407787,7120519755,5089692667,316491276,11030860568,316491277,11030860572,316491278,11030860570,1142680066,320113091,10722411291,316491280,316491281,5089313424,5089313429,5089313423,5089313428,5089313422,316491282,5089313421,316491283,5089312815,5089312819,11030860564,5041293253,316491284,5089427594,3110215526,11030909585,10722433729,11030909583,11030909581,11030909582,316491285,316491286,1142680007,7120542372,7120542348,10723920895,7120542350,1142679969,11028445013,1142680016,13181175557,13181175556,11028445009,11037527768,13181175554,11028445008,2979717598,7120542344,2979717599,316491288,11079442231,5090218496,3392600109,316491289,5090218494,316491290,11028430504,11028445006,7115341984,5089760767,1088227230,2760772634,1098595788,1693595358,1693595362,1098599033,1098592849,11037604011,11037604010,1098636459,11037999554,1098626018,316491293,1098625617,5069337056,1098615175,3386747932,3743507184,1142680044,1098586591,10724078675,5478680206,5478680205,3743507186,3743507187,316491296,11033319452,3743507188,8763957262,2587893399,2587893400,5051964665,8763957234,5478761331,1098619763,2481376233,11037999556,2481376232,1873564603,1098612382,1098632446,1098588348,4633846734,4691590030,3802902827,3802902831,4633846700,1098637302,4633846701,1098626618,1098606361,1098619946,3802902559,1098640801,1098586919,11037474036,3802902620,11037474037,5066749589,1098596490,13084941049,8234317182,11037474043,13084941052,1098617501,13084941047,11794208391,11794208392,316256693,360997591,2610169700,316256694,2602828452,316256695,2602828444,316256696,2610169701,1098605087,2610169702,316256698,288409291,1098590018,1098646443,1098646583,13435795703,1098640239,1098634515,316254448,2602828385,1098601943,316254455,3728336242,316254457,316258350,3728336245,316254459,316254460,3728336248,316254461,3728336247,316254462,2602828320,288409664,2602828287,5421654629,1098646193,1098607452,1098598005,316490370,12216751843,316490365,5473932885,316254439,8137323600,10765341359,11030822023,11086134235,1098638293,11086134237,316254442,7115416191,7115416192,11086134234,1098612800,11086134232,11030606604,316254443,13086967420,320114890,12216751801,320114884,13086967422,288409665,6119482459,1098650103,13086967411,288409296,1098611390,1098622334,12909185080,12909185072,3293558514,1098587311,12566648340,316254501,12566648337,3670684009,3670684004,316254506,2591061034,288406679,12566648334,3670684011,316254426,316254427,1098644892,3670684727,316254428,1098632617,316254429,6195970422,316265440,3670684737,5082434193,316265439,3670684740,3670684741,3670684736,1098612747,13084463942,1098623435,13084463951,320114999,1098606836,1098594518,1538242472,1098645087,316265127,1098645687,11033205297,11102649340,11102649332,11102649335,1015347837,320114994,1098629210,1015292420,11037619757,1088227229,316265123,316265121,11851392177,999069484,11033227508,1088227369,11033227506,1088227416,1007782488,1007782489,2604132090,1007782490,1007782491,1098638242,1098583810,1098599772,1007816531,1098599696,11032994357,11033100542,1088227465,1088227417,1098629977,1098634473,3569346194,1098646544,1098629126,1088227405,1098591733,1098598628,1015292497,999068978,1098641823,1026647557,1098585548,1098614541,1098603063,1098595718,1098585785,1098642025,1098630045,5478826716,5084379763,5084379762,5084379761,5084379760,5084379769,11033500609,1088227363,316265105,7118056424,11032994344,316265104,4706097946,316265103,1098633822,8845540452,1098623858,11910518850,11033509209,11032996035,11032996037,4452550923,4452550921,1098598186,5098557143,1098607852,1098641251,5079131745,1098609883,316265100,1098612563,320114991,316265097,1098630982,1098621187,11032795718,2481251300,2481251299,1088227390,5483089724,11032795715,11032795712,1098604016,5071955846,316265092,1268310331,1268310334,316265090,11032795710,7123146897,316265089,11032795707,7123146899,7123146900,316265088,7123146902,316265087,5071955849,316265086,1098630211,11032795706,11032459643,5432137615,11037834990,316265085,320114962,5071955851,1098638894,316265083,7123146904,316265082,316265081,316265080,316265079,1098595020,5483354327,1098630280,316265078,316265077,1098605290,1098592541,4633926900,316261409,2587893378,2587893377,3386747951,11037837217,2587893387,2587893388,11033319445,2587893389,3386747952,3386747956,3386747938,5069721981,316491304,11033077923,5066923727,1142680254,4452558515,1098603959,1142679850,316491306,320113100,11037614265,5069439506,11037999552,316491307,1098649150,5067068198,316491308,13540672114,5067077725,5067077726,8100941599,5067077727,8100941596,8100941594,1088227191,2979702863,11028289495,5089760766,11028445005,11028430503,316491309,5090218493,316491310,5090218495,11079442230,3391447001,316491311,13271666475,3392598287,1098609171,11028445007,11037527767,5489001130,11028445010,13181175555,1098592168,11028445012,1098648528,5483559216,7120542347,5098153491,316491313,1098625247,316491314,11030909580,8137307097,11030909569,11030909571,8137307115,11030909573,11030909584,1098591574,10722433730,5089312776,11030860562,316491315,2795345923,11030860563,5089312820,10859499338,4567025855,316491316,5089313431,5089313430,316491317,5089313427,5089313426,5089313425,316491318,316491319,10722411290,316491320,5089692657,1142679919,11030860571,316491321,11030860573,316491322,11030860569,316491323,5089692666,4567025841,3128354993,5089692668,5089692670,5676154268,316491325,5089692675,5089692676,5089692677,316491326,3128355026,3128355025,3128355020,3128355024,5079582195,5079514188,5041338331,5079514190,316490954,5079514193,10722325940,5079582211,3128355192,3128355211,8137271247,5079514204,5079514206,8137261248,1142679906,12756430527,5079514207,5676450286,1142679946,1142680009,10803965457,10803965450,13406753779,2430926039,1098625605,316265974,13442772520,5079514208,316265975,8374705114,316265976,11870132242,3728391021,3728391019,316265744,3728391017,316265735,11870132241,316265736,3728391016,3728391018,316265825,13172500622,5079514210,316265824,316267060,316266954,288407858,12987952211,12987952210,7172752107,316266957,316266958,7172752108,1098594778,316266959,1098584863,316266960,7172752109,316266961,9225788194,1098614754,8449778864,1098588407,316266962,11022987820,316266964,1098624970,316266965,12840922261,1098614358,316266966,316266967,316266968,316266969,9138744279,1098615320,316266971,9138744281,316266972,316266973,316266974,316266975,316266977,316266978,8050625920,10722249356,1142679840,1142679952,11023027750,11023034575,316266979,11028582833,11023042540,316266981,316266984,8218727280,6203518667,316266820,9261031477,5459808681,1098606720,316265602,9261031481,316266821,9261031479,316266823,316265603,1091407127,9261031459,1483788222,9261031502,9261031500,1815033061,9261031501,1483788228,1098589972,1811290189,1091407221,1813344272,1098637342,1091407250,1098610984,1811987889,1091407122,1098598572,1098603280,1091407113,1098614226,1813344270,1091406993,1098620233,1483788224,12987945698,1091407167,5635774445,1091407137,1091407108,5635774443,1091407143,1091407116,1091407077,1091407034,5471256061,1098585366,11023382043,1091407272,1098608706,1091407247,1091407219,1091407174,1098614894,1091407256,1091407227,1091407196,1091407165,1091407051,1091407020,1091407002,1098648034,1091407281,1098591819,316266847,4933258142,316266846,4933258141,1098614355,1098602823,1098595622,12988031604,316266845,1091407082,1091407191,5635774448,5635774447,5635774446,5635774445,1091407167,12987945698,1483788224,1098620233,1091406993,1813344270,1098614226,1091407113,1098603280,1098598572,1091407122,1091407058,1091407076,5459808825,5459808823,12073273264,5471256057,5491675565,5491675645,1091407028,1091407010,1091407231,5491675688,5491675379,5491675693,5491675696,5491675699,5491675701,5491675655,5491675660,5491675666,5491675715,5491675672,5491675601,5491675596,11866188180,5491675677]},"gtfs":{"agency_id":1,"route_id":4,"services":[{"service_id":"Mo-Su","startTime":"05:00","endTime":"23:00","trip_id":19959151}],"filteredStops":{"nodes":[5491675677,13546545552,13546545522,13546545514,13546546261,13546545502,13546546247,13546546239,13546546235,13546545551,13546546292,13546545545,12121155280,13546545535,13546546274,13546546267,13546545498,13546546238,13546545509,13546545508,13546545507,13546545506,13546545505,13546545504,13546546254,13546545136,13546545935,13546545137,13546545937,13546545139,13546545140,11910518835,13546545899,13546545961,13546545946,13546545152,13546545951,13546545241,13546546049,13546546048,13546546053,11910359975,13546546046,11910518853,13546545239,13546545237,13546546051,13546535068,13546535069,13546545884,13546545228,13546535064,13546535054,13546546036,13546545235,13546546057,11910518849,13546545247,13546545245,13546546054,13546545252,13546546056,13546545251,13546546055,13546545138,13546545938,13546545934,13546545936,13546545501,13546545500,13546545499,13546545497,13546546263,13546546262,13546545517,13546546260,13546546259,13546545516,13546546239,13546545515,13546545513,5491675677],"coordinates":[[-79.1155744,-8.0902207],[-79.1152844,-8.0885672],[-79.1144837,-8.0862166],[-79.1143546,-8.0856188],[-79.1134901,-8.0827213],[-79.1185439,-8.0799599],[-79.1176492,-8.0766021],[-79.1183684,-8.0734127],[-79.1190308,-8.0756212],[-79.1204921,-8.0785593],[-79.1227161,-8.0812312],[-79.1222823,-8.086004],[-79.1195454,-8.089278],[-79.1179093,-8.0913396],[-79.1106729,-8.0975252],[-79.1000869,-8.0868799],[-79.0944991,-8.0880754],[-79.0916476,-8.0889465],[-79.0846524,-8.0912967],[-79.0803176,-8.0925669],[-79.0765552,-8.0932446],[-79.0687276,-8.0982767],[-79.0648293,-8.0998802],[-79.061646,-8.1004971],[-79.0574763,-8.1011311],[-79.0551083,-8.1009718],[-79.0490789,-8.1009183],[-79.0458694,-8.1012105],[-79.0431964,-8.101794],[-79.0398576,-8.1026767],[-79.0373475,-8.1039363],[-79.0362453,-8.1061083],[-79.0370376,-8.1078566],[-79.0364177,-8.111273],[-79.0354661,-8.1135946],[-79.0375499,-8.1159936],[-79.0392061,-8.1179134],[-79.0400263,-8.1209491],[-79.0391941,-8.1236174],[-79.0376452,-8.1250268],[-79.0343453,-8.1263045],[-79.0311438,-8.1268134],[-79.0288355,-8.1265481],[-79.0213577,-8.1220046],[-79.0194789,-8.1202075],[-79.0174214,-8.1178561],[-79.0152931,-8.1151359],[-79.0131415,-8.1131272],[-79.0107178,-8.1131813],[-79.0081107,-8.1127836],[-79.0070866,-8.1109529],[-79.0071712,-8.1055513],[-79.0072731,-8.103101],[-79.009381,-8.1038057],[-79.0128954,-8.1003036],[-79.0160051,-8.0976955],[-79.0178547,-8.0961252],[-79.0204813,-8.0951075],[-79.0233097,-8.0940272],[-79.0261078,-8.0939535],[-79.0284172,-8.0961288],[-79.0305376,-8.0983175],[-79.0320016,-8.1008793],[-79.033366,-8.1035048],[-79.0364213,-8.1042533],[-79.0412932,-8.1020398],[-79.0488069,-8.1007275],[-79.0510692,-8.1007105],[-79.0649709,-8.099563],[-79.0846485,-8.0910791],[-79.0885843,-8.0897285],[-79.0944031,-8.0878973],[-79.1001045,-8.0867295],[-79.1105261,-8.0972975],[-79.1189116,-8.0898534],[-79.1230144,-8.0838447],[-79.1223416,-8.0819735],[-79.1195836,-8.0827125],[-79.1183684,-8.0734127],[-79.1184274,-8.0815296],[-79.1153856,-8.0888302],[-79.1155744,-8.0902207]]},"forcedEndpointStops":[{"stop_id":5491675677,"stop_name":"Avenida la Paz","position":"first"},{"stop_id":5491675677,"stop_name":"Avenida la Paz","position":"last"}]}},{"type":"Feature","properties":{"bus":"yes","highway":"bus_stop","name":"PH-1","network":"Transporte Público Urbano Trujillo","public_transport":"platform","ref":"PH-1","source":"Gerencia de Transporte Metropolitano de Trujillo","id":13546545552},"geometry":{"type":"Point","coordinates":[-79.1152844,-8.0885672]}},{"type":"Feature","properties":{"bus":"yes","highway":"bus_stop","name":"PH-2","network":"Transporte Público Urbano Trujillo","public_transport":"platform","ref":"PH-2","source":"Gerencia de Transporte Metropolitano de Trujillo","id":13546545522},"geometry":{"type":"Point","coordinates":[-79.1144837,-8.0862166]}},{"type":"Feature","properties":{"bus":"yes","highway":"bus_stop","name":"PH-37","network":"Transporte Público Urbano Trujillo","public_transport":"platform","ref":"PH-37","source":"Gerencia de Transporte Metropolitano de Trujillo","id":13546545514},"geometry":{"type":"Point","coordinates":[-79.1143546,-8.0856188]}},{"type":"Feature","properties":{"bus":"yes","highway":"bus_stop","name":"PH-3","network":"Transporte Público Urbano Trujillo","public_transport":"platform","ref":"PH-3","source":"Gerencia de Transporte Metropolitano de Trujillo","id":13546546261},"geometry":{"type":"Point","coordinates":[-79.1134901,-8.0827213]}},{"type":"Feature","properties":{"bus":"yes","highway":"bus_stop","name":"PH-6","network":"Transporte Público Urbano Trujillo","public_transport":"platform","ref":"PH-6","source":"Gerencia de Transporte Metropolitano de Trujillo","id":13546545502},"geometry":{"type":"Point","coordinates":[-79.1185439,-8.0799599]}},{"type":"Feature","properties":{"bus":"yes","highway":"bus_stop","name":"PH-7","network":"Transporte Público Urbano Trujillo","public_transport":"platform","ref":"PH-7","source":"Gerencia de Transporte Metropolitano de Trujillo","id":13546546247},"geometry":{"type":"Point","coordinates":[-79.1176492,-8.0766021]}},{"type":"Feature","properties":{"bus":"yes","highway":"bus_stop","name":"PH-8","network":"Transporte Público Urbano Trujillo","public_transport":"platform","ref":"PH-8","source":"Gerencia de Transporte Metropolitano de Trujillo","id":13546546239},"geometry":{"type":"Point","coordinates":[-79.1183684,-8.0734127]}},{"type":"Feature","properties":{"bus":"yes","highway":"bus_stop","name":"PH-9","network":"Transporte Público Urbano Trujillo","public_transport":"platform","ref":"PH-9","source":"Gerencia de Transporte Metropolitano de Trujillo","id":13546546235},"geometry":{"type":"Point","coordinates":[-79.1190308,-8.0756212]}},{"type":"Feature","properties":{"bus":"yes","highway":"bus_stop","name":"PH-10","network":"Transporte Público Urbano Trujillo","public_transport":"platform","ref":"PH-10","source":"Gerencia de Transporte Metropolitano de Trujillo","id":13546545551},"geometry":{"type":"Point","coordinates":[-79.1204921,-8.0785593]}},{"type":"Feature","properties":{"bus":"yes","highway":"bus_stop","name":"PH-11","network":"Transporte Público Urbano Trujillo","public_transport":"platform","ref":"PH-11","source":"Gerencia de Transporte Metropolitano de Trujillo","id":13546546292},"geometry":{"type":"Point","coordinates":[-79.1227161,-8.0812312]}},{"type":"Feature","properties":{"bus":"yes","highway":"bus_stop","name":"PH-12","network":"Transporte Público Urbano Trujillo","public_transport":"platform","ref":"PH-12","source":"Gerencia de Transporte Metropolitano de Trujillo","id":13546545545},"geometry":{"type":"Point","coordinates":[-79.1222823,-8.086004]}},{"type":"Feature","properties":{"advertising":"no","bench":"yes","bicycle_parking":"no","bin":"no","bus":"yes","departures_board":"no","highway":"bus_stop","level":"0","lit":"no","name":"PH-13 Avenida la Rivera","network":"Transporte Público Urbano Trujillo","passenger_information_display:speech_output":"no","pole":"no","public_transport":"platform","ramp":"no","ref":"PH-13","shelter":"yes","source:ref":"Gerencia de Transporte Metropolitano de Trujillo","tactile_paving":"no","tactile_writing:braille:es":"no","id":12121155280},"geometry":{"type":"Point","coordinates":[-79.1195454,-8.089278]}},{"type":"Feature","properties":{"bus":"yes","highway":"bus_stop","name":"PH-14","network":"Transporte Público Urbano Trujillo","public_transport":"platform","ref":"PH-14","source":"Gerencia de Transporte Metropolitano de Trujillo","id":13546545535},"geometry":{"type":"Point","coordinates":[-79.1179093,-8.0913396]}},{"type":"Feature","properties":{"bus":"yes","highway":"bus_stop","name":"PH-15","network":"Transporte Público Urbano Trujillo","public_transport":"platform","ref":"PH-15","source":"Gerencia de Transporte Metropolitano de Trujillo","id":13546546274},"geometry":{"type":"Point","coordinates":[-79.1106729,-8.0975252]}},{"type":"Feature","properties":{"bus":"yes","highway":"bus_stop","name":"PH-17","network":"Transporte Público Urbano Trujillo","public_transport":"platform","ref":"PH-17","source":"Gerencia de Transporte Metropolitano de Trujillo","id":13546546267},"geometry":{"type":"Point","coordinates":[-79.1000869,-8.0868799]}},{"type":"Feature","properties":{"bus":"yes","highway":"bus_stop","name":"PH-80","network":"Transporte Público Urbano Trujillo","public_transport":"platform","ref":"PH-80","source":"Gerencia de Transporte Metropolitano de Trujillo","id":13546545498},"geometry":{"type":"Point","coordinates":[-79.0944991,-8.0880754]}},{"type":"Feature","properties":{"bus":"yes","highway":"bus_stop","name":"PH-81","network":"Transporte Público Urbano Trujillo","public_transport":"platform","ref":"PH-81","source":"Gerencia de Transporte Metropolitano de Trujillo","id":13546546238},"geometry":{"type":"Point","coordinates":[-79.0916476,-8.0889465]}},{"type":"Feature","properties":{"bus":"yes","highway":"bus_stop","name":"PH-48","network":"Transporte Público Urbano Trujillo","public_transport":"platform","ref":"PH-48","source":"Gerencia de Transporte Metropolitano de Trujillo","id":13546545509},"geometry":{"type":"Point","coordinates":[-79.0846524,-8.0912967]}},{"type":"Feature","properties":{"bus":"yes","highway":"bus_stop","name":"PH-49","network":"Transporte Público Urbano Trujillo","public_transport":"platform","ref":"PH-49","source":"Gerencia de Transporte Metropolitano de Trujillo","id":13546545508},"geometry":{"type":"Point","coordinates":[-79.0803176,-8.0925669]}},{"type":"Feature","properties":{"bus":"yes","highway":"bus_stop","name":"PH-50","network":"Transporte Público Urbano Trujillo","public_transport":"platform","ref":"PH-50","source":"Gerencia de Transporte Metropolitano de Trujillo","id":13546545507},"geometry":{"type":"Point","coordinates":[-79.0765552,-8.0932446]}},{"type":"Feature","properties":{"bus":"yes","highway":"bus_stop","name":"PH-52","network":"Transporte Público Urbano Trujillo","public_transport":"platform","ref":"PH-52","source":"Gerencia de Transporte Metropolitano de Trujillo","id":13546545506},"geometry":{"type":"Point","coordinates":[-79.0687276,-8.0982767]}},{"type":"Feature","properties":{"bus":"yes","highway":"bus_stop","name":"PH-53","network":"Transporte Público Urbano Trujillo","public_transport":"platform","ref":"PH-53","source":"Gerencia de Transporte Metropolitano de Trujillo","id":13546545505},"geometry":{"type":"Point","coordinates":[-79.0648293,-8.0998802]}},{"type":"Feature","properties":{"bus":"yes","highway":"bus_stop","name":"PH-54","network":"Transporte Público Urbano Trujillo","public_transport":"platform","ref":"PH-54","source":"Gerencia de Transporte Metropolitano de Trujillo","id":13546545504},"geometry":{"type":"Point","coordinates":[-79.061646,-8.1004971]}},{"type":"Feature","properties":{"bus":"yes","highway":"bus_stop","name":"PH-55","network":"Transporte Público Urbano Trujillo","public_transport":"platform","ref":"PH-55","source":"Gerencia de Transporte Metropolitano de Trujillo","id":13546546254},"geometry":{"type":"Point","coordinates":[-79.0574763,-8.1011311]}},{"type":"Feature","properties":{"bus":"yes","highway":"bus_stop","name":"MANT-113","network":"Transporte Público Urbano Trujillo","public_transport":"platform","ref":"MANT-113","source":"Gerencia de Transporte Metropolitano de Trujillo","id":13546545136},"geometry":{"type":"Point","coordinates":[-79.0551083,-8.1009718]}},{"type":"Feature","properties":{"bus":"yes","highway":"bus_stop","name":"MANT-111","network":"Transporte Público Urbano Trujillo","public_transport":"platform","ref":"MANT-111","source":"Gerencia de Transporte Metropolitano de Trujillo","id":13546545935},"geometry":{"type":"Point","coordinates":[-79.0490789,-8.1009183]}},{"type":"Feature","properties":{"bus":"yes","highway":"bus_stop","name":"MANT-105","network":"Transporte Público Urbano Trujillo","public_transport":"platform","ref":"MANT-105","source":"Gerencia de Transporte Metropolitano de Trujillo","id":13546545137},"geometry":{"type":"Point","coordinates":[-79.0458694,-8.1012105]}},{"type":"Feature","properties":{"bus":"yes","highway":"bus_stop","name":"MANT-108","network":"Transporte Público Urbano Trujillo","public_transport":"platform","ref":"MANT-108","source":"Gerencia de Transporte Metropolitano de Trujillo","id":13546545937},"geometry":{"type":"Point","coordinates":[-79.0431964,-8.101794]}},{"type":"Feature","properties":{"bus":"yes","highway":"bus_stop","name":"MANT-101","network":"Transporte Público Urbano Trujillo","public_transport":"platform","ref":"MANT-101","source":"Gerencia de Transporte Metropolitano de Trujillo","id":13546545139},"geometry":{"type":"Point","coordinates":[-79.0398576,-8.1026767]}},{"type":"Feature","properties":{"bus":"yes","highway":"bus_stop","name":"MANT-100","network":"Transporte Público Urbano Trujillo","public_transport":"platform","ref":"MANT-100","source":"Gerencia de Transporte Metropolitano de Trujillo","id":13546545140},"geometry":{"type":"Point","coordinates":[-79.0373475,-8.1039363]}},{"type":"Feature","properties":{"advertising":"no","bench":"no","bicycle_parking":"no","bin":"no","bus":"yes","departures_board":"no","highway":"bus_stop","level":"0","lit":"yes","name":"ROM-370 Calle Santiago de Chile","network":"Transporte Público Urbano Trujillo","passenger_information_display:speech_output":"no","pole":"yes","public_transport":"platform","ramp":"no","ref":"ROM-370","shelter":"no","source:ref":"Gerencia de Transporte Metropolitano de Trujillo","tactile_paving":"no","tactile_writing:braille:es":"no","id":11910518835},"geometry":{"type":"Point","coordinates":[-79.0362453,-8.1061083]}},{"type":"Feature","properties":{"bus":"yes","highway":"bus_stop","name":"PEMU-342","network":"Transporte Público Urbano Trujillo","public_transport":"platform","ref":"PEMU-342","source":"Gerencia de Transporte Metropolitano de Trujillo","id":13546545899},"geometry":{"type":"Point","coordinates":[-79.0370376,-8.1078566]}},{"type":"Feature","properties":{"bus":"yes","highway":"bus_stop","name":"JEN-141","network":"Transporte Público Urbano Trujillo","public_transport":"platform","ref":"JEN-141","source":"Gerencia de Transporte Metropolitano de Trujillo","id":13546545961},"geometry":{"type":"Point","coordinates":[-79.0364177,-8.111273]}},{"type":"Feature","properties":{"bus":"yes","highway":"bus_stop","name":"JPT-139","network":"Transporte Público Urbano Trujillo","public_transport":"platform","ref":"JPT-139","source":"Gerencia de Transporte Metropolitano de Trujillo","id":13546545946},"geometry":{"type":"Point","coordinates":[-79.0354661,-8.1135946]}},{"type":"Feature","properties":{"bus":"yes","highway":"bus_stop","name":"JPT-127","network":"Transporte Público Urbano Trujillo","public_transport":"platform","ref":"JPT-127","source":"Gerencia de Transporte Metropolitano de Trujillo","id":13546545152},"geometry":{"type":"Point","coordinates":[-79.0375499,-8.1159936]}},{"type":"Feature","properties":{"bus":"yes","highway":"bus_stop","name":"JPT-131","network":"Transporte Público Urbano Trujillo","public_transport":"platform","ref":"JPT-131","source":"Gerencia de Transporte Metropolitano de Trujillo","id":13546545951},"geometry":{"type":"Point","coordinates":[-79.0392061,-8.1179134]}},{"type":"Feature","properties":{"bus":"yes","highway":"bus_stop","name":"AMS-43","network":"Transporte Público Urbano Trujillo","public_transport":"platform","ref":"AMS-43","source":"Gerencia de Transporte Metropolitano de Trujillo","id":13546545241},"geometry":{"type":"Point","coordinates":[-79.0400263,-8.1209491]}},{"type":"Feature","properties":{"bus":"yes","highway":"bus_stop","name":"AMS-45","network":"Transporte Público Urbano Trujillo","public_transport":"platform","ref":"AMS-45","source":"Gerencia de Transporte Metropolitano de Trujillo","id":13546546049},"geometry":{"type":"Point","coordinates":[-79.0391941,-8.1236174]}},{"type":"Feature","properties":{"bus":"yes","highway":"bus_stop","name":"AMS-46","network":"Transporte Público Urbano Trujillo","public_transport":"platform","ref":"AMS-46","source":"Gerencia de Transporte Metropolitano de Trujillo","id":13546546048},"geometry":{"type":"Point","coordinates":[-79.0376452,-8.1250268]}},{"type":"Feature","properties":{"bus":"yes","highway":"bus_stop","name":"AMS-39","network":"Transporte Público Urbano Trujillo","public_transport":"platform","ref":"AMS-39","source":"Gerencia de Transporte Metropolitano de Trujillo","id":13546546053},"geometry":{"type":"Point","coordinates":[-79.0343453,-8.1263045]}},{"type":"Feature","properties":{"advertising":"yes","bench":"yes","bicycle_parking":"no","bin":"no","bus":"yes","departures_board":"no","highway":"bus_stop","level":"0","lit":"yes","name":"AMS-49 Prolongación Cesar Vallejo","network":"Transporte Público Urbano Trujillo","passenger_information_display:speech_output":"no","pole":"yes","public_transport":"platform","ramp":"no","ref":"AMS-49","shelter":"yes","source:ref":"Gerencia de Transporte Metropolitano de Trujillo","tactile_paving":"no","tactile_writing:braille:es":"no","id":11910359975},"geometry":{"type":"Point","coordinates":[-79.0311438,-8.1268134]}},{"type":"Feature","properties":{"bus":"yes","highway":"bus_stop","name":"AMS-51","network":"Transporte Público Urbano Trujillo","public_transport":"platform","ref":"AMS-51","source":"Gerencia de Transporte Metropolitano de Trujillo","id":13546546046},"geometry":{"type":"Point","coordinates":[-79.0288355,-8.1265481]}},{"type":"Feature","properties":{"advertising":"no","bench":"no","bicycle_parking":"no","bin":"no","bus":"yes","departures_board":"no","highway":"bus_stop","level":"0","lit":"yes","name":"AMS-52 Calle Calcuchimac","network":"Transporte Público Urbano Trujillo","passenger_information_display:speech_output":"no","pole":"yes","public_transport":"platform","ramp":"yes","ref":"AMS-52","shelter":"no","source:ref":"Gerencia de Transporte Metropolitano de Trujillo","tactile_paving":"no","tactile_writing:braille:es":"no","id":11910518853},"geometry":{"type":"Point","coordinates":[-79.0213577,-8.1220046]}},{"type":"Feature","properties":{"bus":"yes","highway":"bus_stop","name":"AMS-54","network":"Transporte Público Urbano Trujillo","public_transport":"platform","ref":"AMS-54","source":"Gerencia de Transporte Metropolitano de Trujillo","id":13546545239},"geometry":{"type":"Point","coordinates":[-79.0194789,-8.1202075]}},{"type":"Feature","properties":{"bus":"yes","highway":"bus_stop","name":"AMS-56","network":"Transporte Público Urbano Trujillo","public_transport":"platform","ref":"AMS-56","source":"Gerencia de Transporte Metropolitano de Trujillo","id":13546545237},"geometry":{"type":"Point","coordinates":[-79.0174214,-8.1178561]}},{"type":"Feature","properties":{"bus":"yes","highway":"bus_stop","name":"AMS-41","network":"Transporte Público Urbano Trujillo","public_transport":"platform","ref":"AMS-41","source":"Gerencia de Transporte Metropolitano de Trujillo","id":13546546051},"geometry":{"type":"Point","coordinates":[-79.0152931,-8.1151359]}},{"type":"Feature","properties":{"bus":"yes","highway":"bus_stop","name":"RIP-327","network":"Transporte Público Urbano Trujillo","public_transport":"platform","ref":"RIP-327","source":"Gerencia de Transporte Metropolitano de Trujillo","id":13546535068},"geometry":{"type":"Point","coordinates":[-79.0131415,-8.1131272]}},{"type":"Feature","properties":{"bus":"yes","highway":"bus_stop","name":"RIP-325","network":"Transporte Público Urbano Trujillo","public_transport":"platform","ref":"RIP-325","source":"Gerencia de Transporte Metropolitano de Trujillo","id":13546535069},"geometry":{"type":"Point","coordinates":[-79.0107178,-8.1131813]}},{"type":"Feature","properties":{"bus":"yes","highway":"bus_stop","name":"RIP-323","network":"Transporte Público Urbano Trujillo","public_transport":"platform","ref":"RIP-323","source":"Gerencia de Transporte Metropolitano de Trujillo","id":13546545884},"geometry":{"type":"Point","coordinates":[-79.0081107,-8.1127836]}},{"type":"Feature","properties":{"bus":"yes","highway":"bus_stop","name":"ANBE-375","network":"Transporte Público Urbano Trujillo","public_transport":"platform","ref":"ANBE-375","source":"Gerencia de Transporte Metropolitano de Trujillo","id":13546545228},"geometry":{"type":"Point","coordinates":[-79.0070866,-8.1109529]}},{"type":"Feature","properties":{"bus":"yes","highway":"bus_stop","name":"ROME-534","network":"Transporte Público Urbano Trujillo","public_transport":"platform","ref":"ROME-534","source":"Gerencia de Transporte Metropolitano de Trujillo","id":13546535064},"geometry":{"type":"Point","coordinates":[-79.0071712,-8.1055513]}},{"type":"Feature","properties":{"bus":"yes","highway":"bus_stop","name":"SOCR-499","network":"Transporte Público Urbano Trujillo","public_transport":"platform","ref":"SOCR-499","source":"Gerencia de Transporte Metropolitano de Trujillo","id":13546535054},"geometry":{"type":"Point","coordinates":[-79.0072731,-8.103101]}},{"type":"Feature","properties":{"bus":"yes","highway":"bus_stop","name":"BLPAS-448","network":"Transporte Público Urbano Trujillo","public_transport":"platform","ref":"BLPAS-448","source":"Gerencia de Transporte Metropolitano de Trujillo","id":13546546036},"geometry":{"type":"Point","coordinates":[-79.009381,-8.1038057]}},{"type":"Feature","properties":{"bus":"yes","highway":"bus_stop","name":"AMS-58","network":"Transporte Público Urbano Trujillo","public_transport":"platform","ref":"AMS-58","source":"Gerencia de Transporte Metropolitano de Trujillo","id":13546545235},"geometry":{"type":"Point","coordinates":[-79.0128954,-8.1003036]}},{"type":"Feature","properties":{"bus":"yes","highway":"bus_stop","name":"AMN-18","network":"Transporte Público Urbano Trujillo","public_transport":"platform","ref":"AMN-18","source":"Gerencia de Transporte Metropolitano de Trujillo","id":13546546057},"geometry":{"type":"Point","coordinates":[-79.0160051,-8.0976955]}},{"type":"Feature","properties":{"advertising":"no","bench":"no","bicycle_parking":"no","bin":"no","bus":"yes","departures_board":"no","highway":"bus_stop","level":"0","lit":"yes","name":"AMN-20 Avenida del Ejército","network":"Transporte Público Urbano Trujillo","passenger_information_display:speech_output":"no","pole":"yes","public_transport":"platform","ramp":"no","ref":"AMN-20","shelter":"no","source:ref":"Gerencia de Transporte Metropolitano de Trujillo","tactile_paving":"yes","tactile_writing:braille:es":"no","id":11910518849},"geometry":{"type":"Point","coordinates":[-79.0178547,-8.0961252]}},{"type":"Feature","properties":{"bus":"yes","highway":"bus_stop","name":"AMN-30","network":"Transporte Público Urbano Trujillo","public_transport":"platform","ref":"AMN-30","source":"Gerencia de Transporte Metropolitano de Trujillo","id":13546545247},"geometry":{"type":"Point","coordinates":[-79.0204813,-8.0951075]}},{"type":"Feature","properties":{"bus":"yes","highway":"bus_stop","name":"AMN-32","network":"Transporte Público Urbano Trujillo","public_transport":"platform","ref":"AMN-32","source":"Gerencia de Transporte Metropolitano de Trujillo","id":13546545245},"geometry":{"type":"Point","coordinates":[-79.0233097,-8.0940272]}},{"type":"Feature","properties":{"bus":"yes","highway":"bus_stop","name":"AMN-34","network":"Transporte Público Urbano Trujillo","public_transport":"platform","ref":"AMN-34","source":"Gerencia de Transporte Metropolitano de Trujillo","id":13546546054},"geometry":{"type":"Point","coordinates":[-79.0261078,-8.0939535]}},{"type":"Feature","properties":{"bus":"yes","highway":"bus_stop","name":"AMN-22","network":"Transporte Público Urbano Trujillo","public_transport":"platform","ref":"AMN-22","source":"Gerencia de Transporte Metropolitano de Trujillo","id":13546545252},"geometry":{"type":"Point","coordinates":[-79.0284172,-8.0961288]}},{"type":"Feature","properties":{"bus":"yes","highway":"bus_stop","name":"AMN-23","network":"Transporte Público Urbano Trujillo","public_transport":"platform","ref":"AMN-23","source":"Gerencia de Transporte Metropolitano de Trujillo","id":13546546056},"geometry":{"type":"Point","coordinates":[-79.0305376,-8.0983175]}},{"type":"Feature","properties":{"bus":"yes","highway":"bus_stop","name":"AMN-25","network":"Transporte Público Urbano Trujillo","public_transport":"platform","ref":"AMN-25","source":"Gerencia de Transporte Metropolitano de Trujillo","id":13546545251},"geometry":{"type":"Point","coordinates":[-79.0320016,-8.1008793]}},{"type":"Feature","properties":{"bus":"yes","highway":"bus_stop","name":"AMN-27","network":"Transporte Público Urbano Trujillo","public_transport":"platform","ref":"AMN-27","source":"Gerencia de Transporte Metropolitano de Trujillo","id":13546546055},"geometry":{"type":"Point","coordinates":[-79.033366,-8.1035048]}},{"type":"Feature","properties":{"bus":"yes","highway":"bus_stop","name":"MANT-103","network":"Transporte Público Urbano Trujillo","public_transport":"platform","ref":"MANT-103","source":"Gerencia de Transporte Metropolitano de Trujillo","id":13546545138},"geometry":{"type":"Point","coordinates":[-79.0364213,-8.1042533]}},{"type":"Feature","properties":{"bus":"yes","highway":"bus_stop","name":"MANT-107","network":"Transporte Público Urbano Trujillo","public_transport":"platform","ref":"MANT-107","source":"Gerencia de Transporte Metropolitano de Trujillo","id":13546545938},"geometry":{"type":"Point","coordinates":[-79.0412932,-8.1020398]}},{"type":"Feature","properties":{"bus":"yes","highway":"bus_stop","name":"MANT-114","network":"Transporte Público Urbano Trujillo","public_transport":"platform","ref":"MANT-114","source":"Gerencia de Transporte Metropolitano de Trujillo","id":13546545934},"geometry":{"type":"Point","coordinates":[-79.0488069,-8.1007275]}},{"type":"Feature","properties":{"bus":"yes","highway":"bus_stop","name":"MANT-110","network":"Transporte Público Urbano Trujillo","public_transport":"platform","ref":"MANT-110","source":"Gerencia de Transporte Metropolitano de Trujillo","id":13546545936},"geometry":{"type":"Point","coordinates":[-79.0510692,-8.1007105]}},{"type":"Feature","properties":{"bus":"yes","highway":"bus_stop","name":"PH-66","network":"Transporte Público Urbano Trujillo","public_transport":"platform","ref":"PH-66","source":"Gerencia de Transporte Metropolitano de Trujillo","id":13546545501},"geometry":{"type":"Point","coordinates":[-79.0649709,-8.099563]}},{"type":"Feature","properties":{"bus":"yes","highway":"bus_stop","name":"PH-70","network":"Transporte Público Urbano Trujillo","public_transport":"platform","ref":"PH-70","source":"Gerencia de Transporte Metropolitano de Trujillo","id":13546545500},"geometry":{"type":"Point","coordinates":[-79.0846485,-8.0910791]}},{"type":"Feature","properties":{"bus":"yes","highway":"bus_stop","name":"PH-71","network":"Transporte Público Urbano Trujillo","public_transport":"platform","ref":"PH-71","source":"Gerencia de Transporte Metropolitano de Trujillo","id":13546545499},"geometry":{"type":"Point","coordinates":[-79.0885843,-8.0897285]}},{"type":"Feature","properties":{"bus":"yes","highway":"bus_stop","name":"PH-82","network":"Transporte Público Urbano Trujillo","public_transport":"platform","ref":"PH-82","source":"Gerencia de Transporte Metropolitano de Trujillo","id":13546545497},"geometry":{"type":"Point","coordinates":[-79.0944031,-8.0878973]}},{"type":"Feature","properties":{"bus":"yes","highway":"bus_stop","name":"PH-25","network":"Transporte Público Urbano Trujillo","public_transport":"platform","ref":"PH-25","source":"Gerencia de Transporte Metropolitano de Trujillo","id":13546546263},"geometry":{"type":"Point","coordinates":[-79.1001045,-8.0867295]}},{"type":"Feature","properties":{"bus":"yes","highway":"bus_stop","name":"PH-27","network":"Transporte Público Urbano Trujillo","public_transport":"platform","ref":"PH-27","source":"Gerencia de Transporte Metropolitano de Trujillo","id":13546546262},"geometry":{"type":"Point","coordinates":[-79.1105261,-8.0972975]}},{"type":"Feature","properties":{"bus":"yes","highway":"bus_stop","name":"PH-29","network":"Transporte Público Urbano Trujillo","public_transport":"platform","ref":"PH-29","source":"Gerencia de Transporte Metropolitano de Trujillo","id":13546545517},"geometry":{"type":"Point","coordinates":[-79.1189116,-8.0898534]}},{"type":"Feature","properties":{"bus":"yes","highway":"bus_stop","name":"PH-31","network":"Transporte Público Urbano Trujillo","public_transport":"platform","ref":"PH-31","source":"Gerencia de Transporte Metropolitano de Trujillo","id":13546546260},"geometry":{"type":"Point","coordinates":[-79.1230144,-8.0838447]}},{"type":"Feature","properties":{"bus":"yes","highway":"bus_stop","name":"PH-32","network":"Transporte Público Urbano Trujillo","public_transport":"platform","ref":"PH-32","source":"Gerencia de Transporte Metropolitano de Trujillo","id":13546546259},"geometry":{"type":"Point","coordinates":[-79.1223416,-8.0819735]}},{"type":"Feature","properties":{"bus":"yes","highway":"bus_stop","name":"PH-33","network":"Transporte Público Urbano Trujillo","public_transport":"platform","ref":"PH-33","source":"Gerencia de Transporte Metropolitano de Trujillo","id":13546545516},"geometry":{"type":"Point","coordinates":[-79.1195836,-8.0827125]}},{"type":"Feature","properties":{"bus":"yes","highway":"bus_stop","name":"PH-8","network":"Transporte Público Urbano Trujillo","public_transport":"platform","ref":"PH-8","source":"Gerencia de Transporte Metropolitano de Trujillo","id":13546546239},"geometry":{"type":"Point","coordinates":[-79.1183684,-8.0734127]}},{"type":"Feature","properties":{"bus":"yes","highway":"bus_stop","name":"PH-34","network":"Transporte Público Urbano Trujillo","public_transport":"platform","ref":"PH-34","source":"Gerencia de Transporte Metropolitano de Trujillo","id":13546545515},"geometry":{"type":"Point","coordinates":[-79.1184274,-8.0815296]}},{"type":"Feature","properties":{"bus":"yes","highway":"bus_stop","name":"PH-38","network":"Transporte Público Urbano Trujillo","public_transport":"platform","ref":"PH-38","source":"Gerencia de Transporte Metropolitano de Trujillo","id":13546545513},"geometry":{"type":"Point","coordinates":[-79.1153856,-8.0888302]}}]}