{"type":"FeatureCollection","features":[{"type":"Feature","properties":{"check_date":"2025-12-12","colour":"#009900","colour:text":"#FFFFFF","fee":"yes","from":"Avenida San Pedro","hash":"13833","interval":"4","name":"Avenida San Pedro → Via Panamericana Norte","network":"Transporte Público Urbano Trujillo","opening_hours":"Mo-Su 05:00-23:00","operator":"NUEVO CALIFORNIA S.A.","public_transport:version":"2","ref":"M-11 D","route":"bus","survey:avg_speed:kmh":"20","to":"Via Panamericana Norte","type":"route","id":19961869},"geometry":{"type":"LineString","coordinates":[[-79.0706575,-8.0675812],[-79.0707338,-8.0676155],[-79.0717774,-8.0680805],[-79.0727727,-8.0685178],[-79.0731418,-8.0686892],[-79.0738321,-8.0690041],[-79.0736994,-8.0691464],[-79.0730694,-8.0688503],[-79.0721913,-8.069197],[-79.0714335,-8.0694991],[-79.0710813,-8.0696348],[-79.0706445,-8.069803],[-79.070147,-8.0700063],[-79.0697257,-8.0701784],[-79.0695813,-8.0701164],[-79.0694637,-8.070064],[-79.0690708,-8.0698888],[-79.0678695,-8.0693584],[-79.0674578,-8.0691799],[-79.0670546,-8.0689994],[-79.0666857,-8.0688342],[-79.0662196,-8.0686255],[-79.0658608,-8.0684648],[-79.065469,-8.0682894],[-79.0650546,-8.0681039],[-79.0643049,-8.0677682],[-79.0635323,-8.0674222],[-79.063452,-8.0673863],[-79.0631766,-8.0672583],[-79.0630517,-8.0672018],[-79.0625631,-8.0669806],[-79.0625031,-8.066921],[-79.0624666,-8.0668568],[-79.0619232,-8.0656309],[-79.0617695,-8.0652842],[-79.0616601,-8.0651589],[-79.0615373,-8.0652307],[-79.0614313,-8.0655475],[-79.0613026,-8.0659229],[-79.0612191,-8.0661431],[-79.0608607,-8.0670976],[-79.0608257,-8.0671896],[-79.060603,-8.0677801],[-79.0605219,-8.0679861],[-79.0603105,-8.0685265],[-79.0600178,-8.0693246],[-79.0597814,-8.0700088],[-79.0597061,-8.0702082],[-79.0592696,-8.071364],[-79.0590064,-8.0720502],[-79.0588155,-8.0725621],[-79.0583698,-8.0737621],[-79.0582435,-8.0741153],[-79.05794,-8.0749203],[-79.0577876,-8.0748562],[-79.0573027,-8.0746712],[-79.0571406,-8.0751515],[-79.0569641,-8.0756516],[-79.0565641,-8.076698],[-79.0561655,-8.0776781],[-79.0557121,-8.078793],[-79.0555075,-8.079322],[-79.0550097,-8.0804514],[-79.0545669,-8.081426],[-79.0545768,-8.0815186],[-79.0544039,-8.0815118],[-79.0543811,-8.0820589],[-79.0537439,-8.0820438],[-79.0536371,-8.0820547],[-79.0535306,-8.0820753],[-79.0534312,-8.0820985],[-79.0530805,-8.0821878],[-79.0527771,-8.082206],[-79.0523455,-8.0822081],[-79.0516537,-8.0822073],[-79.0514267,-8.0822024],[-79.0506806,-8.0821864],[-79.0488843,-8.082152],[-79.048792,-8.0821392],[-79.0487485,-8.0821266],[-79.048707,-8.0821101],[-79.0482556,-8.0818885],[-79.0477633,-8.0816635],[-79.047708,-8.0816392],[-79.0476525,-8.0816129],[-79.0470034,-8.0812996],[-79.0468432,-8.0812317],[-79.0463039,-8.0809971],[-79.0458242,-8.0807869],[-79.045655,-8.0807155],[-79.0455892,-8.0806877],[-79.0453363,-8.0812496],[-79.0451935,-8.0815657],[-79.045093,-8.0817882],[-79.0448798,-8.08226],[-79.0445772,-8.0829324],[-79.0443502,-8.083432],[-79.0439431,-8.0843346],[-79.0435823,-8.0851342],[-79.043486,-8.0853351],[-79.0433957,-8.0855477],[-79.0433473,-8.0856513],[-79.0429077,-8.0866242],[-79.0428685,-8.0867206],[-79.0424153,-8.0877227],[-79.0423607,-8.0878348],[-79.0419632,-8.0887144],[-79.0417726,-8.0891362],[-79.0415489,-8.0896414],[-79.0413911,-8.0899805],[-79.0413004,-8.0901846],[-79.0406924,-8.0915268],[-79.0408008,-8.0915288],[-79.0414273,-8.0915116],[-79.0415565,-8.0914503],[-79.0416828,-8.0913903],[-79.0418795,-8.0912942],[-79.0420439,-8.091214],[-79.0423568,-8.0911066],[-79.0428308,-8.0910832],[-79.0429158,-8.0911945],[-79.0429431,-8.0917656],[-79.0431617,-8.0928548],[-79.0432594,-8.0933182],[-79.04331,-8.0935713],[-79.043362,-8.0937781],[-79.043427,-8.094036],[-79.0434828,-8.0942572],[-79.04371,-8.0954224],[-79.0438134,-8.0959053],[-79.0439088,-8.0963632],[-79.0439939,-8.0967709],[-79.0439754,-8.0969204],[-79.0437824,-8.0972852],[-79.0442831,-8.0975678],[-79.0447072,-8.0978071],[-79.0447347,-8.0978944],[-79.0447672,-8.0979789],[-79.0446179,-8.0980299],[-79.0448134,-8.0984608],[-79.0440535,-8.0987098],[-79.0436018,-8.0988582],[-79.0437293,-8.0992145],[-79.0440857,-8.100214],[-79.0444008,-8.1011494],[-79.0444508,-8.1013229],[-79.0444704,-8.1013911],[-79.044493,-8.1014696],[-79.0443739,-8.1014935],[-79.0437825,-8.1016247],[-79.0433215,-8.101727],[-79.0429163,-8.1018169],[-79.0422055,-8.1019746],[-79.0417087,-8.10206],[-79.0415762,-8.1020864],[-79.0413616,-8.1021367],[-79.0411635,-8.1021871],[-79.041065,-8.1022187],[-79.0406388,-8.1023554],[-79.0395627,-8.1027305],[-79.0394122,-8.102805],[-79.0388679,-8.1030928],[-79.0382654,-8.1034053],[-79.0379433,-8.10357],[-79.037563,-8.1037699],[-79.0369493,-8.1040795],[-79.0369787,-8.1041495],[-79.0368396,-8.1042254],[-79.0367014,-8.1043007],[-79.0363244,-8.1045064],[-79.0358117,-8.104786],[-79.0357479,-8.1048306],[-79.0356973,-8.1048961],[-79.0356934,-8.104972],[-79.0357223,-8.1050351],[-79.0357485,-8.1050922],[-79.0358273,-8.1052641],[-79.036067,-8.1057871],[-79.0362184,-8.1061526],[-79.0362525,-8.1062342],[-79.0365364,-8.1069179],[-79.0369485,-8.1079294],[-79.0372699,-8.1087139],[-79.037388,-8.108956],[-79.0375097,-8.1091387],[-79.0380939,-8.1098517],[-79.0381839,-8.1099631],[-79.0380882,-8.1100254],[-79.0376847,-8.1103207],[-79.036251,-8.1113451],[-79.0359712,-8.1115469],[-79.0359243,-8.1115837],[-79.035893,-8.1116049],[-79.0357964,-8.1116733],[-79.0357345,-8.111719],[-79.0356706,-8.1117669],[-79.0351109,-8.1121722],[-79.0345397,-8.1125864],[-79.0344451,-8.112655],[-79.0333154,-8.1136337],[-79.0328758,-8.1139825],[-79.0322537,-8.1144598],[-79.0320623,-8.114698],[-79.0312739,-8.1157431],[-79.0312147,-8.1157976],[-79.0307673,-8.1160244],[-79.0303971,-8.1161899],[-79.0302848,-8.116242],[-79.0299547,-8.1165072],[-79.0294209,-8.1169632],[-79.0286772,-8.1175894],[-79.0284193,-8.1178066],[-79.0282271,-8.1179685],[-79.0276199,-8.1184798],[-79.0275116,-8.118571],[-79.0262945,-8.1195754],[-79.026243,-8.1194835],[-79.0258057,-8.1189917],[-79.0256705,-8.118841],[-79.0253383,-8.1184941],[-79.0253204,-8.1184754],[-79.025167,-8.1183311],[-79.0250373,-8.118209],[-79.0249217,-8.1181009],[-79.0248441,-8.1180764],[-79.024142,-8.1174222],[-79.0230896,-8.1163724],[-79.0224025,-8.1156582],[-79.0219789,-8.1152309],[-79.0215809,-8.1148344],[-79.0213678,-8.1146176],[-79.0208073,-8.114097],[-79.0204401,-8.1136315],[-79.0201765,-8.1133091],[-79.0198386,-8.1128836],[-79.0192152,-8.1121631],[-79.0188813,-8.1118006],[-79.0187806,-8.1117241],[-79.0183624,-8.1112666],[-79.0180336,-8.1109069],[-79.0175129,-8.1102993],[-79.0174444,-8.1102211],[-79.0168949,-8.1095934],[-79.0164607,-8.1090763],[-79.0160606,-8.1086321],[-79.016002,-8.1085671],[-79.0158452,-8.1083849],[-79.0156031,-8.1081061],[-79.0153791,-8.1078466],[-79.0149207,-8.1073163],[-79.014742,-8.1071073],[-79.0144699,-8.1067831],[-79.0141982,-8.1064576],[-79.0138765,-8.1060794],[-79.0137806,-8.1059652],[-79.0136982,-8.1058694],[-79.0134976,-8.1056346],[-79.0132032,-8.1052914],[-79.0129236,-8.1049601],[-79.0126232,-8.1046043],[-79.0123322,-8.1042823],[-79.0122927,-8.1042322],[-79.0119901,-8.1038686],[-79.0118179,-8.1036636],[-79.011702,-8.103526],[-79.0112556,-8.1030038],[-79.0111726,-8.1029044],[-79.0110643,-8.1027749],[-79.0111039,-8.1026761],[-79.011198,-8.1024167],[-79.0112866,-8.102192],[-79.0114159,-8.1019145],[-79.0116076,-8.1016025],[-79.0117418,-8.1014326],[-79.0118356,-8.101329],[-79.0123764,-8.10082],[-79.0127128,-8.1005306],[-79.013052,-8.1002262],[-79.013115,-8.1001744],[-79.0132303,-8.1000777],[-79.0134721,-8.0999041],[-79.0140374,-8.099438],[-79.0140853,-8.0993954],[-79.0153502,-8.0983201],[-79.0156556,-8.0980592],[-79.0162565,-8.0975504],[-79.0163224,-8.0974945],[-79.0171209,-8.0968216],[-79.0175534,-8.0964329],[-79.0179282,-8.0961226],[-79.0182007,-8.0960213],[-79.0192627,-8.0956227],[-79.0193672,-8.095583],[-79.020003,-8.0953414],[-79.0209139,-8.0949933],[-79.0216779,-8.0946983],[-79.0217962,-8.0946526],[-79.0218858,-8.0946132],[-79.0223491,-8.0944305],[-79.0228166,-8.0942553],[-79.0228682,-8.094236],[-79.0230846,-8.0941549],[-79.023781,-8.0938842],[-79.024227,-8.093749],[-79.0245066,-8.093704],[-79.0247945,-8.0936876],[-79.0249853,-8.0936908],[-79.0252554,-8.0937219],[-79.0253966,-8.0937499],[-79.0254886,-8.0937737],[-79.0257098,-8.0938322],[-79.0257497,-8.0938473],[-79.0259212,-8.093912],[-79.026124,-8.0940075],[-79.0263109,-8.0941169],[-79.0264865,-8.0942425],[-79.0266608,-8.0943797],[-79.0268601,-8.0945813],[-79.0272717,-8.0950072],[-79.0273313,-8.0950685],[-79.0277361,-8.0954904],[-79.0280436,-8.0958043],[-79.0281093,-8.0958733],[-79.0285236,-8.0962979],[-79.0296627,-8.097465],[-79.0297825,-8.0973466],[-79.0303893,-8.0967466],[-79.0305652,-8.096576],[-79.0310149,-8.0961398],[-79.0322814,-8.0949112],[-79.0323706,-8.0948246],[-79.0327829,-8.0944246],[-79.0332354,-8.0939857],[-79.0337462,-8.09349],[-79.0343712,-8.0928849],[-79.0349734,-8.092302],[-79.0350896,-8.0921869],[-79.0355392,-8.0917591],[-79.0356054,-8.0916908],[-79.0361955,-8.0911371],[-79.0364437,-8.0908977],[-79.0366434,-8.0907051],[-79.036996,-8.090365],[-79.0370332,-8.0903291],[-79.0379742,-8.0894198],[-79.0384279,-8.088993],[-79.0388741,-8.0885773],[-79.0390052,-8.088448],[-79.0391799,-8.0882758],[-79.0392239,-8.0882324],[-79.0395057,-8.0879657],[-79.0398728,-8.0876075],[-79.0403722,-8.0871202],[-79.0405474,-8.0868928],[-79.0406309,-8.0867897],[-79.0406796,-8.0867092],[-79.0408662,-8.086433],[-79.0411107,-8.0860727],[-79.0416471,-8.085165],[-79.0421637,-8.0842423],[-79.042691,-8.0833188],[-79.0427627,-8.0831927],[-79.0432811,-8.0822844],[-79.0438974,-8.0812177],[-79.0445035,-8.0801485],[-79.0452446,-8.0788423],[-79.0454339,-8.0785037],[-79.0456866,-8.0780675],[-79.0464601,-8.0767157],[-79.0471464,-8.075498],[-79.0478967,-8.0742114],[-79.0481042,-8.0738459],[-79.0486225,-8.0729329],[-79.0488288,-8.0725167],[-79.049012,-8.0721568],[-79.0492842,-8.0716739],[-79.0496356,-8.0706316],[-79.0497883,-8.0702155],[-79.050053,-8.0694305],[-79.0501889,-8.0690276],[-79.0502106,-8.0689548],[-79.050232,-8.068883],[-79.050659,-8.0674563],[-79.0508552,-8.066857],[-79.0509247,-8.0666446],[-79.0510772,-8.0661776],[-79.0512448,-8.0656719],[-79.051374,-8.0652832],[-79.0514426,-8.065077],[-79.0515657,-8.0647067],[-79.0517289,-8.0641995],[-79.0517489,-8.0641375],[-79.0519873,-8.0633187],[-79.0522553,-8.0624989],[-79.0523318,-8.0622665],[-79.0524691,-8.0618445],[-79.0527552,-8.0609434],[-79.0528271,-8.0607248],[-79.0528977,-8.0605024],[-79.0530438,-8.0600586],[-79.0531081,-8.0598625],[-79.0531784,-8.0596481],[-79.0533217,-8.0591865],[-79.0535063,-8.0586245],[-79.0539058,-8.0573528],[-79.0539685,-8.0571654],[-79.0541055,-8.0567557],[-79.0542765,-8.0562608],[-79.0544082,-8.0559003],[-79.0546099,-8.05533],[-79.0548793,-8.0544646],[-79.0554075,-8.0528914],[-79.055561,-8.0524515],[-79.0556267,-8.0522367],[-79.0557002,-8.0519812],[-79.0558474,-8.0514695],[-79.0562631,-8.0501681],[-79.056524,-8.0493753],[-79.0566535,-8.0489378],[-79.0570924,-8.0477341],[-79.0571807,-8.0474322],[-79.0572741,-8.0470778],[-79.0575908,-8.046071],[-79.0578769,-8.0451626],[-79.0581179,-8.0443879],[-79.0584628,-8.0433406],[-79.0588091,-8.0422399],[-79.0589114,-8.0419089],[-79.0589773,-8.041676],[-79.0592911,-8.0406688],[-79.0593414,-8.0405215],[-79.0596323,-8.0396448],[-79.0596857,-8.0394936],[-79.0600244,-8.0384175],[-79.0603568,-8.0373562],[-79.0603767,-8.0372841],[-79.0605156,-8.0368127],[-79.0607618,-8.0360555],[-79.0612267,-8.0346473],[-79.0615845,-8.0335434],[-79.0618761,-8.0326655],[-79.0618874,-8.0326105],[-79.0620929,-8.0319159],[-79.0622332,-8.0315161],[-79.0622953,-8.0313267],[-79.0625942,-8.0303539],[-79.0628321,-8.0295824],[-79.0628901,-8.029398],[-79.0631824,-8.0284704],[-79.0633094,-8.028081],[-79.0635083,-8.0274664],[-79.0637487,-8.0267397],[-79.0638236,-8.0265087],[-79.0641691,-8.0254613],[-79.06423,-8.0252933],[-79.0644435,-8.0246295],[-79.0645712,-8.0242281],[-79.0645909,-8.0241499],[-79.0647442,-8.0236724],[-79.06505,-8.0227815],[-79.0653948,-8.021758],[-79.0655561,-8.0212802],[-79.0657266,-8.020749],[-79.0659645,-8.019905],[-79.0660266,-8.0197137],[-79.0662901,-8.0189228],[-79.0663502,-8.0187383],[-79.0665346,-8.0181668],[-79.066681,-8.0177276],[-79.0667816,-8.0174235],[-79.0670709,-8.0165492],[-79.067254,-8.015995],[-79.0674321,-8.0154737],[-79.0674919,-8.015284],[-79.0675968,-8.0149513],[-79.0677509,-8.0145374],[-79.0678331,-8.0143077],[-79.0682182,-8.0131333],[-79.0683061,-8.0128547],[-79.0688509,-8.0111747],[-79.0688596,-8.011148],[-79.0689043,-8.0110427],[-79.0690806,-8.0105888],[-79.0691354,-8.0104546],[-79.0694423,-8.0094773],[-79.0695302,-8.0092021],[-79.0696107,-8.0088967],[-79.0697636,-8.0081224],[-79.0698507,-8.0077426],[-79.0698802,-8.0076271],[-79.0699257,-8.0074993],[-79.0701377,-8.0068302],[-79.0702295,-8.0065593],[-79.0706716,-8.0052551],[-79.071558,-8.0025523],[-79.0715689,-8.0025166],[-79.0718935,-8.001526],[-79.0721024,-8.0008886],[-79.0721267,-8.0008143],[-79.0721756,-8.0006347],[-79.0724046,-7.9998997],[-79.0725512,-7.9994173],[-79.0727908,-7.9986615],[-79.0731686,-7.9974556]],"nodes":[11030442249,10685239281,10991389861,5468735418,10991389860,10991389859,5474276650,5474276624,5467507224,5474276630,5474276628,5474276633,5467507222,4410929394,1098630221,5467507241,5467507232,5467516283,5467483333,5467483323,5467516287,5467516289,1098604600,1098610508,1098621538,3728390952,5489472175,1098587489,11023662197,1098596830,2465862788,12987895792,5467424885,5467424884,4427249035,2465862790,2465862794,13380329081,2465862795,11023578104,2465862797,2465862763,5472133677,4427249055,1098588541,1098594329,1098650742,1098637984,1098584279,1098600113,1098594711,1098583945,1098600707,1098594986,3728390988,5463882006,5472132568,13528906367,5483554738,5489209208,1098635673,1098604568,1098610439,1098593363,1098649510,5483546695,5483546698,5070367770,7633225810,7633225809,5070367771,1098601078,7633225814,4427171913,1098619773,13528906360,1098641687,1098637921,7633225812,7633225811,4427166868,1098627077,1098617029,13379242338,4427239261,4427239260,5483546701,4427239257,4427239256,5089585917,1098605226,1098596833,5089604484,1098616329,1098597077,1098588439,1098645451,1098622515,10723937586,1098649105,633650896,1693582291,10723917702,2956751726,5089667629,1098596094,1098603874,2956752133,5089667641,1098587208,5489046577,1098616168,5089667663,4427130898,1098615587,1098635083,1098604575,1098593369,1098649505,1098592376,1693582352,5429866027,5429866026,5429865002,9836732270,5429865000,9836732267,5429865019,5429865018,5455919299,5455919307,5455919298,5455919297,5455919296,5455919293,5425480807,13379182174,5455919292,5455919314,5455919315,1098597734,1088227252,1098608444,13379185876,11028289493,11028289491,2979702863,1088227230,2760772634,1098595788,1693595358,1693595362,1098599033,1098592849,11037604011,11037604010,1098636459,11037999554,1098626018,316491293,1098625617,5069337056,1098615175,3386747932,3743507184,1142680044,3386747931,10724078675,5478680206,5478680205,3743507186,3743507187,316491296,11033319452,3743507188,8763957262,2587893399,2587893400,5051964665,8763957234,5478761331,1098619763,2481376233,11037999556,2481376232,1873564603,1098612382,1098632446,1098588348,4633846734,4691590030,3802902827,3802902831,4633846700,1098637302,4633846701,1098626618,1098606361,1098597256,5455951601,1098611635,5067465333,320114899,316265319,316264036,316264037,1554840447,1628563878,316256200,5072149530,1098598714,1098608890,5476546746,1627006920,1098635606,316260176,316260175,5476546769,1627006951,5476546768,1098635029,11892812604,1627006911,1627006909,316260128,1088227275,1088227478,1088227293,1088227185,1088227399,1015347876,1050928471,1088227193,1145579819,1015292444,1144498438,1026647781,1088227261,11023976592,1098613755,1007782483,1098602637,11023976594,1098601972,11023313868,1098584430,11023313867,11023313865,5086629395,1088227445,3569346209,11023313863,1098613888,11023313861,11023313859,5086629393,11023313857,11023313855,1026647788,11023313853,11023313851,1026647512,1098632843,11023381285,11032994349,11032994346,316265133,1088227363,316265105,7118056424,11032994344,316265104,4706097946,316265103,1098633822,8845540452,1098623858,11910518850,11033509209,11032996035,11032996037,4452550923,4452550921,1098598186,5098557143,1098607852,1098641251,5079131745,1098609883,316265100,1098612563,320114991,316265097,1098630982,1098621187,11032795718,2481251300,2481251299,1088227390,5483089724,11032795715,11032795712,1098604016,5071955846,316265092,1268310331,1268310334,316265090,11032795710,7123146897,316265089,11032795707,7123146899,7123146900,316265088,7123146902,316265087,5071955849,316265086,1098630211,11032795706,11032459643,5432137615,11037834990,316265085,11037627711,1098635139,11037627713,1098591186,1098607147,1098597771,11032811715,11032811714,1098629914,11037627715,1088227477,1088227284,1144498425,11030528043,4427121116,10732171713,9750389795,9750389798,1142680061,1142680112,5088980727,5088980739,11032418478,11032418476,1142679893,5088994603,12864310808,5088994616,11032252306,316263615,316262096,5089240021,316263616,1142680018,1287009781,1098612431,5089019936,1098610831,1098643949,1098601422,1098634790,1287009740,1098639865,1098602152,1098628358,1098628188,5089024917,1098613633,1286991463,1098584234,1286991558,1098630492,1098642773,11023841239,1098635583,11030338722,11030338724,1286991549,3981106617,1098585824,1286991511,1873334455,10578866570,10578823310,1286991478,10578823297,1873334451,1286991560,3981106616,1873334447,1286991520,1098625102,1286991485,1098590958,1098585580,11021532899,1286991567,1098598681,1286991530,1873334442,3981106615,320113092,11023849494,11023366504,1098618166,5453884048,5489611518,1098600808,1098590948,5453884050,5489611726,1098586464,1098609015,1098614755,1286991513,8134200994,11023223472,8134298763,8134298762,1098612209,1098594821,5463865441,11023223475,11023365338,11023223476,1873334431,11023223477,4438549628,3110225076,3110225074,8089658062,8089658065,5491760454,11023223486,1098640018,1873334412,11023223487,11023223492,1098601279,1873334402,1873334400,1098623493,1873334391,1098646213,1873334383,1098589764,1286991515,1098607101,1098617982,9148497677,5463851058,9148497683,1873334368,1098618780,1873334364,1098625991,1286991562,1098649119,1873334353,1098599021,1873334346,1098609636,1286991522,1098630656,1873334321,1873334317,1098615155,1098621624,3981106611,1098597044,1873334301,1873334296,1873334289,1286991453,13406780257,5491760686,5622983455,1286991534,11541962082,320113098,11541962077,5079648982,11541962080,11541962079,11541962078,5622983468,5622983467,11863146149,3743516628,8449634318,10993265745,10980257049,10980257041,6383771946,9099253135,9099253138,3743516627,11033003495,11539601121]},"gtfs":{"agency_id":2,"route_id":10,"services":[{"service_id":"Mo-Su","startTime":"05:00","endTime":"23:00","trip_id":19961869}],"filteredStops":{"nodes":[11030442249,13546545689,13546545686,13546546340,13546546339,13546545613,13546546305,13546545615,13546546345,13546545692,13546546326,13546546329,13546535100,13546545927,13546545987,13546545986,13546545256,13546545937,13546545139,13546545140,11910518835,13546545899,13546545961,13546545158,5099440457,13546545990,13546545148,13546545944,13546546004,13546545966,13546545964,13546546024,13546545217,13546546020,13546546022,13546545218,13546545235,13546546057,11910518849,13546545247,13546545245,13546546054,13546545252,13546535048,13546535046,13546535045,13546545668,13546546362,13546546364,13546545722,13546546337,13546546335,13546545681,13546546351,13546546281,13546545546,13546545536,13546546282,13546546283,13546545537,13546545538,13546546284,13546545534,13546546279,11539601121],"coordinates":[[-79.0706575,-8.0675812],[-79.0699279,-8.0701198],[-79.0672103,-8.0691065],[-79.0639838,-8.067654],[-79.0619525,-8.0657685],[-79.0584537,-8.0735723],[-79.0568656,-8.0759611],[-79.055897,-8.0784874],[-79.0524368,-8.0822409],[-79.046616,-8.0811493],[-79.0453013,-8.0815809],[-79.0441866,-8.0840322],[-79.0422169,-8.0881646],[-79.0424503,-8.0910998],[-79.0433254,-8.0933821],[-79.0438353,-8.0958072],[-79.0439761,-8.0998763],[-79.0431964,-8.1018285],[-79.0398522,-8.1026501],[-79.0373475,-8.1039363],[-79.0362453,-8.1061083],[-79.0370376,-8.1078566],[-79.0364068,-8.1112557],[-79.0342059,-8.1129254],[-79.0322849,-8.1145182],[-79.0304266,-8.1162183],[-79.0288676,-8.1175878],[-79.0277625,-8.1184498],[-79.0260593,-8.1193536],[-79.0242313,-8.117565],[-79.0221074,-8.1153628],[-79.0196637,-8.1127858],[-79.0176395,-8.1104764],[-79.0154954,-8.1080185],[-79.0138854,-8.1061501],[-79.0120998,-8.1040441],[-79.0128592,-8.1002664],[-79.0159997,-8.0976796],[-79.0178601,-8.0961305],[-79.0204626,-8.0950773],[-79.0233164,-8.0940458],[-79.0260984,-8.0939734],[-79.0284252,-8.0961129],[-79.0301206,-8.0969634],[-79.0328992,-8.0942732],[-79.0381247,-8.0891591],[-79.0424333,-8.0837564],[-79.0477654,-8.0744327],[-79.0506094,-8.0675391],[-79.0517885,-8.0635307],[-79.0531725,-8.0595439],[-79.0542786,-8.0561947],[-79.0552004,-8.0533903],[-79.0563403,-8.0496012],[-79.058657,-8.042147],[-79.0602041,-8.0376507],[-79.0611403,-8.0344887],[-79.0624792,-8.0304715],[-79.063606,-8.0269626],[-79.0649224,-8.0229559],[-79.0661336,-8.019158],[-79.0673739,-8.0155533],[-79.0686155,-8.0117564],[-79.0730719,-7.99765],[-79.0731686,-7.9974556]]}}},{"type":"Feature","properties":{"bus":"yes","highway":"bus_stop","network":"Transporte Público Urbano Trujillo","public_transport":"platform","ref":"PE-259","source":"Gerencia de Transporte Metropolitano de Trujillo","id":13546545689},"geometry":{"type":"Point","coordinates":[-79.0699279,-8.0701198]}},{"type":"Feature","properties":{"bus":"yes","highway":"bus_stop","network":"Transporte Público Urbano Trujillo","public_transport":"platform","ref":"PE-263","source":"Gerencia de Transporte Metropolitano de Trujillo","id":13546545686},"geometry":{"type":"Point","coordinates":[-79.0672103,-8.0691065]}},{"type":"Feature","properties":{"bus":"yes","highway":"bus_stop","network":"Transporte Público Urbano Trujillo","public_transport":"platform","ref":"PE-266","source":"Gerencia de Transporte Metropolitano de Trujillo","id":13546546340},"geometry":{"type":"Point","coordinates":[-79.0639838,-8.067654]}},{"type":"Feature","properties":{"bus":"yes","highway":"bus_stop","network":"Transporte Público Urbano Trujillo","public_transport":"platform","ref":"PE-267","source":"Gerencia de Transporte Metropolitano de Trujillo","id":13546546339},"geometry":{"type":"Point","coordinates":[-79.0619525,-8.0657685]}},{"type":"Feature","properties":{"bus":"yes","highway":"bus_stop","network":"Transporte Público Urbano Trujillo","public_transport":"platform","ref":"PE-94","source":"Gerencia de Transporte Metropolitano de Trujillo","id":13546545613},"geometry":{"type":"Point","coordinates":[-79.0584537,-8.0735723]}},{"type":"Feature","properties":{"bus":"yes","highway":"bus_stop","network":"Transporte Público Urbano Trujillo","public_transport":"platform","ref":"PE-88","source":"Gerencia de Transporte Metropolitano de Trujillo","id":13546546305},"geometry":{"type":"Point","coordinates":[-79.0568656,-8.0759611]}},{"type":"Feature","properties":{"bus":"yes","highway":"bus_stop","network":"Transporte Público Urbano Trujillo","public_transport":"platform","ref":"PE-89","source":"Gerencia de Transporte Metropolitano de Trujillo","id":13546545615},"geometry":{"type":"Point","coordinates":[-79.055897,-8.0784874]}},{"type":"Feature","properties":{"bus":"yes","highway":"bus_stop","network":"Transporte Público Urbano Trujillo","public_transport":"platform","ref":"PE-245","source":"Gerencia de Transporte Metropolitano de Trujillo","id":13546546345},"geometry":{"type":"Point","coordinates":[-79.0524368,-8.0822409]}},{"type":"Feature","properties":{"bus":"yes","highway":"bus_stop","network":"Transporte Público Urbano Trujillo","public_transport":"platform","ref":"PE-250","source":"Gerencia de Transporte Metropolitano de Trujillo","id":13546545692},"geometry":{"type":"Point","coordinates":[-79.046616,-8.0811493]}},{"type":"Feature","properties":{"bus":"yes","highway":"bus_stop","network":"Transporte Público Urbano Trujillo","public_transport":"platform","ref":"PE-306","source":"Gerencia de Transporte Metropolitano de Trujillo","id":13546546326},"geometry":{"type":"Point","coordinates":[-79.0453013,-8.0815809]}},{"type":"Feature","properties":{"bus":"yes","highway":"bus_stop","network":"Transporte Público Urbano Trujillo","public_transport":"platform","ref":"PE-303","source":"Gerencia de Transporte Metropolitano de Trujillo","id":13546546329},"geometry":{"type":"Point","coordinates":[-79.0441866,-8.0840322]}},{"type":"Feature","properties":{"bus":"yes","highway":"bus_stop","network":"Transporte Público Urbano Trujillo","public_transport":"platform","ref":"NPT-210","source":"Gerencia de Transporte Metropolitano de Trujillo","id":13546535100},"geometry":{"type":"Point","coordinates":[-79.0422169,-8.0881646]}},{"type":"Feature","properties":{"bus":"yes","highway":"bus_stop","network":"Transporte Público Urbano Trujillo","public_transport":"platform","ref":"MEI-394","source":"Gerencia de Transporte Metropolitano de Trujillo","id":13546545927},"geometry":{"type":"Point","coordinates":[-79.0424503,-8.0910998]}},{"type":"Feature","properties":{"bus":"yes","highway":"bus_stop","network":"Transporte Público Urbano Trujillo","public_transport":"platform","ref":"ESPIN-508","source":"Gerencia de Transporte Metropolitano de Trujillo","id":13546545987},"geometry":{"type":"Point","coordinates":[-79.0433254,-8.0933821]}},{"type":"Feature","properties":{"bus":"yes","highway":"bus_stop","network":"Transporte Público Urbano Trujillo","public_transport":"platform","ref":"ESPIN-509","source":"Gerencia de Transporte Metropolitano de Trujillo","id":13546545986},"geometry":{"type":"Point","coordinates":[-79.0438353,-8.0958072]}},{"type":"Feature","properties":{"bus":"yes","highway":"bus_stop","network":"Transporte Público Urbano Trujillo","public_transport":"platform","ref":"AMEO-86","source":"Gerencia de Transporte Metropolitano de Trujillo","id":13546545256},"geometry":{"type":"Point","coordinates":[-79.0439761,-8.0998763]}},{"type":"Feature","properties":{"bus":"yes","highway":"bus_stop","network":"Transporte Público Urbano Trujillo","public_transport":"platform","ref":"MANT-108","source":"Gerencia de Transporte Metropolitano de Trujillo","id":13546545937},"geometry":{"type":"Point","coordinates":[-79.0431964,-8.1018285]}},{"type":"Feature","properties":{"bus":"yes","highway":"bus_stop","network":"Transporte Público Urbano Trujillo","public_transport":"platform","ref":"MANT-101","source":"Gerencia de Transporte Metropolitano de Trujillo","id":13546545139},"geometry":{"type":"Point","coordinates":[-79.0398522,-8.1026501]}},{"type":"Feature","properties":{"bus":"yes","highway":"bus_stop","network":"Transporte Público Urbano Trujillo","public_transport":"platform","ref":"MANT-100","source":"Gerencia de Transporte Metropolitano de Trujillo","id":13546545140},"geometry":{"type":"Point","coordinates":[-79.0373475,-8.1039363]}},{"type":"Feature","properties":{"advertising":"no","bench":"no","bicycle_parking":"no","bin":"no","bus":"yes","departures_board":"no","highway":"bus_stop","level":"0","lit":"yes","name":"Calle Santiago de Chile","network":"Transporte Público Urbano Trujillo","passenger_information_display:speech_output":"no","pole":"yes","public_transport":"platform","ramp":"no","ref":"ROM-370","shelter":"no","source:ref":"Gerencia de Transporte Metropolitano de Trujillo","tactile_paving":"no","tactile_writing:braille:es":"no","id":11910518835},"geometry":{"type":"Point","coordinates":[-79.0362453,-8.1061083]}},{"type":"Feature","properties":{"bus":"yes","highway":"bus_stop","network":"Transporte Público Urbano Trujillo","public_transport":"platform","ref":"PEMU-342","source":"Gerencia de Transporte Metropolitano de Trujillo","id":13546545899},"geometry":{"type":"Point","coordinates":[-79.0370376,-8.1078566]}},{"type":"Feature","properties":{"bus":"yes","highway":"bus_stop","network":"Transporte Público Urbano Trujillo","public_transport":"platform","ref":"JEN-141","source":"Gerencia de Transporte Metropolitano de Trujillo","id":13546545961},"geometry":{"type":"Point","coordinates":[-79.0364068,-8.1112557]}},{"type":"Feature","properties":{"bus":"yes","highway":"bus_stop","network":"Transporte Público Urbano Trujillo","public_transport":"platform","ref":"JEN-140","source":"Gerencia de Transporte Metropolitano de Trujillo","id":13546545158},"geometry":{"type":"Point","coordinates":[-79.0342059,-8.1129254]}},{"type":"Feature","properties":{"advertising":"yes","bench":"yes","bicycle_parking":"yes","bin":"no","bus":"yes","departures_board":"no","highway":"bus_stop","level":"0","lit":"yes","name":"Jirón Independencia","network":"Transporte Público Urbano Trujillo","passenger_information_display:speech_output":"no","pole":"yes","public_transport":"platform","ramp":"no","ref":"ESP-5","shelter":"yes","source":"Reconocimiento terrestre cartográfico realizado por Kaart en 2017","tactile_paving":"no","tactile_writing:braille:es":"no","id":5099440457},"geometry":{"type":"Point","coordinates":[-79.0322849,-8.1145182]}},{"type":"Feature","properties":{"bus":"yes","highway":"bus_stop","network":"Transporte Público Urbano Trujillo","public_transport":"platform","ref":"ESP-4","source":"Gerencia de Transporte Metropolitano de Trujillo","id":13546545990},"geometry":{"type":"Point","coordinates":[-79.0304266,-8.1162183]}},{"type":"Feature","properties":{"bus":"yes","highway":"bus_stop","network":"Transporte Público Urbano Trujillo","public_transport":"platform","ref":"JUL-436","source":"Gerencia de Transporte Metropolitano de Trujillo","id":13546545148},"geometry":{"type":"Point","coordinates":[-79.0288676,-8.1175878]}},{"type":"Feature","properties":{"bus":"yes","highway":"bus_stop","network":"Transporte Público Urbano Trujillo","public_transport":"platform","ref":"JUL-440","source":"Gerencia de Transporte Metropolitano de Trujillo","id":13546545944},"geometry":{"type":"Point","coordinates":[-79.0277625,-8.1184498]}},{"type":"Feature","properties":{"bus":"yes","highway":"bus_stop","network":"Transporte Público Urbano Trujillo","public_transport":"platform","ref":"COSR-337","source":"Gerencia de Transporte Metropolitano de Trujillo","id":13546546004},"geometry":{"type":"Point","coordinates":[-79.0260593,-8.1193536]}},{"type":"Feature","properties":{"bus":"yes","highway":"bus_stop","network":"Transporte Público Urbano Trujillo","public_transport":"platform","ref":"IN-167","source":"Gerencia de Transporte Metropolitano de Trujillo","id":13546545966},"geometry":{"type":"Point","coordinates":[-79.0242313,-8.117565]}},{"type":"Feature","properties":{"bus":"yes","highway":"bus_stop","network":"Transporte Público Urbano Trujillo","public_transport":"platform","ref":"IN-169","source":"Gerencia de Transporte Metropolitano de Trujillo","id":13546545964},"geometry":{"type":"Point","coordinates":[-79.0221074,-8.1153628]}},{"type":"Feature","properties":{"bus":"yes","highway":"bus_stop","network":"Transporte Público Urbano Trujillo","public_transport":"platform","ref":"CEV-172","source":"Gerencia de Transporte Metropolitano de Trujillo","id":13546546024},"geometry":{"type":"Point","coordinates":[-79.0196637,-8.1127858]}},{"type":"Feature","properties":{"bus":"yes","highway":"bus_stop","network":"Transporte Público Urbano Trujillo","public_transport":"platform","ref":"CEV-179","source":"Gerencia de Transporte Metropolitano de Trujillo","id":13546545217},"geometry":{"type":"Point","coordinates":[-79.0176395,-8.1104764]}},{"type":"Feature","properties":{"bus":"yes","highway":"bus_stop","network":"Transporte Público Urbano Trujillo","public_transport":"platform","ref":"CEV-177","source":"Gerencia de Transporte Metropolitano de Trujillo","id":13546546020},"geometry":{"type":"Point","coordinates":[-79.0154954,-8.1080185]}},{"type":"Feature","properties":{"bus":"yes","highway":"bus_stop","network":"Transporte Público Urbano Trujillo","public_transport":"platform","ref":"CEV-175","source":"Gerencia de Transporte Metropolitano de Trujillo","id":13546546022},"geometry":{"type":"Point","coordinates":[-79.0138854,-8.1061501]}},{"type":"Feature","properties":{"bus":"yes","highway":"bus_stop","network":"Transporte Público Urbano Trujillo","public_transport":"platform","ref":"CEV-173","source":"Gerencia de Transporte Metropolitano de Trujillo","id":13546545218},"geometry":{"type":"Point","coordinates":[-79.0120998,-8.1040441]}},{"type":"Feature","properties":{"bus":"yes","highway":"bus_stop","network":"Transporte Público Urbano Trujillo","public_transport":"platform","ref":"AMS-58","source":"Gerencia de Transporte Metropolitano de Trujillo","id":13546545235},"geometry":{"type":"Point","coordinates":[-79.0128592,-8.1002664]}},{"type":"Feature","properties":{"bus":"yes","highway":"bus_stop","network":"Transporte Público Urbano Trujillo","public_transport":"platform","ref":"AMN-18","source":"Gerencia de Transporte Metropolitano de Trujillo","id":13546546057},"geometry":{"type":"Point","coordinates":[-79.0159997,-8.0976796]}},{"type":"Feature","properties":{"advertising":"no","bench":"no","bicycle_parking":"no","bin":"no","bus":"yes","departures_board":"no","highway":"bus_stop","level":"0","lit":"yes","name":"Avenida del Ejército","network":"Transporte Público Urbano Trujillo","passenger_information_display:speech_output":"no","pole":"yes","public_transport":"platform","ramp":"no","ref":"AMN-20","shelter":"no","source:ref":"Gerencia de Transporte Metropolitano de Trujillo","tactile_paving":"yes","tactile_writing:braille:es":"no","id":11910518849},"geometry":{"type":"Point","coordinates":[-79.0178601,-8.0961305]}},{"type":"Feature","properties":{"bus":"yes","highway":"bus_stop","network":"Transporte Público Urbano Trujillo","public_transport":"platform","ref":"AMN-30","source":"Gerencia de Transporte Metropolitano de Trujillo","id":13546545247},"geometry":{"type":"Point","coordinates":[-79.0204626,-8.0950773]}},{"type":"Feature","properties":{"bus":"yes","highway":"bus_stop","network":"Transporte Público Urbano Trujillo","public_transport":"platform","ref":"AMN-32","source":"Gerencia de Transporte Metropolitano de Trujillo","id":13546545245},"geometry":{"type":"Point","coordinates":[-79.0233164,-8.0940458]}},{"type":"Feature","properties":{"bus":"yes","highway":"bus_stop","network":"Transporte Público Urbano Trujillo","public_transport":"platform","ref":"AMN-34","source":"Gerencia de Transporte Metropolitano de Trujillo","id":13546546054},"geometry":{"type":"Point","coordinates":[-79.0260984,-8.0939734]}},{"type":"Feature","properties":{"bus":"yes","highway":"bus_stop","network":"Transporte Público Urbano Trujillo","public_transport":"platform","ref":"AMN-22","source":"Gerencia de Transporte Metropolitano de Trujillo","id":13546545252},"geometry":{"type":"Point","coordinates":[-79.0284252,-8.0961129]}},{"type":"Feature","properties":{"bus":"yes","highway":"bus_stop","network":"Transporte Público Urbano Trujillo","public_transport":"platform","ref":"TUPAT-119","source":"Gerencia de Transporte Metropolitano de Trujillo","id":13546535048},"geometry":{"type":"Point","coordinates":[-79.0301206,-8.0969634]}},{"type":"Feature","properties":{"bus":"yes","highway":"bus_stop","network":"Transporte Público Urbano Trujillo","public_transport":"platform","ref":"TUPAT-122","source":"Gerencia de Transporte Metropolitano de Trujillo","id":13546535046},"geometry":{"type":"Point","coordinates":[-79.0328992,-8.0942732]}},{"type":"Feature","properties":{"bus":"yes","highway":"bus_stop","network":"Transporte Público Urbano Trujillo","public_transport":"platform","ref":"TUPAT-125","source":"Gerencia de Transporte Metropolitano de Trujillo","id":13546535045},"geometry":{"type":"Point","coordinates":[-79.0381247,-8.0891591]}},{"type":"Feature","properties":{"bus":"yes","highway":"bus_stop","network":"Transporte Público Urbano Trujillo","public_transport":"platform","ref":"PE-302","source":"Gerencia de Transporte Metropolitano de Trujillo","id":13546545668},"geometry":{"type":"Point","coordinates":[-79.0424333,-8.0837564]}},{"type":"Feature","properties":{"bus":"yes","highway":"bus_stop","network":"Transporte Público Urbano Trujillo","public_transport":"platform","ref":"PE-198","source":"Gerencia de Transporte Metropolitano de Trujillo","id":13546546362},"geometry":{"type":"Point","coordinates":[-79.0477654,-8.0744327]}},{"type":"Feature","properties":{"bus":"yes","highway":"bus_stop","network":"Transporte Público Urbano Trujillo","public_transport":"platform","ref":"PE-189","source":"Gerencia de Transporte Metropolitano de Trujillo","id":13546546364},"geometry":{"type":"Point","coordinates":[-79.0506094,-8.0675391]}},{"type":"Feature","properties":{"bus":"yes","highway":"bus_stop","network":"Transporte Público Urbano Trujillo","public_transport":"platform","ref":"PE-188","source":"Gerencia de Transporte Metropolitano de Trujillo","id":13546545722},"geometry":{"type":"Point","coordinates":[-79.0517885,-8.0635307]}},{"type":"Feature","properties":{"bus":"yes","highway":"bus_stop","network":"Transporte Público Urbano Trujillo","public_transport":"platform","ref":"PE-272","source":"Gerencia de Transporte Metropolitano de Trujillo","id":13546546337},"geometry":{"type":"Point","coordinates":[-79.0531725,-8.0595439]}},{"type":"Feature","properties":{"bus":"yes","highway":"bus_stop","network":"Transporte Público Urbano Trujillo","public_transport":"platform","ref":"PE-274","source":"Gerencia de Transporte Metropolitano de Trujillo","id":13546546335},"geometry":{"type":"Point","coordinates":[-79.0542786,-8.0561947]}},{"type":"Feature","properties":{"bus":"yes","highway":"bus_stop","network":"Transporte Público Urbano Trujillo","public_transport":"platform","ref":"PE-275","source":"Gerencia de Transporte Metropolitano de Trujillo","id":13546545681},"geometry":{"type":"Point","coordinates":[-79.0552004,-8.0533903]}},{"type":"Feature","properties":{"bus":"yes","highway":"bus_stop","network":"Transporte Público Urbano Trujillo","public_transport":"platform","ref":"PE-237","source":"Gerencia de Transporte Metropolitano de Trujillo","id":13546546351},"geometry":{"type":"Point","coordinates":[-79.0563403,-8.0496012]}},{"type":"Feature","properties":{"bus":"yes","highway":"bus_stop","network":"Transporte Público Urbano Trujillo","public_transport":"platform","ref":"PH-135","source":"Gerencia de Transporte Metropolitano de Trujillo","id":13546546281},"geometry":{"type":"Point","coordinates":[-79.058657,-8.042147]}},{"type":"Feature","properties":{"bus":"yes","highway":"bus_stop","network":"Transporte Público Urbano Trujillo","public_transport":"platform","ref":"PH-115","source":"Gerencia de Transporte Metropolitano de Trujillo","id":13546545546},"geometry":{"type":"Point","coordinates":[-79.0602041,-8.0376507]}},{"type":"Feature","properties":{"bus":"yes","highway":"bus_stop","network":"Transporte Público Urbano Trujillo","public_transport":"platform","ref":"PH-133","source":"Gerencia de Transporte Metropolitano de Trujillo","id":13546545536},"geometry":{"type":"Point","coordinates":[-79.0611403,-8.0344887]}},{"type":"Feature","properties":{"bus":"yes","highway":"bus_stop","network":"Transporte Público Urbano Trujillo","public_transport":"platform","ref":"PH-132","source":"Gerencia de Transporte Metropolitano de Trujillo","id":13546546282},"geometry":{"type":"Point","coordinates":[-79.0624792,-8.0304715]}},{"type":"Feature","properties":{"bus":"yes","highway":"bus_stop","network":"Transporte Público Urbano Trujillo","public_transport":"platform","ref":"PH-131","source":"Gerencia de Transporte Metropolitano de Trujillo","id":13546546283},"geometry":{"type":"Point","coordinates":[-79.063606,-8.0269626]}},{"type":"Feature","properties":{"bus":"yes","highway":"bus_stop","network":"Transporte Público Urbano Trujillo","public_transport":"platform","ref":"PH-130","source":"Gerencia de Transporte Metropolitano de Trujillo","id":13546545537},"geometry":{"type":"Point","coordinates":[-79.0649224,-8.0229559]}},{"type":"Feature","properties":{"bus":"yes","highway":"bus_stop","network":"Transporte Público Urbano Trujillo","public_transport":"platform","ref":"PH-129","source":"Gerencia de Transporte Metropolitano de Trujillo","id":13546545538},"geometry":{"type":"Point","coordinates":[-79.0661336,-8.019158]}},{"type":"Feature","properties":{"bus":"yes","highway":"bus_stop","network":"Transporte Público Urbano Trujillo","public_transport":"platform","ref":"PH-128","source":"Gerencia de Transporte Metropolitano de Trujillo","id":13546546284},"geometry":{"type":"Point","coordinates":[-79.0673739,-8.0155533]}},{"type":"Feature","properties":{"bus":"yes","highway":"bus_stop","network":"Transporte Público Urbano Trujillo","public_transport":"platform","ref":"PH-140","source":"Gerencia de Transporte Metropolitano de Trujillo","id":13546545534},"geometry":{"type":"Point","coordinates":[-79.0686155,-8.0117564]}},{"type":"Feature","properties":{"bus":"yes","highway":"bus_stop","network":"Transporte Público Urbano Trujillo","public_transport":"platform","ref":"PH-137","source":"Gerencia de Transporte Metropolitano de Trujillo","id":13546546279},"geometry":{"type":"Point","coordinates":[-79.0730719,-7.99765]}}]}