{"type":"FeatureCollection","features":[{"type":"Feature","properties":{"check_date":"2025-12-16","colour":"#cc3333","colour:text":"#FFFFFF","fee":"yes","from":"Cruce Vial S/N","hash":"12796","interval":"3","name":"Cruce Vial S/N → Avenida Cesar Vallejo","network":"Transporte Público Urbano Trujillo","opening_hours":"Mo-Su 05:00-23:00","operator":"VIRGEN DEL ARCO S.A.","public_transport:version":"2","ref":"C-18 P","route":"bus","survey:avg_speed:kmh":"20","to":"Avenida Cesar Vallejo","type":"route","id":19968352},"geometry":{"type":"LineString","coordinates":[[-78.9945168,-8.0505607],[-78.9947621,-8.051644],[-78.9950267,-8.052721],[-78.995482,-8.0526126],[-78.9959414,-8.052502],[-78.9960386,-8.0524591],[-78.996526,-8.0523232],[-78.9968145,-8.0533791],[-78.997024,-8.0541587],[-78.9972789,-8.0550971],[-78.9978007,-8.0549553],[-78.9981698,-8.0548487],[-78.9986047,-8.0547136],[-78.9990467,-8.0545848],[-78.9998336,-8.0543298],[-78.9999932,-8.0548639],[-79.000128,-8.0553205],[-79.0002691,-8.055807],[-79.0004044,-8.0562668],[-78.9992062,-8.0566365],[-78.9987355,-8.056787],[-78.9978592,-8.057068],[-78.9973804,-8.0572346],[-78.9976139,-8.0581083],[-78.9979011,-8.0585975],[-78.9975646,-8.0587961],[-78.9974039,-8.0590861],[-78.9971677,-8.0592047],[-78.9969892,-8.0592668],[-78.9966309,-8.0593915],[-78.9965303,-8.0595704],[-78.9964412,-8.0596409],[-78.9964642,-8.0596745],[-78.9964958,-8.0597349],[-78.9965218,-8.0597979],[-78.99654,-8.0598549],[-78.9965642,-8.0599095],[-78.9965943,-8.0599613],[-78.9966332,-8.0600137],[-78.9966782,-8.0600613],[-78.9967284,-8.0601033],[-78.9967833,-8.0601392],[-78.9969651,-8.0602925],[-78.9972423,-8.0607597],[-78.9975033,-8.0612044],[-78.9977618,-8.0617206],[-78.9979783,-8.0621735],[-78.9973099,-8.062669],[-78.9966447,-8.063125],[-78.9966715,-8.0632777],[-78.9962335,-8.0634456],[-78.9957434,-8.0636206],[-78.995579,-8.0636793],[-78.995162,-8.0638426],[-78.9948135,-8.0639944],[-78.9947415,-8.0640153],[-78.994297,-8.0641882],[-78.9941414,-8.064239],[-78.9938445,-8.0643559],[-78.9939348,-8.0646087],[-78.9940414,-8.0648973],[-78.9945121,-8.0647463],[-78.9949488,-8.064609],[-78.9950189,-8.0645826],[-78.9952817,-8.0653539],[-78.9957146,-8.0663588],[-78.9960498,-8.0672689],[-78.996552,-8.0685517],[-78.9968938,-8.0694592],[-78.9971447,-8.0700898],[-78.997296,-8.0705003],[-78.9976112,-8.0715356],[-78.9979305,-8.0725518],[-78.9982828,-8.073686],[-78.9985716,-8.0746861],[-78.9988906,-8.0757445],[-78.9994131,-8.0774585],[-78.9995155,-8.0778168],[-78.9996135,-8.0781277],[-78.999815,-8.0787437],[-79.0000087,-8.0793966],[-79.0001912,-8.0799984],[-79.0005364,-8.0811283],[-79.0008815,-8.0822634],[-79.001178,-8.0833298],[-79.0022892,-8.0830363],[-79.003015,-8.0828227],[-79.003104,-8.0840386],[-79.003191,-8.085226],[-79.0036831,-8.0850942],[-79.0042096,-8.0849438],[-79.0042667,-8.0849295],[-79.0043786,-8.0855426],[-79.0044614,-8.0859982],[-79.0044692,-8.0860485],[-79.004539,-8.0863668],[-79.0045424,-8.0864663],[-79.0046355,-8.0867259],[-79.0047007,-8.0869899],[-79.0047671,-8.0872114],[-79.004859,-8.0874391],[-79.0049374,-8.0875602],[-79.005316,-8.0881447],[-79.0058285,-8.088936],[-79.0062992,-8.0896671],[-79.0063648,-8.0897641],[-79.0064195,-8.0898485],[-79.0067069,-8.0902923],[-79.0070201,-8.0907759],[-79.0070959,-8.0908929],[-79.0076416,-8.0917354],[-79.0082697,-8.0927053],[-79.0089143,-8.0937007],[-79.0091549,-8.0940722],[-79.0097722,-8.0950253],[-79.0099589,-8.0953135],[-79.0103791,-8.0959542],[-79.0109315,-8.0968047],[-79.0113972,-8.0964901],[-79.0115014,-8.0964198],[-79.0115653,-8.0965728],[-79.0118678,-8.0970426],[-79.0120905,-8.0974103],[-79.0123036,-8.0976514],[-79.012603,-8.0978991],[-79.0132545,-8.0984541],[-79.0136101,-8.0988172],[-79.0140853,-8.0993954],[-79.0141641,-8.0994701],[-79.014577,-8.0998631],[-79.0149133,-8.1001876],[-79.0156588,-8.1008993],[-79.0163864,-8.1015956],[-79.0171963,-8.1023702],[-79.017826,-8.1029724],[-79.0183526,-8.1034762],[-79.0188132,-8.1039165],[-79.0196086,-8.1046776],[-79.0200568,-8.1051059],[-79.0204242,-8.1054574],[-79.0207707,-8.1057879],[-79.0209818,-8.1059892],[-79.0212123,-8.1061998],[-79.0215926,-8.1065525],[-79.0220077,-8.1069277],[-79.0222647,-8.1071579],[-79.0223178,-8.1072057],[-79.0220124,-8.1079131],[-79.0218524,-8.1083296],[-79.0216256,-8.1090143],[-79.0216206,-8.1090345],[-79.0216185,-8.1090657],[-79.0214989,-8.109053],[-79.0214118,-8.109047],[-79.0213381,-8.1090478],[-79.0212746,-8.109055],[-79.0212065,-8.1090821],[-79.0211384,-8.1091345],[-79.0201818,-8.1100737],[-79.0201241,-8.1101507],[-79.0200726,-8.1102805],[-79.0200446,-8.1104662],[-79.0200331,-8.1106281],[-79.0200069,-8.1107364],[-79.0199703,-8.110819],[-79.0199259,-8.1109042],[-79.0189475,-8.1117417],[-79.0188813,-8.1118006],[-79.0181953,-8.1123937],[-79.0177625,-8.1127645],[-79.0173382,-8.1131285],[-79.0162444,-8.1140514],[-79.0160741,-8.1141891],[-79.0157941,-8.114414],[-79.0152362,-8.1148309],[-79.0155067,-8.1151895],[-79.0159535,-8.1157663],[-79.0161848,-8.1160762],[-79.0165503,-8.1165661],[-79.0168995,-8.117034],[-79.0186634,-8.1190968],[-79.01895,-8.1194212],[-79.0191968,-8.1196903],[-79.0192752,-8.1197673],[-79.0193418,-8.1198343],[-79.0199355,-8.1204321],[-79.0202652,-8.1207691],[-79.0209763,-8.1214582],[-79.0210503,-8.1215299],[-79.021413,-8.1218878],[-79.0217086,-8.1221559],[-79.0217629,-8.1221922],[-79.0218157,-8.1222275],[-79.0223189,-8.1226887],[-79.0226813,-8.1230094],[-79.0227001,-8.1230243],[-79.0227588,-8.1230526],[-79.0228321,-8.1230652],[-79.0229815,-8.1230626],[-79.0230917,-8.123039],[-79.0232045,-8.123036],[-79.0233225,-8.1230557],[-79.0234343,-8.123098],[-79.0235355,-8.1231613],[-79.0236356,-8.1232592],[-79.02371,-8.1233774],[-79.0237547,-8.1235095],[-79.0237673,-8.1236482],[-79.0237545,-8.123736],[-79.0237472,-8.123786],[-79.0237661,-8.1238549],[-79.0237841,-8.1238946],[-79.0238139,-8.1239298],[-79.0238764,-8.1239826],[-79.0243998,-8.1243532],[-79.0244692,-8.1244023],[-79.0254499,-8.125075],[-79.0256342,-8.1251722],[-79.0263585,-8.125555],[-79.0267907,-8.1257306],[-79.0272936,-8.1259085],[-79.028355,-8.1262453],[-79.0288238,-8.1263573],[-79.0293562,-8.1264569],[-79.0298906,-8.1265298],[-79.0299698,-8.1265405],[-79.0300834,-8.1264966],[-79.0301653,-8.1264445],[-79.0302077,-8.1264164]],"nodes":[4749755305,4749755310,4749755315,4749755314,4749755313,4749743801,4749743800,4749743803,4749743808,4749743814,4749743813,4749743812,4749743811,4749743810,3133822675,3133827217,3133822712,10948398510,3157970486,3133822717,10948398514,4749820337,4749820340,10948398518,4749820349,13511280865,9898343681,9898343679,13511280867,9898343678,9898343677,9898343676,8167854019,8167854018,8167854025,8167854020,8167854021,8167854026,8167854022,8167854023,8167854024,8167854031,8167854028,8167854036,8167854040,8167841439,5481049967,4749681623,1098595975,5480722116,5480722115,5480747712,5480722114,5480722113,8098058325,5480722112,5480722117,5040080684,5480722109,13381666201,5480722110,5480722118,5456072883,8098058328,8098058329,8098058330,8098058334,8098058335,8098058336,10733820107,1098588275,1098633300,1098594714,1098594995,1098600715,1098626795,1098616551,5457466225,11027852594,5432246032,5432246031,1098645032,1098632773,1098622291,1098612090,5457466327,5457466329,5432245217,5456051646,5457486707,5481275476,5456051647,5457486700,5457486717,8167978447,5481275480,7668139444,5457488572,5457486692,11028255419,5089580862,1098584049,1098644084,5089580884,13596045293,1145579872,1098594803,1098594884,11028542916,1098593161,1098614707,1098645592,1098598814,1098587565,5079385441,11030663215,5098830430,5079385440,1050964097,1050964121,5432184396,5098743754,1050964104,1050964086,5098743746,1050964101,1050964085,4452550921,4452550922,1098601537,1051000245,1098620120,1088227476,1098585235,1098641105,1098641400,1088227388,1098647854,1098635414,1098584127,11037521002,11037529610,5478475745,5476546741,1050964088,5582931366,2573525834,1098584465,316488730,316264094,12952375186,11016684335,2589631589,1015347785,1015347787,2589631587,1015347788,1015347789,1015347796,1098636866,1015347797,1015347798,1015347800,1015347801,5081860235,1015347802,1015347803,1026647781,10726871717,2604839550,1015347805,1098595613,5070217724,1098585524,1015347808,11037619758,1015292423,1098595328,316488151,316265117,316265116,1098612124,1098632182,2604839551,8089024592,1098589459,320114996,13084463950,1098613378,1098594789,3670684735,13084463978,1088227350,3670684731,12566648339,316265389,3670684729,3670684728,316254431,2591061029,288406889,2591061030,3670684743,316254433,316254504,316254434,2591061031,2591061032,13513627511,316254505,3670684008,12566648338,3670684007,12566648341,12433537360,3670684001,3670684003,3670684002,1098599784,2892557353,316256470,316256471,2892557352,2482796388,8234359405,5455991385,1098595710,13086967440,13381664564]},"gtfs":{"agency_id":23,"route_id":47,"services":[{"service_id":"Mo-Su","startTime":"05:00","endTime":"23:00","trip_id":19968352}],"filteredStops":{"nodes":[4749755305,13546545415,13546545416,13546546205,13546545457,13546546203,13546545417,13546535085,13546545892,13546545975,13546535097,13546535098,13546545902,13546535099,13546545905,13546545992,13546545192,13546545193,13546545194,13546546052,13546545238,13546545240,13546545236,13546545242,13381664564],"coordinates":[[-78.9945168,-8.0505607],[-78.9951616,-8.0649188],[-78.9962666,-8.0677646],[-78.9973603,-8.0706249],[-78.9980621,-8.0729311],[-79.0000633,-8.0794839],[-79.0030905,-8.0834573],[-79.0073898,-8.0912732],[-79.0093869,-8.0943558],[-79.0112576,-8.0965246],[-79.0123873,-8.097709],[-79.0153155,-8.1005072],[-79.0172927,-8.1024055],[-79.0192891,-8.10432],[-79.0213409,-8.1062577],[-79.0211224,-8.1092367],[-79.0194385,-8.1113857],[-79.0171934,-8.1132771],[-79.0155223,-8.1146689],[-79.0164741,-8.1163827],[-79.0185796,-8.1189281],[-79.0207234,-8.1211598],[-79.0224917,-8.122792],[-79.0246528,-8.1244858],[-79.0302077,-8.1264164]]},"forcedEndpointStops":[{"stop_id":4749755305,"stop_name":"Sin nombre","position":"first"},{"stop_id":13381664564,"stop_name":"Sin nombre","position":"last"}]}},{"type":"Feature","properties":{"bus":"yes","highway":"bus_stop","name":"PP-77","network":"Transporte Público Urbano Trujillo","public_transport":"platform","ref":"PP-77","source":"Gerencia de Transporte Metropolitano de Trujillo","id":13546545415},"geometry":{"type":"Point","coordinates":[-78.9951616,-8.0649188]}},{"type":"Feature","properties":{"bus":"yes","highway":"bus_stop","name":"PP-74","network":"Transporte Público Urbano Trujillo","public_transport":"platform","ref":"PP-74","source":"Gerencia de Transporte Metropolitano de Trujillo","id":13546545416},"geometry":{"type":"Point","coordinates":[-78.9962666,-8.0677646]}},{"type":"Feature","properties":{"bus":"yes","highway":"bus_stop","name":"PP-75","network":"Transporte Público Urbano Trujillo","public_transport":"platform","ref":"PP-75","source":"Gerencia de Transporte Metropolitano de Trujillo","id":13546546205},"geometry":{"type":"Point","coordinates":[-78.9973603,-8.0706249]}},{"type":"Feature","properties":{"bus":"yes","highway":"bus_stop","name":"PP-172","network":"Transporte Público Urbano Trujillo","public_transport":"platform","ref":"PP-172","source":"Gerencia de Transporte Metropolitano de Trujillo","id":13546545457},"geometry":{"type":"Point","coordinates":[-78.9980621,-8.0729311]}},{"type":"Feature","properties":{"bus":"yes","highway":"bus_stop","name":"PP-90","network":"Transporte Público Urbano Trujillo","public_transport":"platform","ref":"PP-90","source":"Gerencia de Transporte Metropolitano de Trujillo","id":13546546203},"geometry":{"type":"Point","coordinates":[-79.0000633,-8.0794839]}},{"type":"Feature","properties":{"bus":"yes","highway":"bus_stop","name":"PP-72","network":"Transporte Público Urbano Trujillo","public_transport":"platform","ref":"PP-72","source":"Gerencia de Transporte Metropolitano de Trujillo","id":13546545417},"geometry":{"type":"Point","coordinates":[-79.0030905,-8.0834573]}},{"type":"Feature","properties":{"bus":"yes","highway":"bus_stop","name":"PLUN-293","network":"Transporte Público Urbano Trujillo","public_transport":"platform","ref":"PLUN-293","source":"Gerencia de Transporte Metropolitano de Trujillo","id":13546535085},"geometry":{"type":"Point","coordinates":[-79.0073898,-8.0912732]}},{"type":"Feature","properties":{"bus":"yes","highway":"bus_stop","name":"PLUN-290","network":"Transporte Público Urbano Trujillo","public_transport":"platform","ref":"PLUN-290","source":"Gerencia de Transporte Metropolitano de Trujillo","id":13546545892},"geometry":{"type":"Point","coordinates":[-79.0093869,-8.0943558]}},{"type":"Feature","properties":{"bus":"yes","highway":"bus_stop","name":"FEVI-225","network":"Transporte Público Urbano Trujillo","public_transport":"platform","ref":"FEVI-225","source":"Gerencia de Transporte Metropolitano de Trujillo","id":13546545975},"geometry":{"type":"Point","coordinates":[-79.0112576,-8.0965246]}},{"type":"Feature","properties":{"bus":"yes","highway":"bus_stop","name":"PE-246","network":"Transporte Público Urbano Trujillo","public_transport":"platform","ref":"PE-246","source":"Gerencia de Transporte Metropolitano de Trujillo","id":13546535097},"geometry":{"type":"Point","coordinates":[-79.0123873,-8.097709]}},{"type":"Feature","properties":{"bus":"yes","highway":"bus_stop","name":"PE-244","network":"Transporte Público Urbano Trujillo","public_transport":"platform","ref":"PE-244","source":"Gerencia de Transporte Metropolitano de Trujillo","id":13546535098},"geometry":{"type":"Point","coordinates":[-79.0153155,-8.1005072]}},{"type":"Feature","properties":{"bus":"yes","highway":"bus_stop","name":"PE-242","network":"Transporte Público Urbano Trujillo","public_transport":"platform","ref":"PE-242","source":"Gerencia de Transporte Metropolitano de Trujillo","id":13546545902},"geometry":{"type":"Point","coordinates":[-79.0172927,-8.1024055]}},{"type":"Feature","properties":{"bus":"yes","highway":"bus_stop","name":"PE-240","network":"Transporte Público Urbano Trujillo","public_transport":"platform","ref":"PE-240","source":"Gerencia de Transporte Metropolitano de Trujillo","id":13546535099},"geometry":{"type":"Point","coordinates":[-79.0192891,-8.10432]}},{"type":"Feature","properties":{"bus":"yes","highway":"bus_stop","name":"PE-238","network":"Transporte Público Urbano Trujillo","public_transport":"platform","ref":"PE-238","source":"Gerencia de Transporte Metropolitano de Trujillo","id":13546545905},"geometry":{"type":"Point","coordinates":[-79.0213409,-8.1062577]}},{"type":"Feature","properties":{"bus":"yes","highway":"bus_stop","name":"EGR-265","network":"Transporte Público Urbano Trujillo","public_transport":"platform","ref":"EGR-265","source":"Gerencia de Transporte Metropolitano de Trujillo","id":13546545992},"geometry":{"type":"Point","coordinates":[-79.0211224,-8.1092367]}},{"type":"Feature","properties":{"bus":"yes","highway":"bus_stop","name":"EGR-263","network":"Transporte Público Urbano Trujillo","public_transport":"platform","ref":"EGR-263","source":"Gerencia de Transporte Metropolitano de Trujillo","id":13546545192},"geometry":{"type":"Point","coordinates":[-79.0194385,-8.1113857]}},{"type":"Feature","properties":{"bus":"yes","highway":"bus_stop","name":"EGR-262","network":"Transporte Público Urbano Trujillo","public_transport":"platform","ref":"EGR-262","source":"Gerencia de Transporte Metropolitano de Trujillo","id":13546545193},"geometry":{"type":"Point","coordinates":[-79.0171934,-8.1132771]}},{"type":"Feature","properties":{"bus":"yes","highway":"bus_stop","name":"EGR-260","network":"Transporte Público Urbano Trujillo","public_transport":"platform","ref":"EGR-260","source":"Gerencia de Transporte Metropolitano de Trujillo","id":13546545194},"geometry":{"type":"Point","coordinates":[-79.0155223,-8.1146689]}},{"type":"Feature","properties":{"bus":"yes","highway":"bus_stop","name":"AMS-40","network":"Transporte Público Urbano Trujillo","public_transport":"platform","ref":"AMS-40","source":"Gerencia de Transporte Metropolitano de Trujillo","id":13546546052},"geometry":{"type":"Point","coordinates":[-79.0164741,-8.1163827]}},{"type":"Feature","properties":{"bus":"yes","highway":"bus_stop","name":"AMS-55","network":"Transporte Público Urbano Trujillo","public_transport":"platform","ref":"AMS-55","source":"Gerencia de Transporte Metropolitano de Trujillo","id":13546545238},"geometry":{"type":"Point","coordinates":[-79.0185796,-8.1189281]}},{"type":"Feature","properties":{"bus":"yes","highway":"bus_stop","name":"AMS-53","network":"Transporte Público Urbano Trujillo","public_transport":"platform","ref":"AMS-53","source":"Gerencia de Transporte Metropolitano de Trujillo","id":13546545240},"geometry":{"type":"Point","coordinates":[-79.0207234,-8.1211598]}},{"type":"Feature","properties":{"bus":"yes","highway":"bus_stop","name":"AMS-57","network":"Transporte Público Urbano Trujillo","public_transport":"platform","ref":"AMS-57","source":"Gerencia de Transporte Metropolitano de Trujillo","id":13546545236},"geometry":{"type":"Point","coordinates":[-79.0224917,-8.122792]}},{"type":"Feature","properties":{"bus":"yes","highway":"bus_stop","name":"AMS-37","network":"Transporte Público Urbano Trujillo","public_transport":"platform","ref":"AMS-37","source":"Gerencia de Transporte Metropolitano de Trujillo","id":13546545242},"geometry":{"type":"Point","coordinates":[-79.0246528,-8.1244858]}}]}