{"type":"FeatureCollection","features":[{"type":"Feature","properties":{"check_date":"2025-12-12","colour":"#009900","colour:text":"#FFFFFF","fee":"yes","from":"Avenida Libertad","hash":"15119","interval":"3","name":"Avenida Libertad → Calle Virgen de la Puerta","network":"Transporte Público Urbano Trujillo","opening_hours":"Mo-Su 05:00-23:00","operator":"NUEVO CALIFORNIA S.A.","public_transport:version":"2","ref":"M-36 LV","route":"bus","survey:avg_speed:kmh":"18","to":"Calle Virgen de la Puerta","type":"route","id":19961958},"geometry":{"type":"LineString","coordinates":[[-79.0572438,-8.1385973],[-79.057299,-8.1385614],[-79.057649,-8.1390309],[-79.0579289,-8.1393766],[-79.0582068,-8.1397289],[-79.0585535,-8.1401616],[-79.0584937,-8.1402068],[-79.0581879,-8.1404382],[-79.0578132,-8.1406992],[-79.057468,-8.1409576],[-79.0569657,-8.1413584],[-79.0566639,-8.141591],[-79.0561838,-8.1419388],[-79.0558337,-8.1422191],[-79.0555456,-8.1424369],[-79.055163,-8.1427033],[-79.0547783,-8.1429777],[-79.0546698,-8.1430645],[-79.054148,-8.1424778],[-79.0537143,-8.1428726],[-79.0533545,-8.1431896],[-79.0529877,-8.1435081],[-79.0522236,-8.1441759],[-79.0519719,-8.1443876],[-79.051545,-8.1447623],[-79.0512686,-8.1449876],[-79.0507936,-8.1453893],[-79.0507061,-8.1453913],[-79.0506466,-8.1453244],[-79.0499075,-8.1443797],[-79.0498664,-8.1442991],[-79.049682,-8.1439794],[-79.0493032,-8.1435325],[-79.0492352,-8.1434523],[-79.0487194,-8.1428523],[-79.0478485,-8.1418522],[-79.0468662,-8.1407255],[-79.046312,-8.1400846],[-79.0458306,-8.139534],[-79.0450505,-8.1386491],[-79.0447663,-8.1383077],[-79.0446671,-8.1381884],[-79.0441871,-8.1376403],[-79.0437451,-8.1371288],[-79.0433341,-8.1366539],[-79.0431784,-8.1364729],[-79.0427061,-8.1359052],[-79.0424937,-8.135964],[-79.0419235,-8.1361058],[-79.0418417,-8.1361147],[-79.0414147,-8.1361702],[-79.0410434,-8.1362738],[-79.0404559,-8.136506],[-79.0393048,-8.137004],[-79.0389247,-8.137166],[-79.0383026,-8.1374218],[-79.0378535,-8.1376065],[-79.0377274,-8.1376461],[-79.0376807,-8.1375746],[-79.0375855,-8.1374346],[-79.0375024,-8.1372668],[-79.0374407,-8.1370281],[-79.0373976,-8.1368612],[-79.0370948,-8.1357206],[-79.0370748,-8.1356672],[-79.0370609,-8.1356302],[-79.0370188,-8.1355478],[-79.0369514,-8.1354639],[-79.0367413,-8.135263],[-79.036682,-8.1352076],[-79.0366348,-8.1351635],[-79.036585,-8.135117],[-79.0365072,-8.1350389],[-79.0364741,-8.1350021],[-79.0361336,-8.1346237],[-79.036066,-8.1345424],[-79.0356959,-8.1341252],[-79.0354072,-8.1337715],[-79.0350949,-8.1334225],[-79.0347908,-8.1330769],[-79.0336459,-8.1317665],[-79.0335786,-8.1316825],[-79.0334353,-8.131521],[-79.0333411,-8.1314119],[-79.0329775,-8.131],[-79.0325901,-8.1305611],[-79.0325258,-8.1304852],[-79.0324392,-8.1303831],[-79.0323073,-8.1302408],[-79.0320215,-8.1299147],[-79.030873,-8.1284725],[-79.030587,-8.1281101],[-79.0304174,-8.1278805],[-79.0303286,-8.127691],[-79.0302664,-8.1274747],[-79.0302541,-8.1273557],[-79.0302541,-8.1271147],[-79.0303076,-8.1267914],[-79.0303135,-8.1267253],[-79.030328,-8.1265827],[-79.0304145,-8.126594],[-79.030474,-8.1265955],[-79.0305805,-8.1266029],[-79.0308824,-8.1266308],[-79.0312798,-8.1266427],[-79.0313489,-8.1266446],[-79.0314248,-8.126643],[-79.0316427,-8.1266384],[-79.0317584,-8.1266359],[-79.0318475,-8.126634],[-79.0324224,-8.1265738],[-79.0325012,-8.1265655],[-79.0325606,-8.1265526],[-79.0332446,-8.1264037],[-79.0336719,-8.1262955],[-79.0338764,-8.12625],[-79.0341083,-8.1261869],[-79.0347331,-8.1260008],[-79.0351652,-8.125843],[-79.0355916,-8.1256858],[-79.0356561,-8.1256593],[-79.0357152,-8.1256383],[-79.0372369,-8.1250281],[-79.0378356,-8.1247981],[-79.038187,-8.1246547],[-79.038264,-8.1246035],[-79.0383142,-8.1245389],[-79.038367,-8.1244667],[-79.0384302,-8.1244166],[-79.0384371,-8.1243765],[-79.038463,-8.124313],[-79.0384966,-8.1242677],[-79.038536,-8.1242334],[-79.0385888,-8.1242048],[-79.0386493,-8.1241891],[-79.038706,-8.124188],[-79.0387441,-8.1241943],[-79.038839,-8.1241058],[-79.0388887,-8.1240425],[-79.0389283,-8.1239512],[-79.03901,-8.1237057],[-79.0391151,-8.1233596],[-79.0395046,-8.1220377],[-79.0397143,-8.1213809],[-79.0399342,-8.1207167],[-79.0401837,-8.1199897],[-79.0401905,-8.1197994],[-79.0401213,-8.1197281],[-79.0400755,-8.1196403],[-79.0400607,-8.1195678],[-79.0400667,-8.1194449],[-79.0401045,-8.1193534],[-79.0401777,-8.1192669],[-79.0402752,-8.1192085],[-79.0403922,-8.1191843],[-79.0405106,-8.1192008],[-79.0406163,-8.1192561],[-79.0412019,-8.1187878],[-79.0424775,-8.1177143],[-79.0426881,-8.1175307],[-79.0432527,-8.1170551],[-79.0433525,-8.1169709],[-79.0434987,-8.1168509],[-79.0440273,-8.116416],[-79.0441168,-8.11634],[-79.0451866,-8.1153902],[-79.0463552,-8.1143893],[-79.0464054,-8.1143499],[-79.0464397,-8.1143176],[-79.0467557,-8.1140509],[-79.04723,-8.1136107],[-79.0474155,-8.1133926],[-79.0476155,-8.1131037],[-79.0476312,-8.1130703],[-79.0477494,-8.1128195],[-79.0478473,-8.1125669],[-79.0479157,-8.1123182],[-79.047931,-8.112205],[-79.0479632,-8.111893],[-79.0479552,-8.1115398],[-79.0479002,-8.1112252],[-79.0477809,-8.1107841],[-79.0476628,-8.1103449],[-79.0474402,-8.1095204],[-79.0472002,-8.1086312],[-79.047075,-8.1081736],[-79.0467005,-8.1068235],[-79.0466751,-8.1067146],[-79.0466202,-8.1065016],[-79.0464931,-8.1060085],[-79.0460792,-8.1044623],[-79.0460564,-8.1043807],[-79.0459657,-8.104053],[-79.0459132,-8.1038825],[-79.0458411,-8.1037223],[-79.0457611,-8.1035747],[-79.0457033,-8.1034956],[-79.045187,-8.1028689],[-79.0451014,-8.1027606],[-79.0448032,-8.1023861],[-79.0446103,-8.102134],[-79.0445693,-8.1020676],[-79.0445398,-8.1020002],[-79.0443739,-8.1014935],[-79.0437825,-8.1016247],[-79.0433215,-8.101727],[-79.0429163,-8.1018169],[-79.0422055,-8.1019746],[-79.0417087,-8.10206],[-79.0415762,-8.1020864],[-79.0413616,-8.1021367],[-79.0411635,-8.1021871],[-79.041065,-8.1022187],[-79.0406388,-8.1023554],[-79.0395627,-8.1027305],[-79.0394122,-8.102805],[-79.0388679,-8.1030928],[-79.0382654,-8.1034053],[-79.0379433,-8.10357],[-79.037563,-8.1037699],[-79.0369493,-8.1040795],[-79.0369787,-8.1041495],[-79.0368396,-8.1042254],[-79.0367014,-8.1043007],[-79.0363244,-8.1045064],[-79.0358117,-8.104786],[-79.0357479,-8.1048306],[-79.0356973,-8.1048961],[-79.0356934,-8.104972],[-79.0357223,-8.1050351],[-79.0357485,-8.1050922],[-79.0358273,-8.1052641],[-79.036067,-8.1057871],[-79.0360628,-8.1059386],[-79.0360093,-8.1060806],[-79.0359121,-8.1061977],[-79.0357432,-8.1062661],[-79.0350196,-8.1065542],[-79.0348029,-8.1066426],[-79.0346315,-8.1062338],[-79.034577,-8.106088],[-79.0344286,-8.1057476],[-79.034357,-8.1056272],[-79.0341,-8.1051369],[-79.0340465,-8.105045],[-79.033676,-8.1043483],[-79.0335809,-8.1041736],[-79.0334656,-8.1039459],[-79.0333407,-8.1037136],[-79.0329633,-8.1030211],[-79.0323119,-8.1033797],[-79.032176,-8.1034608],[-79.0319955,-8.103592],[-79.0316917,-8.1038627],[-79.0315993,-8.1039479],[-79.0315043,-8.1040276],[-79.0314491,-8.1040796],[-79.0312897,-8.1042196],[-79.0308953,-8.1045661],[-79.0307102,-8.1047298],[-79.0305189,-8.104899],[-79.0304199,-8.1049865],[-79.0303488,-8.1050494],[-79.0302807,-8.1051096],[-79.0302018,-8.1051818],[-79.0295367,-8.105815],[-79.0294939,-8.1058546],[-79.0294266,-8.1059207],[-79.029162,-8.1061833],[-79.0291237,-8.1062215],[-79.029054,-8.1062911],[-79.0290012,-8.1063452],[-79.0289329,-8.1062946],[-79.0288178,-8.1062442],[-79.0276528,-8.105793],[-79.0264143,-8.1052797],[-79.0263452,-8.1052471],[-79.0262985,-8.1052333],[-79.0262549,-8.1052344],[-79.0256988,-8.1053386],[-79.0256573,-8.1053476],[-79.0255672,-8.1053672],[-79.0255188,-8.1053011],[-79.0254751,-8.1052397],[-79.0253438,-8.1050722],[-79.0253274,-8.1050522],[-79.0247505,-8.1043546],[-79.0243689,-8.1038931],[-79.0242897,-8.1037973],[-79.0238307,-8.10322],[-79.0234782,-8.1036541],[-79.0233064,-8.1038659],[-79.0231329,-8.1040795],[-79.0230189,-8.1042198],[-79.0226939,-8.1048776],[-79.0225275,-8.1053827],[-79.0224401,-8.1057296],[-79.022375,-8.1059846],[-79.0223401,-8.1061357],[-79.0221407,-8.1059376],[-79.0219747,-8.1057621],[-79.0218001,-8.1055776],[-79.0215638,-8.1053088],[-79.0210953,-8.1047758],[-79.0207918,-8.1044306],[-79.0204394,-8.1040297],[-79.019701,-8.103149],[-79.0192946,-8.1025315],[-79.019025,-8.102128],[-79.018954,-8.1020598],[-79.0187438,-8.1018579],[-79.0182168,-8.1013517],[-79.0180677,-8.1011933],[-79.0174009,-8.1004853],[-79.0172467,-8.1002265],[-79.0169946,-8.0995992],[-79.0167316,-8.0989132],[-79.0162881,-8.0976544],[-79.0162565,-8.0975504],[-79.016003,-8.0967911],[-79.015943,-8.096628],[-79.0156579,-8.0958071],[-79.0152722,-8.0947979],[-79.0150811,-8.0942699],[-79.0150384,-8.094128],[-79.0149425,-8.0939083],[-79.0147708,-8.093515],[-79.0140877,-8.0922298],[-79.0138706,-8.0918222],[-79.0137867,-8.0916603],[-79.0135709,-8.0912664],[-79.0133512,-8.0908686],[-79.0128941,-8.089975],[-79.0123327,-8.0889969],[-79.0122759,-8.0890282],[-79.0114778,-8.0894687],[-79.011039,-8.0897109],[-79.0109736,-8.0895814],[-79.010783,-8.0892042],[-79.0105549,-8.0887372],[-79.0095908,-8.0892778],[-79.0093217,-8.089441],[-79.0091797,-8.0895336],[-79.0085902,-8.0899182],[-79.0085244,-8.0899611],[-79.0082079,-8.0901675],[-79.0078464,-8.0904033],[-79.0074753,-8.0906454],[-79.0072014,-8.0908241],[-79.0070959,-8.0908929],[-79.0069971,-8.0909613],[-79.0063114,-8.0899131],[-79.0062521,-8.0898224],[-79.0057185,-8.0890069],[-79.0052807,-8.0883376],[-79.0052032,-8.0882192],[-79.0047348,-8.0875032],[-79.0046704,-8.0874018],[-79.0045939,-8.0873061],[-79.0044001,-8.0871429],[-79.0041399,-8.08699],[-79.0038554,-8.0868652],[-79.0035261,-8.0867887],[-79.0032608,-8.086761],[-79.0030093,-8.0867775],[-79.0027528,-8.0868069],[-79.0024763,-8.0868654],[-79.0022288,-8.0869234],[-79.002148,-8.086945],[-79.0010137,-8.0872648],[-78.9992784,-8.0877561],[-78.999141,-8.0877949],[-78.9987199,-8.087913],[-78.9975572,-8.0882191],[-78.9964306,-8.0885377],[-78.9952503,-8.0888539],[-78.9949241,-8.088941],[-78.9946667,-8.0890101],[-78.9945615,-8.0890301],[-78.9944136,-8.0890583],[-78.9942587,-8.0890742],[-78.9941045,-8.0890814],[-78.993898,-8.0890828],[-78.9936613,-8.0890575],[-78.9934614,-8.0890151],[-78.9932421,-8.088954],[-78.9930544,-8.0888889],[-78.9929129,-8.0888305],[-78.9927272,-8.0887462],[-78.9925394,-8.088644],[-78.9923235,-8.0885006],[-78.9921559,-8.0883684],[-78.9920491,-8.0882666],[-78.9917218,-8.0879132],[-78.9915142,-8.0876521],[-78.9914374,-8.0875431],[-78.9912272,-8.087208],[-78.9909415,-8.0867042],[-78.9908288,-8.0865056],[-78.9907312,-8.0863416],[-78.9903179,-8.0856704],[-78.9902131,-8.0855303],[-78.9901033,-8.0853836],[-78.989878,-8.0851951],[-78.9896192,-8.0850397],[-78.9892718,-8.084891],[-78.9888735,-8.0847941],[-78.988557,-8.0847689],[-78.9883505,-8.0847821],[-78.9880997,-8.0848339],[-78.9878477,-8.0849274],[-78.9871341,-8.0851924],[-78.9869583,-8.0852643],[-78.9847989,-8.0861594],[-78.9830236,-8.0868767],[-78.9827916,-8.0869816],[-78.9824893,-8.0871639],[-78.9823064,-8.0872874],[-78.9819103,-8.0876108],[-78.9815928,-8.0878759],[-78.9814251,-8.0880159],[-78.981245,-8.0881355],[-78.9811976,-8.088167],[-78.9810607,-8.0882382],[-78.9808711,-8.0882914],[-78.9806968,-8.0883366],[-78.9804044,-8.0884043],[-78.9785899,-8.0887893],[-78.97826,-8.0888571],[-78.9780401,-8.0889261],[-78.977737,-8.0890376],[-78.9772005,-8.0892793],[-78.9753981,-8.0901556],[-78.974246,-8.0907225],[-78.9738896,-8.0908837],[-78.973525,-8.0910029],[-78.9724865,-8.0913003],[-78.968152,-8.092456],[-78.9680298,-8.0924936],[-78.9679362,-8.0925283],[-78.9678327,-8.0925786],[-78.9677227,-8.0926396],[-78.967684,-8.092674],[-78.9676361,-8.092694],[-78.9675868,-8.0926976],[-78.9675388,-8.0926858],[-78.9674968,-8.0926598],[-78.967476,-8.092638],[-78.9674239,-8.0926538],[-78.9673595,-8.092673],[-78.9672884,-8.0926856],[-78.9672091,-8.0926934],[-78.9664219,-8.0927338],[-78.9655807,-8.0927379],[-78.9654699,-8.0927163],[-78.9653707,-8.0926754],[-78.9652717,-8.0926182],[-78.9652047,-8.0925675],[-78.9650876,-8.092422],[-78.9649986,-8.0922795],[-78.9643855,-8.090984],[-78.964285,-8.090764],[-78.9642797,-8.0906483],[-78.9640069,-8.0907652],[-78.9636537,-8.0909481],[-78.9634972,-8.0910312],[-78.9631653,-8.0911898],[-78.9629161,-8.0912376],[-78.961983,-8.0914846],[-78.9612557,-8.0916716],[-78.9609045,-8.0916913],[-78.9607246,-8.0916802],[-78.9605336,-8.0916685],[-78.9603326,-8.0915909],[-78.9602962,-8.0917152],[-78.9593855,-8.0915669],[-78.9587539,-8.0914544],[-78.9587139,-8.0914504],[-78.9581096,-8.0913899],[-78.9577859,-8.0913823],[-78.9570617,-8.0913647],[-78.9570782,-8.0910255],[-78.9566566,-8.0910155],[-78.9566998,-8.0899554],[-78.9567319,-8.0891669],[-78.9564993,-8.0890016],[-78.955286,-8.0881392],[-78.9550383,-8.0879672],[-78.9546008,-8.0877575],[-78.9546478,-8.0876486],[-78.9546481,-8.0868222],[-78.9546477,-8.0867007],[-78.9551125,-8.0867114],[-78.9554602,-8.086716],[-78.9555941,-8.0867169],[-78.9575191,-8.0867045],[-78.957513,-8.0864327],[-78.9575064,-8.0861374],[-78.9574233,-8.0859894],[-78.9572678,-8.0857128],[-78.9572041,-8.0856007],[-78.9569635,-8.0852062],[-78.9567494,-8.084855],[-78.9565246,-8.0844864],[-78.9563021,-8.0841129],[-78.9561331,-8.0838315],[-78.9558837,-8.0834836],[-78.9556691,-8.0830826],[-78.9554626,-8.0826444],[-78.9552641,-8.0822142],[-78.9543201,-8.0826325],[-78.9530677,-8.0831578],[-78.9523301,-8.0834672],[-78.9521334,-8.0830389],[-78.9519898,-8.0827262],[-78.9518076,-8.0823295],[-78.9516177,-8.0819159],[-78.9514288,-8.0815046],[-78.9512678,-8.0811262],[-78.9510846,-8.0807232],[-78.9508078,-8.0800918],[-78.9507351,-8.0799267],[-78.950699,-8.0798449],[-78.9487482,-8.0758371],[-78.9486869,-8.0757098],[-78.9481609,-8.0759067],[-78.9476731,-8.0760886],[-78.9472492,-8.0761775],[-78.9461264,-8.0764172],[-78.9459216,-8.0756749],[-78.946644,-8.0754609],[-78.9469774,-8.0753594]],"nodes":[11828708308,11828708309,3918770220,1098593680,1091301777,2481694306,5073743822,1098612116,1098627824,1098617808,1091301934,1098597568,1098589453,1098646138,1091301696,1098623396,1091301940,1091301920,11037813284,1091302000,1091301963,1091302023,1091301831,1098595454,1098584411,1091302029,1089222487,5073954125,1089222516,1015292532,1091301849,1091301993,11033310349,1088227256,5474051616,1098641473,1098629787,1098648201,1088227306,1098625461,10724559039,1098635581,5082064376,1098598706,5082089641,5082089642,1015292528,5436439933,1000411875,2600311951,1142679901,1098591919,13099199767,1015366179,5436439967,2600312022,1557312594,1557312597,2600312016,1557312588,1557312579,3015040226,1557312571,1557312570,11033461599,6195970405,1557312561,1557312543,1557312528,11033461596,13408573947,1098594502,316265237,13408573950,1098587844,1098645061,1098632798,1098633036,1098622408,1098583860,316265238,1189541544,9149936184,11033492880,9149936187,11033492877,11089249091,10726443464,3015067511,1098593049,1098598271,316265243,316265244,316265245,316265246,316265247,316265248,13086967438,320114884,320114882,12216693900,320114879,13086967421,1098622755,11086134231,1098600368,11086134233,7115416189,7115416190,1098584061,11086134238,1098606184,11086134236,1098627329,5421654649,1098588879,1098645742,1098584460,9515118512,320114979,12216751842,316490371,1098618341,5478671387,316256479,2602828334,2602828325,11033416911,3728336241,3728336240,3728336238,3728336237,316254452,3728336235,1554831521,316254453,3728336234,316256749,11033416912,2602828378,1098613726,316256750,1098584320,1015366172,1015366101,316256751,316256699,316256700,2610169704,1098650539,2610169705,316256701,316256690,11794208391,11794208392,316256693,360997591,1098583901,9099956837,5066749587,11030733093,11030733094,11090514814,2610202757,1098623742,1098613577,11030580730,5066876400,11030580728,360997588,360997585,360997582,360997580,7115393638,1142680114,1098640898,5066876380,360997577,360997575,360997571,1142679834,1098607662,1098598110,5066876364,1098646793,11030580726,1098624543,1272612868,11114527476,1098595529,1098583877,3392616026,11033515779,5066801033,360997562,3392616022,11037979588,11037604020,5478680397,11037604018,360997560,11037974907,360997559,2760772634,1098595788,1693595358,1693595362,1098599033,1098592849,11037604011,11037604010,1098636459,11037999554,1098626018,316491293,1098625617,5069337056,1098615175,3386747932,3743507184,1142680044,3386747931,10724078675,5478680206,5478680205,3743507186,3743507187,316491296,11033319452,3743507188,8763957262,2587893399,2587893400,2587893401,2587893402,2587893403,4633926908,4633926911,2587893404,1098599301,3386747943,2587893364,11016702906,1088384617,4633926906,1098648906,1098598947,1098596851,11016689399,316265162,1098644803,1028959874,1028959886,1098631315,1098610269,4633875114,5051774261,11037884383,1098635948,5051840801,5051774256,4633875085,4633874459,2557538236,2557538234,4633875092,1098598866,4633875094,4633875109,4633875096,316264055,316264086,1088227246,4633875101,316488274,316264088,11016646711,11016646710,316264089,9829891083,13368738226,316488510,316488509,9829891085,2573525827,11016646714,5037697942,5079310738,9218464776,2481283834,11114349385,11114349376,12023652480,1287009757,1287009853,1287009730,1098597685,4633930962,316489821,1098606892,11040217058,1098617860,1098627884,1098639136,1098584065,1098628533,1051000213,1098583871,1051000272,5483337198,5475283795,1098586441,5483337195,5079131743,11037703293,5483054125,1098628991,1098619287,1098607852,5432184380,5098557135,1098595542,1098602620,1098607308,1098618318,13208637621,1098602278,1098614032,1098624457,1098634697,5098526275,1098625079,1098635222,1098647281,10735865077,1098636868,5456051626,5481023259,5480862052,5480862051,1098639244,1098603550,1098614938,1098615371,1098595940,11028542911,5480862043,5480862042,11028542913,1098593161,5089580867,5089580868,5089580869,5089580885,11030259916,5089580870,5089580863,5089580871,5089580861,5456051640,5456051641,5456051642,5456051643,5457488567,5456051644,5456051645,5482905644,1098597551,5087152251,1098627268,1145579811,1145579843,5087298904,5087298903,5087298902,334656140,5432245209,5482905632,11032885362,5482905638,334656141,334656144,5482905631,5482905637,334656145,5482905630,5482905636,334656147,5482905629,334656148,334656149,1098606452,10735963177,11032885361,334656152,9472286037,334656155,11032445416,5481081511,11032445412,334656157,11032445414,334656158,334656159,334656161,334656162,334656163,334656164,5481081512,334656166,334656167,5481081513,11030882424,5481081514,5481081515,334656168,334656170,334656171,5481081516,11030882420,334656174,11030882421,334655247,5481081518,334655246,5481081517,334655244,334655243,5481081519,334655241,334655239,5481081520,5481083721,334655237,2604535790,334656845,334656844,2604535786,2604535865,11032782362,334656842,2604535845,2604535843,334656843,2604535861,2604535859,2604535841,3728291227,11032782357,11032782359,11032782358,334656965,334656964,334656961,2604535819,334656960,2604535822,334656959,2604535824,334656958,1438763595,11032938089,334656957,1169450404,1169450407,1169450412,334657480,1169450415,1169450379,334657479,334657478,6489471020,334657477,1169450380,1438763551,1438763562,1438763570,8272570686,1438763529,1195995556,1195995636,1195996224,1195996426,1195996192,1195995424,1195995815,334657474,334657472,1195995123,1195995382,1195994893,1195995971,1195995570,1189494659,1189494658,1188353012,8156274586,1189526059,11103027590,1723600979,1189509290,13478097039,13478097035,1195995358,1189509321,5491451773,1189509253,5491451774,5491451769,5491451766,5491451765,5491451756,5491451764,5491451761,8200836845,5491451749,5491451759,5491451739,5491451747,5491451745,334657878,13097396679,8449635410,8629918667,3749740953,3749740954,4743966728,3749740955,3749740956,4743966726,4743966725,4743966724]},"gtfs":{"agency_id":2,"route_id":12,"services":[{"service_id":"Mo-Su","startTime":"05:00","endTime":"23:00","trip_id":19961958}],"filteredStops":{"nodes":[11828708308,13546545397,13546545407,13546546199,13546546184,13546545399,13546546186,13546545907,13546545909,11910359976,13546546047,5067622117,13546546050,13546545260,13546545261,13546546061,13546546063,13546545262,13546545264,13546546065,13546545937,13546545139,13546545140,13546545249,13546545132,13546545931,13546545930,11895957224,13546545112,13546546066,13546546034,13546545874,13546535059,13546545890,13546535080,13546535084,13546545433,13546545434,13546546212,13546545367,13546546157,13546546160,13546546153,13546545369,13546546150,13546546130,13546545371,13546546167,13546546163,13546545374,13546546161,13546545368,13546545372,13546546164,13546545373,13546546172,4743966724],"coordinates":[[-79.0572438,-8.1385973],[-79.0545049,-8.1429608],[-79.0484424,-8.1427463],[-79.0461648,-8.1400331],[-79.0438407,-8.1373327],[-79.0400983,-8.1368126],[-79.035325,-8.1337548],[-79.0328825,-8.1309298],[-79.0301981,-8.1274259],[-79.0311411,-8.1265956],[-79.0342673,-8.1260536],[-79.0376674,-8.1247917],[-79.0390245,-8.1235198],[-79.0409936,-8.1188701],[-79.043097,-8.1171527],[-79.0462892,-8.1144262],[-79.047697,-8.1106633],[-79.0467982,-8.1072402],[-79.0461052,-8.1047663],[-79.0445116,-8.102012],[-79.0431964,-8.1018285],[-79.0398522,-8.1026501],[-79.0373475,-8.1039363],[-79.033823,-8.1047949],[-79.032495,-8.1033444],[-79.030599,-8.1049436],[-79.0293947,-8.1060629],[-79.0277112,-8.105858],[-79.0250005,-8.1046834],[-79.0225037,-8.1058026],[-79.0197008,-8.1033285],[-79.0183817,-8.1015623],[-79.017093,-8.099926],[-79.0138681,-8.0918551],[-79.0125645,-8.0895518],[-79.0050238,-8.0880252],[-79.0013315,-8.0871914],[-78.9981133,-8.0881309],[-78.9941117,-8.0891372],[-78.9910364,-8.0869308],[-78.9889824,-8.0849172],[-78.981161,-8.0881891],[-78.9784444,-8.0889783],[-78.9750568,-8.0903817],[-78.9681419,-8.0924901],[-78.9672582,-8.0927534],[-78.9647742,-8.0918651],[-78.9631954,-8.091179],[-78.9611012,-8.0916888],[-78.9566525,-8.0895382],[-78.9554197,-8.0882486],[-78.9553352,-8.0823828],[-78.9527258,-8.0833038],[-78.950695,-8.0798557],[-78.949614,-8.0777548],[-78.9482263,-8.0758886],[-78.9469774,-8.0753594]]},"forcedEndpointStops":[{"stop_id":11828708308,"stop_name":"Avenida Libertad","position":"first"},{"stop_id":4743966724,"stop_name":"Calle Virgen de la Puerta","position":"last"}]}},{"type":"Feature","properties":{"bus":"yes","highway":"bus_stop","network":"Transporte Público Urbano Trujillo","public_transport":"platform","ref":"PVL-3","source":"Gerencia de Transporte Metropolitano de Trujillo","id":13546545397},"geometry":{"type":"Point","coordinates":[-79.0545049,-8.1429608]}},{"type":"Feature","properties":{"bus":"yes","highway":"bus_stop","network":"Transporte Público Urbano Trujillo","public_transport":"platform","ref":"PVL-11","source":"Gerencia de Transporte Metropolitano de Trujillo","id":13546545407},"geometry":{"type":"Point","coordinates":[-79.0484424,-8.1427463]}},{"type":"Feature","properties":{"bus":"yes","highway":"bus_stop","network":"Transporte Público Urbano Trujillo","public_transport":"platform","ref":"PVL-10","source":"Gerencia de Transporte Metropolitano de Trujillo","id":13546546199},"geometry":{"type":"Point","coordinates":[-79.0461648,-8.1400331]}},{"type":"Feature","properties":{"bus":"yes","highway":"bus_stop","network":"Transporte Público Urbano Trujillo","public_transport":"platform","ref":"PVL-9","source":"Gerencia de Transporte Metropolitano de Trujillo","id":13546546184},"geometry":{"type":"Point","coordinates":[-79.0438407,-8.1373327]}},{"type":"Feature","properties":{"bus":"yes","highway":"bus_stop","network":"Transporte Público Urbano Trujillo","public_transport":"platform","ref":"PVL-24","source":"Gerencia de Transporte Metropolitano de Trujillo","id":13546545399},"geometry":{"type":"Point","coordinates":[-79.0400983,-8.1368126]}},{"type":"Feature","properties":{"bus":"yes","highway":"bus_stop","network":"Transporte Público Urbano Trujillo","public_transport":"platform","ref":"PVL-7","source":"Gerencia de Transporte Metropolitano de Trujillo","id":13546546186},"geometry":{"type":"Point","coordinates":[-79.035325,-8.1337548]}},{"type":"Feature","properties":{"bus":"yes","highway":"bus_stop","network":"Transporte Público Urbano Trujillo","public_transport":"platform","ref":"PCVT-195","source":"Gerencia de Transporte Metropolitano de Trujillo","id":13546545907},"geometry":{"type":"Point","coordinates":[-79.0328825,-8.1309298]}},{"type":"Feature","properties":{"bus":"yes","highway":"bus_stop","network":"Transporte Público Urbano Trujillo","public_transport":"platform","ref":"PCVT-192","source":"Gerencia de Transporte Metropolitano de Trujillo","id":13546545909},"geometry":{"type":"Point","coordinates":[-79.0301981,-8.1274259]}},{"type":"Feature","properties":{"advertising":"yes","bench":"yes","bicycle_parking":"no","bin":"no","bus":"yes","departures_board":"no","highway":"bus_stop","level":"0","lit":"yes","name":"Calle Australia","network":"Transporte Público Urbano Trujillo","passenger_information_display:speech_output":"no","pole":"yes","public_transport":"platform","ramp":"no","ref":"AMS-50","shelter":"yes","source:ref":"Gerencia de Transporte Metropolitano de Trujillo","tactile_paving":"no","tactile_writing:braille:es":"no","id":11910359976},"geometry":{"type":"Point","coordinates":[-79.0311411,-8.1265956]}},{"type":"Feature","properties":{"bus":"yes","highway":"bus_stop","network":"Transporte Público Urbano Trujillo","public_transport":"platform","ref":"AMS-48","source":"Gerencia de Transporte Metropolitano de Trujillo","id":13546546047},"geometry":{"type":"Point","coordinates":[-79.0342673,-8.1260536]}},{"type":"Feature","properties":{"advertising":"no","bench":"no","bicycle_parking":"no","bin":"no","bus":"yes","departures_board":"no","highway":"bus_stop","level":"0","lit":"yes","name":"Avenida Victor Larco Herrera","network":"Transporte Público Urbano Trujillo","passenger_information_display:speech_output":"no","pole":"yes","public_transport":"platform","ramp":"no","ref":"AMS-47","shelter":"no","source":"Kaart Ground Survey","tactile_paving":"no","tactile_writing:braille:es":"no","id":5067622117},"geometry":{"type":"Point","coordinates":[-79.0376674,-8.1247917]}},{"type":"Feature","properties":{"bus":"yes","highway":"bus_stop","network":"Transporte Público Urbano Trujillo","public_transport":"platform","ref":"AMS-44","source":"Gerencia de Transporte Metropolitano de Trujillo","id":13546546050},"geometry":{"type":"Point","coordinates":[-79.0390245,-8.1235198]}},{"type":"Feature","properties":{"bus":"yes","highway":"bus_stop","network":"Transporte Público Urbano Trujillo","public_transport":"platform","ref":"AMEO-78","source":"Gerencia de Transporte Metropolitano de Trujillo","id":13546545260},"geometry":{"type":"Point","coordinates":[-79.0409936,-8.1188701]}},{"type":"Feature","properties":{"bus":"yes","highway":"bus_stop","network":"Transporte Público Urbano Trujillo","public_transport":"platform","ref":"AMEO-77","source":"Gerencia de Transporte Metropolitano de Trujillo","id":13546545261},"geometry":{"type":"Point","coordinates":[-79.043097,-8.1171527]}},{"type":"Feature","properties":{"bus":"yes","highway":"bus_stop","network":"Transporte Público Urbano Trujillo","public_transport":"platform","ref":"AMEO-76","source":"Gerencia de Transporte Metropolitano de Trujillo","id":13546546061},"geometry":{"type":"Point","coordinates":[-79.0462892,-8.1144262]}},{"type":"Feature","properties":{"bus":"yes","highway":"bus_stop","network":"Transporte Público Urbano Trujillo","public_transport":"platform","ref":"AMEO-73","source":"Gerencia de Transporte Metropolitano de Trujillo","id":13546546063},"geometry":{"type":"Point","coordinates":[-79.047697,-8.1106633]}},{"type":"Feature","properties":{"bus":"yes","highway":"bus_stop","network":"Transporte Público Urbano Trujillo","public_transport":"platform","ref":"AMEO-72","source":"Gerencia de Transporte Metropolitano de Trujillo","id":13546545262},"geometry":{"type":"Point","coordinates":[-79.0467982,-8.1072402]}},{"type":"Feature","properties":{"bus":"yes","highway":"bus_stop","network":"Transporte Público Urbano Trujillo","public_transport":"platform","ref":"AMEO-69","source":"Gerencia de Transporte Metropolitano de Trujillo","id":13546545264},"geometry":{"type":"Point","coordinates":[-79.0461052,-8.1047663]}},{"type":"Feature","properties":{"bus":"yes","highway":"bus_stop","network":"Transporte Público Urbano Trujillo","public_transport":"platform","ref":"AMEO-67","source":"Gerencia de Transporte Metropolitano de Trujillo","id":13546546065},"geometry":{"type":"Point","coordinates":[-79.0445116,-8.102012]}},{"type":"Feature","properties":{"bus":"yes","highway":"bus_stop","network":"Transporte Público Urbano Trujillo","public_transport":"platform","ref":"MANT-108","source":"Gerencia de Transporte Metropolitano de Trujillo","id":13546545937},"geometry":{"type":"Point","coordinates":[-79.0431964,-8.1018285]}},{"type":"Feature","properties":{"bus":"yes","highway":"bus_stop","network":"Transporte Público Urbano Trujillo","public_transport":"platform","ref":"MANT-101","source":"Gerencia de Transporte Metropolitano de Trujillo","id":13546545139},"geometry":{"type":"Point","coordinates":[-79.0398522,-8.1026501]}},{"type":"Feature","properties":{"bus":"yes","highway":"bus_stop","network":"Transporte Público Urbano Trujillo","public_transport":"platform","ref":"MANT-100","source":"Gerencia de Transporte Metropolitano de Trujillo","id":13546545140},"geometry":{"type":"Point","coordinates":[-79.0373475,-8.1039363]}},{"type":"Feature","properties":{"bus":"yes","highway":"bus_stop","network":"Transporte Público Urbano Trujillo","public_transport":"platform","ref":"AMN-28","source":"Gerencia de Transporte Metropolitano de Trujillo","id":13546545249},"geometry":{"type":"Point","coordinates":[-79.033823,-8.1047949]}},{"type":"Feature","properties":{"bus":"yes","highway":"bus_stop","network":"Transporte Público Urbano Trujillo","public_transport":"platform","ref":"MAVE-354","source":"Gerencia de Transporte Metropolitano de Trujillo","id":13546545132},"geometry":{"type":"Point","coordinates":[-79.032495,-8.1033444]}},{"type":"Feature","properties":{"bus":"yes","highway":"bus_stop","network":"Transporte Público Urbano Trujillo","public_transport":"platform","ref":"MAVE-356","source":"Gerencia de Transporte Metropolitano de Trujillo","id":13546545931},"geometry":{"type":"Point","coordinates":[-79.030599,-8.1049436]}},{"type":"Feature","properties":{"bus":"yes","highway":"bus_stop","network":"Transporte Público Urbano Trujillo","public_transport":"platform","ref":"MAVE-357","source":"Gerencia de Transporte Metropolitano de Trujillo","id":13546545930},"geometry":{"type":"Point","coordinates":[-79.0293947,-8.1060629]}},{"type":"Feature","properties":{"advertising":"no","bench":"no","bicycle_parking":"no","bin":"no","bus":"yes","departures_board":"no","highway":"bus_stop","level":"0","lit":"yes","name":"Jirón Estete","network":"Transporte Público Urbano Trujillo","passenger_information_display:speech_output":"no","pole":"yes","public_transport":"platform","ramp":"no","ref":"ESP-15","shelter":"no","source:ref":"Gerencia de Transporte Metropolitano de Trujillo","tactile_paving":"no","tactile_writing:braille:es":"no","id":11895957224},"geometry":{"type":"Point","coordinates":[-79.0277112,-8.105858]}},{"type":"Feature","properties":{"bus":"yes","highway":"bus_stop","network":"Transporte Público Urbano Trujillo","public_transport":"platform","ref":"MRFT-166","source":"Gerencia de Transporte Metropolitano de Trujillo","id":13546545112},"geometry":{"type":"Point","coordinates":[-79.0250005,-8.1046834]}},{"type":"Feature","properties":{"bus":"yes","highway":"bus_stop","network":"Transporte Público Urbano Trujillo","public_transport":"platform","ref":"AMA-462","source":"Gerencia de Transporte Metropolitano de Trujillo","id":13546546066},"geometry":{"type":"Point","coordinates":[-79.0225037,-8.1058026]}},{"type":"Feature","properties":{"bus":"yes","highway":"bus_stop","network":"Transporte Público Urbano Trujillo","public_transport":"platform","ref":"CAR-532","source":"Gerencia de Transporte Metropolitano de Trujillo","id":13546546034},"geometry":{"type":"Point","coordinates":[-79.0197008,-8.1033285]}},{"type":"Feature","properties":{"bus":"yes","highway":"bus_stop","network":"Transporte Público Urbano Trujillo","public_transport":"platform","ref":"SAN-270","source":"Gerencia de Transporte Metropolitano de Trujillo","id":13546545874},"geometry":{"type":"Point","coordinates":[-79.0183817,-8.1015623]}},{"type":"Feature","properties":{"bus":"yes","highway":"bus_stop","network":"Transporte Público Urbano Trujillo","public_transport":"platform","ref":"SAN-268","source":"Gerencia de Transporte Metropolitano de Trujillo","id":13546535059},"geometry":{"type":"Point","coordinates":[-79.017093,-8.099926]}},{"type":"Feature","properties":{"bus":"yes","highway":"bus_stop","network":"Transporte Público Urbano Trujillo","public_transport":"platform","ref":"PSAN-277","source":"Gerencia de Transporte Metropolitano de Trujillo","id":13546545890},"geometry":{"type":"Point","coordinates":[-79.0138681,-8.0918551]}},{"type":"Feature","properties":{"bus":"yes","highway":"bus_stop","network":"Transporte Público Urbano Trujillo","public_transport":"platform","ref":"PSAN-274","source":"Gerencia de Transporte Metropolitano de Trujillo","id":13546535080},"geometry":{"type":"Point","coordinates":[-79.0125645,-8.0895518]}},{"type":"Feature","properties":{"bus":"yes","highway":"bus_stop","network":"Transporte Público Urbano Trujillo","public_transport":"platform","ref":"PLUN-295","source":"Gerencia de Transporte Metropolitano de Trujillo","id":13546535084},"geometry":{"type":"Point","coordinates":[-79.0050238,-8.0880252]}},{"type":"Feature","properties":{"bus":"yes","highway":"bus_stop","network":"Transporte Público Urbano Trujillo","public_transport":"platform","ref":"PP-44","source":"Gerencia de Transporte Metropolitano de Trujillo","id":13546545433},"geometry":{"type":"Point","coordinates":[-79.0013315,-8.0871914]}},{"type":"Feature","properties":{"bus":"yes","highway":"bus_stop","network":"Transporte Público Urbano Trujillo","public_transport":"platform","ref":"PP-43","source":"Gerencia de Transporte Metropolitano de Trujillo","id":13546545434},"geometry":{"type":"Point","coordinates":[-78.9981133,-8.0881309]}},{"type":"Feature","properties":{"bus":"yes","highway":"bus_stop","network":"Transporte Público Urbano Trujillo","public_transport":"platform","ref":"PP-42","source":"Gerencia de Transporte Metropolitano de Trujillo","id":13546546212},"geometry":{"type":"Point","coordinates":[-78.9941117,-8.0891372]}},{"type":"Feature","properties":{"bus":"yes","highway":"bus_stop","network":"Transporte Público Urbano Trujillo","public_transport":"platform","ref":"PL-55","source":"Gerencia de Transporte Metropolitano de Trujillo","id":13546545367},"geometry":{"type":"Point","coordinates":[-78.9910364,-8.0869308]}},{"type":"Feature","properties":{"bus":"yes","highway":"bus_stop","network":"Transporte Público Urbano Trujillo","public_transport":"platform","ref":"PL-57","source":"Gerencia de Transporte Metropolitano de Trujillo","id":13546546157},"geometry":{"type":"Point","coordinates":[-78.9889824,-8.0849172]}},{"type":"Feature","properties":{"bus":"yes","highway":"bus_stop","network":"Transporte Público Urbano Trujillo","public_transport":"platform","ref":"PL-51","source":"Gerencia de Transporte Metropolitano de Trujillo","id":13546546160},"geometry":{"type":"Point","coordinates":[-78.981161,-8.0881891]}},{"type":"Feature","properties":{"bus":"yes","highway":"bus_stop","network":"Transporte Público Urbano Trujillo","public_transport":"platform","ref":"PL-60","source":"Gerencia de Transporte Metropolitano de Trujillo","id":13546546153},"geometry":{"type":"Point","coordinates":[-78.9784444,-8.0889783]}},{"type":"Feature","properties":{"bus":"yes","highway":"bus_stop","network":"Transporte Público Urbano Trujillo","public_transport":"platform","ref":"PL-48","source":"Gerencia de Transporte Metropolitano de Trujillo","id":13546545369},"geometry":{"type":"Point","coordinates":[-78.9750568,-8.0903817]}},{"type":"Feature","properties":{"bus":"yes","highway":"bus_stop","network":"Transporte Público Urbano Trujillo","public_transport":"platform","ref":"PL-63","source":"Gerencia de Transporte Metropolitano de Trujillo","id":13546546150},"geometry":{"type":"Point","coordinates":[-78.9681419,-8.0924901]}},{"type":"Feature","properties":{"bus":"yes","highway":"bus_stop","network":"Transporte Público Urbano Trujillo","public_transport":"platform","ref":"PL-Existente","source":"Gerencia de Transporte Metropolitano de Trujillo","id":13546546130},"geometry":{"type":"Point","coordinates":[-78.9672582,-8.0927534]}},{"type":"Feature","properties":{"bus":"yes","highway":"bus_stop","network":"Transporte Público Urbano Trujillo","public_transport":"platform","ref":"PL-42","source":"Gerencia de Transporte Metropolitano de Trujillo","id":13546545371},"geometry":{"type":"Point","coordinates":[-78.9647742,-8.0918651]}},{"type":"Feature","properties":{"bus":"yes","highway":"bus_stop","network":"Transporte Público Urbano Trujillo","public_transport":"platform","ref":"PL-39","source":"Gerencia de Transporte Metropolitano de Trujillo","id":13546546167},"geometry":{"type":"Point","coordinates":[-78.9631954,-8.091179]}},{"type":"Feature","properties":{"bus":"yes","highway":"bus_stop","network":"Transporte Público Urbano Trujillo","public_transport":"platform","ref":"PL-46","source":"Gerencia de Transporte Metropolitano de Trujillo","id":13546546163},"geometry":{"type":"Point","coordinates":[-78.9611012,-8.0916888]}},{"type":"Feature","properties":{"bus":"yes","highway":"bus_stop","network":"Transporte Público Urbano Trujillo","public_transport":"platform","ref":"PL-28","source":"Gerencia de Transporte Metropolitano de Trujillo","id":13546545374},"geometry":{"type":"Point","coordinates":[-78.9566525,-8.0895382]}},{"type":"Feature","properties":{"bus":"yes","highway":"bus_stop","network":"Transporte Público Urbano Trujillo","public_transport":"platform","ref":"PL-50","source":"Gerencia de Transporte Metropolitano de Trujillo","id":13546546161},"geometry":{"type":"Point","coordinates":[-78.9554197,-8.0882486]}},{"type":"Feature","properties":{"bus":"yes","highway":"bus_stop","network":"Transporte Público Urbano Trujillo","public_transport":"platform","ref":"PL-53","source":"Gerencia de Transporte Metropolitano de Trujillo","id":13546545368},"geometry":{"type":"Point","coordinates":[-78.9553352,-8.0823828]}},{"type":"Feature","properties":{"bus":"yes","highway":"bus_stop","network":"Transporte Público Urbano Trujillo","public_transport":"platform","ref":"PL-37","source":"Gerencia de Transporte Metropolitano de Trujillo","id":13546545372},"geometry":{"type":"Point","coordinates":[-78.9527258,-8.0833038]}},{"type":"Feature","properties":{"bus":"yes","highway":"bus_stop","network":"Transporte Público Urbano Trujillo","public_transport":"platform","ref":"PL-44","source":"Gerencia de Transporte Metropolitano de Trujillo","id":13546546164},"geometry":{"type":"Point","coordinates":[-78.950695,-8.0798557]}},{"type":"Feature","properties":{"bus":"yes","highway":"bus_stop","network":"Transporte Público Urbano Trujillo","public_transport":"platform","ref":"PL-29","source":"Gerencia de Transporte Metropolitano de Trujillo","id":13546545373},"geometry":{"type":"Point","coordinates":[-78.949614,-8.0777548]}},{"type":"Feature","properties":{"bus":"yes","highway":"bus_stop","network":"Transporte Público Urbano Trujillo","public_transport":"platform","ref":"PL-24","source":"Gerencia de Transporte Metropolitano de Trujillo","id":13546546172},"geometry":{"type":"Point","coordinates":[-78.9482263,-8.0758886]}}]}