{"type":"FeatureCollection","features":[{"type":"Feature","properties":{"check_date":"2025-12-18","colour":"#7f6000","colour:text":"#FFFFFF","fee":"yes","from":"Primavera","hash":"12186","interval":"4","name":"Primavera → Calle Liverpool","network":"Transporte Público Urbano Trujillo","opening_hours":"Mo-Su 05:00-23:00","operator":"RAMIRO PRIALE S.A.","public_transport:version":"2","ref":"M-29 B","route":"bus","survey:avg_speed:kmh":"-","to":"Calle Liverpool","type":"route","id":19962502},"geometry":{"type":"LineString","coordinates":[[-79.0476903,-8.0553398],[-79.04803,-8.0555639],[-79.0483268,-8.0557496],[-79.0484861,-8.0555334],[-79.0485239,-8.0554814],[-79.0486299,-8.0555116],[-79.0492111,-8.0556776],[-79.0492403,-8.0557263],[-79.0494595,-8.0558017],[-79.0499476,-8.0559679],[-79.0496226,-8.0569614],[-79.0491579,-8.0567968],[-79.0491711,-8.0568586],[-79.0490219,-8.0573178],[-79.0488508,-8.0577817],[-79.0487616,-8.0580571],[-79.0484478,-8.0589031],[-79.0482963,-8.0593299],[-79.0481408,-8.0597683],[-79.0479712,-8.0602111],[-79.0479657,-8.0602254],[-79.0477996,-8.0606186],[-79.0476376,-8.0610582],[-79.0484684,-8.0612639],[-79.0486513,-8.0613499],[-79.0485155,-8.0619121],[-79.0484428,-8.0621919],[-79.0483784,-8.0622955],[-79.0476563,-8.0630023],[-79.0473009,-8.063348],[-79.0468558,-8.0637809],[-79.0463221,-8.0642786],[-79.0459283,-8.0646459],[-79.0455102,-8.0650358],[-79.0451757,-8.0653478],[-79.0450001,-8.0655115],[-79.0444619,-8.0660134],[-79.044151,-8.0663033],[-79.044275,-8.0663607],[-79.044503,-8.0664696],[-79.0447424,-8.066577],[-79.044996,-8.0666944],[-79.0452345,-8.0668048],[-79.0454229,-8.066892],[-79.0456936,-8.0670173],[-79.0454868,-8.0673693],[-79.0452353,-8.0678007],[-79.044959,-8.0682355],[-79.0447016,-8.0686619],[-79.0444146,-8.0690828],[-79.044239,-8.0694872],[-79.0440096,-8.0699419],[-79.0437973,-8.0702223],[-79.04356,-8.0704045],[-79.0435442,-8.070415],[-79.0432352,-8.0706211],[-79.0431249,-8.0706947],[-79.0426375,-8.0710058],[-79.0422362,-8.0713008],[-79.0418565,-8.0716091],[-79.0417831,-8.0717282],[-79.0415721,-8.0720532],[-79.0413673,-8.0724031],[-79.0417285,-8.0725323],[-79.0420888,-8.0727191],[-79.0427112,-8.0730602],[-79.0423721,-8.0736279],[-79.0420767,-8.0742137],[-79.0416941,-8.0749271],[-79.0413273,-8.0756155],[-79.0409385,-8.07637],[-79.0400296,-8.0780376],[-79.0396615,-8.0778752],[-79.0393074,-8.0776983],[-79.0386639,-8.0773933],[-79.0381165,-8.0784356],[-79.0375396,-8.0794633],[-79.0371308,-8.080197],[-79.0365894,-8.0811537],[-79.0360919,-8.0820328],[-79.0354798,-8.0831084],[-79.034933,-8.0840378],[-79.0343642,-8.0850686],[-79.0338406,-8.0860161],[-79.0332421,-8.0869953],[-79.0333144,-8.0870625],[-79.0333448,-8.0871464],[-79.0333263,-8.0872217],[-79.0332745,-8.0872658],[-79.0331954,-8.0872892],[-79.0323993,-8.0874153],[-79.032252,-8.0874581],[-79.0320916,-8.0874886],[-79.0319637,-8.0875182],[-79.0314502,-8.0876659],[-79.0312041,-8.0877006],[-79.0303766,-8.08764],[-79.0303082,-8.0876373],[-79.0296954,-8.0875767],[-79.0288498,-8.0875014],[-79.0281614,-8.0874416],[-79.0274301,-8.0873843],[-79.026702,-8.0873193],[-79.0259696,-8.0872547],[-79.0252359,-8.0871887],[-79.0245064,-8.0871029],[-79.0237778,-8.0869892],[-79.0230407,-8.0868756],[-79.0223458,-8.0867675],[-79.0215948,-8.0866503],[-79.0209386,-8.0865471],[-79.0202923,-8.0864468],[-79.019611,-8.0863305],[-79.018821,-8.0862137],[-79.0180367,-8.086101],[-79.0173002,-8.0859701],[-79.0159321,-8.085746],[-79.0152084,-8.0856289],[-79.0146634,-8.0855407],[-79.0145106,-8.0855159],[-79.0145473,-8.0856301],[-79.014588,-8.0857446],[-79.0147212,-8.0860474],[-79.0149269,-8.0864441],[-79.0151489,-8.0868721],[-79.0155829,-8.087709],[-79.0159652,-8.0884124],[-79.0164531,-8.0893361],[-79.016664,-8.08973],[-79.0168245,-8.0900402],[-79.0170763,-8.0905271],[-79.017445,-8.0912398],[-79.0179364,-8.0921491],[-79.0180973,-8.0925071],[-79.018125,-8.0925687],[-79.018189,-8.0926905],[-79.0184778,-8.0933995],[-79.018852,-8.0943182],[-79.0188741,-8.0943726],[-79.019162,-8.0950793],[-79.0193672,-8.095583],[-79.0194035,-8.0956695],[-79.0196859,-8.0963418],[-79.020267,-8.0976546],[-79.0207508,-8.0987472],[-79.020895,-8.099073],[-79.021231,-8.099653],[-79.0212835,-8.099736],[-79.0215212,-8.1001231],[-79.0218292,-8.1006246],[-79.0221639,-8.1010614],[-79.0224071,-8.1013638],[-79.0227469,-8.1017862],[-79.0229494,-8.1020358],[-79.0228644,-8.1021029],[-79.0218623,-8.1028948],[-79.0223767,-8.103484],[-79.022391,-8.1035004],[-79.0230189,-8.1042198],[-79.0236319,-8.1049579],[-79.0236469,-8.1049759],[-79.0237304,-8.1049623],[-79.0241141,-8.1054332],[-79.024173,-8.105533],[-79.0242072,-8.105593],[-79.0242517,-8.1056661],[-79.0241535,-8.1056985],[-79.0240833,-8.1057291],[-79.0238088,-8.1059019],[-79.023085,-8.1065401],[-79.0230394,-8.1065805],[-79.0229463,-8.1066613],[-79.0223178,-8.1072057],[-79.0221654,-8.1073392],[-79.0220033,-8.1075577],[-79.0219509,-8.1076849],[-79.0218056,-8.1081084],[-79.0217624,-8.1081477],[-79.021697,-8.1081627],[-79.0215197,-8.1080217],[-79.0213541,-8.1078899],[-79.0210565,-8.1076964],[-79.0206048,-8.1074225],[-79.020075,-8.1070556],[-79.019535,-8.1066875],[-79.0191446,-8.1063858],[-79.0189687,-8.106101],[-79.0186571,-8.1054854],[-79.0181457,-8.105855],[-79.0168537,-8.1065475],[-79.0154531,-8.1077802],[-79.0156808,-8.1080392],[-79.0159249,-8.1083147],[-79.0161436,-8.1085639],[-79.016527,-8.1090194],[-79.0167482,-8.1092704],[-79.0169713,-8.1095239],[-79.017527,-8.1101528],[-79.0175961,-8.110231],[-79.0175129,-8.1102993],[-79.0171499,-8.110605],[-79.0171354,-8.1106172],[-79.0170778,-8.1106631],[-79.0168213,-8.1108674],[-79.0164305,-8.1111985],[-79.015975,-8.1115769],[-79.0159135,-8.111628],[-79.0154546,-8.1119399],[-79.0146258,-8.1123722],[-79.0142575,-8.1125514],[-79.0140803,-8.1126394],[-79.0141666,-8.1128076],[-79.0148956,-8.1142282],[-79.0149573,-8.1143583],[-79.0151912,-8.114755],[-79.0152362,-8.1148309],[-79.0155067,-8.1151895],[-79.0159535,-8.1157663],[-79.0161848,-8.1160762],[-79.0165503,-8.1165661],[-79.0168995,-8.117034],[-79.0186634,-8.1190968],[-79.01895,-8.1194212],[-79.0191968,-8.1196903],[-79.0192752,-8.1197673],[-79.0193418,-8.1198343],[-79.0199355,-8.1204321],[-79.0202652,-8.1207691],[-79.0209763,-8.1214582],[-79.0210503,-8.1215299],[-79.021413,-8.1218878],[-79.0217086,-8.1221559],[-79.0217629,-8.1221922],[-79.0218157,-8.1222275],[-79.0223189,-8.1226887],[-79.0226813,-8.1230094],[-79.0227001,-8.1230243],[-79.0227588,-8.1230526],[-79.0228321,-8.1230652],[-79.0229815,-8.1230626],[-79.0230917,-8.123039],[-79.0232045,-8.123036],[-79.0233225,-8.1230557],[-79.0234343,-8.123098],[-79.0235355,-8.1231613],[-79.0236356,-8.1232592],[-79.02371,-8.1233774],[-79.0237547,-8.1235095],[-79.0237673,-8.1236482],[-79.0237545,-8.123736],[-79.0237472,-8.123786],[-79.0237661,-8.1238549],[-79.0237841,-8.1238946],[-79.0238139,-8.1239298],[-79.0238764,-8.1239826],[-79.0243998,-8.1243532],[-79.0244692,-8.1244023],[-79.0254499,-8.125075],[-79.0256342,-8.1251722],[-79.0263585,-8.125555],[-79.0267907,-8.1257306],[-79.0272936,-8.1259085],[-79.028355,-8.1262453],[-79.0288238,-8.1263573],[-79.0293562,-8.1264569],[-79.0298906,-8.1265298],[-79.0299698,-8.1265405],[-79.0302821,-8.1265783],[-79.030328,-8.1265827],[-79.0304145,-8.126594],[-79.030474,-8.1265955],[-79.0305805,-8.1266029],[-79.0308824,-8.1266308],[-79.0312798,-8.1266427],[-79.0313489,-8.1266446],[-79.0314248,-8.126643],[-79.0316427,-8.1266384],[-79.0317584,-8.1266359],[-79.0318475,-8.126634],[-79.0324224,-8.1265738],[-79.0325012,-8.1265655],[-79.0325606,-8.1265526],[-79.0332446,-8.1264037],[-79.0336719,-8.1262955],[-79.0338764,-8.12625],[-79.0341083,-8.1261869],[-79.0347331,-8.1260008],[-79.0351652,-8.125843],[-79.0355916,-8.1256858],[-79.0356561,-8.1256593],[-79.0357152,-8.1256383],[-79.0372369,-8.1250281],[-79.0378356,-8.1247981],[-79.038187,-8.1246547],[-79.038264,-8.1246035],[-79.0383142,-8.1245389],[-79.038367,-8.1244667],[-79.0384302,-8.1244166],[-79.0384371,-8.1243765],[-79.038463,-8.124313],[-79.0384966,-8.1242677],[-79.038536,-8.1242334],[-79.0385888,-8.1242048],[-79.0386493,-8.1241891],[-79.038706,-8.124188],[-79.0387441,-8.1241943],[-79.038839,-8.1241058],[-79.0388887,-8.1240425],[-79.0389283,-8.1239512],[-79.03901,-8.1237057],[-79.0391151,-8.1233596],[-79.0395046,-8.1220377],[-79.0397143,-8.1213809],[-79.0399342,-8.1207167],[-79.0401837,-8.1199897],[-79.0401905,-8.1197994],[-79.0401213,-8.1197281],[-79.0400755,-8.1196403],[-79.0400607,-8.1195678],[-79.0400667,-8.1194449],[-79.0401045,-8.1193534],[-79.0400451,-8.1192498],[-79.0399962,-8.1191645],[-79.0394671,-8.118544],[-79.0390551,-8.1180608],[-79.0388246,-8.1177906],[-79.0387845,-8.1177436],[-79.0387142,-8.1176612],[-79.038664,-8.1176023],[-79.0380841,-8.1169223],[-79.0371954,-8.1158801],[-79.0370094,-8.115662],[-79.0362922,-8.114821],[-79.0355158,-8.1139106],[-79.0351644,-8.1134985],[-79.0348092,-8.1130819],[-79.0344451,-8.112655],[-79.0343702,-8.1125672],[-79.0343314,-8.1125216],[-79.0340297,-8.1121678],[-79.03382,-8.1119219],[-79.0337187,-8.1118031],[-79.0336301,-8.1116992],[-79.0337084,-8.1116264],[-79.0337971,-8.1117289],[-79.0338471,-8.1117867],[-79.0338941,-8.1118409],[-79.0344168,-8.1124444],[-79.0344644,-8.1124994],[-79.0350328,-8.1120842],[-79.0355967,-8.1116731],[-79.0356623,-8.1116252],[-79.0357221,-8.1115815],[-79.0361765,-8.1112501],[-79.0364574,-8.1110449],[-79.0375969,-8.1102125],[-79.0380075,-8.1099136],[-79.0380939,-8.1098517],[-79.0382775,-8.1097444],[-79.0384242,-8.109683],[-79.0393122,-8.1093673],[-79.0393772,-8.1093442],[-79.0396416,-8.1092502],[-79.0403175,-8.1090099],[-79.0410504,-8.1087493],[-79.041116,-8.108726],[-79.0412232,-8.1086879],[-79.0412761,-8.1086691],[-79.0416796,-8.1085256],[-79.0421858,-8.1083456],[-79.0422552,-8.1083209],[-79.0420142,-8.1078464],[-79.0418362,-8.107496],[-79.0417935,-8.1074119],[-79.0412703,-8.1063821],[-79.0409938,-8.1058278],[-79.0420175,-8.1055091],[-79.041867,-8.1050991],[-79.0417583,-8.104759],[-79.0416074,-8.10428],[-79.0421541,-8.1040317],[-79.0427697,-8.1037586]],"nodes":[5489642729,13379169742,11032837893,11032837894,1098597807,8134211221,11032837897,1098634450,5489234419,1098629711,1098620266,1098601791,8759667541,8759667533,8759667534,8759667535,8759667536,8759667544,8759667537,8759667543,8759667538,8759667542,8759667539,1098594934,5489275331,5456304251,5489275332,5489275333,5456170004,5489275329,1098596856,1098605315,1098640988,1098616386,1098626630,1098637329,1098649749,5456139607,5489245458,13379240264,5489245459,5489245461,5456304233,5456304234,5456304225,5489245452,1098618001,1098628085,1098639296,5456139605,1098595190,1098623726,1098601300,1098646318,5489262309,11028507084,1098636165,5483508462,5483508460,5483508465,12057951566,13379210008,1098649470,1098594874,1098608255,1098629442,13379189557,1098589776,13379214957,1098613472,1098601128,1098614104,13379264184,1098602453,1098627431,1098603113,1098640998,1098629510,5456139598,1098598446,5456201423,5456201425,1098615084,1098603797,5098218079,11028583054,5098218080,11028583058,11028583057,11028583056,11028583055,1098648564,5429866047,1098635712,5483080325,10735705206,11030582247,10735705207,10735697404,10735705208,10735705209,10735705210,10735691977,10735697403,10735691978,10735691979,10735691980,10735691981,10735691982,10735691983,10735691984,10735691985,10735691986,10735702888,10735702889,10735702890,10735716114,11028375454,11028542516,10735702892,11028542513,1098597270,1098639967,1098628693,1098627473,1098617526,1098607051,1098595405,5483111218,11030668420,11030668417,1098629394,8189256696,11030663211,1098648253,1098584449,5475293101,5483053684,1098596798,5483053683,316265097,316265142,1098593632,1088227330,5483125428,1050954744,1051035633,1051035759,5483345194,1050954726,1098595392,5475292798,1267712785,1098584124,1050954710,1098624841,5476546738,1098614272,1287009757,4452540638,1051000137,1051000229,1051000289,4452540639,1088227269,495108772,12987860958,316264091,2573525832,5373812628,8109317254,8109317248,2573525834,2573525835,2573525836,316264048,2589631591,2589631593,1051000299,11919733880,1554844722,1051000241,1051000351,11037703291,11037703290,1051000135,1051000232,1051000260,5081662057,5079968875,1098590745,11023313864,11023313866,1098623436,5676152374,9830187850,11023976595,1098639667,1144498432,1007782483,11033100547,1026647175,11033100546,1098590644,1007782485,11033100544,11033100549,1007782486,1007782487,11033195478,1088227326,11033195476,1098633802,316265119,316265118,1015347808,11037619758,1015292423,1098595328,316488151,316265117,316265116,1098612124,1098632182,2604839551,8089024592,1098589459,320114996,13084463950,1098613378,1098594789,3670684735,13084463978,1088227350,3670684731,12566648339,316265389,3670684729,3670684728,316254431,2591061029,288406889,2591061030,3670684743,316254433,316254504,316254434,2591061031,2591061032,13513627511,316254505,3670684008,12566648338,3670684007,12566648341,12433537360,3670684001,3670684003,3670684002,1098599784,2892557353,316256470,316256471,2892557352,2482796388,8234359405,5455991385,13086967423,320114882,12216693900,320114879,13086967421,1098622755,11086134231,1098600368,11086134233,7115416189,7115416190,1098584061,11086134238,1098606184,11086134236,1098627329,5421654649,1098588879,1098645742,1098584460,9515118512,320114979,12216751842,316490371,1098618341,5478671387,316256479,2602828334,2602828325,11033416911,3728336241,3728336240,3728336238,3728336237,316254452,3728336235,1554831521,316254453,3728336234,316256749,11033416912,2602828378,1098613726,316256750,1098584320,1015366172,1015366101,316256751,316256699,316256700,2610169704,1098650539,2610169705,316256701,13084941046,316256780,1015366129,1015366163,13084941051,11037474039,1098622036,13084941050,1098643894,5066749588,1098621516,1024375972,11090514812,1024375803,1098608227,1098597256,5102092677,4633792102,1098633978,4633792015,4633792018,5052319279,5052319280,4633792017,1098623325,4633792016,4633792101,1098588989,5524404497,4633846702,1098593745,4633846699,4633846735,1098616952,1098633184,1272612887,1873564603,11037974906,1272612890,2610202744,1272612862,5052013853,1272612898,10586103359,2610202736,1272612886,10586103360,1272612874,10586103368,1272612878,1098604382,1098647053,1098604887,1098640374,1098650496,1098587198,1098596713,8164902028,5425468934,1098612330,1098605733]},"gtfs":{"agency_id":9,"route_id":24,"services":[{"service_id":"Mo-Su","startTime":"05:00","endTime":"23:00","trip_id":19962502}],"filteredStops":{"nodes":[5489642729,13546546315,13546546354,13546545621,13546545699,13546545620,13546546350,13546546310,13546546349,13546546346,13546546307,13546546306,13546545721,13546545618,13546545666,13546545663,13546545661,13546545574,13546545586,13546545585,13546545584,13546545587,13546545919,13546545121,13546545119,13546545118,13546545117,13546545115,13546545113,11895953681,5099494791,13546545988,13546545943,13546545146,13546545161,13546546019,13546545882,13546535067,13546545233,13546546052,13546545240,13546545236,13546545242,5069523013,11910359976,13546546047,5067622117,13546546050,13546545952,13546545151,13546545953,13546545947,11910518831,13546545960,13546545958,13546545957,1098605733],"coordinates":[[-79.0476903,-8.0553398],[-79.048082,-8.0555369],[-79.0478548,-8.0605411],[-79.0474714,-8.0632474],[-79.0461571,-8.0644393],[-79.0457973,-8.0648641],[-79.0449278,-8.0656021],[-79.0447687,-8.0658787],[-79.0452012,-8.0667633],[-79.041666,-8.0719115],[-79.0415496,-8.0721117],[-79.0423665,-8.0737142],[-79.0414513,-8.075438],[-79.0403689,-8.0775439],[-79.0383812,-8.0779806],[-79.0369042,-8.0806425],[-79.0335426,-8.0865085],[-79.0300744,-8.0876268],[-79.0263612,-8.0872923],[-79.0227315,-8.0868323],[-79.0200443,-8.08641],[-79.0166589,-8.0858925],[-79.0147316,-8.0858872],[-79.0158277,-8.0879777],[-79.0173183,-8.0909035],[-79.0184435,-8.0931474],[-79.0195201,-8.0958311],[-79.0205478,-8.0982254],[-79.0220679,-8.1008373],[-79.0226351,-8.1069826],[-79.02188,-8.1080252],[-79.0216367,-8.1082618],[-79.0212133,-8.1078563],[-79.0187745,-8.1058153],[-79.0171172,-8.1064512],[-79.0156336,-8.1079156],[-79.0170607,-8.110739],[-79.0149878,-8.1123146],[-79.014746,-8.113926],[-79.0164486,-8.1164039],[-79.0207348,-8.1211376],[-79.0224984,-8.122784],[-79.0246367,-8.124507],[-79.0277456,-8.1259685],[-79.0311411,-8.1265956],[-79.0342673,-8.1260536],[-79.0376674,-8.1247917],[-79.0390245,-8.1235198],[-79.0389756,-8.1180374],[-79.0368006,-8.115515],[-79.0350377,-8.113532],[-79.033657,-8.1117328],[-79.034349,-8.1123007],[-79.0366373,-8.1109036],[-79.0413452,-8.1086167],[-79.0421921,-8.108478],[-79.0427697,-8.1037586]]}}},{"type":"Feature","properties":{"bus":"yes","highway":"bus_stop","network":"Transporte Público Urbano Trujillo","public_transport":"platform","ref":"PE-67","source":"Gerencia de Transporte Metropolitano de Trujillo","id":13546546315},"geometry":{"type":"Point","coordinates":[-79.048082,-8.0555369]}},{"type":"Feature","properties":{"bus":"yes","highway":"bus_stop","network":"Transporte Público Urbano Trujillo","public_transport":"platform","ref":"PE-231","source":"Gerencia de Transporte Metropolitano de Trujillo","id":13546546354},"geometry":{"type":"Point","coordinates":[-79.0478548,-8.0605411]}},{"type":"Feature","properties":{"bus":"yes","highway":"bus_stop","network":"Transporte Público Urbano Trujillo","public_transport":"platform","ref":"PE-74","source":"Gerencia de Transporte Metropolitano de Trujillo","id":13546545621},"geometry":{"type":"Point","coordinates":[-79.0474714,-8.0632474]}},{"type":"Feature","properties":{"bus":"yes","highway":"bus_stop","network":"Transporte Público Urbano Trujillo","public_transport":"platform","ref":"PE-235","source":"Gerencia de Transporte Metropolitano de Trujillo","id":13546545699},"geometry":{"type":"Point","coordinates":[-79.0461571,-8.0644393]}},{"type":"Feature","properties":{"bus":"yes","highway":"bus_stop","network":"Transporte Público Urbano Trujillo","public_transport":"platform","ref":"PE-75","source":"Gerencia de Transporte Metropolitano de Trujillo","id":13546545620},"geometry":{"type":"Point","coordinates":[-79.0457973,-8.0648641]}},{"type":"Feature","properties":{"bus":"yes","highway":"bus_stop","network":"Transporte Público Urbano Trujillo","public_transport":"platform","ref":"PE-238","source":"Gerencia de Transporte Metropolitano de Trujillo","id":13546546350},"geometry":{"type":"Point","coordinates":[-79.0449278,-8.0656021]}},{"type":"Feature","properties":{"bus":"yes","highway":"bus_stop","network":"Transporte Público Urbano Trujillo","public_transport":"platform","ref":"PE-76","source":"Gerencia de Transporte Metropolitano de Trujillo","id":13546546310},"geometry":{"type":"Point","coordinates":[-79.0447687,-8.0658787]}},{"type":"Feature","properties":{"bus":"yes","highway":"bus_stop","network":"Transporte Público Urbano Trujillo","public_transport":"platform","ref":"PE-239","source":"Gerencia de Transporte Metropolitano de Trujillo","id":13546546349},"geometry":{"type":"Point","coordinates":[-79.0452012,-8.0667633]}},{"type":"Feature","properties":{"bus":"yes","highway":"bus_stop","network":"Transporte Público Urbano Trujillo","public_transport":"platform","ref":"PE-243","source":"Gerencia de Transporte Metropolitano de Trujillo","id":13546546346},"geometry":{"type":"Point","coordinates":[-79.041666,-8.0719115]}},{"type":"Feature","properties":{"bus":"yes","highway":"bus_stop","network":"Transporte Público Urbano Trujillo","public_transport":"platform","ref":"PE-81","source":"Gerencia de Transporte Metropolitano de Trujillo","id":13546546307},"geometry":{"type":"Point","coordinates":[-79.0415496,-8.0721117]}},{"type":"Feature","properties":{"bus":"yes","highway":"bus_stop","network":"Transporte Público Urbano Trujillo","public_transport":"platform","ref":"PE-82","source":"Gerencia de Transporte Metropolitano de Trujillo","id":13546546306},"geometry":{"type":"Point","coordinates":[-79.0423665,-8.0737142]}},{"type":"Feature","properties":{"bus":"yes","highway":"bus_stop","network":"Transporte Público Urbano Trujillo","public_transport":"platform","ref":"PE-190","source":"Gerencia de Transporte Metropolitano de Trujillo","id":13546545721},"geometry":{"type":"Point","coordinates":[-79.0414513,-8.075438]}},{"type":"Feature","properties":{"bus":"yes","highway":"bus_stop","network":"Transporte Público Urbano Trujillo","public_transport":"platform","ref":"PE-84","source":"Gerencia de Transporte Metropolitano de Trujillo","id":13546545618},"geometry":{"type":"Point","coordinates":[-79.0403689,-8.0775439]}},{"type":"Feature","properties":{"bus":"yes","highway":"bus_stop","network":"Transporte Público Urbano Trujillo","public_transport":"platform","ref":"PE-309","source":"Gerencia de Transporte Metropolitano de Trujillo","id":13546545666},"geometry":{"type":"Point","coordinates":[-79.0383812,-8.0779806]}},{"type":"Feature","properties":{"bus":"yes","highway":"bus_stop","network":"Transporte Público Urbano Trujillo","public_transport":"platform","ref":"PE-313","source":"Gerencia de Transporte Metropolitano de Trujillo","id":13546545663},"geometry":{"type":"Point","coordinates":[-79.0369042,-8.0806425]}},{"type":"Feature","properties":{"bus":"yes","highway":"bus_stop","network":"Transporte Público Urbano Trujillo","public_transport":"platform","ref":"PE-317","source":"Gerencia de Transporte Metropolitano de Trujillo","id":13546545661},"geometry":{"type":"Point","coordinates":[-79.0335426,-8.0865085]}},{"type":"Feature","properties":{"bus":"yes","highway":"bus_stop","network":"Transporte Público Urbano Trujillo","public_transport":"platform","ref":"PFM-5","source":"Gerencia de Transporte Metropolitano de Trujillo","id":13546545574},"geometry":{"type":"Point","coordinates":[-79.0300744,-8.0876268]}},{"type":"Feature","properties":{"bus":"yes","highway":"bus_stop","network":"Transporte Público Urbano Trujillo","public_transport":"platform","ref":"PFM-32","source":"Gerencia de Transporte Metropolitano de Trujillo","id":13546545586},"geometry":{"type":"Point","coordinates":[-79.0263612,-8.0872923]}},{"type":"Feature","properties":{"bus":"yes","highway":"bus_stop","network":"Transporte Público Urbano Trujillo","public_transport":"platform","ref":"PFM-33","source":"Gerencia de Transporte Metropolitano de Trujillo","id":13546545585},"geometry":{"type":"Point","coordinates":[-79.0227315,-8.0868323]}},{"type":"Feature","properties":{"bus":"yes","highway":"bus_stop","network":"Transporte Público Urbano Trujillo","public_transport":"platform","ref":"PFM-34","source":"Gerencia de Transporte Metropolitano de Trujillo","id":13546545584},"geometry":{"type":"Point","coordinates":[-79.0200443,-8.08641]}},{"type":"Feature","properties":{"bus":"yes","highway":"bus_stop","network":"Transporte Público Urbano Trujillo","public_transport":"platform","ref":"PFM-31","source":"Gerencia de Transporte Metropolitano de Trujillo","id":13546545587},"geometry":{"type":"Point","coordinates":[-79.0166589,-8.0858925]}},{"type":"Feature","properties":{"bus":"yes","highway":"bus_stop","network":"Transporte Público Urbano Trujillo","public_transport":"platform","ref":"MRFT-151","source":"Gerencia de Transporte Metropolitano de Trujillo","id":13546545919},"geometry":{"type":"Point","coordinates":[-79.0147316,-8.0858872]}},{"type":"Feature","properties":{"bus":"yes","highway":"bus_stop","network":"Transporte Público Urbano Trujillo","public_transport":"platform","ref":"MRFT-153","source":"Gerencia de Transporte Metropolitano de Trujillo","id":13546545121},"geometry":{"type":"Point","coordinates":[-79.0158277,-8.0879777]}},{"type":"Feature","properties":{"bus":"yes","highway":"bus_stop","network":"Transporte Público Urbano Trujillo","public_transport":"platform","ref":"MRFT-155","source":"Gerencia de Transporte Metropolitano de Trujillo","id":13546545119},"geometry":{"type":"Point","coordinates":[-79.0173183,-8.0909035]}},{"type":"Feature","properties":{"bus":"yes","highway":"bus_stop","network":"Transporte Público Urbano Trujillo","public_transport":"platform","ref":"MRFT-157","source":"Gerencia de Transporte Metropolitano de Trujillo","id":13546545118},"geometry":{"type":"Point","coordinates":[-79.0184435,-8.0931474]}},{"type":"Feature","properties":{"bus":"yes","highway":"bus_stop","network":"Transporte Público Urbano Trujillo","public_transport":"platform","ref":"MRFT-159","source":"Gerencia de Transporte Metropolitano de Trujillo","id":13546545117},"geometry":{"type":"Point","coordinates":[-79.0195201,-8.0958311]}},{"type":"Feature","properties":{"bus":"yes","highway":"bus_stop","network":"Transporte Público Urbano Trujillo","public_transport":"platform","ref":"MRFT-161","source":"Gerencia de Transporte Metropolitano de Trujillo","id":13546545115},"geometry":{"type":"Point","coordinates":[-79.0205478,-8.0982254]}},{"type":"Feature","properties":{"bus":"yes","highway":"bus_stop","network":"Transporte Público Urbano Trujillo","public_transport":"platform","ref":"MRFT-163","source":"Gerencia de Transporte Metropolitano de Trujillo","id":13546545113},"geometry":{"type":"Point","coordinates":[-79.0220679,-8.1008373]}},{"type":"Feature","properties":{"advertising":"no","bench":"no","bicycle_parking":"no","bin":"no","bus":"yes","departures_board":"no","highway":"bus_stop","level":"0","lit":"yes","name":"Avenida Perú","network":"Transporte Público Urbano Trujillo","passenger_information_display:speech_output":"no","pole":"yes","public_transport":"platform","ramp":"no","ref":"ESP-11","shelter":"no","source:ref":"Gerencia de Transporte Metropolitano de Trujillo","tactile_paving":"no","tactile_writing:braille:es":"no","id":11895953681},"geometry":{"type":"Point","coordinates":[-79.0226351,-8.1069826]}},{"type":"Feature","properties":{"advertising":"yes","bench":"yes","bicycle_parking":"no","bin":"no","bus":"yes","check_date:shelter":"2024-03-05","departures_board":"no","highway":"bus_stop","level":"0","lit":"no","name":"Jirón Unión","network":"Transporte Público Urbano Trujillo","passenger_information_display:speech_output":"no","pole":"yes","public_transport":"platform","ramp":"no","ref":"ESP-9","shelter":"yes","source":"Reconocimiento terrestre cartográfico realizado por Kaart en 2017","tactile_paving":"no","tactile_writing:braille:es":"no","id":5099494791},"geometry":{"type":"Point","coordinates":[-79.02188,-8.1080252]}},{"type":"Feature","properties":{"bus":"yes","highway":"bus_stop","network":"Transporte Público Urbano Trujillo","public_transport":"platform","ref":"ESP-8","source":"Gerencia de Transporte Metropolitano de Trujillo","id":13546545988},"geometry":{"type":"Point","coordinates":[-79.0216367,-8.1082618]}},{"type":"Feature","properties":{"bus":"yes","highway":"bus_stop","network":"Transporte Público Urbano Trujillo","public_transport":"platform","ref":"JUN-283","source":"Gerencia de Transporte Metropolitano de Trujillo","id":13546545943},"geometry":{"type":"Point","coordinates":[-79.0212133,-8.1078563]}},{"type":"Feature","properties":{"bus":"yes","highway":"bus_stop","network":"Transporte Público Urbano Trujillo","public_transport":"platform","ref":"JUN-284","source":"Gerencia de Transporte Metropolitano de Trujillo","id":13546545146},"geometry":{"type":"Point","coordinates":[-79.0187745,-8.1058153]}},{"type":"Feature","properties":{"bus":"yes","highway":"bus_stop","network":"Transporte Público Urbano Trujillo","public_transport":"platform","ref":"HUALL-511","source":"Gerencia de Transporte Metropolitano de Trujillo","id":13546545161},"geometry":{"type":"Point","coordinates":[-79.0171172,-8.1064512]}},{"type":"Feature","properties":{"bus":"yes","highway":"bus_stop","network":"Transporte Público Urbano Trujillo","public_transport":"platform","ref":"CEV-178","source":"Gerencia de Transporte Metropolitano de Trujillo","id":13546546019},"geometry":{"type":"Point","coordinates":[-79.0156336,-8.1079156]}},{"type":"Feature","properties":{"bus":"yes","highway":"bus_stop","network":"Transporte Público Urbano Trujillo","public_transport":"platform","ref":"RIP-331","source":"Gerencia de Transporte Metropolitano de Trujillo","id":13546545882},"geometry":{"type":"Point","coordinates":[-79.0170607,-8.110739]}},{"type":"Feature","properties":{"bus":"yes","highway":"bus_stop","network":"Transporte Público Urbano Trujillo","public_transport":"platform","ref":"RIP-329","source":"Gerencia de Transporte Metropolitano de Trujillo","id":13546535067},"geometry":{"type":"Point","coordinates":[-79.0149878,-8.1123146]}},{"type":"Feature","properties":{"bus":"yes","highway":"bus_stop","network":"Transporte Público Urbano Trujillo","public_transport":"platform","ref":"AMS-62","source":"Gerencia de Transporte Metropolitano de Trujillo","id":13546545233},"geometry":{"type":"Point","coordinates":[-79.014746,-8.113926]}},{"type":"Feature","properties":{"bus":"yes","highway":"bus_stop","network":"Transporte Público Urbano Trujillo","public_transport":"platform","ref":"AMS-40","source":"Gerencia de Transporte Metropolitano de Trujillo","id":13546546052},"geometry":{"type":"Point","coordinates":[-79.0164486,-8.1164039]}},{"type":"Feature","properties":{"bus":"yes","highway":"bus_stop","network":"Transporte Público Urbano Trujillo","public_transport":"platform","ref":"AMS-53","source":"Gerencia de Transporte Metropolitano de Trujillo","id":13546545240},"geometry":{"type":"Point","coordinates":[-79.0207348,-8.1211376]}},{"type":"Feature","properties":{"bus":"yes","highway":"bus_stop","network":"Transporte Público Urbano Trujillo","public_transport":"platform","ref":"AMS-57","source":"Gerencia de Transporte Metropolitano de Trujillo","id":13546545236},"geometry":{"type":"Point","coordinates":[-79.0224984,-8.122784]}},{"type":"Feature","properties":{"bus":"yes","highway":"bus_stop","network":"Transporte Público Urbano Trujillo","public_transport":"platform","ref":"AMS-37","source":"Gerencia de Transporte Metropolitano de Trujillo","id":13546545242},"geometry":{"type":"Point","coordinates":[-79.0246367,-8.124507]}},{"type":"Feature","properties":{"advertising":"no","bench":"yes","bicycle_parking":"no","bin":"no","bus":"yes","departures_board":"no","highway":"bus_stop","level":"0","lit":"yes","name":"AMS-36","network":"Transporte Público Urbano Trujillo","passenger_information_display:speech_output":"no","pole":"yes","public_transport":"platform","ramp":"yes","ref":"AMS-36","shelter":"yes","source":"Kaart Ground Survey","tactile_paving":"no","tactile_writing:braille:es":"no","id":5069523013},"geometry":{"type":"Point","coordinates":[-79.0277456,-8.1259685]}},{"type":"Feature","properties":{"advertising":"yes","bench":"yes","bicycle_parking":"no","bin":"no","bus":"yes","departures_board":"no","highway":"bus_stop","level":"0","lit":"yes","name":"Calle Australia","network":"Transporte Público Urbano Trujillo","passenger_information_display:speech_output":"no","pole":"yes","public_transport":"platform","ramp":"no","ref":"AMS-50","shelter":"yes","source:ref":"Gerencia de Transporte Metropolitano de Trujillo","tactile_paving":"no","tactile_writing:braille:es":"no","id":11910359976},"geometry":{"type":"Point","coordinates":[-79.0311411,-8.1265956]}},{"type":"Feature","properties":{"bus":"yes","highway":"bus_stop","network":"Transporte Público Urbano Trujillo","public_transport":"platform","ref":"AMS-48","source":"Gerencia de Transporte Metropolitano de Trujillo","id":13546546047},"geometry":{"type":"Point","coordinates":[-79.0342673,-8.1260536]}},{"type":"Feature","properties":{"advertising":"no","bench":"no","bicycle_parking":"no","bin":"no","bus":"yes","departures_board":"no","highway":"bus_stop","level":"0","lit":"yes","name":"Avenida Victor Larco Herrera","network":"Transporte Público Urbano Trujillo","passenger_information_display:speech_output":"no","pole":"yes","public_transport":"platform","ramp":"no","ref":"AMS-47","shelter":"no","source":"Kaart Ground Survey","tactile_paving":"no","tactile_writing:braille:es":"no","id":5067622117},"geometry":{"type":"Point","coordinates":[-79.0376674,-8.1247917]}},{"type":"Feature","properties":{"bus":"yes","highway":"bus_stop","network":"Transporte Público Urbano Trujillo","public_transport":"platform","ref":"AMS-44","source":"Gerencia de Transporte Metropolitano de Trujillo","id":13546546050},"geometry":{"type":"Point","coordinates":[-79.0390245,-8.1235198]}},{"type":"Feature","properties":{"bus":"yes","highway":"bus_stop","network":"Transporte Público Urbano Trujillo","public_transport":"platform","ref":"JPT-130","source":"Gerencia de Transporte Metropolitano de Trujillo","id":13546545952},"geometry":{"type":"Point","coordinates":[-79.0389756,-8.1180374]}},{"type":"Feature","properties":{"bus":"yes","highway":"bus_stop","network":"Transporte Público Urbano Trujillo","public_transport":"platform","ref":"JPT-128","source":"Gerencia de Transporte Metropolitano de Trujillo","id":13546545151},"geometry":{"type":"Point","coordinates":[-79.0368006,-8.115515]}},{"type":"Feature","properties":{"bus":"yes","highway":"bus_stop","network":"Transporte Público Urbano Trujillo","public_transport":"platform","ref":"JPT-129","source":"Gerencia de Transporte Metropolitano de Trujillo","id":13546545953},"geometry":{"type":"Point","coordinates":[-79.0350377,-8.113532]}},{"type":"Feature","properties":{"bus":"yes","highway":"bus_stop","network":"Transporte Público Urbano Trujillo","public_transport":"platform","ref":"JPT-137","source":"Gerencia de Transporte Metropolitano de Trujillo","id":13546545947},"geometry":{"type":"Point","coordinates":[-79.033657,-8.1117328]}},{"type":"Feature","properties":{"advertising":"yes","bench":"yes","bicycle_parking":"no","bin":"no","bus":"yes","departures_board":"yes","highway":"bus_stop","level":"0","lit":"yes","name":"Avenida Jesús de Nazareth","network":"Transporte Público Urbano Trujillo","passenger_information_display:speech_output":"no","public_transport":"platform","ramp":"no","ref":"JPT-138","shelter":"yes","source:ref":"Gerencia de Transporte Metropolitano de Trujillo","tactile_paving":"no","tactile_writing:braille:es":"no","id":11910518831},"geometry":{"type":"Point","coordinates":[-79.034349,-8.1123007]}},{"type":"Feature","properties":{"bus":"yes","highway":"bus_stop","network":"Transporte Público Urbano Trujillo","public_transport":"platform","ref":"JEN-142","source":"Gerencia de Transporte Metropolitano de Trujillo","id":13546545960},"geometry":{"type":"Point","coordinates":[-79.0366373,-8.1109036]}},{"type":"Feature","properties":{"bus":"yes","highway":"bus_stop","network":"Transporte Público Urbano Trujillo","public_transport":"platform","ref":"JEN-145","source":"Gerencia de Transporte Metropolitano de Trujillo","id":13546545958},"geometry":{"type":"Point","coordinates":[-79.0413452,-8.1086167]}},{"type":"Feature","properties":{"bus":"yes","highway":"bus_stop","network":"Transporte Público Urbano Trujillo","public_transport":"platform","ref":"JEN-146","source":"Gerencia de Transporte Metropolitano de Trujillo","id":13546545957},"geometry":{"type":"Point","coordinates":[-79.0421921,-8.108478]}}]}