{"type":"FeatureCollection","features":[{"type":"Feature","properties":{"check_date":"2025-12-18","colour":"#9999FF","colour:text":"#000000","fee":"yes","from":"Futuro Barrio 5C","hash":"14741","interval":"5","name":"Futuro Barrio 5C → Calle Alfonso Ugarte","network":"Transporte Público Urbano Trujillo","opening_hours":"Mo-Su 05:00-23:00","operator":"ALTO TRUJILLO S.A.","public_transport:version":"2","ref":"M-26 B","route":"bus","survey:avg_speed:kmh":"20","to":"Calle Alfonso Ugarte","type":"route","id":19962432},"geometry":{"type":"LineString","coordinates":[[-79.0059075,-8.0495085],[-79.0060206,-8.0498906],[-79.0060535,-8.0500067],[-79.0061507,-8.0503501],[-79.006289,-8.0508263],[-79.0066985,-8.0522305],[-79.0068491,-8.0527255],[-79.0069721,-8.0531294],[-79.007099,-8.0535463],[-79.0071921,-8.0538521],[-79.0072295,-8.0539751],[-79.0073628,-8.054413],[-79.0074861,-8.0548181],[-79.0076065,-8.0552137],[-79.0077259,-8.055606],[-79.0079137,-8.0561424],[-79.0080544,-8.0565443],[-79.0081308,-8.0567626],[-79.0082766,-8.057179],[-79.0083811,-8.0574775],[-79.0085331,-8.0579776],[-79.0087927,-8.0588321],[-79.0092686,-8.0586924],[-79.01033,-8.0583832],[-79.0101896,-8.0579473],[-79.0100526,-8.0575198],[-79.0108156,-8.0572952],[-79.0112583,-8.0571648],[-79.0117077,-8.0570325],[-79.0119696,-8.0578995],[-79.0122101,-8.0578135],[-79.0124324,-8.0577485],[-79.0125673,-8.0581755],[-79.0127249,-8.0586746],[-79.0128736,-8.0591633],[-79.0130033,-8.0595893],[-79.0125549,-8.0597673],[-79.0120791,-8.0599056],[-79.0113394,-8.0601206],[-79.0109015,-8.0602479],[-79.0103173,-8.0604177],[-79.0104238,-8.0608427],[-79.0105615,-8.0613428],[-79.0105833,-8.0614223],[-79.0105867,-8.0614638],[-79.0106261,-8.0619541],[-79.0105413,-8.0624002],[-79.0110207,-8.0624899],[-79.0108612,-8.063392],[-79.0107804,-8.063849],[-79.0106943,-8.0643341],[-79.0106095,-8.0648121],[-79.010523,-8.0652981],[-79.0109775,-8.0653817],[-79.0114735,-8.065473],[-79.0127785,-8.0657132],[-79.0132991,-8.065809],[-79.0139027,-8.06592],[-79.014364,-8.0660049],[-79.0148321,-8.0660911],[-79.0152411,-8.0661663],[-79.0157229,-8.066255],[-79.0159008,-8.0653463],[-79.0160047,-8.0648163],[-79.0161865,-8.0638877],[-79.0162741,-8.0634402],[-79.0167058,-8.0635222],[-79.0171784,-8.063612],[-79.0176612,-8.0637037],[-79.0179335,-8.0624611],[-79.0180376,-8.0619101],[-79.0181237,-8.0614951],[-79.0182156,-8.0610471],[-79.0183072,-8.0605047],[-79.0183386,-8.0603026],[-79.0183863,-8.0599878],[-79.0183565,-8.0598511],[-79.0182483,-8.0595036],[-79.0185753,-8.0593353],[-79.0193636,-8.0595381],[-79.0197909,-8.0596232],[-79.02019,-8.0596968],[-79.0199415,-8.0609082],[-79.0204405,-8.0610083],[-79.0203456,-8.0614726],[-79.0201815,-8.0623251],[-79.0200823,-8.062855],[-79.0198616,-8.0641216],[-79.0193603,-8.0640264],[-79.0189527,-8.063949],[-79.0182113,-8.0638081],[-79.0176612,-8.0637037],[-79.0175738,-8.0641502],[-79.0173928,-8.065075],[-79.0172796,-8.0656286],[-79.0171466,-8.0663331],[-79.0171119,-8.0665106],[-79.016931,-8.0674351],[-79.0168451,-8.0678738],[-79.0166714,-8.0687616],[-79.0166703,-8.0687733],[-79.0165972,-8.0695743],[-79.0165046,-8.0700396],[-79.0163485,-8.0709414],[-79.0168033,-8.0710782],[-79.0175218,-8.0712707],[-79.017515,-8.0713457],[-79.0174377,-8.0718441],[-79.0173599,-8.0722849],[-79.0173172,-8.0724222],[-79.017168,-8.0728177],[-79.0170054,-8.0732582],[-79.0168874,-8.0736406],[-79.016836,-8.0738972],[-79.0167568,-8.0743052],[-79.0166373,-8.074959],[-79.0166079,-8.0751231],[-79.0165341,-8.0756377],[-79.0165262,-8.0756925],[-79.0164671,-8.0761164],[-79.01596,-8.0760455],[-79.0158837,-8.076562],[-79.0157594,-8.0772459],[-79.0156194,-8.0780157],[-79.0154588,-8.078706],[-79.0152659,-8.0794734],[-79.0161651,-8.0797258],[-79.0170692,-8.0799879],[-79.0179509,-8.0802438],[-79.0195586,-8.0807567],[-79.0194151,-8.0814089],[-79.0193563,-8.0816392],[-79.0193377,-8.0817123],[-79.0193233,-8.081766],[-79.0192603,-8.082017],[-79.0191053,-8.0826176],[-79.018903,-8.0834016],[-79.018737,-8.0841143],[-79.0185468,-8.0847586],[-79.01835,-8.085399],[-79.0180687,-8.086036],[-79.0188488,-8.0861544],[-79.0196337,-8.0862709],[-79.0203137,-8.0863755],[-79.0209574,-8.0864763],[-79.0216038,-8.0865842],[-79.0223561,-8.0866973],[-79.0230494,-8.0868036],[-79.0237869,-8.0869208],[-79.0237778,-8.0869892],[-79.0237267,-8.0873718],[-79.0236251,-8.0880427],[-79.0235456,-8.0890432],[-79.0235535,-8.0890815],[-79.0235793,-8.0891102],[-79.0236721,-8.0891851],[-79.0237795,-8.0892827],[-79.0238495,-8.0893789],[-79.0239221,-8.0895952],[-79.0240526,-8.0900328],[-79.0241367,-8.090299],[-79.0243302,-8.0909317],[-79.0246144,-8.0920253],[-79.0247942,-8.0927373],[-79.0248581,-8.0930223],[-79.0248587,-8.0931106],[-79.0249673,-8.0932623],[-79.0249853,-8.0936908],[-79.024988,-8.0938078],[-79.0247998,-8.0938029],[-79.0245151,-8.093819],[-79.0242466,-8.0938619],[-79.023813,-8.0939771],[-79.0237513,-8.0940021],[-79.0237016,-8.0940184],[-79.0236604,-8.0940345],[-79.0235398,-8.09408],[-79.0229058,-8.0943332],[-79.0227625,-8.0943898],[-79.0223813,-8.0945352],[-79.0219235,-8.0947098],[-79.0218324,-8.0947445],[-79.0215922,-8.0948361],[-79.0200364,-8.0954295],[-79.0194035,-8.0956695],[-79.0192985,-8.0957094],[-79.0182224,-8.0961166],[-79.0180192,-8.0962058],[-79.0178722,-8.096317],[-79.0171876,-8.0968985],[-79.0169978,-8.0970621],[-79.0163588,-8.0975939],[-79.0162881,-8.0976544],[-79.0157025,-8.0981272],[-79.0141641,-8.0994701],[-79.0141167,-8.0995142],[-79.0131871,-8.1002921],[-79.013144,-8.100329],[-79.012794,-8.100646],[-79.0119215,-8.1014167],[-79.0117364,-8.1016716],[-79.0115612,-8.101987],[-79.0114,-8.1023429],[-79.0112848,-8.1026234],[-79.0112152,-8.1028092],[-79.0113601,-8.1029817],[-79.0115535,-8.1032119],[-79.0118411,-8.103533],[-79.0118948,-8.1036013],[-79.0120631,-8.1038034],[-79.0124206,-8.1042061],[-79.0126988,-8.104542],[-79.0129951,-8.104902],[-79.0132728,-8.1052311],[-79.0135652,-8.1055796],[-79.0137636,-8.1058156],[-79.0138448,-8.1059122],[-79.0138809,-8.1059559],[-79.01394,-8.1060244],[-79.0142599,-8.1064042],[-79.0145402,-8.1067307],[-79.0148137,-8.1070485],[-79.014991,-8.1072547],[-79.0154531,-8.1077802],[-79.0156808,-8.1080392],[-79.0159249,-8.1083147],[-79.0161436,-8.1085639],[-79.016527,-8.1090194],[-79.0167482,-8.1092704],[-79.0169713,-8.1095239],[-79.017527,-8.1101528],[-79.0175961,-8.110231],[-79.0181193,-8.1108247],[-79.0184411,-8.1111921],[-79.0184793,-8.111232],[-79.0188562,-8.1116538],[-79.0189475,-8.1117417],[-79.0192891,-8.1121245],[-79.0198924,-8.1128508],[-79.0202343,-8.1132738],[-79.0204853,-8.1135947],[-79.020867,-8.1140536],[-79.0216223,-8.1147748],[-79.022024,-8.1151865],[-79.0224448,-8.115615],[-79.0231409,-8.1163229],[-79.0241907,-8.1173689],[-79.0248674,-8.1179957],[-79.0249217,-8.1181009],[-79.0250373,-8.118209],[-79.025167,-8.1183311],[-79.0253204,-8.1184754],[-79.0253383,-8.1184941],[-79.0256705,-8.118841],[-79.0258057,-8.1189917],[-79.026243,-8.1194835],[-79.0262945,-8.1195754],[-79.02675,-8.1200995],[-79.0269758,-8.1203911],[-79.0271493,-8.1205805],[-79.0274505,-8.1209684],[-79.0279792,-8.1216187],[-79.0280282,-8.1216881],[-79.0287122,-8.1225294],[-79.0292329,-8.1231862],[-79.029476,-8.1234899],[-79.0298135,-8.1240896],[-79.0299158,-8.1242754],[-79.0300479,-8.1245431],[-79.0302664,-8.1251244],[-79.0303297,-8.1253556],[-79.0303401,-8.1254206],[-79.0303961,-8.1256544],[-79.0304149,-8.1257712],[-79.030435,-8.1259199],[-79.030459,-8.1262506],[-79.0304876,-8.1263729],[-79.0305186,-8.1264378],[-79.0305729,-8.1264821],[-79.030639,-8.1265378],[-79.0306793,-8.1265602],[-79.0308824,-8.1266308],[-79.0312798,-8.1266427],[-79.0313489,-8.1266446],[-79.0314248,-8.126643],[-79.0316427,-8.1266384],[-79.0317584,-8.1266359],[-79.0318475,-8.126634],[-79.0324224,-8.1265738],[-79.0325012,-8.1265655],[-79.0325606,-8.1265526],[-79.0332446,-8.1264037],[-79.0336719,-8.1262955],[-79.0338764,-8.12625],[-79.0341083,-8.1261869],[-79.0347331,-8.1260008],[-79.0351652,-8.125843],[-79.0355916,-8.1256858],[-79.0352729,-8.1248555],[-79.0351068,-8.1244355],[-79.0349425,-8.124062],[-79.0348543,-8.1238201],[-79.0348227,-8.1237333],[-79.0346954,-8.1234153],[-79.0344634,-8.1228359],[-79.0344269,-8.1227448],[-79.0341804,-8.1221291],[-79.0340596,-8.1218425],[-79.0339013,-8.1214671],[-79.03375,-8.1211081],[-79.0337219,-8.1210415],[-79.0335726,-8.1206873],[-79.0334325,-8.1203386],[-79.0329972,-8.1193226],[-79.032706,-8.1185622],[-79.032666,-8.1184231],[-79.0326075,-8.1176328],[-79.032603,-8.1175726],[-79.0325932,-8.1174231],[-79.0318193,-8.1165235],[-79.0317573,-8.1164515],[-79.0317389,-8.1164288],[-79.0312708,-8.1158862],[-79.0312147,-8.1157976],[-79.0307673,-8.1160244],[-79.0303971,-8.1161899],[-79.0302848,-8.116242],[-79.0299547,-8.1165072],[-79.0294209,-8.1169632],[-79.0286772,-8.1175894],[-79.0284193,-8.1178066],[-79.0282271,-8.1179685],[-79.0276199,-8.1184798],[-79.0275116,-8.118571],[-79.0262945,-8.1195754],[-79.026243,-8.1194835],[-79.0258057,-8.1189917],[-79.0256705,-8.118841],[-79.0253383,-8.1184941],[-79.0253204,-8.1184754],[-79.025167,-8.1183311],[-79.0250373,-8.118209],[-79.0249217,-8.1181009],[-79.0248441,-8.1180764],[-79.024142,-8.1174222],[-79.0230896,-8.1163724],[-79.0224025,-8.1156582],[-79.0219789,-8.1152309],[-79.0215809,-8.1148344],[-79.0213678,-8.1146176],[-79.0208073,-8.114097],[-79.0204401,-8.1136315],[-79.0201765,-8.1133091],[-79.0198386,-8.1128836],[-79.0192152,-8.1121631],[-79.0188813,-8.1118006],[-79.0187806,-8.1117241],[-79.0183624,-8.1112666],[-79.0180336,-8.1109069],[-79.0175129,-8.1102993],[-79.0174444,-8.1102211],[-79.0168949,-8.1095934],[-79.0164607,-8.1090763],[-79.0160606,-8.1086321],[-79.016002,-8.1085671],[-79.0158452,-8.1083849],[-79.0156031,-8.1081061],[-79.0153791,-8.1078466],[-79.0149207,-8.1073163],[-79.014742,-8.1071073],[-79.0144699,-8.1067831],[-79.0141982,-8.1064576],[-79.0138765,-8.1060794],[-79.0137806,-8.1059652],[-79.0136982,-8.1058694],[-79.0134976,-8.1056346],[-79.0132032,-8.1052914],[-79.0129236,-8.1049601],[-79.0126232,-8.1046043],[-79.0123322,-8.1042823],[-79.0122927,-8.1042322],[-79.0119901,-8.1038686],[-79.0118179,-8.1036636],[-79.011702,-8.103526],[-79.0112556,-8.1030038],[-79.0111726,-8.1029044],[-79.0110643,-8.1027749],[-79.0111039,-8.1026761],[-79.011198,-8.1024167],[-79.0112866,-8.102192],[-79.0114159,-8.1019145],[-79.0116076,-8.1016025],[-79.0117418,-8.1014326],[-79.0118356,-8.101329],[-79.0123764,-8.10082],[-79.0127128,-8.1005306],[-79.013052,-8.1002262],[-79.013115,-8.1001744],[-79.0132303,-8.1000777],[-79.0134721,-8.0999041],[-79.0140374,-8.099438],[-79.0140853,-8.0993954],[-79.0153502,-8.0983201],[-79.0156556,-8.0980592],[-79.0162565,-8.0975504],[-79.0163224,-8.0974945],[-79.0171209,-8.0968216],[-79.0175534,-8.0964329],[-79.0179282,-8.0961226],[-79.0182007,-8.0960213],[-79.0192627,-8.0956227],[-79.0193672,-8.095583],[-79.020003,-8.0953414],[-79.0209139,-8.0949933],[-79.0216779,-8.0946983],[-79.0217962,-8.0946526],[-79.0218858,-8.0946132],[-79.0223491,-8.0944305],[-79.0228166,-8.0942553],[-79.0228682,-8.094236],[-79.0230846,-8.0941549],[-79.023781,-8.0938842],[-79.024227,-8.093749],[-79.0245066,-8.093704],[-79.0247945,-8.0936876],[-79.0247749,-8.0932552],[-79.0248587,-8.0931106],[-79.0248581,-8.0930223],[-79.0247942,-8.0927373],[-79.0246144,-8.0920253],[-79.0243302,-8.0909317],[-79.0241367,-8.090299],[-79.0240526,-8.0900328],[-79.0239221,-8.0895952],[-79.0238495,-8.0893789],[-79.0237795,-8.0892827],[-79.0236721,-8.0891851],[-79.0235793,-8.0891102],[-79.0235535,-8.0890815],[-79.0235456,-8.0890432],[-79.0236251,-8.0880427],[-79.0237267,-8.0873718],[-79.0237778,-8.0869892],[-79.0230407,-8.0868756],[-79.0223458,-8.0867675],[-79.0215948,-8.0866503],[-79.0209386,-8.0865471],[-79.0202923,-8.0864468],[-79.019611,-8.0863305],[-79.018821,-8.0862137],[-79.0180367,-8.086101],[-79.0180687,-8.086036],[-79.01835,-8.085399],[-79.0185468,-8.0847586],[-79.018737,-8.0841143],[-79.018903,-8.0834016],[-79.0191053,-8.0826176],[-79.0192603,-8.082017],[-79.0193233,-8.081766],[-79.0193377,-8.0817123],[-79.0193563,-8.0816392],[-79.0194151,-8.0814089],[-79.0195586,-8.0807567],[-79.0179509,-8.0802438],[-79.0170692,-8.0799879],[-79.0161651,-8.0797258],[-79.0152659,-8.0794734],[-79.0154588,-8.078706],[-79.0156194,-8.0780157],[-79.0157594,-8.0772459],[-79.0158837,-8.076562],[-79.01596,-8.0760455],[-79.0164671,-8.0761164],[-79.0165262,-8.0756925],[-79.0165341,-8.0756377],[-79.0166079,-8.0751231],[-79.0166373,-8.074959],[-79.0167568,-8.0743052],[-79.016836,-8.0738972],[-79.0168874,-8.0736406],[-79.0170054,-8.0732582],[-79.017168,-8.0728177],[-79.0173172,-8.0724222],[-79.0173599,-8.0722849],[-79.0174377,-8.0718441],[-79.017515,-8.0713457],[-79.016787,-8.0711615],[-79.0163343,-8.0710228],[-79.0163485,-8.0709414],[-79.0165046,-8.0700396],[-79.0165972,-8.0695743],[-79.0166703,-8.0687733],[-79.0166714,-8.0687616],[-79.0168451,-8.0678738],[-79.016931,-8.0674351],[-79.0171119,-8.0665106],[-79.0173178,-8.0665485],[-79.0176016,-8.0666008],[-79.0180566,-8.0666845],[-79.0185199,-8.0667698],[-79.0193202,-8.0669149],[-79.0194754,-8.0660257],[-79.0195925,-8.065482],[-79.019772,-8.064566],[-79.0198616,-8.0641216],[-79.0200823,-8.062855],[-79.0201815,-8.0623251],[-79.0203456,-8.0614726],[-79.0204405,-8.0610083],[-79.0199415,-8.0609082],[-79.02019,-8.0596968],[-79.0197909,-8.0596232],[-79.0193636,-8.0595381],[-79.0185753,-8.0593353],[-79.0182483,-8.0595036],[-79.0183565,-8.0598511],[-79.0183863,-8.0599878],[-79.0183386,-8.0603026],[-79.0183072,-8.0605047],[-79.0182156,-8.0610471],[-79.0181237,-8.0614951],[-79.0180376,-8.0619101],[-79.0179335,-8.0624611],[-79.0176612,-8.0637037],[-79.0171784,-8.063612],[-79.0167058,-8.0635222],[-79.0162741,-8.0634402],[-79.0161865,-8.0638877],[-79.0160047,-8.0648163],[-79.0159008,-8.0653463],[-79.0157229,-8.066255],[-79.0152411,-8.0661663],[-79.0148321,-8.0660911],[-79.014364,-8.0660049],[-79.0139027,-8.06592],[-79.0132991,-8.065809],[-79.0127785,-8.0657132],[-79.0114735,-8.065473],[-79.0109775,-8.0653817],[-79.010523,-8.0652981],[-79.0106095,-8.0648121],[-79.0106943,-8.0643341],[-79.0107804,-8.063849],[-79.0108612,-8.063392],[-79.0110207,-8.0624899],[-79.0105413,-8.0624002],[-79.0106261,-8.0619541],[-79.0105867,-8.0614638],[-79.0105833,-8.0614223],[-79.0105615,-8.0613428],[-79.0104238,-8.0608427],[-79.0103173,-8.0604177],[-79.0109015,-8.0602479],[-79.0113394,-8.0601206],[-79.0120791,-8.0599056],[-79.0125549,-8.0597673],[-79.0130033,-8.0595893],[-79.0128736,-8.0591633],[-79.0127249,-8.0586746],[-79.0125673,-8.0581755],[-79.0124324,-8.0577485],[-79.0122101,-8.0578135],[-79.0119696,-8.0578995],[-79.0117077,-8.0570325],[-79.0112583,-8.0571648],[-79.0108156,-8.0572952],[-79.0100526,-8.0575198],[-79.0101896,-8.0579473],[-79.01033,-8.0583832],[-79.0092686,-8.0586924],[-79.0087927,-8.0588321],[-79.0085331,-8.0579776],[-79.0083811,-8.0574775],[-79.0082766,-8.057179],[-79.0081308,-8.0567626],[-79.0080544,-8.0565443],[-79.0079137,-8.0561424],[-79.0077259,-8.055606],[-79.0076065,-8.0552137],[-79.0074861,-8.0548181],[-79.0073628,-8.054413],[-79.0072295,-8.0539751],[-79.0071921,-8.0538521],[-79.007099,-8.0535463],[-79.0069721,-8.0531294],[-79.0068491,-8.0527255],[-79.0066985,-8.0522305],[-79.006289,-8.0508263],[-79.0061507,-8.0503501],[-79.0060535,-8.0500067],[-79.0060206,-8.0498906],[-79.0059075,-8.0495085]],"nodes":[10961609694,3142660193,10961609693,8098585692,5491786774,3133822674,3133822697,3133822699,3133822701,3133822691,3265943059,3133822705,3133822707,3133822709,3133822678,10859181225,10859181233,10859191272,10859181207,1098592288,5480833941,5480833947,5480833931,5480833944,5480832013,5480833940,8129896403,5480833938,5480833939,5480833943,13379101989,1098615873,5084092559,1098598873,5084092553,1098586669,1098643416,5480833935,5480833953,5480833946,1098595858,1098598621,5480833951,1098629118,5480832009,1098595307,1098595585,5084053135,11905585409,1098606780,8167883796,1098627786,1098597545,1098646108,1098597944,5458516810,1098625027,1098602905,5480835575,1098613976,5483458657,5453873208,5483458648,1098603559,1098585633,1098596375,5483458659,5483458662,1098631256,1098629349,1098646687,1098635161,1098640674,1098584990,1098646830,4438560879,1098634782,2503344304,1098647414,3271162587,1098602444,1098595450,1098609027,1098598781,1098620051,1098613982,1098646259,1098628627,5483476456,1098584544,1098590457,1098631256,1098599125,11879291138,11842292681,11023388078,5483457806,1098591212,5483458647,1098628601,13475029394,13377376578,5483391040,5082107599,5082107598,5483458633,5483391103,5483391104,5483391105,5483391068,5483391106,5483391107,5483391108,5483391044,5483391109,8723456859,1098587453,8723617301,5458531527,5483391102,5483391094,1098626949,1098637057,1098649542,1098624634,5483391117,1098591468,5458516817,1098640121,1098647797,5456241643,11027891721,4454080659,5456241641,8167925079,5456218870,5456218869,5456218874,1098595562,1098595956,1098603595,1098613708,1098623890,5483037369,1098593452,5483037363,5456093616,5456095923,1098609497,10735691980,5456218881,5456218884,5456218885,10735697401,5483037374,5483053677,5483079104,10735697402,9727770486,5483085106,9727770484,5483053696,5533892084,8164892856,5483053675,1098635227,1268310305,1268310334,4706097931,5071955848,316265147,316265146,1051035881,11794036741,9218464455,11108034819,9218464466,11032795711,11016646725,1088227440,316265144,2481251264,11032940509,1051036093,316265142,320114989,1051000321,316265139,11028523289,5079131744,1098588381,1098629654,1098619287,1051000288,4452550922,4452550920,11033509208,1051000208,1026647093,316265136,4706097947,316265135,11028491513,11032996041,316265134,11032996038,11032996039,1026647433,11023381286,1026647328,11023313850,11023313852,1026647709,11023313854,11023313856,5086629392,11023313858,1026647291,11023313860,1098635308,11023313862,5086629394,1088227188,1098590745,11023313864,11023313866,1098623436,5676152374,9830187850,11023976595,1098639667,1144498432,1098595546,11023976593,5432160617,1088227460,1015347803,1098645978,1088227401,2466662083,1088227447,1050928494,1088227351,1088227443,1088227238,1088227437,1088227226,316256329,1627006909,1627006911,11892812604,1098635029,5476546768,1627006951,5476546769,316260175,316260176,1098634502,316260177,11037678904,1098643105,1873564618,1098598795,1024375759,316265260,316265261,316265262,2606512423,1098631512,316265263,13086967433,316265264,2892557349,316265265,1098595664,316265266,1098629626,1098641228,5455991386,13086967446,1098603039,1098622755,11086134231,1098600368,11086134233,7115416189,7115416190,1098584061,11086134238,1098606184,11086134236,1098627329,5421654649,1098588879,1098645742,1098584460,9515118512,320114979,5473932882,5421654640,10726577985,5476546737,1098639363,5421654644,5421654643,11033416914,1088227459,5478623439,5476546727,11037749311,5476546731,5476546724,5476545818,1088227196,1626986884,316490321,13388848278,11037623966,316490236,13388848296,1088227342,13388848297,316265333,316264036,316264037,1554840447,1628563878,316256200,5072149530,1098598714,1098608890,5476546746,1627006920,1098635606,316260176,316260175,5476546769,1627006951,5476546768,1098635029,11892812604,1627006911,1627006909,316260128,1088227275,1088227478,1088227293,1088227185,1088227399,1015347876,1050928471,1088227193,1145579819,1015292444,1144498438,1026647781,1088227261,11023976592,1098613755,1007782483,1098602637,11023976594,1098601972,11023313868,1098584430,11023313867,11023313865,5086629395,1088227445,3569346209,11023313863,1098613888,11023313861,11023313859,5086629393,11023313857,11023313855,1026647788,11023313853,11023313851,1026647512,1098632843,11023381285,11032994349,11032994346,316265133,1088227363,316265105,7118056424,11032994344,316265104,4706097946,316265103,1098633822,8845540452,1098623858,11910518850,11033509209,11032996035,11032996037,4452550923,4452550921,1098598186,5098557143,1098607852,1098641251,5079131745,1098609883,316265100,1098612563,320114991,316265097,1098630982,1098621187,11032795718,2481251300,2481251299,1088227390,5483089724,11032795715,11032795712,1098604016,5071955846,316265092,1268310331,1268310382,1098635227,5483053675,8164892856,5533892084,5483053696,9727770484,5483085106,9727770486,10735697402,5483079104,5483053677,5483037374,10735697401,5456218885,5456218884,5456218881,10735691980,10735691981,10735691982,10735691983,10735691984,10735691985,10735691986,10735702888,10735702889,1098603595,1098595956,1098595562,5456218874,5456218869,5456218870,8167925079,5456241641,4454080659,11027891721,5456241643,1098647797,1098640121,5458516817,1098591468,5483391117,1098624634,1098649542,1098637057,1098626949,5483391094,5483391102,5458531527,8723617301,1098587453,8723456859,5483391109,5483391044,5483391108,5483391107,5483391106,5483391068,5483391105,5483391104,5483391103,1098630638,1098626330,5082107599,5483391040,13377376578,13475029394,1098628601,5483458647,1098591212,5483457806,11023388081,5483458666,11879302778,5488968756,1098635982,1098596665,1098610219,1098627424,1098628627,1098646259,1098613982,1098620051,1098598781,1098609027,1098595450,1098602444,3271162587,1098647414,2503344304,1098634782,4438560879,1098646830,1098584990,1098640674,1098635161,1098646687,1098629349,1098631256,5483458662,5483458659,1098596375,1098585633,1098603559,5483458648,5453873208,5483458657,1098613976,5480835575,1098602905,1098625027,5458516810,1098597944,1098646108,1098597545,1098627786,8167883796,1098606780,11905585409,5084053135,1098595585,1098595307,5480832009,1098629118,5480833951,1098598621,1098595858,5480833946,5480833953,5480833935,1098643416,1098586669,5084092553,1098598873,5084092559,1098615873,13379101989,5480833943,5480833939,5480833938,8129896403,5480833940,5480832013,5480833944,5480833931,5480833947,5480833941,1098592288,10859181207,10859191272,10859181233,10859181225,3133822678,3133822709,3133822707,3133822705,3265943059,3133822691,3133822701,3133822699,3133822697,3133822674,5491786774,8098585692,10961609693,3142660193,10961609694]},"gtfs":{"agency_id":8,"route_id":23,"services":[{"service_id":"Mo-Su","startTime":"05:00","endTime":"23:00","trip_id":19962432}],"filteredStops":{"nodes":[10961609694,13546546391,13546546393,13546545814,13546545815,13546546378,13546545804,13546546409,13546546407,13546545851,13546545854,13546545445,13546546218,13546545569,13546545571,13546545608,13546545609,13546545591,13546545592,13546545593,13546546038,13546545244,13546545246,13546545248,13546545254,13546545255,13546545234,13546546023,13546546021,13546546019,13546546016,13546545962,13546545963,13546545965,13546545945,13546546005,13546546007,11910359976,13546546047,13546545166,13546545969,13546545163,13546545863,13546545990,13546545148,13546545944,13546545945,13546546004,13546545966,13546545964,13546546024,13546545217,13546546020,13546546022,13546545218,13546545235,13546546057,11910518849,13546545247,13546545245,13546546039,13546545585,13546545584,13546545599,13546545607,13546545446,13546545852,13546546408,13546545853,13546546385,13546545816,13546545813,13546546392,13546546389,10961609694],"coordinates":[[-79.0059075,-8.0495085],[-79.0127572,-8.0597551],[-79.0104078,-8.0607019],[-79.0108811,-8.063631],[-79.0119759,-8.0655177],[-79.0149956,-8.0660813],[-79.0161769,-8.0636731],[-79.0183134,-8.0597726],[-79.0196195,-8.0595649],[-79.0199918,-8.0634928],[-79.0173204,-8.0659037],[-79.01671,-8.0691611],[-79.01751,-8.0716927],[-79.0167376,-8.0747301],[-79.0158262,-8.077003],[-79.0158208,-8.0796036],[-79.0189497,-8.0805455],[-79.0188501,-8.0837409],[-79.0199551,-8.0863014],[-79.0226753,-8.086695],[-79.0239592,-8.0895126],[-79.0240527,-8.0939629],[-79.020912,-8.0951663],[-79.019672,-8.0956286],[-79.0175856,-8.0966327],[-79.0149849,-8.0989034],[-79.0130855,-8.1005],[-79.0126094,-8.1043873],[-79.0145716,-8.1067384],[-79.0156336,-8.1079156],[-79.0181023,-8.1106886],[-79.0201808,-8.1130933],[-79.0220161,-8.1150471],[-79.0241273,-8.1172192],[-79.0264409,-8.1195518],[-79.0265009,-8.1197406],[-79.0303192,-8.1250829],[-79.0311411,-8.1265956],[-79.0342673,-8.1260536],[-79.0353629,-8.125252],[-79.0341871,-8.1222569],[-79.0331823,-8.1198823],[-79.0318094,-8.1166638],[-79.0304266,-8.1162183],[-79.0288676,-8.1175878],[-79.0277625,-8.1184498],[-79.0264409,-8.1195518],[-79.0260593,-8.1193536],[-79.0242313,-8.117565],[-79.0221074,-8.1153628],[-79.0196637,-8.1127858],[-79.0176395,-8.1104764],[-79.0154954,-8.1080185],[-79.0138854,-8.1061501],[-79.0120998,-8.1040441],[-79.0128592,-8.1002664],[-79.0159997,-8.0976796],[-79.0178601,-8.0961305],[-79.0204626,-8.0950773],[-79.023311,-8.0940285],[-79.0238086,-8.0894725],[-79.0227141,-8.0868668],[-79.0200443,-8.08641],[-79.0187287,-8.0839135],[-79.0190132,-8.0806553],[-79.016614,-8.069123],[-79.0193897,-8.0663008],[-79.0184666,-8.0600562],[-79.0180002,-8.0622327],[-79.0149551,-8.066164],[-79.0119513,-8.0656067],[-79.0108015,-8.0635656],[-79.0126941,-8.059666],[-79.0121747,-8.0578289],[-79.0059075,-8.0495085]]},"forcedEndpointStops":[{"stop_id":10961609694,"stop_name":"Sin nombre","position":"first"},{"stop_id":10961609694,"stop_name":"Sin nombre","position":"last"}]}},{"type":"Feature","properties":{"bus":"yes","highway":"bus_stop","network":"Transporte Público Urbano Trujillo","public_transport":"platform","ref":"PAT-53","source":"Gerencia de Transporte Metropolitano de Trujillo","id":13546546391},"geometry":{"type":"Point","coordinates":[-79.0127572,-8.0597551]}},{"type":"Feature","properties":{"bus":"yes","highway":"bus_stop","network":"Transporte Público Urbano Trujillo","public_transport":"platform","ref":"PAT-50","source":"Gerencia de Transporte Metropolitano de Trujillo","id":13546546393},"geometry":{"type":"Point","coordinates":[-79.0104078,-8.0607019]}},{"type":"Feature","properties":{"bus":"yes","highway":"bus_stop","network":"Transporte Público Urbano Trujillo","public_transport":"platform","ref":"PAT-48","source":"Gerencia de Transporte Metropolitano de Trujillo","id":13546545814},"geometry":{"type":"Point","coordinates":[-79.0108811,-8.063631]}},{"type":"Feature","properties":{"bus":"yes","highway":"bus_stop","network":"Transporte Público Urbano Trujillo","public_transport":"platform","ref":"PAT-47","source":"Gerencia de Transporte Metropolitano de Trujillo","id":13546545815},"geometry":{"type":"Point","coordinates":[-79.0119759,-8.0655177]}},{"type":"Feature","properties":{"bus":"yes","highway":"bus_stop","network":"Transporte Público Urbano Trujillo","public_transport":"platform","ref":"PAT-95","source":"Gerencia de Transporte Metropolitano de Trujillo","id":13546546378},"geometry":{"type":"Point","coordinates":[-79.0149956,-8.0660813]}},{"type":"Feature","properties":{"bus":"yes","highway":"bus_stop","network":"Transporte Público Urbano Trujillo","public_transport":"platform","ref":"PAT-71","source":"Gerencia de Transporte Metropolitano de Trujillo","id":13546545804},"geometry":{"type":"Point","coordinates":[-79.0161769,-8.0636731]}},{"type":"Feature","properties":{"bus":"yes","highway":"bus_stop","network":"Transporte Público Urbano Trujillo","public_transport":"platform","ref":"PAT-124","source":"Gerencia de Transporte Metropolitano de Trujillo","id":13546546409},"geometry":{"type":"Point","coordinates":[-79.0183134,-8.0597726]}},{"type":"Feature","properties":{"bus":"yes","highway":"bus_stop","network":"Transporte Público Urbano Trujillo","public_transport":"platform","ref":"PAT-128","source":"Gerencia de Transporte Metropolitano de Trujillo","id":13546546407},"geometry":{"type":"Point","coordinates":[-79.0196195,-8.0595649]}},{"type":"Feature","properties":{"bus":"yes","highway":"bus_stop","network":"Transporte Público Urbano Trujillo","public_transport":"platform","ref":"PAT-114","source":"Gerencia de Transporte Metropolitano de Trujillo","id":13546545851},"geometry":{"type":"Point","coordinates":[-79.0199918,-8.0634928]}},{"type":"Feature","properties":{"bus":"yes","highway":"bus_stop","network":"Transporte Público Urbano Trujillo","public_transport":"platform","ref":"PAT-107","source":"Gerencia de Transporte Metropolitano de Trujillo","id":13546545854},"geometry":{"type":"Point","coordinates":[-79.0173204,-8.0659037]}},{"type":"Feature","properties":{"bus":"yes","highway":"bus_stop","network":"Transporte Público Urbano Trujillo","public_transport":"platform","ref":"PP-192","source":"Gerencia de Transporte Metropolitano de Trujillo","id":13546545445},"geometry":{"type":"Point","coordinates":[-79.01671,-8.0691611]}},{"type":"Feature","properties":{"bus":"yes","highway":"bus_stop","network":"Transporte Público Urbano Trujillo","public_transport":"platform","ref":"PP-183","source":"Gerencia de Transporte Metropolitano de Trujillo","id":13546546218},"geometry":{"type":"Point","coordinates":[-79.01751,-8.0716927]}},{"type":"Feature","properties":{"bus":"yes","highway":"bus_stop","network":"Transporte Público Urbano Trujillo","public_transport":"platform","ref":"PFM-61","source":"Gerencia de Transporte Metropolitano de Trujillo","id":13546545569},"geometry":{"type":"Point","coordinates":[-79.0167376,-8.0747301]}},{"type":"Feature","properties":{"bus":"yes","highway":"bus_stop","network":"Transporte Público Urbano Trujillo","public_transport":"platform","ref":"PFM-55","source":"Gerencia de Transporte Metropolitano de Trujillo","id":13546545571},"geometry":{"type":"Point","coordinates":[-79.0158262,-8.077003]}},{"type":"Feature","properties":{"bus":"yes","highway":"bus_stop","network":"Transporte Público Urbano Trujillo","public_transport":"platform","ref":"PFM-102","source":"Gerencia de Transporte Metropolitano de Trujillo","id":13546545608},"geometry":{"type":"Point","coordinates":[-79.0158208,-8.0796036]}},{"type":"Feature","properties":{"bus":"yes","highway":"bus_stop","network":"Transporte Público Urbano Trujillo","public_transport":"platform","ref":"PFM-101","source":"Gerencia de Transporte Metropolitano de Trujillo","id":13546545609},"geometry":{"type":"Point","coordinates":[-79.0189497,-8.0805455]}},{"type":"Feature","properties":{"bus":"yes","highway":"bus_stop","network":"Transporte Público Urbano Trujillo","public_transport":"platform","ref":"PFM-28","source":"Gerencia de Transporte Metropolitano de Trujillo","id":13546545591},"geometry":{"type":"Point","coordinates":[-79.0188501,-8.0837409]}},{"type":"Feature","properties":{"bus":"yes","highway":"bus_stop","network":"Transporte Público Urbano Trujillo","public_transport":"platform","ref":"PFM-27","source":"Gerencia de Transporte Metropolitano de Trujillo","id":13546545592},"geometry":{"type":"Point","coordinates":[-79.0199551,-8.0863014]}},{"type":"Feature","properties":{"bus":"yes","highway":"bus_stop","network":"Transporte Público Urbano Trujillo","public_transport":"platform","ref":"PFM-26","source":"Gerencia de Transporte Metropolitano de Trujillo","id":13546545593},"geometry":{"type":"Point","coordinates":[-79.0226753,-8.086695]}},{"type":"Feature","properties":{"bus":"yes","highway":"bus_stop","network":"Transporte Público Urbano Trujillo","public_transport":"platform","ref":"AVOC-454","source":"Gerencia de Transporte Metropolitano de Trujillo","id":13546546038},"geometry":{"type":"Point","coordinates":[-79.0239592,-8.0895126]}},{"type":"Feature","properties":{"bus":"yes","highway":"bus_stop","network":"Transporte Público Urbano Trujillo","public_transport":"platform","ref":"AMN-33","source":"Gerencia de Transporte Metropolitano de Trujillo","id":13546545244},"geometry":{"type":"Point","coordinates":[-79.0240527,-8.0939629]}},{"type":"Feature","properties":{"bus":"yes","highway":"bus_stop","network":"Transporte Público Urbano Trujillo","public_transport":"platform","ref":"AMN-31","source":"Gerencia de Transporte Metropolitano de Trujillo","id":13546545246},"geometry":{"type":"Point","coordinates":[-79.020912,-8.0951663]}},{"type":"Feature","properties":{"bus":"yes","highway":"bus_stop","network":"Transporte Público Urbano Trujillo","public_transport":"platform","ref":"AMN-29","source":"Gerencia de Transporte Metropolitano de Trujillo","id":13546545248},"geometry":{"type":"Point","coordinates":[-79.019672,-8.0956286]}},{"type":"Feature","properties":{"bus":"yes","highway":"bus_stop","network":"Transporte Público Urbano Trujillo","public_transport":"platform","ref":"AMN-19","source":"Gerencia de Transporte Metropolitano de Trujillo","id":13546545254},"geometry":{"type":"Point","coordinates":[-79.0175856,-8.0966327]}},{"type":"Feature","properties":{"bus":"yes","highway":"bus_stop","network":"Transporte Público Urbano Trujillo","public_transport":"platform","ref":"AMN-17","source":"Gerencia de Transporte Metropolitano de Trujillo","id":13546545255},"geometry":{"type":"Point","coordinates":[-79.0149849,-8.0989034]}},{"type":"Feature","properties":{"bus":"yes","highway":"bus_stop","network":"Transporte Público Urbano Trujillo","public_transport":"platform","ref":"AMS-59","source":"Gerencia de Transporte Metropolitano de Trujillo","id":13546545234},"geometry":{"type":"Point","coordinates":[-79.0130855,-8.1005]}},{"type":"Feature","properties":{"bus":"yes","highway":"bus_stop","network":"Transporte Público Urbano Trujillo","public_transport":"platform","ref":"CEV-174","source":"Gerencia de Transporte Metropolitano de Trujillo","id":13546546023},"geometry":{"type":"Point","coordinates":[-79.0126094,-8.1043873]}},{"type":"Feature","properties":{"bus":"yes","highway":"bus_stop","network":"Transporte Público Urbano Trujillo","public_transport":"platform","ref":"CEV-176","source":"Gerencia de Transporte Metropolitano de Trujillo","id":13546546021},"geometry":{"type":"Point","coordinates":[-79.0145716,-8.1067384]}},{"type":"Feature","properties":{"bus":"yes","highway":"bus_stop","network":"Transporte Público Urbano Trujillo","public_transport":"platform","ref":"CEV-178","source":"Gerencia de Transporte Metropolitano de Trujillo","id":13546546019},"geometry":{"type":"Point","coordinates":[-79.0156336,-8.1079156]}},{"type":"Feature","properties":{"bus":"yes","highway":"bus_stop","network":"Transporte Público Urbano Trujillo","public_transport":"platform","ref":"CEV-183","source":"Gerencia de Transporte Metropolitano de Trujillo","id":13546546016},"geometry":{"type":"Point","coordinates":[-79.0181023,-8.1106886]}},{"type":"Feature","properties":{"bus":"yes","highway":"bus_stop","network":"Transporte Público Urbano Trujillo","public_transport":"platform","ref":"IN-171","source":"Gerencia de Transporte Metropolitano de Trujillo","id":13546545962},"geometry":{"type":"Point","coordinates":[-79.0201808,-8.1130933]}},{"type":"Feature","properties":{"bus":"yes","highway":"bus_stop","network":"Transporte Público Urbano Trujillo","public_transport":"platform","ref":"IN-170","source":"Gerencia de Transporte Metropolitano de Trujillo","id":13546545963},"geometry":{"type":"Point","coordinates":[-79.0220161,-8.1150471]}},{"type":"Feature","properties":{"bus":"yes","highway":"bus_stop","network":"Transporte Público Urbano Trujillo","public_transport":"platform","ref":"IN-168","source":"Gerencia de Transporte Metropolitano de Trujillo","id":13546545965},"geometry":{"type":"Point","coordinates":[-79.0241273,-8.1172192]}},{"type":"Feature","properties":{"bus":"yes","highway":"bus_stop","network":"Transporte Público Urbano Trujillo","public_transport":"platform","ref":"JUL-435","source":"Gerencia de Transporte Metropolitano de Trujillo","id":13546545945},"geometry":{"type":"Point","coordinates":[-79.0264409,-8.1195518]}},{"type":"Feature","properties":{"bus":"yes","highway":"bus_stop","network":"Transporte Público Urbano Trujillo","public_transport":"platform","ref":"COSR-336","source":"Gerencia de Transporte Metropolitano de Trujillo","id":13546546005},"geometry":{"type":"Point","coordinates":[-79.0265009,-8.1197406]}},{"type":"Feature","properties":{"bus":"yes","highway":"bus_stop","network":"Transporte Público Urbano Trujillo","public_transport":"platform","ref":"COSR-333","source":"Gerencia de Transporte Metropolitano de Trujillo","id":13546546007},"geometry":{"type":"Point","coordinates":[-79.0303192,-8.1250829]}},{"type":"Feature","properties":{"advertising":"yes","bench":"yes","bicycle_parking":"no","bin":"no","bus":"yes","departures_board":"no","highway":"bus_stop","level":"0","lit":"yes","name":"Calle Australia","network":"Transporte Público Urbano Trujillo","passenger_information_display:speech_output":"no","pole":"yes","public_transport":"platform","ramp":"no","ref":"AMS-50","shelter":"yes","source:ref":"Gerencia de Transporte Metropolitano de Trujillo","tactile_paving":"no","tactile_writing:braille:es":"no","id":11910359976},"geometry":{"type":"Point","coordinates":[-79.0311411,-8.1265956]}},{"type":"Feature","properties":{"bus":"yes","highway":"bus_stop","network":"Transporte Público Urbano Trujillo","public_transport":"platform","ref":"AMS-48","source":"Gerencia de Transporte Metropolitano de Trujillo","id":13546546047},"geometry":{"type":"Point","coordinates":[-79.0342673,-8.1260536]}},{"type":"Feature","properties":{"bus":"yes","highway":"bus_stop","network":"Transporte Público Urbano Trujillo","public_transport":"platform","ref":"HSJ-232","source":"Gerencia de Transporte Metropolitano de Trujillo","id":13546545166},"geometry":{"type":"Point","coordinates":[-79.0353629,-8.125252]}},{"type":"Feature","properties":{"bus":"yes","highway":"bus_stop","network":"Transporte Público Urbano Trujillo","public_transport":"platform","ref":"HSJ-234","source":"Gerencia de Transporte Metropolitano de Trujillo","id":13546545969},"geometry":{"type":"Point","coordinates":[-79.0341871,-8.1222569]}},{"type":"Feature","properties":{"bus":"yes","highway":"bus_stop","network":"Transporte Público Urbano Trujillo","public_transport":"platform","ref":"HSJ-236","source":"Gerencia de Transporte Metropolitano de Trujillo","id":13546545163},"geometry":{"type":"Point","coordinates":[-79.0331823,-8.1198823]}},{"type":"Feature","properties":{"bus":"yes","highway":"bus_stop","network":"Transporte Público Urbano Trujillo","public_transport":"platform","ref":"VLHT-91","source":"Gerencia de Transporte Metropolitano de Trujillo","id":13546545863},"geometry":{"type":"Point","coordinates":[-79.0318094,-8.1166638]}},{"type":"Feature","properties":{"bus":"yes","highway":"bus_stop","network":"Transporte Público Urbano Trujillo","public_transport":"platform","ref":"ESP-4","source":"Gerencia de Transporte Metropolitano de Trujillo","id":13546545990},"geometry":{"type":"Point","coordinates":[-79.0304266,-8.1162183]}},{"type":"Feature","properties":{"bus":"yes","highway":"bus_stop","network":"Transporte Público Urbano Trujillo","public_transport":"platform","ref":"JUL-436","source":"Gerencia de Transporte Metropolitano de Trujillo","id":13546545148},"geometry":{"type":"Point","coordinates":[-79.0288676,-8.1175878]}},{"type":"Feature","properties":{"bus":"yes","highway":"bus_stop","network":"Transporte Público Urbano Trujillo","public_transport":"platform","ref":"JUL-440","source":"Gerencia de Transporte Metropolitano de Trujillo","id":13546545944},"geometry":{"type":"Point","coordinates":[-79.0277625,-8.1184498]}},{"type":"Feature","properties":{"bus":"yes","highway":"bus_stop","network":"Transporte Público Urbano Trujillo","public_transport":"platform","ref":"JUL-435","source":"Gerencia de Transporte Metropolitano de Trujillo","id":13546545945},"geometry":{"type":"Point","coordinates":[-79.0264409,-8.1195518]}},{"type":"Feature","properties":{"bus":"yes","highway":"bus_stop","network":"Transporte Público Urbano Trujillo","public_transport":"platform","ref":"COSR-337","source":"Gerencia de Transporte Metropolitano de Trujillo","id":13546546004},"geometry":{"type":"Point","coordinates":[-79.0260593,-8.1193536]}},{"type":"Feature","properties":{"bus":"yes","highway":"bus_stop","network":"Transporte Público Urbano Trujillo","public_transport":"platform","ref":"IN-167","source":"Gerencia de Transporte Metropolitano de Trujillo","id":13546545966},"geometry":{"type":"Point","coordinates":[-79.0242313,-8.117565]}},{"type":"Feature","properties":{"bus":"yes","highway":"bus_stop","network":"Transporte Público Urbano Trujillo","public_transport":"platform","ref":"IN-169","source":"Gerencia de Transporte Metropolitano de Trujillo","id":13546545964},"geometry":{"type":"Point","coordinates":[-79.0221074,-8.1153628]}},{"type":"Feature","properties":{"bus":"yes","highway":"bus_stop","network":"Transporte Público Urbano Trujillo","public_transport":"platform","ref":"CEV-172","source":"Gerencia de Transporte Metropolitano de Trujillo","id":13546546024},"geometry":{"type":"Point","coordinates":[-79.0196637,-8.1127858]}},{"type":"Feature","properties":{"bus":"yes","highway":"bus_stop","network":"Transporte Público Urbano Trujillo","public_transport":"platform","ref":"CEV-179","source":"Gerencia de Transporte Metropolitano de Trujillo","id":13546545217},"geometry":{"type":"Point","coordinates":[-79.0176395,-8.1104764]}},{"type":"Feature","properties":{"bus":"yes","highway":"bus_stop","network":"Transporte Público Urbano Trujillo","public_transport":"platform","ref":"CEV-177","source":"Gerencia de Transporte Metropolitano de Trujillo","id":13546546020},"geometry":{"type":"Point","coordinates":[-79.0154954,-8.1080185]}},{"type":"Feature","properties":{"bus":"yes","highway":"bus_stop","network":"Transporte Público Urbano Trujillo","public_transport":"platform","ref":"CEV-175","source":"Gerencia de Transporte Metropolitano de Trujillo","id":13546546022},"geometry":{"type":"Point","coordinates":[-79.0138854,-8.1061501]}},{"type":"Feature","properties":{"bus":"yes","highway":"bus_stop","network":"Transporte Público Urbano Trujillo","public_transport":"platform","ref":"CEV-173","source":"Gerencia de Transporte Metropolitano de Trujillo","id":13546545218},"geometry":{"type":"Point","coordinates":[-79.0120998,-8.1040441]}},{"type":"Feature","properties":{"bus":"yes","highway":"bus_stop","network":"Transporte Público Urbano Trujillo","public_transport":"platform","ref":"AMS-58","source":"Gerencia de Transporte Metropolitano de Trujillo","id":13546545235},"geometry":{"type":"Point","coordinates":[-79.0128592,-8.1002664]}},{"type":"Feature","properties":{"bus":"yes","highway":"bus_stop","network":"Transporte Público Urbano Trujillo","public_transport":"platform","ref":"AMN-18","source":"Gerencia de Transporte Metropolitano de Trujillo","id":13546546057},"geometry":{"type":"Point","coordinates":[-79.0159997,-8.0976796]}},{"type":"Feature","properties":{"advertising":"no","bench":"no","bicycle_parking":"no","bin":"no","bus":"yes","departures_board":"no","highway":"bus_stop","level":"0","lit":"yes","name":"Avenida del Ejército","network":"Transporte Público Urbano Trujillo","passenger_information_display:speech_output":"no","pole":"yes","public_transport":"platform","ramp":"no","ref":"AMN-20","shelter":"no","source:ref":"Gerencia de Transporte Metropolitano de Trujillo","tactile_paving":"yes","tactile_writing:braille:es":"no","id":11910518849},"geometry":{"type":"Point","coordinates":[-79.0178601,-8.0961305]}},{"type":"Feature","properties":{"bus":"yes","highway":"bus_stop","network":"Transporte Público Urbano Trujillo","public_transport":"platform","ref":"AMN-30","source":"Gerencia de Transporte Metropolitano de Trujillo","id":13546545247},"geometry":{"type":"Point","coordinates":[-79.0204626,-8.0950773]}},{"type":"Feature","properties":{"bus":"yes","highway":"bus_stop","network":"Transporte Público Urbano Trujillo","public_transport":"platform","ref":"AMN-32","source":"Gerencia de Transporte Metropolitano de Trujillo","id":13546545245},"geometry":{"type":"Point","coordinates":[-79.023311,-8.0940285]}},{"type":"Feature","properties":{"bus":"yes","highway":"bus_stop","network":"Transporte Público Urbano Trujillo","public_transport":"platform","ref":"AVOC-451","source":"Gerencia de Transporte Metropolitano de Trujillo","id":13546546039},"geometry":{"type":"Point","coordinates":[-79.0238086,-8.0894725]}},{"type":"Feature","properties":{"bus":"yes","highway":"bus_stop","network":"Transporte Público Urbano Trujillo","public_transport":"platform","ref":"PFM-33","source":"Gerencia de Transporte Metropolitano de Trujillo","id":13546545585},"geometry":{"type":"Point","coordinates":[-79.0227141,-8.0868668]}},{"type":"Feature","properties":{"bus":"yes","highway":"bus_stop","network":"Transporte Público Urbano Trujillo","public_transport":"platform","ref":"PFM-34","source":"Gerencia de Transporte Metropolitano de Trujillo","id":13546545584},"geometry":{"type":"Point","coordinates":[-79.0200443,-8.08641]}},{"type":"Feature","properties":{"bus":"yes","highway":"bus_stop","network":"Transporte Público Urbano Trujillo","public_transport":"platform","ref":"PFM-18","source":"Gerencia de Transporte Metropolitano de Trujillo","id":13546545599},"geometry":{"type":"Point","coordinates":[-79.0187287,-8.0839135]}},{"type":"Feature","properties":{"bus":"yes","highway":"bus_stop","network":"Transporte Público Urbano Trujillo","public_transport":"platform","ref":"PFM-104","source":"Gerencia de Transporte Metropolitano de Trujillo","id":13546545607},"geometry":{"type":"Point","coordinates":[-79.0190132,-8.0806553]}},{"type":"Feature","properties":{"bus":"yes","highway":"bus_stop","network":"Transporte Público Urbano Trujillo","public_transport":"platform","ref":"PP-191","source":"Gerencia de Transporte Metropolitano de Trujillo","id":13546545446},"geometry":{"type":"Point","coordinates":[-79.016614,-8.069123]}},{"type":"Feature","properties":{"bus":"yes","highway":"bus_stop","network":"Transporte Público Urbano Trujillo","public_transport":"platform","ref":"PAT-112","source":"Gerencia de Transporte Metropolitano de Trujillo","id":13546545852},"geometry":{"type":"Point","coordinates":[-79.0193897,-8.0663008]}},{"type":"Feature","properties":{"bus":"yes","highway":"bus_stop","network":"Transporte Público Urbano Trujillo","public_transport":"platform","ref":"PAT-125","source":"Gerencia de Transporte Metropolitano de Trujillo","id":13546546408},"geometry":{"type":"Point","coordinates":[-79.0184666,-8.0600562]}},{"type":"Feature","properties":{"bus":"yes","highway":"bus_stop","network":"Transporte Público Urbano Trujillo","public_transport":"platform","ref":"PAT-108","source":"Gerencia de Transporte Metropolitano de Trujillo","id":13546545853},"geometry":{"type":"Point","coordinates":[-79.0180002,-8.0622327]}},{"type":"Feature","properties":{"bus":"yes","highway":"bus_stop","network":"Transporte Público Urbano Trujillo","public_transport":"platform","ref":"PAT-75","source":"Gerencia de Transporte Metropolitano de Trujillo","id":13546546385},"geometry":{"type":"Point","coordinates":[-79.0149551,-8.066164]}},{"type":"Feature","properties":{"bus":"yes","highway":"bus_stop","network":"Transporte Público Urbano Trujillo","public_transport":"platform","ref":"PAT-46","source":"Gerencia de Transporte Metropolitano de Trujillo","id":13546545816},"geometry":{"type":"Point","coordinates":[-79.0119513,-8.0656067]}},{"type":"Feature","properties":{"bus":"yes","highway":"bus_stop","network":"Transporte Público Urbano Trujillo","public_transport":"platform","ref":"PAT-49","source":"Gerencia de Transporte Metropolitano de Trujillo","id":13546545813},"geometry":{"type":"Point","coordinates":[-79.0108015,-8.0635656]}},{"type":"Feature","properties":{"bus":"yes","highway":"bus_stop","network":"Transporte Público Urbano Trujillo","public_transport":"platform","ref":"PAT-52","source":"Gerencia de Transporte Metropolitano de Trujillo","id":13546546392},"geometry":{"type":"Point","coordinates":[-79.0126941,-8.059666]}},{"type":"Feature","properties":{"bus":"yes","highway":"bus_stop","network":"Transporte Público Urbano Trujillo","public_transport":"platform","ref":"PAT-58","source":"Gerencia de Transporte Metropolitano de Trujillo","id":13546546389},"geometry":{"type":"Point","coordinates":[-79.0121747,-8.0578289]}}]}