{"type":"FeatureCollection","features":[{"type":"Feature","properties":{"check_date":"2025-12-18","colour":"#009999","colour:text":"#000000","fee":"yes","from":"Alto Trujillo","hash":"16705","interval":"6","name":"Alto Trujillo → Calle 8","network":"Transporte Público Urbano Trujillo","opening_hours":"Mo-Su 05:00-23:00","operator":"LIBERTAD S.A.","public_transport:version":"2","ref":"M-18 C1C","route":"bus","survey:avg_speed:kmh":"20","to":"Calle 8","type":"route","id":19962204},"geometry":{"type":"LineString","coordinates":[[-79.0085277,-8.048144],[-79.0088681,-8.0480519],[-79.0093985,-8.0479084],[-79.0098829,-8.0477546],[-79.0103051,-8.0476206],[-79.0107414,-8.047482],[-79.0111978,-8.0473371],[-79.0114077,-8.0472692],[-79.0120309,-8.0470727],[-79.0125233,-8.0469163],[-79.0126768,-8.0473956],[-79.0128208,-8.0478541],[-79.0129607,-8.0482993],[-79.0132213,-8.0491458],[-79.0133822,-8.0496052],[-79.013557,-8.0501416],[-79.0137109,-8.0506211],[-79.013911,-8.0512955],[-79.0140491,-8.0517482],[-79.0141726,-8.0522019],[-79.0143049,-8.0526195],[-79.0144417,-8.0530281],[-79.0145709,-8.0535583],[-79.0155405,-8.053265],[-79.0160489,-8.053106],[-79.0160644,-8.0532197],[-79.0159907,-8.0536839],[-79.0159383,-8.0540138],[-79.0158924,-8.0541933],[-79.0158245,-8.0544592],[-79.0155923,-8.0553682],[-79.0149077,-8.0569606],[-79.0140764,-8.0586836],[-79.0138573,-8.0591051],[-79.0143304,-8.0592734],[-79.0141844,-8.0596945],[-79.0141592,-8.059872],[-79.0142805,-8.0600702],[-79.0143609,-8.0603222],[-79.0143558,-8.0605566],[-79.0143491,-8.0608729],[-79.0143585,-8.0609258],[-79.014408,-8.061204],[-79.0144983,-8.0614738],[-79.0145779,-8.0615935],[-79.0146395,-8.0616861],[-79.0150325,-8.0632044],[-79.015159,-8.0636933],[-79.0150496,-8.0646471],[-79.0155141,-8.0647294],[-79.0160047,-8.0648163],[-79.0164395,-8.0648933],[-79.0169131,-8.0649822],[-79.0173928,-8.065075],[-79.0178844,-8.0651699],[-79.0183388,-8.0652575],[-79.0186913,-8.0653255],[-79.0190936,-8.0653954],[-79.0195925,-8.065482],[-79.0194754,-8.0660257],[-79.0193202,-8.0669149],[-79.0185199,-8.0667698],[-79.0180566,-8.0666845],[-79.0176016,-8.0666008],[-79.0173178,-8.0665485],[-79.0171119,-8.0665106],[-79.0166323,-8.0664224],[-79.0161852,-8.0663401],[-79.0157229,-8.066255],[-79.0152411,-8.0661663],[-79.0148321,-8.0660911],[-79.014364,-8.0660049],[-79.0139027,-8.06592],[-79.0132991,-8.065809],[-79.0127785,-8.0657132],[-79.0114735,-8.065473],[-79.0109775,-8.0653817],[-79.010523,-8.0652981],[-79.0106095,-8.0648121],[-79.0106943,-8.0643341],[-79.0107804,-8.063849],[-79.0108612,-8.063392],[-79.0110207,-8.0624899],[-79.0105413,-8.0624002],[-79.0106261,-8.0619541],[-79.0105867,-8.0614638],[-79.0105833,-8.0614223],[-79.0105615,-8.0613428],[-79.0104238,-8.0608427],[-79.0103173,-8.0604177],[-79.0098442,-8.0605518],[-79.0093592,-8.0606965],[-79.0084436,-8.0609697],[-79.0079873,-8.0611058],[-79.0075315,-8.0612418],[-79.0065541,-8.0615334],[-79.006537,-8.061623],[-79.0064519,-8.0620705],[-79.0063668,-8.0625178],[-79.0062699,-8.0630276],[-79.0061744,-8.0635438],[-79.0060882,-8.0640097],[-79.0060075,-8.0644456],[-79.0059219,-8.0649083],[-79.0058353,-8.065376],[-79.0053858,-8.065296],[-79.0049193,-8.0652129],[-79.0044416,-8.0651193],[-79.0043587,-8.0655747],[-79.0041987,-8.0664577],[-79.0040508,-8.0672368],[-79.0039408,-8.0677013],[-79.004775,-8.0678606],[-79.0051708,-8.0679369],[-79.0056574,-8.0680306],[-79.0065526,-8.0682034],[-79.0062903,-8.0689846],[-79.0061291,-8.0694646],[-79.0060477,-8.069595],[-79.0057013,-8.0701502],[-79.0061332,-8.0711328],[-79.0055915,-8.0713515],[-79.0052854,-8.0714753],[-79.0048073,-8.0716687],[-79.0041203,-8.0719449],[-79.0034652,-8.0722048],[-79.0029942,-8.0723917],[-79.002941,-8.0724128],[-79.0025216,-8.0725406],[-79.001588,-8.0726778],[-79.0010363,-8.0727858],[-79.0009749,-8.0728069],[-79.0001601,-8.0730866],[-78.9990842,-8.0734308],[-78.9982828,-8.073686],[-78.9985716,-8.0746861],[-78.9988906,-8.0757445],[-78.9994131,-8.0774585],[-78.9995155,-8.0778168],[-78.9996135,-8.0781277],[-78.999815,-8.0787437],[-79.0000087,-8.0793966],[-79.0001912,-8.0799984],[-79.0005364,-8.0811283],[-79.0008815,-8.0822634],[-79.000796,-8.082285],[-78.9997847,-8.0825537],[-79.0000507,-8.0836445],[-79.0003533,-8.0847957],[-79.0006628,-8.0859528],[-79.0009617,-8.0871009],[-79.0010137,-8.0872648],[-78.9992784,-8.0877561],[-78.999384,-8.0881505],[-78.9995863,-8.088788],[-78.999774,-8.0891359],[-79.000018,-8.0894959],[-79.0002179,-8.089744],[-79.0003601,-8.0898928],[-79.0005505,-8.0900414],[-79.0006953,-8.090141],[-79.0008777,-8.0902193],[-79.0018534,-8.0905262],[-79.0022512,-8.0906511],[-79.0024761,-8.0907528],[-79.0030753,-8.0910673],[-79.0031369,-8.0910976],[-79.0031832,-8.0910509],[-79.0032384,-8.0910148],[-79.0033,-8.0909909],[-79.0033652,-8.0909803],[-79.0034313,-8.0909834],[-79.0034953,-8.0910001],[-79.0035543,-8.0910296],[-79.0036058,-8.0910707],[-79.0036476,-8.0911216],[-79.0036764,-8.0911769],[-79.0036936,-8.0912369],[-79.0036964,-8.0913275],[-79.0036728,-8.0914151],[-79.0036246,-8.0914923],[-79.0035561,-8.0915525],[-79.003473,-8.0915906],[-79.003501,-8.0916764],[-79.0035577,-8.0918725],[-79.003851,-8.092879],[-79.004028,-8.093377],[-79.0040908,-8.0935535],[-79.0041066,-8.0935979],[-79.0041263,-8.0936545],[-79.0042375,-8.0940319],[-79.0042561,-8.09412],[-79.0043419,-8.0943141],[-79.0045379,-8.0946706],[-79.0047055,-8.0949788],[-79.0049896,-8.0953752],[-79.0054266,-8.0959397],[-79.0056093,-8.0961646],[-79.0058064,-8.0964033],[-79.0058311,-8.0964324],[-79.0063125,-8.0969863],[-79.0064317,-8.0971235],[-79.0066152,-8.0973443],[-79.0068738,-8.0976456],[-79.0071993,-8.0980367],[-79.0075678,-8.0984727],[-79.0076517,-8.098572],[-79.0083944,-8.0994314],[-79.0085442,-8.0996016],[-79.0085839,-8.0996537],[-79.0087484,-8.0998647],[-79.008991,-8.1001416],[-79.0090087,-8.100162],[-79.0093621,-8.1005765],[-79.009639,-8.1009069],[-79.0098723,-8.1011854],[-79.0101736,-8.1015449],[-79.0105971,-8.1020404],[-79.0109292,-8.1024628],[-79.0109417,-8.1024792],[-79.0110017,-8.1025539],[-79.0111039,-8.1026761],[-79.0112152,-8.1028092],[-79.0113601,-8.1029817],[-79.0115535,-8.1032119],[-79.0118411,-8.103533],[-79.0118948,-8.1036013],[-79.0120631,-8.1038034],[-79.0124206,-8.1042061],[-79.0126988,-8.104542],[-79.0129951,-8.104902],[-79.0132728,-8.1052311],[-79.0135652,-8.1055796],[-79.0137636,-8.1058156],[-79.0138448,-8.1059122],[-79.0138809,-8.1059559],[-79.01394,-8.1060244],[-79.0142599,-8.1064042],[-79.0145402,-8.1067307],[-79.0148137,-8.1070485],[-79.014991,-8.1072547],[-79.0154531,-8.1077802],[-79.0156808,-8.1080392],[-79.0159249,-8.1083147],[-79.0161436,-8.1085639],[-79.016527,-8.1090194],[-79.0167482,-8.1092704],[-79.0169713,-8.1095239],[-79.017527,-8.1101528],[-79.0175961,-8.110231],[-79.0181193,-8.1108247],[-79.0184411,-8.1111921],[-79.0184793,-8.111232],[-79.0188562,-8.1116538],[-79.0189475,-8.1117417],[-79.0192891,-8.1121245],[-79.0198924,-8.1128508],[-79.0202343,-8.1132738],[-79.0204853,-8.1135947],[-79.020867,-8.1140536],[-79.0216223,-8.1147748],[-79.022024,-8.1151865],[-79.0224448,-8.115615],[-79.0231409,-8.1163229],[-79.0241907,-8.1173689],[-79.0248674,-8.1179957],[-79.0249217,-8.1181009],[-79.0250373,-8.118209],[-79.025167,-8.1183311],[-79.0253204,-8.1184754],[-79.0253383,-8.1184941],[-79.0256705,-8.118841],[-79.0264393,-8.118158],[-79.0268801,-8.1177663],[-79.0269813,-8.1176761],[-79.0277331,-8.1170082],[-79.0280834,-8.1166989],[-79.0281235,-8.1166446],[-79.0281427,-8.1165955],[-79.0281521,-8.1165508],[-79.0281562,-8.1165123],[-79.02816,-8.1164691],[-79.0281671,-8.116382],[-79.0284496,-8.1164078],[-79.0286734,-8.1164296],[-79.0294592,-8.1164785],[-79.0295444,-8.1164761],[-79.0295863,-8.116469],[-79.0296324,-8.1164554],[-79.0300521,-8.1162717],[-79.030372,-8.1161366],[-79.03074,-8.1159634],[-79.0311823,-8.1157365],[-79.0312323,-8.1156916],[-79.0320139,-8.114641],[-79.0325502,-8.1139414],[-79.0326492,-8.1137822],[-79.0326675,-8.1136908],[-79.0327087,-8.1131413],[-79.0327818,-8.1121138],[-79.0327886,-8.1120193],[-79.0328614,-8.1120207],[-79.0329342,-8.1120201],[-79.0330445,-8.111989],[-79.0331236,-8.111939],[-79.0331907,-8.1118536],[-79.0332698,-8.1117271],[-79.0334443,-8.1114813],[-79.0335062,-8.111393],[-79.0335677,-8.111464],[-79.0337084,-8.1116264],[-79.0337971,-8.1117289],[-79.0338471,-8.1117867],[-79.0338941,-8.1118409],[-79.0344168,-8.1124444],[-79.0344644,-8.1124994],[-79.0350328,-8.1120842],[-79.0355967,-8.1116731],[-79.0356623,-8.1116252],[-79.0357221,-8.1115815],[-79.0361765,-8.1112501],[-79.0364574,-8.1110449],[-79.0375969,-8.1102125],[-79.0380075,-8.1099136],[-79.0380939,-8.1098517],[-79.0382775,-8.1097444],[-79.0384242,-8.109683],[-79.0393122,-8.1093673],[-79.0393772,-8.1093442],[-79.0396416,-8.1092502],[-79.0403175,-8.1090099],[-79.0410504,-8.1087493],[-79.041116,-8.108726],[-79.0412232,-8.1086879],[-79.0412761,-8.1086691],[-79.0416796,-8.1085256],[-79.0421858,-8.1083456],[-79.0422552,-8.1083209],[-79.0423212,-8.108297],[-79.0425839,-8.1082015],[-79.0426436,-8.1081798],[-79.0427014,-8.1081588],[-79.0437627,-8.1077731],[-79.0438466,-8.1077426],[-79.0439073,-8.1077205],[-79.0444485,-8.1075238],[-79.0444839,-8.1076277],[-79.0448078,-8.1087907],[-79.044926,-8.1092294],[-79.0462719,-8.1088754],[-79.0467212,-8.1087572],[-79.0471848,-8.1104701],[-79.0473286,-8.1109108],[-79.0477809,-8.1107841],[-79.0479263,-8.110744],[-79.0480383,-8.111169],[-79.0480893,-8.1114771],[-79.0481081,-8.1117585],[-79.0481,-8.1120108],[-79.0480571,-8.1123533],[-79.04799,-8.1125817],[-79.0478854,-8.1128818],[-79.0477638,-8.1131407],[-79.0477406,-8.1131901],[-79.0475628,-8.1134644],[-79.0473872,-8.1136672],[-79.0472382,-8.1138189],[-79.0468541,-8.1141713]],"nodes":[13657450383,3133842711,3135885826,8098589279,3135890889,8098589277,8098585693,8098589281,13510379578,12050427701,5491786798,8098589245,8098589244,5491786804,5491786799,3133822690,3135885828,3135886433,5491760478,3135886437,5491760477,3135886439,3133822693,11879283050,8098585708,8098585706,8098585631,8098585705,8098585629,10859191280,5084092554,3250966737,3250966741,5084092549,3250966747,3250966749,3250966751,3250966752,3250966753,3250966755,3250966756,8100857826,3250966757,3250966758,8129896342,2589604604,5432216549,5432216550,1098625445,5483458656,1098603559,1098595943,1098586293,11879291138,5483458665,1098592472,1098648814,1098636141,1098610219,1098596665,1098635982,5488968756,11879302778,5483458666,11023388081,5483457806,1098625691,1098619796,5453873208,5483458657,1098613976,5480835575,1098602905,1098625027,5458516810,1098597944,1098646108,1098597545,1098627786,8167883796,1098606780,11905585409,5084053135,1098595585,1098595307,5480832009,1098629118,5480833951,1098598621,1098595858,1098603362,5432232484,5480833960,5480821138,5432232474,5432230736,5432232473,5480821126,5480821135,5432222093,5480821146,5480821148,5458516804,5481061839,1098596803,1098615705,1098625974,5432232480,5480821162,1098650427,1098592302,11879297905,5480747666,12066359603,5480747667,1098604186,1098618827,1098629452,8167891510,11879261036,1098644192,1098631868,5084079876,1098621783,1098621896,5483017335,11030577587,1098599369,5480747690,5480747695,1098637543,5482978910,1098595248,5456210878,1098594995,1098600715,1098626795,1098616551,5457466225,11027852594,5432246032,5432246031,1098645032,1098632773,1098622291,5087152246,5432246022,1098614050,5432245218,5432246025,1145579814,1098627268,1145579811,1026647877,1026647881,1026647885,1098599405,1026647889,5482905627,5467619029,1026647905,1026647909,1026647913,1026647915,11030377679,12601295648,1026647917,2885683476,1098615782,2885683477,1098609876,2885683478,2885683475,1098621172,2885683479,1098630971,5069527347,1098605566,1098643285,1098586594,1098596159,2885683481,2885683474,12601295649,1026647937,1026647939,11032867285,11032867281,1098622328,11030377675,11030377676,1026647943,11030395412,11030395409,10735933685,1098621018,1026647947,11030395406,11030269404,1098609580,5089132050,1098598955,5088905641,5088905655,1026647950,2399656830,1098607239,5087053971,11023976598,5475283789,11037375459,11023671194,5480877998,1098620805,5087163891,1026647961,1026647964,5087163889,11023381284,7118056428,11037375456,316265105,316265134,11032996038,11032996039,1026647433,11023381286,1026647328,11023313850,11023313852,1026647709,11023313854,11023313856,5086629392,11023313858,1026647291,11023313860,1098635308,11023313862,5086629394,1088227188,1098590745,11023313864,11023313866,1098623436,5676152374,9830187850,11023976595,1098639667,1144498432,1098595546,11023976593,5432160617,1088227460,1015347803,1098645978,1088227401,2466662083,1088227447,1050928494,1088227351,1088227443,1088227238,1088227437,1088227226,316256329,1627006909,1627006911,11892812604,1098635029,5476546768,1627006951,1098647086,1627006896,1627006892,320114914,1627006871,1627006865,1627006861,1627006857,1627006841,1098598360,1098591261,2694543105,1098647241,316264102,1554840454,5101540451,316264103,316488686,11037703693,316264105,320114897,7123096673,320114902,316264107,316264108,4633792028,1098600919,4633792030,1098623402,1098634043,2573525824,4633792123,1098631009,1098643342,1098586627,1098627243,1098617232,4633792021,5052319280,4633792017,1098623325,4633792016,4633792101,1098588989,5524404497,4633846702,1098593745,4633846699,4633846735,1098616952,1098633184,1272612887,1873564603,11037974906,1272612890,2610202744,1272612862,5052013853,1272612898,10586103359,2610202736,1272612886,10586103360,1272612874,10586103368,1272612878,10586103369,10586103371,1272612897,10586103373,10586103364,1272612858,10586103365,1272612861,1098650395,5455936788,1098643356,1098599113,1098596339,1098615349,1098604356,1098607662,1098591388,1098597756,1098607130,1098618008,2760772674,1098628113,1098639305,1098618834,7115393639,1098628772,1098640062,1098584627,3569519101,1098595196]},"gtfs":{"agency_id":5,"route_id":15,"services":[{"service_id":"Mo-Su","startTime":"05:00","endTime":"23:00","trip_id":19962204}],"filteredStops":{"nodes":[13657450383,11972433766,13546545794,13546545798,13546546385,13546545816,13546545813,13546545489,13546546222,13546545466,13546546203,13546545430,13546546012,13546545213,13546545212,13546546015,13546545215,13546546014,13546546023,13546546021,13546546019,13546546016,13546545962,13546545963,13546545965,13546545989,13546545187,13546545188,11910518831,13546545960,13546545958,13546545157,11910645397,1098595196],"coordinates":[[-79.0085277,-8.048144],[-79.0084925,-8.0480728],[-79.017666,-8.0651038],[-79.0182907,-8.0667933],[-79.0149551,-8.066164],[-79.0119513,-8.0656067],[-79.0108015,-8.0635656],[-79.0041567,-8.0668866],[-79.0027052,-8.0725658],[-78.9995544,-8.0733307],[-79.0000633,-8.0794839],[-79.0001983,-8.0840205],[-78.9997599,-8.0890569],[-79.0027888,-8.0908633],[-79.0038339,-8.0925497],[-79.005526,-8.0959705],[-79.0081884,-8.0991247],[-79.0104063,-8.1017614],[-79.0126193,-8.1043831],[-79.0145843,-8.1067231],[-79.0156326,-8.1079139],[-79.0180771,-8.1107095],[-79.0201607,-8.1131106],[-79.0219756,-8.1150777],[-79.0241112,-8.1172325],[-79.0288378,-8.1164007],[-79.0313214,-8.1154747],[-79.0326768,-8.1129583],[-79.034349,-8.1123007],[-79.0366214,-8.1108748],[-79.0413452,-8.1086167],[-79.043566,-8.1077992],[-79.0479049,-8.1129273],[-79.0468541,-8.1141713]]},"forcedEndpointStops":[{"stop_id":13657450383,"stop_name":"Sin nombre","position":"first"},{"stop_id":1098595196,"stop_name":"Avenida América Oeste y Calle 8","position":"last"}]}},{"type":"Feature","properties":{"amenity":"bus_station","highway":"bus_stop","name":"Estación La Libertad","public_transport":"platform","id":11972433766},"geometry":{"type":"Point","coordinates":[-79.0084925,-8.0480728]}},{"type":"Feature","properties":{"bus":"yes","highway":"bus_stop","name":"PAT-98","network":"Transporte Público Urbano Trujillo","public_transport":"platform","ref":"PAT-98","source":"Gerencia de Transporte Metropolitano de Trujillo","id":13546545794},"geometry":{"type":"Point","coordinates":[-79.017666,-8.0651038]}},{"type":"Feature","properties":{"bus":"yes","highway":"bus_stop","name":"PAT-82","network":"Transporte Público Urbano Trujillo","public_transport":"platform","ref":"PAT-82","source":"Gerencia de Transporte Metropolitano de Trujillo","id":13546545798},"geometry":{"type":"Point","coordinates":[-79.0182907,-8.0667933]}},{"type":"Feature","properties":{"bus":"yes","highway":"bus_stop","name":"PAT-75","network":"Transporte Público Urbano Trujillo","public_transport":"platform","ref":"PAT-75","source":"Gerencia de Transporte Metropolitano de Trujillo","id":13546546385},"geometry":{"type":"Point","coordinates":[-79.0149551,-8.066164]}},{"type":"Feature","properties":{"bus":"yes","highway":"bus_stop","name":"PAT-46","network":"Transporte Público Urbano Trujillo","public_transport":"platform","ref":"PAT-46","source":"Gerencia de Transporte Metropolitano de Trujillo","id":13546545816},"geometry":{"type":"Point","coordinates":[-79.0119513,-8.0656067]}},{"type":"Feature","properties":{"bus":"yes","highway":"bus_stop","name":"PAT-49","network":"Transporte Público Urbano Trujillo","public_transport":"platform","ref":"PAT-49","source":"Gerencia de Transporte Metropolitano de Trujillo","id":13546545813},"geometry":{"type":"Point","coordinates":[-79.0108015,-8.0635656]}},{"type":"Feature","properties":{"bus":"yes","highway":"bus_stop","name":"PP-1","network":"Transporte Público Urbano Trujillo","public_transport":"platform","ref":"PP-1","source":"Gerencia de Transporte Metropolitano de Trujillo","id":13546545489},"geometry":{"type":"Point","coordinates":[-79.0041567,-8.0668866]}},{"type":"Feature","properties":{"bus":"yes","highway":"bus_stop","name":"PP-150","network":"Transporte Público Urbano Trujillo","public_transport":"platform","ref":"PP-150","source":"Gerencia de Transporte Metropolitano de Trujillo","id":13546546222},"geometry":{"type":"Point","coordinates":[-79.0027052,-8.0725658]}},{"type":"Feature","properties":{"bus":"yes","highway":"bus_stop","name":"PP-148","network":"Transporte Público Urbano Trujillo","public_transport":"platform","ref":"PP-148","source":"Gerencia de Transporte Metropolitano de Trujillo","id":13546545466},"geometry":{"type":"Point","coordinates":[-78.9995544,-8.0733307]}},{"type":"Feature","properties":{"bus":"yes","highway":"bus_stop","name":"PP-90","network":"Transporte Público Urbano Trujillo","public_transport":"platform","ref":"PP-90","source":"Gerencia de Transporte Metropolitano de Trujillo","id":13546546203},"geometry":{"type":"Point","coordinates":[-79.0000633,-8.0794839]}},{"type":"Feature","properties":{"bus":"yes","highway":"bus_stop","name":"PP-51","network":"Transporte Público Urbano Trujillo","public_transport":"platform","ref":"PP-51","source":"Gerencia de Transporte Metropolitano de Trujillo","id":13546545430},"geometry":{"type":"Point","coordinates":[-79.0001983,-8.0840205]}},{"type":"Feature","properties":{"bus":"yes","highway":"bus_stop","name":"CEV-189","network":"Transporte Público Urbano Trujillo","public_transport":"platform","ref":"CEV-189","source":"Gerencia de Transporte Metropolitano de Trujillo","id":13546546012},"geometry":{"type":"Point","coordinates":[-78.9997599,-8.0890569]}},{"type":"Feature","properties":{"bus":"yes","highway":"bus_stop","name":"CEV-190","network":"Transporte Público Urbano Trujillo","public_transport":"platform","ref":"CEV-190","source":"Gerencia de Transporte Metropolitano de Trujillo","id":13546545213},"geometry":{"type":"Point","coordinates":[-79.0027888,-8.0908633]}},{"type":"Feature","properties":{"bus":"yes","highway":"bus_stop","name":"CEV-191","network":"Transporte Público Urbano Trujillo","public_transport":"platform","ref":"CEV-191","source":"Gerencia de Transporte Metropolitano de Trujillo","id":13546545212},"geometry":{"type":"Point","coordinates":[-79.0038339,-8.0925497]}},{"type":"Feature","properties":{"bus":"yes","highway":"bus_stop","name":"CEV-184","network":"Transporte Público Urbano Trujillo","public_transport":"platform","ref":"CEV-184","source":"Gerencia de Transporte Metropolitano de Trujillo","id":13546546015},"geometry":{"type":"Point","coordinates":[-79.005526,-8.0959705]}},{"type":"Feature","properties":{"bus":"yes","highway":"bus_stop","name":"CEV-185","network":"Transporte Público Urbano Trujillo","public_transport":"platform","ref":"CEV-185","source":"Gerencia de Transporte Metropolitano de Trujillo","id":13546545215},"geometry":{"type":"Point","coordinates":[-79.0081884,-8.0991247]}},{"type":"Feature","properties":{"bus":"yes","highway":"bus_stop","name":"CEV-186","network":"Transporte Público Urbano Trujillo","public_transport":"platform","ref":"CEV-186","source":"Gerencia de Transporte Metropolitano de Trujillo","id":13546546014},"geometry":{"type":"Point","coordinates":[-79.0104063,-8.1017614]}},{"type":"Feature","properties":{"bus":"yes","highway":"bus_stop","name":"CEV-174","network":"Transporte Público Urbano Trujillo","public_transport":"platform","ref":"CEV-174","source":"Gerencia de Transporte Metropolitano de Trujillo","id":13546546023},"geometry":{"type":"Point","coordinates":[-79.0126193,-8.1043831]}},{"type":"Feature","properties":{"bus":"yes","highway":"bus_stop","name":"CEV-176","network":"Transporte Público Urbano Trujillo","public_transport":"platform","ref":"CEV-176","source":"Gerencia de Transporte Metropolitano de Trujillo","id":13546546021},"geometry":{"type":"Point","coordinates":[-79.0145843,-8.1067231]}},{"type":"Feature","properties":{"bus":"yes","highway":"bus_stop","name":"CEV-178","network":"Transporte Público Urbano Trujillo","public_transport":"platform","ref":"CEV-178","source":"Gerencia de Transporte Metropolitano de Trujillo","id":13546546019},"geometry":{"type":"Point","coordinates":[-79.0156326,-8.1079139]}},{"type":"Feature","properties":{"bus":"yes","highway":"bus_stop","name":"CEV-183","network":"Transporte Público Urbano Trujillo","public_transport":"platform","ref":"CEV-183","source":"Gerencia de Transporte Metropolitano de Trujillo","id":13546546016},"geometry":{"type":"Point","coordinates":[-79.0180771,-8.1107095]}},{"type":"Feature","properties":{"bus":"yes","highway":"bus_stop","name":"IN-171","network":"Transporte Público Urbano Trujillo","public_transport":"platform","ref":"IN-171","source":"Gerencia de Transporte Metropolitano de Trujillo","id":13546545962},"geometry":{"type":"Point","coordinates":[-79.0201607,-8.1131106]}},{"type":"Feature","properties":{"bus":"yes","highway":"bus_stop","name":"IN-170","network":"Transporte Público Urbano Trujillo","public_transport":"platform","ref":"IN-170","source":"Gerencia de Transporte Metropolitano de Trujillo","id":13546545963},"geometry":{"type":"Point","coordinates":[-79.0219756,-8.1150777]}},{"type":"Feature","properties":{"bus":"yes","highway":"bus_stop","name":"IN-168","network":"Transporte Público Urbano Trujillo","public_transport":"platform","ref":"IN-168","source":"Gerencia de Transporte Metropolitano de Trujillo","id":13546545965},"geometry":{"type":"Point","coordinates":[-79.0241112,-8.1172325]}},{"type":"Feature","properties":{"bus":"yes","highway":"bus_stop","name":"ESP-6","network":"Transporte Público Urbano Trujillo","public_transport":"platform","ref":"ESP-6","source":"Gerencia de Transporte Metropolitano de Trujillo","id":13546545989},"geometry":{"type":"Point","coordinates":[-79.0288378,-8.1164007]}},{"type":"Feature","properties":{"bus":"yes","highway":"bus_stop","name":"ESP-3","network":"Transporte Público Urbano Trujillo","public_transport":"platform","ref":"ESP-3","source":"Gerencia de Transporte Metropolitano de Trujillo","id":13546545187},"geometry":{"type":"Point","coordinates":[-79.0313214,-8.1154747]}},{"type":"Feature","properties":{"bus":"yes","highway":"bus_stop","name":"ESP-2","network":"Transporte Público Urbano Trujillo","public_transport":"platform","ref":"ESP-2","source":"Gerencia de Transporte Metropolitano de Trujillo","id":13546545188},"geometry":{"type":"Point","coordinates":[-79.0326768,-8.1129583]}},{"type":"Feature","properties":{"advertising":"yes","bench":"yes","bicycle_parking":"no","bin":"no","bus":"yes","departures_board":"yes","highway":"bus_stop","level":"0","lit":"yes","name":"JPT-138 Avenida Jesús de Nazareth","network":"Transporte Público Urbano Trujillo","passenger_information_display:speech_output":"no","public_transport":"platform","ramp":"no","ref":"JPT-138","shelter":"yes","source:ref":"Gerencia de Transporte Metropolitano de Trujillo","tactile_paving":"no","tactile_writing:braille:es":"no","id":11910518831},"geometry":{"type":"Point","coordinates":[-79.034349,-8.1123007]}},{"type":"Feature","properties":{"bus":"yes","highway":"bus_stop","name":"JEN-142","network":"Transporte Público Urbano Trujillo","public_transport":"platform","ref":"JEN-142","source":"Gerencia de Transporte Metropolitano de Trujillo","id":13546545960},"geometry":{"type":"Point","coordinates":[-79.0366214,-8.1108748]}},{"type":"Feature","properties":{"bus":"yes","highway":"bus_stop","name":"JEN-145","network":"Transporte Público Urbano Trujillo","public_transport":"platform","ref":"JEN-145","source":"Gerencia de Transporte Metropolitano de Trujillo","id":13546545958},"geometry":{"type":"Point","coordinates":[-79.0413452,-8.1086167]}},{"type":"Feature","properties":{"bus":"yes","highway":"bus_stop","name":"JEN-147","network":"Transporte Público Urbano Trujillo","public_transport":"platform","ref":"JEN-147","source":"Gerencia de Transporte Metropolitano de Trujillo","id":13546545157},"geometry":{"type":"Point","coordinates":[-79.043566,-8.1077992]}},{"type":"Feature","properties":{"advertising":"no","bench":"yes","bicycle_parking":"no","bin":"no","bus":"yes","departures_board":"no","highway":"bus_stop","level":"0","lit":"yes","name":"AMEO-74 Calle 26","network":"Transporte Público Urbano Trujillo","passenger_information_display:speech_output":"no","pole":"yes","public_transport":"platform","ramp":"no","ref":"AMEO-74","shelter":"no","source:ref":"Gerencia de Transporte Metropolitano de Trujillo","tactile_paving":"no","tactile_writing:braille:es":"no","id":11910645397},"geometry":{"type":"Point","coordinates":[-79.0479049,-8.1129273]}}]}