{"type":"FeatureCollection","features":[{"type":"Feature","properties":{"check_date":"2025-12-16","colour":"#006600","colour:text":"#FFFFFF","fee":"yes","from":"Calle Miguiel Graú","hash":"14463","interval":"4","name":"Calle Miguiel Graú → Avenida 12 de Noviembre","network":"Transporte Público Urbano Trujillo","opening_hours":"Mo-Su 05:00-23:00","operator":"MOCHICA S.A.","public_transport:version":"2","ref":"C-45 C","route":"bus","survey:avg_speed:kmh":"20","to":"Avenida 12 de Noviembre","type":"route","id":19968140},"geometry":{"type":"LineString","coordinates":[[-79.0066016,-8.1882198],[-79.0064875,-8.1881136],[-79.0062102,-8.1878507],[-79.0057826,-8.1874346],[-79.0054823,-8.1871627],[-79.0049744,-8.1865617],[-79.0046942,-8.1869125],[-79.0045604,-8.1870801],[-79.0043832,-8.187302],[-79.0043229,-8.1873673],[-79.0042345,-8.187463],[-79.0040468,-8.1879382],[-79.0039234,-8.1882063],[-79.0036283,-8.188553],[-79.0035278,-8.1885793],[-79.0034674,-8.1889154],[-79.003332,-8.1894769],[-79.0039508,-8.1898131],[-79.0042305,-8.1900553],[-79.0046158,-8.190389],[-79.0052171,-8.1897523],[-79.0056057,-8.1893408],[-79.0066337,-8.1882523],[-79.0077263,-8.1871061],[-79.0081444,-8.1866637],[-79.0089716,-8.1855377],[-79.0097067,-8.1845312],[-79.0098003,-8.1844031],[-79.0098857,-8.1844873],[-79.010598,-8.184864],[-79.0106048,-8.1848501],[-79.0108639,-8.1843159],[-79.0111543,-8.1837173],[-79.0116522,-8.182691],[-79.0116872,-8.1826129],[-79.0120121,-8.1818894],[-79.0122817,-8.1812913],[-79.0124247,-8.1809706],[-79.0125961,-8.1805981],[-79.0127197,-8.1803308],[-79.0129077,-8.1797399],[-79.0129267,-8.1796003],[-79.0133232,-8.1796617],[-79.01357,-8.1796936],[-79.0136303,-8.1796897],[-79.013696,-8.1796644],[-79.0138516,-8.17959],[-79.014545,-8.1790921],[-79.0154467,-8.1784601],[-79.0163932,-8.177892],[-79.0169221,-8.1775209],[-79.0165942,-8.1770414],[-79.0165084,-8.176916],[-79.0162556,-8.1765462],[-79.0157351,-8.1768924],[-79.0148067,-8.1775089],[-79.0139019,-8.1781111],[-79.013611,-8.1776355],[-79.0135113,-8.1774725],[-79.013295,-8.1768643],[-79.0131698,-8.1765517],[-79.0129694,-8.1766226],[-79.0125668,-8.1767685],[-79.0125479,-8.17669],[-79.0124103,-8.1760464],[-79.0123151,-8.1756721],[-79.0121583,-8.1750055],[-79.0119697,-8.1742066],[-79.0114579,-8.17215],[-79.0114503,-8.1721192],[-79.0112111,-8.1711486],[-79.010234,-8.1713905],[-79.009758,-8.1715084],[-79.0092014,-8.1716353],[-79.0091815,-8.1716403],[-79.0087759,-8.1717288],[-79.0087204,-8.171745],[-79.0080178,-8.1719117],[-79.007993,-8.1719176],[-79.0079512,-8.1719275],[-79.0075,-8.1720319],[-79.0073868,-8.1714666],[-79.0072947,-8.1710048],[-79.0071594,-8.170442],[-79.007818,-8.1702926],[-79.0078485,-8.1702822],[-79.0083341,-8.1701587],[-79.0088223,-8.17005],[-79.0091795,-8.1699619],[-79.0093182,-8.1699286],[-79.0097803,-8.1698138],[-79.010259,-8.1696957],[-79.0108239,-8.1695564],[-79.0108041,-8.1694751],[-79.0106733,-8.1689204],[-79.0106358,-8.1687615],[-79.0105396,-8.1683534],[-79.0104151,-8.1678257],[-79.0103325,-8.1674754],[-79.010242,-8.1671169],[-79.0100509,-8.1663604],[-79.0100074,-8.1658849],[-79.0099999,-8.1658028],[-79.010031,-8.165466],[-79.0100867,-8.1650951],[-79.0101362,-8.1649203],[-79.0102101,-8.1646594],[-79.0102605,-8.1644945],[-79.0105413,-8.1635782],[-79.0104891,-8.1634637],[-79.0104425,-8.1634167],[-79.0104083,-8.1633988],[-79.0103598,-8.1633735],[-79.0102845,-8.1633341],[-79.0105712,-8.1628345],[-79.010879,-8.1623107],[-79.010925,-8.1622311],[-79.0111362,-8.1618604],[-79.0113964,-8.1613999],[-79.0115156,-8.1611902],[-79.0116554,-8.1609444],[-79.0117958,-8.1606966],[-79.0118954,-8.1604781],[-79.0119452,-8.1603371],[-79.0120221,-8.1600782],[-79.0120416,-8.1599615],[-79.0120672,-8.1598126],[-79.0120694,-8.1597513],[-79.0120915,-8.1591505],[-79.0120993,-8.1589398],[-79.0121476,-8.1579277],[-79.0121708,-8.157253],[-79.0122017,-8.1565004],[-79.0122484,-8.15513],[-79.0122754,-8.1543463],[-79.0122833,-8.1541153],[-79.0122746,-8.1539983],[-79.0122597,-8.1538993],[-79.0122367,-8.1537965],[-79.0121951,-8.1536643],[-79.0120601,-8.153278],[-79.01173,-8.152331],[-79.0116444,-8.1520797],[-79.0113438,-8.151192],[-79.0113118,-8.1510902],[-79.0112959,-8.1509934],[-79.011282,-8.1508986],[-79.0112745,-8.1507858],[-79.0112745,-8.1506574],[-79.0116041,-8.149193],[-79.0119253,-8.1476957],[-79.012092,-8.1469544],[-79.0126687,-8.1442104],[-79.012829,-8.1434806],[-79.0130075,-8.1426205],[-79.0130735,-8.1422899],[-79.01318,-8.1418282],[-79.0132921,-8.1415022],[-79.0133839,-8.1413095],[-79.0135221,-8.1410579],[-79.0136466,-8.1408771],[-79.0143929,-8.139793],[-79.0149323,-8.1390096],[-79.0153827,-8.1383654],[-79.0155019,-8.1382013],[-79.0155591,-8.1381267],[-79.0159313,-8.1376406],[-79.0160188,-8.137531],[-79.0160976,-8.1374322],[-79.0161099,-8.1374163],[-79.017034,-8.1362438],[-79.0171069,-8.136148],[-79.0176511,-8.1354601],[-79.0185059,-8.1343871],[-79.0185428,-8.1343409],[-79.0189848,-8.1337876],[-79.0203644,-8.1320606],[-79.0204851,-8.131888],[-79.020587,-8.1317207],[-79.0206429,-8.1315981],[-79.0206794,-8.131505],[-79.0207113,-8.1314102],[-79.0207389,-8.1313033],[-79.020749,-8.1312481],[-79.0207563,-8.1311925],[-79.0207616,-8.1311126],[-79.0207631,-8.1310298],[-79.0207199,-8.1309912],[-79.0206822,-8.1309473],[-79.0206506,-8.130899],[-79.0206289,-8.1308547],[-79.0206072,-8.1307892],[-79.0205961,-8.1307211],[-79.0205959,-8.1306522],[-79.0206066,-8.1305841],[-79.020628,-8.1305185],[-79.0206595,-8.130457],[-79.0206986,-8.1304032],[-79.0207455,-8.1303558],[-79.0207977,-8.1303169],[-79.0208551,-8.1302859],[-79.0209164,-8.1302637],[-79.0209805,-8.1302506],[-79.0210201,-8.1302196],[-79.0210566,-8.1301849],[-79.0210895,-8.130147],[-79.0211257,-8.1300949],[-79.0211516,-8.1300458],[-79.0211676,-8.130004],[-79.0212505,-8.1297668],[-79.02146,-8.1290409],[-79.0214866,-8.128956],[-79.0215762,-8.1286687],[-79.0216643,-8.1283869],[-79.0217822,-8.1280016],[-79.0225886,-8.1253608],[-79.0227545,-8.1247975],[-79.0228404,-8.1245386],[-79.0228833,-8.1243785],[-79.0228885,-8.1243003],[-79.0228724,-8.1242275],[-79.0228344,-8.1241327],[-79.022741,-8.1240583],[-79.0226643,-8.1239672],[-79.0226056,-8.1238588],[-79.0225705,-8.1237408],[-79.0225606,-8.1236181],[-79.0225722,-8.123515],[-79.0226016,-8.1234153],[-79.022648,-8.1233223],[-79.0226952,-8.1232558],[-79.0227511,-8.1231964],[-79.0228587,-8.1231167],[-79.0229815,-8.1230626],[-79.0230917,-8.123039],[-79.0232045,-8.123036],[-79.0233225,-8.1230557],[-79.0234343,-8.123098],[-79.0235355,-8.1231613],[-79.0236356,-8.1232592],[-79.02371,-8.1233774],[-79.0237547,-8.1235095],[-79.0237673,-8.1236482],[-79.0237545,-8.123736],[-79.0237472,-8.123786],[-79.0237661,-8.1238549],[-79.0237841,-8.1238946],[-79.0238139,-8.1239298],[-79.0238764,-8.1239826],[-79.0243998,-8.1243532],[-79.0244692,-8.1244023],[-79.0254499,-8.125075],[-79.0256342,-8.1251722],[-79.0263585,-8.125555],[-79.0267907,-8.1257306],[-79.0272936,-8.1259085],[-79.028355,-8.1262453],[-79.0288238,-8.1263573],[-79.0293562,-8.1264569],[-79.0298906,-8.1265298],[-79.0299698,-8.1265405],[-79.0300834,-8.1264966],[-79.0301653,-8.1264445],[-79.0302077,-8.1264164],[-79.0302269,-8.1263964],[-79.0302452,-8.1263685],[-79.0303466,-8.1262223],[-79.0303209,-8.125917],[-79.030266,-8.1255209],[-79.0302469,-8.125461],[-79.0302352,-8.1253901],[-79.0301369,-8.1250865],[-79.0300297,-8.1247839],[-79.0299018,-8.1244957],[-79.029709,-8.1241552],[-79.0294148,-8.1236046],[-79.0293121,-8.1234682],[-79.0290389,-8.1231192],[-79.0286213,-8.1226071],[-79.0279398,-8.1217625],[-79.0278861,-8.1216934],[-79.0273759,-8.1210685],[-79.0270583,-8.1206624],[-79.0269758,-8.1203911],[-79.02675,-8.1200995],[-79.0262945,-8.1195754],[-79.026243,-8.1194835],[-79.0274399,-8.1184723],[-79.0268801,-8.1177663],[-79.0269813,-8.1176761],[-79.0277331,-8.1170082],[-79.0280834,-8.1166989],[-79.0281235,-8.1166446],[-79.0281427,-8.1165955],[-79.0281521,-8.1165508],[-79.0281562,-8.1165123],[-79.02816,-8.1164691],[-79.0281671,-8.116382],[-79.0284496,-8.1164078],[-79.0286734,-8.1164296],[-79.0294592,-8.1164785],[-79.0295444,-8.1164761],[-79.0295863,-8.116469],[-79.0296324,-8.1164554],[-79.0300521,-8.1162717],[-79.030372,-8.1161366],[-79.03074,-8.1159634],[-79.0311823,-8.1157365],[-79.0312323,-8.1156916],[-79.0320139,-8.114641],[-79.0325502,-8.1139414],[-79.0326492,-8.1137822],[-79.0326675,-8.1136908],[-79.0327087,-8.1131413],[-79.0327818,-8.1121138],[-79.0327886,-8.1120193],[-79.0328614,-8.1120207],[-79.0329342,-8.1120201],[-79.0330445,-8.111989],[-79.0331236,-8.111939],[-79.0331907,-8.1118536],[-79.0332698,-8.1117271],[-79.0334443,-8.1114813],[-79.0335062,-8.111393],[-79.0335677,-8.111464],[-79.0337084,-8.1116264],[-79.0337971,-8.1117289],[-79.0338471,-8.1117867],[-79.0338941,-8.1118409],[-79.0344168,-8.1124444],[-79.0344644,-8.1124994],[-79.0345397,-8.1125864],[-79.0352592,-8.113417],[-79.035618,-8.1138322],[-79.0363968,-8.1147305],[-79.0371221,-8.115568],[-79.037158,-8.1156094],[-79.0372053,-8.115664],[-79.0372611,-8.1157285],[-79.0373127,-8.1157881],[-79.0382054,-8.1168188],[-79.0387902,-8.1174939],[-79.0388463,-8.1175587],[-79.0389084,-8.1176301],[-79.0389556,-8.1176846],[-79.0391835,-8.117948],[-79.0402011,-8.119123],[-79.0402752,-8.1192085],[-79.0403922,-8.1191843],[-79.0405106,-8.1192008],[-79.0406163,-8.1192561],[-79.0412019,-8.1187878],[-79.0424775,-8.1177143],[-79.0426881,-8.1175307],[-79.0432527,-8.1170551],[-79.0433525,-8.1169709],[-79.0434987,-8.1168509],[-79.0440273,-8.116416],[-79.0441168,-8.11634],[-79.0451866,-8.1153902],[-79.0463552,-8.1143893],[-79.0464054,-8.1143499],[-79.0464397,-8.1143176],[-79.0467557,-8.1140509],[-79.04723,-8.1136107],[-79.0474155,-8.1133926],[-79.0476155,-8.1131037],[-79.0476312,-8.1130703],[-79.0477494,-8.1128195],[-79.0478473,-8.1125669],[-79.0479157,-8.1123182],[-79.047931,-8.112205],[-79.0479632,-8.111893],[-79.0479552,-8.1115398],[-79.0479002,-8.1112252],[-79.0477809,-8.1107841],[-79.0476628,-8.1103449],[-79.0474402,-8.1095204],[-79.0472002,-8.1086312],[-79.047075,-8.1081736],[-79.0467005,-8.1068235],[-79.0466751,-8.1067146],[-79.0466202,-8.1065016],[-79.0464931,-8.1060085],[-79.0460792,-8.1044623],[-79.0460564,-8.1043807],[-79.0459657,-8.104053],[-79.0459132,-8.1038825],[-79.0458411,-8.1037223],[-79.0457611,-8.1035747],[-79.0457033,-8.1034956],[-79.045187,-8.1028689],[-79.0451014,-8.1027606],[-79.0448032,-8.1023861],[-79.0446103,-8.102134],[-79.0445693,-8.1020676],[-79.0445398,-8.1020002],[-79.0443739,-8.1014935],[-79.0443467,-8.101415],[-79.043621,-8.0992539],[-79.0434993,-8.0988918],[-79.0433198,-8.0983682],[-79.0430859,-8.0977304],[-79.0429801,-8.0975733],[-79.0428719,-8.0974448],[-79.0421787,-8.0968995],[-79.0415863,-8.0964486],[-79.0410709,-8.096059],[-79.0407795,-8.0958387],[-79.0407273,-8.0957992],[-79.0404301,-8.0955723],[-79.0402135,-8.0954496],[-79.0397004,-8.0951998],[-79.0394296,-8.0950692],[-79.0393111,-8.0950121],[-79.0392653,-8.0950534],[-79.0392101,-8.0950813],[-79.0391494,-8.0950937],[-79.039083,-8.0950889],[-79.0390304,-8.0950706],[-79.0389838,-8.0950405],[-79.0389337,-8.0949824],[-79.0389118,-8.0949343],[-79.0389015,-8.0948826],[-79.0389034,-8.09483],[-79.0387896,-8.0947704],[-79.0384008,-8.0945888],[-79.0380587,-8.0944308],[-79.0376769,-8.0942575],[-79.037316,-8.0940937],[-79.0369536,-8.0939292],[-79.0365733,-8.0936915],[-79.0364178,-8.0935805],[-79.0363417,-8.0935172],[-79.0358483,-8.0930633],[-79.0358161,-8.0930349],[-79.0356306,-8.0928739],[-79.0354636,-8.0927289],[-79.0350886,-8.0924132],[-79.0344583,-8.0929777],[-79.0342204,-8.0931908],[-79.0338274,-8.0935742],[-79.0333212,-8.094068],[-79.0328647,-8.0945134],[-79.0324536,-8.0949145],[-79.0323676,-8.0949984],[-79.0322814,-8.0949112],[-79.0320638,-8.0946713],[-79.0318493,-8.0944729],[-79.0316722,-8.094342],[-79.0315324,-8.0942683],[-79.0313476,-8.094196],[-79.0310955,-8.0941163],[-79.0308004,-8.0940836],[-79.0307078,-8.094085],[-79.0305587,-8.0940938],[-79.0303847,-8.0941149],[-79.0301838,-8.0941622],[-79.0301021,-8.0941933],[-79.0299904,-8.0942358],[-79.0297747,-8.094342],[-79.0295666,-8.0944774],[-79.0293923,-8.094642],[-79.0290186,-8.0949955],[-79.0289511,-8.0949222],[-79.0284259,-8.094388],[-79.0280451,-8.0940095],[-79.0277506,-8.0937168],[-79.0275317,-8.0934992],[-79.0274989,-8.0933589],[-79.0272875,-8.0924019],[-79.0271703,-8.0919212],[-79.0269979,-8.0912142],[-79.0267693,-8.0902831],[-79.0264734,-8.0890576],[-79.0263493,-8.0890662],[-79.0261955,-8.089037],[-79.0260523,-8.0890097],[-79.0258112,-8.0889559],[-79.025656,-8.088942],[-79.0254387,-8.0889354],[-79.0252671,-8.0889487],[-79.0250512,-8.088954],[-79.0249959,-8.088948],[-79.0246408,-8.0888544],[-79.0244678,-8.0888677],[-79.0238696,-8.0890669],[-79.0236721,-8.0891851],[-79.0235793,-8.0891102],[-79.0235535,-8.0890815],[-79.0235456,-8.0890432],[-79.0236251,-8.0880427],[-79.0237267,-8.0873718],[-79.0237778,-8.0869892],[-79.0230407,-8.0868756],[-79.0223458,-8.0867675],[-79.0215948,-8.0866503],[-79.0209386,-8.0865471],[-79.0202923,-8.0864468],[-79.019611,-8.0863305],[-79.018821,-8.0862137],[-79.0180367,-8.086101],[-79.0180687,-8.086036],[-79.01835,-8.085399],[-79.0185468,-8.0847586],[-79.018737,-8.0841143],[-79.018903,-8.0834016],[-79.0191053,-8.0826176],[-79.0192603,-8.082017],[-79.0193233,-8.081766],[-79.0193377,-8.0817123],[-79.0193563,-8.0816392],[-79.0194151,-8.0814089],[-79.0195586,-8.0807567],[-79.0196763,-8.0800665],[-79.0197843,-8.0793743],[-79.0198995,-8.0786366],[-79.0200182,-8.077948],[-79.0201244,-8.0772793],[-79.0202443,-8.0765398],[-79.0202205,-8.0764038],[-79.020313,-8.0757923],[-79.0204537,-8.0748629],[-79.0205289,-8.0744347],[-79.0206174,-8.0739417],[-79.0206386,-8.0738269],[-79.020741,-8.0732858],[-79.020902,-8.0724182],[-79.020988,-8.0719369],[-79.0210002,-8.0718638],[-79.0210197,-8.0717468],[-79.0211505,-8.0709671],[-79.0212568,-8.0704341],[-79.021405,-8.0696744],[-79.021586,-8.0687239],[-79.0216608,-8.0683313],[-79.0218362,-8.0674104],[-79.0219211,-8.0669646],[-79.0221082,-8.0659821],[-79.0222042,-8.0654805],[-79.0222788,-8.0650476],[-79.0222867,-8.0650014],[-79.0223039,-8.0648636],[-79.0223462,-8.0645888],[-79.0221729,-8.0645495],[-79.0220584,-8.0645291],[-79.0211782,-8.0643716],[-79.0207167,-8.064284],[-79.0202652,-8.0641982],[-79.0198616,-8.0641216],[-79.0193603,-8.0640264],[-79.0189527,-8.063949],[-79.0182113,-8.0638081],[-79.0176612,-8.0637037],[-79.0179335,-8.0624611],[-79.0180376,-8.0619101],[-79.0181237,-8.0614951],[-79.0182156,-8.0610471],[-79.0183072,-8.0605047],[-79.0183386,-8.0603026],[-79.0183863,-8.0599878],[-79.0183565,-8.0598511],[-79.0182483,-8.0595036],[-79.0185753,-8.0593353],[-79.0201858,-8.0585314],[-79.0205972,-8.0583067],[-79.0217903,-8.057622],[-79.0227309,-8.0571424],[-79.0227499,-8.0574224],[-79.0231062,-8.0579567],[-79.0235285,-8.0586409],[-79.0239711,-8.0593236],[-79.0245471,-8.0602155],[-79.0253438,-8.0615205],[-79.0260238,-8.0625657],[-79.0265298,-8.0633308],[-79.0266069,-8.0636686],[-79.026525,-8.0640975],[-79.026047,-8.0639993],[-79.0244709,-8.0636859],[-79.0240166,-8.0635981],[-79.0235875,-8.0635152],[-79.0231265,-8.063426],[-79.0226286,-8.0633489]],"nodes":[13381608067,5282388361,1098584082,1098594839,5282388384,1098622793,5282850866,1098597159,5282850847,5282850872,5282850868,5282850869,5282850870,13381608066,5282850871,13381608064,5282388369,5282388368,5282388370,5282388367,5282388383,1098622686,1098612874,1098617886,5282388385,1098617235,11030648715,1098617436,8656898677,1098594318,12216934384,8656969951,8732276408,5390643530,5390642388,5390642396,5467953027,5390643531,5390643526,5390643532,5390643533,5390646242,5390646243,5390646244,5390646241,5390646245,5390646246,1098646662,1098625721,1098615286,1098591868,1098640625,1098603549,1098614935,1098584964,1098624331,1098635127,5465509967,5072432999,1098598333,1098608101,8660499811,1098594974,11030614825,1098627115,11030614821,2465844381,8743812280,1098631105,5465533569,5465519410,5465519409,1098584426,1098618273,12216917725,5465519416,5465519417,9498344252,12216917719,1098594523,1098600310,1098597128,1098650830,1098638853,12068808669,5465526567,1098584886,1098640476,5465519404,5465519405,1094849946,5465526576,1098598270,1098618076,5465526575,5465526614,5465526616,5465526574,5390643527,5465526566,5390643528,5465534818,5390643529,1098627246,1098606775,7112997209,5072444271,5467997270,5072444248,11030351651,11030351650,13137418277,5072444249,5072444250,1145579813,5072494785,5072494722,4858049420,4858050022,5072494659,4858049418,5072494657,316264696,1145579854,4858049416,316264694,11030326607,7113004005,11104988597,5072494723,5082686317,1145579825,1145579831,5082686315,13137419532,316264693,5072509547,316264692,1145579886,5072509545,5082686313,5467941865,5072509548,316264691,5072509549,5072509553,316264690,5072509551,316264689,1098604811,11028564810,11028473002,4858049408,334650026,334650028,5082686287,11028472995,316264686,11028617402,316264685,11028617397,11028625413,1098603712,5082686319,5473927283,11028573864,5082686318,11028573855,5082689982,5473927261,5082686320,5473927270,5082686256,5082686254,5082156673,5082689990,316264930,2549352845,316264929,8624588281,10823604381,2549352846,10823604379,10823604378,10823604380,10823604377,2549352825,316254532,10823604369,8624588278,5082434461,316254533,10823604370,1538275888,10823604371,316254534,320113110,316254535,5082434453,2549352808,10823604372,2549352804,316254536,10823604362,10823604361,2549352850,10823604360,10823604363,10823604359,1098640722,5082689991,11114421896,11114421898,1098619862,1098591271,1098586330,1050893960,1538275857,316254967,3670684015,3670684014,316254426,316254427,1098644892,3670684727,316254428,1098632617,316254429,6195970422,316265440,316261151,12566648306,316261163,316254431,2591061029,288406889,2591061030,3670684743,316254433,316254504,316254434,2591061031,2591061032,13513627511,316254505,3670684008,12566648338,3670684007,12566648341,12433537360,3670684001,3670684003,3670684002,1098599784,2892557353,316256470,316256471,2892557352,2482796388,8234359405,5455991385,1098595710,13086967440,13381664564,1098595421,1098585098,316265250,316265251,13086967431,316265252,13086967432,316265253,2606512425,2606512424,316265254,2606512421,316265255,316265256,1098615443,1098633890,1627008312,1098596414,3728336232,316260177,1098634502,316260176,316260175,1098586863,1627006896,1627006892,320114914,1627006871,1627006865,1627006861,1627006857,1627006841,1098598360,1098591261,2694543105,1098647241,316264102,1554840454,5101540451,316264103,316488686,11037703693,316264105,320114897,7123096673,320114902,316264107,316264108,4633792028,1098600919,4633792030,1098623402,1098634043,2573525824,4633792123,1098631009,1098643342,1098586627,1098627243,1098617232,4633792021,5052319280,4633792017,1098623325,4633792016,4633792101,1098588989,1098606361,1098619946,3802902559,1098640801,1098586919,11037474036,3802902620,11037474037,5066749589,1098596490,13084941049,8234317182,11037474043,13084941052,1098617501,13084941047,11794208391,11794208392,316256693,360997591,1098583901,9099956837,5066749587,11030733093,11030733094,11090514814,2610202757,1098623742,1098613577,11030580730,5066876400,11030580728,360997588,360997585,360997582,360997580,7115393638,1142680114,1098640898,5066876380,360997577,360997575,360997571,1142679834,1098607662,1098598110,5066876364,1098646793,11030580726,1098624543,1272612868,11114527476,1098595529,1098583877,3392616026,11033515779,5066801033,360997562,3392616022,11037979588,11037604020,5478680397,11037604018,360997560,11037974907,360997559,2760772634,1088227191,1092986833,1098644615,360997557,360997555,3392616023,360997554,360997552,1098611658,11028490540,11028490535,1098632534,1088227222,11037607762,5089509044,12599105497,1088227192,1098602539,1098614146,4245990447,1098624681,1088227455,1098634854,1098646889,12599107403,1098590748,1088227318,11037596759,1098596652,1098604754,11037596769,11037596767,1088227473,1088227404,11037596771,1088227341,11037596772,1088227195,11037627718,1098636580,1088227429,11037627716,1098641709,1098620469,1098608783,5425541301,1098624555,1098585118,1098607147,5432138639,5432138638,5432138637,11032459641,5432138636,5432138635,11032459639,11037482649,11037482645,5432138633,11032459637,11037482644,5432138632,11032459636,5432138631,5432138630,9138668638,5483080330,9218480464,10991119020,10991119016,5089356954,5089356949,5483053653,5483053656,5432138655,5483053673,5483037408,5483037407,11032418472,5483037406,5483053650,5483037405,5483037404,5483037403,5483037402,8095162549,5483037401,5483037400,5483037399,5483053677,5483037374,10735697401,5456218885,5456218884,5456218881,10735691980,10735691981,10735691982,10735691983,10735691984,10735691985,10735691986,10735702888,10735702889,1098603595,1098595956,1098595562,5456218874,5456218869,5456218870,8167925079,5456241641,4454080659,11027891721,5456241643,1098647797,1098591238,1098598130,1098589187,1098614980,1098597011,5082176742,10733782353,5082176740,5082107577,5082107576,5082107575,5082107574,5082107573,5082107572,5082107563,5082107591,11023388077,5082107562,5082107561,5082107560,13475100370,5082107559,5082107558,10735327565,5082245523,5082245524,11030430162,11030430161,11030430154,11030430155,1098617908,11030430157,5483458676,1098606320,5483476448,1098628627,5483476456,1098584544,1098590457,1098631256,1098629349,1098646687,1098635161,1098640674,1098584990,1098646830,4438560879,1098634782,2503344304,1098647414,3271162584,3133267708,2589604621,2589604615,2339886603,3135885820,3271162580,3112071212,3273043453,2589604586,2589604585,2589604584,2589604583,2339884512,5488971793,5483508447,5483508451,5483476444,5483476443,11812523500]},"gtfs":{"agency_id":20,"route_id":43,"services":[{"service_id":"Mo-Su","startTime":"05:00","endTime":"23:00","trip_id":19968140}],"filteredStops":{"nodes":[13381608067,13546545319,13546546118,13546546100,13546545306,13546545322,8743805428,13546545324,13546545317,13546545326,12121155299,13546546101,13546545318,13546546092,13546546117,12121157801,13546546090,13546546103,13546545325,13546545332,13546546109,13546545298,13546545338,5082686253,13546546120,13546545143,13546545942,13546545940,13546545242,5069523013,13546546006,13546545206,13546545989,13546545187,13546545188,11910518831,13546545946,13546545152,13546545951,13546545260,13546545261,13546546061,13546546063,13546545262,13546545264,13546546065,13546545257,13546546058,13546546060,13546545913,13546545912,13546535047,13546545268,13546545585,13546545584,13546545599,13546545600,13546545809,13546546380,13546546409,13546545843,13546545807,13546545795,11812523500],"coordinates":[[-79.0066016,-8.1882198],[-79.0059138,-8.1876327],[-79.0045168,-8.1871996],[-79.0038593,-8.1897178],[-79.0061386,-8.1887133],[-79.0118064,-8.1820721],[-79.0125262,-8.1806225],[-79.0160342,-8.1780372],[-79.0152849,-8.177255],[-79.0141359,-8.1779895],[-79.0125514,-8.1768674],[-79.0119408,-8.1744099],[-79.0112971,-8.1716275],[-79.0081707,-8.1719455],[-79.0096191,-8.169849],[-79.0107644,-8.1694508],[-79.0116043,-8.1608797],[-79.0121467,-8.1564809],[-79.0118688,-8.1528574],[-79.0116854,-8.1487098],[-79.0125973,-8.1442256],[-79.0142003,-8.1399451],[-79.0164493,-8.1369074],[-79.0190363,-8.1336578],[-79.0204793,-8.1317103],[-79.0213849,-8.1292768],[-79.0221161,-8.1268947],[-79.0228417,-8.1243768],[-79.0246367,-8.124507],[-79.0277456,-8.1259685],[-79.0303213,-8.1261258],[-79.0281444,-8.122105],[-79.0288327,-8.1163717],[-79.0313061,-8.1154722],[-79.0326995,-8.1129586],[-79.034349,-8.1123007],[-79.0354605,-8.1135988],[-79.0375486,-8.1159949],[-79.039182,-8.117924],[-79.0409936,-8.1188701],[-79.043097,-8.1171527],[-79.0462892,-8.1144262],[-79.047697,-8.1106633],[-79.0467982,-8.1072402],[-79.0461052,-8.1047663],[-79.0445116,-8.102012],[-79.0438557,-8.1002056],[-79.0430501,-8.0978658],[-79.041087,-8.0961352],[-79.0378453,-8.0943672],[-79.0359876,-8.0932084],[-79.0336175,-8.093915],[-79.026927,-8.0909589],[-79.0227141,-8.0868668],[-79.0200443,-8.08641],[-79.0187287,-8.0839135],[-79.0196721,-8.0797043],[-79.0214493,-8.0690621],[-79.0222233,-8.0652866],[-79.0183134,-8.0597726],[-79.0219677,-8.0575144],[-79.0256077,-8.0618439],[-79.0242079,-8.0637244],[-79.0226286,-8.0633489]]}}},{"type":"Feature","properties":{"bus":"yes","highway":"bus_stop","network":"Transporte Público Urbano Trujillo","public_transport":"platform","ref":"PM-52","source":"Gerencia de Transporte Metropolitano de Trujillo","id":13546545319},"geometry":{"type":"Point","coordinates":[-79.0059138,-8.1876327]}},{"type":"Feature","properties":{"bus":"yes","highway":"bus_stop","network":"Transporte Público Urbano Trujillo","public_transport":"platform","ref":"PM-15","source":"Gerencia de Transporte Metropolitano de Trujillo","id":13546546118},"geometry":{"type":"Point","coordinates":[-79.0045168,-8.1871996]}},{"type":"Feature","properties":{"bus":"yes","highway":"bus_stop","network":"Transporte Público Urbano Trujillo","public_transport":"platform","ref":"PM-54","source":"Gerencia de Transporte Metropolitano de Trujillo","id":13546546100},"geometry":{"type":"Point","coordinates":[-79.0038593,-8.1897178]}},{"type":"Feature","properties":{"bus":"yes","highway":"bus_stop","network":"Transporte Público Urbano Trujillo","public_transport":"platform","ref":"PM-87","source":"Gerencia de Transporte Metropolitano de Trujillo","id":13546545306},"geometry":{"type":"Point","coordinates":[-79.0061386,-8.1887133]}},{"type":"Feature","properties":{"bus":"yes","highway":"bus_stop","network":"Transporte Público Urbano Trujillo","public_transport":"platform","ref":"PM-47","source":"Gerencia de Transporte Metropolitano de Trujillo","id":13546545322},"geometry":{"type":"Point","coordinates":[-79.0118064,-8.1820721]}},{"type":"Feature","properties":{"advertising":"no","bench":"yes","bicycle_parking":"no","bin":"no","bus":"yes","departures_board":"no","highway":"bus_stop","level":"0","lit":"yes","name":"Avenida Perú","network":"Transporte Público Urbano Trujillo","passenger_information_display:speech_output":"no","pole":"no","public_transport":"platform","ramp":"no","ref":"PM-59","shelter":"yes","source:ref":"Gerencia de Transporte Metropolitano de Trujillo","tactile_paving":"no","tactile_writing:braille:es":"no","id":8743805428},"geometry":{"type":"Point","coordinates":[-79.0125262,-8.1806225]}},{"type":"Feature","properties":{"bus":"yes","highway":"bus_stop","network":"Transporte Público Urbano Trujillo","public_transport":"platform","ref":"PM-45","source":"Gerencia de Transporte Metropolitano de Trujillo","id":13546545324},"geometry":{"type":"Point","coordinates":[-79.0160342,-8.1780372]}},{"type":"Feature","properties":{"bus":"yes","highway":"bus_stop","network":"Transporte Público Urbano Trujillo","public_transport":"platform","ref":"PM-6","source":"Gerencia de Transporte Metropolitano de Trujillo","id":13546545317},"geometry":{"type":"Point","coordinates":[-79.0152849,-8.177255]}},{"type":"Feature","properties":{"bus":"yes","highway":"bus_stop","network":"Transporte Público Urbano Trujillo","public_transport":"platform","ref":"PM-4","source":"Gerencia de Transporte Metropolitano de Trujillo","id":13546545326},"geometry":{"type":"Point","coordinates":[-79.0141359,-8.1779895]}},{"type":"Feature","properties":{"advertising":"no","bench":"yes","bicycle_parking":"no","bin":"no","bus":"yes","departures_board":"no","highway":"bus_stop","level":"0","lit":"yes","name":"Avenida de La Marina","network":"Transporte Público Urbano Trujillo","passenger_information_display:speech_output":"no","pole":"no","public_transport":"platform","ramp":"no","ref":"PM-60","shelter":"yes","source:ref":"Gerencia de Transporte Metropolitano de Trujillo","tactile_paving":"no","tactile_writing:braille:es":"no","id":12121155299},"geometry":{"type":"Point","coordinates":[-79.0125514,-8.1768674]}},{"type":"Feature","properties":{"bus":"yes","highway":"bus_stop","network":"Transporte Público Urbano Trujillo","public_transport":"platform","ref":"PM-49","source":"Gerencia de Transporte Metropolitano de Trujillo","id":13546546101},"geometry":{"type":"Point","coordinates":[-79.0119408,-8.1744099]}},{"type":"Feature","properties":{"bus":"yes","highway":"bus_stop","network":"Transporte Público Urbano Trujillo","public_transport":"platform","ref":"PM-56","source":"Gerencia de Transporte Metropolitano de Trujillo","id":13546545318},"geometry":{"type":"Point","coordinates":[-79.0112971,-8.1716275]}},{"type":"Feature","properties":{"bus":"yes","highway":"bus_stop","network":"Transporte Público Urbano Trujillo","public_transport":"platform","ref":"PM-84","source":"Gerencia de Transporte Metropolitano de Trujillo","id":13546546092},"geometry":{"type":"Point","coordinates":[-79.0081707,-8.1719455]}},{"type":"Feature","properties":{"bus":"yes","highway":"bus_stop","network":"Transporte Público Urbano Trujillo","public_transport":"platform","ref":"PM-17","source":"Gerencia de Transporte Metropolitano de Trujillo","id":13546546117},"geometry":{"type":"Point","coordinates":[-79.0096191,-8.169849]}},{"type":"Feature","properties":{"advertising":"no","bench":"yes","bicycle_parking":"no","bin":"yes","bus":"yes","departures_board":"no","highway":"bus_stop","level":"0","lit":"yes","name":"Jirón José Galvez","network":"Transporte Público Urbano Trujillo","passenger_information_display:speech_output":"no","pole":"no","public_transport":"platform","ramp":"yes","ref":"PM-7","shelter":"yes","source:ref":"Gerencia de Transporte Metropolitano de Trujillo","tactile_paving":"no","tactile_writing:braille:es":"no","id":12121157801},"geometry":{"type":"Point","coordinates":[-79.0107644,-8.1694508]}},{"type":"Feature","properties":{"bus":"yes","highway":"bus_stop","network":"Transporte Público Urbano Trujillo","public_transport":"platform","ref":"PM-9","source":"Gerencia de Transporte Metropolitano de Trujillo","id":13546546090},"geometry":{"type":"Point","coordinates":[-79.0116043,-8.1608797]}},{"type":"Feature","properties":{"bus":"yes","highway":"bus_stop","network":"Transporte Público Urbano Trujillo","public_transport":"platform","ref":"PM-41","source":"Gerencia de Transporte Metropolitano de Trujillo","id":13546546103},"geometry":{"type":"Point","coordinates":[-79.0121467,-8.1564809]}},{"type":"Feature","properties":{"bus":"yes","highway":"bus_stop","network":"Transporte Público Urbano Trujillo","public_transport":"platform","ref":"PM-40","source":"Gerencia de Transporte Metropolitano de Trujillo","id":13546545325},"geometry":{"type":"Point","coordinates":[-79.0118688,-8.1528574]}},{"type":"Feature","properties":{"bus":"yes","highway":"bus_stop","network":"Transporte Público Urbano Trujillo","public_transport":"platform","ref":"PM-28","source":"Gerencia de Transporte Metropolitano de Trujillo","id":13546545332},"geometry":{"type":"Point","coordinates":[-79.0116854,-8.1487098]}},{"type":"Feature","properties":{"bus":"yes","highway":"bus_stop","network":"Transporte Público Urbano Trujillo","public_transport":"platform","ref":"PM-27","source":"Gerencia de Transporte Metropolitano de Trujillo","id":13546546109},"geometry":{"type":"Point","coordinates":[-79.0125973,-8.1442256]}},{"type":"Feature","properties":{"bus":"yes","highway":"bus_stop","network":"Transporte Público Urbano Trujillo","public_transport":"platform","ref":"PM-SC-01","source":"Gerencia de Transporte Metropolitano de Trujillo","id":13546545298},"geometry":{"type":"Point","coordinates":[-79.0142003,-8.1399451]}},{"type":"Feature","properties":{"bus":"yes","highway":"bus_stop","network":"Transporte Público Urbano Trujillo","public_transport":"platform","ref":"PM-122","source":"Gerencia de Transporte Metropolitano de Trujillo","id":13546545338},"geometry":{"type":"Point","coordinates":[-79.0164493,-8.1369074]}},{"type":"Feature","properties":{"advertising":"no","bench":"yes","bicycle_parking":"no","bin":"no","bus":"yes","departures_board":"no","highway":"bus_stop","level":"0","lit":"no","name":"Panamericana Norte","network":"Transporte Público Urbano Trujillo","passenger_information_display:speech_output":"no","public_transport":"platform","ramp":"no","ref":"PM-121","shelter":"yes","source":"Reconocimiento terrestre cartográfico realizado por Kaart en 2017","tactile_paving":"no","tactile_writing:braille:es":"no","id":5082686253},"geometry":{"type":"Point","coordinates":[-79.0190363,-8.1336578]}},{"type":"Feature","properties":{"bus":"yes","highway":"bus_stop","network":"Transporte Público Urbano Trujillo","public_transport":"platform","ref":"PM-120","source":"Gerencia de Transporte Metropolitano de Trujillo","id":13546546120},"geometry":{"type":"Point","coordinates":[-79.0204793,-8.1317103]}},{"type":"Feature","properties":{"bus":"yes","highway":"bus_stop","network":"Transporte Público Urbano Trujillo","public_transport":"platform","ref":"LAM-416","source":"Gerencia de Transporte Metropolitano de Trujillo","id":13546545143},"geometry":{"type":"Point","coordinates":[-79.0213849,-8.1292768]}},{"type":"Feature","properties":{"bus":"yes","highway":"bus_stop","network":"Transporte Público Urbano Trujillo","public_transport":"platform","ref":"LAM-412","source":"Gerencia de Transporte Metropolitano de Trujillo","id":13546545942},"geometry":{"type":"Point","coordinates":[-79.0221161,-8.1268947]}},{"type":"Feature","properties":{"bus":"yes","highway":"bus_stop","network":"Transporte Público Urbano Trujillo","public_transport":"platform","ref":"LAM-414","source":"Gerencia de Transporte Metropolitano de Trujillo","id":13546545940},"geometry":{"type":"Point","coordinates":[-79.0228417,-8.1243768]}},{"type":"Feature","properties":{"bus":"yes","highway":"bus_stop","network":"Transporte Público Urbano Trujillo","public_transport":"platform","ref":"AMS-37","source":"Gerencia de Transporte Metropolitano de Trujillo","id":13546545242},"geometry":{"type":"Point","coordinates":[-79.0246367,-8.124507]}},{"type":"Feature","properties":{"advertising":"no","bench":"yes","bicycle_parking":"no","bin":"no","bus":"yes","departures_board":"no","highway":"bus_stop","level":"0","lit":"yes","name":"AMS-36","network":"Transporte Público Urbano Trujillo","passenger_information_display:speech_output":"no","pole":"yes","public_transport":"platform","ramp":"yes","ref":"AMS-36","shelter":"yes","source":"Kaart Ground Survey","tactile_paving":"no","tactile_writing:braille:es":"no","id":5069523013},"geometry":{"type":"Point","coordinates":[-79.0277456,-8.1259685]}},{"type":"Feature","properties":{"bus":"yes","highway":"bus_stop","network":"Transporte Público Urbano Trujillo","public_transport":"platform","ref":"COSR-335","source":"Gerencia de Transporte Metropolitano de Trujillo","id":13546546006},"geometry":{"type":"Point","coordinates":[-79.0303213,-8.1261258]}},{"type":"Feature","properties":{"bus":"yes","highway":"bus_stop","network":"Transporte Público Urbano Trujillo","public_transport":"platform","ref":"COSR-332","source":"Gerencia de Transporte Metropolitano de Trujillo","id":13546545206},"geometry":{"type":"Point","coordinates":[-79.0281444,-8.122105]}},{"type":"Feature","properties":{"bus":"yes","highway":"bus_stop","network":"Transporte Público Urbano Trujillo","public_transport":"platform","ref":"ESP-6","source":"Gerencia de Transporte Metropolitano de Trujillo","id":13546545989},"geometry":{"type":"Point","coordinates":[-79.0288327,-8.1163717]}},{"type":"Feature","properties":{"bus":"yes","highway":"bus_stop","network":"Transporte Público Urbano Trujillo","public_transport":"platform","ref":"ESP-3","source":"Gerencia de Transporte Metropolitano de Trujillo","id":13546545187},"geometry":{"type":"Point","coordinates":[-79.0313061,-8.1154722]}},{"type":"Feature","properties":{"bus":"yes","highway":"bus_stop","network":"Transporte Público Urbano Trujillo","public_transport":"platform","ref":"ESP-2","source":"Gerencia de Transporte Metropolitano de Trujillo","id":13546545188},"geometry":{"type":"Point","coordinates":[-79.0326995,-8.1129586]}},{"type":"Feature","properties":{"advertising":"yes","bench":"yes","bicycle_parking":"no","bin":"no","bus":"yes","departures_board":"yes","highway":"bus_stop","level":"0","lit":"yes","name":"Avenida Jesús de Nazareth","network":"Transporte Público Urbano Trujillo","passenger_information_display:speech_output":"no","public_transport":"platform","ramp":"no","ref":"JPT-138","shelter":"yes","source:ref":"Gerencia de Transporte Metropolitano de Trujillo","tactile_paving":"no","tactile_writing:braille:es":"no","id":11910518831},"geometry":{"type":"Point","coordinates":[-79.034349,-8.1123007]}},{"type":"Feature","properties":{"bus":"yes","highway":"bus_stop","network":"Transporte Público Urbano Trujillo","public_transport":"platform","ref":"JPT-139","source":"Gerencia de Transporte Metropolitano de Trujillo","id":13546545946},"geometry":{"type":"Point","coordinates":[-79.0354605,-8.1135988]}},{"type":"Feature","properties":{"bus":"yes","highway":"bus_stop","network":"Transporte Público Urbano Trujillo","public_transport":"platform","ref":"JPT-127","source":"Gerencia de Transporte Metropolitano de Trujillo","id":13546545152},"geometry":{"type":"Point","coordinates":[-79.0375486,-8.1159949]}},{"type":"Feature","properties":{"bus":"yes","highway":"bus_stop","network":"Transporte Público Urbano Trujillo","public_transport":"platform","ref":"JPT-131","source":"Gerencia de Transporte Metropolitano de Trujillo","id":13546545951},"geometry":{"type":"Point","coordinates":[-79.039182,-8.117924]}},{"type":"Feature","properties":{"bus":"yes","highway":"bus_stop","network":"Transporte Público Urbano Trujillo","public_transport":"platform","ref":"AMEO-78","source":"Gerencia de Transporte Metropolitano de Trujillo","id":13546545260},"geometry":{"type":"Point","coordinates":[-79.0409936,-8.1188701]}},{"type":"Feature","properties":{"bus":"yes","highway":"bus_stop","network":"Transporte Público Urbano Trujillo","public_transport":"platform","ref":"AMEO-77","source":"Gerencia de Transporte Metropolitano de Trujillo","id":13546545261},"geometry":{"type":"Point","coordinates":[-79.043097,-8.1171527]}},{"type":"Feature","properties":{"bus":"yes","highway":"bus_stop","network":"Transporte Público Urbano Trujillo","public_transport":"platform","ref":"AMEO-76","source":"Gerencia de Transporte Metropolitano de Trujillo","id":13546546061},"geometry":{"type":"Point","coordinates":[-79.0462892,-8.1144262]}},{"type":"Feature","properties":{"bus":"yes","highway":"bus_stop","network":"Transporte Público Urbano Trujillo","public_transport":"platform","ref":"AMEO-73","source":"Gerencia de Transporte Metropolitano de Trujillo","id":13546546063},"geometry":{"type":"Point","coordinates":[-79.047697,-8.1106633]}},{"type":"Feature","properties":{"bus":"yes","highway":"bus_stop","network":"Transporte Público Urbano Trujillo","public_transport":"platform","ref":"AMEO-72","source":"Gerencia de Transporte Metropolitano de Trujillo","id":13546545262},"geometry":{"type":"Point","coordinates":[-79.0467982,-8.1072402]}},{"type":"Feature","properties":{"bus":"yes","highway":"bus_stop","network":"Transporte Público Urbano Trujillo","public_transport":"platform","ref":"AMEO-69","source":"Gerencia de Transporte Metropolitano de Trujillo","id":13546545264},"geometry":{"type":"Point","coordinates":[-79.0461052,-8.1047663]}},{"type":"Feature","properties":{"bus":"yes","highway":"bus_stop","network":"Transporte Público Urbano Trujillo","public_transport":"platform","ref":"AMEO-67","source":"Gerencia de Transporte Metropolitano de Trujillo","id":13546546065},"geometry":{"type":"Point","coordinates":[-79.0445116,-8.102012]}},{"type":"Feature","properties":{"bus":"yes","highway":"bus_stop","network":"Transporte Público Urbano Trujillo","public_transport":"platform","ref":"AMEO-83","source":"Gerencia de Transporte Metropolitano de Trujillo","id":13546545257},"geometry":{"type":"Point","coordinates":[-79.0438557,-8.1002056]}},{"type":"Feature","properties":{"bus":"yes","highway":"bus_stop","network":"Transporte Público Urbano Trujillo","public_transport":"platform","ref":"AMEO-85","source":"Gerencia de Transporte Metropolitano de Trujillo","id":13546546058},"geometry":{"type":"Point","coordinates":[-79.0430501,-8.0978658]}},{"type":"Feature","properties":{"bus":"yes","highway":"bus_stop","network":"Transporte Público Urbano Trujillo","public_transport":"platform","ref":"AMEO-82","source":"Gerencia de Transporte Metropolitano de Trujillo","id":13546546060},"geometry":{"type":"Point","coordinates":[-79.041087,-8.0961352]}},{"type":"Feature","properties":{"bus":"yes","highway":"bus_stop","network":"Transporte Público Urbano Trujillo","public_transport":"platform","ref":"PACALS-87","source":"Gerencia de Transporte Metropolitano de Trujillo","id":13546545913},"geometry":{"type":"Point","coordinates":[-79.0378453,-8.0943672]}},{"type":"Feature","properties":{"bus":"yes","highway":"bus_stop","network":"Transporte Público Urbano Trujillo","public_transport":"platform","ref":"PACALS-88","source":"Gerencia de Transporte Metropolitano de Trujillo","id":13546545912},"geometry":{"type":"Point","coordinates":[-79.0359876,-8.0932084]}},{"type":"Feature","properties":{"bus":"yes","highway":"bus_stop","network":"Transporte Público Urbano Trujillo","public_transport":"platform","ref":"TUPAT-121","source":"Gerencia de Transporte Metropolitano de Trujillo","id":13546535047},"geometry":{"type":"Point","coordinates":[-79.0336175,-8.093915]}},{"type":"Feature","properties":{"bus":"yes","highway":"bus_stop","network":"Transporte Público Urbano Trujillo","public_transport":"platform","ref":"AK-455","source":"Gerencia de Transporte Metropolitano de Trujillo","id":13546545268},"geometry":{"type":"Point","coordinates":[-79.026927,-8.0909589]}},{"type":"Feature","properties":{"bus":"yes","highway":"bus_stop","network":"Transporte Público Urbano Trujillo","public_transport":"platform","ref":"PFM-33","source":"Gerencia de Transporte Metropolitano de Trujillo","id":13546545585},"geometry":{"type":"Point","coordinates":[-79.0227141,-8.0868668]}},{"type":"Feature","properties":{"bus":"yes","highway":"bus_stop","network":"Transporte Público Urbano Trujillo","public_transport":"platform","ref":"PFM-34","source":"Gerencia de Transporte Metropolitano de Trujillo","id":13546545584},"geometry":{"type":"Point","coordinates":[-79.0200443,-8.08641]}},{"type":"Feature","properties":{"bus":"yes","highway":"bus_stop","network":"Transporte Público Urbano Trujillo","public_transport":"platform","ref":"PFM-18","source":"Gerencia de Transporte Metropolitano de Trujillo","id":13546545599},"geometry":{"type":"Point","coordinates":[-79.0187287,-8.0839135]}},{"type":"Feature","properties":{"bus":"yes","highway":"bus_stop","network":"Transporte Público Urbano Trujillo","public_transport":"platform","ref":"PFM-17","source":"Gerencia de Transporte Metropolitano de Trujillo","id":13546545600},"geometry":{"type":"Point","coordinates":[-79.0196721,-8.0797043]}},{"type":"Feature","properties":{"bus":"yes","highway":"bus_stop","network":"Transporte Público Urbano Trujillo","public_transport":"platform","ref":"PAT-64","source":"Gerencia de Transporte Metropolitano de Trujillo","id":13546545809},"geometry":{"type":"Point","coordinates":[-79.0214493,-8.0690621]}},{"type":"Feature","properties":{"bus":"yes","highway":"bus_stop","network":"Transporte Público Urbano Trujillo","public_transport":"platform","ref":"PAT-93","source":"Gerencia de Transporte Metropolitano de Trujillo","id":13546546380},"geometry":{"type":"Point","coordinates":[-79.0222233,-8.0652866]}},{"type":"Feature","properties":{"bus":"yes","highway":"bus_stop","network":"Transporte Público Urbano Trujillo","public_transport":"platform","ref":"PAT-124","source":"Gerencia de Transporte Metropolitano de Trujillo","id":13546546409},"geometry":{"type":"Point","coordinates":[-79.0183134,-8.0597726]}},{"type":"Feature","properties":{"bus":"yes","highway":"bus_stop","network":"Transporte Público Urbano Trujillo","public_transport":"platform","ref":"PAT-130","source":"Gerencia de Transporte Metropolitano de Trujillo","id":13546545843},"geometry":{"type":"Point","coordinates":[-79.0219677,-8.0575144]}},{"type":"Feature","properties":{"bus":"yes","highway":"bus_stop","network":"Transporte Público Urbano Trujillo","public_transport":"platform","ref":"PAT-68","source":"Gerencia de Transporte Metropolitano de Trujillo","id":13546545807},"geometry":{"type":"Point","coordinates":[-79.0256077,-8.0618439]}},{"type":"Feature","properties":{"bus":"yes","highway":"bus_stop","network":"Transporte Público Urbano Trujillo","public_transport":"platform","ref":"PAT-91","source":"Gerencia de Transporte Metropolitano de Trujillo","id":13546545795},"geometry":{"type":"Point","coordinates":[-79.0242079,-8.0637244]}}]}