{"type":"FeatureCollection","features":[{"type":"Feature","properties":{"check_date":"2025-12-16","colour":"#FFFF00","colour:text":"#000000","fee":"yes","from":"Calle Jirón Cuba","hash":"6437","interval":"3","name":"Calle Jirón Cuba → Avenida Federico Villarreal","network":"Transporte Público Urbano Trujillo","opening_hours":"Mo-Su 05:00-23:00","operator":"MODERNO GIRASOLES EXPRESS S.A","public_transport:version":"2","ref":"C-05 B1","route":"bus","survey:avg_speed:kmh":"20","to":"Avenida Federico Villarreal","type":"route","id":19966226},"geometry":{"type":"LineString","coordinates":[[-79.0701736,-8.053093],[-79.0699335,-8.0526132],[-79.0674849,-8.0538583],[-79.0669438,-8.0528617],[-79.0664419,-8.0518976],[-79.0657014,-8.0504338],[-79.0652476,-8.0495741],[-79.065065,-8.0492282],[-79.0650391,-8.0491791],[-79.0649664,-8.0492161],[-79.0645657,-8.0494201],[-79.0644353,-8.0494865],[-79.0642037,-8.0496057],[-79.0635137,-8.0499606],[-79.0626352,-8.0504064],[-79.0619405,-8.0507424],[-79.0609457,-8.0512236],[-79.0603119,-8.0515547],[-79.0601902,-8.0516183],[-79.0589788,-8.0522616],[-79.0581516,-8.0526652],[-79.0578369,-8.0528189],[-79.0571076,-8.0531892],[-79.056937,-8.0532818],[-79.0566561,-8.0534341],[-79.0563242,-8.0536149],[-79.0562533,-8.0536575],[-79.0559513,-8.0538474],[-79.0556235,-8.0540967],[-79.0551931,-8.054537],[-79.0549609,-8.055032],[-79.0546064,-8.055791],[-79.0545361,-8.0559489],[-79.054287,-8.0565081],[-79.0541959,-8.0567859],[-79.0541032,-8.0570844],[-79.0540048,-8.0573878],[-79.0536598,-8.05845],[-79.0535249,-8.058863],[-79.0534122,-8.0592113],[-79.0532761,-8.0596321],[-79.0531942,-8.0598903],[-79.0529708,-8.0605939],[-79.0528424,-8.0610202],[-79.0527962,-8.0611688],[-79.0526386,-8.0616434],[-79.0524284,-8.0622932],[-79.0522538,-8.0628187],[-79.0518335,-8.0641705],[-79.0514531,-8.0653464],[-79.0513385,-8.0656957],[-79.0510317,-8.0666742],[-79.0509534,-8.0669079],[-79.0504633,-8.0683895],[-79.050265,-8.0690553],[-79.0498945,-8.0702461],[-79.0497602,-8.0706682],[-79.0493821,-8.0717987],[-79.049253,-8.0721841],[-79.0490404,-8.0728413],[-79.0488843,-8.0733676],[-79.048525,-8.0741929],[-79.0483957,-8.0744791],[-79.0479918,-8.0753728],[-79.0475676,-8.0763116],[-79.0475313,-8.0763919],[-79.0472673,-8.0769763],[-79.0472061,-8.0771118],[-79.0468811,-8.077831],[-79.0465612,-8.0785389],[-79.0464762,-8.0787271],[-79.0463414,-8.0790254],[-79.0461788,-8.0793851],[-79.0461037,-8.0795514],[-79.0459235,-8.0799501],[-79.0457997,-8.0802242],[-79.0457586,-8.0803151],[-79.045721,-8.0803983],[-79.0455892,-8.0806877],[-79.0453363,-8.0812496],[-79.0451935,-8.0815657],[-79.045093,-8.0817882],[-79.0448798,-8.08226],[-79.0445772,-8.0829324],[-79.0443502,-8.083432],[-79.0439431,-8.0843346],[-79.0435823,-8.0851342],[-79.043486,-8.0853351],[-79.0433957,-8.0855477],[-79.0433473,-8.0856513],[-79.0429077,-8.0866242],[-79.0428685,-8.0867206],[-79.0424153,-8.0877227],[-79.0423607,-8.0878348],[-79.0419632,-8.0887144],[-79.0417726,-8.0891362],[-79.0415489,-8.0896414],[-79.0413911,-8.0899805],[-79.0413004,-8.0901846],[-79.0406924,-8.0915268],[-79.0406377,-8.0916478],[-79.0402851,-8.0924281],[-79.0399855,-8.0930911],[-79.0397719,-8.0935637],[-79.0393296,-8.0945425],[-79.0392686,-8.0946774],[-79.039083,-8.0950889],[-79.038996,-8.0952811],[-79.0389466,-8.0953903],[-79.0384173,-8.0965614],[-79.038029,-8.0974206],[-79.0374928,-8.0986072],[-79.0372284,-8.0991924],[-79.0364963,-8.1008125],[-79.0362385,-8.1013831],[-79.0361939,-8.1014818],[-79.0355989,-8.1027983],[-79.0353061,-8.1034532],[-79.0346254,-8.1049638],[-79.0346176,-8.1050082],[-79.0346238,-8.1050602],[-79.0346371,-8.1050932],[-79.0346668,-8.1051331],[-79.034729,-8.1051724],[-79.0348023,-8.1052035],[-79.0348622,-8.1051998],[-79.0350511,-8.1052429],[-79.0353172,-8.1051343],[-79.0354601,-8.105076],[-79.0355755,-8.1050771],[-79.035605,-8.1050916],[-79.0356791,-8.1051455],[-79.0357223,-8.1051829],[-79.0358273,-8.1052641],[-79.036067,-8.1057871],[-79.0362184,-8.1061526],[-79.0362525,-8.1062342],[-79.0365364,-8.1069179],[-79.0369485,-8.1079294],[-79.0372699,-8.1087139],[-79.037388,-8.108956],[-79.0375097,-8.1091387],[-79.0380939,-8.1098517],[-79.0381839,-8.1099631],[-79.0380882,-8.1100254],[-79.0376847,-8.1103207],[-79.036251,-8.1113451],[-79.0359712,-8.1115469],[-79.0359243,-8.1115837],[-79.035893,-8.1116049],[-79.0357964,-8.1116733],[-79.0357345,-8.111719],[-79.0356706,-8.1117669],[-79.0351109,-8.1121722],[-79.0345397,-8.1125864],[-79.0344451,-8.112655],[-79.0333154,-8.1136337],[-79.0328758,-8.1139825],[-79.0322537,-8.1144598],[-79.0320623,-8.114698],[-79.0312739,-8.1157431],[-79.0312147,-8.1157976],[-79.0307673,-8.1160244],[-79.0303971,-8.1161899],[-79.0302848,-8.116242],[-79.0299547,-8.1165072],[-79.0294209,-8.1169632],[-79.0286772,-8.1175894],[-79.0284193,-8.1178066],[-79.0282271,-8.1179685],[-79.0276199,-8.1184798],[-79.0275116,-8.118571],[-79.0262945,-8.1195754],[-79.026243,-8.1194835],[-79.0258057,-8.1189917],[-79.0256705,-8.118841],[-79.0253383,-8.1184941],[-79.0253204,-8.1184754],[-79.025167,-8.1183311],[-79.0250373,-8.118209],[-79.0249217,-8.1181009],[-79.0248441,-8.1180764],[-79.024142,-8.1174222],[-79.0230896,-8.1163724],[-79.0224025,-8.1156582],[-79.0219789,-8.1152309],[-79.0215809,-8.1148344],[-79.0213678,-8.1146176],[-79.0208073,-8.114097],[-79.0204401,-8.1136315],[-79.0201765,-8.1133091],[-79.0192626,-8.1139366],[-79.0183683,-8.1145632],[-79.0170294,-8.1154963],[-79.0161848,-8.1160762],[-79.0160971,-8.1161408],[-79.0158589,-8.1158277],[-79.0154649,-8.1152969],[-79.0154267,-8.1152432],[-79.0151665,-8.1148914],[-79.0151129,-8.1148203],[-79.0148553,-8.1144167],[-79.0148298,-8.1143574],[-79.0147829,-8.1142839],[-79.0140645,-8.1128645],[-79.0139744,-8.1126865],[-79.0138109,-8.1127642],[-79.0133708,-8.1129735],[-79.012948,-8.113184],[-79.0127528,-8.113273],[-79.0125303,-8.1133304],[-79.0123662,-8.1133465],[-79.0122026,-8.1133414],[-79.0113726,-8.1132136],[-79.0104756,-8.1130823],[-79.0100301,-8.11302],[-79.009009,-8.112864],[-79.0088043,-8.1128295],[-79.0084043,-8.1127661],[-79.0075623,-8.1126325],[-79.0068653,-8.1125219],[-79.0068839,-8.1124116],[-79.0069633,-8.1118991],[-79.0071408,-8.1107538],[-79.0071541,-8.1106678],[-79.0072138,-8.1102826],[-79.0074268,-8.1089075],[-79.0075002,-8.1084337],[-79.0075747,-8.1079529],[-79.0076474,-8.1074834],[-79.0077204,-8.1070125],[-79.0077981,-8.1065109],[-79.0076634,-8.1064907],[-79.0074136,-8.1059722],[-79.0069773,-8.1050369],[-79.0062865,-8.1036091],[-79.0058272,-8.1038402],[-79.0052288,-8.1026002],[-79.0047913,-8.1028117],[-79.0043543,-8.1030344],[-79.0045202,-8.1033467],[-79.004098,-8.1035476],[-79.003663,-8.103759],[-79.0032448,-8.1039759],[-79.003142,-8.1040267],[-79.0030276,-8.1038071],[-79.0029506,-8.1036915],[-79.0028175,-8.1035598],[-79.0023271,-8.1032107],[-79.0022587,-8.103304],[-79.0021649,-8.1032458],[-79.0011767,-8.1025768],[-79.000932,-8.102345],[-79.000955,-8.102339],[-79.0009817,-8.1023427],[-79.001279,-8.102485],[-79.0013423,-8.1024934],[-79.0013881,-8.102489],[-79.0014623,-8.1024699],[-79.0015054,-8.1024365],[-79.0016228,-8.1022851],[-79.0017307,-8.1021796],[-79.0019386,-8.1019951],[-79.00199,-8.1019237],[-79.0019997,-8.1019153],[-79.0020552,-8.1018676],[-79.0021022,-8.1017786],[-79.0021397,-8.1017056],[-79.0019506,-8.1009966],[-79.0018246,-8.1005545],[-79.00172,-8.1002982],[-79.0015,-8.0998787],[-79.0011634,-8.0989678],[-79.0011111,-8.0987873],[-79.0010722,-8.0984447],[-79.0009703,-8.0975206],[-79.0010561,-8.0970731],[-79.0011299,-8.0968103],[-79.0011312,-8.0967041],[-79.001103,-8.0966138],[-79.0008741,-8.0962865],[-79.0008523,-8.0962553],[-79.000627,-8.0958185],[-79.0003721,-8.0955277],[-79.0001361,-8.0953365],[-78.9998518,-8.0951453],[-78.9994428,-8.0949368],[-78.9992081,-8.0948665],[-78.9991627,-8.0948374],[-78.99909,-8.0947908],[-78.9989059,-8.0945518],[-78.9986166,-8.0945757],[-78.9975961,-8.0946447],[-78.9974089,-8.0946969],[-78.9972198,-8.094772],[-78.9971844,-8.0948216],[-78.997069,-8.0949275],[-78.9967793,-8.0953272],[-78.9964982,-8.095845],[-78.9961929,-8.0964074],[-78.9960162,-8.0968448],[-78.9960028,-8.097105],[-78.9960833,-8.0974967],[-78.9961861,-8.0977156],[-78.9962267,-8.0977955],[-78.9963421,-8.0980225],[-78.9964964,-8.0982721],[-78.9966063,-8.0983677],[-78.9968437,-8.0984978],[-78.9971066,-8.0987541],[-78.9976832,-8.0995374],[-78.9984439,-8.0999872],[-78.9987283,-8.1001801],[-78.9989801,-8.1003394],[-78.9994128,-8.1006819],[-78.999466,-8.1007283],[-78.9997472,-8.100974],[-78.9998934,-8.1011759],[-79.0002608,-8.1015689],[-79.0004769,-8.1018334],[-79.0005612,-8.1019366],[-79.000932,-8.102345],[-79.0011767,-8.1025768],[-79.0021649,-8.1032458]],"nodes":[5491294966,1098613980,5489611508,5489611499,5489611507,5489611511,11030541758,11030541755,5489611506,11030541762,11030541759,5489611483,9407589099,5489611482,5489611742,11030500026,5489611480,12901382113,5489611513,5489239297,7120515744,1098626564,5489611736,10294168501,10294168513,5489611725,5463831049,7120515751,7120515752,1098599588,1286991509,1286991476,11023448205,1286991557,1098620666,1286991518,1098646681,1098648085,1098591844,11023849499,1286991517,5472554259,1098635252,11021532889,1286991482,1098636272,1098640104,1286991564,1098625046,1098586300,1098635165,1873334459,1286991456,1286991536,1286991500,5489453255,5489453254,5456181685,1098613117,1286991490,1098623805,316261538,1098634647,1286991523,1098584993,5079937578,1873564546,1098595142,1098584547,1098618527,5079937583,4427239240,1098598052,4427239246,4427239247,4593379304,5089586322,4593379306,1098605226,1098596833,5089604484,1098616329,1098597077,1098588439,1098645451,1098622515,10723937586,1098649105,633650896,1693582291,10723917702,2956751726,5089667629,1098596094,1098603874,2956752133,5089667641,1098587208,5489046577,1098616168,1693582381,5089708238,11028572469,1098643672,12599107416,1098584705,1098624681,12599107406,11037737307,1098620960,11037737305,11037670404,1873564590,1873564594,1098647376,5037835750,5067120044,1098625016,2587893369,1286991493,2587893370,2587893368,2587893371,2587893372,2587893367,2587893362,3386747956,3386747938,5051905636,11033319453,11033319451,3386747937,11033319450,2587893399,2587893400,5051964665,8763957234,5478761331,1098619763,2481376233,11037999556,2481376232,1873564603,1098612382,1098632446,1098588348,4633846734,4691590030,3802902827,3802902831,4633846700,1098637302,4633846701,1098626618,1098606361,1098597256,5455951601,1098611635,5067465333,320114899,316265319,316264036,316264037,1554840447,1628563878,316256200,5072149530,1098598714,1098608890,5476546746,1627006920,1098635606,316260176,316260175,5476546769,1627006951,5476546768,1098635029,11892812604,1627006911,1627006909,316260128,1088227275,1088227478,1088227293,1088227185,1088227399,1015347876,1050928471,1088227193,1145579819,1098597387,1098585678,1098614459,1098595328,1098629210,1015292420,13681206563,11037619757,1088227229,316265123,316265121,11851392177,999069484,11033227508,1088227369,11033227506,1088227416,1007782488,1007782489,2604132090,1007782490,1007782491,1098638242,1098583810,1098599772,1007816531,1098599696,11032994357,11033100542,1088227465,1088227417,1098629977,1098634473,3569346194,1098646544,1098629126,1088227405,1098591733,1098598628,1015292497,999068978,1098641823,1026647557,1098585548,1098614541,5432170937,5432170932,1098631438,5432170931,5432170936,5432170928,5432170927,1015292390,1098621670,1015292413,1015292414,2604198844,1015292416,3728336228,2604198847,5480666515,5480659551,11030857374,11030857375,6318843810,6318843807,5084680151,6318843806,6318843808,6318843809,5480659550,5480659549,12077552508,12077552509,5480659548,5480659547,5480659552,5480659546,5480659545,5480659544,5480659543,5480659542,5480659541,5480659540,5480659539,5480659538,5480659537,5480659536,5480659535,5480666442,5480659534,5480659533,5480659532,5480659531,5480659530,5480659529,5480659528,5480665389,5480659527,5480659526,5480666491,5480666492,12987949270,5480666493,5481134689,5480666494,5480666495,5480668839,5480668842,5480666497,5480666498,5480666499,5480666500,5480666464,5480666501,5480666502,5480666503,5480666504,5480666505,5480666506,5480666507,5480666487,5480666508,5480666488,12077553875,5480666510,5480666511,5480666512,5480666450,5480666513,5480659551,5480666515,2604198847]},"gtfs":{"agency_id":14,"route_id":31,"services":[{"service_id":"Mo-Su","startTime":"05:00","endTime":"23:00","trip_id":19966226}],"filteredStops":{"nodes":[5491294966,13546546368,13546545751,13546546369,13546545753,13546545679,13546546336,13546546338,13546545638,13546546319,13546545633,13546545639,13546546326,13546546329,13546535100,13546545108,13546545107,13546545109,13546545105,13546545110,13546545915,11910518835,13546545899,13546545961,13546545158,5099440457,13546545990,13546545148,13546545944,13546546004,13546545966,13546545964,13546546051,13546535068,13546535069,13546545884,13546545228,13546535064,13546535074,13546545971,13546545272,13546546070,13546546069,13546545270,2604198847],"coordinates":[[-79.0701736,-8.053093],[-79.0668335,-8.0527492],[-79.0657956,-8.0507888],[-79.0609876,-8.0512635],[-79.0587036,-8.0525261],[-79.0558195,-8.0539981],[-79.0542605,-8.0566919],[-79.0533134,-8.0596544],[-79.0520044,-8.0637257],[-79.0507144,-8.0677585],[-79.0493048,-8.0724924],[-79.0477443,-8.0759231],[-79.045253,-8.0815729],[-79.0441397,-8.0840149],[-79.0422652,-8.0881752],[-79.0405114,-8.0920105],[-79.039575,-8.0941299],[-79.0383633,-8.0968149],[-79.0371447,-8.0994436],[-79.0364397,-8.1010808],[-79.0353404,-8.1034978],[-79.0362453,-8.1061083],[-79.0370376,-8.1078566],[-79.0364177,-8.111273],[-79.0342033,-8.1129228],[-79.0322742,-8.1144996],[-79.0304266,-8.1162183],[-79.02883,-8.1175161],[-79.0277518,-8.1184219],[-79.0260687,-8.1193456],[-79.0242407,-8.1175637],[-79.0220819,-8.1153907],[-79.0152931,-8.1151359],[-79.0131415,-8.1131272],[-79.0107178,-8.1131813],[-79.0081107,-8.1127836],[-79.0070866,-8.1109529],[-79.0071712,-8.1055513],[-79.0055867,-8.103425],[-79.0025649,-8.1034192],[-79.0013809,-8.0996265],[-78.9960467,-8.0973298],[-78.996933,-8.0985798],[-79.0015972,-8.1028063],[-79.0021649,-8.1032458]]},"forcedEndpointStops":[{"stop_id":5491294966,"stop_name":"Avenida José Faustino Sánchez Carrión","position":"first"},{"stop_id":2604198847,"stop_name":"Avenida Federico Villarreal Sur y Avenida Federico Villarreal y Avenida 5 de Abril","position":"last"}]}},{"type":"Feature","properties":{"bus":"yes","highway":"bus_stop","name":"PE-150","network":"Transporte Público Urbano Trujillo","public_transport":"platform","ref":"PE-150","source":"Gerencia de Transporte Metropolitano de Trujillo","id":13546546368},"geometry":{"type":"Point","coordinates":[-79.0668335,-8.0527492]}},{"type":"Feature","properties":{"bus":"yes","highway":"bus_stop","name":"PE-151","network":"Transporte Público Urbano Trujillo","public_transport":"platform","ref":"PE-151","source":"Gerencia de Transporte Metropolitano de Trujillo","id":13546545751},"geometry":{"type":"Point","coordinates":[-79.0657956,-8.0507888]}},{"type":"Feature","properties":{"bus":"yes","highway":"bus_stop","name":"PE-148","network":"Transporte Público Urbano Trujillo","public_transport":"platform","ref":"PE-148","source":"Gerencia de Transporte Metropolitano de Trujillo","id":13546546369},"geometry":{"type":"Point","coordinates":[-79.0609876,-8.0512635]}},{"type":"Feature","properties":{"bus":"yes","highway":"bus_stop","name":"PE-149","network":"Transporte Público Urbano Trujillo","public_transport":"platform","ref":"PE-149","source":"Gerencia de Transporte Metropolitano de Trujillo","id":13546545753},"geometry":{"type":"Point","coordinates":[-79.0587036,-8.0525261]}},{"type":"Feature","properties":{"bus":"yes","highway":"bus_stop","name":"PE-282","network":"Transporte Público Urbano Trujillo","public_transport":"platform","ref":"PE-282","source":"Gerencia de Transporte Metropolitano de Trujillo","id":13546545679},"geometry":{"type":"Point","coordinates":[-79.0558195,-8.0539981]}},{"type":"Feature","properties":{"bus":"yes","highway":"bus_stop","name":"PE-273","network":"Transporte Público Urbano Trujillo","public_transport":"platform","ref":"PE-273","source":"Gerencia de Transporte Metropolitano de Trujillo","id":13546546336},"geometry":{"type":"Point","coordinates":[-79.0542605,-8.0566919]}},{"type":"Feature","properties":{"bus":"yes","highway":"bus_stop","name":"PE-271","network":"Transporte Público Urbano Trujillo","public_transport":"platform","ref":"PE-271","source":"Gerencia de Transporte Metropolitano de Trujillo","id":13546546338},"geometry":{"type":"Point","coordinates":[-79.0533134,-8.0596544]}},{"type":"Feature","properties":{"bus":"yes","highway":"bus_stop","name":"PE-43","network":"Transporte Público Urbano Trujillo","public_transport":"platform","ref":"PE-43","source":"Gerencia de Transporte Metropolitano de Trujillo","id":13546545638},"geometry":{"type":"Point","coordinates":[-79.0520044,-8.0637257]}},{"type":"Feature","properties":{"bus":"yes","highway":"bus_stop","name":"PE-42","network":"Transporte Público Urbano Trujillo","public_transport":"platform","ref":"PE-42","source":"Gerencia de Transporte Metropolitano de Trujillo","id":13546546319},"geometry":{"type":"Point","coordinates":[-79.0507144,-8.0677585]}},{"type":"Feature","properties":{"bus":"yes","highway":"bus_stop","name":"PE-50","network":"Transporte Público Urbano Trujillo","public_transport":"platform","ref":"PE-50","source":"Gerencia de Transporte Metropolitano de Trujillo","id":13546545633},"geometry":{"type":"Point","coordinates":[-79.0493048,-8.0724924]}},{"type":"Feature","properties":{"bus":"yes","highway":"bus_stop","name":"PE-41","network":"Transporte Público Urbano Trujillo","public_transport":"platform","ref":"PE-41","source":"Gerencia de Transporte Metropolitano de Trujillo","id":13546545639},"geometry":{"type":"Point","coordinates":[-79.0477443,-8.0759231]}},{"type":"Feature","properties":{"bus":"yes","highway":"bus_stop","name":"PE-306","network":"Transporte Público Urbano Trujillo","public_transport":"platform","ref":"PE-306","source":"Gerencia de Transporte Metropolitano de Trujillo","id":13546546326},"geometry":{"type":"Point","coordinates":[-79.045253,-8.0815729]}},{"type":"Feature","properties":{"bus":"yes","highway":"bus_stop","name":"PE-303","network":"Transporte Público Urbano Trujillo","public_transport":"platform","ref":"PE-303","source":"Gerencia de Transporte Metropolitano de Trujillo","id":13546546329},"geometry":{"type":"Point","coordinates":[-79.0441397,-8.0840149]}},{"type":"Feature","properties":{"bus":"yes","highway":"bus_stop","name":"NPT-210","network":"Transporte Público Urbano Trujillo","public_transport":"platform","ref":"NPT-210","source":"Gerencia de Transporte Metropolitano de Trujillo","id":13546535100},"geometry":{"type":"Point","coordinates":[-79.0422652,-8.0881752]}},{"type":"Feature","properties":{"bus":"yes","highway":"bus_stop","name":"NPT-201","network":"Transporte Público Urbano Trujillo","public_transport":"platform","ref":"NPT-201","source":"Gerencia de Transporte Metropolitano de Trujillo","id":13546545108},"geometry":{"type":"Point","coordinates":[-79.0405114,-8.0920105]}},{"type":"Feature","properties":{"bus":"yes","highway":"bus_stop","name":"NPT-202","network":"Transporte Público Urbano Trujillo","public_transport":"platform","ref":"NPT-202","source":"Gerencia de Transporte Metropolitano de Trujillo","id":13546545107},"geometry":{"type":"Point","coordinates":[-79.039575,-8.0941299]}},{"type":"Feature","properties":{"bus":"yes","highway":"bus_stop","name":"NPT-200","network":"Transporte Público Urbano Trujillo","public_transport":"platform","ref":"NPT-200","source":"Gerencia de Transporte Metropolitano de Trujillo","id":13546545109},"geometry":{"type":"Point","coordinates":[-79.0383633,-8.0968149]}},{"type":"Feature","properties":{"bus":"yes","highway":"bus_stop","name":"NPT-204","network":"Transporte Público Urbano Trujillo","public_transport":"platform","ref":"NPT-204","source":"Gerencia de Transporte Metropolitano de Trujillo","id":13546545105},"geometry":{"type":"Point","coordinates":[-79.0371447,-8.0994436]}},{"type":"Feature","properties":{"bus":"yes","highway":"bus_stop","name":"NPT-199","network":"Transporte Público Urbano Trujillo","public_transport":"platform","ref":"NPT-199","source":"Gerencia de Transporte Metropolitano de Trujillo","id":13546545110},"geometry":{"type":"Point","coordinates":[-79.0364397,-8.1010808]}},{"type":"Feature","properties":{"bus":"yes","highway":"bus_stop","name":"NPT-197","network":"Transporte Público Urbano Trujillo","public_transport":"platform","ref":"NPT-197","source":"Gerencia de Transporte Metropolitano de Trujillo","id":13546545915},"geometry":{"type":"Point","coordinates":[-79.0353404,-8.1034978]}},{"type":"Feature","properties":{"advertising":"no","bench":"no","bicycle_parking":"no","bin":"no","bus":"yes","departures_board":"no","highway":"bus_stop","level":"0","lit":"yes","name":"ROM-370 Calle Santiago de Chile","network":"Transporte Público Urbano Trujillo","passenger_information_display:speech_output":"no","pole":"yes","public_transport":"platform","ramp":"no","ref":"ROM-370","shelter":"no","source:ref":"Gerencia de Transporte Metropolitano de Trujillo","tactile_paving":"no","tactile_writing:braille:es":"no","id":11910518835},"geometry":{"type":"Point","coordinates":[-79.0362453,-8.1061083]}},{"type":"Feature","properties":{"bus":"yes","highway":"bus_stop","name":"PEMU-342","network":"Transporte Público Urbano Trujillo","public_transport":"platform","ref":"PEMU-342","source":"Gerencia de Transporte Metropolitano de Trujillo","id":13546545899},"geometry":{"type":"Point","coordinates":[-79.0370376,-8.1078566]}},{"type":"Feature","properties":{"bus":"yes","highway":"bus_stop","name":"JEN-141","network":"Transporte Público Urbano Trujillo","public_transport":"platform","ref":"JEN-141","source":"Gerencia de Transporte Metropolitano de Trujillo","id":13546545961},"geometry":{"type":"Point","coordinates":[-79.0364177,-8.111273]}},{"type":"Feature","properties":{"bus":"yes","highway":"bus_stop","name":"JEN-140","network":"Transporte Público Urbano Trujillo","public_transport":"platform","ref":"JEN-140","source":"Gerencia de Transporte Metropolitano de Trujillo","id":13546545158},"geometry":{"type":"Point","coordinates":[-79.0342033,-8.1129228]}},{"type":"Feature","properties":{"advertising":"yes","bench":"yes","bicycle_parking":"yes","bin":"no","bus":"yes","departures_board":"no","highway":"bus_stop","level":"0","lit":"yes","name":"ESP-5 Jirón Independencia","network":"Transporte Público Urbano Trujillo","passenger_information_display:speech_output":"no","pole":"yes","public_transport":"platform","ramp":"no","ref":"ESP-5","shelter":"yes","source":"Reconocimiento terrestre cartográfico realizado por Kaart en 2017","tactile_paving":"no","tactile_writing:braille:es":"no","id":5099440457},"geometry":{"type":"Point","coordinates":[-79.0322742,-8.1144996]}},{"type":"Feature","properties":{"bus":"yes","highway":"bus_stop","name":"ESP-4","network":"Transporte Público Urbano Trujillo","public_transport":"platform","ref":"ESP-4","source":"Gerencia de Transporte Metropolitano de Trujillo","id":13546545990},"geometry":{"type":"Point","coordinates":[-79.0304266,-8.1162183]}},{"type":"Feature","properties":{"bus":"yes","highway":"bus_stop","name":"JUL-436","network":"Transporte Público Urbano Trujillo","public_transport":"platform","ref":"JUL-436","source":"Gerencia de Transporte Metropolitano de Trujillo","id":13546545148},"geometry":{"type":"Point","coordinates":[-79.02883,-8.1175161]}},{"type":"Feature","properties":{"bus":"yes","highway":"bus_stop","name":"JUL-440","network":"Transporte Público Urbano Trujillo","public_transport":"platform","ref":"JUL-440","source":"Gerencia de Transporte Metropolitano de Trujillo","id":13546545944},"geometry":{"type":"Point","coordinates":[-79.0277518,-8.1184219]}},{"type":"Feature","properties":{"bus":"yes","highway":"bus_stop","name":"COSR-337","network":"Transporte Público Urbano Trujillo","public_transport":"platform","ref":"COSR-337","source":"Gerencia de Transporte Metropolitano de Trujillo","id":13546546004},"geometry":{"type":"Point","coordinates":[-79.0260687,-8.1193456]}},{"type":"Feature","properties":{"bus":"yes","highway":"bus_stop","name":"IN-167","network":"Transporte Público Urbano Trujillo","public_transport":"platform","ref":"IN-167","source":"Gerencia de Transporte Metropolitano de Trujillo","id":13546545966},"geometry":{"type":"Point","coordinates":[-79.0242407,-8.1175637]}},{"type":"Feature","properties":{"bus":"yes","highway":"bus_stop","name":"IN-169","network":"Transporte Público Urbano Trujillo","public_transport":"platform","ref":"IN-169","source":"Gerencia de Transporte Metropolitano de Trujillo","id":13546545964},"geometry":{"type":"Point","coordinates":[-79.0220819,-8.1153907]}},{"type":"Feature","properties":{"bus":"yes","highway":"bus_stop","name":"AMS-41","network":"Transporte Público Urbano Trujillo","public_transport":"platform","ref":"AMS-41","source":"Gerencia de Transporte Metropolitano de Trujillo","id":13546546051},"geometry":{"type":"Point","coordinates":[-79.0152931,-8.1151359]}},{"type":"Feature","properties":{"bus":"yes","highway":"bus_stop","name":"RIP-327","network":"Transporte Público Urbano Trujillo","public_transport":"platform","ref":"RIP-327","source":"Gerencia de Transporte Metropolitano de Trujillo","id":13546535068},"geometry":{"type":"Point","coordinates":[-79.0131415,-8.1131272]}},{"type":"Feature","properties":{"bus":"yes","highway":"bus_stop","name":"RIP-325","network":"Transporte Público Urbano Trujillo","public_transport":"platform","ref":"RIP-325","source":"Gerencia de Transporte Metropolitano de Trujillo","id":13546535069},"geometry":{"type":"Point","coordinates":[-79.0107178,-8.1131813]}},{"type":"Feature","properties":{"bus":"yes","highway":"bus_stop","name":"RIP-323","network":"Transporte Público Urbano Trujillo","public_transport":"platform","ref":"RIP-323","source":"Gerencia de Transporte Metropolitano de Trujillo","id":13546545884},"geometry":{"type":"Point","coordinates":[-79.0081107,-8.1127836]}},{"type":"Feature","properties":{"bus":"yes","highway":"bus_stop","name":"ANBE-375","network":"Transporte Público Urbano Trujillo","public_transport":"platform","ref":"ANBE-375","source":"Gerencia de Transporte Metropolitano de Trujillo","id":13546545228},"geometry":{"type":"Point","coordinates":[-79.0070866,-8.1109529]}},{"type":"Feature","properties":{"bus":"yes","highway":"bus_stop","name":"ROME-534","network":"Transporte Público Urbano Trujillo","public_transport":"platform","ref":"ROME-534","source":"Gerencia de Transporte Metropolitano de Trujillo","id":13546535064},"geometry":{"type":"Point","coordinates":[-79.0071712,-8.1055513]}},{"type":"Feature","properties":{"bus":"yes","highway":"bus_stop","name":"RASAN-473","network":"Transporte Público Urbano Trujillo","public_transport":"platform","ref":"RASAN-473","source":"Gerencia de Transporte Metropolitano de Trujillo","id":13546535074},"geometry":{"type":"Point","coordinates":[-79.0055867,-8.103425]}},{"type":"Feature","properties":{"bus":"yes","highway":"bus_stop","name":"HOND-313","network":"Transporte Público Urbano Trujillo","public_transport":"platform","ref":"HOND-313","source":"Gerencia de Transporte Metropolitano de Trujillo","id":13546545971},"geometry":{"type":"Point","coordinates":[-79.0025649,-8.1034192]}},{"type":"Feature","properties":{"bus":"yes","highway":"bus_stop","name":"ABR-359","network":"Transporte Público Urbano Trujillo","public_transport":"platform","ref":"ABR-359","source":"Gerencia de Transporte Metropolitano de Trujillo","id":13546545272},"geometry":{"type":"Point","coordinates":[-79.0013809,-8.0996265]}},{"type":"Feature","properties":{"bus":"yes","highway":"bus_stop","name":"ABR-365","network":"Transporte Público Urbano Trujillo","public_transport":"platform","ref":"ABR-365","source":"Gerencia de Transporte Metropolitano de Trujillo","id":13546546070},"geometry":{"type":"Point","coordinates":[-78.9960467,-8.0973298]}},{"type":"Feature","properties":{"bus":"yes","highway":"bus_stop","name":"ABR-366","network":"Transporte Público Urbano Trujillo","public_transport":"platform","ref":"ABR-366","source":"Gerencia de Transporte Metropolitano de Trujillo","id":13546546069},"geometry":{"type":"Point","coordinates":[-78.996933,-8.0985798]}},{"type":"Feature","properties":{"bus":"yes","highway":"bus_stop","name":"ABR-368","network":"Transporte Público Urbano Trujillo","public_transport":"platform","ref":"ABR-368","source":"Gerencia de Transporte Metropolitano de Trujillo","id":13546545270},"geometry":{"type":"Point","coordinates":[-79.0015972,-8.1028063]}}]}