{"type":"FeatureCollection","features":[{"type":"Feature","properties":{"check_date":"2025-12-16","colour":"#cfe2f3","colour:text":"#000000","fee":"yes","from":"Avenida Miguel Grau","hash":"13183","interval":"3","name":"Avenida Miguel Grau → Calle Dieciseis","network":"Transporte Público Urbano Trujillo","opening_hours":"Mo-Su 05:00-23:00","operator":"LOS DIAMANTES S.R.L.","public_transport:version":"2","ref":"C-43 A","route":"bus","survey:avg_speed:kmh":"20","to":"Calle Dieciseis","type":"route","id":19968178},"geometry":{"type":"LineString","coordinates":[[-79.0066016,-8.1882198],[-79.0064875,-8.1881136],[-79.0062102,-8.1878507],[-79.0057826,-8.1874346],[-79.0054823,-8.1871627],[-79.0049744,-8.1865617],[-79.0046942,-8.1869125],[-79.0045604,-8.1870801],[-79.0043832,-8.187302],[-79.0043229,-8.1873673],[-79.0042345,-8.187463],[-79.0040468,-8.1879382],[-79.0039234,-8.1882063],[-79.0036283,-8.188553],[-79.0035278,-8.1885793],[-79.0034674,-8.1889154],[-79.003332,-8.1894769],[-79.0039508,-8.1898131],[-79.0042305,-8.1900553],[-79.0046158,-8.190389],[-79.0052171,-8.1897523],[-79.0056057,-8.1893408],[-79.0066337,-8.1882523],[-79.0077263,-8.1871061],[-79.0081444,-8.1866637],[-79.0089716,-8.1855377],[-79.0097067,-8.1845312],[-79.0098003,-8.1844031],[-79.0098857,-8.1844873],[-79.010598,-8.184864],[-79.0106048,-8.1848501],[-79.0108639,-8.1843159],[-79.0111543,-8.1837173],[-79.0116522,-8.182691],[-79.0116872,-8.1826129],[-79.0120121,-8.1818894],[-79.0122817,-8.1812913],[-79.0124247,-8.1809706],[-79.0125961,-8.1805981],[-79.0127197,-8.1803308],[-79.0129077,-8.1797399],[-79.0129267,-8.1796003],[-79.0133232,-8.1796617],[-79.01357,-8.1796936],[-79.0136303,-8.1796897],[-79.013696,-8.1796644],[-79.0138516,-8.17959],[-79.014545,-8.1790921],[-79.0154467,-8.1784601],[-79.0163932,-8.177892],[-79.0169221,-8.1775209],[-79.0165942,-8.1770414],[-79.0165084,-8.176916],[-79.0162556,-8.1765462],[-79.0157351,-8.1768924],[-79.0148067,-8.1775089],[-79.0139019,-8.1781111],[-79.013611,-8.1776355],[-79.0135113,-8.1774725],[-79.013295,-8.1768643],[-79.0131698,-8.1765517],[-79.0129694,-8.1766226],[-79.0125668,-8.1767685],[-79.0125479,-8.17669],[-79.0124103,-8.1760464],[-79.0123151,-8.1756721],[-79.0121583,-8.1750055],[-79.0119697,-8.1742066],[-79.0114579,-8.17215],[-79.0114503,-8.1721192],[-79.0112111,-8.1711486],[-79.010234,-8.1713905],[-79.009758,-8.1715084],[-79.0092014,-8.1716353],[-79.0091815,-8.1716403],[-79.0087759,-8.1717288],[-79.0087204,-8.171745],[-79.0080178,-8.1719117],[-79.007993,-8.1719176],[-79.0079512,-8.1719275],[-79.0075,-8.1720319],[-79.0073868,-8.1714666],[-79.0072947,-8.1710048],[-79.0071594,-8.170442],[-79.007818,-8.1702926],[-79.0078485,-8.1702822],[-79.0083341,-8.1701587],[-79.0088223,-8.17005],[-79.0091795,-8.1699619],[-79.0093182,-8.1699286],[-79.0097803,-8.1698138],[-79.010259,-8.1696957],[-79.0108239,-8.1695564],[-79.0108041,-8.1694751],[-79.0106733,-8.1689204],[-79.0106358,-8.1687615],[-79.0105396,-8.1683534],[-79.0104151,-8.1678257],[-79.0103325,-8.1674754],[-79.010242,-8.1671169],[-79.0100509,-8.1663604],[-79.0100074,-8.1658849],[-79.0099999,-8.1658028],[-79.010031,-8.165466],[-79.0100867,-8.1650951],[-79.0101362,-8.1649203],[-79.0102101,-8.1646594],[-79.0102605,-8.1644945],[-79.0105413,-8.1635782],[-79.0104891,-8.1634637],[-79.0104425,-8.1634167],[-79.0104083,-8.1633988],[-79.0103598,-8.1633735],[-79.0102845,-8.1633341],[-79.0105712,-8.1628345],[-79.010879,-8.1623107],[-79.010925,-8.1622311],[-79.0111362,-8.1618604],[-79.0113964,-8.1613999],[-79.0115156,-8.1611902],[-79.0116554,-8.1609444],[-79.0117958,-8.1606966],[-79.0118954,-8.1604781],[-79.0119452,-8.1603371],[-79.0120221,-8.1600782],[-79.0120416,-8.1599615],[-79.0120672,-8.1598126],[-79.0120694,-8.1597513],[-79.0120915,-8.1591505],[-79.0120993,-8.1589398],[-79.0121476,-8.1579277],[-79.0121708,-8.157253],[-79.0122017,-8.1565004],[-79.0122484,-8.15513],[-79.0122754,-8.1543463],[-79.0122833,-8.1541153],[-79.0122746,-8.1539983],[-79.0122597,-8.1538993],[-79.0122367,-8.1537965],[-79.0121951,-8.1536643],[-79.0120601,-8.153278],[-79.01173,-8.152331],[-79.0116444,-8.1520797],[-79.0113438,-8.151192],[-79.0113118,-8.1510902],[-79.0112959,-8.1509934],[-79.011282,-8.1508986],[-79.0112745,-8.1507858],[-79.0112745,-8.1506574],[-79.0116041,-8.149193],[-79.0119253,-8.1476957],[-79.012092,-8.1469544],[-79.0126687,-8.1442104],[-79.012829,-8.1434806],[-79.0130075,-8.1426205],[-79.0130735,-8.1422899],[-79.01318,-8.1418282],[-79.0132921,-8.1415022],[-79.0133839,-8.1413095],[-79.0135221,-8.1410579],[-79.0136466,-8.1408771],[-79.0143929,-8.139793],[-79.0149323,-8.1390096],[-79.0153827,-8.1383654],[-79.0155019,-8.1382013],[-79.0155591,-8.1381267],[-79.0159313,-8.1376406],[-79.0160188,-8.137531],[-79.0160976,-8.1374322],[-79.0161099,-8.1374163],[-79.017034,-8.1362438],[-79.0171069,-8.136148],[-79.0176511,-8.1354601],[-79.0185059,-8.1343871],[-79.0185428,-8.1343409],[-79.0189848,-8.1337876],[-79.0203644,-8.1320606],[-79.0204851,-8.131888],[-79.020587,-8.1317207],[-79.0206429,-8.1315981],[-79.0206794,-8.131505],[-79.0207113,-8.1314102],[-79.0207389,-8.1313033],[-79.020749,-8.1312481],[-79.0207563,-8.1311925],[-79.0207616,-8.1311126],[-79.0207631,-8.1310298],[-79.0207199,-8.1309912],[-79.0206822,-8.1309473],[-79.0206506,-8.130899],[-79.0206289,-8.1308547],[-79.0206072,-8.1307892],[-79.0205961,-8.1307211],[-79.0205959,-8.1306522],[-79.0206066,-8.1305841],[-79.020628,-8.1305185],[-79.0206595,-8.130457],[-79.0206986,-8.1304032],[-79.0207455,-8.1303558],[-79.0207977,-8.1303169],[-79.0208551,-8.1302859],[-79.0209164,-8.1302637],[-79.0209805,-8.1302506],[-79.0210201,-8.1302196],[-79.0210566,-8.1301849],[-79.0210895,-8.130147],[-79.0211257,-8.1300949],[-79.0211516,-8.1300458],[-79.0211676,-8.130004],[-79.0212505,-8.1297668],[-79.02146,-8.1290409],[-79.0214866,-8.128956],[-79.0215762,-8.1286687],[-79.0216643,-8.1283869],[-79.0217822,-8.1280016],[-79.0225886,-8.1253608],[-79.0227545,-8.1247975],[-79.0228404,-8.1245386],[-79.0228833,-8.1243785],[-79.0228885,-8.1243003],[-79.0228724,-8.1242275],[-79.0228344,-8.1241327],[-79.022741,-8.1240583],[-79.0226643,-8.1239672],[-79.0226056,-8.1238588],[-79.0225705,-8.1237408],[-79.0225606,-8.1236181],[-79.0225722,-8.123515],[-79.0226016,-8.1234153],[-79.022648,-8.1233223],[-79.0226302,-8.1232373],[-79.0226174,-8.1231959],[-79.0225965,-8.1231517],[-79.0225738,-8.1231178],[-79.0217142,-8.1223186],[-79.0216371,-8.1222102],[-79.0213509,-8.121947],[-79.0210135,-8.1216482],[-79.0209833,-8.1216215],[-79.0208992,-8.1215398],[-79.0201851,-8.1208454],[-79.0202652,-8.1207691],[-79.0205031,-8.120521],[-79.0205841,-8.1204366],[-79.0206495,-8.1203166],[-79.0208652,-8.1197363],[-79.0213725,-8.118344],[-79.0214664,-8.1180933],[-79.0214999,-8.118007],[-79.0215589,-8.1178743],[-79.0216246,-8.117768],[-79.021799,-8.1176034],[-79.0222697,-8.1171632],[-79.0230896,-8.1163724],[-79.0224025,-8.1156582],[-79.0219789,-8.1152309],[-79.0215809,-8.1148344],[-79.0213678,-8.1146176],[-79.0208073,-8.114097],[-79.0204401,-8.1136315],[-79.0201765,-8.1133091],[-79.0198386,-8.1128836],[-79.0192152,-8.1121631],[-79.0188813,-8.1118006],[-79.0187806,-8.1117241],[-79.0183624,-8.1112666],[-79.0180336,-8.1109069],[-79.0175129,-8.1102993],[-79.0174444,-8.1102211],[-79.0168949,-8.1095934],[-79.0164607,-8.1090763],[-79.0160606,-8.1086321],[-79.016002,-8.1085671],[-79.0158452,-8.1083849],[-79.0156031,-8.1081061],[-79.0153791,-8.1078466],[-79.0149207,-8.1073163],[-79.014742,-8.1071073],[-79.0144699,-8.1067831],[-79.0141982,-8.1064576],[-79.0138765,-8.1060794],[-79.0137806,-8.1059652],[-79.0136982,-8.1058694],[-79.0134976,-8.1056346],[-79.0132032,-8.1052914],[-79.0129236,-8.1049601],[-79.0126232,-8.1046043],[-79.0123322,-8.1042823],[-79.0122927,-8.1042322],[-79.0119901,-8.1038686],[-79.0118179,-8.1036636],[-79.011702,-8.103526],[-79.0112556,-8.1030038],[-79.0111726,-8.1029044],[-79.0110643,-8.1027749],[-79.0111039,-8.1026761],[-79.011198,-8.1024167],[-79.0112866,-8.102192],[-79.0114159,-8.1019145],[-79.0116076,-8.1016025],[-79.0117418,-8.1014326],[-79.0118356,-8.101329],[-79.0123764,-8.10082],[-79.0127128,-8.1005306],[-79.013052,-8.1002262],[-79.013115,-8.1001744],[-79.0132303,-8.1000777],[-79.0134721,-8.0999041],[-79.0140374,-8.099438],[-79.0140853,-8.0993954],[-79.0153502,-8.0983201],[-79.0156556,-8.0980592],[-79.0162565,-8.0975504],[-79.0163224,-8.0974945],[-79.0171209,-8.0968216],[-79.0175534,-8.0964329],[-79.0179282,-8.0961226],[-79.0182007,-8.0960213],[-79.0192627,-8.0956227],[-79.0193672,-8.095583],[-79.020003,-8.0953414],[-79.0209139,-8.0949933],[-79.0216779,-8.0946983],[-79.0217962,-8.0946526],[-79.0218858,-8.0946132],[-79.0223491,-8.0944305],[-79.0228166,-8.0942553],[-79.0228682,-8.094236],[-79.0230846,-8.0941549],[-79.023781,-8.0938842],[-79.024227,-8.093749],[-79.0245066,-8.093704],[-79.0247945,-8.0936876],[-79.0247749,-8.0932552],[-79.0248587,-8.0931106],[-79.025149,-8.093161],[-79.0254246,-8.0931895],[-79.025623,-8.0932185],[-79.0256938,-8.0932357],[-79.0261139,-8.0933274],[-79.0262013,-8.0933386],[-79.0264714,-8.0933572],[-79.026792,-8.0933636],[-79.0268821,-8.0933654],[-79.026985,-8.0933643],[-79.0274989,-8.0933589],[-79.0272875,-8.0924019],[-79.0271703,-8.0919212],[-79.0269979,-8.0912142],[-79.0267693,-8.0902831],[-79.0264734,-8.0890576],[-79.0263493,-8.0890662],[-79.0261955,-8.089037],[-79.0260523,-8.0890097],[-79.0258112,-8.0889559],[-79.025656,-8.088942],[-79.0254387,-8.0889354],[-79.0252671,-8.0889487],[-79.0250512,-8.088954],[-79.0249959,-8.088948],[-79.0246408,-8.0888544],[-79.0244678,-8.0888677],[-79.0238696,-8.0890669],[-79.0236721,-8.0891851],[-79.0235793,-8.0891102],[-79.0235535,-8.0890815],[-79.0235456,-8.0890432],[-79.0236251,-8.0880427],[-79.0237267,-8.0873718],[-79.0237778,-8.0869892],[-79.0230407,-8.0868756],[-79.0223458,-8.0867675],[-79.0215948,-8.0866503],[-79.0209386,-8.0865471],[-79.0209574,-8.0864763],[-79.0211303,-8.0858245],[-79.0212584,-8.085158],[-79.0213997,-8.0844232],[-79.0215204,-8.0837627],[-79.0216257,-8.0831388],[-79.0216936,-8.0825496],[-79.0218634,-8.0817821],[-79.022027,-8.0811406],[-79.02215,-8.0804402],[-79.0229929,-8.080575],[-79.0237932,-8.0806444],[-79.024535,-8.0807201],[-79.0246021,-8.0800403],[-79.024682,-8.079377],[-79.0247033,-8.0791981],[-79.0247689,-8.0786784],[-79.0248529,-8.0779546],[-79.0249398,-8.0772708],[-79.0247918,-8.0772363],[-79.0240794,-8.0771121],[-79.0234332,-8.076997],[-79.022843,-8.0769028],[-79.0220297,-8.0768081],[-79.0209324,-8.0766433],[-79.0202443,-8.0765398],[-79.0202205,-8.0764038],[-79.020313,-8.0757923],[-79.0204537,-8.0748629],[-79.0205289,-8.0744347],[-79.0206174,-8.0739417],[-79.0206386,-8.0738269],[-79.020741,-8.0732858],[-79.020902,-8.0724182],[-79.020988,-8.0719369],[-79.0210002,-8.0718638],[-79.0210197,-8.0717468],[-79.0211505,-8.0709671],[-79.0212568,-8.0704341],[-79.021405,-8.0696744],[-79.021586,-8.0687239],[-79.0216608,-8.0683313],[-79.0218362,-8.0674104],[-79.0219211,-8.0669646],[-79.0221082,-8.0659821],[-79.0222042,-8.0654805],[-79.0222788,-8.0650476],[-79.0222867,-8.0650014],[-79.0223039,-8.0648636],[-79.0223462,-8.0645888],[-79.0221729,-8.0645495],[-79.0220584,-8.0645291],[-79.0211782,-8.0643716],[-79.0207167,-8.064284],[-79.0202652,-8.0641982],[-79.0198616,-8.0641216],[-79.0193603,-8.0640264],[-79.0189527,-8.063949],[-79.0182113,-8.0638081],[-79.0176612,-8.0637037],[-79.0179335,-8.0624611],[-79.0180376,-8.0619101],[-79.0181237,-8.0614951],[-79.0182156,-8.0610471],[-79.0183072,-8.0605047],[-79.0183386,-8.0603026],[-79.0183863,-8.0599878],[-79.0183565,-8.0598511],[-79.0182483,-8.0595036],[-79.0185753,-8.0593353],[-79.0201858,-8.0585314],[-79.0205972,-8.0583067],[-79.0217903,-8.057622],[-79.021915,-8.0579605],[-79.021937,-8.0581102],[-79.021745,-8.0590489],[-79.0222297,-8.0591343],[-79.0221527,-8.0595775],[-79.0220679,-8.0600652],[-79.0218415,-8.0612863],[-79.0217414,-8.0617274],[-79.0215797,-8.0626053],[-79.0215375,-8.0630419]],"nodes":[13381608067,5282388361,1098584082,1098594839,5282388384,1098622793,5282850866,1098597159,5282850847,5282850872,5282850868,5282850869,5282850870,13381608066,5282850871,13381608064,5282388369,5282388368,5282388370,5282388367,5282388383,1098622686,1098612874,1098617886,5282388385,1098617235,11030648715,1098617436,8656898677,1098594318,12216934384,8656969951,8732276408,5390643530,5390642388,5390642396,5467953027,5390643531,5390643526,5390643532,5390643533,5390646242,5390646243,5390646244,5390646241,5390646245,5390646246,1098646662,1098625721,1098615286,1098591868,1098640625,1098603549,1098614935,1098584964,1098624331,1098635127,5465509967,5072432999,1098598333,1098608101,8660499811,1098594974,11030614825,1098627115,11030614821,2465844381,8743812280,1098631105,5465533569,5465519410,5465519409,1098584426,1098618273,12216917725,5465519416,5465519417,9498344252,12216917719,1098594523,1098600310,1098597128,1098650830,1098638853,12068808669,5465526567,1098584886,1098640476,5465519404,5465519405,1094849946,5465526576,1098598270,1098618076,5465526575,5465526614,5465526616,5465526574,5390643527,5465526566,5390643528,5465534818,5390643529,1098627246,1098606775,7112997209,5072444271,5467997270,5072444248,11030351651,11030351650,13137418277,5072444249,5072444250,1145579813,5072494785,5072494722,4858049420,4858050022,5072494659,4858049418,5072494657,316264696,1145579854,4858049416,316264694,11030326607,7113004005,11104988597,5072494723,5082686317,1145579825,1145579831,5082686315,13137419532,316264693,5072509547,316264692,1145579886,5072509545,5082686313,5467941865,5072509548,316264691,5072509549,5072509553,316264690,5072509551,316264689,1098604811,11028564810,11028473002,4858049408,334650026,334650028,5082686287,11028472995,316264686,11028617402,316264685,11028617397,11028625413,1098603712,5082686319,5473927283,11028573864,5082686318,11028573855,5082689982,5473927261,5082686320,5473927270,5082686256,5082686254,5082156673,5082689990,316264930,2549352845,316264929,8624588281,10823604381,2549352846,10823604379,10823604378,10823604380,10823604377,2549352825,316254532,10823604369,8624588278,5082434461,316254533,10823604370,1538275888,10823604371,316254534,320113110,316254535,5082434453,2549352808,10823604372,2549352804,316254536,10823604362,10823604361,2549352850,10823604360,10823604363,10823604359,1098640722,5082689991,11114421896,11114421898,1098619862,1098591271,1098586330,1050893960,1538275857,316254967,3670684015,3670684014,316254426,316254427,1098644892,3670684727,316254428,1098632617,316254429,6195970422,316265440,3670684737,5082434193,316265439,3670684740,3670684741,3670684736,1098612747,13084463942,1098623435,13084463951,320114999,320114996,1098603700,3670684745,1098595992,1088227364,1088227267,5476546762,5476546763,5476546764,5476546765,5476546766,1088227377,1088227478,1088227293,1088227185,1088227399,1015347876,1050928471,1088227193,1145579819,1015292444,1144498438,1026647781,1088227261,11023976592,1098613755,1007782483,1098602637,11023976594,1098601972,11023313868,1098584430,11023313867,11023313865,5086629395,1088227445,3569346209,11023313863,1098613888,11023313861,11023313859,5086629393,11023313857,11023313855,1026647788,11023313853,11023313851,1026647512,1098632843,11023381285,11032994349,11032994346,316265133,1088227363,316265105,7118056424,11032994344,316265104,4706097946,316265103,1098633822,8845540452,1098623858,11910518850,11033509209,11032996035,11032996037,4452550923,4452550921,1098598186,5098557143,1098607852,1098641251,5079131745,1098609883,316265100,1098612563,320114991,316265097,1098630982,1098621187,11032795718,2481251300,2481251299,1088227390,5483089724,11032795715,11032795712,1098604016,5071955846,316265092,1268310331,1268310382,1098635227,10733716085,10733716086,9727770474,1098596796,1098587369,1098644599,5483080326,11032383236,1098596951,11032383233,5089356949,5483053653,5483053656,5432138655,5483053673,5483037408,5483037407,11032418472,5483037406,5483053650,5483037405,5483037404,5483037403,5483037402,8095162549,5483037401,5483037400,5483037399,5483053677,5483037374,10735697401,5456218885,5456218884,5456218881,10735691980,10735691981,10735691982,10735691983,10735691984,1098593452,1098635386,1098603305,1098629704,1098604078,1098625299,1098585165,1098595740,1098598456,1098618052,1098618098,1098628282,1098630507,1098633245,1098606561,9218455170,1098586320,1098638696,1098594655,11028298087,5432216558,1098630745,1098649015,1098636317,1098625916,5082176742,10733782353,5082176740,5082107577,5082107576,5082107575,5082107574,5082107573,5082107572,5082107563,5082107591,11023388077,5082107562,5082107561,5082107560,13475100370,5082107559,5082107558,10735327565,5082245523,5082245524,11030430162,11030430161,11030430154,11030430155,1098617908,11030430157,5483458676,1098606320,5483476448,1098628627,5483476456,1098584544,1098590457,1098631256,1098629349,1098646687,1098635161,1098640674,1098584990,1098646830,4438560879,1098634782,2503344304,1098647414,3271162584,3133267708,2589604621,2589604620,3271162582,2589604619,1098590679,8129893734,5456236181,1098591439,1098598438,1098634159,13381640382]},"gtfs":{"agency_id":22,"route_id":44,"services":[{"service_id":"Mo-Su","startTime":"05:00","endTime":"23:00","trip_id":19968178}],"filteredStops":{"nodes":[13381608067,13546545319,13546546118,13546546100,13546545306,13546545322,8743805428,13546545324,13546545317,13546545326,13546546101,13546545318,13546546092,13546546117,12121157801,13546546090,13546546103,13546545325,13546545332,13546546109,13546545298,13546545338,5082686253,13546546120,13546545143,13546545942,13546545940,11910518853,13546545967,13546545159,13546545964,13546546024,13546545217,13546546020,13546546022,13546545218,13546545235,13546546057,11910518849,13546545247,13546545245,13546545268,13546545585,13546545562,13546546299,13546545602,13546545605,13546545809,13546546380,13546546409,13546545847,13381640382],"coordinates":[[-79.0066016,-8.1882198],[-79.0059138,-8.1876327],[-79.0045168,-8.1871996],[-79.0038593,-8.1897178],[-79.0061386,-8.1887133],[-79.0118064,-8.1820721],[-79.0125262,-8.1806225],[-79.0160342,-8.1780372],[-79.0152849,-8.177255],[-79.0141359,-8.1779895],[-79.0119408,-8.1744099],[-79.0112971,-8.1716275],[-79.0081653,-8.1719216],[-79.009595,-8.1698145],[-79.0107577,-8.1694548],[-79.0116331,-8.1608939],[-79.0121603,-8.1564949],[-79.0118715,-8.1528574],[-79.0116465,-8.1487018],[-79.0126228,-8.1442189],[-79.0142325,-8.1399239],[-79.0164547,-8.1368915],[-79.0190363,-8.1336578],[-79.0205436,-8.1317169],[-79.0213473,-8.1292701],[-79.0220732,-8.1268894],[-79.0228404,-8.1243728],[-79.0213577,-8.1220046],[-79.0208143,-8.1198077],[-79.0220605,-8.1173316],[-79.0220819,-8.1153907],[-79.0196878,-8.1127712],[-79.0176203,-8.1105024],[-79.0154804,-8.1080378],[-79.0138854,-8.1061501],[-79.0120998,-8.1040441],[-79.0128954,-8.1003036],[-79.0160051,-8.0976955],[-79.0178547,-8.0961252],[-79.0204813,-8.0951075],[-79.0233097,-8.0940272],[-79.0269098,-8.0909663],[-79.0227141,-8.0868668],[-79.0220543,-8.0807811],[-79.0245182,-8.080441],[-79.0248462,-8.0776541],[-79.0225113,-8.0768976],[-79.0214708,-8.0690701],[-79.0221965,-8.0652839],[-79.0183134,-8.0597726],[-79.021694,-8.0622371],[-79.0215375,-8.0630419]]},"forcedEndpointStops":[{"stop_id":13381608067,"stop_name":"Calle Miguiel Graú","position":"first"},{"stop_id":13381640382,"stop_name":"Avenida Albania","position":"last"}]}},{"type":"Feature","properties":{"bus":"yes","highway":"bus_stop","name":"PM-52","network":"Transporte Público Urbano Trujillo","public_transport":"platform","ref":"PM-52","source":"Gerencia de Transporte Metropolitano de Trujillo","id":13546545319},"geometry":{"type":"Point","coordinates":[-79.0059138,-8.1876327]}},{"type":"Feature","properties":{"bus":"yes","highway":"bus_stop","name":"PM-15","network":"Transporte Público Urbano Trujillo","public_transport":"platform","ref":"PM-15","source":"Gerencia de Transporte Metropolitano de Trujillo","id":13546546118},"geometry":{"type":"Point","coordinates":[-79.0045168,-8.1871996]}},{"type":"Feature","properties":{"bus":"yes","highway":"bus_stop","name":"PM-54","network":"Transporte Público Urbano Trujillo","public_transport":"platform","ref":"PM-54","source":"Gerencia de Transporte Metropolitano de Trujillo","id":13546546100},"geometry":{"type":"Point","coordinates":[-79.0038593,-8.1897178]}},{"type":"Feature","properties":{"bus":"yes","highway":"bus_stop","name":"PM-87","network":"Transporte Público Urbano Trujillo","public_transport":"platform","ref":"PM-87","source":"Gerencia de Transporte Metropolitano de Trujillo","id":13546545306},"geometry":{"type":"Point","coordinates":[-79.0061386,-8.1887133]}},{"type":"Feature","properties":{"bus":"yes","highway":"bus_stop","name":"PM-47","network":"Transporte Público Urbano Trujillo","public_transport":"platform","ref":"PM-47","source":"Gerencia de Transporte Metropolitano de Trujillo","id":13546545322},"geometry":{"type":"Point","coordinates":[-79.0118064,-8.1820721]}},{"type":"Feature","properties":{"advertising":"no","bench":"yes","bicycle_parking":"no","bin":"no","bus":"yes","departures_board":"no","highway":"bus_stop","level":"0","lit":"yes","name":"PM-59 Avenida Perú","network":"Transporte Público Urbano Trujillo","passenger_information_display:speech_output":"no","pole":"no","public_transport":"platform","ramp":"no","ref":"PM-59","shelter":"yes","source:ref":"Gerencia de Transporte Metropolitano de Trujillo","tactile_paving":"no","tactile_writing:braille:es":"no","id":8743805428},"geometry":{"type":"Point","coordinates":[-79.0125262,-8.1806225]}},{"type":"Feature","properties":{"bus":"yes","highway":"bus_stop","name":"PM-45","network":"Transporte Público Urbano Trujillo","public_transport":"platform","ref":"PM-45","source":"Gerencia de Transporte Metropolitano de Trujillo","id":13546545324},"geometry":{"type":"Point","coordinates":[-79.0160342,-8.1780372]}},{"type":"Feature","properties":{"bus":"yes","highway":"bus_stop","name":"PM-6","network":"Transporte Público Urbano Trujillo","public_transport":"platform","ref":"PM-6","source":"Gerencia de Transporte Metropolitano de Trujillo","id":13546545317},"geometry":{"type":"Point","coordinates":[-79.0152849,-8.177255]}},{"type":"Feature","properties":{"bus":"yes","highway":"bus_stop","name":"PM-4","network":"Transporte Público Urbano Trujillo","public_transport":"platform","ref":"PM-4","source":"Gerencia de Transporte Metropolitano de Trujillo","id":13546545326},"geometry":{"type":"Point","coordinates":[-79.0141359,-8.1779895]}},{"type":"Feature","properties":{"bus":"yes","highway":"bus_stop","name":"PM-49","network":"Transporte Público Urbano Trujillo","public_transport":"platform","ref":"PM-49","source":"Gerencia de Transporte Metropolitano de Trujillo","id":13546546101},"geometry":{"type":"Point","coordinates":[-79.0119408,-8.1744099]}},{"type":"Feature","properties":{"bus":"yes","highway":"bus_stop","name":"PM-56","network":"Transporte Público Urbano Trujillo","public_transport":"platform","ref":"PM-56","source":"Gerencia de Transporte Metropolitano de Trujillo","id":13546545318},"geometry":{"type":"Point","coordinates":[-79.0112971,-8.1716275]}},{"type":"Feature","properties":{"bus":"yes","highway":"bus_stop","name":"PM-84","network":"Transporte Público Urbano Trujillo","public_transport":"platform","ref":"PM-84","source":"Gerencia de Transporte Metropolitano de Trujillo","id":13546546092},"geometry":{"type":"Point","coordinates":[-79.0081653,-8.1719216]}},{"type":"Feature","properties":{"bus":"yes","highway":"bus_stop","name":"PM-17","network":"Transporte Público Urbano Trujillo","public_transport":"platform","ref":"PM-17","source":"Gerencia de Transporte Metropolitano de Trujillo","id":13546546117},"geometry":{"type":"Point","coordinates":[-79.009595,-8.1698145]}},{"type":"Feature","properties":{"advertising":"no","bench":"yes","bicycle_parking":"no","bin":"yes","bus":"yes","departures_board":"no","highway":"bus_stop","level":"0","lit":"yes","name":"PM-7 Jirón José Galvez","network":"Transporte Público Urbano Trujillo","passenger_information_display:speech_output":"no","pole":"no","public_transport":"platform","ramp":"yes","ref":"PM-7","shelter":"yes","source:ref":"Gerencia de Transporte Metropolitano de Trujillo","tactile_paving":"no","tactile_writing:braille:es":"no","id":12121157801},"geometry":{"type":"Point","coordinates":[-79.0107577,-8.1694548]}},{"type":"Feature","properties":{"bus":"yes","highway":"bus_stop","name":"PM-9","network":"Transporte Público Urbano Trujillo","public_transport":"platform","ref":"PM-9","source":"Gerencia de Transporte Metropolitano de Trujillo","id":13546546090},"geometry":{"type":"Point","coordinates":[-79.0116331,-8.1608939]}},{"type":"Feature","properties":{"bus":"yes","highway":"bus_stop","name":"PM-41","network":"Transporte Público Urbano Trujillo","public_transport":"platform","ref":"PM-41","source":"Gerencia de Transporte Metropolitano de Trujillo","id":13546546103},"geometry":{"type":"Point","coordinates":[-79.0121603,-8.1564949]}},{"type":"Feature","properties":{"bus":"yes","highway":"bus_stop","name":"PM-40","network":"Transporte Público Urbano Trujillo","public_transport":"platform","ref":"PM-40","source":"Gerencia de Transporte Metropolitano de Trujillo","id":13546545325},"geometry":{"type":"Point","coordinates":[-79.0118715,-8.1528574]}},{"type":"Feature","properties":{"bus":"yes","highway":"bus_stop","name":"PM-28","network":"Transporte Público Urbano Trujillo","public_transport":"platform","ref":"PM-28","source":"Gerencia de Transporte Metropolitano de Trujillo","id":13546545332},"geometry":{"type":"Point","coordinates":[-79.0116465,-8.1487018]}},{"type":"Feature","properties":{"bus":"yes","highway":"bus_stop","name":"PM-27","network":"Transporte Público Urbano Trujillo","public_transport":"platform","ref":"PM-27","source":"Gerencia de Transporte Metropolitano de Trujillo","id":13546546109},"geometry":{"type":"Point","coordinates":[-79.0126228,-8.1442189]}},{"type":"Feature","properties":{"bus":"yes","highway":"bus_stop","name":"PM-SC-01","network":"Transporte Público Urbano Trujillo","public_transport":"platform","ref":"PM-SC-01","source":"Gerencia de Transporte Metropolitano de Trujillo","id":13546545298},"geometry":{"type":"Point","coordinates":[-79.0142325,-8.1399239]}},{"type":"Feature","properties":{"bus":"yes","highway":"bus_stop","name":"PM-122","network":"Transporte Público Urbano Trujillo","public_transport":"platform","ref":"PM-122","source":"Gerencia de Transporte Metropolitano de Trujillo","id":13546545338},"geometry":{"type":"Point","coordinates":[-79.0164547,-8.1368915]}},{"type":"Feature","properties":{"advertising":"no","bench":"yes","bicycle_parking":"no","bin":"no","bus":"yes","departures_board":"no","highway":"bus_stop","level":"0","lit":"no","name":"PM-121 Panamericana Norte","network":"Transporte Público Urbano Trujillo","passenger_information_display:speech_output":"no","public_transport":"platform","ramp":"no","ref":"PM-121","shelter":"yes","source":"Reconocimiento terrestre cartográfico realizado por Kaart en 2017","tactile_paving":"no","tactile_writing:braille:es":"no","id":5082686253},"geometry":{"type":"Point","coordinates":[-79.0190363,-8.1336578]}},{"type":"Feature","properties":{"bus":"yes","highway":"bus_stop","name":"PM-120","network":"Transporte Público Urbano Trujillo","public_transport":"platform","ref":"PM-120","source":"Gerencia de Transporte Metropolitano de Trujillo","id":13546546120},"geometry":{"type":"Point","coordinates":[-79.0205436,-8.1317169]}},{"type":"Feature","properties":{"bus":"yes","highway":"bus_stop","name":"LAM-416","network":"Transporte Público Urbano Trujillo","public_transport":"platform","ref":"LAM-416","source":"Gerencia de Transporte Metropolitano de Trujillo","id":13546545143},"geometry":{"type":"Point","coordinates":[-79.0213473,-8.1292701]}},{"type":"Feature","properties":{"bus":"yes","highway":"bus_stop","name":"LAM-412","network":"Transporte Público Urbano Trujillo","public_transport":"platform","ref":"LAM-412","source":"Gerencia de Transporte Metropolitano de Trujillo","id":13546545942},"geometry":{"type":"Point","coordinates":[-79.0220732,-8.1268894]}},{"type":"Feature","properties":{"bus":"yes","highway":"bus_stop","name":"LAM-414","network":"Transporte Público Urbano Trujillo","public_transport":"platform","ref":"LAM-414","source":"Gerencia de Transporte Metropolitano de Trujillo","id":13546545940},"geometry":{"type":"Point","coordinates":[-79.0228404,-8.1243728]}},{"type":"Feature","properties":{"advertising":"no","bench":"no","bicycle_parking":"no","bin":"no","bus":"yes","departures_board":"no","highway":"bus_stop","level":"0","lit":"yes","name":"AMS-52 Calle Calcuchimac","network":"Transporte Público Urbano Trujillo","passenger_information_display:speech_output":"no","pole":"yes","public_transport":"platform","ramp":"yes","ref":"AMS-52","shelter":"no","source:ref":"Gerencia de Transporte Metropolitano de Trujillo","tactile_paving":"no","tactile_writing:braille:es":"no","id":11910518853},"geometry":{"type":"Point","coordinates":[-79.0213577,-8.1220046]}},{"type":"Feature","properties":{"bus":"yes","highway":"bus_stop","name":"HUAY-494","network":"Transporte Público Urbano Trujillo","public_transport":"platform","ref":"HUAY-494","source":"Gerencia de Transporte Metropolitano de Trujillo","id":13546545967},"geometry":{"type":"Point","coordinates":[-79.0208143,-8.1198077]}},{"type":"Feature","properties":{"bus":"yes","highway":"bus_stop","name":"HUAY-495","network":"Transporte Público Urbano Trujillo","public_transport":"platform","ref":"HUAY-495","source":"Gerencia de Transporte Metropolitano de Trujillo","id":13546545159},"geometry":{"type":"Point","coordinates":[-79.0220605,-8.1173316]}},{"type":"Feature","properties":{"bus":"yes","highway":"bus_stop","name":"IN-169","network":"Transporte Público Urbano Trujillo","public_transport":"platform","ref":"IN-169","source":"Gerencia de Transporte Metropolitano de Trujillo","id":13546545964},"geometry":{"type":"Point","coordinates":[-79.0220819,-8.1153907]}},{"type":"Feature","properties":{"bus":"yes","highway":"bus_stop","name":"CEV-172","network":"Transporte Público Urbano Trujillo","public_transport":"platform","ref":"CEV-172","source":"Gerencia de Transporte Metropolitano de Trujillo","id":13546546024},"geometry":{"type":"Point","coordinates":[-79.0196878,-8.1127712]}},{"type":"Feature","properties":{"bus":"yes","highway":"bus_stop","name":"CEV-179","network":"Transporte Público Urbano Trujillo","public_transport":"platform","ref":"CEV-179","source":"Gerencia de Transporte Metropolitano de Trujillo","id":13546545217},"geometry":{"type":"Point","coordinates":[-79.0176203,-8.1105024]}},{"type":"Feature","properties":{"bus":"yes","highway":"bus_stop","name":"CEV-177","network":"Transporte Público Urbano Trujillo","public_transport":"platform","ref":"CEV-177","source":"Gerencia de Transporte Metropolitano de Trujillo","id":13546546020},"geometry":{"type":"Point","coordinates":[-79.0154804,-8.1080378]}},{"type":"Feature","properties":{"bus":"yes","highway":"bus_stop","name":"CEV-175","network":"Transporte Público Urbano Trujillo","public_transport":"platform","ref":"CEV-175","source":"Gerencia de Transporte Metropolitano de Trujillo","id":13546546022},"geometry":{"type":"Point","coordinates":[-79.0138854,-8.1061501]}},{"type":"Feature","properties":{"bus":"yes","highway":"bus_stop","name":"CEV-173","network":"Transporte Público Urbano Trujillo","public_transport":"platform","ref":"CEV-173","source":"Gerencia de Transporte Metropolitano de Trujillo","id":13546545218},"geometry":{"type":"Point","coordinates":[-79.0120998,-8.1040441]}},{"type":"Feature","properties":{"bus":"yes","highway":"bus_stop","name":"AMS-58","network":"Transporte Público Urbano Trujillo","public_transport":"platform","ref":"AMS-58","source":"Gerencia de Transporte Metropolitano de Trujillo","id":13546545235},"geometry":{"type":"Point","coordinates":[-79.0128954,-8.1003036]}},{"type":"Feature","properties":{"bus":"yes","highway":"bus_stop","name":"AMN-18","network":"Transporte Público Urbano Trujillo","public_transport":"platform","ref":"AMN-18","source":"Gerencia de Transporte Metropolitano de Trujillo","id":13546546057},"geometry":{"type":"Point","coordinates":[-79.0160051,-8.0976955]}},{"type":"Feature","properties":{"advertising":"no","bench":"no","bicycle_parking":"no","bin":"no","bus":"yes","departures_board":"no","highway":"bus_stop","level":"0","lit":"yes","name":"AMN-20 Avenida del Ejército","network":"Transporte Público Urbano Trujillo","passenger_information_display:speech_output":"no","pole":"yes","public_transport":"platform","ramp":"no","ref":"AMN-20","shelter":"no","source:ref":"Gerencia de Transporte Metropolitano de Trujillo","tactile_paving":"yes","tactile_writing:braille:es":"no","id":11910518849},"geometry":{"type":"Point","coordinates":[-79.0178547,-8.0961252]}},{"type":"Feature","properties":{"bus":"yes","highway":"bus_stop","name":"AMN-30","network":"Transporte Público Urbano Trujillo","public_transport":"platform","ref":"AMN-30","source":"Gerencia de Transporte Metropolitano de Trujillo","id":13546545247},"geometry":{"type":"Point","coordinates":[-79.0204813,-8.0951075]}},{"type":"Feature","properties":{"bus":"yes","highway":"bus_stop","name":"AMN-32","network":"Transporte Público Urbano Trujillo","public_transport":"platform","ref":"AMN-32","source":"Gerencia de Transporte Metropolitano de Trujillo","id":13546545245},"geometry":{"type":"Point","coordinates":[-79.0233097,-8.0940272]}},{"type":"Feature","properties":{"bus":"yes","highway":"bus_stop","name":"AK-455","network":"Transporte Público Urbano Trujillo","public_transport":"platform","ref":"AK-455","source":"Gerencia de Transporte Metropolitano de Trujillo","id":13546545268},"geometry":{"type":"Point","coordinates":[-79.0269098,-8.0909663]}},{"type":"Feature","properties":{"bus":"yes","highway":"bus_stop","name":"PFM-33","network":"Transporte Público Urbano Trujillo","public_transport":"platform","ref":"PFM-33","source":"Gerencia de Transporte Metropolitano de Trujillo","id":13546545585},"geometry":{"type":"Point","coordinates":[-79.0227141,-8.0868668]}},{"type":"Feature","properties":{"bus":"yes","highway":"bus_stop","name":"PFM-76","network":"Transporte Público Urbano Trujillo","public_transport":"platform","ref":"PFM-76","source":"Gerencia de Transporte Metropolitano de Trujillo","id":13546545562},"geometry":{"type":"Point","coordinates":[-79.0220543,-8.0807811]}},{"type":"Feature","properties":{"bus":"yes","highway":"bus_stop","name":"PFM-9","network":"Transporte Público Urbano Trujillo","public_transport":"platform","ref":"PFM-9","source":"Gerencia de Transporte Metropolitano de Trujillo","id":13546546299},"geometry":{"type":"Point","coordinates":[-79.0245182,-8.080441]}},{"type":"Feature","properties":{"bus":"yes","highway":"bus_stop","name":"PFM-15","network":"Transporte Público Urbano Trujillo","public_transport":"platform","ref":"PFM-15","source":"Gerencia de Transporte Metropolitano de Trujillo","id":13546545602},"geometry":{"type":"Point","coordinates":[-79.0248462,-8.0776541]}},{"type":"Feature","properties":{"bus":"yes","highway":"bus_stop","name":"PFM-106","network":"Transporte Público Urbano Trujillo","public_transport":"platform","ref":"PFM-106","source":"Gerencia de Transporte Metropolitano de Trujillo","id":13546545605},"geometry":{"type":"Point","coordinates":[-79.0225113,-8.0768976]}},{"type":"Feature","properties":{"bus":"yes","highway":"bus_stop","name":"PAT-64","network":"Transporte Público Urbano Trujillo","public_transport":"platform","ref":"PAT-64","source":"Gerencia de Transporte Metropolitano de Trujillo","id":13546545809},"geometry":{"type":"Point","coordinates":[-79.0214708,-8.0690701]}},{"type":"Feature","properties":{"bus":"yes","highway":"bus_stop","name":"PAT-93","network":"Transporte Público Urbano Trujillo","public_transport":"platform","ref":"PAT-93","source":"Gerencia de Transporte Metropolitano de Trujillo","id":13546546380},"geometry":{"type":"Point","coordinates":[-79.0221965,-8.0652839]}},{"type":"Feature","properties":{"bus":"yes","highway":"bus_stop","name":"PAT-124","network":"Transporte Público Urbano Trujillo","public_transport":"platform","ref":"PAT-124","source":"Gerencia de Transporte Metropolitano de Trujillo","id":13546546409},"geometry":{"type":"Point","coordinates":[-79.0183134,-8.0597726]}},{"type":"Feature","properties":{"bus":"yes","highway":"bus_stop","name":"PAT-120","network":"Transporte Público Urbano Trujillo","public_transport":"platform","ref":"PAT-120","source":"Gerencia de Transporte Metropolitano de Trujillo","id":13546545847},"geometry":{"type":"Point","coordinates":[-79.021694,-8.0622371]}}]}