{"type":"FeatureCollection","features":[{"type":"Feature","properties":{"check_date":"2025-12-16","colour":"#9999FF","colour:text":"#000000","fee":"yes","from":"El Reposo","hash":"12677","interval":"5","name":"El Reposo → Calle Señor de Los Milagros","network":"Transporte Público Urbano Trujillo","opening_hours":"Mo-Su 05:00-23:00","operator":"TITANIC EXPRESS S.A.","public_transport:version":"2","ref":"C-06 K","route":"bus","survey:avg_speed:kmh":"20","to":"Calle Señor de Los Milagros","type":"route","id":19966264},"geometry":{"type":"LineString","coordinates":[[-79.075065,-7.9920742],[-79.0743091,-7.9944451],[-79.0739237,-7.9956401],[-79.0733501,-7.997505],[-79.073087,-7.9982972],[-79.0730429,-7.9984314],[-79.0730029,-7.9985623],[-79.0722741,-8.0008596],[-79.0720294,-8.0016081],[-79.0717366,-8.002504],[-79.071574,-8.0030015],[-79.0708152,-8.0053048],[-79.070386,-8.0066116],[-79.0702981,-8.0068794],[-79.0701131,-8.007495],[-79.0700009,-8.0081344],[-79.070013,-8.008946],[-79.0700344,-8.0091623],[-79.0700853,-8.0093455],[-79.0701628,-8.0095145],[-79.0702635,-8.0095872],[-79.0703409,-8.009684],[-79.0703893,-8.0097977],[-79.0703962,-8.0098507],[-79.0704052,-8.0099202],[-79.0703874,-8.0100423],[-79.0703373,-8.0101553],[-79.0702637,-8.010246],[-79.0701693,-8.0103153],[-79.0700604,-8.0103588],[-79.0699438,-8.0103737],[-79.0698273,-8.0103589],[-79.069718,-8.0103153],[-79.0695322,-8.0102916],[-79.0694182,-8.010317],[-79.0693317,-8.0103409],[-79.0692566,-8.0103907],[-79.0690806,-8.0105888],[-79.0689043,-8.0110427],[-79.0688596,-8.011148],[-79.0688509,-8.0111747],[-79.0683061,-8.0128547],[-79.0682182,-8.0131333],[-79.0678331,-8.0143077],[-79.0677509,-8.0145374],[-79.0675968,-8.0149513],[-79.0674919,-8.015284],[-79.0674321,-8.0154737],[-79.067254,-8.015995],[-79.0670709,-8.0165492],[-79.0667816,-8.0174235],[-79.066681,-8.0177276],[-79.0665346,-8.0181668],[-79.0663502,-8.0187383],[-79.0662901,-8.0189228],[-79.0660266,-8.0197137],[-79.0659645,-8.019905],[-79.0657266,-8.020749],[-79.0655561,-8.0212802],[-79.0653948,-8.021758],[-79.06505,-8.0227815],[-79.0647442,-8.0236724],[-79.0645909,-8.0241499],[-79.0645712,-8.0242281],[-79.0644435,-8.0246295],[-79.06423,-8.0252933],[-79.0641691,-8.0254613],[-79.0638236,-8.0265087],[-79.0637487,-8.0267397],[-79.0635083,-8.0274664],[-79.0633094,-8.028081],[-79.0631824,-8.0284704],[-79.0628901,-8.029398],[-79.0628321,-8.0295824],[-79.0625942,-8.0303539],[-79.0622953,-8.0313267],[-79.0622332,-8.0315161],[-79.0620929,-8.0319159],[-79.0618874,-8.0326105],[-79.0618761,-8.0326655],[-79.0615845,-8.0335434],[-79.0612267,-8.0346473],[-79.0607618,-8.0360555],[-79.0605156,-8.0368127],[-79.0603767,-8.0372841],[-79.0603568,-8.0373562],[-79.0600244,-8.0384175],[-79.0596857,-8.0394936],[-79.0596323,-8.0396448],[-79.0593414,-8.0405215],[-79.0592911,-8.0406688],[-79.0589773,-8.041676],[-79.0589114,-8.0419089],[-79.0588091,-8.0422399],[-79.0584628,-8.0433406],[-79.0581179,-8.0443879],[-79.0578769,-8.0451626],[-79.0575908,-8.046071],[-79.0572741,-8.0470778],[-79.0571807,-8.0474322],[-79.0570924,-8.0477341],[-79.0569175,-8.0486276],[-79.056839,-8.04901],[-79.0567743,-8.0493906],[-79.0567069,-8.0497849],[-79.0566758,-8.049992],[-79.0565538,-8.0506948],[-79.0565003,-8.0510524],[-79.056421,-8.0515036],[-79.0562985,-8.0520193],[-79.0561792,-8.052417],[-79.0559513,-8.0530202],[-79.0557205,-8.0535114],[-79.0555327,-8.0538997],[-79.0551931,-8.054537],[-79.0549609,-8.055032],[-79.0546064,-8.055791],[-79.0545361,-8.0559489],[-79.054287,-8.0565081],[-79.0541959,-8.0567859],[-79.0541032,-8.0570844],[-79.0540048,-8.0573878],[-79.0539058,-8.0573528],[-79.0538428,-8.0573323],[-79.0534188,-8.0571947],[-79.0523473,-8.0568434],[-79.0521404,-8.0567799],[-79.0516853,-8.0566322],[-79.050735,-8.0562774],[-79.0504409,-8.0561676],[-79.0502847,-8.0560968],[-79.0502662,-8.0565323],[-79.0500671,-8.0571156],[-79.0496226,-8.0569614],[-79.0491579,-8.0567968],[-79.0491711,-8.0568586],[-79.0490219,-8.0573178],[-79.0488508,-8.0577817],[-79.0487616,-8.0580571],[-79.0484478,-8.0589031],[-79.0482963,-8.0593299],[-79.0481408,-8.0597683],[-79.0479712,-8.0602111],[-79.0479657,-8.0602254],[-79.0477996,-8.0606186],[-79.0476376,-8.0610582],[-79.0484684,-8.0612639],[-79.0486513,-8.0613499],[-79.0487998,-8.0613918],[-79.0490995,-8.0614621],[-79.0493384,-8.0615221],[-79.0494704,-8.0615562],[-79.0497988,-8.0616385],[-79.049928,-8.0616677],[-79.0500721,-8.061707],[-79.0498449,-8.062581],[-79.0496143,-8.0635361],[-79.0491981,-8.0651519],[-79.0489307,-8.066055],[-79.048759,-8.0665803],[-79.048586,-8.0669601],[-79.0483332,-8.0674288],[-79.047988,-8.068069],[-79.0473862,-8.0691898],[-79.0467376,-8.0702512],[-79.0460157,-8.0715333],[-79.045375,-8.072761],[-79.0446881,-8.0741468],[-79.0440202,-8.0753644],[-79.0432454,-8.0766996],[-79.0428396,-8.0774709],[-79.0419952,-8.078965],[-79.0413997,-8.0800224],[-79.0407978,-8.0810916],[-79.0403141,-8.0819666],[-79.039776,-8.082927],[-79.0392504,-8.0838449],[-79.0398917,-8.0841983],[-79.0405272,-8.0845517],[-79.0407268,-8.0846627],[-79.0416471,-8.085165],[-79.0417771,-8.0851985],[-79.0412044,-8.0861269],[-79.04084,-8.0866928],[-79.0407844,-8.0867703],[-79.0404846,-8.0871889],[-79.0395779,-8.0880656],[-79.0395207,-8.0881239],[-79.0393229,-8.0883163],[-79.0389555,-8.0886704],[-79.0387985,-8.088817],[-79.0385236,-8.0890878],[-79.0380213,-8.0895632],[-79.0379709,-8.0896107],[-79.0377092,-8.0898576],[-79.0371195,-8.0904138],[-79.0370395,-8.090499],[-79.0362938,-8.0912315],[-79.0358456,-8.0916719],[-79.0357713,-8.0917449],[-79.0352091,-8.0922947],[-79.0350886,-8.0924132],[-79.0344583,-8.0929777],[-79.0342204,-8.0931908],[-79.0338274,-8.0935742],[-79.0333212,-8.094068],[-79.0328647,-8.0945134],[-79.0324536,-8.0949145],[-79.0323676,-8.0949984],[-79.0321861,-8.0951729],[-79.0320107,-8.0953466],[-79.0317046,-8.0956068],[-79.031459,-8.0958848],[-79.0311089,-8.0962287],[-79.0306593,-8.0966759],[-79.030488,-8.0968462],[-79.0299634,-8.097375],[-79.0298896,-8.0974414],[-79.0297622,-8.0975681],[-79.0296784,-8.0976483],[-79.0285157,-8.098788],[-79.0281333,-8.0991535],[-79.0277488,-8.0995228],[-79.0273435,-8.0999168],[-79.026922,-8.1003113],[-79.0265236,-8.1006993],[-79.0273414,-8.1016983],[-79.0275692,-8.1019685],[-79.0281518,-8.1026545],[-79.0282189,-8.1027358],[-79.0287271,-8.103339],[-79.0293628,-8.1040936],[-79.0301335,-8.1049403],[-79.0301909,-8.1050034],[-79.030238,-8.1050578],[-79.0302807,-8.1051096],[-79.0302018,-8.1051818],[-79.0295367,-8.105815],[-79.0294939,-8.1058546],[-79.0294266,-8.1059207],[-79.029162,-8.1061833],[-79.0291237,-8.1062215],[-79.029054,-8.1062911],[-79.0290012,-8.1063452],[-79.0289329,-8.1062946],[-79.0288178,-8.1062442],[-79.0276528,-8.105793],[-79.0264143,-8.1052797],[-79.0263452,-8.1052471],[-79.0262985,-8.1052333],[-79.0262549,-8.1052344],[-79.0256988,-8.1053386],[-79.0256573,-8.1053476],[-79.0255672,-8.1053672],[-79.0254923,-8.1053842],[-79.0244593,-8.1056188],[-79.0242681,-8.1056608],[-79.0242517,-8.1056661],[-79.0241535,-8.1056985],[-79.0240833,-8.1057291],[-79.0238088,-8.1059019],[-79.023085,-8.1065401],[-79.0230394,-8.1065805],[-79.0229463,-8.1066613],[-79.0223178,-8.1072057],[-79.0221654,-8.1073392],[-79.0220033,-8.1075577],[-79.0219509,-8.1076849],[-79.0218056,-8.1081084],[-79.0217624,-8.1081477],[-79.021697,-8.1081627],[-79.0215197,-8.1080217],[-79.0213541,-8.1078899],[-79.0210565,-8.1076964],[-79.0206048,-8.1074225],[-79.020075,-8.1070556],[-79.019535,-8.1066875],[-79.0191446,-8.1063858],[-79.0189687,-8.106101],[-79.0186571,-8.1054854],[-79.0181457,-8.105855],[-79.0168537,-8.1065475],[-79.0154531,-8.1077802],[-79.0156808,-8.1080392],[-79.0159249,-8.1083147],[-79.0161436,-8.1085639],[-79.016527,-8.1090194],[-79.0167482,-8.1092704],[-79.0169713,-8.1095239],[-79.017527,-8.1101528],[-79.0175961,-8.110231],[-79.0175129,-8.1102993],[-79.0171499,-8.110605],[-79.0171354,-8.1106172],[-79.0170778,-8.1106631],[-79.0168213,-8.1108674],[-79.0164305,-8.1111985],[-79.0168064,-8.1116509],[-79.0164588,-8.1119722],[-79.0157002,-8.1124689],[-79.0155948,-8.1125249],[-79.0153576,-8.112659],[-79.0148761,-8.1128916],[-79.0146258,-8.1123722],[-79.0145815,-8.1122777],[-79.0154053,-8.1118631],[-79.0158607,-8.1115596],[-79.0159234,-8.1115071],[-79.0163712,-8.1111327],[-79.0170069,-8.1105877],[-79.0170644,-8.1105384],[-79.0170825,-8.1105233],[-79.0174444,-8.1102211],[-79.0168949,-8.1095934],[-79.0164607,-8.1090763],[-79.0160606,-8.1086321],[-79.016002,-8.1085671],[-79.0158452,-8.1083849],[-79.0156031,-8.1081061],[-79.0153791,-8.1078466],[-79.0149207,-8.1073163],[-79.014742,-8.1071073],[-79.0144699,-8.1067831],[-79.0141982,-8.1064576],[-79.0138765,-8.1060794],[-79.0137806,-8.1059652],[-79.0136982,-8.1058694],[-79.0134976,-8.1056346],[-79.0132032,-8.1052914],[-79.0129236,-8.1049601],[-79.0126232,-8.1046043],[-79.0123322,-8.1042823],[-79.0122927,-8.1042322],[-79.0119901,-8.1038686],[-79.0118179,-8.1036636],[-79.011702,-8.103526],[-79.0112556,-8.1030038],[-79.0111726,-8.1029044],[-79.0110643,-8.1027749],[-79.0109298,-8.1026138],[-79.0108637,-8.1025337],[-79.0105134,-8.1021316],[-79.0100805,-8.1016148],[-79.0099966,-8.1015149],[-79.0097798,-8.1012538],[-79.0095466,-8.1009729],[-79.009278,-8.1006493],[-79.0089313,-8.1002317],[-79.008914,-8.1002109],[-79.0086681,-8.0999308],[-79.0084436,-8.0996751],[-79.008434,-8.0996632],[-79.0082817,-8.0994854],[-79.0075549,-8.0986333],[-79.0074679,-8.0985344],[-79.007063,-8.0980601],[-79.0067798,-8.097717],[-79.0065294,-8.0974193],[-79.0062319,-8.0970584],[-79.0057526,-8.0964965],[-79.0050954,-8.0957116],[-79.0048863,-8.0954618],[-79.0045496,-8.0950979],[-79.0042997,-8.0947882],[-79.0040934,-8.094524],[-79.0039314,-8.0943752],[-79.0039073,-8.0942981],[-79.0037003,-8.0940375],[-79.0036568,-8.093981],[-79.0036044,-8.0939199],[-79.0035858,-8.0938977],[-79.0019693,-8.0920154],[-79.0018886,-8.0919214],[-79.0014002,-8.0913524],[-79.0008035,-8.0906573],[-79.0003926,-8.0901787],[-79.0001227,-8.0898622],[-78.999898,-8.0895863],[-78.9996421,-8.0892074],[-78.9994803,-8.0888691],[-78.9992658,-8.0881905],[-78.999141,-8.0877949],[-78.9990933,-8.0876504],[-78.9992391,-8.0876095],[-78.9998223,-8.0874373],[-79.0009617,-8.0871009],[-79.0006628,-8.0859528],[-79.0003533,-8.0847957],[-79.0000507,-8.0836445],[-78.9988294,-8.0839855],[-78.9976621,-8.0843115],[-78.9973628,-8.0831747],[-78.99761,-8.0831209],[-78.9985151,-8.082891],[-78.9997847,-8.0825537],[-78.9994923,-8.0813923],[-78.9988772,-8.081561],[-78.9982222,-8.081763],[-78.9977905,-8.0819354],[-78.9973351,-8.0821073],[-78.9970397,-8.0822092],[-78.9965594,-8.0823974],[-78.9963672,-8.082511],[-78.9962565,-8.082608],[-78.9960698,-8.082841],[-78.9958902,-8.0828489],[-78.9956528,-8.0829033],[-78.995575,-8.0830069],[-78.9954436,-8.0831649],[-78.9952786,-8.0833388],[-78.9951512,-8.0835725],[-78.9949313,-8.0840466],[-78.9948508,-8.0842178],[-78.99482,-8.0843466],[-78.9947677,-8.0844449],[-78.9947234,-8.0845007],[-78.9947221,-8.08466],[-78.9946886,-8.0850007],[-78.9946698,-8.0850099],[-78.9946443,-8.0850404],[-78.9944485,-8.0852933],[-78.9943747,-8.0854208],[-78.994313,-8.0856047],[-78.994189,-8.0859034],[-78.9941306,-8.0860263],[-78.9940964,-8.0860674],[-78.9940515,-8.0860827],[-78.9939704,-8.0860946],[-78.9939414,-8.0861061],[-78.9939167,-8.0861252],[-78.9939005,-8.0861466],[-78.9938901,-8.0861712],[-78.9938859,-8.0861975],[-78.9938856,-8.0862431],[-78.9938939,-8.0862878],[-78.9939938,-8.086568]],"nodes":[10281362769,11087490489,11539601146,11030688164,11030688158,13376888218,11033003496,3981106609,12077203797,10980257050,3712942148,5622983465,11863146150,5622983463,5622983462,5622983461,5079648998,5622983470,5622983472,5622983471,5079648966,5079648967,5079648985,11690648324,5079648968,5079648984,5622983474,5079648969,5079648963,5079648959,5079648964,5079648965,5079648978,5079648994,10980257031,5622983485,10980257032,1286991534,5622983455,5491760686,13406780257,1286991453,1873334289,1873334296,1873334301,1098597044,3981106611,1098621624,1098615155,1873334317,1873334321,1098630656,1286991522,1098609636,1873334346,1098599021,1873334353,1098649119,1286991562,1098625991,1873334364,1098618780,1873334368,9148497683,5463851058,9148497677,1098617982,1098607101,1286991515,1098589764,1873334383,1098646213,1873334391,1098623493,1873334400,1873334402,1098601279,11023223492,11023223487,1873334412,1098640018,11023223486,5491760454,8089658065,8089658062,3110225074,3110225076,4438549628,11023223477,1873334431,11023223476,11023365338,11023223475,5463865441,1098594821,1098612209,8134298762,8134298763,11023223472,8134200994,1286991513,1286991524,1633196988,1098619364,1286991489,1098607890,1286991454,5489611730,1286991535,1286991499,320113093,1286991465,1098584351,1286991546,1098599588,1286991509,1286991476,11023448205,1286991557,1098620666,1286991518,1098646681,1873334442,11023849497,5489234454,1098595369,5453884045,1098613968,5489234434,5489234461,11782093671,1098628220,1098638953,1098620266,1098601791,8759667541,8759667533,8759667534,8759667535,8759667536,8759667544,8759667537,8759667543,8759667538,8759667542,8759667539,1098594934,5489275331,5456304261,5489275326,1098584521,5456304254,5456304263,13379176362,5456304255,5468729701,5456170003,1098594131,1098645381,1098609820,1098584179,5489275324,1098595951,1098617997,1098618807,1098613051,1098590604,1098633695,1098624528,1098634724,1098601293,1098640024,1098647606,1098608423,1098624741,1098614678,1098585306,1098641191,1098621197,4427162250,1142680018,8760555319,1098589870,13472500523,13472500527,5088994617,5489046578,9750477265,1098590424,5088980738,9750421951,5088980728,1098646665,11032400878,11032400875,4427121128,1098634625,4427121117,11030528045,1693582401,1287009874,1088227429,11037627716,1098641709,1098620469,1098608783,5425541301,1098624555,1098585118,13379121111,1098591872,13379121112,1098648136,1098598330,11037627714,11037627712,13197036953,11032904262,320114962,320114964,1098588744,1088227472,1098633415,1098622674,1098612663,1287009846,1098609259,1098589327,1098634426,1098623986,11037680027,1098633361,4633875087,4633874462,2557538233,2557538236,2557538234,4633875092,1098598866,4633875094,4633875109,4633875096,316264055,316264086,1088227246,4633875101,316488274,316264088,11016646711,11016646710,316264089,9829891083,13368738226,316488510,9829891082,4452540641,316264090,495108772,12987860958,316264091,2573525832,5373812628,8109317254,8109317248,2573525834,2573525835,2573525836,316264048,2589631591,2589631593,1051000299,11919733880,1554844722,1051000241,1051000351,11037703291,11037703290,1051000135,1051000232,1051000260,5081662057,5079968875,1098590745,11023313864,11023313866,1098623436,5676152374,9830187850,11023976595,1098639667,1144498432,1007782483,11033100547,1026647175,11033100546,1098590644,1007782485,1098620026,1098598418,1098595367,11033109923,5456005088,1098624344,1007782487,2604839548,1026646833,1007782473,11033100543,1098608294,11033100545,1026647173,11033100548,1098602637,11023976594,1098601972,11023313868,1098584430,11023313867,11023313865,5086629395,1088227445,3569346209,11023313863,1098613888,11023313861,11023313859,5086629393,11023313857,11023313855,1026647788,11023313853,11023313851,1026647512,1098632843,11023381285,11032994349,11032994346,316265133,1088227363,1098591604,11023381283,5482905646,5482905645,1098598553,1098647683,5087163892,1098643555,11037375458,11023671193,11037375460,11023976597,1098589923,5087053972,1026647809,1098633721,5481133290,1098610101,5088905642,5089132051,1026647819,11032459662,1026647822,1026647825,11030395407,11030395408,1026647827,11030377673,11030377667,1098586874,11032867290,11032867286,1026647835,1098650079,1098627321,1026647840,5467619028,5482905628,10735970446,1026647844,1026647848,1026647853,1145579843,1026647856,1026647875,1098583790,1145579814,5432246025,5432245218,1098614050,1098590339,1098633523,5457466330,5457466332,1098627882,5432246022,5432246021,5457466285,1098631100,5457466284,5457466331,5457466248,5457430347,6326420498,6326420497,5457430346,5480680559,5480680560,5480680558,5480680557,5480680556,5480680555,5480680554,5480680553,5480680552,5480680551,5480680566,5480680567,8168056311,8168056310,8168056309,8168056308,8168056307,8168056306,8168056305,8168056304,8168056303,8168056302,8168056301,8168056298,8168056300,8168056297,8168056296,8168056299,8168056294,8168056295,8168056293]},"gtfs":{"agency_id":15,"route_id":33,"services":[{"service_id":"Mo-Su","startTime":"05:00","endTime":"23:00","trip_id":19966264}],"filteredStops":{"nodes":[10281362769,13546546295,13546546294,13546545550,13546546293,13546546291,11911534030,13546546290,13546546289,13546545547,13546546288,13546545612,13546546334,13546546333,13546546336,13546546313,13546545701,13546545704,13546546354,13546546312,13546546353,13546545626,13546545729,13546545631,13546545726,13546545725,13546545628,13546545723,13546545667,13546545676,13546535044,13546545867,13546535047,13546545868,13546535049,13546535061,13546545880,13546545930,11895957224,11895968651,11895953681,5099494791,13546545988,13546545943,13546545146,13546545161,13546546019,13546545882,13546535066,13546546020,13546546022,13546545218,13546546017,13546545216,13546546018,13546545214,13546546013,13546545431,13546546209,13546546211,13546546210,8168056293],"coordinates":[[-79.075065,-7.9920742],[-79.0747991,-7.9929843],[-79.0733612,-7.9975336],[-79.0722103,-8.0012454],[-79.0673078,-8.015995],[-79.0661602,-8.0196706],[-79.0648297,-8.0235139],[-79.0636536,-8.0273704],[-79.0626536,-8.0306138],[-79.0613915,-8.0342637],[-79.0587534,-8.042531],[-79.0574802,-8.0466333],[-79.0567702,-8.0494699],[-79.0560623,-8.0529364],[-79.0542699,-8.0566946],[-79.0515199,-8.0565957],[-79.0509376,-8.0564311],[-79.0502198,-8.0567846],[-79.0478548,-8.0605411],[-79.0489176,-8.0614137],[-79.0492407,-8.0614838],[-79.0500282,-8.0620253],[-79.0499468,-8.0622019],[-79.0482491,-8.0676206],[-79.0458058,-8.0720366],[-79.0443208,-8.074817],[-79.0431166,-8.076952],[-79.0418243,-8.0792718],[-79.0401015,-8.082387],[-79.040937,-8.0847742],[-79.0402613,-8.0875554],[-79.0362607,-8.0913512],[-79.0336175,-8.093915],[-79.0306039,-8.0968644],[-79.0279424,-8.0994353],[-79.0269347,-8.1011135],[-79.0288134,-8.1033645],[-79.0293947,-8.1060629],[-79.0277112,-8.105858],[-79.0245107,-8.1056463],[-79.0226351,-8.1069826],[-79.02188,-8.1080252],[-79.0216367,-8.1082618],[-79.0212133,-8.1078563],[-79.0187745,-8.1058153],[-79.0171172,-8.1064512],[-79.0156336,-8.1079156],[-79.0170607,-8.110739],[-79.0160862,-8.1113059],[-79.0154954,-8.1080185],[-79.0138854,-8.1061501],[-79.0120998,-8.1040441],[-79.0103882,-8.1021258],[-79.0080925,-8.0993433],[-79.005462,-8.0962709],[-79.0026628,-8.0929774],[-78.9996426,-8.0893785],[-79.0001625,-8.0842065],[-78.9990939,-8.0815139],[-78.9955326,-8.0831629],[-78.9952695,-8.0834177],[-78.9939938,-8.086568]]}}},{"type":"Feature","properties":{"bus":"yes","highway":"bus_stop","network":"Transporte Público Urbano Trujillo","public_transport":"platform","ref":"PH-102","source":"Gerencia de Transporte Metropolitano de Trujillo","id":13546546295},"geometry":{"type":"Point","coordinates":[-79.0747991,-7.9929843]}},{"type":"Feature","properties":{"bus":"yes","highway":"bus_stop","network":"Transporte Público Urbano Trujillo","public_transport":"platform","ref":"PH-103","source":"Gerencia de Transporte Metropolitano de Trujillo","id":13546546294},"geometry":{"type":"Point","coordinates":[-79.0733612,-7.9975336]}},{"type":"Feature","properties":{"bus":"yes","highway":"bus_stop","network":"Transporte Público Urbano Trujillo","public_transport":"platform","ref":"PH-104","source":"Gerencia de Transporte Metropolitano de Trujillo","id":13546545550},"geometry":{"type":"Point","coordinates":[-79.0722103,-8.0012454]}},{"type":"Feature","properties":{"bus":"yes","highway":"bus_stop","network":"Transporte Público Urbano Trujillo","public_transport":"platform","ref":"PH-109","source":"Gerencia de Transporte Metropolitano de Trujillo","id":13546546293},"geometry":{"type":"Point","coordinates":[-79.0673078,-8.015995]}},{"type":"Feature","properties":{"bus":"yes","highway":"bus_stop","network":"Transporte Público Urbano Trujillo","public_transport":"platform","ref":"PH-110","source":"Gerencia de Transporte Metropolitano de Trujillo","id":13546546291},"geometry":{"type":"Point","coordinates":[-79.0661602,-8.0196706]}},{"type":"Feature","properties":{"advertising":"no","bench":"yes","bicycle_parking":"no","bin":"no","bus":"yes","departures_board":"no","highway":"bus_stop","level":"0","lit":"no","name":"Calle Alfonso Ugarte","network":"Transporte Público Urbano Trujillo","passenger_information_display:speech_output":"no","pole":"yes","public_transport":"platform","ramp":"no","ref":"PH-111","shelter":"yes","source:ref":"Gerencia de Transporte Metropolitano de Trujillo","tactile_paving":"no","tactile_writing:braille:es":"no","id":11911534030},"geometry":{"type":"Point","coordinates":[-79.0648297,-8.0235139]}},{"type":"Feature","properties":{"bus":"yes","highway":"bus_stop","network":"Transporte Público Urbano Trujillo","public_transport":"platform","ref":"PH-112","source":"Gerencia de Transporte Metropolitano de Trujillo","id":13546546290},"geometry":{"type":"Point","coordinates":[-79.0636536,-8.0273704]}},{"type":"Feature","properties":{"bus":"yes","highway":"bus_stop","network":"Transporte Público Urbano Trujillo","public_transport":"platform","ref":"PH-113","source":"Gerencia de Transporte Metropolitano de Trujillo","id":13546546289},"geometry":{"type":"Point","coordinates":[-79.0626536,-8.0306138]}},{"type":"Feature","properties":{"bus":"yes","highway":"bus_stop","network":"Transporte Público Urbano Trujillo","public_transport":"platform","ref":"PH-114","source":"Gerencia de Transporte Metropolitano de Trujillo","id":13546545547},"geometry":{"type":"Point","coordinates":[-79.0613915,-8.0342637]}},{"type":"Feature","properties":{"bus":"yes","highway":"bus_stop","network":"Transporte Público Urbano Trujillo","public_transport":"platform","ref":"PH-116","source":"Gerencia de Transporte Metropolitano de Trujillo","id":13546546288},"geometry":{"type":"Point","coordinates":[-79.0587534,-8.042531]}},{"type":"Feature","properties":{"bus":"yes","highway":"bus_stop","network":"Transporte Público Urbano Trujillo","public_transport":"platform","ref":"PE-98","source":"Gerencia de Transporte Metropolitano de Trujillo","id":13546545612},"geometry":{"type":"Point","coordinates":[-79.0574802,-8.0466333]}},{"type":"Feature","properties":{"bus":"yes","highway":"bus_stop","network":"Transporte Público Urbano Trujillo","public_transport":"platform","ref":"PE-276","source":"Gerencia de Transporte Metropolitano de Trujillo","id":13546546334},"geometry":{"type":"Point","coordinates":[-79.0567702,-8.0494699]}},{"type":"Feature","properties":{"bus":"yes","highway":"bus_stop","network":"Transporte Público Urbano Trujillo","public_transport":"platform","ref":"PE-277","source":"Gerencia de Transporte Metropolitano de Trujillo","id":13546546333},"geometry":{"type":"Point","coordinates":[-79.0560623,-8.0529364]}},{"type":"Feature","properties":{"bus":"yes","highway":"bus_stop","network":"Transporte Público Urbano Trujillo","public_transport":"platform","ref":"PE-273","source":"Gerencia de Transporte Metropolitano de Trujillo","id":13546546336},"geometry":{"type":"Point","coordinates":[-79.0542699,-8.0566946]}},{"type":"Feature","properties":{"bus":"yes","highway":"bus_stop","network":"Transporte Público Urbano Trujillo","public_transport":"platform","ref":"PE-69","source":"Gerencia de Transporte Metropolitano de Trujillo","id":13546546313},"geometry":{"type":"Point","coordinates":[-79.0515199,-8.0565957]}},{"type":"Feature","properties":{"bus":"yes","highway":"bus_stop","network":"Transporte Público Urbano Trujillo","public_transport":"platform","ref":"PE-230","source":"Gerencia de Transporte Metropolitano de Trujillo","id":13546545701},"geometry":{"type":"Point","coordinates":[-79.0509376,-8.0564311]}},{"type":"Feature","properties":{"bus":"yes","highway":"bus_stop","network":"Transporte Público Urbano Trujillo","public_transport":"platform","ref":"PE-228","source":"Gerencia de Transporte Metropolitano de Trujillo","id":13546545704},"geometry":{"type":"Point","coordinates":[-79.0502198,-8.0567846]}},{"type":"Feature","properties":{"bus":"yes","highway":"bus_stop","network":"Transporte Público Urbano Trujillo","public_transport":"platform","ref":"PE-231","source":"Gerencia de Transporte Metropolitano de Trujillo","id":13546546354},"geometry":{"type":"Point","coordinates":[-79.0478548,-8.0605411]}},{"type":"Feature","properties":{"bus":"yes","highway":"bus_stop","network":"Transporte Público Urbano Trujillo","public_transport":"platform","ref":"PE-72","source":"Gerencia de Transporte Metropolitano de Trujillo","id":13546546312},"geometry":{"type":"Point","coordinates":[-79.0489176,-8.0614137]}},{"type":"Feature","properties":{"bus":"yes","highway":"bus_stop","network":"Transporte Público Urbano Trujillo","public_transport":"platform","ref":"PE-232","source":"Gerencia de Transporte Metropolitano de Trujillo","id":13546546353},"geometry":{"type":"Point","coordinates":[-79.0492407,-8.0614838]}},{"type":"Feature","properties":{"bus":"yes","highway":"bus_stop","network":"Transporte Público Urbano Trujillo","public_transport":"platform","ref":"PE-59","source":"Gerencia de Transporte Metropolitano de Trujillo","id":13546545626},"geometry":{"type":"Point","coordinates":[-79.0500282,-8.0620253]}},{"type":"Feature","properties":{"bus":"yes","highway":"bus_stop","network":"Transporte Público Urbano Trujillo","public_transport":"platform","ref":"PE-180","source":"Gerencia de Transporte Metropolitano de Trujillo","id":13546545729},"geometry":{"type":"Point","coordinates":[-79.0499468,-8.0622019]}},{"type":"Feature","properties":{"bus":"yes","highway":"bus_stop","network":"Transporte Público Urbano Trujillo","public_transport":"platform","ref":"PE-53","source":"Gerencia de Transporte Metropolitano de Trujillo","id":13546545631},"geometry":{"type":"Point","coordinates":[-79.0482491,-8.0676206]}},{"type":"Feature","properties":{"bus":"yes","highway":"bus_stop","network":"Transporte Público Urbano Trujillo","public_transport":"platform","ref":"PE-184","source":"Gerencia de Transporte Metropolitano de Trujillo","id":13546545726},"geometry":{"type":"Point","coordinates":[-79.0458058,-8.0720366]}},{"type":"Feature","properties":{"bus":"yes","highway":"bus_stop","network":"Transporte Público Urbano Trujillo","public_transport":"platform","ref":"PE-185","source":"Gerencia de Transporte Metropolitano de Trujillo","id":13546545725},"geometry":{"type":"Point","coordinates":[-79.0443208,-8.074817]}},{"type":"Feature","properties":{"bus":"yes","highway":"bus_stop","network":"Transporte Público Urbano Trujillo","public_transport":"platform","ref":"PE-57","source":"Gerencia de Transporte Metropolitano de Trujillo","id":13546545628},"geometry":{"type":"Point","coordinates":[-79.0431166,-8.076952]}},{"type":"Feature","properties":{"bus":"yes","highway":"bus_stop","network":"Transporte Público Urbano Trujillo","public_transport":"platform","ref":"PE-187","source":"Gerencia de Transporte Metropolitano de Trujillo","id":13546545723},"geometry":{"type":"Point","coordinates":[-79.0418243,-8.0792718]}},{"type":"Feature","properties":{"bus":"yes","highway":"bus_stop","network":"Transporte Público Urbano Trujillo","public_transport":"platform","ref":"PE-307","source":"Gerencia de Transporte Metropolitano de Trujillo","id":13546545667},"geometry":{"type":"Point","coordinates":[-79.0401015,-8.082387]}},{"type":"Feature","properties":{"bus":"yes","highway":"bus_stop","network":"Transporte Público Urbano Trujillo","public_transport":"platform","ref":"PE-288","source":"Gerencia de Transporte Metropolitano de Trujillo","id":13546545676},"geometry":{"type":"Point","coordinates":[-79.040937,-8.0847742]}},{"type":"Feature","properties":{"bus":"yes","highway":"bus_stop","network":"Transporte Público Urbano Trujillo","public_transport":"platform","ref":"TUPAT-126","source":"Gerencia de Transporte Metropolitano de Trujillo","id":13546535044},"geometry":{"type":"Point","coordinates":[-79.0402613,-8.0875554]}},{"type":"Feature","properties":{"bus":"yes","highway":"bus_stop","network":"Transporte Público Urbano Trujillo","public_transport":"platform","ref":"TUPAT-124","source":"Gerencia de Transporte Metropolitano de Trujillo","id":13546545867},"geometry":{"type":"Point","coordinates":[-79.0362607,-8.0913512]}},{"type":"Feature","properties":{"bus":"yes","highway":"bus_stop","network":"Transporte Público Urbano Trujillo","public_transport":"platform","ref":"TUPAT-121","source":"Gerencia de Transporte Metropolitano de Trujillo","id":13546535047},"geometry":{"type":"Point","coordinates":[-79.0336175,-8.093915]}},{"type":"Feature","properties":{"bus":"yes","highway":"bus_stop","network":"Transporte Público Urbano Trujillo","public_transport":"platform","ref":"TUPAT-120","source":"Gerencia de Transporte Metropolitano de Trujillo","id":13546545868},"geometry":{"type":"Point","coordinates":[-79.0306039,-8.0968644]}},{"type":"Feature","properties":{"bus":"yes","highway":"bus_stop","network":"Transporte Público Urbano Trujillo","public_transport":"platform","ref":"TUPAT-117","source":"Gerencia de Transporte Metropolitano de Trujillo","id":13546535049},"geometry":{"type":"Point","coordinates":[-79.0279424,-8.0994353]}},{"type":"Feature","properties":{"bus":"yes","highway":"bus_stop","network":"Transporte Público Urbano Trujillo","public_transport":"platform","ref":"SALVLA-300","source":"Gerencia de Transporte Metropolitano de Trujillo","id":13546535061},"geometry":{"type":"Point","coordinates":[-79.0269347,-8.1011135]}},{"type":"Feature","properties":{"bus":"yes","highway":"bus_stop","network":"Transporte Público Urbano Trujillo","public_transport":"platform","ref":"SALVLA-297","source":"Gerencia de Transporte Metropolitano de Trujillo","id":13546545880},"geometry":{"type":"Point","coordinates":[-79.0288134,-8.1033645]}},{"type":"Feature","properties":{"bus":"yes","highway":"bus_stop","network":"Transporte Público Urbano Trujillo","public_transport":"platform","ref":"MAVE-357","source":"Gerencia de Transporte Metropolitano de Trujillo","id":13546545930},"geometry":{"type":"Point","coordinates":[-79.0293947,-8.1060629]}},{"type":"Feature","properties":{"advertising":"no","bench":"no","bicycle_parking":"no","bin":"no","bus":"yes","departures_board":"no","highway":"bus_stop","level":"0","lit":"yes","name":"Jirón Estete","network":"Transporte Público Urbano Trujillo","passenger_information_display:speech_output":"no","pole":"yes","public_transport":"platform","ramp":"no","ref":"ESP-15","shelter":"no","source:ref":"Gerencia de Transporte Metropolitano de Trujillo","tactile_paving":"no","tactile_writing:braille:es":"no","id":11895957224},"geometry":{"type":"Point","coordinates":[-79.0277112,-8.105858]}},{"type":"Feature","properties":{"advertising":"no","bench":"no","bicycle_parking":"no","bin":"no","bus":"yes","departures_board":"no","highway":"bus_stop","level":"0","lit":"no","name":"Avenida del Ejército","network":"Transporte Público Urbano Trujillo","passenger_information_display:speech_output":"no","pole":"yes","public_transport":"platform","ramp":"no","ref":"ESP-13","shelter":"no","source:ref":"Gerencia de Transporte Metropolitano de Trujillo","tactile_paving":"no","tactile_writing:braille:es":"no","id":11895968651},"geometry":{"type":"Point","coordinates":[-79.0245107,-8.1056463]}},{"type":"Feature","properties":{"advertising":"no","bench":"no","bicycle_parking":"no","bin":"no","bus":"yes","departures_board":"no","highway":"bus_stop","level":"0","lit":"yes","name":"Avenida Perú","network":"Transporte Público Urbano Trujillo","passenger_information_display:speech_output":"no","pole":"yes","public_transport":"platform","ramp":"no","ref":"ESP-11","shelter":"no","source:ref":"Gerencia de Transporte Metropolitano de Trujillo","tactile_paving":"no","tactile_writing:braille:es":"no","id":11895953681},"geometry":{"type":"Point","coordinates":[-79.0226351,-8.1069826]}},{"type":"Feature","properties":{"advertising":"yes","bench":"yes","bicycle_parking":"no","bin":"no","bus":"yes","check_date:shelter":"2024-03-05","departures_board":"no","highway":"bus_stop","level":"0","lit":"no","name":"Jirón Unión","network":"Transporte Público Urbano Trujillo","passenger_information_display:speech_output":"no","pole":"yes","public_transport":"platform","ramp":"no","ref":"ESP-9","shelter":"yes","source":"Reconocimiento terrestre cartográfico realizado por Kaart en 2017","tactile_paving":"no","tactile_writing:braille:es":"no","id":5099494791},"geometry":{"type":"Point","coordinates":[-79.02188,-8.1080252]}},{"type":"Feature","properties":{"bus":"yes","highway":"bus_stop","network":"Transporte Público Urbano Trujillo","public_transport":"platform","ref":"ESP-8","source":"Gerencia de Transporte Metropolitano de Trujillo","id":13546545988},"geometry":{"type":"Point","coordinates":[-79.0216367,-8.1082618]}},{"type":"Feature","properties":{"bus":"yes","highway":"bus_stop","network":"Transporte Público Urbano Trujillo","public_transport":"platform","ref":"JUN-283","source":"Gerencia de Transporte Metropolitano de Trujillo","id":13546545943},"geometry":{"type":"Point","coordinates":[-79.0212133,-8.1078563]}},{"type":"Feature","properties":{"bus":"yes","highway":"bus_stop","network":"Transporte Público Urbano Trujillo","public_transport":"platform","ref":"JUN-284","source":"Gerencia de Transporte Metropolitano de Trujillo","id":13546545146},"geometry":{"type":"Point","coordinates":[-79.0187745,-8.1058153]}},{"type":"Feature","properties":{"bus":"yes","highway":"bus_stop","network":"Transporte Público Urbano Trujillo","public_transport":"platform","ref":"HUALL-511","source":"Gerencia de Transporte Metropolitano de Trujillo","id":13546545161},"geometry":{"type":"Point","coordinates":[-79.0171172,-8.1064512]}},{"type":"Feature","properties":{"bus":"yes","highway":"bus_stop","network":"Transporte Público Urbano Trujillo","public_transport":"platform","ref":"CEV-178","source":"Gerencia de Transporte Metropolitano de Trujillo","id":13546546019},"geometry":{"type":"Point","coordinates":[-79.0156336,-8.1079156]}},{"type":"Feature","properties":{"bus":"yes","highway":"bus_stop","network":"Transporte Público Urbano Trujillo","public_transport":"platform","ref":"RIP-331","source":"Gerencia de Transporte Metropolitano de Trujillo","id":13546545882},"geometry":{"type":"Point","coordinates":[-79.0170607,-8.110739]}},{"type":"Feature","properties":{"bus":"yes","highway":"bus_stop","network":"Transporte Público Urbano Trujillo","public_transport":"platform","ref":"RIP-330","source":"Gerencia de Transporte Metropolitano de Trujillo","id":13546535066},"geometry":{"type":"Point","coordinates":[-79.0160862,-8.1113059]}},{"type":"Feature","properties":{"bus":"yes","highway":"bus_stop","network":"Transporte Público Urbano Trujillo","public_transport":"platform","ref":"CEV-177","source":"Gerencia de Transporte Metropolitano de Trujillo","id":13546546020},"geometry":{"type":"Point","coordinates":[-79.0154954,-8.1080185]}},{"type":"Feature","properties":{"bus":"yes","highway":"bus_stop","network":"Transporte Público Urbano Trujillo","public_transport":"platform","ref":"CEV-175","source":"Gerencia de Transporte Metropolitano de Trujillo","id":13546546022},"geometry":{"type":"Point","coordinates":[-79.0138854,-8.1061501]}},{"type":"Feature","properties":{"bus":"yes","highway":"bus_stop","network":"Transporte Público Urbano Trujillo","public_transport":"platform","ref":"CEV-173","source":"Gerencia de Transporte Metropolitano de Trujillo","id":13546545218},"geometry":{"type":"Point","coordinates":[-79.0120998,-8.1040441]}},{"type":"Feature","properties":{"bus":"yes","highway":"bus_stop","network":"Transporte Público Urbano Trujillo","public_transport":"platform","ref":"CEV-182","source":"Gerencia de Transporte Metropolitano de Trujillo","id":13546546017},"geometry":{"type":"Point","coordinates":[-79.0103882,-8.1021258]}},{"type":"Feature","properties":{"bus":"yes","highway":"bus_stop","network":"Transporte Público Urbano Trujillo","public_transport":"platform","ref":"CEV-181","source":"Gerencia de Transporte Metropolitano de Trujillo","id":13546545216},"geometry":{"type":"Point","coordinates":[-79.0080925,-8.0993433]}},{"type":"Feature","properties":{"bus":"yes","highway":"bus_stop","network":"Transporte Público Urbano Trujillo","public_transport":"platform","ref":"CEV-180","source":"Gerencia de Transporte Metropolitano de Trujillo","id":13546546018},"geometry":{"type":"Point","coordinates":[-79.005462,-8.0962709]}},{"type":"Feature","properties":{"bus":"yes","highway":"bus_stop","network":"Transporte Público Urbano Trujillo","public_transport":"platform","ref":"CEV-188","source":"Gerencia de Transporte Metropolitano de Trujillo","id":13546545214},"geometry":{"type":"Point","coordinates":[-79.0026628,-8.0929774]}},{"type":"Feature","properties":{"bus":"yes","highway":"bus_stop","network":"Transporte Público Urbano Trujillo","public_transport":"platform","ref":"CEV-187","source":"Gerencia de Transporte Metropolitano de Trujillo","id":13546546013},"geometry":{"type":"Point","coordinates":[-78.9996426,-8.0893785]}},{"type":"Feature","properties":{"bus":"yes","highway":"bus_stop","network":"Transporte Público Urbano Trujillo","public_transport":"platform","ref":"PP-50","source":"Gerencia de Transporte Metropolitano de Trujillo","id":13546545431},"geometry":{"type":"Point","coordinates":[-79.0001625,-8.0842065]}},{"type":"Feature","properties":{"bus":"yes","highway":"bus_stop","network":"Transporte Público Urbano Trujillo","public_transport":"platform","ref":"PP-48","source":"Gerencia de Transporte Metropolitano de Trujillo","id":13546546209},"geometry":{"type":"Point","coordinates":[-78.9990939,-8.0815139]}},{"type":"Feature","properties":{"bus":"yes","highway":"bus_stop","network":"Transporte Público Urbano Trujillo","public_transport":"platform","ref":"PP-46","source":"Gerencia de Transporte Metropolitano de Trujillo","id":13546546211},"geometry":{"type":"Point","coordinates":[-78.9955326,-8.0831629]}},{"type":"Feature","properties":{"bus":"yes","highway":"bus_stop","network":"Transporte Público Urbano Trujillo","public_transport":"platform","ref":"PP-47","source":"Gerencia de Transporte Metropolitano de Trujillo","id":13546546210},"geometry":{"type":"Point","coordinates":[-78.9952695,-8.0834177]}}]}