{"type":"FeatureCollection","features":[{"type":"Feature","properties":{"check_date":"2025-12-14","colour":"#3399FF","colour:text":"#FFFFFF","fee":"yes","from":"Sector Nuevo Horizonte","hash":"20131","interval":"10","name":"Sector Nuevo Horizonte → Avenida 12 de Noviembre","network":"Transporte Público Urbano Trujillo","opening_hours":"Mo-Su 05:05-23:00","operator":"SALAVERRY EXPRESS S.A.","public_transport:version":"2","ref":"M-20 C","route":"bus","survey:avg_speed:kmh":"20","to":"Avenida 12 de Noviembre","type":"route","id":19962218},"geometry":{"type":"LineString","coordinates":[[-78.9703683,-8.219117],[-78.9708211,-8.2191297],[-78.9712898,-8.2191428],[-78.9717644,-8.2191561],[-78.9728394,-8.2200516],[-78.9734923,-8.2201825],[-78.9741671,-8.2203177],[-78.975436,-8.2205719],[-78.9758937,-8.2206637],[-78.9764521,-8.2207756],[-78.9769459,-8.2208745],[-78.9776165,-8.2210089],[-78.9774118,-8.2220154],[-78.9772117,-8.2229997],[-78.9771253,-8.2234242],[-78.9770017,-8.2240322],[-78.9763902,-8.2238812],[-78.9758699,-8.2237644],[-78.97527,-8.2236134],[-78.9746109,-8.2234509],[-78.9743869,-8.2233939],[-78.9743395,-8.2233608],[-78.9743333,-8.2233182],[-78.9743422,-8.2232467],[-78.9743829,-8.2227541],[-78.9744227,-8.2223946],[-78.9744867,-8.2221377],[-78.9745377,-8.2219997],[-78.9745913,-8.2218829],[-78.9748408,-8.2213944],[-78.9751513,-8.2209795],[-78.975436,-8.2205719],[-78.976072,-8.219761],[-78.9764716,-8.2192043],[-78.9766527,-8.2189128],[-78.9767707,-8.2187511],[-78.976884,-8.2186022],[-78.9770289,-8.2184217],[-78.9772797,-8.2181616],[-78.9774437,-8.2180522],[-78.9777733,-8.2178442],[-78.9778516,-8.217851],[-78.9782106,-8.2180951],[-78.9788032,-8.2182389],[-78.979316,-8.2183557],[-78.9795298,-8.2184043],[-78.9797014,-8.2175459],[-78.9797852,-8.2171111],[-78.9799703,-8.2162006],[-78.9801929,-8.215092],[-78.9802224,-8.2149449],[-78.9802392,-8.2148454],[-78.980537,-8.2133163],[-78.9807987,-8.2119677],[-78.9810173,-8.2108917],[-78.9812051,-8.2099957],[-78.981299,-8.2095511],[-78.9813631,-8.2092948],[-78.9814331,-8.20904],[-78.9814967,-8.2088257],[-78.9815645,-8.2086126],[-78.981657,-8.2083704],[-78.9817563,-8.2081308],[-78.9818534,-8.2079131],[-78.9819561,-8.2076981],[-78.9820986,-8.2074253],[-78.9822485,-8.2071565],[-78.9823765,-8.2069395],[-78.9825093,-8.2067253],[-78.9826468,-8.206514],[-78.9830238,-8.2059434],[-78.9833616,-8.2054322],[-78.9846725,-8.2034594],[-78.9869791,-8.1999879],[-78.9906696,-8.1944628],[-78.9931716,-8.1907209],[-78.993639,-8.1899218],[-78.9940644,-8.1888691],[-78.9961108,-8.1827121],[-78.9961332,-8.1826486],[-78.9964376,-8.1817493],[-78.9965298,-8.1813993],[-78.9966431,-8.1809689],[-78.9968062,-8.1801367],[-78.9968179,-8.1800771],[-78.9968487,-8.1797146],[-78.9968623,-8.1795198],[-78.9968946,-8.1790569],[-78.9968893,-8.1789395],[-78.9968825,-8.1787881],[-78.9968574,-8.1782308],[-78.9968426,-8.1779024],[-78.996813,-8.1773268],[-78.9967956,-8.1769885],[-78.9967874,-8.1768289],[-78.9967393,-8.1761906],[-78.9967147,-8.1760673],[-78.9966561,-8.1759163],[-78.996596,-8.1757826],[-78.9965544,-8.1757001],[-78.9963904,-8.1754456],[-78.9965864,-8.1752987],[-78.9966637,-8.1752397],[-78.9967693,-8.1751326],[-78.9969085,-8.1750045],[-78.9972067,-8.1747751],[-78.9979997,-8.1741648],[-78.9984757,-8.1737985],[-78.9990962,-8.173321],[-78.9993264,-8.1731438],[-79.0024901,-8.1707091],[-79.0030864,-8.1702502],[-79.0039627,-8.1695759],[-79.0041493,-8.1694343],[-79.0061704,-8.1679089],[-79.006278,-8.1678277],[-79.0062875,-8.1679141],[-79.0063934,-8.1680268],[-79.0064525,-8.1680983],[-79.0065733,-8.1683407],[-79.0067485,-8.1687794],[-79.0069187,-8.1692616],[-79.0070439,-8.1698871],[-79.0071594,-8.170442],[-79.007818,-8.1702926],[-79.0078485,-8.1702822],[-79.0083341,-8.1701587],[-79.0088223,-8.17005],[-79.0091795,-8.1699619],[-79.0093182,-8.1699286],[-79.0097803,-8.1698138],[-79.010259,-8.1696957],[-79.0108239,-8.1695564],[-79.0108041,-8.1694751],[-79.0106733,-8.1689204],[-79.0106358,-8.1687615],[-79.0105396,-8.1683534],[-79.0104151,-8.1678257],[-79.0103325,-8.1674754],[-79.010242,-8.1671169],[-79.0100509,-8.1663604],[-79.0100074,-8.1658849],[-79.0099999,-8.1658028],[-79.010031,-8.165466],[-79.0100867,-8.1650951],[-79.0101362,-8.1649203],[-79.0102101,-8.1646594],[-79.0102605,-8.1644945],[-79.0105413,-8.1635782],[-79.0104891,-8.1634637],[-79.0104425,-8.1634167],[-79.0104083,-8.1633988],[-79.0103598,-8.1633735],[-79.0102845,-8.1633341],[-79.0105712,-8.1628345],[-79.010879,-8.1623107],[-79.010925,-8.1622311],[-79.0111362,-8.1618604],[-79.0113964,-8.1613999],[-79.0115156,-8.1611902],[-79.0116554,-8.1609444],[-79.0117958,-8.1606966],[-79.0118954,-8.1604781],[-79.0119452,-8.1603371],[-79.0120221,-8.1600782],[-79.0120416,-8.1599615],[-79.0120672,-8.1598126],[-79.0120694,-8.1597513],[-79.0120915,-8.1591505],[-79.0120993,-8.1589398],[-79.0121476,-8.1579277],[-79.0121708,-8.157253],[-79.0122017,-8.1565004],[-79.0122484,-8.15513],[-79.0122754,-8.1543463],[-79.0122833,-8.1541153],[-79.0122746,-8.1539983],[-79.0122597,-8.1538993],[-79.0122367,-8.1537965],[-79.0121951,-8.1536643],[-79.0120601,-8.153278],[-79.01173,-8.152331],[-79.0116444,-8.1520797],[-79.0113438,-8.151192],[-79.0113118,-8.1510902],[-79.0112959,-8.1509934],[-79.011282,-8.1508986],[-79.0112745,-8.1507858],[-79.0112745,-8.1506574],[-79.0116041,-8.149193],[-79.0119253,-8.1476957],[-79.012092,-8.1469544],[-79.0126687,-8.1442104],[-79.012829,-8.1434806],[-79.0130075,-8.1426205],[-79.0130735,-8.1422899],[-79.01318,-8.1418282],[-79.0132921,-8.1415022],[-79.0133839,-8.1413095],[-79.0135221,-8.1410579],[-79.0136466,-8.1408771],[-79.0143929,-8.139793],[-79.0149323,-8.1390096],[-79.0153827,-8.1383654],[-79.0155019,-8.1382013],[-79.0155591,-8.1381267],[-79.0159313,-8.1376406],[-79.0160188,-8.137531],[-79.0160976,-8.1374322],[-79.0161099,-8.1374163],[-79.017034,-8.1362438],[-79.0171069,-8.136148],[-79.0176511,-8.1354601],[-79.0185059,-8.1343871],[-79.0185428,-8.1343409],[-79.0189848,-8.1337876],[-79.0203644,-8.1320606],[-79.0204851,-8.131888],[-79.020587,-8.1317207],[-79.0206429,-8.1315981],[-79.0206794,-8.131505],[-79.0207113,-8.1314102],[-79.0207389,-8.1313033],[-79.020749,-8.1312481],[-79.0207563,-8.1311925],[-79.0207616,-8.1311126],[-79.0207631,-8.1310298],[-79.0207199,-8.1309912],[-79.0206822,-8.1309473],[-79.0206506,-8.130899],[-79.0206289,-8.1308547],[-79.0206072,-8.1307892],[-79.0205961,-8.1307211],[-79.0205959,-8.1306522],[-79.0206066,-8.1305841],[-79.020628,-8.1305185],[-79.0206595,-8.130457],[-79.0206986,-8.1304032],[-79.0207455,-8.1303558],[-79.0207977,-8.1303169],[-79.0208551,-8.1302859],[-79.0209164,-8.1302637],[-79.0209805,-8.1302506],[-79.0210201,-8.1302196],[-79.0210566,-8.1301849],[-79.0210895,-8.130147],[-79.0211257,-8.1300949],[-79.0211516,-8.1300458],[-79.0211676,-8.130004],[-79.0212505,-8.1297668],[-79.02146,-8.1290409],[-79.0214866,-8.128956],[-79.0215762,-8.1286687],[-79.0216643,-8.1283869],[-79.0217822,-8.1280016],[-79.0225886,-8.1253608],[-79.0227545,-8.1247975],[-79.0228404,-8.1245386],[-79.0228833,-8.1243785],[-79.0228885,-8.1243003],[-79.0228724,-8.1242275],[-79.0228344,-8.1241327],[-79.022741,-8.1240583],[-79.0226643,-8.1239672],[-79.0226056,-8.1238588],[-79.0225705,-8.1237408],[-79.0225606,-8.1236181],[-79.0225722,-8.123515],[-79.0226016,-8.1234153],[-79.022648,-8.1233223],[-79.0226952,-8.1232558],[-79.0227511,-8.1231964],[-79.0228587,-8.1231167],[-79.0229815,-8.1230626],[-79.0230917,-8.123039],[-79.0232045,-8.123036],[-79.0233128,-8.1229743],[-79.0233921,-8.1228999],[-79.0234214,-8.1227846],[-79.0234892,-8.122541],[-79.0236536,-8.1219997],[-79.0239285,-8.1211052],[-79.024034,-8.1210924],[-79.024128,-8.1211151],[-79.0242543,-8.121118],[-79.024388,-8.1210583],[-79.0244861,-8.1209708],[-79.0247048,-8.1207735],[-79.026243,-8.1194835],[-79.0262945,-8.1195754],[-79.02675,-8.1200995],[-79.0269758,-8.1203911],[-79.0271493,-8.1205805],[-79.0274505,-8.1209684],[-79.0279792,-8.1216187],[-79.0280282,-8.1216881],[-79.0287122,-8.1225294],[-79.0292329,-8.1231862],[-79.029476,-8.1234899],[-79.0298135,-8.1240896],[-79.0299158,-8.1242754],[-79.0300479,-8.1245431],[-79.0302664,-8.1251244],[-79.0303297,-8.1253556],[-79.0303401,-8.1254206],[-79.0303961,-8.1256544],[-79.0304149,-8.1257712],[-79.030435,-8.1259199],[-79.030459,-8.1262506],[-79.0304876,-8.1263729],[-79.0305186,-8.1264378],[-79.0305729,-8.1264821],[-79.030639,-8.1265378],[-79.0306793,-8.1265602],[-79.0308824,-8.1266308],[-79.0312798,-8.1266427],[-79.0313489,-8.1266446],[-79.0314248,-8.126643],[-79.0316427,-8.1266384],[-79.0317584,-8.1266359],[-79.0318475,-8.126634],[-79.0324224,-8.1265738],[-79.0325012,-8.1265655],[-79.0325606,-8.1265526],[-79.0332446,-8.1264037],[-79.0336719,-8.1262955],[-79.0338764,-8.12625],[-79.0341083,-8.1261869],[-79.0347331,-8.1260008],[-79.0351652,-8.125843],[-79.0355916,-8.1256858],[-79.0356561,-8.1256593],[-79.0357152,-8.1256383],[-79.0372369,-8.1250281],[-79.0378356,-8.1247981],[-79.038187,-8.1246547],[-79.038264,-8.1246035],[-79.0383142,-8.1245389],[-79.038367,-8.1244667],[-79.0384302,-8.1244166],[-79.0384371,-8.1243765],[-79.038463,-8.124313],[-79.0384966,-8.1242677],[-79.038536,-8.1242334],[-79.0385888,-8.1242048],[-79.0386493,-8.1241891],[-79.038706,-8.124188],[-79.0387441,-8.1241943],[-79.038839,-8.1241058],[-79.0388887,-8.1240425],[-79.0389283,-8.1239512],[-79.03901,-8.1237057],[-79.0391151,-8.1233596],[-79.0395046,-8.1220377],[-79.0397143,-8.1213809],[-79.0399342,-8.1207167],[-79.0401837,-8.1199897],[-79.0401905,-8.1197994],[-79.0401213,-8.1197281],[-79.0400755,-8.1196403],[-79.0400607,-8.1195678],[-79.0400667,-8.1194449],[-79.0401045,-8.1193534],[-79.0400451,-8.1192498],[-79.0399962,-8.1191645],[-79.0394671,-8.118544],[-79.0390551,-8.1180608],[-79.0388246,-8.1177906],[-79.0387845,-8.1177436],[-79.0387142,-8.1176612],[-79.038664,-8.1176023],[-79.0380841,-8.1169223],[-79.0371954,-8.1158801],[-79.0370094,-8.115662],[-79.0362922,-8.114821],[-79.0355158,-8.1139106],[-79.0351644,-8.1134985],[-79.0348092,-8.1130819],[-79.0344451,-8.112655],[-79.0343702,-8.1125672],[-79.0343314,-8.1125216],[-79.0340297,-8.1121678],[-79.03382,-8.1119219],[-79.0337187,-8.1118031],[-79.0336301,-8.1116992],[-79.0337084,-8.1116264],[-79.0337971,-8.1117289],[-79.0338471,-8.1117867],[-79.0338941,-8.1118409],[-79.0344168,-8.1124444],[-79.0344644,-8.1124994],[-79.0350328,-8.1120842],[-79.0355967,-8.1116731],[-79.0356623,-8.1116252],[-79.0357221,-8.1115815],[-79.0361765,-8.1112501],[-79.0364574,-8.1110449],[-79.0375969,-8.1102125],[-79.0380075,-8.1099136],[-79.0374074,-8.1092113],[-79.0372848,-8.1090243],[-79.0371652,-8.1087894],[-79.03681,-8.107981],[-79.0364071,-8.1069687],[-79.0360915,-8.1062055],[-79.0360539,-8.1061816],[-79.0360018,-8.1061764],[-79.0359121,-8.1061977],[-79.0357432,-8.1062661],[-79.0350196,-8.1065542],[-79.0348029,-8.1066426],[-79.0346315,-8.1062338],[-79.034577,-8.106088],[-79.0344286,-8.1057476],[-79.034357,-8.1056272],[-79.0341,-8.1051369],[-79.0340465,-8.105045],[-79.033676,-8.1043483],[-79.0335809,-8.1041736],[-79.0334656,-8.1039459],[-79.0333407,-8.1037136],[-79.0329633,-8.1030211],[-79.0323119,-8.1033797],[-79.032176,-8.1034608],[-79.0319955,-8.103592],[-79.0316917,-8.1038627],[-79.0315993,-8.1039479],[-79.0315043,-8.1040276],[-79.0314491,-8.1040796],[-79.0312897,-8.1042196],[-79.0308953,-8.1045661],[-79.0307102,-8.1047298],[-79.0305189,-8.104899],[-79.0304199,-8.1049865],[-79.0303488,-8.1050494],[-79.0302807,-8.1051096],[-79.0302018,-8.1051818],[-79.0295367,-8.105815],[-79.0294939,-8.1058546],[-79.0294266,-8.1059207],[-79.029162,-8.1061833],[-79.0291237,-8.1062215],[-79.029054,-8.1062911],[-79.0290012,-8.1063452],[-79.0289329,-8.1062946],[-79.0288178,-8.1062442],[-79.0276528,-8.105793],[-79.0264143,-8.1052797],[-79.0263452,-8.1052471],[-79.0262985,-8.1052333],[-79.0262549,-8.1052344],[-79.0256988,-8.1053386],[-79.0256573,-8.1053476],[-79.0255672,-8.1053672],[-79.0255188,-8.1053011],[-79.0254751,-8.1052397],[-79.0253438,-8.1050722],[-79.0253274,-8.1050522],[-79.0247505,-8.1043546],[-79.0243689,-8.1038931],[-79.0242897,-8.1037973],[-79.0238307,-8.10322],[-79.0234782,-8.1036541],[-79.0233064,-8.1038659],[-79.0231329,-8.1040795],[-79.0230189,-8.1042198],[-79.0226939,-8.1048776],[-79.0225275,-8.1053827],[-79.0224401,-8.1057296],[-79.022375,-8.1059846],[-79.0222571,-8.1056613],[-79.0221262,-8.1053024],[-79.0220672,-8.1051855],[-79.0218968,-8.1049691],[-79.021793,-8.1048919],[-79.0207111,-8.1038019],[-79.0199025,-8.1029801],[-79.0196833,-8.1027717],[-79.0193687,-8.1024626],[-79.019025,-8.102128],[-79.018954,-8.1020598],[-79.0187438,-8.1018579],[-79.0182168,-8.1013517],[-79.0180677,-8.1011933],[-79.0174009,-8.1004853],[-79.0172467,-8.1002265],[-79.0169946,-8.0995992],[-79.0167316,-8.0989132],[-79.0162881,-8.0976544],[-79.0162565,-8.0975504],[-79.016003,-8.0967911],[-79.015943,-8.096628],[-79.0156579,-8.0958071],[-79.0152722,-8.0947979],[-79.0150811,-8.0942699],[-79.0150384,-8.094128],[-79.0151223,-8.0940819],[-79.0160225,-8.0934943],[-79.0166357,-8.0931125],[-79.0167318,-8.0930611],[-79.0168557,-8.0930063],[-79.0171148,-8.0929177],[-79.0180446,-8.0925975],[-79.0178589,-8.0922287],[-79.0173493,-8.0912864],[-79.0169836,-8.0905726],[-79.0163724,-8.0893798],[-79.0158902,-8.0884515],[-79.0155215,-8.0877463],[-79.0150788,-8.0869087],[-79.0150304,-8.0868171],[-79.014868,-8.0865099],[-79.0148513,-8.0864783],[-79.0146423,-8.0860829],[-79.014486,-8.0857489],[-79.01441,-8.0855002],[-79.0143955,-8.0854218],[-79.0144749,-8.0848127],[-79.0145293,-8.0843232],[-79.014529,-8.0842414],[-79.0145132,-8.0841762],[-79.0144744,-8.084101],[-79.011922,-8.0801336],[-79.0118664,-8.0800234],[-79.0118117,-8.0799069],[-79.0117749,-8.0797766],[-79.0118053,-8.0796437],[-79.0118518,-8.0795972],[-79.0119344,-8.0795821],[-79.0119819,-8.0795854],[-79.0123385,-8.0786755],[-79.012555,-8.0780643],[-79.0126242,-8.0778599],[-79.0124704,-8.0775386],[-79.0120414,-8.0766422],[-79.0119987,-8.0765589],[-79.0122553,-8.0764748],[-79.0125856,-8.0763666],[-79.0126767,-8.0763732],[-79.0128821,-8.0763106],[-79.0134606,-8.0761344],[-79.0139093,-8.0746436],[-79.0141434,-8.0738686],[-79.0140875,-8.0738369],[-79.0140313,-8.0738066],[-79.014201,-8.0732966],[-79.0142998,-8.0730043],[-79.0143956,-8.0727115],[-79.0144798,-8.0724686],[-79.014629,-8.0719598],[-79.0147061,-8.071536],[-79.0147872,-8.0710906],[-79.0148628,-8.0706756],[-79.0148716,-8.0706248],[-79.0149406,-8.0702483],[-79.0149573,-8.0701568],[-79.015031,-8.0697518],[-79.0151148,-8.0692916],[-79.0152718,-8.0685182],[-79.0153795,-8.0680579],[-79.0154674,-8.0676252],[-79.0155524,-8.067176],[-79.015644,-8.0667002],[-79.0157229,-8.066255],[-79.0159008,-8.0653463],[-79.0160047,-8.0648163],[-79.0161865,-8.0638877],[-79.0162741,-8.0634402],[-79.0163407,-8.0629742],[-79.016502,-8.0621616],[-79.0167864,-8.060748],[-79.0168422,-8.0604181],[-79.0169496,-8.0602653],[-79.0171704,-8.0601072],[-79.0182483,-8.0595036],[-79.0185753,-8.0593353],[-79.0193636,-8.0595381],[-79.0197909,-8.0596232],[-79.02019,-8.0596968],[-79.0206799,-8.0597881],[-79.0215529,-8.0599606],[-79.021591,-8.0599681],[-79.0220679,-8.0600652],[-79.0218415,-8.0612863],[-79.0217414,-8.0617274],[-79.0215797,-8.0626053],[-79.0215375,-8.0630419],[-79.0215196,-8.063148],[-79.0221675,-8.0632573],[-79.0226286,-8.0633489],[-79.0226358,-8.0634495],[-79.0225872,-8.0637159],[-79.0225101,-8.0637021]],"nodes":[4699230346,4699230345,4699230342,1098650846,1098638036,5390319915,1098606688,1098627175,1098600178,1098594731,1098583967,1098638862,1098605385,1098599097,10817247176,1098621818,1098631960,1098644247,1098587155,1098626261,11022980546,1098604815,11022980547,1098596732,5390065750,1098615954,3633583432,3633583433,3633583431,1098649810,5390039451,1098627175,1098645578,1098588635,11022903058,1098622621,11030592906,11030592907,5390095639,1098584738,5390152083,5390152082,5390152081,5390152080,11022903059,11022903064,1145579862,1145579834,1145579807,11022980552,1145579888,1145579822,1145579815,1145579855,1145579871,316491952,316491951,10904197155,316491950,10904197154,10904197156,10904197152,316491947,10904197151,10904197153,10904197149,10904197150,10904197148,10904197147,1145579849,10904197146,1145579824,11023002895,1145579856,12841015776,316491945,316491944,316491943,1145579885,12704097429,1145579874,13304406425,316491941,13304406423,316491940,316491938,13304406422,316491936,13304406420,5390456261,13304406419,1145579817,13304406418,13304406417,316491935,5072432971,1098583940,5072432970,316492402,316492403,316492404,1145579870,288406663,316257656,316264701,12077636348,11030073495,11030073488,11319862294,5037301938,8660514759,8660514760,3728277779,5072494783,13172466845,1093015489,1098595391,5465514966,1098599306,12068793056,1098593877,1098616425,1098622612,1098638853,12068808669,5465526567,1098584886,1098640476,5465519404,5465519405,1094849946,5465526576,1098598270,1098618076,5465526575,5465526614,5465526616,5465526574,5390643527,5465526566,5390643528,5465534818,5390643529,1098627246,1098606775,7112997209,5072444271,5467997270,5072444248,11030351651,11030351650,13137418277,5072444249,5072444250,1145579813,5072494785,5072494722,4858049420,4858050022,5072494659,4858049418,5072494657,316264696,1145579854,4858049416,316264694,11030326607,7113004005,11104988597,5072494723,5082686317,1145579825,1145579831,5082686315,13137419532,316264693,5072509547,316264692,1145579886,5072509545,5082686313,5467941865,5072509548,316264691,5072509549,5072509553,316264690,5072509551,316264689,1098604811,11028564810,11028473002,4858049408,334650026,334650028,5082686287,11028472995,316264686,11028617402,316264685,11028617397,11028625413,1098603712,5082686319,5473927283,11028573864,5082686318,11028573855,5082689982,5473927261,5082686320,5473927270,5082686256,5082686254,5082156673,5082689990,316264930,2549352845,316264929,8624588281,10823604381,2549352846,10823604379,10823604378,10823604380,10823604377,2549352825,316254532,10823604369,8624588278,5082434461,316254533,10823604370,1538275888,10823604371,316254534,320113110,316254535,5082434453,2549352808,10823604372,2549352804,316254536,10823604362,10823604361,2549352850,10823604360,10823604363,10823604359,1098640722,5082689991,11114421896,11114421898,1098619862,1098591271,1098586330,1050893960,1538275857,316254967,3670684015,3670684014,316254426,316254427,1098644892,3670684727,316254428,1098632617,316254429,6195970422,316265440,316261151,12566648306,316261163,316254431,2591061029,288406889,2892557355,316256326,4633970825,5082434175,1098622927,2618156487,5070377131,316256246,316256247,2618156489,316256248,1098634667,316260175,316260176,1098634502,316260177,11037678904,1098643105,1873564618,1098598795,1024375759,316265260,316265261,316265262,2606512423,1098631512,316265263,13086967433,316265264,2892557349,316265265,1098595664,316265266,1098629626,1098641228,5455991386,13086967446,1098603039,1098622755,11086134231,1098600368,11086134233,7115416189,7115416190,1098584061,11086134238,1098606184,11086134236,1098627329,5421654649,1098588879,1098645742,1098584460,9515118512,320114979,12216751842,316490371,1098618341,5478671387,316256479,2602828334,2602828325,11033416911,3728336241,3728336240,3728336238,3728336237,316254452,3728336235,1554831521,316254453,3728336234,316256749,11033416912,2602828378,1098613726,316256750,1098584320,1015366172,1015366101,316256751,316256699,316256700,2610169704,1098650539,2610169705,316256701,13084941046,316256780,1015366129,1015366163,13084941051,11037474039,1098622036,13084941050,1098643894,5066749588,1098621516,1024375972,11090514812,1024375803,1098608227,1098597256,5102092677,4633792102,1098633978,4633792015,4633792018,5052319279,5052319280,4633792017,1098623325,4633792016,4633792101,1098588989,5524404497,4633846702,1098593745,4633846699,4633846735,1098616952,1098633184,1272612887,5455887056,11037999557,5455887055,316489560,11033319454,1098584966,3743507195,3743507194,2587893403,4633926908,4633926911,2587893404,1098599301,3386747943,2587893364,11016702906,1088384617,4633926906,1098648906,1098598947,1098596851,11016689399,316265162,1098644803,1028959874,1028959886,1098631315,1098610269,4633875114,5051774261,11037884383,1098635948,5051840801,5051774256,4633875085,4633874459,2557538236,2557538234,4633875092,1098598866,4633875094,4633875109,4633875096,316264055,316264086,1088227246,4633875101,316488274,316264088,11016646711,11016646710,316264089,9829891083,13368738226,316488510,316488509,9829891085,2573525827,11016646714,5037697942,5079310738,9218464776,2481283834,11114349385,11114349376,12023652480,1287009757,1287009853,1287009730,1098597685,4633930962,10726871715,4633930964,5534116249,2481283985,7228981317,1098648344,1098620290,11037824753,9970317026,1051000272,5483337198,5475283795,1098586441,5483337195,5079131743,11037703293,5483054125,1098628991,1098619287,1098607852,5432184380,5098557135,1098595542,1098602620,1098607308,1098618318,5089097714,5483053644,5432184386,11030636671,5432184385,5483053646,5054197902,5483053648,5054197904,11030668416,5054197905,5054197898,5054197899,5054197900,11028313559,11028313556,5054197907,5054197908,5098491444,10735702893,5098491445,5098491446,5098491447,5483115166,5098491448,5098491449,5099297821,5099297620,11027919241,11027919242,5467693710,11027919240,5467693699,5458516819,5467693696,1098614113,1098599180,10735238017,1098597219,10735245231,13471734796,10735245232,1098606192,5458516815,1098621273,3265928243,3265928242,13379207863,5086595831,5086595832,4442753387,3218747223,3218747214,3218747209,1098632987,1098587277,1098590802,11023201922,11023201920,1098617879,1098597758,1098634877,1098639585,1098624345,1098634626,1098595130,1098584524,5453873208,5483458648,1098603559,1098585633,1098596375,5483458653,1098648159,1098598350,2589604601,2589604602,2589604603,2503344304,1098647414,3271162587,1098602444,1098595450,1098625550,8737611094,1098615080,5456236181,1098591439,1098598438,1098634159,13381640382,4438560864,11812523501,11812523500,11030430160,11794015160,11794015159]},"gtfs":{"agency_id":6,"route_id":17,"services":[{"service_id":"Mo-Su","startTime":"05:05","endTime":"23:00","trip_id":19962218}],"filteredStops":{"nodes":[4699230346,13546546080,13546545281,13546545288,13546545278,13546546078,12121157807,13546545277,13546545343,13546545342,13546546105,13546546106,13546545333,13546546110,13546546112,13546546117,12121157801,13546546090,13546546103,13546545325,13546545332,13546546109,13546545298,13546545338,5082686253,13546546120,13546545143,13546545942,13546545940,13546545922,13546545945,13546546005,13546546007,11910359976,13546546047,5067622117,13546546050,13546545952,13546545151,13546545953,13546545947,11910518831,13546545960,13546545881,11910518834,13546545249,13546545132,13546545931,13546545930,11895957224,13546545112,13546546066,13546545874,13546535059,13546545120,13546545918,13546545453,13546545597,13546545451,13546545805,13546545804,13546546407,13546545847,11794015159],"coordinates":[[-78.9703683,-8.219117],[-78.9714552,-8.2191521],[-78.973959,-8.2202604],[-78.9743363,-8.2229612],[-78.980826,-8.2114573],[-78.9816996,-8.2079615],[-78.984132,-8.2042044],[-78.9855134,-8.2021158],[-78.9952018,-8.1853436],[-78.9962412,-8.1822015],[-78.9965678,-8.1758114],[-78.9966442,-8.1750777],[-78.9988574,-8.1734734],[-79.0060541,-8.1678853],[-79.0069362,-8.1691962],[-79.0096191,-8.169849],[-79.0107644,-8.1694508],[-79.0116043,-8.1608797],[-79.0121467,-8.1564809],[-79.0118688,-8.1528574],[-79.0116854,-8.1487098],[-79.0125973,-8.1442256],[-79.0142003,-8.1399451],[-79.0164493,-8.1369074],[-79.0190363,-8.1336578],[-79.0204793,-8.1317103],[-79.0213849,-8.1292768],[-79.0221161,-8.1268947],[-79.0228417,-8.1243768],[-79.0234629,-8.1224238],[-79.0264409,-8.1195518],[-79.0265009,-8.1197406],[-79.0303192,-8.1250829],[-79.0311411,-8.1265956],[-79.0342673,-8.1260536],[-79.0376674,-8.1247917],[-79.0390245,-8.1235198],[-79.0389756,-8.1180374],[-79.0368006,-8.115515],[-79.0350377,-8.113532],[-79.033657,-8.1117328],[-79.034349,-8.1123007],[-79.0366373,-8.1109036],[-79.0367121,-8.107821],[-79.0360898,-8.1062889],[-79.033823,-8.1047949],[-79.032495,-8.1033444],[-79.030599,-8.1049436],[-79.0293947,-8.1060629],[-79.0277112,-8.105858],[-79.0250005,-8.1046834],[-79.0225037,-8.1058026],[-79.0183817,-8.1015623],[-79.017093,-8.099926],[-79.0167158,-8.090294],[-79.015359,-8.0876677],[-79.0122625,-8.0771916],[-79.0136748,-8.0753421],[-79.0146,-8.0717816],[-79.0154661,-8.0674093],[-79.0161769,-8.0636731],[-79.0196195,-8.0595649],[-79.021694,-8.0622371],[-79.0225101,-8.0637021]]}}},{"type":"Feature","properties":{"bus":"yes","highway":"bus_stop","network":"Transporte Público Urbano Trujillo","public_transport":"platform","ref":"PS-44","source":"Gerencia de Transporte Metropolitano de Trujillo","id":13546546080},"geometry":{"type":"Point","coordinates":[-78.9714552,-8.2191521]}},{"type":"Feature","properties":{"bus":"yes","highway":"bus_stop","network":"Transporte Público Urbano Trujillo","public_transport":"platform","ref":"PS-45","source":"Gerencia de Transporte Metropolitano de Trujillo","id":13546545281},"geometry":{"type":"Point","coordinates":[-78.973959,-8.2202604]}},{"type":"Feature","properties":{"bus":"yes","highway":"bus_stop","network":"Transporte Público Urbano Trujillo","public_transport":"platform","ref":"PS-25","source":"Gerencia de Transporte Metropolitano de Trujillo","id":13546545288},"geometry":{"type":"Point","coordinates":[-78.9743363,-8.2229612]}},{"type":"Feature","properties":{"bus":"yes","highway":"bus_stop","network":"Transporte Público Urbano Trujillo","public_transport":"platform","ref":"PS-50","source":"Gerencia de Transporte Metropolitano de Trujillo","id":13546545278},"geometry":{"type":"Point","coordinates":[-78.980826,-8.2114573]}},{"type":"Feature","properties":{"bus":"yes","highway":"bus_stop","network":"Transporte Público Urbano Trujillo","public_transport":"platform","ref":"PS-51","source":"Gerencia de Transporte Metropolitano de Trujillo","id":13546546078},"geometry":{"type":"Point","coordinates":[-78.9816996,-8.2079615]}},{"type":"Feature","properties":{"advertising":"no","bench":"yes","bicycle_parking":"no","bin":"no","bus":"yes","departures_board":"no","highway":"bus_stop","level":"0","lit":"yes","name":"Avenida de La Marina","network":"Transporte Público Urbano Trujillo","passenger_information_display:speech_output":"no","pole":"no","public_transport":"platform","ramp":"no","ref":"PS-52","shelter":"yes","source:ref":"Gerencia de Transporte Metropolitano de Trujillo","tactile_paving":"no","tactile_writing:braille:es":"no","id":12121157807},"geometry":{"type":"Point","coordinates":[-78.984132,-8.2042044]}},{"type":"Feature","properties":{"bus":"yes","highway":"bus_stop","network":"Transporte Público Urbano Trujillo","public_transport":"platform","ref":"PS-53","source":"Gerencia de Transporte Metropolitano de Trujillo","id":13546545277},"geometry":{"type":"Point","coordinates":[-78.9855134,-8.2021158]}},{"type":"Feature","properties":{"bus":"yes","highway":"bus_stop","network":"Transporte Público Urbano Trujillo","public_transport":"platform","ref":"PM-109","source":"Gerencia de Transporte Metropolitano de Trujillo","id":13546545343},"geometry":{"type":"Point","coordinates":[-78.9952018,-8.1853436]}},{"type":"Feature","properties":{"bus":"yes","highway":"bus_stop","network":"Transporte Público Urbano Trujillo","public_transport":"platform","ref":"PM-110","source":"Gerencia de Transporte Metropolitano de Trujillo","id":13546545342},"geometry":{"type":"Point","coordinates":[-78.9962412,-8.1822015]}},{"type":"Feature","properties":{"bus":"yes","highway":"bus_stop","network":"Transporte Público Urbano Trujillo","public_transport":"platform","ref":"PM-37","source":"Gerencia de Transporte Metropolitano de Trujillo","id":13546546105},"geometry":{"type":"Point","coordinates":[-78.9965678,-8.1758114]}},{"type":"Feature","properties":{"bus":"yes","highway":"bus_stop","network":"Transporte Público Urbano Trujillo","public_transport":"platform","ref":"PM-36","source":"Gerencia de Transporte Metropolitano de Trujillo","id":13546546106},"geometry":{"type":"Point","coordinates":[-78.9966442,-8.1750777]}},{"type":"Feature","properties":{"bus":"yes","highway":"bus_stop","network":"Transporte Público Urbano Trujillo","public_transport":"platform","ref":"PM-26","source":"Gerencia de Transporte Metropolitano de Trujillo","id":13546545333},"geometry":{"type":"Point","coordinates":[-78.9988574,-8.1734734]}},{"type":"Feature","properties":{"bus":"yes","highway":"bus_stop","network":"Transporte Público Urbano Trujillo","public_transport":"platform","ref":"PM-24","source":"Gerencia de Transporte Metropolitano de Trujillo","id":13546546110},"geometry":{"type":"Point","coordinates":[-79.0060541,-8.1678853]}},{"type":"Feature","properties":{"bus":"yes","highway":"bus_stop","network":"Transporte Público Urbano Trujillo","public_transport":"platform","ref":"PM-22","source":"Gerencia de Transporte Metropolitano de Trujillo","id":13546546112},"geometry":{"type":"Point","coordinates":[-79.0069362,-8.1691962]}},{"type":"Feature","properties":{"bus":"yes","highway":"bus_stop","network":"Transporte Público Urbano Trujillo","public_transport":"platform","ref":"PM-17","source":"Gerencia de Transporte Metropolitano de Trujillo","id":13546546117},"geometry":{"type":"Point","coordinates":[-79.0096191,-8.169849]}},{"type":"Feature","properties":{"advertising":"no","bench":"yes","bicycle_parking":"no","bin":"yes","bus":"yes","departures_board":"no","highway":"bus_stop","level":"0","lit":"yes","name":"Jirón José Galvez","network":"Transporte Público Urbano Trujillo","passenger_information_display:speech_output":"no","pole":"no","public_transport":"platform","ramp":"yes","ref":"PM-7","shelter":"yes","source:ref":"Gerencia de Transporte Metropolitano de Trujillo","tactile_paving":"no","tactile_writing:braille:es":"no","id":12121157801},"geometry":{"type":"Point","coordinates":[-79.0107644,-8.1694508]}},{"type":"Feature","properties":{"bus":"yes","highway":"bus_stop","network":"Transporte Público Urbano Trujillo","public_transport":"platform","ref":"PM-9","source":"Gerencia de Transporte Metropolitano de Trujillo","id":13546546090},"geometry":{"type":"Point","coordinates":[-79.0116043,-8.1608797]}},{"type":"Feature","properties":{"bus":"yes","highway":"bus_stop","network":"Transporte Público Urbano Trujillo","public_transport":"platform","ref":"PM-41","source":"Gerencia de Transporte Metropolitano de Trujillo","id":13546546103},"geometry":{"type":"Point","coordinates":[-79.0121467,-8.1564809]}},{"type":"Feature","properties":{"bus":"yes","highway":"bus_stop","network":"Transporte Público Urbano Trujillo","public_transport":"platform","ref":"PM-40","source":"Gerencia de Transporte Metropolitano de Trujillo","id":13546545325},"geometry":{"type":"Point","coordinates":[-79.0118688,-8.1528574]}},{"type":"Feature","properties":{"bus":"yes","highway":"bus_stop","network":"Transporte Público Urbano Trujillo","public_transport":"platform","ref":"PM-28","source":"Gerencia de Transporte Metropolitano de Trujillo","id":13546545332},"geometry":{"type":"Point","coordinates":[-79.0116854,-8.1487098]}},{"type":"Feature","properties":{"bus":"yes","highway":"bus_stop","network":"Transporte Público Urbano Trujillo","public_transport":"platform","ref":"PM-27","source":"Gerencia de Transporte Metropolitano de Trujillo","id":13546546109},"geometry":{"type":"Point","coordinates":[-79.0125973,-8.1442256]}},{"type":"Feature","properties":{"bus":"yes","highway":"bus_stop","network":"Transporte Público Urbano Trujillo","public_transport":"platform","ref":"PM-SC-01","source":"Gerencia de Transporte Metropolitano de Trujillo","id":13546545298},"geometry":{"type":"Point","coordinates":[-79.0142003,-8.1399451]}},{"type":"Feature","properties":{"bus":"yes","highway":"bus_stop","network":"Transporte Público Urbano Trujillo","public_transport":"platform","ref":"PM-122","source":"Gerencia de Transporte Metropolitano de Trujillo","id":13546545338},"geometry":{"type":"Point","coordinates":[-79.0164493,-8.1369074]}},{"type":"Feature","properties":{"advertising":"no","bench":"yes","bicycle_parking":"no","bin":"no","bus":"yes","departures_board":"no","highway":"bus_stop","level":"0","lit":"no","name":"Panamericana Norte","network":"Transporte Público Urbano Trujillo","passenger_information_display:speech_output":"no","public_transport":"platform","ramp":"no","ref":"PM-121","shelter":"yes","source":"Reconocimiento terrestre cartográfico realizado por Kaart en 2017","tactile_paving":"no","tactile_writing:braille:es":"no","id":5082686253},"geometry":{"type":"Point","coordinates":[-79.0190363,-8.1336578]}},{"type":"Feature","properties":{"bus":"yes","highway":"bus_stop","network":"Transporte Público Urbano Trujillo","public_transport":"platform","ref":"PM-120","source":"Gerencia de Transporte Metropolitano de Trujillo","id":13546546120},"geometry":{"type":"Point","coordinates":[-79.0204793,-8.1317103]}},{"type":"Feature","properties":{"bus":"yes","highway":"bus_stop","network":"Transporte Público Urbano Trujillo","public_transport":"platform","ref":"LAM-416","source":"Gerencia de Transporte Metropolitano de Trujillo","id":13546545143},"geometry":{"type":"Point","coordinates":[-79.0213849,-8.1292768]}},{"type":"Feature","properties":{"bus":"yes","highway":"bus_stop","network":"Transporte Público Urbano Trujillo","public_transport":"platform","ref":"LAM-412","source":"Gerencia de Transporte Metropolitano de Trujillo","id":13546545942},"geometry":{"type":"Point","coordinates":[-79.0221161,-8.1268947]}},{"type":"Feature","properties":{"bus":"yes","highway":"bus_stop","network":"Transporte Público Urbano Trujillo","public_transport":"platform","ref":"LAM-414","source":"Gerencia de Transporte Metropolitano de Trujillo","id":13546545940},"geometry":{"type":"Point","coordinates":[-79.0228417,-8.1243768]}},{"type":"Feature","properties":{"bus":"yes","highway":"bus_stop","network":"Transporte Público Urbano Trujillo","public_transport":"platform","ref":"MO-418","source":"Gerencia de Transporte Metropolitano de Trujillo","id":13546545922},"geometry":{"type":"Point","coordinates":[-79.0234629,-8.1224238]}},{"type":"Feature","properties":{"bus":"yes","highway":"bus_stop","network":"Transporte Público Urbano Trujillo","public_transport":"platform","ref":"JUL-435","source":"Gerencia de Transporte Metropolitano de Trujillo","id":13546545945},"geometry":{"type":"Point","coordinates":[-79.0264409,-8.1195518]}},{"type":"Feature","properties":{"bus":"yes","highway":"bus_stop","network":"Transporte Público Urbano Trujillo","public_transport":"platform","ref":"COSR-336","source":"Gerencia de Transporte Metropolitano de Trujillo","id":13546546005},"geometry":{"type":"Point","coordinates":[-79.0265009,-8.1197406]}},{"type":"Feature","properties":{"bus":"yes","highway":"bus_stop","network":"Transporte Público Urbano Trujillo","public_transport":"platform","ref":"COSR-333","source":"Gerencia de Transporte Metropolitano de Trujillo","id":13546546007},"geometry":{"type":"Point","coordinates":[-79.0303192,-8.1250829]}},{"type":"Feature","properties":{"advertising":"yes","bench":"yes","bicycle_parking":"no","bin":"no","bus":"yes","departures_board":"no","highway":"bus_stop","level":"0","lit":"yes","name":"Calle Australia","network":"Transporte Público Urbano Trujillo","passenger_information_display:speech_output":"no","pole":"yes","public_transport":"platform","ramp":"no","ref":"AMS-50","shelter":"yes","source:ref":"Gerencia de Transporte Metropolitano de Trujillo","tactile_paving":"no","tactile_writing:braille:es":"no","id":11910359976},"geometry":{"type":"Point","coordinates":[-79.0311411,-8.1265956]}},{"type":"Feature","properties":{"bus":"yes","highway":"bus_stop","network":"Transporte Público Urbano Trujillo","public_transport":"platform","ref":"AMS-48","source":"Gerencia de Transporte Metropolitano de Trujillo","id":13546546047},"geometry":{"type":"Point","coordinates":[-79.0342673,-8.1260536]}},{"type":"Feature","properties":{"advertising":"no","bench":"no","bicycle_parking":"no","bin":"no","bus":"yes","departures_board":"no","highway":"bus_stop","level":"0","lit":"yes","name":"Avenida Victor Larco Herrera","network":"Transporte Público Urbano Trujillo","passenger_information_display:speech_output":"no","pole":"yes","public_transport":"platform","ramp":"no","ref":"AMS-47","shelter":"no","source":"Kaart Ground Survey","tactile_paving":"no","tactile_writing:braille:es":"no","id":5067622117},"geometry":{"type":"Point","coordinates":[-79.0376674,-8.1247917]}},{"type":"Feature","properties":{"bus":"yes","highway":"bus_stop","network":"Transporte Público Urbano Trujillo","public_transport":"platform","ref":"AMS-44","source":"Gerencia de Transporte Metropolitano de Trujillo","id":13546546050},"geometry":{"type":"Point","coordinates":[-79.0390245,-8.1235198]}},{"type":"Feature","properties":{"bus":"yes","highway":"bus_stop","network":"Transporte Público Urbano Trujillo","public_transport":"platform","ref":"JPT-130","source":"Gerencia de Transporte Metropolitano de Trujillo","id":13546545952},"geometry":{"type":"Point","coordinates":[-79.0389756,-8.1180374]}},{"type":"Feature","properties":{"bus":"yes","highway":"bus_stop","network":"Transporte Público Urbano Trujillo","public_transport":"platform","ref":"JPT-128","source":"Gerencia de Transporte Metropolitano de Trujillo","id":13546545151},"geometry":{"type":"Point","coordinates":[-79.0368006,-8.115515]}},{"type":"Feature","properties":{"bus":"yes","highway":"bus_stop","network":"Transporte Público Urbano Trujillo","public_transport":"platform","ref":"JPT-129","source":"Gerencia de Transporte Metropolitano de Trujillo","id":13546545953},"geometry":{"type":"Point","coordinates":[-79.0350377,-8.113532]}},{"type":"Feature","properties":{"bus":"yes","highway":"bus_stop","network":"Transporte Público Urbano Trujillo","public_transport":"platform","ref":"JPT-137","source":"Gerencia de Transporte Metropolitano de Trujillo","id":13546545947},"geometry":{"type":"Point","coordinates":[-79.033657,-8.1117328]}},{"type":"Feature","properties":{"advertising":"yes","bench":"yes","bicycle_parking":"no","bin":"no","bus":"yes","departures_board":"yes","highway":"bus_stop","level":"0","lit":"yes","name":"Avenida Jesús de Nazareth","network":"Transporte Público Urbano Trujillo","passenger_information_display:speech_output":"no","public_transport":"platform","ramp":"no","ref":"JPT-138","shelter":"yes","source:ref":"Gerencia de Transporte Metropolitano de Trujillo","tactile_paving":"no","tactile_writing:braille:es":"no","id":11910518831},"geometry":{"type":"Point","coordinates":[-79.034349,-8.1123007]}},{"type":"Feature","properties":{"bus":"yes","highway":"bus_stop","network":"Transporte Público Urbano Trujillo","public_transport":"platform","ref":"JEN-142","source":"Gerencia de Transporte Metropolitano de Trujillo","id":13546545960},"geometry":{"type":"Point","coordinates":[-79.0366373,-8.1109036]}},{"type":"Feature","properties":{"bus":"yes","highway":"bus_stop","network":"Transporte Público Urbano Trujillo","public_transport":"platform","ref":"ROM-371","source":"Gerencia de Transporte Metropolitano de Trujillo","id":13546545881},"geometry":{"type":"Point","coordinates":[-79.0367121,-8.107821]}},{"type":"Feature","properties":{"advertising":"no","bench":"no","bicycle_parking":"no","bin":"no","bus":"yes","departures_board":"no","highway":"bus_stop","level":"0","lit":"yes","name":"Calle Salaverry","network":"Transporte Público Urbano Trujillo","passenger_information_display:speech_output":"no","pole":"yes","public_transport":"platform","ramp":"no","ref":"ROM-369","shelter":"no","source:ref":"Gerencia de Transporte Metropolitano de Trujillo","tactile_paving":"no","tactile_writing:braille:es":"no","id":11910518834},"geometry":{"type":"Point","coordinates":[-79.0360898,-8.1062889]}},{"type":"Feature","properties":{"bus":"yes","highway":"bus_stop","network":"Transporte Público Urbano Trujillo","public_transport":"platform","ref":"AMN-28","source":"Gerencia de Transporte Metropolitano de Trujillo","id":13546545249},"geometry":{"type":"Point","coordinates":[-79.033823,-8.1047949]}},{"type":"Feature","properties":{"bus":"yes","highway":"bus_stop","network":"Transporte Público Urbano Trujillo","public_transport":"platform","ref":"MAVE-354","source":"Gerencia de Transporte Metropolitano de Trujillo","id":13546545132},"geometry":{"type":"Point","coordinates":[-79.032495,-8.1033444]}},{"type":"Feature","properties":{"bus":"yes","highway":"bus_stop","network":"Transporte Público Urbano Trujillo","public_transport":"platform","ref":"MAVE-356","source":"Gerencia de Transporte Metropolitano de Trujillo","id":13546545931},"geometry":{"type":"Point","coordinates":[-79.030599,-8.1049436]}},{"type":"Feature","properties":{"bus":"yes","highway":"bus_stop","network":"Transporte Público Urbano Trujillo","public_transport":"platform","ref":"MAVE-357","source":"Gerencia de Transporte Metropolitano de Trujillo","id":13546545930},"geometry":{"type":"Point","coordinates":[-79.0293947,-8.1060629]}},{"type":"Feature","properties":{"advertising":"no","bench":"no","bicycle_parking":"no","bin":"no","bus":"yes","departures_board":"no","highway":"bus_stop","level":"0","lit":"yes","name":"Jirón Estete","network":"Transporte Público Urbano Trujillo","passenger_information_display:speech_output":"no","pole":"yes","public_transport":"platform","ramp":"no","ref":"ESP-15","shelter":"no","source:ref":"Gerencia de Transporte Metropolitano de Trujillo","tactile_paving":"no","tactile_writing:braille:es":"no","id":11895957224},"geometry":{"type":"Point","coordinates":[-79.0277112,-8.105858]}},{"type":"Feature","properties":{"bus":"yes","highway":"bus_stop","network":"Transporte Público Urbano Trujillo","public_transport":"platform","ref":"MRFT-166","source":"Gerencia de Transporte Metropolitano de Trujillo","id":13546545112},"geometry":{"type":"Point","coordinates":[-79.0250005,-8.1046834]}},{"type":"Feature","properties":{"bus":"yes","highway":"bus_stop","network":"Transporte Público Urbano Trujillo","public_transport":"platform","ref":"AMA-462","source":"Gerencia de Transporte Metropolitano de Trujillo","id":13546546066},"geometry":{"type":"Point","coordinates":[-79.0225037,-8.1058026]}},{"type":"Feature","properties":{"bus":"yes","highway":"bus_stop","network":"Transporte Público Urbano Trujillo","public_transport":"platform","ref":"SAN-270","source":"Gerencia de Transporte Metropolitano de Trujillo","id":13546545874},"geometry":{"type":"Point","coordinates":[-79.0183817,-8.1015623]}},{"type":"Feature","properties":{"bus":"yes","highway":"bus_stop","network":"Transporte Público Urbano Trujillo","public_transport":"platform","ref":"SAN-268","source":"Gerencia de Transporte Metropolitano de Trujillo","id":13546535059},"geometry":{"type":"Point","coordinates":[-79.017093,-8.099926]}},{"type":"Feature","properties":{"bus":"yes","highway":"bus_stop","network":"Transporte Público Urbano Trujillo","public_transport":"platform","ref":"MRFT-154","source":"Gerencia de Transporte Metropolitano de Trujillo","id":13546545120},"geometry":{"type":"Point","coordinates":[-79.0167158,-8.090294]}},{"type":"Feature","properties":{"bus":"yes","highway":"bus_stop","network":"Transporte Público Urbano Trujillo","public_transport":"platform","ref":"MRFT-152","source":"Gerencia de Transporte Metropolitano de Trujillo","id":13546545918},"geometry":{"type":"Point","coordinates":[-79.015359,-8.0876677]}},{"type":"Feature","properties":{"bus":"yes","highway":"bus_stop","network":"Transporte Público Urbano Trujillo","public_transport":"platform","ref":"PP-178","source":"Gerencia de Transporte Metropolitano de Trujillo","id":13546545453},"geometry":{"type":"Point","coordinates":[-79.0122625,-8.0771916]}},{"type":"Feature","properties":{"bus":"yes","highway":"bus_stop","network":"Transporte Público Urbano Trujillo","public_transport":"platform","ref":"PFM-22","source":"Gerencia de Transporte Metropolitano de Trujillo","id":13546545597},"geometry":{"type":"Point","coordinates":[-79.0136748,-8.0753421]}},{"type":"Feature","properties":{"bus":"yes","highway":"bus_stop","network":"Transporte Público Urbano Trujillo","public_transport":"platform","ref":"PP-181","source":"Gerencia de Transporte Metropolitano de Trujillo","id":13546545451},"geometry":{"type":"Point","coordinates":[-79.0146,-8.0717816]}},{"type":"Feature","properties":{"bus":"yes","highway":"bus_stop","network":"Transporte Público Urbano Trujillo","public_transport":"platform","ref":"PAT-70","source":"Gerencia de Transporte Metropolitano de Trujillo","id":13546545805},"geometry":{"type":"Point","coordinates":[-79.0154661,-8.0674093]}},{"type":"Feature","properties":{"bus":"yes","highway":"bus_stop","network":"Transporte Público Urbano Trujillo","public_transport":"platform","ref":"PAT-71","source":"Gerencia de Transporte Metropolitano de Trujillo","id":13546545804},"geometry":{"type":"Point","coordinates":[-79.0161769,-8.0636731]}},{"type":"Feature","properties":{"bus":"yes","highway":"bus_stop","network":"Transporte Público Urbano Trujillo","public_transport":"platform","ref":"PAT-128","source":"Gerencia de Transporte Metropolitano de Trujillo","id":13546546407},"geometry":{"type":"Point","coordinates":[-79.0196195,-8.0595649]}},{"type":"Feature","properties":{"bus":"yes","highway":"bus_stop","network":"Transporte Público Urbano Trujillo","public_transport":"platform","ref":"PAT-120","source":"Gerencia de Transporte Metropolitano de Trujillo","id":13546545847},"geometry":{"type":"Point","coordinates":[-79.021694,-8.0622371]}}]}