{"type":"FeatureCollection","features":[{"type":"Feature","properties":{"check_date":"2025-12-16","colour":"#00cc00","colour:text":"#000000","fee":"yes","from":"Calle de los Jasmines","hash":"13001","interval":"4","name":"Calle de los Jasmines → Calle Santa Rosa","network":"Transporte Público Urbano Trujillo","opening_hours":"Mo-Su 05:00-23:00","operator":"NUEVOS GIRASOLES S.A.","public_transport:version":"2","ref":"C-03 JJ","route":"bus","survey:avg_speed:kmh":"20","to":"Calle Santa Rosa","type":"route","id":19966201},"geometry":{"type":"LineString","coordinates":[[-79.0798396,-8.0638379],[-79.0796605,-8.063937],[-79.0796247,-8.0639563],[-79.0792851,-8.0641392],[-79.0789518,-8.0643186],[-79.0781666,-8.0647414],[-79.077621,-8.0651555],[-79.0772757,-8.0655129],[-79.0767571,-8.0660218],[-79.0762708,-8.0665166],[-79.0758559,-8.0669479],[-79.0752487,-8.0675291],[-79.0747241,-8.068047],[-79.0738321,-8.0690041],[-79.0736994,-8.0691464],[-79.0730694,-8.0688503],[-79.0721913,-8.069197],[-79.0714335,-8.0694991],[-79.0710813,-8.0696348],[-79.0706445,-8.069803],[-79.070147,-8.0700063],[-79.0697257,-8.0701784],[-79.0693521,-8.0703188],[-79.069068,-8.070442],[-79.0690187,-8.0704677],[-79.0686826,-8.0705967],[-79.0682659,-8.070764],[-79.0674019,-8.0711108],[-79.0672801,-8.0711634],[-79.0660402,-8.0716442],[-79.0656372,-8.0718127],[-79.0653121,-8.0719531],[-79.0652698,-8.0719689],[-79.0648489,-8.0721258],[-79.064482,-8.0722737],[-79.0642342,-8.071714],[-79.0640303,-8.0712487],[-79.0636564,-8.0713797],[-79.063502,-8.0713596],[-79.0633637,-8.0713153],[-79.062893,-8.0711516],[-79.0627281,-8.0715956],[-79.0627226,-8.0716105],[-79.0626625,-8.0717734],[-79.0621485,-8.0731655],[-79.0620366,-8.0731569],[-79.061548,-8.0730031],[-79.061128,-8.0728436],[-79.0609356,-8.0727709],[-79.0607431,-8.0726981],[-79.0598878,-8.0723855],[-79.0594784,-8.0722233],[-79.0590064,-8.0720502],[-79.0588155,-8.0725621],[-79.0583698,-8.0737621],[-79.0582435,-8.0741153],[-79.05794,-8.0749203],[-79.0577876,-8.0748562],[-79.0573027,-8.0746712],[-79.0571406,-8.0751515],[-79.0569641,-8.0756516],[-79.0565641,-8.076698],[-79.0561655,-8.0776781],[-79.0557121,-8.078793],[-79.0555075,-8.079322],[-79.0550097,-8.0804514],[-79.0545669,-8.081426],[-79.0545768,-8.0815186],[-79.0544039,-8.0815118],[-79.0543811,-8.0820589],[-79.0537439,-8.0820438],[-79.0536371,-8.0820547],[-79.0535306,-8.0820753],[-79.0534312,-8.0820985],[-79.0530805,-8.0821878],[-79.0527771,-8.082206],[-79.0523455,-8.0822081],[-79.0516537,-8.0822073],[-79.0514267,-8.0822024],[-79.0506806,-8.0821864],[-79.0488843,-8.082152],[-79.048792,-8.0821392],[-79.0487485,-8.0821266],[-79.048707,-8.0821101],[-79.0482556,-8.0818885],[-79.0477633,-8.0816635],[-79.047708,-8.0816392],[-79.0476525,-8.0816129],[-79.0470034,-8.0812996],[-79.0468432,-8.0812317],[-79.0463039,-8.0809971],[-79.0458242,-8.0807869],[-79.045655,-8.0807155],[-79.0455892,-8.0806877],[-79.0453363,-8.0812496],[-79.0451935,-8.0815657],[-79.045093,-8.0817882],[-79.0448798,-8.08226],[-79.0445772,-8.0829324],[-79.0443502,-8.083432],[-79.0439431,-8.0843346],[-79.0435823,-8.0851342],[-79.043486,-8.0853351],[-79.0433957,-8.0855477],[-79.0433473,-8.0856513],[-79.0429077,-8.0866242],[-79.0428685,-8.0867206],[-79.0424153,-8.0877227],[-79.0423607,-8.0878348],[-79.0419632,-8.0887144],[-79.0417726,-8.0891362],[-79.0415489,-8.0896414],[-79.0413911,-8.0899805],[-79.0413004,-8.0901846],[-79.0406924,-8.0915268],[-79.0406377,-8.0916478],[-79.0402851,-8.0924281],[-79.0399855,-8.0930911],[-79.0397719,-8.0935637],[-79.0393296,-8.0945425],[-79.0392686,-8.0946774],[-79.039083,-8.0950889],[-79.038996,-8.0952811],[-79.0389466,-8.0953903],[-79.0384173,-8.0965614],[-79.038029,-8.0974206],[-79.0374928,-8.0986072],[-79.0372284,-8.0991924],[-79.0364963,-8.1008125],[-79.0362385,-8.1013831],[-79.0361939,-8.1014818],[-79.0360744,-8.1014288],[-79.0360177,-8.1014015],[-79.0358269,-8.1013126],[-79.0356852,-8.1012373],[-79.0355083,-8.1011185],[-79.0351237,-8.1016018],[-79.0347003,-8.1020848],[-79.0344996,-8.1022218],[-79.0340702,-8.1024374],[-79.0330448,-8.1029781],[-79.0329633,-8.1030211],[-79.0323119,-8.1033797],[-79.032176,-8.1034608],[-79.0319955,-8.103592],[-79.0316917,-8.1038627],[-79.0315993,-8.1039479],[-79.0315043,-8.1040276],[-79.0314491,-8.1040796],[-79.0312897,-8.1042196],[-79.0308953,-8.1045661],[-79.0307102,-8.1047298],[-79.0305189,-8.104899],[-79.0304199,-8.1049865],[-79.0303488,-8.1050494],[-79.0302807,-8.1051096],[-79.0302018,-8.1051818],[-79.0295367,-8.105815],[-79.0294939,-8.1058546],[-79.0294266,-8.1059207],[-79.029162,-8.1061833],[-79.0291237,-8.1062215],[-79.029054,-8.1062911],[-79.0290012,-8.1063452],[-79.0289329,-8.1062946],[-79.0288178,-8.1062442],[-79.0276528,-8.105793],[-79.0264143,-8.1052797],[-79.0263452,-8.1052471],[-79.0262985,-8.1052333],[-79.0262549,-8.1052344],[-79.0256988,-8.1053386],[-79.0256573,-8.1053476],[-79.0255672,-8.1053672],[-79.0254923,-8.1053842],[-79.0244593,-8.1056188],[-79.0242681,-8.1056608],[-79.0242517,-8.1056661],[-79.0241535,-8.1056985],[-79.0240833,-8.1057291],[-79.0238088,-8.1059019],[-79.023085,-8.1065401],[-79.0230394,-8.1065805],[-79.0229463,-8.1066613],[-79.0223178,-8.1072057],[-79.0220124,-8.1079131],[-79.0218524,-8.1083296],[-79.0216256,-8.1090143],[-79.0216206,-8.1090345],[-79.0216185,-8.1090657],[-79.0214989,-8.109053],[-79.0214118,-8.109047],[-79.0213381,-8.1090478],[-79.0212746,-8.109055],[-79.0212065,-8.1090821],[-79.0211384,-8.1091345],[-79.0201818,-8.1100737],[-79.0201241,-8.1101507],[-79.0200726,-8.1102805],[-79.0200446,-8.1104662],[-79.0200331,-8.1106281],[-79.0200069,-8.1107364],[-79.0199703,-8.110819],[-79.0199259,-8.1109042],[-79.0189475,-8.1117417],[-79.0188813,-8.1118006],[-79.0181953,-8.1123937],[-79.0177625,-8.1127645],[-79.0173382,-8.1131285],[-79.0162444,-8.1140514],[-79.0160741,-8.1141891],[-79.0157941,-8.114414],[-79.0152362,-8.1148309],[-79.0155067,-8.1151895],[-79.0159535,-8.1157663],[-79.0161848,-8.1160762],[-79.0165503,-8.1165661],[-79.0168995,-8.117034],[-79.0186634,-8.1190968],[-79.01895,-8.1194212],[-79.0191968,-8.1196903],[-79.0192752,-8.1197673],[-79.0193418,-8.1198343],[-79.0199355,-8.1204321],[-79.0202652,-8.1207691],[-79.0209763,-8.1214582],[-79.0210503,-8.1215299],[-79.021413,-8.1218878],[-79.0217086,-8.1221559],[-79.0217629,-8.1221922],[-79.0218157,-8.1222275],[-79.0223189,-8.1226887],[-79.0226813,-8.1230094],[-79.0227001,-8.1230243],[-79.0227588,-8.1230526],[-79.0228321,-8.1230652],[-79.0229815,-8.1230626],[-79.0230917,-8.123039],[-79.0232045,-8.123036],[-79.0233225,-8.1230557],[-79.0234343,-8.123098],[-79.0235355,-8.1231613],[-79.0236356,-8.1232592],[-79.02371,-8.1233774],[-79.0237547,-8.1235095],[-79.0237673,-8.1236482],[-79.0237545,-8.123736],[-79.0237472,-8.123786],[-79.0237118,-8.1238829],[-79.0236602,-8.1239723],[-79.0235844,-8.1240608],[-79.0234928,-8.1241332],[-79.0233923,-8.1241853],[-79.0232745,-8.1242196],[-79.0231521,-8.1242295],[-79.023082,-8.1242635],[-79.023045,-8.1242882],[-79.0230112,-8.1243193],[-79.0229785,-8.1243793],[-79.0229195,-8.1245652],[-79.0226623,-8.1253829],[-79.0222692,-8.1267041],[-79.0220871,-8.1272967],[-79.0218655,-8.1280297],[-79.0212867,-8.1298934],[-79.0212723,-8.1299489],[-79.0212642,-8.1300055],[-79.0212625,-8.1300627],[-79.0212679,-8.1301243],[-79.0213053,-8.1303402],[-79.0213494,-8.1303783],[-79.0213842,-8.130417],[-79.0214141,-8.1304594],[-79.0214387,-8.1305051],[-79.0214577,-8.1305533],[-79.0214647,-8.1305771],[-79.0214772,-8.130648],[-79.0214777,-8.1307199],[-79.0214664,-8.1307909],[-79.0214433,-8.1308591],[-79.0214093,-8.1309226],[-79.0213652,-8.1309797],[-79.0213177,-8.1310245],[-79.021264,-8.1310619],[-79.0212053,-8.1310909],[-79.0210708,-8.1311222],[-79.0210125,-8.1311715],[-79.0209749,-8.1312045],[-79.0209266,-8.1312549],[-79.0208884,-8.1313054],[-79.0207975,-8.131497],[-79.0207864,-8.1315377],[-79.0207511,-8.1316238],[-79.0207113,-8.1317079],[-79.0206671,-8.1317899],[-79.0205986,-8.1319001],[-79.0205222,-8.132005],[-79.0194523,-8.1333313],[-79.0187523,-8.1342167],[-79.0186121,-8.1343941],[-79.0180815,-8.1350606],[-79.0179176,-8.1352665],[-79.0173036,-8.1360377],[-79.0171761,-8.1362049],[-79.0171016,-8.136293],[-79.0169674,-8.1364645],[-79.0163391,-8.1372669],[-79.0161674,-8.1374876],[-79.0160661,-8.1376141],[-79.0155706,-8.1382502],[-79.0154632,-8.1384016],[-79.0151836,-8.1387958],[-79.0150009,-8.1390533],[-79.0149821,-8.1390809],[-79.0147317,-8.1394498],[-79.0135822,-8.1411429],[-79.0134014,-8.1415257],[-79.0132938,-8.1418475],[-79.0131959,-8.1422462],[-79.0131093,-8.1426467],[-79.0129272,-8.1435057],[-79.0127819,-8.1441729],[-79.0126284,-8.1448595],[-79.0123919,-8.1459628],[-79.012279,-8.1464454],[-79.0121372,-8.147051],[-79.0120335,-8.147518],[-79.0119063,-8.148091],[-79.0116728,-8.149184],[-79.0114955,-8.1499763],[-79.0113427,-8.1506588],[-79.0113386,-8.15078],[-79.0113452,-8.1508754],[-79.0113592,-8.1509784],[-79.0113796,-8.1510699],[-79.0114056,-8.1511766],[-79.011708,-8.1520558],[-79.011793,-8.1523071],[-79.0122514,-8.1536406],[-79.0122809,-8.1537236],[-79.0122974,-8.1537796],[-79.01232,-8.1538758],[-79.0123373,-8.1539892],[-79.0123453,-8.1541122],[-79.0123313,-8.1545308],[-79.0123112,-8.1551323],[-79.0122827,-8.1559828],[-79.0122654,-8.1565009],[-79.0122385,-8.1572499],[-79.0122184,-8.1577202],[-79.0121927,-8.1583215],[-79.0121668,-8.1589278],[-79.0121352,-8.159759],[-79.012122,-8.1598802],[-79.01208,-8.1601021],[-79.0120092,-8.1603565],[-79.011958,-8.1604939],[-79.0118512,-8.1607334],[-79.0117197,-8.1609753],[-79.0114519,-8.1614389],[-79.0112044,-8.1618797],[-79.0109832,-8.1622575],[-79.010938,-8.1623397],[-79.0106407,-8.1628744],[-79.0103598,-8.1633735],[-79.0099154,-8.1641312],[-79.0095328,-8.164755],[-79.009382,-8.1649652],[-79.0090464,-8.1654329],[-79.0089415,-8.1655575],[-79.0087651,-8.1657599],[-79.0084207,-8.1661047],[-79.0083141,-8.1662182],[-79.0080783,-8.1664456],[-79.0079199,-8.1665857],[-79.0077144,-8.1667676],[-79.0072939,-8.1671249],[-79.0063947,-8.1678323],[-79.0062875,-8.1679141],[-79.0041994,-8.1695095],[-79.0039651,-8.1696909],[-79.000799,-8.1720925],[-79.0006359,-8.1722162],[-78.9993664,-8.1731878],[-78.9991268,-8.1733775],[-78.9973126,-8.1747627],[-78.9971111,-8.1750938],[-78.9969966,-8.1753475],[-78.9969134,-8.1755811],[-78.9968682,-8.1759217],[-78.9969215,-8.1768103],[-78.9969288,-8.1769882],[-78.9969493,-8.177325],[-78.9969844,-8.1778994],[-78.9969954,-8.1782257],[-78.9970136,-8.1787669],[-78.9970197,-8.1789471],[-78.9970234,-8.1790578],[-78.9968946,-8.1790569],[-78.9963413,-8.179421],[-78.9953494,-8.1800737],[-78.9944069,-8.1807954],[-78.9947824,-8.1812813],[-78.9947246,-8.181326],[-78.9937753,-8.1820918],[-78.9929121,-8.1827891],[-78.9931476,-8.1831211],[-78.9932894,-8.1833147],[-78.9938201,-8.1840392],[-78.9934516,-8.1843167],[-78.9931074,-8.1845574],[-78.9929411,-8.1847353],[-78.9928499,-8.1847804],[-78.9927236,-8.1847751],[-78.9930675,-8.1852664],[-78.9931149,-8.1853343],[-78.992976,-8.1854255],[-78.9926788,-8.1856427],[-78.9925079,-8.1857892],[-78.9924288,-8.1858277],[-78.9923389,-8.1858715],[-78.9921826,-8.1857001],[-78.9920002,-8.1854904],[-78.991901,-8.1854311],[-78.9912964,-8.1846051],[-78.9909858,-8.1841887],[-78.9902475,-8.1847207],[-78.9901422,-8.184795],[-78.9899902,-8.1848932],[-78.989194,-8.18548],[-78.989546,-8.1859258],[-78.9898872,-8.1863568],[-78.9902052,-8.1867928],[-78.9892329,-8.1875375],[-78.9889218,-8.1870871],[-78.9886136,-8.186641],[-78.9883116,-8.1861742],[-78.9873621,-8.186899],[-78.9864959,-8.1875516],[-78.9856589,-8.1881826],[-78.9856021,-8.1882245],[-78.9851935,-8.1885296],[-78.9847979,-8.1888251],[-78.9844371,-8.1883565],[-78.9840791,-8.1878999],[-78.9837518,-8.1874621]],"nodes":[1098635577,1098648168,5474262302,1098591900,1098598703,1098608826,5463831045,1098620970,5463831044,1098603575,1098598349,1098608133,1098629332,10991389859,5474276650,5474276624,5467507224,5474276630,5474276628,5474276633,5467507222,4410929394,11023682533,1098604320,5467516280,5489472146,5489472152,1098630996,3728390973,3271173886,3271173887,1098646985,5489472162,1098590920,1098595280,5489474004,5489478491,3271173875,3271173876,3271173877,3728390972,5489473999,3728390976,11023662181,3728390979,4427239268,4427239271,1098606593,5071739597,1098613153,1098623135,1098633799,1098600113,1098594711,1098583945,1098600707,1098594986,3728390988,5463882006,5472132568,13528906367,5483554738,5489209208,1098635673,1098604568,1098610439,1098593363,1098649510,5483546695,5483546698,5070367770,7633225810,7633225809,5070367771,1098601078,7633225814,4427171913,1098619773,13528906360,1098641687,1098637921,7633225812,7633225811,4427166868,1098627077,1098617029,13379242338,4427239261,4427239260,5483546701,4427239257,4427239256,5089585917,1098605226,1098596833,5089604484,1098616329,1098597077,1098588439,1098645451,1098622515,10723937586,1098649105,633650896,1693582291,10723917702,2956751726,5089667629,1098596094,1098603874,2956752133,5089667641,1098587208,5489046577,1098616168,1693582381,5089708238,11028572469,1098643672,12599107416,1098584705,1098624681,12599107406,11037737307,1098620960,11037737305,11037670404,1873564590,1873564594,1098647376,5037835750,1286991507,5067384761,11037883008,1098609678,1028959884,1098631041,1028959877,1028959876,1098592966,316265077,316265162,1098644803,1028959874,1028959886,1098631315,1098610269,4633875114,5051774261,11037884383,1098635948,5051840801,5051774256,4633875085,4633874459,2557538236,2557538234,4633875092,1098598866,4633875094,4633875109,4633875096,316264055,316264086,1088227246,4633875101,316488274,316264088,11016646711,11016646710,316264089,9829891083,13368738226,316488510,9829891082,4452540641,316264090,495108772,12987860958,316264091,2573525832,5373812628,8109317254,8109317248,2573525834,1098584465,316488730,316264094,12952375186,11016684335,2589631589,1015347785,1015347787,2589631587,1015347788,1015347789,1015347796,1098636866,1015347797,1015347798,1015347800,1015347801,5081860235,1015347802,1015347803,1026647781,10726871717,2604839550,1015347805,1098595613,5070217724,1098585524,1015347808,11037619758,1015292423,1098595328,316488151,316265117,316265116,1098612124,1098632182,2604839551,8089024592,1098589459,320114996,13084463950,1098613378,1098594789,3670684735,13084463978,1088227350,3670684731,12566648339,316265389,3670684729,3670684728,316254431,2591061029,288406889,2591061030,3670684743,316254433,316254504,316254434,2591061031,2591061032,13513627511,316254505,2591061033,12566648307,288407624,3670684004,316254506,2591061034,288406679,5082247199,3670684010,5082247198,1538275853,1098608862,1098595960,5082247194,8100642057,1098598363,2549352851,10823604366,10823604365,2549352854,10823604364,316254524,10823604374,2549352816,316254525,2549352818,11028561165,316254526,2549352856,10823604375,316254527,10823604376,1538275889,316254528,1538275891,2549352836,316254529,316254530,13009465935,10823604357,2549352838,2549352840,316264863,316264704,10823604356,10823604355,2549352843,10823604354,316264705,8449742276,8449742280,5082156672,11028575137,11028575132,5082689983,11030808101,5082689921,5082689972,5082689975,5082689981,11028575124,5473862021,11028573872,11028573865,1098614918,13137387912,13137387905,316264706,316264707,11028472994,316264708,334650027,334650025,11028586368,1098587150,316264709,11028473001,4858049410,11028564819,11028564811,1145579839,11027997986,316264710,316264711,1098596883,5072509552,5072509550,316264712,1098616428,11028564822,5072509544,5082155984,1098637392,316264713,5072509546,316264714,10925437394,10925437391,10925437398,1098593589,1098598063,11030326618,11030326613,5072494786,7113004004,316264715,4858049417,1098618587,316264718,5072494656,4858049419,4858050023,4858050021,5072444258,1098628657,1098639916,5072444249,4858052144,4858052142,7112997203,316264719,316264720,5072432981,1098601167,13137626103,5072432982,13137604199,316264722,5072432984,12068793060,1098595391,5072494784,3728277780,5072432974,3728277796,3728277804,3728277806,316492484,316492485,316492486,316492487,316492488,316492020,3728277838,13304406441,1098592320,13304406432,13304406421,13304406427,1098586702,316491936,5390456230,1098630527,5390352700,1098615435,5390478536,1098586325,1098614172,5390352711,5390352710,1098646924,1098636863,5390352701,11030073484,11030073485,3728277855,5081940954,1098611341,5390455616,1098621442,5390455617,11030073482,1098628289,5390455602,11030073483,5390456286,5081940957,5081940958,13309982111,1098614452,5390455612,5390456280,5390456268,5390456267,5390456290,1098624178,1098646145,1098634055,1098623407,1098618268,1098606115,1098632836,5390456316,12066304446,1098627288,1098617321,1098637575,1098626822]},"gtfs":{"agency_id":13,"route_id":30,"services":[{"service_id":"Mo-Su","startTime":"05:00","endTime":"23:00","trip_id":19966201}],"filteredStops":{"nodes":[1098635577,13546545659,13546545689,13546546342,13546545691,13546546304,13546545613,13546546305,13546545615,13546546345,13546545692,13546546326,13546546329,13546535100,13546545108,13546545107,13546545109,13546545105,13546545110,11896286019,13546545933,13546545132,13546545931,13546545930,11895957224,11895968651,11895953681,13546545992,13546545192,13546545193,13546545194,13546546052,13546545240,13546545236,13546545939,13546545941,13546545142,13546546119,13546545337,13546546097,13546545313,13546545351,13546546115,13546546102,13546546099,13546545315,13546545314,13546546123,13546545346,13546545302,13546545349,13546545348,1098626822],"coordinates":[[-79.0798396,-8.0638379],[-79.0754919,-8.067331],[-79.0699279,-8.0701198],[-79.0643917,-8.072148],[-79.0628071,-8.0714219],[-79.0605818,-8.0726609],[-79.0584537,-8.0735723],[-79.0568656,-8.0759611],[-79.055897,-8.0784874],[-79.0524368,-8.0822409],[-79.046616,-8.0811493],[-79.0453013,-8.0815809],[-79.0441866,-8.0840322],[-79.0422652,-8.0881752],[-79.0405114,-8.0920105],[-79.039575,-8.0941299],[-79.0383633,-8.0968149],[-79.0371447,-8.0994436],[-79.0364397,-8.1010808],[-79.0359838,-8.1015489],[-79.034406,-8.1023077],[-79.032495,-8.1033444],[-79.030599,-8.1049436],[-79.0293947,-8.1060629],[-79.0277112,-8.105858],[-79.0245107,-8.1056463],[-79.0226351,-8.1069826],[-79.0211224,-8.1092367],[-79.0194385,-8.1113857],[-79.0171934,-8.1132771],[-79.0155223,-8.1146689],[-79.0164486,-8.1164039],[-79.0207348,-8.1211376],[-79.0224984,-8.122784],[-79.0229252,-8.1247449],[-79.0223498,-8.1265933],[-79.0215133,-8.1293166],[-79.0207452,-8.1317478],[-79.0144407,-8.1400721],[-79.012766,-8.1443587],[-79.0118118,-8.1486869],[-79.0120374,-8.1528521],[-79.0123867,-8.1560445],[-79.0118852,-8.160831],[-79.0089733,-8.1656604],[-79.002307,-8.1710932],[-78.9986689,-8.1739403],[-78.9971565,-8.1786953],[-78.9942852,-8.1817216],[-78.9934343,-8.1824072],[-78.9935808,-8.1835616],[-78.9916017,-8.1851345],[-78.9837518,-8.1874621]]}}},{"type":"Feature","properties":{"bus":"yes","highway":"bus_stop","network":"Transporte Público Urbano Trujillo","public_transport":"platform","ref":"PE-32","source":"Gerencia de Transporte Metropolitano de Trujillo","id":13546545659},"geometry":{"type":"Point","coordinates":[-79.0754919,-8.067331]}},{"type":"Feature","properties":{"bus":"yes","highway":"bus_stop","network":"Transporte Público Urbano Trujillo","public_transport":"platform","ref":"PE-259","source":"Gerencia de Transporte Metropolitano de Trujillo","id":13546545689},"geometry":{"type":"Point","coordinates":[-79.0699279,-8.0701198]}},{"type":"Feature","properties":{"bus":"yes","highway":"bus_stop","network":"Transporte Público Urbano Trujillo","public_transport":"platform","ref":"PE-256","source":"Gerencia de Transporte Metropolitano de Trujillo","id":13546546342},"geometry":{"type":"Point","coordinates":[-79.0643917,-8.072148]}},{"type":"Feature","properties":{"bus":"yes","highway":"bus_stop","network":"Transporte Público Urbano Trujillo","public_transport":"platform","ref":"PE-252","source":"Gerencia de Transporte Metropolitano de Trujillo","id":13546545691},"geometry":{"type":"Point","coordinates":[-79.0628071,-8.0714219]}},{"type":"Feature","properties":{"bus":"yes","highway":"bus_stop","network":"Transporte Público Urbano Trujillo","public_transport":"platform","ref":"PE-97","source":"Gerencia de Transporte Metropolitano de Trujillo","id":13546546304},"geometry":{"type":"Point","coordinates":[-79.0605818,-8.0726609]}},{"type":"Feature","properties":{"bus":"yes","highway":"bus_stop","network":"Transporte Público Urbano Trujillo","public_transport":"platform","ref":"PE-94","source":"Gerencia de Transporte Metropolitano de Trujillo","id":13546545613},"geometry":{"type":"Point","coordinates":[-79.0584537,-8.0735723]}},{"type":"Feature","properties":{"bus":"yes","highway":"bus_stop","network":"Transporte Público Urbano Trujillo","public_transport":"platform","ref":"PE-88","source":"Gerencia de Transporte Metropolitano de Trujillo","id":13546546305},"geometry":{"type":"Point","coordinates":[-79.0568656,-8.0759611]}},{"type":"Feature","properties":{"bus":"yes","highway":"bus_stop","network":"Transporte Público Urbano Trujillo","public_transport":"platform","ref":"PE-89","source":"Gerencia de Transporte Metropolitano de Trujillo","id":13546545615},"geometry":{"type":"Point","coordinates":[-79.055897,-8.0784874]}},{"type":"Feature","properties":{"bus":"yes","highway":"bus_stop","network":"Transporte Público Urbano Trujillo","public_transport":"platform","ref":"PE-245","source":"Gerencia de Transporte Metropolitano de Trujillo","id":13546546345},"geometry":{"type":"Point","coordinates":[-79.0524368,-8.0822409]}},{"type":"Feature","properties":{"bus":"yes","highway":"bus_stop","network":"Transporte Público Urbano Trujillo","public_transport":"platform","ref":"PE-250","source":"Gerencia de Transporte Metropolitano de Trujillo","id":13546545692},"geometry":{"type":"Point","coordinates":[-79.046616,-8.0811493]}},{"type":"Feature","properties":{"bus":"yes","highway":"bus_stop","network":"Transporte Público Urbano Trujillo","public_transport":"platform","ref":"PE-306","source":"Gerencia de Transporte Metropolitano de Trujillo","id":13546546326},"geometry":{"type":"Point","coordinates":[-79.0453013,-8.0815809]}},{"type":"Feature","properties":{"bus":"yes","highway":"bus_stop","network":"Transporte Público Urbano Trujillo","public_transport":"platform","ref":"PE-303","source":"Gerencia de Transporte Metropolitano de Trujillo","id":13546546329},"geometry":{"type":"Point","coordinates":[-79.0441866,-8.0840322]}},{"type":"Feature","properties":{"bus":"yes","highway":"bus_stop","network":"Transporte Público Urbano Trujillo","public_transport":"platform","ref":"NPT-210","source":"Gerencia de Transporte Metropolitano de Trujillo","id":13546535100},"geometry":{"type":"Point","coordinates":[-79.0422652,-8.0881752]}},{"type":"Feature","properties":{"bus":"yes","highway":"bus_stop","network":"Transporte Público Urbano Trujillo","public_transport":"platform","ref":"NPT-201","source":"Gerencia de Transporte Metropolitano de Trujillo","id":13546545108},"geometry":{"type":"Point","coordinates":[-79.0405114,-8.0920105]}},{"type":"Feature","properties":{"bus":"yes","highway":"bus_stop","network":"Transporte Público Urbano Trujillo","public_transport":"platform","ref":"NPT-202","source":"Gerencia de Transporte Metropolitano de Trujillo","id":13546545107},"geometry":{"type":"Point","coordinates":[-79.039575,-8.0941299]}},{"type":"Feature","properties":{"bus":"yes","highway":"bus_stop","network":"Transporte Público Urbano Trujillo","public_transport":"platform","ref":"NPT-200","source":"Gerencia de Transporte Metropolitano de Trujillo","id":13546545109},"geometry":{"type":"Point","coordinates":[-79.0383633,-8.0968149]}},{"type":"Feature","properties":{"bus":"yes","highway":"bus_stop","network":"Transporte Público Urbano Trujillo","public_transport":"platform","ref":"NPT-204","source":"Gerencia de Transporte Metropolitano de Trujillo","id":13546545105},"geometry":{"type":"Point","coordinates":[-79.0371447,-8.0994436]}},{"type":"Feature","properties":{"bus":"yes","highway":"bus_stop","network":"Transporte Público Urbano Trujillo","public_transport":"platform","ref":"NPT-199","source":"Gerencia de Transporte Metropolitano de Trujillo","id":13546545110},"geometry":{"type":"Point","coordinates":[-79.0364397,-8.1010808]}},{"type":"Feature","properties":{"advertising":"yes","bench":"yes","bicycle_parking":"no","bin":"no","bus":"yes","departures_board":"yes","highway":"bus_stop","level":"0","lit":"yes","name":"Avenida Teodoro Valcárcel","network":"Transporte Público Urbano Trujillo","passenger_information_display:speech_output":"no","pole":"yes","public_transport":"platform","ramp":"yes","ref":"NPT-198","shelter":"yes","source:ref":"Gerencia de Transporte Metropolitano de Trujillo","tactile_paving":"no","tactile_writing:braille:es":"no","id":11896286019},"geometry":{"type":"Point","coordinates":[-79.0359838,-8.1015489]}},{"type":"Feature","properties":{"bus":"yes","highway":"bus_stop","network":"Transporte Público Urbano Trujillo","public_transport":"platform","ref":"MAVE-352","source":"Gerencia de Transporte Metropolitano de Trujillo","id":13546545933},"geometry":{"type":"Point","coordinates":[-79.034406,-8.1023077]}},{"type":"Feature","properties":{"bus":"yes","highway":"bus_stop","network":"Transporte Público Urbano Trujillo","public_transport":"platform","ref":"MAVE-354","source":"Gerencia de Transporte Metropolitano de Trujillo","id":13546545132},"geometry":{"type":"Point","coordinates":[-79.032495,-8.1033444]}},{"type":"Feature","properties":{"bus":"yes","highway":"bus_stop","network":"Transporte Público Urbano Trujillo","public_transport":"platform","ref":"MAVE-356","source":"Gerencia de Transporte Metropolitano de Trujillo","id":13546545931},"geometry":{"type":"Point","coordinates":[-79.030599,-8.1049436]}},{"type":"Feature","properties":{"bus":"yes","highway":"bus_stop","network":"Transporte Público Urbano Trujillo","public_transport":"platform","ref":"MAVE-357","source":"Gerencia de Transporte Metropolitano de Trujillo","id":13546545930},"geometry":{"type":"Point","coordinates":[-79.0293947,-8.1060629]}},{"type":"Feature","properties":{"advertising":"no","bench":"no","bicycle_parking":"no","bin":"no","bus":"yes","departures_board":"no","highway":"bus_stop","level":"0","lit":"yes","name":"Jirón Estete","network":"Transporte Público Urbano Trujillo","passenger_information_display:speech_output":"no","pole":"yes","public_transport":"platform","ramp":"no","ref":"ESP-15","shelter":"no","source:ref":"Gerencia de Transporte Metropolitano de Trujillo","tactile_paving":"no","tactile_writing:braille:es":"no","id":11895957224},"geometry":{"type":"Point","coordinates":[-79.0277112,-8.105858]}},{"type":"Feature","properties":{"advertising":"no","bench":"no","bicycle_parking":"no","bin":"no","bus":"yes","departures_board":"no","highway":"bus_stop","level":"0","lit":"no","name":"Avenida del Ejército","network":"Transporte Público Urbano Trujillo","passenger_information_display:speech_output":"no","pole":"yes","public_transport":"platform","ramp":"no","ref":"ESP-13","shelter":"no","source:ref":"Gerencia de Transporte Metropolitano de Trujillo","tactile_paving":"no","tactile_writing:braille:es":"no","id":11895968651},"geometry":{"type":"Point","coordinates":[-79.0245107,-8.1056463]}},{"type":"Feature","properties":{"advertising":"no","bench":"no","bicycle_parking":"no","bin":"no","bus":"yes","departures_board":"no","highway":"bus_stop","level":"0","lit":"yes","name":"Avenida Perú","network":"Transporte Público Urbano Trujillo","passenger_information_display:speech_output":"no","pole":"yes","public_transport":"platform","ramp":"no","ref":"ESP-11","shelter":"no","source:ref":"Gerencia de Transporte Metropolitano de Trujillo","tactile_paving":"no","tactile_writing:braille:es":"no","id":11895953681},"geometry":{"type":"Point","coordinates":[-79.0226351,-8.1069826]}},{"type":"Feature","properties":{"bus":"yes","highway":"bus_stop","network":"Transporte Público Urbano Trujillo","public_transport":"platform","ref":"EGR-265","source":"Gerencia de Transporte Metropolitano de Trujillo","id":13546545992},"geometry":{"type":"Point","coordinates":[-79.0211224,-8.1092367]}},{"type":"Feature","properties":{"bus":"yes","highway":"bus_stop","network":"Transporte Público Urbano Trujillo","public_transport":"platform","ref":"EGR-263","source":"Gerencia de Transporte Metropolitano de Trujillo","id":13546545192},"geometry":{"type":"Point","coordinates":[-79.0194385,-8.1113857]}},{"type":"Feature","properties":{"bus":"yes","highway":"bus_stop","network":"Transporte Público Urbano Trujillo","public_transport":"platform","ref":"EGR-262","source":"Gerencia de Transporte Metropolitano de Trujillo","id":13546545193},"geometry":{"type":"Point","coordinates":[-79.0171934,-8.1132771]}},{"type":"Feature","properties":{"bus":"yes","highway":"bus_stop","network":"Transporte Público Urbano Trujillo","public_transport":"platform","ref":"EGR-260","source":"Gerencia de Transporte Metropolitano de Trujillo","id":13546545194},"geometry":{"type":"Point","coordinates":[-79.0155223,-8.1146689]}},{"type":"Feature","properties":{"bus":"yes","highway":"bus_stop","network":"Transporte Público Urbano Trujillo","public_transport":"platform","ref":"AMS-40","source":"Gerencia de Transporte Metropolitano de Trujillo","id":13546546052},"geometry":{"type":"Point","coordinates":[-79.0164486,-8.1164039]}},{"type":"Feature","properties":{"bus":"yes","highway":"bus_stop","network":"Transporte Público Urbano Trujillo","public_transport":"platform","ref":"AMS-53","source":"Gerencia de Transporte Metropolitano de Trujillo","id":13546545240},"geometry":{"type":"Point","coordinates":[-79.0207348,-8.1211376]}},{"type":"Feature","properties":{"bus":"yes","highway":"bus_stop","network":"Transporte Público Urbano Trujillo","public_transport":"platform","ref":"AMS-57","source":"Gerencia de Transporte Metropolitano de Trujillo","id":13546545236},"geometry":{"type":"Point","coordinates":[-79.0224984,-8.122784]}},{"type":"Feature","properties":{"bus":"yes","highway":"bus_stop","network":"Transporte Público Urbano Trujillo","public_transport":"platform","ref":"LAM-415","source":"Gerencia de Transporte Metropolitano de Trujillo","id":13546545939},"geometry":{"type":"Point","coordinates":[-79.0229252,-8.1247449]}},{"type":"Feature","properties":{"bus":"yes","highway":"bus_stop","network":"Transporte Público Urbano Trujillo","public_transport":"platform","ref":"LAM-413","source":"Gerencia de Transporte Metropolitano de Trujillo","id":13546545941},"geometry":{"type":"Point","coordinates":[-79.0223498,-8.1265933]}},{"type":"Feature","properties":{"bus":"yes","highway":"bus_stop","network":"Transporte Público Urbano Trujillo","public_transport":"platform","ref":"LAM-417","source":"Gerencia de Transporte Metropolitano de Trujillo","id":13546545142},"geometry":{"type":"Point","coordinates":[-79.0215133,-8.1293166]}},{"type":"Feature","properties":{"bus":"yes","highway":"bus_stop","network":"Transporte Público Urbano Trujillo","public_transport":"platform","ref":"PM-124","source":"Gerencia de Transporte Metropolitano de Trujillo","id":13546546119},"geometry":{"type":"Point","coordinates":[-79.0207452,-8.1317478]}},{"type":"Feature","properties":{"bus":"yes","highway":"bus_stop","network":"Transporte Público Urbano Trujillo","public_transport":"platform","ref":"PM-125","source":"Gerencia de Transporte Metropolitano de Trujillo","id":13546545337},"geometry":{"type":"Point","coordinates":[-79.0144407,-8.1400721]}},{"type":"Feature","properties":{"bus":"yes","highway":"bus_stop","network":"Transporte Público Urbano Trujillo","public_transport":"platform","ref":"PM-70","source":"Gerencia de Transporte Metropolitano de Trujillo","id":13546546097},"geometry":{"type":"Point","coordinates":[-79.012766,-8.1443587]}},{"type":"Feature","properties":{"bus":"yes","highway":"bus_stop","network":"Transporte Público Urbano Trujillo","public_transport":"platform","ref":"PM-69","source":"Gerencia de Transporte Metropolitano de Trujillo","id":13546545313},"geometry":{"type":"Point","coordinates":[-79.0118118,-8.1486869]}},{"type":"Feature","properties":{"bus":"yes","highway":"bus_stop","network":"Transporte Público Urbano Trujillo","public_transport":"platform","ref":"PM-1","source":"Gerencia de Transporte Metropolitano de Trujillo","id":13546545351},"geometry":{"type":"Point","coordinates":[-79.0120374,-8.1528521]}},{"type":"Feature","properties":{"bus":"yes","highway":"bus_stop","network":"Transporte Público Urbano Trujillo","public_transport":"platform","ref":"PM-2","source":"Gerencia de Transporte Metropolitano de Trujillo","id":13546546115},"geometry":{"type":"Point","coordinates":[-79.0123867,-8.1560445]}},{"type":"Feature","properties":{"bus":"yes","highway":"bus_stop","network":"Transporte Público Urbano Trujillo","public_transport":"platform","ref":"PM-42","source":"Gerencia de Transporte Metropolitano de Trujillo","id":13546546102},"geometry":{"type":"Point","coordinates":[-79.0118852,-8.160831]}},{"type":"Feature","properties":{"bus":"yes","highway":"bus_stop","network":"Transporte Público Urbano Trujillo","public_transport":"platform","ref":"PM-61","source":"Gerencia de Transporte Metropolitano de Trujillo","id":13546546099},"geometry":{"type":"Point","coordinates":[-79.0089733,-8.1656604]}},{"type":"Feature","properties":{"bus":"yes","highway":"bus_stop","network":"Transporte Público Urbano Trujillo","public_transport":"platform","ref":"PM-64","source":"Gerencia de Transporte Metropolitano de Trujillo","id":13546545315},"geometry":{"type":"Point","coordinates":[-79.002307,-8.1710932]}},{"type":"Feature","properties":{"bus":"yes","highway":"bus_stop","network":"Transporte Público Urbano Trujillo","public_transport":"platform","ref":"PM-65","source":"Gerencia de Transporte Metropolitano de Trujillo","id":13546545314},"geometry":{"type":"Point","coordinates":[-78.9986689,-8.1739403]}},{"type":"Feature","properties":{"bus":"yes","highway":"bus_stop","network":"Transporte Público Urbano Trujillo","public_transport":"platform","ref":"PM-111","source":"Gerencia de Transporte Metropolitano de Trujillo","id":13546546123},"geometry":{"type":"Point","coordinates":[-78.9971565,-8.1786953]}},{"type":"Feature","properties":{"bus":"yes","highway":"bus_stop","network":"Transporte Público Urbano Trujillo","public_transport":"platform","ref":"PM-106","source":"Gerencia de Transporte Metropolitano de Trujillo","id":13546545346},"geometry":{"type":"Point","coordinates":[-78.9942852,-8.1817216]}},{"type":"Feature","properties":{"bus":"yes","highway":"bus_stop","network":"Transporte Público Urbano Trujillo","public_transport":"platform","ref":"PM-94","source":"Gerencia de Transporte Metropolitano de Trujillo","id":13546545302},"geometry":{"type":"Point","coordinates":[-78.9934343,-8.1824072]}},{"type":"Feature","properties":{"bus":"yes","highway":"bus_stop","network":"Transporte Público Urbano Trujillo","public_transport":"platform","ref":"PM-102","source":"Gerencia de Transporte Metropolitano de Trujillo","id":13546545349},"geometry":{"type":"Point","coordinates":[-78.9935808,-8.1835616]}},{"type":"Feature","properties":{"bus":"yes","highway":"bus_stop","network":"Transporte Público Urbano Trujillo","public_transport":"platform","ref":"PM-103","source":"Gerencia de Transporte Metropolitano de Trujillo","id":13546545348},"geometry":{"type":"Point","coordinates":[-78.9916017,-8.1851345]}}]}