{"type":"FeatureCollection","features":[{"type":"Feature","properties":{"check_date":"2025-12-16","colour":"#cc3333","colour:text":"#FFFFFF","fee":"yes","from":"Avenida Antenor Orrego","hash":"13556","interval":"4","name":"Avenida Antenor Orrego → Ciudad de Dios","network":"Transporte Público Urbano Trujillo","opening_hours":"Mo-Su 05:00-23:00","operator":"VIRGEN DEL ARCO S.A.","public_transport:version":"2","ref":"C-16 I","route":"bus","survey:avg_speed:kmh":"20","to":"Ciudad de Dios","type":"route","id":19968195},"geometry":{"type":"LineString","coordinates":[[-79.0441158,-8.1165216],[-79.0434447,-8.117078],[-79.0433833,-8.1171266],[-79.043344,-8.1171623],[-79.0427751,-8.1176361],[-79.0425606,-8.117824],[-79.0417421,-8.1185147],[-79.0412898,-8.1188964],[-79.0407018,-8.1193515],[-79.0407417,-8.119449],[-79.04075,-8.1195538],[-79.0407259,-8.1196562],[-79.0406717,-8.1197466],[-79.0406227,-8.1197948],[-79.0405651,-8.1198324],[-79.0404945,-8.1198598],[-79.0404196,-8.1198714],[-79.0403005,-8.1200142],[-79.0400457,-8.1207535],[-79.0399113,-8.1211686],[-79.0396543,-8.1220817],[-79.0396267,-8.1221648],[-79.0392166,-8.1234016],[-79.0391189,-8.1237295],[-79.0390364,-8.1240113],[-79.0390038,-8.124114],[-79.0389915,-8.1242378],[-79.0389556,-8.1243868],[-79.0389836,-8.1244282],[-79.0390168,-8.1245127],[-79.039037,-8.1246216],[-79.0390107,-8.1246984],[-79.0389794,-8.1247544],[-79.0389177,-8.1248082],[-79.0388469,-8.1248317],[-79.0387624,-8.1248285],[-79.0386906,-8.1248101],[-79.0386372,-8.124784],[-79.038423,-8.1247582],[-79.0382867,-8.1247564],[-79.0381611,-8.1247757],[-79.0378097,-8.1249194],[-79.0377753,-8.1249334],[-79.0372834,-8.1251423],[-79.0362991,-8.1255304],[-79.0357596,-8.1257514],[-79.0357007,-8.1257726],[-79.0356366,-8.1258005],[-79.0347785,-8.1261254],[-79.0343005,-8.1262837],[-79.0339226,-8.126386],[-79.0336986,-8.1264482],[-79.0331612,-8.1265934],[-79.0326043,-8.1266954],[-79.0325305,-8.1267089],[-79.0324376,-8.1267209],[-79.0320876,-8.1267651],[-79.0317662,-8.1267836],[-79.0316522,-8.1267885],[-79.0314342,-8.1267881],[-79.0313567,-8.126788],[-79.0312896,-8.1267849],[-79.0309179,-8.126768],[-79.0307428,-8.1267543],[-79.0305879,-8.1267476],[-79.0304667,-8.1267397],[-79.0304075,-8.1267326],[-79.0303135,-8.1267253],[-79.0302526,-8.1267171],[-79.0299185,-8.1266745],[-79.0295335,-8.1266304],[-79.0293173,-8.1266056],[-79.0288559,-8.1265113],[-79.0282974,-8.1263971],[-79.0272399,-8.1260503],[-79.0262905,-8.1257014],[-79.0261484,-8.1256251],[-79.0259428,-8.1255147],[-79.0253822,-8.1252137],[-79.0244836,-8.1246723],[-79.0237336,-8.1241795],[-79.0236823,-8.1241458],[-79.023635,-8.1241261],[-79.0235902,-8.1241222],[-79.0234928,-8.1241332],[-79.0233923,-8.1241853],[-79.0232745,-8.1242196],[-79.0231521,-8.1242295],[-79.0230407,-8.1242171],[-79.0229336,-8.1241844],[-79.0228344,-8.1241327],[-79.022741,-8.1240583],[-79.0226643,-8.1239672],[-79.0226056,-8.1238588],[-79.0225705,-8.1237408],[-79.0225606,-8.1236181],[-79.0225722,-8.123515],[-79.0226016,-8.1234153],[-79.022648,-8.1233223],[-79.0226952,-8.1232558],[-79.0227511,-8.1231964],[-79.0228587,-8.1231167],[-79.0229815,-8.1230626],[-79.0230917,-8.123039],[-79.0232045,-8.123036],[-79.0233128,-8.1229743],[-79.0233921,-8.1228999],[-79.0234214,-8.1227846],[-79.0234892,-8.122541],[-79.0236536,-8.1219997],[-79.0239285,-8.1211052],[-79.0241697,-8.1203109],[-79.0245155,-8.1191672],[-79.0247791,-8.1182769],[-79.0248441,-8.1180764],[-79.024142,-8.1174222],[-79.0230896,-8.1163724],[-79.0224025,-8.1156582],[-79.0219789,-8.1152309],[-79.0215809,-8.1148344],[-79.0213678,-8.1146176],[-79.0208073,-8.114097],[-79.0204401,-8.1136315],[-79.0201765,-8.1133091],[-79.0198386,-8.1128836],[-79.0192152,-8.1121631],[-79.0188813,-8.1118006],[-79.0187806,-8.1117241],[-79.0183624,-8.1112666],[-79.0180336,-8.1109069],[-79.0175129,-8.1102993],[-79.0174444,-8.1102211],[-79.0168949,-8.1095934],[-79.0164607,-8.1090763],[-79.0160606,-8.1086321],[-79.016002,-8.1085671],[-79.0158452,-8.1083849],[-79.0156031,-8.1081061],[-79.0153791,-8.1078466],[-79.0149207,-8.1073163],[-79.014742,-8.1071073],[-79.0144699,-8.1067831],[-79.0141982,-8.1064576],[-79.0138765,-8.1060794],[-79.0137806,-8.1059652],[-79.0136982,-8.1058694],[-79.0134976,-8.1056346],[-79.0132032,-8.1052914],[-79.0129236,-8.1049601],[-79.0126232,-8.1046043],[-79.0123322,-8.1042823],[-79.0122927,-8.1042322],[-79.0119901,-8.1038686],[-79.0118179,-8.1036636],[-79.011702,-8.103526],[-79.0112556,-8.1030038],[-79.0111726,-8.1029044],[-79.0110643,-8.1027749],[-79.0109298,-8.1026138],[-79.0108637,-8.1025337],[-79.0105134,-8.1021316],[-79.0100805,-8.1016148],[-79.0099966,-8.1015149],[-79.0097798,-8.1012538],[-79.0095466,-8.1009729],[-79.009278,-8.1006493],[-79.0089313,-8.1002317],[-79.008914,-8.1002109],[-79.0086681,-8.0999308],[-79.0084436,-8.0996751],[-79.008434,-8.0996632],[-79.0082817,-8.0994854],[-79.0075549,-8.0986333],[-79.0074679,-8.0985344],[-79.007063,-8.0980601],[-79.0067798,-8.097717],[-79.0065294,-8.0974193],[-79.0062319,-8.0970584],[-79.0057526,-8.0964965],[-79.0050954,-8.0957116],[-79.0048863,-8.0954618],[-79.0045496,-8.0950979],[-79.0042997,-8.0947882],[-79.0040934,-8.094524],[-79.0039314,-8.0943752],[-79.0039073,-8.0942981],[-79.0037003,-8.0940375],[-79.0036568,-8.093981],[-79.0036044,-8.0939199],[-79.0035858,-8.0938977],[-79.0019693,-8.0920154],[-79.0018886,-8.0919214],[-79.0014002,-8.0913524],[-79.0008035,-8.0906573],[-79.0003926,-8.0901787],[-79.0001227,-8.0898622],[-78.999898,-8.0895863],[-78.9996421,-8.0892074],[-78.9994803,-8.0888691],[-78.9992658,-8.0881905],[-78.999141,-8.0877949],[-78.9990933,-8.0876504],[-78.9992391,-8.0876095],[-78.9998223,-8.0874373],[-79.0009617,-8.0871009],[-79.0006628,-8.0859528],[-79.0003533,-8.0847957],[-79.0000507,-8.0836445],[-79.0010941,-8.0833532],[-79.000796,-8.082285],[-79.0004539,-8.0811491],[-79.0001276,-8.0800174],[-79.0000074,-8.0796357],[-78.999888,-8.0793515],[-78.9997754,-8.0791192],[-78.9995953,-8.078832],[-78.9989947,-8.0780156],[-78.9989791,-8.077994],[-78.9990759,-8.0778787],[-78.9995042,-8.0780774],[-78.9994241,-8.0777988],[-78.9989497,-8.0761801],[-78.9988212,-8.0757721],[-78.9985029,-8.0747056],[-78.9981992,-8.0737024],[-78.9978386,-8.0725646],[-78.997534,-8.0715623],[-78.9972194,-8.0705287],[-78.9968234,-8.0694898],[-78.9962044,-8.0697605],[-78.9955493,-8.0700283],[-78.9951839,-8.0690369],[-78.9958386,-8.068816],[-78.9964774,-8.0685795],[-78.9959833,-8.0672913],[-78.995644,-8.066382],[-78.9952213,-8.0653739],[-78.9949488,-8.064609],[-78.9945121,-8.0647463],[-78.9940414,-8.0648973],[-78.9939348,-8.0646087]],"nodes":[2610202760,11030733095,1098617575,11030733092,1098627540,1098619648,11040218413,1098599985,316256694,2602828452,316256695,2602828444,316256696,2610169701,1098605087,2610169702,316256698,288409291,1098590018,1098646443,1098646583,13435795703,1098640239,1098634515,316254448,2602828385,1098601943,316254455,3728336242,316254457,316258350,3728336245,316254459,316254460,3728336248,316254461,3728336247,316254462,2602828320,288409664,2602828287,5421654629,1098646193,1098607452,1098598005,316490370,12216751843,316490365,5473932885,316254439,8137323600,10765341359,11030822023,11086134235,1098638293,11086134237,316254442,7115416191,7115416192,11086134234,1098612800,11086134232,11030606604,316254443,13086967420,320114890,12216751801,320114884,13086967422,288409665,6119482459,1098650103,13086967411,288409296,1098611390,1098622334,12909185080,12909185072,3293558514,1098587311,12566648340,316254501,12566648337,3670684009,3670684004,316254506,2591061034,288406679,12566648334,3670684011,316254426,316254427,1098644892,3670684727,316254428,1098632617,316254429,6195970422,316265440,316261151,12566648306,316261163,316254431,2591061029,288406889,2892557355,316256326,4633970825,5082434175,1098622927,2618156487,1050893700,1050893795,1088227216,316260128,1088227275,1088227478,1088227293,1088227185,1088227399,1015347876,1050928471,1088227193,1145579819,1015292444,1144498438,1026647781,1088227261,11023976592,1098613755,1007782483,1098602637,11023976594,1098601972,11023313868,1098584430,11023313867,11023313865,5086629395,1088227445,3569346209,11023313863,1098613888,11023313861,11023313859,5086629393,11023313857,11023313855,1026647788,11023313853,11023313851,1026647512,1098632843,11023381285,11032994349,11032994346,316265133,1088227363,1098591604,11023381283,5482905646,5482905645,1098598553,1098647683,5087163892,1098643555,11037375458,11023671193,11037375460,11023976597,1098589923,5087053972,1026647809,1098633721,5481133290,1098610101,5088905642,5089132051,1026647819,11032459662,1026647822,1026647825,11030395407,11030395408,1026647827,11030377673,11030377667,1098586874,11032867290,11032867286,1026647835,1098650079,1098627321,1026647840,5467619028,5482905628,10735970446,1026647844,1026647848,1026647853,1145579843,1026647856,1026647875,1098583790,1145579814,5432246025,5432245218,1098614050,5087152247,5087152246,5087152245,5087152243,5432246029,5432246028,5432246027,5432246026,5480717112,13381672036,13381672035,1098605491,5457466224,5084737138,5083910161,5083910160,5083910159,5083910158,5083910157,5083910156,5456072887,5480717102,5456072891,5456072892,5456072893,5456072894,5480717096,1098621620,5456072882,5456072883,5480722118,5480722110,13381666201]},"gtfs":{"agency_id":23,"route_id":46,"services":[{"service_id":"Mo-Su","startTime":"05:00","endTime":"23:00","trip_id":19968195}],"filteredStops":{"nodes":[2610202760,13546545259,13546545258,13546545241,13546546049,13546546048,13546546053,11910359975,13546546046,13546545922,13546545966,13546545964,13546546024,13546545217,13546546020,13546546022,13546545218,13546546017,13546545216,13546546018,13546545214,13546546013,13546545431,13546545435,13546546214,13546546207,13546545464,13546545419,13381666201],"coordinates":[[-79.0441158,-8.1165216],[-79.043084,-8.1174487],[-79.0411585,-8.1190688],[-79.0400719,-8.1209651],[-79.0392062,-8.123624],[-79.0376479,-8.1250348],[-79.0343534,-8.1263244],[-79.0311438,-8.12682],[-79.0288382,-8.126564],[-79.0234629,-8.1224238],[-79.0242313,-8.117565],[-79.0221074,-8.1153628],[-79.0196637,-8.1127858],[-79.0176395,-8.1104764],[-79.0154954,-8.1080185],[-79.0138854,-8.1061501],[-79.0120998,-8.1040441],[-79.0103882,-8.1021258],[-79.0080925,-8.0993433],[-79.005462,-8.0962709],[-79.0026628,-8.0929774],[-78.9996426,-8.0893785],[-79.0001625,-8.0842065],[-79.0009174,-8.0829646],[-78.9998016,-8.0795148],[-78.9972567,-8.0706665],[-78.9954009,-8.0696425],[-78.9961527,-8.0677649],[-78.9939348,-8.0646087]]}}},{"type":"Feature","properties":{"bus":"yes","highway":"bus_stop","network":"Transporte Público Urbano Trujillo","public_transport":"platform","ref":"AMEO-79","source":"Gerencia de Transporte Metropolitano de Trujillo","id":13546545259},"geometry":{"type":"Point","coordinates":[-79.043084,-8.1174487]}},{"type":"Feature","properties":{"bus":"yes","highway":"bus_stop","network":"Transporte Público Urbano Trujillo","public_transport":"platform","ref":"AMEO-80","source":"Gerencia de Transporte Metropolitano de Trujillo","id":13546545258},"geometry":{"type":"Point","coordinates":[-79.0411585,-8.1190688]}},{"type":"Feature","properties":{"bus":"yes","highway":"bus_stop","network":"Transporte Público Urbano Trujillo","public_transport":"platform","ref":"AMS-43","source":"Gerencia de Transporte Metropolitano de Trujillo","id":13546545241},"geometry":{"type":"Point","coordinates":[-79.0400719,-8.1209651]}},{"type":"Feature","properties":{"bus":"yes","highway":"bus_stop","network":"Transporte Público Urbano Trujillo","public_transport":"platform","ref":"AMS-45","source":"Gerencia de Transporte Metropolitano de Trujillo","id":13546546049},"geometry":{"type":"Point","coordinates":[-79.0392062,-8.123624]}},{"type":"Feature","properties":{"bus":"yes","highway":"bus_stop","network":"Transporte Público Urbano Trujillo","public_transport":"platform","ref":"AMS-46","source":"Gerencia de Transporte Metropolitano de Trujillo","id":13546546048},"geometry":{"type":"Point","coordinates":[-79.0376479,-8.1250348]}},{"type":"Feature","properties":{"bus":"yes","highway":"bus_stop","network":"Transporte Público Urbano Trujillo","public_transport":"platform","ref":"AMS-39","source":"Gerencia de Transporte Metropolitano de Trujillo","id":13546546053},"geometry":{"type":"Point","coordinates":[-79.0343534,-8.1263244]}},{"type":"Feature","properties":{"advertising":"yes","bench":"yes","bicycle_parking":"no","bin":"no","bus":"yes","departures_board":"no","highway":"bus_stop","level":"0","lit":"yes","name":"Prolongación Cesar Vallejo","network":"Transporte Público Urbano Trujillo","passenger_information_display:speech_output":"no","pole":"yes","public_transport":"platform","ramp":"no","ref":"AMS-49","shelter":"yes","source:ref":"Gerencia de Transporte Metropolitano de Trujillo","tactile_paving":"no","tactile_writing:braille:es":"no","id":11910359975},"geometry":{"type":"Point","coordinates":[-79.0311438,-8.12682]}},{"type":"Feature","properties":{"bus":"yes","highway":"bus_stop","network":"Transporte Público Urbano Trujillo","public_transport":"platform","ref":"AMS-51","source":"Gerencia de Transporte Metropolitano de Trujillo","id":13546546046},"geometry":{"type":"Point","coordinates":[-79.0288382,-8.126564]}},{"type":"Feature","properties":{"bus":"yes","highway":"bus_stop","network":"Transporte Público Urbano Trujillo","public_transport":"platform","ref":"MO-418","source":"Gerencia de Transporte Metropolitano de Trujillo","id":13546545922},"geometry":{"type":"Point","coordinates":[-79.0234629,-8.1224238]}},{"type":"Feature","properties":{"bus":"yes","highway":"bus_stop","network":"Transporte Público Urbano Trujillo","public_transport":"platform","ref":"IN-167","source":"Gerencia de Transporte Metropolitano de Trujillo","id":13546545966},"geometry":{"type":"Point","coordinates":[-79.0242313,-8.117565]}},{"type":"Feature","properties":{"bus":"yes","highway":"bus_stop","network":"Transporte Público Urbano Trujillo","public_transport":"platform","ref":"IN-169","source":"Gerencia de Transporte Metropolitano de Trujillo","id":13546545964},"geometry":{"type":"Point","coordinates":[-79.0221074,-8.1153628]}},{"type":"Feature","properties":{"bus":"yes","highway":"bus_stop","network":"Transporte Público Urbano Trujillo","public_transport":"platform","ref":"CEV-172","source":"Gerencia de Transporte Metropolitano de Trujillo","id":13546546024},"geometry":{"type":"Point","coordinates":[-79.0196637,-8.1127858]}},{"type":"Feature","properties":{"bus":"yes","highway":"bus_stop","network":"Transporte Público Urbano Trujillo","public_transport":"platform","ref":"CEV-179","source":"Gerencia de Transporte Metropolitano de Trujillo","id":13546545217},"geometry":{"type":"Point","coordinates":[-79.0176395,-8.1104764]}},{"type":"Feature","properties":{"bus":"yes","highway":"bus_stop","network":"Transporte Público Urbano Trujillo","public_transport":"platform","ref":"CEV-177","source":"Gerencia de Transporte Metropolitano de Trujillo","id":13546546020},"geometry":{"type":"Point","coordinates":[-79.0154954,-8.1080185]}},{"type":"Feature","properties":{"bus":"yes","highway":"bus_stop","network":"Transporte Público Urbano Trujillo","public_transport":"platform","ref":"CEV-175","source":"Gerencia de Transporte Metropolitano de Trujillo","id":13546546022},"geometry":{"type":"Point","coordinates":[-79.0138854,-8.1061501]}},{"type":"Feature","properties":{"bus":"yes","highway":"bus_stop","network":"Transporte Público Urbano Trujillo","public_transport":"platform","ref":"CEV-173","source":"Gerencia de Transporte Metropolitano de Trujillo","id":13546545218},"geometry":{"type":"Point","coordinates":[-79.0120998,-8.1040441]}},{"type":"Feature","properties":{"bus":"yes","highway":"bus_stop","network":"Transporte Público Urbano Trujillo","public_transport":"platform","ref":"CEV-182","source":"Gerencia de Transporte Metropolitano de Trujillo","id":13546546017},"geometry":{"type":"Point","coordinates":[-79.0103882,-8.1021258]}},{"type":"Feature","properties":{"bus":"yes","highway":"bus_stop","network":"Transporte Público Urbano Trujillo","public_transport":"platform","ref":"CEV-181","source":"Gerencia de Transporte Metropolitano de Trujillo","id":13546545216},"geometry":{"type":"Point","coordinates":[-79.0080925,-8.0993433]}},{"type":"Feature","properties":{"bus":"yes","highway":"bus_stop","network":"Transporte Público Urbano Trujillo","public_transport":"platform","ref":"CEV-180","source":"Gerencia de Transporte Metropolitano de Trujillo","id":13546546018},"geometry":{"type":"Point","coordinates":[-79.005462,-8.0962709]}},{"type":"Feature","properties":{"bus":"yes","highway":"bus_stop","network":"Transporte Público Urbano Trujillo","public_transport":"platform","ref":"CEV-188","source":"Gerencia de Transporte Metropolitano de Trujillo","id":13546545214},"geometry":{"type":"Point","coordinates":[-79.0026628,-8.0929774]}},{"type":"Feature","properties":{"bus":"yes","highway":"bus_stop","network":"Transporte Público Urbano Trujillo","public_transport":"platform","ref":"CEV-187","source":"Gerencia de Transporte Metropolitano de Trujillo","id":13546546013},"geometry":{"type":"Point","coordinates":[-78.9996426,-8.0893785]}},{"type":"Feature","properties":{"bus":"yes","highway":"bus_stop","network":"Transporte Público Urbano Trujillo","public_transport":"platform","ref":"PP-50","source":"Gerencia de Transporte Metropolitano de Trujillo","id":13546545431},"geometry":{"type":"Point","coordinates":[-79.0001625,-8.0842065]}},{"type":"Feature","properties":{"bus":"yes","highway":"bus_stop","network":"Transporte Público Urbano Trujillo","public_transport":"platform","ref":"PP-40","source":"Gerencia de Transporte Metropolitano de Trujillo","id":13546545435},"geometry":{"type":"Point","coordinates":[-79.0009174,-8.0829646]}},{"type":"Feature","properties":{"bus":"yes","highway":"bus_stop","network":"Transporte Público Urbano Trujillo","public_transport":"platform","ref":"PP-39","source":"Gerencia de Transporte Metropolitano de Trujillo","id":13546546214},"geometry":{"type":"Point","coordinates":[-78.9998016,-8.0795148]}},{"type":"Feature","properties":{"bus":"yes","highway":"bus_stop","network":"Transporte Público Urbano Trujillo","public_transport":"platform","ref":"PP-6","source":"Gerencia de Transporte Metropolitano de Trujillo","id":13546546207},"geometry":{"type":"Point","coordinates":[-78.9972567,-8.0706665]}},{"type":"Feature","properties":{"bus":"yes","highway":"bus_stop","network":"Transporte Público Urbano Trujillo","public_transport":"platform","ref":"PP-154","source":"Gerencia de Transporte Metropolitano de Trujillo","id":13546545464},"geometry":{"type":"Point","coordinates":[-78.9954009,-8.0696425]}},{"type":"Feature","properties":{"bus":"yes","highway":"bus_stop","network":"Transporte Público Urbano Trujillo","public_transport":"platform","ref":"PP-7","source":"Gerencia de Transporte Metropolitano de Trujillo","id":13546545419},"geometry":{"type":"Point","coordinates":[-78.9961527,-8.0677649]}}]}