{"type":"FeatureCollection","features":[{"type":"Feature","properties":{"check_date":"2025-12-16","colour":"#cc3333","colour:text":"#FFFFFF","fee":"yes","from":"Ciudad de Dios","hash":"12776","interval":"4","name":"Ciudad de Dios → Avenida Antenor Orrego","network":"Transporte Público Urbano Trujillo","opening_hours":"Mo-Su 05:00-23:00","operator":"VIRGEN DEL ARCO S.A.","public_transport:version":"2","ref":"C-16 I","route":"bus","survey:avg_speed:kmh":"20","to":"Avenida Antenor Orrego","type":"route","id":19968183},"geometry":{"type":"LineString","coordinates":[[-78.9939348,-8.0646087],[-78.9940414,-8.0648973],[-78.9945121,-8.0647463],[-78.9949488,-8.064609],[-78.9950189,-8.0645826],[-78.9952817,-8.0653539],[-78.9957146,-8.0663588],[-78.9960498,-8.0672689],[-78.996552,-8.0685517],[-78.9964774,-8.0685795],[-78.9958386,-8.068816],[-78.9951839,-8.0690369],[-78.9955493,-8.0700283],[-78.9962044,-8.0697605],[-78.9968234,-8.0694898],[-78.9968938,-8.0694592],[-78.9971447,-8.0700898],[-78.997296,-8.0705003],[-78.9976112,-8.0715356],[-78.9979305,-8.0725518],[-78.9982828,-8.073686],[-78.9985716,-8.0746861],[-78.9988906,-8.0757445],[-78.9994131,-8.0774585],[-78.9995155,-8.0778168],[-78.9996135,-8.0781277],[-78.999815,-8.0787437],[-79.0000087,-8.0793966],[-79.0001912,-8.0799984],[-79.0005364,-8.0811283],[-79.0008815,-8.0822634],[-79.001178,-8.0833298],[-79.0010941,-8.0833532],[-79.0000507,-8.0836445],[-79.0003533,-8.0847957],[-79.0006628,-8.0859528],[-79.0017591,-8.0856436],[-79.0018393,-8.085621],[-79.003191,-8.085226],[-79.0036831,-8.0850942],[-79.0042096,-8.0849438],[-79.0042667,-8.0849295],[-79.0043786,-8.0855426],[-79.0044614,-8.0859982],[-79.0044692,-8.0860485],[-79.004539,-8.0863668],[-79.0045424,-8.0864663],[-79.0057135,-8.0863762],[-79.006416,-8.0863288],[-79.0076601,-8.0862399],[-79.0083362,-8.0861935],[-79.0091457,-8.0861352],[-79.0096079,-8.0861019],[-79.0098404,-8.0860464],[-79.0104545,-8.0857741],[-79.0107734,-8.0856741],[-79.0110985,-8.0856207],[-79.0117268,-8.0855544],[-79.0127613,-8.0854901],[-79.0137657,-8.0854308],[-79.0139974,-8.0854189],[-79.0141145,-8.0854188],[-79.0142365,-8.0854354],[-79.0143545,-8.0854155],[-79.0143955,-8.0854218],[-79.0145002,-8.08544],[-79.0159436,-8.0856802],[-79.0173234,-8.0859097],[-79.0180687,-8.086036],[-79.0188488,-8.0861544],[-79.0196337,-8.0862709],[-79.0203137,-8.0863755],[-79.0209574,-8.0864763],[-79.0216038,-8.0865842],[-79.0223561,-8.0866973],[-79.0230494,-8.0868036],[-79.0237869,-8.0869208],[-79.0245167,-8.0870312],[-79.0252469,-8.0871096],[-79.0252359,-8.0871887],[-79.0251865,-8.087582],[-79.0250906,-8.0881922],[-79.0249965,-8.0888284],[-79.0252282,-8.0888398],[-79.0254374,-8.0888279],[-79.0256641,-8.0888411],[-79.025839,-8.0888632],[-79.0259175,-8.0888783],[-79.0262125,-8.08895],[-79.026348,-8.0889607],[-79.0264899,-8.0889535],[-79.0264734,-8.0890576],[-79.0267693,-8.0902831],[-79.0269979,-8.0912142],[-79.0271703,-8.0919212],[-79.0272875,-8.0924019],[-79.0274989,-8.0933589],[-79.0275317,-8.0934992],[-79.0269824,-8.0935073],[-79.026895,-8.0935087],[-79.0267919,-8.0935064],[-79.0266618,-8.0934973],[-79.0264738,-8.0934785],[-79.0262918,-8.0934473],[-79.025947,-8.0933648],[-79.0256449,-8.0932864],[-79.0255415,-8.0932672],[-79.0253703,-8.0932572],[-79.0249673,-8.0932623],[-79.0249853,-8.0936908],[-79.0252554,-8.0937219],[-79.0253966,-8.0937499],[-79.0254886,-8.0937737],[-79.0257098,-8.0938322],[-79.0257497,-8.0938473],[-79.0259212,-8.093912],[-79.026124,-8.0940075],[-79.0263109,-8.0941169],[-79.0264865,-8.0942425],[-79.0266608,-8.0943797],[-79.0268601,-8.0945813],[-79.0272717,-8.0950072],[-79.0273313,-8.0950685],[-79.0277361,-8.0954904],[-79.0280436,-8.0958043],[-79.0281093,-8.0958733],[-79.0285236,-8.0962979],[-79.0296627,-8.097465],[-79.0297622,-8.0975681],[-79.0299341,-8.0977425],[-79.03015,-8.0979621],[-79.0303946,-8.0982191],[-79.03053,-8.098369],[-79.0306697,-8.0985534],[-79.0308063,-8.0987806],[-79.0315076,-8.1001224],[-79.0315613,-8.1002232],[-79.0317974,-8.1006595],[-79.0325047,-8.101998],[-79.0327669,-8.1024797],[-79.0330027,-8.1029008],[-79.0330448,-8.1029781],[-79.0334047,-8.1036667],[-79.0336554,-8.1041335],[-79.0338867,-8.1045503],[-79.0340721,-8.1048958],[-79.0341355,-8.1050007],[-79.0341565,-8.1050326],[-79.0342258,-8.1051172],[-79.0343081,-8.1051894],[-79.0343997,-8.1052473],[-79.0344981,-8.1052881],[-79.0346003,-8.1053133],[-79.0347052,-8.1053225],[-79.0348477,-8.1053259],[-79.0350511,-8.1052429],[-79.0353172,-8.1051343],[-79.0354601,-8.105076],[-79.0355755,-8.1050771],[-79.035605,-8.1050916],[-79.0356791,-8.1051455],[-79.0357223,-8.1051829],[-79.0358273,-8.1052641],[-79.036067,-8.1057871],[-79.0362184,-8.1061526],[-79.0362525,-8.1062342],[-79.0365364,-8.1069179],[-79.0369485,-8.1079294],[-79.0372699,-8.1087139],[-79.037388,-8.108956],[-79.0375097,-8.1091387],[-79.0380939,-8.1098517],[-79.0382775,-8.1097444],[-79.0384242,-8.109683],[-79.0393122,-8.1093673],[-79.0393772,-8.1093442],[-79.0394232,-8.1094639],[-79.0396984,-8.1102038],[-79.0397296,-8.1102878],[-79.0398846,-8.1107372],[-79.0400416,-8.1111941],[-79.0402078,-8.111664],[-79.0403834,-8.111978],[-79.0405484,-8.1121849],[-79.040565,-8.1122081],[-79.0412355,-8.1130511],[-79.0416002,-8.1134743],[-79.0425701,-8.1145531],[-79.0437674,-8.1159481],[-79.0441168,-8.11634],[-79.0442091,-8.1164455],[-79.0441158,-8.1165216]],"nodes":[13381666201,5480722110,5480722118,5456072883,8098058328,8098058329,8098058330,8098058334,8098058335,5456072894,5456072893,5456072892,5456072891,5480717102,5456072887,8098058336,10733820107,1098588275,1098633300,1098594714,1098594995,1098600715,1098626795,1098616551,5457466225,11027852594,5432246032,5432246031,1098645032,1098632773,1098622291,1098612090,5087152247,1098614050,5432245218,5432246025,5087152249,1098627804,5456051646,5457486707,5481275476,5456051647,5457486700,5457486717,8167978447,5481275480,7668139444,7668139450,7668139449,7668139451,7668139443,7668139447,5480877474,7668139448,5457486693,1098639151,5098604009,1098645666,1098633445,8167932067,1098612710,11028542517,10735702895,10735702891,5098491445,1098584722,10735716115,1098634878,1098603595,1098613708,1098623890,5483037369,1098593452,5483037363,5456093616,5456095923,1098609497,5483079116,5483079117,10735691978,5483079113,5483079114,5483079115,5483037572,5483037573,5483037574,5676154295,5483037575,5483037576,5483037577,5483033913,5483037408,5483053673,5432138655,5483053656,5483053653,5089356949,5089356954,11032383234,5089356953,11032383235,5089356952,11032362455,5089356951,10733716087,11032362458,5089356950,5483033920,1268310305,1268310334,316265090,11032795710,7123146897,316265089,11032795707,7123146899,7123146900,316265088,7123146902,316265087,5071955849,316265086,1098630211,11032795706,11032459643,5432137615,11037834990,316265085,320114962,5071955851,1098638894,316265083,7123146904,316265082,316265081,316265080,316265079,1098595020,5483354327,1098630280,316265078,316265077,1098605290,1098592541,4633926900,316261409,2587893378,2587893377,3386747951,11037837217,2587893387,2587893388,11033319445,2587893389,3386747952,3386747956,3386747938,5051905636,11033319453,11033319451,3386747937,11033319450,2587893399,2587893400,5051964665,8763957234,5478761331,1098619763,2481376233,11037999556,2481376232,1873564603,11037974906,1272612890,2610202744,1272612862,1098622098,11058076200,5054108342,1098622438,1098633102,1098616227,1098626454,1098637133,5478738878,1098649571,1098593492,1098599190,1098594262,1098623742,1098606484,2610202760]},"gtfs":{"agency_id":23,"route_id":46,"services":[{"service_id":"Mo-Su","startTime":"05:00","endTime":"23:00","trip_id":19968183}],"filteredStops":{"nodes":[13381666201,13546545415,13546545416,13546545463,13546546205,13546545457,13546546203,13546545430,13546545421,13546545595,13546545592,13546545593,13546545267,13546546054,13546545252,13546546056,13546545251,13546546055,11910518835,13546545899,13546546040,13546545227,2610202760],"coordinates":[[-78.9939348,-8.0646087],[-78.9951616,-8.0649188],[-78.9962666,-8.0677646],[-78.9953944,-8.0694986],[-78.9973603,-8.0706249],[-78.9980621,-8.0729311],[-79.0000633,-8.0794839],[-79.0001983,-8.0840205],[-79.0011518,-8.085806],[-79.0165788,-8.0857796],[-79.0199551,-8.0863014],[-79.0226753,-8.086695],[-79.0269516,-8.0907936],[-79.0260984,-8.0939734],[-79.0284252,-8.0961129],[-79.0305376,-8.0983175],[-79.0320016,-8.1008793],[-79.0333794,-8.1034995],[-79.0362453,-8.1061083],[-79.0370376,-8.1078566],[-79.0402851,-8.1115821],[-79.0418803,-8.1136662],[-79.0441158,-8.1165216]]},"forcedEndpointStops":[{"stop_id":13381666201,"stop_name":"Calle Villalonga","position":"first"},{"stop_id":2610202760,"stop_name":"Avenida América Oeste y Avenida Antenor Orrego","position":"last"}]}},{"type":"Feature","properties":{"bus":"yes","highway":"bus_stop","network":"Transporte Público Urbano Trujillo","public_transport":"platform","ref":"PP-77","source":"Gerencia de Transporte Metropolitano de Trujillo","id":13546545415},"geometry":{"type":"Point","coordinates":[-78.9951616,-8.0649188]}},{"type":"Feature","properties":{"bus":"yes","highway":"bus_stop","network":"Transporte Público Urbano Trujillo","public_transport":"platform","ref":"PP-74","source":"Gerencia de Transporte Metropolitano de Trujillo","id":13546545416},"geometry":{"type":"Point","coordinates":[-78.9962666,-8.0677646]}},{"type":"Feature","properties":{"bus":"yes","highway":"bus_stop","network":"Transporte Público Urbano Trujillo","public_transport":"platform","ref":"PP-155","source":"Gerencia de Transporte Metropolitano de Trujillo","id":13546545463},"geometry":{"type":"Point","coordinates":[-78.9953944,-8.0694986]}},{"type":"Feature","properties":{"bus":"yes","highway":"bus_stop","network":"Transporte Público Urbano Trujillo","public_transport":"platform","ref":"PP-75","source":"Gerencia de Transporte Metropolitano de Trujillo","id":13546546205},"geometry":{"type":"Point","coordinates":[-78.9973603,-8.0706249]}},{"type":"Feature","properties":{"bus":"yes","highway":"bus_stop","network":"Transporte Público Urbano Trujillo","public_transport":"platform","ref":"PP-172","source":"Gerencia de Transporte Metropolitano de Trujillo","id":13546545457},"geometry":{"type":"Point","coordinates":[-78.9980621,-8.0729311]}},{"type":"Feature","properties":{"bus":"yes","highway":"bus_stop","network":"Transporte Público Urbano Trujillo","public_transport":"platform","ref":"PP-90","source":"Gerencia de Transporte Metropolitano de Trujillo","id":13546546203},"geometry":{"type":"Point","coordinates":[-79.0000633,-8.0794839]}},{"type":"Feature","properties":{"bus":"yes","highway":"bus_stop","network":"Transporte Público Urbano Trujillo","public_transport":"platform","ref":"PP-51","source":"Gerencia de Transporte Metropolitano de Trujillo","id":13546545430},"geometry":{"type":"Point","coordinates":[-79.0001983,-8.0840205]}},{"type":"Feature","properties":{"bus":"yes","highway":"bus_stop","network":"Transporte Público Urbano Trujillo","public_transport":"platform","ref":"PP-66","source":"Gerencia de Transporte Metropolitano de Trujillo","id":13546545421},"geometry":{"type":"Point","coordinates":[-79.0011518,-8.085806]}},{"type":"Feature","properties":{"bus":"yes","highway":"bus_stop","network":"Transporte Público Urbano Trujillo","public_transport":"platform","ref":"PFM-24","source":"Gerencia de Transporte Metropolitano de Trujillo","id":13546545595},"geometry":{"type":"Point","coordinates":[-79.0165788,-8.0857796]}},{"type":"Feature","properties":{"bus":"yes","highway":"bus_stop","network":"Transporte Público Urbano Trujillo","public_transport":"platform","ref":"PFM-27","source":"Gerencia de Transporte Metropolitano de Trujillo","id":13546545592},"geometry":{"type":"Point","coordinates":[-79.0199551,-8.0863014]}},{"type":"Feature","properties":{"bus":"yes","highway":"bus_stop","network":"Transporte Público Urbano Trujillo","public_transport":"platform","ref":"PFM-26","source":"Gerencia de Transporte Metropolitano de Trujillo","id":13546545593},"geometry":{"type":"Point","coordinates":[-79.0226753,-8.086695]}},{"type":"Feature","properties":{"bus":"yes","highway":"bus_stop","network":"Transporte Público Urbano Trujillo","public_transport":"platform","ref":"AK-456","source":"Gerencia de Transporte Metropolitano de Trujillo","id":13546545267},"geometry":{"type":"Point","coordinates":[-79.0269516,-8.0907936]}},{"type":"Feature","properties":{"bus":"yes","highway":"bus_stop","network":"Transporte Público Urbano Trujillo","public_transport":"platform","ref":"AMN-34","source":"Gerencia de Transporte Metropolitano de Trujillo","id":13546546054},"geometry":{"type":"Point","coordinates":[-79.0260984,-8.0939734]}},{"type":"Feature","properties":{"bus":"yes","highway":"bus_stop","network":"Transporte Público Urbano Trujillo","public_transport":"platform","ref":"AMN-22","source":"Gerencia de Transporte Metropolitano de Trujillo","id":13546545252},"geometry":{"type":"Point","coordinates":[-79.0284252,-8.0961129]}},{"type":"Feature","properties":{"bus":"yes","highway":"bus_stop","network":"Transporte Público Urbano Trujillo","public_transport":"platform","ref":"AMN-23","source":"Gerencia de Transporte Metropolitano de Trujillo","id":13546546056},"geometry":{"type":"Point","coordinates":[-79.0305376,-8.0983175]}},{"type":"Feature","properties":{"bus":"yes","highway":"bus_stop","network":"Transporte Público Urbano Trujillo","public_transport":"platform","ref":"AMN-25","source":"Gerencia de Transporte Metropolitano de Trujillo","id":13546545251},"geometry":{"type":"Point","coordinates":[-79.0320016,-8.1008793]}},{"type":"Feature","properties":{"bus":"yes","highway":"bus_stop","network":"Transporte Público Urbano Trujillo","public_transport":"platform","ref":"AMN-27","source":"Gerencia de Transporte Metropolitano de Trujillo","id":13546546055},"geometry":{"type":"Point","coordinates":[-79.0333794,-8.1034995]}},{"type":"Feature","properties":{"advertising":"no","bench":"no","bicycle_parking":"no","bin":"no","bus":"yes","departures_board":"no","highway":"bus_stop","level":"0","lit":"yes","name":"Calle Santiago de Chile","network":"Transporte Público Urbano Trujillo","passenger_information_display:speech_output":"no","pole":"yes","public_transport":"platform","ramp":"no","ref":"ROM-370","shelter":"no","source:ref":"Gerencia de Transporte Metropolitano de Trujillo","tactile_paving":"no","tactile_writing:braille:es":"no","id":11910518835},"geometry":{"type":"Point","coordinates":[-79.0362453,-8.1061083]}},{"type":"Feature","properties":{"bus":"yes","highway":"bus_stop","network":"Transporte Público Urbano Trujillo","public_transport":"platform","ref":"PEMU-342","source":"Gerencia de Transporte Metropolitano de Trujillo","id":13546545899},"geometry":{"type":"Point","coordinates":[-79.0370376,-8.1078566]}},{"type":"Feature","properties":{"bus":"yes","highway":"bus_stop","network":"Transporte Público Urbano Trujillo","public_transport":"platform","ref":"ANTO-349","source":"Gerencia de Transporte Metropolitano de Trujillo","id":13546546040},"geometry":{"type":"Point","coordinates":[-79.0402851,-8.1115821]}},{"type":"Feature","properties":{"bus":"yes","highway":"bus_stop","network":"Transporte Público Urbano Trujillo","public_transport":"platform","ref":"ANTO-347","source":"Gerencia de Transporte Metropolitano de Trujillo","id":13546545227},"geometry":{"type":"Point","coordinates":[-79.0418803,-8.1136662]}}]}