{"type":"FeatureCollection","features":[{"type":"Feature","properties":{"check_date":"2025-12-17","colour":"#000099","colour:text":"#FFFFFF","fee":"yes","from":"Los Sauces de Barraza","hash":"18317","interval":"8","name":"Los Sauces de Barraza → Sector Las Lomas","network":"Transporte Público Urbano Trujillo","opening_hours":"Mo-Su 05:04-23:00","operator":"CABALLITO DE TOTORA S.A.","public_transport:version":"2","ref":"C-29 A","route":"bus","survey:avg_speed:kmh":"20","to":"Sector Las Lomas","type":"route","id":19972433},"geometry":{"type":"LineString","coordinates":[[-78.9861296,-8.106978],[-78.9861564,-8.1070084],[-78.9862302,-8.1070921],[-78.9862704,-8.1071532],[-78.9862865,-8.1072302],[-78.9862947,-8.1072559],[-78.9863055,-8.1072899],[-78.9863697,-8.1074918],[-78.9877404,-8.1084307],[-78.9886938,-8.1090838],[-78.9889157,-8.1092119],[-78.9890499,-8.1092608],[-78.9891806,-8.1092851],[-78.9894017,-8.1093103],[-78.9905331,-8.1093329],[-78.9908124,-8.1093505],[-78.9913637,-8.109348],[-78.9920075,-8.1093842],[-78.9926749,-8.1093809],[-78.9933209,-8.1094068],[-78.9939786,-8.1094265],[-78.9944211,-8.1094404],[-78.9944686,-8.1094456],[-78.9946535,-8.1094089],[-78.9951217,-8.1094037],[-78.9953068,-8.1093798],[-78.9954945,-8.1093213],[-78.9956975,-8.1092166],[-78.9958084,-8.1091594],[-78.996222,-8.1088501],[-78.9962435,-8.1088747],[-78.9962853,-8.1089226],[-78.997157,-8.1099233],[-78.9973229,-8.1101138],[-78.9994414,-8.1125352],[-78.9995504,-8.1126677],[-78.9998373,-8.1130537],[-79.0021769,-8.1161999],[-79.0029068,-8.1171836],[-79.0031813,-8.117553],[-79.0034771,-8.1179584],[-79.003778,-8.1183558],[-79.0038881,-8.1185036],[-79.0040637,-8.1187545],[-79.0040954,-8.1187999],[-79.0039784,-8.1189311],[-79.0036045,-8.1191291],[-79.0032188,-8.1193452],[-79.0027678,-8.1195731],[-79.002319,-8.1197872],[-79.001935,-8.1199351],[-79.00186,-8.1199513],[-79.0018137,-8.119958],[-79.0017319,-8.1199522],[-79.0017247,-8.1199516],[-79.0016201,-8.1199428],[-79.0018143,-8.1198502],[-79.0022369,-8.1196385],[-79.0024813,-8.1195165],[-79.0027958,-8.1193547],[-79.0031214,-8.1191918],[-79.0035657,-8.1189751],[-79.0036377,-8.1189337],[-79.0036941,-8.1188727],[-79.0037626,-8.1186919],[-79.0038881,-8.1185036],[-79.0040637,-8.1187545],[-79.0040954,-8.1187999],[-79.0042216,-8.1186691],[-79.0045879,-8.1184122],[-79.0052311,-8.1179878],[-79.0053727,-8.1178827],[-79.0056444,-8.1182617],[-79.006157,-8.1189918],[-79.0063555,-8.1192608],[-79.0069295,-8.1200149],[-79.007954,-8.1205417],[-79.0080741,-8.1205963],[-79.0086244,-8.120907],[-79.0088049,-8.1209987],[-79.0090913,-8.1211442],[-79.0098242,-8.1214816],[-79.0100118,-8.1215797],[-79.0105105,-8.1212659],[-79.0109864,-8.120851],[-79.0119674,-8.1199263],[-79.0120105,-8.1198857],[-79.012041,-8.1198587],[-79.012945,-8.1190559],[-79.0137787,-8.1183079],[-79.0150234,-8.1176982],[-79.0159199,-8.1170928],[-79.0160071,-8.1170044],[-79.0164702,-8.116631],[-79.0165503,-8.1165661],[-79.0166411,-8.1164975],[-79.0173852,-8.1159361],[-79.0186488,-8.1149867],[-79.0195102,-8.1143325],[-79.0204401,-8.1136315],[-79.0204853,-8.1135947],[-79.020867,-8.1140536],[-79.0216223,-8.1147748],[-79.022024,-8.1151865],[-79.0224448,-8.115615],[-79.0231409,-8.1163229],[-79.0241907,-8.1173689],[-79.0248674,-8.1179957],[-79.0249217,-8.1181009],[-79.0250373,-8.118209],[-79.025167,-8.1183311],[-79.0253204,-8.1184754],[-79.0253383,-8.1184941],[-79.0256705,-8.118841],[-79.0264393,-8.118158],[-79.0268801,-8.1177663],[-79.0269813,-8.1176761],[-79.0277331,-8.1170082],[-79.0280834,-8.1166989],[-79.0281235,-8.1166446],[-79.0281427,-8.1165955],[-79.0281521,-8.1165508],[-79.0281562,-8.1165123],[-79.02816,-8.1164691],[-79.0281671,-8.116382],[-79.0284496,-8.1164078],[-79.0286734,-8.1164296],[-79.0294592,-8.1164785],[-79.0295444,-8.1164761],[-79.0295863,-8.116469],[-79.0296324,-8.1164554],[-79.0300521,-8.1162717],[-79.030372,-8.1161366],[-79.03074,-8.1159634],[-79.0311823,-8.1157365],[-79.0312323,-8.1156916],[-79.0320139,-8.114641],[-79.0325502,-8.1139414],[-79.0326492,-8.1137822],[-79.0326675,-8.1136908],[-79.0327087,-8.1131413],[-79.0327818,-8.1121138],[-79.0327886,-8.1120193],[-79.0328627,-8.1109906],[-79.0328631,-8.1108787],[-79.0328511,-8.1107776],[-79.0329285,-8.110726],[-79.033009,-8.1106621],[-79.0333188,-8.1104161],[-79.0341395,-8.1097572],[-79.0341543,-8.1097459],[-79.0349028,-8.1091485],[-79.0356337,-8.1085868],[-79.0351945,-8.1075256],[-79.0348029,-8.1066426],[-79.0346315,-8.1062338],[-79.034577,-8.106088],[-79.03454,-8.1059281],[-79.0345088,-8.1057148],[-79.0345136,-8.1055981],[-79.0345463,-8.1055117],[-79.0346188,-8.1054415],[-79.0348477,-8.1053259],[-79.0350511,-8.1052429],[-79.0353172,-8.1051343],[-79.0354138,-8.1048883],[-79.0355034,-8.1047732],[-79.035663,-8.104694],[-79.0360076,-8.1045136],[-79.0367912,-8.1041102],[-79.0369314,-8.1040345],[-79.0379182,-8.1035043],[-79.0382349,-8.1033466],[-79.0393827,-8.1027516],[-79.0395335,-8.1026743],[-79.0398143,-8.1025775],[-79.0406237,-8.1022958],[-79.0410434,-8.1021507],[-79.0411374,-8.1021182],[-79.0415588,-8.1020103],[-79.0416924,-8.1019843],[-79.0421767,-8.1018823],[-79.0425162,-8.1018074],[-79.0428889,-8.1017252],[-79.0432935,-8.1016332],[-79.0434727,-8.1015933],[-79.0437537,-8.1015306],[-79.0439517,-8.101492],[-79.0440854,-8.1014659],[-79.0443467,-8.101415],[-79.0444704,-8.1013911],[-79.0445703,-8.1013691],[-79.04496,-8.1012834],[-79.045238,-8.1012223],[-79.045502,-8.1011642],[-79.0464087,-8.1009649],[-79.0472935,-8.1008592],[-79.0480278,-8.1007778],[-79.0484112,-8.1007686],[-79.0491768,-8.1007611],[-79.0492804,-8.1007601],[-79.0494033,-8.1007601],[-79.0500186,-8.1007343],[-79.0502781,-8.1007234],[-79.0504154,-8.1007199],[-79.0512481,-8.1007282],[-79.0521056,-8.1007598],[-79.0528013,-8.1007855],[-79.0529503,-8.1007923],[-79.0530684,-8.1007977],[-79.054022,-8.1008413],[-79.0547632,-8.1008749],[-79.055481,-8.1009075],[-79.0559667,-8.1009364],[-79.0564725,-8.100959],[-79.0571844,-8.1009974],[-79.0573342,-8.1009986],[-79.0576535,-8.1010035],[-79.0583768,-8.1010024],[-79.0592932,-8.1008303],[-79.0596181,-8.1007693],[-79.0598458,-8.1007211],[-79.0601603,-8.1006547],[-79.0603929,-8.1006055],[-79.0607502,-8.1005266],[-79.0611568,-8.1004368],[-79.0620191,-8.1002344],[-79.0621009,-8.1002184],[-79.0622483,-8.1001867],[-79.0623813,-8.100158],[-79.0624506,-8.100143],[-79.0634002,-8.0999443],[-79.0636157,-8.0998975],[-79.0636899,-8.0998814],[-79.0647799,-8.0996516],[-79.0651525,-8.099573],[-79.0664654,-8.099296],[-79.0669694,-8.0991567],[-79.0672098,-8.0990634],[-79.0673878,-8.0989918],[-79.0676129,-8.0988825],[-79.067834,-8.0987579],[-79.0680802,-8.098603],[-79.0683281,-8.09841],[-79.0688715,-8.0979095],[-79.0692977,-8.0974189],[-79.0694793,-8.0972099],[-79.0698626,-8.0967737],[-79.0712388,-8.0952492],[-79.0716351,-8.0948639],[-79.0719782,-8.0945655],[-79.0724515,-8.0942625],[-79.0727527,-8.0941049],[-79.0731284,-8.0939503],[-79.0735132,-8.0938124],[-79.0746052,-8.0935585],[-79.0758694,-8.0933121],[-79.0772934,-8.0929953],[-79.0776421,-8.0929237],[-79.0788602,-8.0926736],[-79.0807177,-8.0923034],[-79.0812028,-8.0922067],[-79.0814024,-8.092167],[-79.0816506,-8.0921098],[-79.08191,-8.0920388],[-79.0821065,-8.0919778],[-79.0827776,-8.0917474],[-79.082991,-8.0916768],[-79.0835798,-8.0914834],[-79.0842839,-8.0912521],[-79.0852673,-8.0909269],[-79.0861151,-8.0906452],[-79.0865425,-8.0905097],[-79.0871777,-8.090301],[-79.0875523,-8.0901779],[-79.0878168,-8.0900904],[-79.08813,-8.0899868],[-79.0885834,-8.0898369],[-79.0892876,-8.0896041],[-79.0896222,-8.0894934],[-79.0902526,-8.0892836],[-79.0906553,-8.0891518],[-79.0910834,-8.0890103],[-79.0918658,-8.0887559],[-79.092358,-8.0885958],[-79.0923899,-8.0885851],[-79.0927029,-8.0884806],[-79.0928472,-8.0884353],[-79.0928602,-8.0884312],[-79.0935126,-8.088209],[-79.093799,-8.0881171],[-79.0941732,-8.087997],[-79.0950784,-8.0877066],[-79.0951681,-8.0876778],[-79.0952422,-8.0876524],[-79.0953414,-8.0876158],[-79.0954966,-8.0875225],[-79.095628,-8.0874183],[-79.0957887,-8.0872528],[-79.0958711,-8.0871694],[-79.0959795,-8.0870617],[-79.0960119,-8.0870031],[-79.096023,-8.0869829],[-79.0960776,-8.0869176],[-79.0961528,-8.0868549],[-79.096239,-8.0868083],[-79.0963329,-8.0867796],[-79.0964306,-8.0867698],[-79.0965284,-8.0867794],[-79.0966105,-8.0868033],[-79.0967617,-8.086896],[-79.0968636,-8.0869297],[-79.0969652,-8.0869623],[-79.0970251,-8.0869738],[-79.0972037,-8.0869733],[-79.0974072,-8.0869372],[-79.0978544,-8.0867978],[-79.0983753,-8.0866543],[-79.0986175,-8.0866209],[-79.0988537,-8.0866018],[-79.0990906,-8.0865989],[-79.0993271,-8.0866122],[-79.0995622,-8.0866415],[-79.0999103,-8.0867048],[-79.100249,-8.0868071],[-79.1005762,-8.0869408],[-79.1008891,-8.0871049],[-79.1011848,-8.0872978],[-79.1014605,-8.0875177],[-79.1017138,-8.0877626],[-79.1026741,-8.0889547],[-79.1034672,-8.0899388],[-79.1036045,-8.0901126],[-79.1044722,-8.0912116],[-79.104823,-8.091668],[-79.1053844,-8.0923645],[-79.107365,-8.0948219],[-79.1085256,-8.0962264],[-79.108694,-8.096436],[-79.1089787,-8.0966564],[-79.1090144,-8.0966841],[-79.1091777,-8.0968053],[-79.1095597,-8.0970099],[-79.1101191,-8.0972028],[-79.1105381,-8.0973061],[-79.1108067,-8.0973427],[-79.111075,-8.0973598],[-79.1112072,-8.0973597],[-79.1114599,-8.0973374],[-79.111729,-8.0972893],[-79.1121831,-8.0971697],[-79.1126529,-8.0969987],[-79.113067,-8.0967762],[-79.1135478,-8.0964048],[-79.1138614,-8.0960641],[-79.1160973,-8.0933303],[-79.1169837,-8.0922465],[-79.1175864,-8.0915096],[-79.1180057,-8.0910028],[-79.119301,-8.0894022],[-79.119491,-8.0891674],[-79.1205084,-8.0879102],[-79.1216711,-8.0864514],[-79.1220081,-8.0860285],[-79.122177,-8.0858166],[-79.1225937,-8.0852375],[-79.1226556,-8.0851694],[-79.1227408,-8.0850313],[-79.1229386,-8.0846676],[-79.1230301,-8.0844458],[-79.1230971,-8.0842161],[-79.1231205,-8.0841014],[-79.1231373,-8.0840034],[-79.1231744,-8.083777],[-79.1232055,-8.0835294],[-79.1232133,-8.0832725],[-79.1232108,-8.0830394],[-79.1231547,-8.0825415],[-79.123074,-8.08221],[-79.1230276,-8.0820833],[-79.122954,-8.0818824],[-79.1229169,-8.081826],[-79.122889,-8.0818051],[-79.1228502,-8.0817928],[-79.1228113,-8.0817951],[-79.1227372,-8.0818178],[-79.1222338,-8.0819637],[-79.1212706,-8.0822061],[-79.120937,-8.0823124],[-79.1205485,-8.0824066],[-79.1197488,-8.0826213],[-79.1193329,-8.0827441],[-79.1192239,-8.0822512],[-79.1191076,-8.0817871],[-79.1190534,-8.0814342],[-79.1187132,-8.0814884],[-79.1174847,-8.0815429],[-79.1171407,-8.0815497],[-79.1163724,-8.0815677],[-79.1162194,-8.0815729],[-79.1161111,-8.0815742],[-79.1159272,-8.0815794],[-79.1158335,-8.0815823],[-79.1151116,-8.0815895],[-79.1142422,-8.0816174],[-79.1143684,-8.0820466],[-79.1145025,-8.0825027],[-79.1146327,-8.0829453],[-79.1147056,-8.0832629],[-79.1149134,-8.0839001],[-79.1151361,-8.0846573],[-79.1152642,-8.085093],[-79.1154,-8.0855549],[-79.1156834,-8.0868005]],"nodes":[7949201069,7949201063,7949201068,7949201067,7949201066,7949201060,10733220359,7949201065,5480596539,2604513435,2604513433,9123139032,2604513431,2604513429,5478840951,9123139031,5478840949,1098635483,1098625383,1098586738,5478840946,8168056292,1098631128,5478840952,4941298997,4941298996,4941298995,8060129021,4941298994,4941298993,12081593553,1098584914,11030850217,8060129034,1007782444,288407582,1195995116,8449760154,9155396560,4924821022,4924820719,2604140252,10726925957,12081593552,288407583,10726871368,10726925958,10726871373,10726871374,10726871372,10726871371,11030839511,10726871370,11030839514,12067185348,9244256941,2465880250,4924821031,10726871375,4924821025,2465880243,2465880237,10726925955,10726925956,2604140257,10726925957,12081593552,288407583,10726871367,8449760158,1027034190,1027034187,1188181858,1027054894,1188181844,1027034185,1195996139,1195995725,1188182043,7509328436,1188182034,1027034183,1873564615,1098604751,1098649733,11691368791,5476448465,11691368793,11037563508,5455991416,1098627931,5476479921,1015347839,320114994,316488151,13379874814,1098602954,1098606589,1098622247,1088227193,1088227447,1050928494,1088227351,1088227443,1088227238,1088227437,1088227226,316256329,1627006909,1627006911,11892812604,1098635029,5476546768,1627006951,1098647086,1627006896,1627006892,320114914,1627006871,1627006865,1627006861,1627006857,1627006841,1098598360,1098591261,2694543105,1098647241,316264102,1554840454,5101540451,316264103,316488686,11037703693,316264105,320114897,7123096673,320114902,316264107,316264108,4633792028,1098600919,4633792030,1098623402,316264109,7123110593,316264083,316489562,4636371397,1098613323,1098627784,5676450287,1088384560,316489561,1098636646,2587893404,1098599301,3386747943,3386747942,11033319444,3386747941,3743507193,3386747934,3386747952,3386747956,3386747938,5069721981,316491304,11033077923,5066923727,1142680254,4452558515,1098603959,1142679850,316491306,320113100,11037614265,5069439506,11037999552,316491307,1098649150,5067068198,316491308,13540672114,5067077725,5067077726,8100941599,5067077727,8100941596,8100941594,1088227191,2979702863,11028289495,5089760766,11028445005,11028430503,316491309,5090218493,316491310,5090218495,11079442230,3391447001,316491311,13271666475,3392598287,1098609171,11028445007,11037527767,5489001130,11028445010,13181175555,1098592168,11028445012,1098648528,5483559216,7120542347,5098153491,316491313,1098625247,316491314,11030909580,8137307097,11030909569,11030909571,8137307115,11030909573,11030909584,1098591574,10722433730,5089312776,11030860562,316491315,2795345923,11030860563,5089312820,10859499338,4567025855,316491316,5089313431,5089313430,316491317,5089313427,5089313426,5089313425,316491318,316491319,10722411290,316491320,5089692657,1142679919,11030860571,316491321,11030860573,316491322,11030860569,316491323,5089692666,4567025841,3128354993,5089692668,5089692670,5676154268,316491325,5089692675,5089692676,5089692677,316491326,3128355026,3128355025,3128355020,3128355024,5079582195,5079514188,5041338331,5079514190,316490954,5079514193,10722325940,5079582211,3128355192,3128355211,8137271247,5079514204,5079514206,8137261248,1142679906,12756430527,5079514207,5676450286,1142679946,1142680009,10803965457,10803965450,13406753779,2430926039,1098625605,316265974,13442772520,5079514208,316265975,8374705114,316265976,11870132242,3728391021,3728391019,316265744,3728391017,316265735,11870132241,316265736,3728391016,3728391018,316265825,13172500622,5079514210,316265824,316267060,316266954,288407858,12987952211,12987952210,7172752107,316266957,316266958,7172752108,1098594778,316266959,1098584863,316266960,7172752109,316266961,9225788194,1098614754,8449778864,1098588407,316266962,11022987820,316266964,1098624970,316266965,12840922261,1098614358,316266966,316266967,316266968,316266969,9138744279,1098615320,316266971,9138744281,316266972,316266973,316266974,316266975,316266977,316266978,8050625920,10722249356,1142679840,1142679952,11023027750,11023034575,316266979,11028582833,11023042540,316266981,316266984,8218727280,6203518667,316266820,9261031477,5459808681,1098606720,316265602,9261031481,316266821,9261031479,316266823,316265603,1091407127,9261031459,1483788222,9261031502,9261031500,1815033061,9261031501,1483788228,1098589972,1811290189,1091407221,1813344272,1098637342,1091407250,1098610984,1811987889,1091407122,1091407058,1091407076,5459808825,5459808823,12073273264,5471256057,5491675565,5491675645,1091407028,1091407010,5491675690,5491675694,5491675697,5491675651,5491675702,5491675656,5491675661,5471256063,5491675670]},"gtfs":{"agency_id":29,"route_id":65,"services":[{"service_id":"Mo-Su","startTime":"05:04","endTime":"23:00","trip_id":19972433}],"filteredStops":{"nodes":[7949201069,13546545353,13546545352,13546546181,13546545985,13546545184,13546545183,13546546121,13546545210,13546545209,13546546008,13546535092,13546535090,13546535089,13546535093,13546545963,13546545965,13546545989,13546545187,13546545188,13546545189,13546535096,13546545111,13546545138,13546545938,13546545934,13546545936,13546545501,13546545500,13546545499,13546545497,13546546263,13546545518,13546546262,13546545517,13546546259,13546545516,13546545515,5491675670],"coordinates":[[-78.9861296,-8.106978],[-78.9896986,-8.1092908],[-78.9915819,-8.1092964],[-78.9948451,-8.1093621],[-78.9974888,-8.1101861],[-79.0007224,-8.1141886],[-79.0026197,-8.1166789],[-79.00351,-8.1192248],[-79.0058896,-8.1185385],[-79.0069586,-8.1200022],[-79.008639,-8.1207778],[-79.0103262,-8.1213726],[-79.0116529,-8.1201758],[-79.0131009,-8.1188209],[-79.0150699,-8.1176022],[-79.0219756,-8.1150777],[-79.0241112,-8.1172325],[-79.0288378,-8.1164007],[-79.0313214,-8.1154747],[-79.0326768,-8.1129583],[-79.0328035,-8.1111601],[-79.0354076,-8.1087135],[-79.0348635,-8.1069554],[-79.0364213,-8.1042533],[-79.0412932,-8.1020398],[-79.0488069,-8.1007275],[-79.0510692,-8.1007105],[-79.0649709,-8.099563],[-79.0846485,-8.0910791],[-79.0885843,-8.0897285],[-79.0944031,-8.0878973],[-79.1001045,-8.0867295],[-79.1055809,-8.0925294],[-79.1105261,-8.0972975],[-79.1189116,-8.0898534],[-79.1223416,-8.0819735],[-79.1195836,-8.0827125],[-79.1184274,-8.0815296],[-79.1156834,-8.0868005]]},"forcedEndpointStops":[{"stop_id":7949201069,"stop_name":"Sin nombre","position":"first"},{"stop_id":5491675670,"stop_name":"Avenida el Triunfo","position":"last"}]}},{"type":"Feature","properties":{"bus":"yes","highway":"bus_stop","name":"PL-97","network":"Transporte Público Urbano Trujillo","public_transport":"platform","ref":"PL-97","source":"Gerencia de Transporte Metropolitano de Trujillo","id":13546545353},"geometry":{"type":"Point","coordinates":[-78.9896986,-8.1092908]}},{"type":"Feature","properties":{"bus":"yes","highway":"bus_stop","name":"PL-99","network":"Transporte Público Urbano Trujillo","public_transport":"platform","ref":"PL-99","source":"Gerencia de Transporte Metropolitano de Trujillo","id":13546545352},"geometry":{"type":"Point","coordinates":[-78.9915819,-8.1092964]}},{"type":"Feature","properties":{"bus":"yes","highway":"bus_stop","name":"PL-102","network":"Transporte Público Urbano Trujillo","public_transport":"platform","ref":"PL-102","source":"Gerencia de Transporte Metropolitano de Trujillo","id":13546546181},"geometry":{"type":"Point","coordinates":[-78.9948451,-8.1093621]}},{"type":"Feature","properties":{"bus":"yes","highway":"bus_stop","name":"EV-543","network":"Transporte Público Urbano Trujillo","public_transport":"platform","ref":"EV-543","source":"Gerencia de Transporte Metropolitano de Trujillo","id":13546545985},"geometry":{"type":"Point","coordinates":[-78.9974888,-8.1101861]}},{"type":"Feature","properties":{"bus":"yes","highway":"bus_stop","name":"EV-544","network":"Transporte Público Urbano Trujillo","public_transport":"platform","ref":"EV-544","source":"Gerencia de Transporte Metropolitano de Trujillo","id":13546545184},"geometry":{"type":"Point","coordinates":[-79.0007224,-8.1141886]}},{"type":"Feature","properties":{"bus":"yes","highway":"bus_stop","name":"EV-546","network":"Transporte Público Urbano Trujillo","public_transport":"platform","ref":"EV-546","source":"Gerencia de Transporte Metropolitano de Trujillo","id":13546545183},"geometry":{"type":"Point","coordinates":[-79.0026197,-8.1166789]}},{"type":"Feature","properties":{"bus":"yes","highway":"bus_stop","name":"PM-117","network":"Transporte Público Urbano Trujillo","public_transport":"platform","ref":"PM-117","source":"Gerencia de Transporte Metropolitano de Trujillo","id":13546546121},"geometry":{"type":"Point","coordinates":[-79.00351,-8.1192248]}},{"type":"Feature","properties":{"bus":"yes","highway":"bus_stop","name":"CONT-378","network":"Transporte Público Urbano Trujillo","public_transport":"platform","ref":"CONT-378","source":"Gerencia de Transporte Metropolitano de Trujillo","id":13546545210},"geometry":{"type":"Point","coordinates":[-79.0058896,-8.1185385]}},{"type":"Feature","properties":{"bus":"yes","highway":"bus_stop","name":"CONT-380","network":"Transporte Público Urbano Trujillo","public_transport":"platform","ref":"CONT-380","source":"Gerencia de Transporte Metropolitano de Trujillo","id":13546545209},"geometry":{"type":"Point","coordinates":[-79.0069586,-8.1200022]}},{"type":"Feature","properties":{"bus":"yes","highway":"bus_stop","name":"CONT-382","network":"Transporte Público Urbano Trujillo","public_transport":"platform","ref":"CONT-382","source":"Gerencia de Transporte Metropolitano de Trujillo","id":13546546008},"geometry":{"type":"Point","coordinates":[-79.008639,-8.1207778]}},{"type":"Feature","properties":{"bus":"yes","highway":"bus_stop","name":"PFRAZ-424","network":"Transporte Público Urbano Trujillo","public_transport":"platform","ref":"PFRAZ-424","source":"Gerencia de Transporte Metropolitano de Trujillo","id":13546535092},"geometry":{"type":"Point","coordinates":[-79.0103262,-8.1213726]}},{"type":"Feature","properties":{"bus":"yes","highway":"bus_stop","name":"PFRAZ-426","network":"Transporte Público Urbano Trujillo","public_transport":"platform","ref":"PFRAZ-426","source":"Gerencia de Transporte Metropolitano de Trujillo","id":13546535090},"geometry":{"type":"Point","coordinates":[-79.0116529,-8.1201758]}},{"type":"Feature","properties":{"bus":"yes","highway":"bus_stop","name":"PFRAZ-427","network":"Transporte Público Urbano Trujillo","public_transport":"platform","ref":"PFRAZ-427","source":"Gerencia de Transporte Metropolitano de Trujillo","id":13546535089},"geometry":{"type":"Point","coordinates":[-79.0131009,-8.1188209]}},{"type":"Feature","properties":{"bus":"yes","highway":"bus_stop","name":"PFRAZ-423","network":"Transporte Público Urbano Trujillo","public_transport":"platform","ref":"PFRAZ-423","source":"Gerencia de Transporte Metropolitano de Trujillo","id":13546535093},"geometry":{"type":"Point","coordinates":[-79.0150699,-8.1176022]}},{"type":"Feature","properties":{"bus":"yes","highway":"bus_stop","name":"IN-170","network":"Transporte Público Urbano Trujillo","public_transport":"platform","ref":"IN-170","source":"Gerencia de Transporte Metropolitano de Trujillo","id":13546545963},"geometry":{"type":"Point","coordinates":[-79.0219756,-8.1150777]}},{"type":"Feature","properties":{"bus":"yes","highway":"bus_stop","name":"IN-168","network":"Transporte Público Urbano Trujillo","public_transport":"platform","ref":"IN-168","source":"Gerencia de Transporte Metropolitano de Trujillo","id":13546545965},"geometry":{"type":"Point","coordinates":[-79.0241112,-8.1172325]}},{"type":"Feature","properties":{"bus":"yes","highway":"bus_stop","name":"ESP-6","network":"Transporte Público Urbano Trujillo","public_transport":"platform","ref":"ESP-6","source":"Gerencia de Transporte Metropolitano de Trujillo","id":13546545989},"geometry":{"type":"Point","coordinates":[-79.0288378,-8.1164007]}},{"type":"Feature","properties":{"bus":"yes","highway":"bus_stop","name":"ESP-3","network":"Transporte Público Urbano Trujillo","public_transport":"platform","ref":"ESP-3","source":"Gerencia de Transporte Metropolitano de Trujillo","id":13546545187},"geometry":{"type":"Point","coordinates":[-79.0313214,-8.1154747]}},{"type":"Feature","properties":{"bus":"yes","highway":"bus_stop","name":"ESP-2","network":"Transporte Público Urbano Trujillo","public_transport":"platform","ref":"ESP-2","source":"Gerencia de Transporte Metropolitano de Trujillo","id":13546545188},"geometry":{"type":"Point","coordinates":[-79.0326768,-8.1129583]}},{"type":"Feature","properties":{"bus":"yes","highway":"bus_stop","name":"ESP-1","network":"Transporte Público Urbano Trujillo","public_transport":"platform","ref":"ESP-1","source":"Gerencia de Transporte Metropolitano de Trujillo","id":13546545189},"geometry":{"type":"Point","coordinates":[-79.0328035,-8.1111601]}},{"type":"Feature","properties":{"bus":"yes","highway":"bus_stop","name":"PEMU-341","network":"Transporte Público Urbano Trujillo","public_transport":"platform","ref":"PEMU-341","source":"Gerencia de Transporte Metropolitano de Trujillo","id":13546535096},"geometry":{"type":"Point","coordinates":[-79.0354076,-8.1087135]}},{"type":"Feature","properties":{"bus":"yes","highway":"bus_stop","name":"NA-527","network":"Transporte Público Urbano Trujillo","public_transport":"platform","ref":"NA-527","source":"Gerencia de Transporte Metropolitano de Trujillo","id":13546545111},"geometry":{"type":"Point","coordinates":[-79.0348635,-8.1069554]}},{"type":"Feature","properties":{"bus":"yes","highway":"bus_stop","name":"MANT-103","network":"Transporte Público Urbano Trujillo","public_transport":"platform","ref":"MANT-103","source":"Gerencia de Transporte Metropolitano de Trujillo","id":13546545138},"geometry":{"type":"Point","coordinates":[-79.0364213,-8.1042533]}},{"type":"Feature","properties":{"bus":"yes","highway":"bus_stop","name":"MANT-107","network":"Transporte Público Urbano Trujillo","public_transport":"platform","ref":"MANT-107","source":"Gerencia de Transporte Metropolitano de Trujillo","id":13546545938},"geometry":{"type":"Point","coordinates":[-79.0412932,-8.1020398]}},{"type":"Feature","properties":{"bus":"yes","highway":"bus_stop","name":"MANT-114","network":"Transporte Público Urbano Trujillo","public_transport":"platform","ref":"MANT-114","source":"Gerencia de Transporte Metropolitano de Trujillo","id":13546545934},"geometry":{"type":"Point","coordinates":[-79.0488069,-8.1007275]}},{"type":"Feature","properties":{"bus":"yes","highway":"bus_stop","name":"MANT-110","network":"Transporte Público Urbano Trujillo","public_transport":"platform","ref":"MANT-110","source":"Gerencia de Transporte Metropolitano de Trujillo","id":13546545936},"geometry":{"type":"Point","coordinates":[-79.0510692,-8.1007105]}},{"type":"Feature","properties":{"bus":"yes","highway":"bus_stop","name":"PH-66","network":"Transporte Público Urbano Trujillo","public_transport":"platform","ref":"PH-66","source":"Gerencia de Transporte Metropolitano de Trujillo","id":13546545501},"geometry":{"type":"Point","coordinates":[-79.0649709,-8.099563]}},{"type":"Feature","properties":{"bus":"yes","highway":"bus_stop","name":"PH-70","network":"Transporte Público Urbano Trujillo","public_transport":"platform","ref":"PH-70","source":"Gerencia de Transporte Metropolitano de Trujillo","id":13546545500},"geometry":{"type":"Point","coordinates":[-79.0846485,-8.0910791]}},{"type":"Feature","properties":{"bus":"yes","highway":"bus_stop","name":"PH-71","network":"Transporte Público Urbano Trujillo","public_transport":"platform","ref":"PH-71","source":"Gerencia de Transporte Metropolitano de Trujillo","id":13546545499},"geometry":{"type":"Point","coordinates":[-79.0885843,-8.0897285]}},{"type":"Feature","properties":{"bus":"yes","highway":"bus_stop","name":"PH-82","network":"Transporte Público Urbano Trujillo","public_transport":"platform","ref":"PH-82","source":"Gerencia de Transporte Metropolitano de Trujillo","id":13546545497},"geometry":{"type":"Point","coordinates":[-79.0944031,-8.0878973]}},{"type":"Feature","properties":{"bus":"yes","highway":"bus_stop","name":"PH-25","network":"Transporte Público Urbano Trujillo","public_transport":"platform","ref":"PH-25","source":"Gerencia de Transporte Metropolitano de Trujillo","id":13546546263},"geometry":{"type":"Point","coordinates":[-79.1001045,-8.0867295]}},{"type":"Feature","properties":{"bus":"yes","highway":"bus_stop","name":"PH-26","network":"Transporte Público Urbano Trujillo","public_transport":"platform","ref":"PH-26","source":"Gerencia de Transporte Metropolitano de Trujillo","id":13546545518},"geometry":{"type":"Point","coordinates":[-79.1055809,-8.0925294]}},{"type":"Feature","properties":{"bus":"yes","highway":"bus_stop","name":"PH-27","network":"Transporte Público Urbano Trujillo","public_transport":"platform","ref":"PH-27","source":"Gerencia de Transporte Metropolitano de Trujillo","id":13546546262},"geometry":{"type":"Point","coordinates":[-79.1105261,-8.0972975]}},{"type":"Feature","properties":{"bus":"yes","highway":"bus_stop","name":"PH-29","network":"Transporte Público Urbano Trujillo","public_transport":"platform","ref":"PH-29","source":"Gerencia de Transporte Metropolitano de Trujillo","id":13546545517},"geometry":{"type":"Point","coordinates":[-79.1189116,-8.0898534]}},{"type":"Feature","properties":{"bus":"yes","highway":"bus_stop","name":"PH-32","network":"Transporte Público Urbano Trujillo","public_transport":"platform","ref":"PH-32","source":"Gerencia de Transporte Metropolitano de Trujillo","id":13546546259},"geometry":{"type":"Point","coordinates":[-79.1223416,-8.0819735]}},{"type":"Feature","properties":{"bus":"yes","highway":"bus_stop","name":"PH-33","network":"Transporte Público Urbano Trujillo","public_transport":"platform","ref":"PH-33","source":"Gerencia de Transporte Metropolitano de Trujillo","id":13546545516},"geometry":{"type":"Point","coordinates":[-79.1195836,-8.0827125]}},{"type":"Feature","properties":{"bus":"yes","highway":"bus_stop","name":"PH-34","network":"Transporte Público Urbano Trujillo","public_transport":"platform","ref":"PH-34","source":"Gerencia de Transporte Metropolitano de Trujillo","id":13546545515},"geometry":{"type":"Point","coordinates":[-79.1184274,-8.0815296]}}]}