{"type":"FeatureCollection","features":[{"type":"Feature","properties":{"check_date":"2025-12-17","colour":"#00cc00","colour:text":"#000000","fee":"yes","from":"Calle José la Rivera","hash":"13370","interval":"4","name":"Calle José la Rivera → Calle Diego Quispe Tito","network":"Transporte Público Urbano Trujillo","opening_hours":"Mo-Su 05:00-23:00","operator":"NUEVOS GIRASOLES S.A.","public_transport:version":"2","ref":"C-01 B","route":"bus","survey:avg_speed:kmh":"20","to":"Calle Diego Quispe Tito","type":"route","id":19972060},"geometry":{"type":"LineString","coordinates":[[-79.0682182,-8.0131333],[-79.0678331,-8.0143077],[-79.0677509,-8.0145374],[-79.0675968,-8.0149513],[-79.0674919,-8.015284],[-79.0674321,-8.0154737],[-79.067254,-8.015995],[-79.0670709,-8.0165492],[-79.0667816,-8.0174235],[-79.066681,-8.0177276],[-79.0665346,-8.0181668],[-79.0663502,-8.0187383],[-79.0662901,-8.0189228],[-79.0660266,-8.0197137],[-79.0659645,-8.019905],[-79.0657266,-8.020749],[-79.0655561,-8.0212802],[-79.0653948,-8.021758],[-79.06505,-8.0227815],[-79.0647442,-8.0236724],[-79.0645909,-8.0241499],[-79.0645712,-8.0242281],[-79.0644435,-8.0246295],[-79.06423,-8.0252933],[-79.0641691,-8.0254613],[-79.0638236,-8.0265087],[-79.0637487,-8.0267397],[-79.0635083,-8.0274664],[-79.0633094,-8.028081],[-79.0631824,-8.0284704],[-79.0628901,-8.029398],[-79.0628321,-8.0295824],[-79.0625942,-8.0303539],[-79.0622953,-8.0313267],[-79.0622332,-8.0315161],[-79.0620929,-8.0319159],[-79.0618874,-8.0326105],[-79.0618761,-8.0326655],[-79.0615845,-8.0335434],[-79.0612267,-8.0346473],[-79.0607618,-8.0360555],[-79.0605156,-8.0368127],[-79.0603767,-8.0372841],[-79.0603568,-8.0373562],[-79.0600244,-8.0384175],[-79.0596857,-8.0394936],[-79.0596323,-8.0396448],[-79.0593414,-8.0405215],[-79.0592911,-8.0406688],[-79.0589773,-8.041676],[-79.0589114,-8.0419089],[-79.0588091,-8.0422399],[-79.0584628,-8.0433406],[-79.0581179,-8.0443879],[-79.0578769,-8.0451626],[-79.0575908,-8.046071],[-79.0572741,-8.0470778],[-79.0571807,-8.0474322],[-79.0570924,-8.0477341],[-79.0569175,-8.0486276],[-79.056839,-8.04901],[-79.0567743,-8.0493906],[-79.0567069,-8.0497849],[-79.0566758,-8.049992],[-79.0565538,-8.0506948],[-79.0565003,-8.0510524],[-79.056421,-8.0515036],[-79.0562985,-8.0520193],[-79.0561792,-8.052417],[-79.0559513,-8.0530202],[-79.0557205,-8.0535114],[-79.0555327,-8.0538997],[-79.0551931,-8.054537],[-79.0549609,-8.055032],[-79.0546064,-8.055791],[-79.0545361,-8.0559489],[-79.054287,-8.0565081],[-79.0541959,-8.0567859],[-79.0541032,-8.0570844],[-79.0540048,-8.0573878],[-79.0536598,-8.05845],[-79.0535249,-8.058863],[-79.0534122,-8.0592113],[-79.0532761,-8.0596321],[-79.0531942,-8.0598903],[-79.0529708,-8.0605939],[-79.0528424,-8.0610202],[-79.0527962,-8.0611688],[-79.0526386,-8.0616434],[-79.0524284,-8.0622932],[-79.0522538,-8.0628187],[-79.0518335,-8.0641705],[-79.0514531,-8.0653464],[-79.0513385,-8.0656957],[-79.0510317,-8.0666742],[-79.0509534,-8.0669079],[-79.0504633,-8.0683895],[-79.050265,-8.0690553],[-79.0498945,-8.0702461],[-79.0497602,-8.0706682],[-79.0493821,-8.0717987],[-79.049253,-8.0721841],[-79.0490404,-8.0728413],[-79.0488843,-8.0733676],[-79.048525,-8.0741929],[-79.0483957,-8.0744791],[-79.0479918,-8.0753728],[-79.0475676,-8.0763116],[-79.0475313,-8.0763919],[-79.0472673,-8.0769763],[-79.0472061,-8.0771118],[-79.0468811,-8.077831],[-79.0465612,-8.0785389],[-79.0464762,-8.0787271],[-79.0463414,-8.0790254],[-79.0461788,-8.0793851],[-79.0461037,-8.0795514],[-79.0459235,-8.0799501],[-79.0457997,-8.0802242],[-79.0457586,-8.0803151],[-79.045721,-8.0803983],[-79.0455892,-8.0806877],[-79.0453363,-8.0812496],[-79.0451935,-8.0815657],[-79.045093,-8.0817882],[-79.0448798,-8.08226],[-79.0445772,-8.0829324],[-79.0443502,-8.083432],[-79.0439431,-8.0843346],[-79.0435823,-8.0851342],[-79.043486,-8.0853351],[-79.0433957,-8.0855477],[-79.0433473,-8.0856513],[-79.0429077,-8.0866242],[-79.0428685,-8.0867206],[-79.0424153,-8.0877227],[-79.0423607,-8.0878348],[-79.0419632,-8.0887144],[-79.0417726,-8.0891362],[-79.0415489,-8.0896414],[-79.0413911,-8.0899805],[-79.0413004,-8.0901846],[-79.0406924,-8.0915268],[-79.0406377,-8.0916478],[-79.0402851,-8.0924281],[-79.0399855,-8.0930911],[-79.0397719,-8.0935637],[-79.0393296,-8.0945425],[-79.0392686,-8.0946774],[-79.039083,-8.0950889],[-79.038996,-8.0952811],[-79.0389466,-8.0953903],[-79.0384173,-8.0965614],[-79.038029,-8.0974206],[-79.0374928,-8.0986072],[-79.0372284,-8.0991924],[-79.0364963,-8.1008125],[-79.0362385,-8.1013831],[-79.0361939,-8.1014818],[-79.0355989,-8.1027983],[-79.0353061,-8.1034532],[-79.0346254,-8.1049638],[-79.0346176,-8.1050082],[-79.0346238,-8.1050602],[-79.0346371,-8.1050932],[-79.0346668,-8.1051331],[-79.034729,-8.1051724],[-79.0348023,-8.1052035],[-79.0348622,-8.1051998],[-79.0350511,-8.1052429],[-79.0353172,-8.1051343],[-79.0354601,-8.105076],[-79.0355755,-8.1050771],[-79.035605,-8.1050916],[-79.0356791,-8.1051455],[-79.0357223,-8.1051829],[-79.0358273,-8.1052641],[-79.036067,-8.1057871],[-79.0362184,-8.1061526],[-79.0362525,-8.1062342],[-79.0365364,-8.1069179],[-79.0369485,-8.1079294],[-79.0372699,-8.1087139],[-79.037388,-8.108956],[-79.0375097,-8.1091387],[-79.0380939,-8.1098517],[-79.0381839,-8.1099631],[-79.0380882,-8.1100254],[-79.0376847,-8.1103207],[-79.036251,-8.1113451],[-79.0359712,-8.1115469],[-79.0359243,-8.1115837],[-79.035893,-8.1116049],[-79.0357964,-8.1116733],[-79.0357345,-8.111719],[-79.0356706,-8.1117669],[-79.0351109,-8.1121722],[-79.0345397,-8.1125864],[-79.0344451,-8.112655],[-79.0333154,-8.1136337],[-79.0328758,-8.1139825],[-79.0322537,-8.1144598],[-79.0320623,-8.114698],[-79.0312739,-8.1157431],[-79.0312147,-8.1157976],[-79.0307673,-8.1160244],[-79.0303971,-8.1161899],[-79.0302848,-8.116242],[-79.0299547,-8.1165072],[-79.0294209,-8.1169632],[-79.0286772,-8.1175894],[-79.0284193,-8.1178066],[-79.0282271,-8.1179685],[-79.0276199,-8.1184798],[-79.0275116,-8.118571],[-79.0262945,-8.1195754],[-79.02675,-8.1200995],[-79.0269758,-8.1203911],[-79.0271493,-8.1205805],[-79.0274505,-8.1209684],[-79.0279792,-8.1216187],[-79.0280282,-8.1216881],[-79.0287122,-8.1225294],[-79.0292329,-8.1231862],[-79.029476,-8.1234899],[-79.0298135,-8.1240896],[-79.0299158,-8.1242754],[-79.0300479,-8.1245431],[-79.0302664,-8.1251244],[-79.0303297,-8.1253556],[-79.0303401,-8.1254206],[-79.0303961,-8.1256544],[-79.0304149,-8.1257712],[-79.030435,-8.1259199],[-79.030459,-8.1262506],[-79.0304712,-8.1265307],[-79.030474,-8.1265955],[-79.0304716,-8.126662],[-79.0304694,-8.1267061],[-79.0304667,-8.1267397],[-79.0304075,-8.1267326],[-79.0303135,-8.1267253],[-79.0302526,-8.1267171],[-79.0299185,-8.1266745],[-79.0295335,-8.1266304],[-79.0293173,-8.1266056],[-79.0288559,-8.1265113],[-79.0282974,-8.1263971],[-79.0272399,-8.1260503],[-79.0262905,-8.1257014],[-79.0261484,-8.1256251],[-79.0259428,-8.1255147],[-79.0253822,-8.1252137],[-79.0244836,-8.1246723],[-79.0237336,-8.1241795],[-79.0236823,-8.1241458],[-79.023635,-8.1241261],[-79.0235902,-8.1241222],[-79.0234928,-8.1241332],[-79.0233923,-8.1241853],[-79.0232745,-8.1242196],[-79.0231521,-8.1242295],[-79.0230407,-8.1242171],[-79.0229336,-8.1241844],[-79.0228344,-8.1241327],[-79.022741,-8.1240583],[-79.0226643,-8.1239672],[-79.0226056,-8.1238588],[-79.0225705,-8.1237408],[-79.0225606,-8.1236181],[-79.0225722,-8.123515],[-79.0226016,-8.1234153],[-79.022648,-8.1233223],[-79.0226302,-8.1232373],[-79.0226174,-8.1231959],[-79.0225965,-8.1231517],[-79.0225738,-8.1231178],[-79.0217142,-8.1223186],[-79.0216371,-8.1222102],[-79.0213509,-8.121947],[-79.0210135,-8.1216482],[-79.0209833,-8.1216215],[-79.0208992,-8.1215398],[-79.0201851,-8.1208454],[-79.0198441,-8.1205092],[-79.01926,-8.1199234],[-79.0191778,-8.1198423],[-79.018871,-8.1194931],[-79.0185844,-8.1191612],[-79.0183603,-8.1189003],[-79.0182148,-8.1187268],[-79.0176554,-8.1180688],[-79.0176132,-8.1180192],[-79.0171913,-8.117523],[-79.016788,-8.1170486],[-79.0164702,-8.116631],[-79.0160971,-8.1161408],[-79.0158589,-8.1158277],[-79.0154267,-8.1152432],[-79.0151665,-8.1148914],[-79.0151129,-8.1148203],[-79.0148553,-8.1144167],[-79.0148298,-8.1143574],[-79.0147829,-8.1142839],[-79.0140645,-8.1128645],[-79.0139744,-8.1126865],[-79.0138109,-8.1127642],[-79.0133708,-8.1129735],[-79.012948,-8.113184],[-79.0127528,-8.113273],[-79.0125303,-8.1133304],[-79.0123662,-8.1133465],[-79.0122026,-8.1133414],[-79.0113726,-8.1132136],[-79.0104756,-8.1130823],[-79.0100301,-8.11302],[-79.009009,-8.112864],[-79.0088043,-8.1128295],[-79.0084043,-8.1127661],[-79.0075623,-8.1126325],[-79.0068653,-8.1125219],[-79.0068839,-8.1124116],[-79.0069633,-8.1118991],[-79.0071408,-8.1107538],[-79.0071541,-8.1106678],[-79.0072138,-8.1102826],[-79.0074268,-8.1089075],[-79.0075002,-8.1084337],[-79.0075747,-8.1079529],[-79.0076474,-8.1074834],[-79.0077204,-8.1070125],[-79.0077981,-8.1065109],[-79.0076634,-8.1064907],[-79.0074136,-8.1059722],[-79.0069773,-8.1050369],[-79.0065184,-8.1052539],[-79.0067216,-8.1056575],[-79.0067895,-8.1058751],[-79.0059645,-8.1057445],[-79.0059929,-8.1055566],[-79.0059943,-8.1054186],[-79.0059812,-8.1053323],[-79.0059555,-8.1052367],[-79.0059065,-8.1050919],[-79.0056385,-8.104544],[-79.0047913,-8.1028117],[-79.0052288,-8.1026002],[-79.0058272,-8.1038402],[-79.0060676,-8.1043383],[-79.0056385,-8.104544],[-79.0052036,-8.1047521],[-79.0045202,-8.1033467],[-79.004098,-8.1035476],[-79.003663,-8.103759],[-79.00335,-8.1030895],[-79.0031903,-8.1028596],[-79.0027684,-8.102575],[-79.0023925,-8.1031136]],"nodes":[1873334289,1873334296,1873334301,1098597044,3981106611,1098621624,1098615155,1873334317,1873334321,1098630656,1286991522,1098609636,1873334346,1098599021,1873334353,1098649119,1286991562,1098625991,1873334364,1098618780,1873334368,9148497683,5463851058,9148497677,1098617982,1098607101,1286991515,1098589764,1873334383,1098646213,1873334391,1098623493,1873334400,1873334402,1098601279,11023223492,11023223487,1873334412,1098640018,11023223486,5491760454,8089658065,8089658062,3110225074,3110225076,4438549628,11023223477,1873334431,11023223476,11023365338,11023223475,5463865441,1098594821,1098612209,8134298762,8134298763,11023223472,8134200994,1286991513,1286991524,1633196988,1098619364,1286991489,1098607890,1286991454,5489611730,1286991535,1286991499,320113093,1286991465,1098584351,1286991546,1098599588,1286991509,1286991476,11023448205,1286991557,1098620666,1286991518,1098646681,1098648085,1098591844,11023849499,1286991517,5472554259,1098635252,11021532889,1286991482,1098636272,1098640104,1286991564,1098625046,1098586300,1098635165,1873334459,1286991456,1286991536,1286991500,5489453255,5489453254,5456181685,1098613117,1286991490,1098623805,316261538,1098634647,1286991523,1098584993,5079937578,1873564546,1098595142,1098584547,1098618527,5079937583,4427239240,1098598052,4427239246,4427239247,4593379304,5089586322,4593379306,1098605226,1098596833,5089604484,1098616329,1098597077,1098588439,1098645451,1098622515,10723937586,1098649105,633650896,1693582291,10723917702,2956751726,5089667629,1098596094,1098603874,2956752133,5089667641,1098587208,5489046577,1098616168,1693582381,5089708238,11028572469,1098643672,12599107416,1098584705,1098624681,12599107406,11037737307,1098620960,11037737305,11037670404,1873564590,1873564594,1098647376,5037835750,5067120044,1098625016,2587893369,1286991493,2587893370,2587893368,2587893371,2587893372,2587893367,2587893362,3386747956,3386747938,5051905636,11033319453,11033319451,3386747937,11033319450,2587893399,2587893400,5051964665,8763957234,5478761331,1098619763,2481376233,11037999556,2481376232,1873564603,1098612382,1098632446,1098588348,4633846734,4691590030,3802902827,3802902831,4633846700,1098637302,4633846701,1098626618,1098606361,1098597256,5455951601,1098611635,5067465333,320114899,316265319,316264036,316264037,1554840447,1628563878,316256200,5072149530,1098598714,1098608890,5476546746,1627006920,1098635606,316260176,1098634502,316260177,11037678904,1098643105,1873564618,1098598795,1024375759,316265260,316265261,316265262,2606512423,1098631512,316265263,13086967433,316265264,2892557349,316265265,1098595664,316265266,13086967445,320114879,12216693885,13089000222,320114890,12216751801,320114884,13086967422,288409665,6119482459,1098650103,13086967411,288409296,1098611390,1098622334,12909185080,12909185072,3293558514,1098587311,12566648340,316254501,12566648337,3670684009,3670684004,316254506,2591061034,288406679,12566648334,3670684011,316254426,316254427,1098644892,3670684727,316254428,1098632617,316254429,6195970422,316265440,3670684737,5082434193,316265439,3670684740,3670684741,3670684736,1098612747,13084463942,1098623435,13084463951,320114999,1098606836,1098594518,1538242472,1098645087,316265127,1098645687,11033205297,11102649340,11102649332,11102649335,1015347837,320114994,1098629210,1015292420,11037619757,1088227229,316265123,316265121,11851392177,999069484,11033227508,1088227369,11033227506,1088227416,1007782488,1007782489,2604132090,1007782490,1007782491,1098638242,1098583810,1098599772,1007816531,1098599696,11032994357,11033100542,1088227465,1088227417,1098629977,1098634473,3569346194,1098646544,1098629126,1088227405,1098591733,1098598628,1015292497,999068978,1098641823,1026647557,1098585548,1098595620,5432172907,5432170944,1098599839,2604205278,1098632287,2604205273,5456051609,2604205275,5432170768,1098631438,5432170932,5432170937,1098649508,5432170768,1098599165,5432170936,5432170928,5432170927,5432170943,5432170942,1098632453,1015292385]},"gtfs":{"agency_id":13,"route_id":28,"services":[{"service_id":"Mo-Su","startTime":"05:00","endTime":"23:00","trip_id":19972060}],"filteredStops":{"nodes":[1873334289,13546546293,13546546291,11911534030,13546546290,13546546289,13546545547,13546546288,13546545612,13546546334,13546546333,13546546336,13546546338,13546545638,13546546319,13546545633,13546545639,13546546326,13546546329,13546535100,13546545108,13546545107,13546545109,13546545105,13546545110,13546545915,11910518835,13546545899,13546545961,13546545158,13546545990,13546545148,13546545944,13546545945,13546546005,13546546007,13546546046,11910518853,13546545239,13546545237,13546546051,13546535068,13546535069,13546545884,13546545228,13546535064,13546535073,13546546000,1015292385],"coordinates":[[-79.0682182,-8.0131333],[-79.0673078,-8.015995],[-79.0661602,-8.0196706],[-79.0648297,-8.0235139],[-79.0636536,-8.0273704],[-79.0626536,-8.0306138],[-79.0613915,-8.0342637],[-79.0587534,-8.042531],[-79.0574802,-8.0466333],[-79.0567702,-8.0494699],[-79.0560623,-8.0529364],[-79.0542699,-8.0566946],[-79.0533255,-8.0596597],[-79.0520044,-8.0637257],[-79.0507251,-8.0677612],[-79.0492565,-8.0724897],[-79.0477443,-8.0759231],[-79.045253,-8.0815729],[-79.0441397,-8.0840149],[-79.0422652,-8.0881752],[-79.0405114,-8.0920105],[-79.039575,-8.0941299],[-79.0383633,-8.0968149],[-79.0371447,-8.0994436],[-79.0364397,-8.1010808],[-79.0353404,-8.1034978],[-79.0362453,-8.1061083],[-79.0370376,-8.1078566],[-79.0364068,-8.1112557],[-79.0342059,-8.1129254],[-79.0304266,-8.1162183],[-79.0288676,-8.1175878],[-79.0277625,-8.1184498],[-79.0264409,-8.1195518],[-79.0265009,-8.1197406],[-79.0303192,-8.1250829],[-79.0288382,-8.126564],[-79.0213577,-8.1220046],[-79.0194521,-8.1202261],[-79.017404,-8.1178747],[-79.0152931,-8.1151359],[-79.0131415,-8.1131272],[-79.0107178,-8.1131813],[-79.0081107,-8.1127836],[-79.0070866,-8.1109529],[-79.0071712,-8.1055513],[-79.0057225,-8.1034844],[-79.00294,-8.1027701],[-79.0023925,-8.1031136]]},"forcedEndpointStops":[{"stop_id":1873334289,"stop_name":"Avenida Miguel Grau","position":"first"},{"stop_id":1015292385,"stop_name":"Avenida Federico Villarreal y Avenida Honorio Delgado","position":"last"}]}},{"type":"Feature","properties":{"bus":"yes","highway":"bus_stop","network":"Transporte Público Urbano Trujillo","public_transport":"platform","ref":"PH-109","source":"Gerencia de Transporte Metropolitano de Trujillo","id":13546546293},"geometry":{"type":"Point","coordinates":[-79.0673078,-8.015995]}},{"type":"Feature","properties":{"bus":"yes","highway":"bus_stop","network":"Transporte Público Urbano Trujillo","public_transport":"platform","ref":"PH-110","source":"Gerencia de Transporte Metropolitano de Trujillo","id":13546546291},"geometry":{"type":"Point","coordinates":[-79.0661602,-8.0196706]}},{"type":"Feature","properties":{"advertising":"no","bench":"yes","bicycle_parking":"no","bin":"no","bus":"yes","departures_board":"no","highway":"bus_stop","level":"0","lit":"no","name":"Calle Alfonso Ugarte","network":"Transporte Público Urbano Trujillo","passenger_information_display:speech_output":"no","pole":"yes","public_transport":"platform","ramp":"no","ref":"PH-111","shelter":"yes","source:ref":"Gerencia de Transporte Metropolitano de Trujillo","tactile_paving":"no","tactile_writing:braille:es":"no","id":11911534030},"geometry":{"type":"Point","coordinates":[-79.0648297,-8.0235139]}},{"type":"Feature","properties":{"bus":"yes","highway":"bus_stop","network":"Transporte Público Urbano Trujillo","public_transport":"platform","ref":"PH-112","source":"Gerencia de Transporte Metropolitano de Trujillo","id":13546546290},"geometry":{"type":"Point","coordinates":[-79.0636536,-8.0273704]}},{"type":"Feature","properties":{"bus":"yes","highway":"bus_stop","network":"Transporte Público Urbano Trujillo","public_transport":"platform","ref":"PH-113","source":"Gerencia de Transporte Metropolitano de Trujillo","id":13546546289},"geometry":{"type":"Point","coordinates":[-79.0626536,-8.0306138]}},{"type":"Feature","properties":{"bus":"yes","highway":"bus_stop","network":"Transporte Público Urbano Trujillo","public_transport":"platform","ref":"PH-114","source":"Gerencia de Transporte Metropolitano de Trujillo","id":13546545547},"geometry":{"type":"Point","coordinates":[-79.0613915,-8.0342637]}},{"type":"Feature","properties":{"bus":"yes","highway":"bus_stop","network":"Transporte Público Urbano Trujillo","public_transport":"platform","ref":"PH-116","source":"Gerencia de Transporte Metropolitano de Trujillo","id":13546546288},"geometry":{"type":"Point","coordinates":[-79.0587534,-8.042531]}},{"type":"Feature","properties":{"bus":"yes","highway":"bus_stop","network":"Transporte Público Urbano Trujillo","public_transport":"platform","ref":"PE-98","source":"Gerencia de Transporte Metropolitano de Trujillo","id":13546545612},"geometry":{"type":"Point","coordinates":[-79.0574802,-8.0466333]}},{"type":"Feature","properties":{"bus":"yes","highway":"bus_stop","network":"Transporte Público Urbano Trujillo","public_transport":"platform","ref":"PE-276","source":"Gerencia de Transporte Metropolitano de Trujillo","id":13546546334},"geometry":{"type":"Point","coordinates":[-79.0567702,-8.0494699]}},{"type":"Feature","properties":{"bus":"yes","highway":"bus_stop","network":"Transporte Público Urbano Trujillo","public_transport":"platform","ref":"PE-277","source":"Gerencia de Transporte Metropolitano de Trujillo","id":13546546333},"geometry":{"type":"Point","coordinates":[-79.0560623,-8.0529364]}},{"type":"Feature","properties":{"bus":"yes","highway":"bus_stop","network":"Transporte Público Urbano Trujillo","public_transport":"platform","ref":"PE-273","source":"Gerencia de Transporte Metropolitano de Trujillo","id":13546546336},"geometry":{"type":"Point","coordinates":[-79.0542699,-8.0566946]}},{"type":"Feature","properties":{"bus":"yes","highway":"bus_stop","network":"Transporte Público Urbano Trujillo","public_transport":"platform","ref":"PE-271","source":"Gerencia de Transporte Metropolitano de Trujillo","id":13546546338},"geometry":{"type":"Point","coordinates":[-79.0533255,-8.0596597]}},{"type":"Feature","properties":{"bus":"yes","highway":"bus_stop","network":"Transporte Público Urbano Trujillo","public_transport":"platform","ref":"PE-43","source":"Gerencia de Transporte Metropolitano de Trujillo","id":13546545638},"geometry":{"type":"Point","coordinates":[-79.0520044,-8.0637257]}},{"type":"Feature","properties":{"bus":"yes","highway":"bus_stop","network":"Transporte Público Urbano Trujillo","public_transport":"platform","ref":"PE-42","source":"Gerencia de Transporte Metropolitano de Trujillo","id":13546546319},"geometry":{"type":"Point","coordinates":[-79.0507251,-8.0677612]}},{"type":"Feature","properties":{"bus":"yes","highway":"bus_stop","network":"Transporte Público Urbano Trujillo","public_transport":"platform","ref":"PE-50","source":"Gerencia de Transporte Metropolitano de Trujillo","id":13546545633},"geometry":{"type":"Point","coordinates":[-79.0492565,-8.0724897]}},{"type":"Feature","properties":{"bus":"yes","highway":"bus_stop","network":"Transporte Público Urbano Trujillo","public_transport":"platform","ref":"PE-41","source":"Gerencia de Transporte Metropolitano de Trujillo","id":13546545639},"geometry":{"type":"Point","coordinates":[-79.0477443,-8.0759231]}},{"type":"Feature","properties":{"bus":"yes","highway":"bus_stop","network":"Transporte Público Urbano Trujillo","public_transport":"platform","ref":"PE-306","source":"Gerencia de Transporte Metropolitano de Trujillo","id":13546546326},"geometry":{"type":"Point","coordinates":[-79.045253,-8.0815729]}},{"type":"Feature","properties":{"bus":"yes","highway":"bus_stop","network":"Transporte Público Urbano Trujillo","public_transport":"platform","ref":"PE-303","source":"Gerencia de Transporte Metropolitano de Trujillo","id":13546546329},"geometry":{"type":"Point","coordinates":[-79.0441397,-8.0840149]}},{"type":"Feature","properties":{"bus":"yes","highway":"bus_stop","network":"Transporte Público Urbano Trujillo","public_transport":"platform","ref":"NPT-210","source":"Gerencia de Transporte Metropolitano de Trujillo","id":13546535100},"geometry":{"type":"Point","coordinates":[-79.0422652,-8.0881752]}},{"type":"Feature","properties":{"bus":"yes","highway":"bus_stop","network":"Transporte Público Urbano Trujillo","public_transport":"platform","ref":"NPT-201","source":"Gerencia de Transporte Metropolitano de Trujillo","id":13546545108},"geometry":{"type":"Point","coordinates":[-79.0405114,-8.0920105]}},{"type":"Feature","properties":{"bus":"yes","highway":"bus_stop","network":"Transporte Público Urbano Trujillo","public_transport":"platform","ref":"NPT-202","source":"Gerencia de Transporte Metropolitano de Trujillo","id":13546545107},"geometry":{"type":"Point","coordinates":[-79.039575,-8.0941299]}},{"type":"Feature","properties":{"bus":"yes","highway":"bus_stop","network":"Transporte Público Urbano Trujillo","public_transport":"platform","ref":"NPT-200","source":"Gerencia de Transporte Metropolitano de Trujillo","id":13546545109},"geometry":{"type":"Point","coordinates":[-79.0383633,-8.0968149]}},{"type":"Feature","properties":{"bus":"yes","highway":"bus_stop","network":"Transporte Público Urbano Trujillo","public_transport":"platform","ref":"NPT-204","source":"Gerencia de Transporte Metropolitano de Trujillo","id":13546545105},"geometry":{"type":"Point","coordinates":[-79.0371447,-8.0994436]}},{"type":"Feature","properties":{"bus":"yes","highway":"bus_stop","network":"Transporte Público Urbano Trujillo","public_transport":"platform","ref":"NPT-199","source":"Gerencia de Transporte Metropolitano de Trujillo","id":13546545110},"geometry":{"type":"Point","coordinates":[-79.0364397,-8.1010808]}},{"type":"Feature","properties":{"bus":"yes","highway":"bus_stop","network":"Transporte Público Urbano Trujillo","public_transport":"platform","ref":"NPT-197","source":"Gerencia de Transporte Metropolitano de Trujillo","id":13546545915},"geometry":{"type":"Point","coordinates":[-79.0353404,-8.1034978]}},{"type":"Feature","properties":{"advertising":"no","bench":"no","bicycle_parking":"no","bin":"no","bus":"yes","departures_board":"no","highway":"bus_stop","level":"0","lit":"yes","name":"Calle Santiago de Chile","network":"Transporte Público Urbano Trujillo","passenger_information_display:speech_output":"no","pole":"yes","public_transport":"platform","ramp":"no","ref":"ROM-370","shelter":"no","source:ref":"Gerencia de Transporte Metropolitano de Trujillo","tactile_paving":"no","tactile_writing:braille:es":"no","id":11910518835},"geometry":{"type":"Point","coordinates":[-79.0362453,-8.1061083]}},{"type":"Feature","properties":{"bus":"yes","highway":"bus_stop","network":"Transporte Público Urbano Trujillo","public_transport":"platform","ref":"PEMU-342","source":"Gerencia de Transporte Metropolitano de Trujillo","id":13546545899},"geometry":{"type":"Point","coordinates":[-79.0370376,-8.1078566]}},{"type":"Feature","properties":{"bus":"yes","highway":"bus_stop","network":"Transporte Público Urbano Trujillo","public_transport":"platform","ref":"JEN-141","source":"Gerencia de Transporte Metropolitano de Trujillo","id":13546545961},"geometry":{"type":"Point","coordinates":[-79.0364068,-8.1112557]}},{"type":"Feature","properties":{"bus":"yes","highway":"bus_stop","network":"Transporte Público Urbano Trujillo","public_transport":"platform","ref":"JEN-140","source":"Gerencia de Transporte Metropolitano de Trujillo","id":13546545158},"geometry":{"type":"Point","coordinates":[-79.0342059,-8.1129254]}},{"type":"Feature","properties":{"bus":"yes","highway":"bus_stop","network":"Transporte Público Urbano Trujillo","public_transport":"platform","ref":"ESP-4","source":"Gerencia de Transporte Metropolitano de Trujillo","id":13546545990},"geometry":{"type":"Point","coordinates":[-79.0304266,-8.1162183]}},{"type":"Feature","properties":{"bus":"yes","highway":"bus_stop","network":"Transporte Público Urbano Trujillo","public_transport":"platform","ref":"JUL-436","source":"Gerencia de Transporte Metropolitano de Trujillo","id":13546545148},"geometry":{"type":"Point","coordinates":[-79.0288676,-8.1175878]}},{"type":"Feature","properties":{"bus":"yes","highway":"bus_stop","network":"Transporte Público Urbano Trujillo","public_transport":"platform","ref":"JUL-440","source":"Gerencia de Transporte Metropolitano de Trujillo","id":13546545944},"geometry":{"type":"Point","coordinates":[-79.0277625,-8.1184498]}},{"type":"Feature","properties":{"bus":"yes","highway":"bus_stop","network":"Transporte Público Urbano Trujillo","public_transport":"platform","ref":"JUL-435","source":"Gerencia de Transporte Metropolitano de Trujillo","id":13546545945},"geometry":{"type":"Point","coordinates":[-79.0264409,-8.1195518]}},{"type":"Feature","properties":{"bus":"yes","highway":"bus_stop","network":"Transporte Público Urbano Trujillo","public_transport":"platform","ref":"COSR-336","source":"Gerencia de Transporte Metropolitano de Trujillo","id":13546546005},"geometry":{"type":"Point","coordinates":[-79.0265009,-8.1197406]}},{"type":"Feature","properties":{"bus":"yes","highway":"bus_stop","network":"Transporte Público Urbano Trujillo","public_transport":"platform","ref":"COSR-333","source":"Gerencia de Transporte Metropolitano de Trujillo","id":13546546007},"geometry":{"type":"Point","coordinates":[-79.0303192,-8.1250829]}},{"type":"Feature","properties":{"bus":"yes","highway":"bus_stop","network":"Transporte Público Urbano Trujillo","public_transport":"platform","ref":"AMS-51","source":"Gerencia de Transporte Metropolitano de Trujillo","id":13546546046},"geometry":{"type":"Point","coordinates":[-79.0288382,-8.126564]}},{"type":"Feature","properties":{"advertising":"no","bench":"no","bicycle_parking":"no","bin":"no","bus":"yes","departures_board":"no","highway":"bus_stop","level":"0","lit":"yes","name":"Calle Calcuchimac","network":"Transporte Público Urbano Trujillo","passenger_information_display:speech_output":"no","pole":"yes","public_transport":"platform","ramp":"yes","ref":"AMS-52","shelter":"no","source:ref":"Gerencia de Transporte Metropolitano de Trujillo","tactile_paving":"no","tactile_writing:braille:es":"no","id":11910518853},"geometry":{"type":"Point","coordinates":[-79.0213577,-8.1220046]}},{"type":"Feature","properties":{"bus":"yes","highway":"bus_stop","network":"Transporte Público Urbano Trujillo","public_transport":"platform","ref":"AMS-54","source":"Gerencia de Transporte Metropolitano de Trujillo","id":13546545239},"geometry":{"type":"Point","coordinates":[-79.0194521,-8.1202261]}},{"type":"Feature","properties":{"bus":"yes","highway":"bus_stop","network":"Transporte Público Urbano Trujillo","public_transport":"platform","ref":"AMS-56","source":"Gerencia de Transporte Metropolitano de Trujillo","id":13546545237},"geometry":{"type":"Point","coordinates":[-79.017404,-8.1178747]}},{"type":"Feature","properties":{"bus":"yes","highway":"bus_stop","network":"Transporte Público Urbano Trujillo","public_transport":"platform","ref":"AMS-41","source":"Gerencia de Transporte Metropolitano de Trujillo","id":13546546051},"geometry":{"type":"Point","coordinates":[-79.0152931,-8.1151359]}},{"type":"Feature","properties":{"bus":"yes","highway":"bus_stop","network":"Transporte Público Urbano Trujillo","public_transport":"platform","ref":"RIP-327","source":"Gerencia de Transporte Metropolitano de Trujillo","id":13546535068},"geometry":{"type":"Point","coordinates":[-79.0131415,-8.1131272]}},{"type":"Feature","properties":{"bus":"yes","highway":"bus_stop","network":"Transporte Público Urbano Trujillo","public_transport":"platform","ref":"RIP-325","source":"Gerencia de Transporte Metropolitano de Trujillo","id":13546535069},"geometry":{"type":"Point","coordinates":[-79.0107178,-8.1131813]}},{"type":"Feature","properties":{"bus":"yes","highway":"bus_stop","network":"Transporte Público Urbano Trujillo","public_transport":"platform","ref":"RIP-323","source":"Gerencia de Transporte Metropolitano de Trujillo","id":13546545884},"geometry":{"type":"Point","coordinates":[-79.0081107,-8.1127836]}},{"type":"Feature","properties":{"bus":"yes","highway":"bus_stop","network":"Transporte Público Urbano Trujillo","public_transport":"platform","ref":"ANBE-375","source":"Gerencia de Transporte Metropolitano de Trujillo","id":13546545228},"geometry":{"type":"Point","coordinates":[-79.0070866,-8.1109529]}},{"type":"Feature","properties":{"bus":"yes","highway":"bus_stop","network":"Transporte Público Urbano Trujillo","public_transport":"platform","ref":"ROME-534","source":"Gerencia de Transporte Metropolitano de Trujillo","id":13546535064},"geometry":{"type":"Point","coordinates":[-79.0071712,-8.1055513]}},{"type":"Feature","properties":{"bus":"yes","highway":"bus_stop","network":"Transporte Público Urbano Trujillo","public_transport":"platform","ref":"RASAN-474","source":"Gerencia de Transporte Metropolitano de Trujillo","id":13546535073},"geometry":{"type":"Point","coordinates":[-79.0057225,-8.1034844]}},{"type":"Feature","properties":{"bus":"yes","highway":"bus_stop","network":"Transporte Público Urbano Trujillo","public_transport":"platform","ref":"CTC-476","source":"Gerencia de Transporte Metropolitano de Trujillo","id":13546546000},"geometry":{"type":"Point","coordinates":[-79.00294,-8.1027701]}}]}