{"type":"FeatureCollection","features":[{"type":"Feature","properties":{"check_date":"2025-12-17","colour":"#3399FF","colour:text":"#FFFFFF","fee":"yes","from":"Avenida San José","hash":"14677","interval":"3","name":"Avenida San José → Barrio 1B","network":"Transporte Público Urbano Trujillo","opening_hours":"Mo-Su 05:00-23:00","operator":"MIRAMAR S.A.","public_transport:version":"2","ref":"C-44 T2","route":"bus","survey:avg_speed:kmh":"20","to":"Barrio 1B","type":"route","id":19972472},"geometry":{"type":"LineString","coordinates":[[-78.9922665,-8.1785825],[-78.9919907,-8.1788042],[-78.9916117,-8.1790864],[-78.9907132,-8.1797815],[-78.990355,-8.180064],[-78.9897943,-8.1805062],[-78.9888464,-8.1812183],[-78.988799,-8.1812563],[-78.9885951,-8.1814099],[-78.9885244,-8.1814631],[-78.9885068,-8.1814764],[-78.9880825,-8.1817961],[-78.9879627,-8.1818864],[-78.9878563,-8.1819666],[-78.987617,-8.1821469],[-78.9870026,-8.1826455],[-78.9869702,-8.1826699],[-78.9866084,-8.1829459],[-78.9862423,-8.1832184],[-78.9859392,-8.1834463],[-78.9857628,-8.1835796],[-78.985485,-8.1837888],[-78.985171,-8.1840256],[-78.9847937,-8.18431],[-78.9843743,-8.1846261],[-78.9843343,-8.1846574],[-78.9838579,-8.1850302],[-78.9835014,-8.1853006],[-78.9834386,-8.185348],[-78.9829607,-8.1857181],[-78.9826129,-8.1859877],[-78.9822138,-8.186295],[-78.9817461,-8.1866551],[-78.9812228,-8.1870434],[-78.9806506,-8.187476],[-78.9801192,-8.1877912],[-78.9798622,-8.1879349],[-78.9795096,-8.1881322],[-78.978971,-8.188437],[-78.9785373,-8.1887161],[-78.9780993,-8.1890591],[-78.9775431,-8.1895161],[-78.9749294,-8.1917863],[-78.9745703,-8.1921076],[-78.9744616,-8.1919868],[-78.9744379,-8.1918985],[-78.9743869,-8.191922],[-78.9743426,-8.1919432],[-78.9742059,-8.1920321],[-78.9740771,-8.1921357],[-78.9738625,-8.1923189],[-78.9736439,-8.1925021],[-78.9733878,-8.1927171],[-78.9732456,-8.1928565],[-78.9728795,-8.1931923],[-78.9725871,-8.1934366],[-78.9721593,-8.1938268],[-78.9714485,-8.1944467],[-78.9713809,-8.1945098],[-78.9711709,-8.1947056],[-78.9711244,-8.1947472],[-78.9710985,-8.1946704],[-78.9711857,-8.1945901],[-78.9712903,-8.1944998],[-78.9717758,-8.1940896],[-78.9721178,-8.1937764],[-78.9724664,-8.1934565],[-78.9725965,-8.1933516],[-78.9727803,-8.1932069],[-78.9728969,-8.1931007],[-78.9731853,-8.1928206],[-78.973361,-8.1926521],[-78.9736815,-8.1923879],[-78.9739189,-8.1921875],[-78.9741106,-8.1920056],[-78.974167,-8.1919352],[-78.9741978,-8.1918755],[-78.9742528,-8.1918158],[-78.9743212,-8.1917733],[-78.9744189,-8.1917214],[-78.9744317,-8.1918502],[-78.9744379,-8.1918985],[-78.9744616,-8.1919868],[-78.9747918,-8.1916994],[-78.9762604,-8.1903875],[-78.977104,-8.1896527],[-78.9777131,-8.1891252],[-78.9778718,-8.188994],[-78.9780334,-8.1888662],[-78.9782326,-8.1887162],[-78.9784364,-8.1885722],[-78.9786512,-8.18843],[-78.9788703,-8.1882944],[-78.9796762,-8.1878089],[-78.9798622,-8.1879349],[-78.9798389,-8.1881285],[-78.979669,-8.1885559],[-78.9794207,-8.1891462],[-78.9790534,-8.1900434],[-78.979336,-8.190159],[-78.9795924,-8.1902639],[-78.9798393,-8.1903649],[-78.9800923,-8.1904684],[-78.9803446,-8.1905716],[-78.9805959,-8.1906744],[-78.9808756,-8.1907888],[-78.9811658,-8.1909053],[-78.9814093,-8.1910031],[-78.981669,-8.1911074],[-78.9819195,-8.191208],[-78.9821784,-8.191312],[-78.9824513,-8.1914216],[-78.9828206,-8.1905275],[-78.9828918,-8.1903551],[-78.9828641,-8.1903213],[-78.9830709,-8.1901582],[-78.983284,-8.1899902],[-78.98348,-8.1898357],[-78.9836943,-8.1896668],[-78.9838418,-8.1895505],[-78.9839323,-8.1894791],[-78.9843258,-8.1891662],[-78.9847979,-8.1888251],[-78.9851935,-8.1885296],[-78.9856021,-8.1882245],[-78.9856589,-8.1881826],[-78.9864959,-8.1875516],[-78.9873621,-8.186899],[-78.9883116,-8.1861742],[-78.989194,-8.18548],[-78.9899902,-8.1848932],[-78.9901422,-8.184795],[-78.9903316,-8.1850172],[-78.9905964,-8.1851231],[-78.9912964,-8.1846051],[-78.9909858,-8.1841887],[-78.991042,-8.1841465],[-78.9918467,-8.183591],[-78.9923188,-8.1832379],[-78.9929121,-8.1827891],[-78.9937753,-8.1820918],[-78.9947246,-8.181326],[-78.9943564,-8.1808368],[-78.994005,-8.1803908],[-78.993676,-8.1799684],[-78.9936631,-8.1798867],[-78.9935033,-8.1796835],[-78.9933193,-8.1794626],[-78.9929309,-8.1789785],[-78.9924933,-8.1784063],[-78.9927992,-8.178175],[-78.9934479,-8.1776787],[-78.9940742,-8.1771959],[-78.9943582,-8.176977],[-78.9946323,-8.1767704],[-78.9953105,-8.1762594],[-78.9963904,-8.1754456],[-78.9965864,-8.1752987],[-78.9966637,-8.1752397],[-78.9967693,-8.1751326],[-78.9969085,-8.1750045],[-78.9972067,-8.1747751],[-78.9979997,-8.1741648],[-78.9984757,-8.1737985],[-78.9990962,-8.173321],[-78.9993264,-8.1731438],[-79.0024901,-8.1707091],[-79.0030864,-8.1702502],[-79.0039627,-8.1695759],[-79.0041493,-8.1694343],[-79.0061704,-8.1679089],[-79.006278,-8.1678277],[-79.0064677,-8.1676807],[-79.0072499,-8.1670763],[-79.0073793,-8.1669657],[-79.0076653,-8.1667215],[-79.0080397,-8.1663864],[-79.0084095,-8.1660218],[-79.0086972,-8.1657325],[-79.0088769,-8.1655373],[-79.0090205,-8.1653658],[-79.0094798,-8.1647185],[-79.0098548,-8.1640944],[-79.0101509,-8.1635773],[-79.0101919,-8.1635028],[-79.0102845,-8.1633341],[-79.0105712,-8.1628345],[-79.010879,-8.1623107],[-79.010925,-8.1622311],[-79.0111362,-8.1618604],[-79.0113964,-8.1613999],[-79.0115156,-8.1611902],[-79.0116554,-8.1609444],[-79.0117958,-8.1606966],[-79.0118954,-8.1604781],[-79.0119452,-8.1603371],[-79.0120221,-8.1600782],[-79.0120416,-8.1599615],[-79.0120672,-8.1598126],[-79.0120694,-8.1597513],[-79.0120915,-8.1591505],[-79.0120993,-8.1589398],[-79.0121476,-8.1579277],[-79.0121708,-8.157253],[-79.0122017,-8.1565004],[-79.0122484,-8.15513],[-79.0122754,-8.1543463],[-79.0122833,-8.1541153],[-79.0122746,-8.1539983],[-79.0122597,-8.1538993],[-79.0122367,-8.1537965],[-79.0121951,-8.1536643],[-79.0120601,-8.153278],[-79.01173,-8.152331],[-79.0116444,-8.1520797],[-79.0113438,-8.151192],[-79.0113118,-8.1510902],[-79.0112959,-8.1509934],[-79.011282,-8.1508986],[-79.0112745,-8.1507858],[-79.0112745,-8.1506574],[-79.0116041,-8.149193],[-79.0119253,-8.1476957],[-79.012092,-8.1469544],[-79.0126687,-8.1442104],[-79.012829,-8.1434806],[-79.0130075,-8.1426205],[-79.0130735,-8.1422899],[-79.01318,-8.1418282],[-79.0132921,-8.1415022],[-79.0133839,-8.1413095],[-79.0135221,-8.1410579],[-79.0136466,-8.1408771],[-79.0143929,-8.139793],[-79.0149323,-8.1390096],[-79.0153827,-8.1383654],[-79.0155019,-8.1382013],[-79.0155591,-8.1381267],[-79.0159313,-8.1376406],[-79.0160188,-8.137531],[-79.0160976,-8.1374322],[-79.0161099,-8.1374163],[-79.017034,-8.1362438],[-79.0171069,-8.136148],[-79.0176511,-8.1354601],[-79.0185059,-8.1343871],[-79.0185428,-8.1343409],[-79.0189848,-8.1337876],[-79.0203644,-8.1320606],[-79.0204851,-8.131888],[-79.020587,-8.1317207],[-79.0206429,-8.1315981],[-79.0206794,-8.131505],[-79.0207113,-8.1314102],[-79.0207389,-8.1313033],[-79.020749,-8.1312481],[-79.0207563,-8.1311925],[-79.0207616,-8.1311126],[-79.0207631,-8.1310298],[-79.0207199,-8.1309912],[-79.0206822,-8.1309473],[-79.0206506,-8.130899],[-79.0206289,-8.1308547],[-79.0206072,-8.1307892],[-79.0205961,-8.1307211],[-79.0205959,-8.1306522],[-79.0206066,-8.1305841],[-79.020628,-8.1305185],[-79.0206595,-8.130457],[-79.0206986,-8.1304032],[-79.0207455,-8.1303558],[-79.0207977,-8.1303169],[-79.0208551,-8.1302859],[-79.0209164,-8.1302637],[-79.0209805,-8.1302506],[-79.0210201,-8.1302196],[-79.0210566,-8.1301849],[-79.0210895,-8.130147],[-79.0211257,-8.1300949],[-79.0211516,-8.1300458],[-79.0211676,-8.130004],[-79.0212505,-8.1297668],[-79.02146,-8.1290409],[-79.0214866,-8.128956],[-79.0215762,-8.1286687],[-79.0216643,-8.1283869],[-79.0217822,-8.1280016],[-79.0225886,-8.1253608],[-79.0227545,-8.1247975],[-79.0228404,-8.1245386],[-79.0228833,-8.1243785],[-79.0228885,-8.1243003],[-79.0228724,-8.1242275],[-79.0228344,-8.1241327],[-79.022741,-8.1240583],[-79.0226643,-8.1239672],[-79.0226056,-8.1238588],[-79.0225705,-8.1237408],[-79.0225606,-8.1236181],[-79.0225722,-8.123515],[-79.0226016,-8.1234153],[-79.022648,-8.1233223],[-79.0226302,-8.1232373],[-79.0226174,-8.1231959],[-79.0225965,-8.1231517],[-79.0225738,-8.1231178],[-79.0217142,-8.1223186],[-79.0216371,-8.1222102],[-79.0213509,-8.121947],[-79.0210135,-8.1216482],[-79.0209833,-8.1216215],[-79.0208992,-8.1215398],[-79.0201851,-8.1208454],[-79.0202652,-8.1207691],[-79.0205031,-8.120521],[-79.0205841,-8.1204366],[-79.0206495,-8.1203166],[-79.0208652,-8.1197363],[-79.0213725,-8.118344],[-79.0214664,-8.1180933],[-79.0214999,-8.118007],[-79.0215589,-8.1178743],[-79.0216246,-8.117768],[-79.021799,-8.1176034],[-79.0222697,-8.1171632],[-79.0230896,-8.1163724],[-79.0224025,-8.1156582],[-79.0219789,-8.1152309],[-79.0215809,-8.1148344],[-79.0213678,-8.1146176],[-79.0208073,-8.114097],[-79.0204401,-8.1136315],[-79.0201765,-8.1133091],[-79.0198386,-8.1128836],[-79.0192152,-8.1121631],[-79.0188813,-8.1118006],[-79.0187806,-8.1117241],[-79.0183624,-8.1112666],[-79.0180336,-8.1109069],[-79.0175129,-8.1102993],[-79.0174444,-8.1102211],[-79.0168949,-8.1095934],[-79.0164607,-8.1090763],[-79.0160606,-8.1086321],[-79.016002,-8.1085671],[-79.0158452,-8.1083849],[-79.0156031,-8.1081061],[-79.0153791,-8.1078466],[-79.0149207,-8.1073163],[-79.014742,-8.1071073],[-79.0144699,-8.1067831],[-79.0141982,-8.1064576],[-79.0138765,-8.1060794],[-79.0137806,-8.1059652],[-79.0136982,-8.1058694],[-79.0134976,-8.1056346],[-79.0132032,-8.1052914],[-79.0129236,-8.1049601],[-79.0126232,-8.1046043],[-79.0123322,-8.1042823],[-79.0122927,-8.1042322],[-79.0119901,-8.1038686],[-79.0118179,-8.1036636],[-79.011702,-8.103526],[-79.0112556,-8.1030038],[-79.0111726,-8.1029044],[-79.0110643,-8.1027749],[-79.0111039,-8.1026761],[-79.011198,-8.1024167],[-79.0112866,-8.102192],[-79.0114159,-8.1019145],[-79.0116076,-8.1016025],[-79.0117418,-8.1014326],[-79.0118356,-8.101329],[-79.0123764,-8.10082],[-79.0127128,-8.1005306],[-79.013052,-8.1002262],[-79.013115,-8.1001744],[-79.0132303,-8.1000777],[-79.0134721,-8.0999041],[-79.0140374,-8.099438],[-79.0140853,-8.0993954],[-79.0153502,-8.0983201],[-79.0156556,-8.0980592],[-79.0162565,-8.0975504],[-79.0163224,-8.0974945],[-79.0171209,-8.0968216],[-79.0175534,-8.0964329],[-79.0179282,-8.0961226],[-79.0182007,-8.0960213],[-79.0192627,-8.0956227],[-79.0193672,-8.095583],[-79.020003,-8.0953414],[-79.0209139,-8.0949933],[-79.0216779,-8.0946983],[-79.0217962,-8.0946526],[-79.0218858,-8.0946132],[-79.0223491,-8.0944305],[-79.0228166,-8.0942553],[-79.0228682,-8.094236],[-79.0230846,-8.0941549],[-79.023781,-8.0938842],[-79.024227,-8.093749],[-79.0245066,-8.093704],[-79.0247945,-8.0936876],[-79.0247749,-8.0932552],[-79.0248587,-8.0931106],[-79.025149,-8.093161],[-79.0254246,-8.0931895],[-79.025623,-8.0932185],[-79.0256938,-8.0932357],[-79.0261139,-8.0933274],[-79.0262013,-8.0933386],[-79.0264714,-8.0933572],[-79.026792,-8.0933636],[-79.0268821,-8.0933654],[-79.0266052,-8.0923384],[-79.0263971,-8.091565],[-79.0261309,-8.0904394],[-79.0258717,-8.0893438],[-79.025818,-8.0890738],[-79.0258112,-8.0889559],[-79.025656,-8.088942],[-79.0254387,-8.0889354],[-79.0252671,-8.0889487],[-79.0250512,-8.088954],[-79.0249959,-8.088948],[-79.0246408,-8.0888544],[-79.0244678,-8.0888677],[-79.0238696,-8.0890669],[-79.0236721,-8.0891851],[-79.0235793,-8.0891102],[-79.0235535,-8.0890815],[-79.0235456,-8.0890432],[-79.0236251,-8.0880427],[-79.0237267,-8.0873718],[-79.0237778,-8.0869892],[-79.0230407,-8.0868756],[-79.0230494,-8.0868036],[-79.023129,-8.0861423],[-79.0232158,-8.0854208],[-79.0232989,-8.0847538],[-79.0233607,-8.084102],[-79.023383,-8.083442],[-79.0240106,-8.0834076],[-79.0242239,-8.0834263],[-79.0245177,-8.0834779],[-79.0249723,-8.0836121],[-79.0256856,-8.0836927],[-79.0263826,-8.0837599],[-79.0271266,-8.0838189],[-79.027635,-8.0838385],[-79.0284764,-8.0839174],[-79.0289395,-8.0839412],[-79.0297675,-8.0839505],[-79.0300938,-8.083964],[-79.0304371,-8.0832093],[-79.0305023,-8.0827498],[-79.0306058,-8.0820216],[-79.0306916,-8.0812985],[-79.0307599,-8.0806181],[-79.0308316,-8.0799041],[-79.0308583,-8.0796379],[-79.0309384,-8.0790043],[-79.029991,-8.0789447],[-79.0290399,-8.0789006],[-79.0278125,-8.0789474],[-79.0278883,-8.0783708],[-79.0279145,-8.0782042],[-79.0279836,-8.0777189],[-79.0280152,-8.077521],[-79.0280866,-8.0771595],[-79.0281078,-8.0770522],[-79.0281417,-8.0768168],[-79.0281665,-8.0765793],[-79.0281228,-8.0762431],[-79.0280302,-8.0759564],[-79.027894,-8.075496],[-79.0277645,-8.07512],[-79.0276112,-8.074664],[-79.0275066,-8.0740962],[-79.0275262,-8.0734203],[-79.027555,-8.0729495],[-79.0275795,-8.0725259],[-79.0275822,-8.0724801],[-79.0275896,-8.0723501],[-79.0275874,-8.0722863],[-79.0275773,-8.0718857],[-79.0275909,-8.0716719],[-79.0275885,-8.0714059],[-79.027632,-8.0708889],[-79.0277209,-8.0704063],[-79.0278004,-8.0699897],[-79.0278903,-8.0695186],[-79.0279833,-8.0690576],[-79.0280549,-8.0685935],[-79.0282183,-8.0677085],[-79.0283428,-8.0671698],[-79.0287983,-8.0672603],[-79.0292403,-8.067351],[-79.0297422,-8.0674501],[-79.0300289,-8.0660685],[-79.0304864,-8.0661714],[-79.0305281,-8.0661805],[-79.0309321,-8.0662545],[-79.0309825,-8.0662637],[-79.0314044,-8.0663102],[-79.0316874,-8.0649871],[-79.0318694,-8.0649793],[-79.0320914,-8.0637003],[-79.0325019,-8.0637616],[-79.0326961,-8.0637892],[-79.0327719,-8.0633752],[-79.0326969,-8.0629845],[-79.0323436,-8.062902],[-79.0321708,-8.0628599],[-79.0321898,-8.0625811],[-79.0321523,-8.0624244],[-79.0321044,-8.0623628],[-79.0320182,-8.0622518]],"nodes":[13387696948,5072494779,1098620524,1098599090,7949542625,1098596124,1098635332,5081940964,3209507927,5081940965,11030181016,11030181023,5390455603,3208428724,3208428727,1098591560,5390456273,3208428721,1098598518,1098608419,3208428719,3209507708,1098620163,3208428717,1098629607,5390456224,3208428714,1098641190,11028373370,5081663292,1098620771,12077203799,1098630146,5081663288,288409726,3209521697,11028360475,5081663289,3728277856,5081663290,5081663291,3728277857,3209524436,5081663262,5081663260,7903947686,7903947711,7903947712,7903947713,7903947714,7903947715,7903947716,7903947717,7903947718,7903947719,7903947720,7903947721,7903947722,7903947689,7903947723,7903947692,7903947710,7903947709,7903947708,7903947707,7903948004,7903947706,7903947705,7903947704,7903947703,7903947702,7903947701,7903947700,7903947699,7903947698,7903947697,7903947696,7903947695,7903947688,7903947687,5081663259,7903947686,5081663260,5081663267,8268696456,5081663300,10934934313,10934934312,5081663299,10934934315,5081663298,10934934314,5081663297,5081663311,11028360475,3209521669,3209521668,3209521670,3939107727,12065651882,12065651888,12065633222,12065662718,12065662712,12065662706,3939107729,12065633256,12065651872,12065651879,12065633261,12065633267,3209521675,3209521685,3209521686,5081663448,12065633245,12065633230,12065633232,12065633247,3209521683,1098625837,5390456276,1098627288,12066304446,5390456316,1098632836,1098606115,1098618268,1098623407,5390456280,5390455612,1098614452,5390455613,5390455614,5081940957,5081940958,1098613218,1098640729,5390456283,1098614172,1098586325,5390478536,5390478535,5390478534,5390478533,1098586848,7277341745,1098643750,1098631308,1098609292,5072494780,1098598884,5072494781,1098635985,5072494782,1098625711,316492404,1145579870,288406663,316257656,316264701,12077636348,11030073495,11030073488,11319862294,5037301938,8660514759,8660514760,3728277779,5072494783,13172466845,1093015489,5072494746,5072432985,8763928785,316264700,5072432983,316264699,316264698,316264697,5072432980,4858052141,4858052143,5072494725,13137604191,5072444250,1145579813,5072494785,5072494722,4858049420,4858050022,5072494659,4858049418,5072494657,316264696,1145579854,4858049416,316264694,11030326607,7113004005,11104988597,5072494723,5082686317,1145579825,1145579831,5082686315,13137419532,316264693,5072509547,316264692,1145579886,5072509545,5082686313,5467941865,5072509548,316264691,5072509549,5072509553,316264690,5072509551,316264689,1098604811,11028564810,11028473002,4858049408,334650026,334650028,5082686287,11028472995,316264686,11028617402,316264685,11028617397,11028625413,1098603712,5082686319,5473927283,11028573864,5082686318,11028573855,5082689982,5473927261,5082686320,5473927270,5082686256,5082686254,5082156673,5082689990,316264930,2549352845,316264929,8624588281,10823604381,2549352846,10823604379,10823604378,10823604380,10823604377,2549352825,316254532,10823604369,8624588278,5082434461,316254533,10823604370,1538275888,10823604371,316254534,320113110,316254535,5082434453,2549352808,10823604372,2549352804,316254536,10823604362,10823604361,2549352850,10823604360,10823604363,10823604359,1098640722,5082689991,11114421896,11114421898,1098619862,1098591271,1098586330,1050893960,1538275857,316254967,3670684015,3670684014,316254426,316254427,1098644892,3670684727,316254428,1098632617,316254429,6195970422,316265440,3670684737,5082434193,316265439,3670684740,3670684741,3670684736,1098612747,13084463942,1098623435,13084463951,320114999,320114996,1098603700,3670684745,1098595992,1088227364,1088227267,5476546762,5476546763,5476546764,5476546765,5476546766,1088227377,1088227478,1088227293,1088227185,1088227399,1015347876,1050928471,1088227193,1145579819,1015292444,1144498438,1026647781,1088227261,11023976592,1098613755,1007782483,1098602637,11023976594,1098601972,11023313868,1098584430,11023313867,11023313865,5086629395,1088227445,3569346209,11023313863,1098613888,11023313861,11023313859,5086629393,11023313857,11023313855,1026647788,11023313853,11023313851,1026647512,1098632843,11023381285,11032994349,11032994346,316265133,1088227363,316265105,7118056424,11032994344,316265104,4706097946,316265103,1098633822,8845540452,1098623858,11910518850,11033509209,11032996035,11032996037,4452550923,4452550921,1098598186,5098557143,1098607852,1098641251,5079131745,1098609883,316265100,1098612563,320114991,316265097,1098630982,1098621187,11032795718,2481251300,2481251299,1088227390,5483089724,11032795715,11032795712,1098604016,5071955846,316265092,1268310331,1268310382,1098635227,10733716085,10733716086,9727770474,1098596796,1098587369,1098644599,5483080326,11032383236,1098596951,8164892855,1098622044,9727770473,5073659268,11032252664,5483053650,5483037405,5483037404,5483037403,5483037402,8095162549,5483037401,5483037400,5483037399,5483053677,5483037374,10735697401,5456218885,5456218884,5456218881,10735691980,10735691981,5456095923,5456095922,5456095921,5456093619,1098587063,1098631745,13527505946,1098649206,13527505947,1098592922,5483079118,1098596790,5483033918,1098587526,1098596839,1098605243,1098616342,5429866053,1098623756,5483079095,1098628781,5456201428,1098621096,5483466880,1098609071,1098617978,1098607098,1098597739,1098639976,1098628710,1098618701,1098599982,5073800417,1098604913,5483399625,1098592401,1098648738,3290788671,1098617368,1098606188,1098643814,1098631354,4437896109,1098619940,5483391631,12898734154,1098598384,4442749837,12898734168,1098591321,1098647292,12520726469,1098595063,1098619530,5483458628,1098647057,1098624880,1098629949,1098620493,1098587226,1098644361,1098632137,1098621901,1098648829,5483422311,1098604915,5483422312,1098596724,1098615400,2339884535,5524505333,5483457814,5483457812,5483458622,5483458621,5483457820,3135885804,5483457819,5483457818,5483457817,8100761923,5483457816]},"gtfs":{"agency_id":31,"route_id":70,"services":[{"service_id":"Mo-Su","startTime":"05:00","endTime":"23:00","trip_id":19972472}],"filteredStops":{"nodes":[13387696948,13546546089,13546545303,13546546088,13546545284,13546546075,13546546082,13546546083,13546546081,13546545282,13546546125,13546546106,13546545333,13546546110,13546546111,13546546090,13546546103,13546545325,13546545332,13546546109,13546545298,13546545338,5082686253,13546546120,13546545143,13546545942,13546545940,11910518853,13546545967,13546545159,13546545964,13546546024,13546545217,13546546020,13546546022,13546545218,13546545235,13546546057,11910518849,13546545247,13546545245,13546535082,13546545590,13546545568,13546545567,13546546302,13546546301,13546546300,13546545557,13546545796,13546545836,5483457816],"coordinates":[[-78.9922665,-8.1785825],[-78.9921884,-8.178774],[-78.9894656,-8.1809281],[-78.9866416,-8.1830243],[-78.9838078,-8.1852327],[-78.9795803,-8.1882321],[-78.9741267,-8.1921699],[-78.9712951,-8.1946849],[-78.9852063,-8.1884746],[-78.9879346,-8.186447],[-78.9922571,-8.1832442],[-78.9966442,-8.1750777],[-78.9988574,-8.1734734],[-79.0060541,-8.1678853],[-79.0087473,-8.1655834],[-79.0116043,-8.1608797],[-79.0121467,-8.1564809],[-79.0118688,-8.1528574],[-79.0116854,-8.1487098],[-79.0125973,-8.1442256],[-79.0142003,-8.1399451],[-79.0164493,-8.1369074],[-79.0190363,-8.1336578],[-79.0204793,-8.1317103],[-79.0213849,-8.1292768],[-79.0221161,-8.1268947],[-79.0228417,-8.1243768],[-79.0213577,-8.1220046],[-79.0208143,-8.1198077],[-79.0220605,-8.1173316],[-79.0221074,-8.1153628],[-79.0196637,-8.1127858],[-79.0176395,-8.1104764],[-79.0154954,-8.1080185],[-79.0138854,-8.1061501],[-79.0120998,-8.1040441],[-79.0128592,-8.1002664],[-79.0159997,-8.0976796],[-79.0178601,-8.0961305],[-79.0204626,-8.0950773],[-79.023311,-8.0940285],[-79.0262441,-8.09126],[-79.0232741,-8.0845681],[-79.0253288,-8.0836505],[-79.028078,-8.0838647],[-79.0304228,-8.083003],[-79.0308157,-8.0797966],[-79.0280604,-8.0761374],[-79.0275422,-8.0727021],[-79.0278217,-8.0697124],[-79.0319392,-8.0644078],[-79.0320182,-8.0622518]]},"forcedEndpointStops":[{"stop_id":13387696948,"stop_name":"Panamericana Norte","position":"first"},{"stop_id":5483457816,"stop_name":"Sin nombre","position":"last"}]}},{"type":"Feature","properties":{"bus":"yes","highway":"bus_stop","network":"Transporte Público Urbano Trujillo","public_transport":"platform","ref":"PM-91","source":"Gerencia de Transporte Metropolitano de Trujillo","id":13546546089},"geometry":{"type":"Point","coordinates":[-78.9921884,-8.178774]}},{"type":"Feature","properties":{"bus":"yes","highway":"bus_stop","network":"Transporte Público Urbano Trujillo","public_transport":"platform","ref":"PM-92","source":"Gerencia de Transporte Metropolitano de Trujillo","id":13546545303},"geometry":{"type":"Point","coordinates":[-78.9894656,-8.1809281]}},{"type":"Feature","properties":{"bus":"yes","highway":"bus_stop","network":"Transporte Público Urbano Trujillo","public_transport":"platform","ref":"PM-93","source":"Gerencia de Transporte Metropolitano de Trujillo","id":13546546088},"geometry":{"type":"Point","coordinates":[-78.9866416,-8.1830243]}},{"type":"Feature","properties":{"bus":"yes","highway":"bus_stop","network":"Transporte Público Urbano Trujillo","public_transport":"platform","ref":"PS-4","source":"Gerencia de Transporte Metropolitano de Trujillo","id":13546545284},"geometry":{"type":"Point","coordinates":[-78.9838078,-8.1852327]}},{"type":"Feature","properties":{"bus":"yes","highway":"bus_stop","network":"Transporte Público Urbano Trujillo","public_transport":"platform","ref":"PS-64","source":"Gerencia de Transporte Metropolitano de Trujillo","id":13546546075},"geometry":{"type":"Point","coordinates":[-78.9795803,-8.1882321]}},{"type":"Feature","properties":{"bus":"yes","highway":"bus_stop","network":"Transporte Público Urbano Trujillo","public_transport":"platform","ref":"PS-29","source":"Gerencia de Transporte Metropolitano de Trujillo","id":13546546082},"geometry":{"type":"Point","coordinates":[-78.9741267,-8.1921699]}},{"type":"Feature","properties":{"bus":"yes","highway":"bus_stop","network":"Transporte Público Urbano Trujillo","public_transport":"platform","ref":"PS-28","source":"Gerencia de Transporte Metropolitano de Trujillo","id":13546546083},"geometry":{"type":"Point","coordinates":[-78.9712951,-8.1946849]}},{"type":"Feature","properties":{"bus":"yes","highway":"bus_stop","network":"Transporte Público Urbano Trujillo","public_transport":"platform","ref":"PS-41","source":"Gerencia de Transporte Metropolitano de Trujillo","id":13546546081},"geometry":{"type":"Point","coordinates":[-78.9852063,-8.1884746]}},{"type":"Feature","properties":{"bus":"yes","highway":"bus_stop","network":"Transporte Público Urbano Trujillo","public_transport":"platform","ref":"PS-42","source":"Gerencia de Transporte Metropolitano de Trujillo","id":13546545282},"geometry":{"type":"Point","coordinates":[-78.9879346,-8.186447]}},{"type":"Feature","properties":{"bus":"yes","highway":"bus_stop","network":"Transporte Público Urbano Trujillo","public_transport":"platform","ref":"PM-105","source":"Gerencia de Transporte Metropolitano de Trujillo","id":13546546125},"geometry":{"type":"Point","coordinates":[-78.9922571,-8.1832442]}},{"type":"Feature","properties":{"bus":"yes","highway":"bus_stop","network":"Transporte Público Urbano Trujillo","public_transport":"platform","ref":"PM-36","source":"Gerencia de Transporte Metropolitano de Trujillo","id":13546546106},"geometry":{"type":"Point","coordinates":[-78.9966442,-8.1750777]}},{"type":"Feature","properties":{"bus":"yes","highway":"bus_stop","network":"Transporte Público Urbano Trujillo","public_transport":"platform","ref":"PM-26","source":"Gerencia de Transporte Metropolitano de Trujillo","id":13546545333},"geometry":{"type":"Point","coordinates":[-78.9988574,-8.1734734]}},{"type":"Feature","properties":{"bus":"yes","highway":"bus_stop","network":"Transporte Público Urbano Trujillo","public_transport":"platform","ref":"PM-24","source":"Gerencia de Transporte Metropolitano de Trujillo","id":13546546110},"geometry":{"type":"Point","coordinates":[-79.0060541,-8.1678853]}},{"type":"Feature","properties":{"bus":"yes","highway":"bus_stop","network":"Transporte Público Urbano Trujillo","public_transport":"platform","ref":"PM-23","source":"Gerencia de Transporte Metropolitano de Trujillo","id":13546546111},"geometry":{"type":"Point","coordinates":[-79.0087473,-8.1655834]}},{"type":"Feature","properties":{"bus":"yes","highway":"bus_stop","network":"Transporte Público Urbano Trujillo","public_transport":"platform","ref":"PM-9","source":"Gerencia de Transporte Metropolitano de Trujillo","id":13546546090},"geometry":{"type":"Point","coordinates":[-79.0116043,-8.1608797]}},{"type":"Feature","properties":{"bus":"yes","highway":"bus_stop","network":"Transporte Público Urbano Trujillo","public_transport":"platform","ref":"PM-41","source":"Gerencia de Transporte Metropolitano de Trujillo","id":13546546103},"geometry":{"type":"Point","coordinates":[-79.0121467,-8.1564809]}},{"type":"Feature","properties":{"bus":"yes","highway":"bus_stop","network":"Transporte Público Urbano Trujillo","public_transport":"platform","ref":"PM-40","source":"Gerencia de Transporte Metropolitano de Trujillo","id":13546545325},"geometry":{"type":"Point","coordinates":[-79.0118688,-8.1528574]}},{"type":"Feature","properties":{"bus":"yes","highway":"bus_stop","network":"Transporte Público Urbano Trujillo","public_transport":"platform","ref":"PM-28","source":"Gerencia de Transporte Metropolitano de Trujillo","id":13546545332},"geometry":{"type":"Point","coordinates":[-79.0116854,-8.1487098]}},{"type":"Feature","properties":{"bus":"yes","highway":"bus_stop","network":"Transporte Público Urbano Trujillo","public_transport":"platform","ref":"PM-27","source":"Gerencia de Transporte Metropolitano de Trujillo","id":13546546109},"geometry":{"type":"Point","coordinates":[-79.0125973,-8.1442256]}},{"type":"Feature","properties":{"bus":"yes","highway":"bus_stop","network":"Transporte Público Urbano Trujillo","public_transport":"platform","ref":"PM-SC-01","source":"Gerencia de Transporte Metropolitano de Trujillo","id":13546545298},"geometry":{"type":"Point","coordinates":[-79.0142003,-8.1399451]}},{"type":"Feature","properties":{"bus":"yes","highway":"bus_stop","network":"Transporte Público Urbano Trujillo","public_transport":"platform","ref":"PM-122","source":"Gerencia de Transporte Metropolitano de Trujillo","id":13546545338},"geometry":{"type":"Point","coordinates":[-79.0164493,-8.1369074]}},{"type":"Feature","properties":{"advertising":"no","bench":"yes","bicycle_parking":"no","bin":"no","bus":"yes","departures_board":"no","highway":"bus_stop","level":"0","lit":"no","name":"Panamericana Norte","network":"Transporte Público Urbano Trujillo","passenger_information_display:speech_output":"no","public_transport":"platform","ramp":"no","ref":"PM-121","shelter":"yes","source":"Reconocimiento terrestre cartográfico realizado por Kaart en 2017","tactile_paving":"no","tactile_writing:braille:es":"no","id":5082686253},"geometry":{"type":"Point","coordinates":[-79.0190363,-8.1336578]}},{"type":"Feature","properties":{"bus":"yes","highway":"bus_stop","network":"Transporte Público Urbano Trujillo","public_transport":"platform","ref":"PM-120","source":"Gerencia de Transporte Metropolitano de Trujillo","id":13546546120},"geometry":{"type":"Point","coordinates":[-79.0204793,-8.1317103]}},{"type":"Feature","properties":{"bus":"yes","highway":"bus_stop","network":"Transporte Público Urbano Trujillo","public_transport":"platform","ref":"LAM-416","source":"Gerencia de Transporte Metropolitano de Trujillo","id":13546545143},"geometry":{"type":"Point","coordinates":[-79.0213849,-8.1292768]}},{"type":"Feature","properties":{"bus":"yes","highway":"bus_stop","network":"Transporte Público Urbano Trujillo","public_transport":"platform","ref":"LAM-412","source":"Gerencia de Transporte Metropolitano de Trujillo","id":13546545942},"geometry":{"type":"Point","coordinates":[-79.0221161,-8.1268947]}},{"type":"Feature","properties":{"bus":"yes","highway":"bus_stop","network":"Transporte Público Urbano Trujillo","public_transport":"platform","ref":"LAM-414","source":"Gerencia de Transporte Metropolitano de Trujillo","id":13546545940},"geometry":{"type":"Point","coordinates":[-79.0228417,-8.1243768]}},{"type":"Feature","properties":{"advertising":"no","bench":"no","bicycle_parking":"no","bin":"no","bus":"yes","departures_board":"no","highway":"bus_stop","level":"0","lit":"yes","name":"Calle Calcuchimac","network":"Transporte Público Urbano Trujillo","passenger_information_display:speech_output":"no","pole":"yes","public_transport":"platform","ramp":"yes","ref":"AMS-52","shelter":"no","source:ref":"Gerencia de Transporte Metropolitano de Trujillo","tactile_paving":"no","tactile_writing:braille:es":"no","id":11910518853},"geometry":{"type":"Point","coordinates":[-79.0213577,-8.1220046]}},{"type":"Feature","properties":{"bus":"yes","highway":"bus_stop","network":"Transporte Público Urbano Trujillo","public_transport":"platform","ref":"HUAY-494","source":"Gerencia de Transporte Metropolitano de Trujillo","id":13546545967},"geometry":{"type":"Point","coordinates":[-79.0208143,-8.1198077]}},{"type":"Feature","properties":{"bus":"yes","highway":"bus_stop","network":"Transporte Público Urbano Trujillo","public_transport":"platform","ref":"HUAY-495","source":"Gerencia de Transporte Metropolitano de Trujillo","id":13546545159},"geometry":{"type":"Point","coordinates":[-79.0220605,-8.1173316]}},{"type":"Feature","properties":{"bus":"yes","highway":"bus_stop","network":"Transporte Público Urbano Trujillo","public_transport":"platform","ref":"IN-169","source":"Gerencia de Transporte Metropolitano de Trujillo","id":13546545964},"geometry":{"type":"Point","coordinates":[-79.0221074,-8.1153628]}},{"type":"Feature","properties":{"bus":"yes","highway":"bus_stop","network":"Transporte Público Urbano Trujillo","public_transport":"platform","ref":"CEV-172","source":"Gerencia de Transporte Metropolitano de Trujillo","id":13546546024},"geometry":{"type":"Point","coordinates":[-79.0196637,-8.1127858]}},{"type":"Feature","properties":{"bus":"yes","highway":"bus_stop","network":"Transporte Público Urbano Trujillo","public_transport":"platform","ref":"CEV-179","source":"Gerencia de Transporte Metropolitano de Trujillo","id":13546545217},"geometry":{"type":"Point","coordinates":[-79.0176395,-8.1104764]}},{"type":"Feature","properties":{"bus":"yes","highway":"bus_stop","network":"Transporte Público Urbano Trujillo","public_transport":"platform","ref":"CEV-177","source":"Gerencia de Transporte Metropolitano de Trujillo","id":13546546020},"geometry":{"type":"Point","coordinates":[-79.0154954,-8.1080185]}},{"type":"Feature","properties":{"bus":"yes","highway":"bus_stop","network":"Transporte Público Urbano Trujillo","public_transport":"platform","ref":"CEV-175","source":"Gerencia de Transporte Metropolitano de Trujillo","id":13546546022},"geometry":{"type":"Point","coordinates":[-79.0138854,-8.1061501]}},{"type":"Feature","properties":{"bus":"yes","highway":"bus_stop","network":"Transporte Público Urbano Trujillo","public_transport":"platform","ref":"CEV-173","source":"Gerencia de Transporte Metropolitano de Trujillo","id":13546545218},"geometry":{"type":"Point","coordinates":[-79.0120998,-8.1040441]}},{"type":"Feature","properties":{"bus":"yes","highway":"bus_stop","network":"Transporte Público Urbano Trujillo","public_transport":"platform","ref":"AMS-58","source":"Gerencia de Transporte Metropolitano de Trujillo","id":13546545235},"geometry":{"type":"Point","coordinates":[-79.0128592,-8.1002664]}},{"type":"Feature","properties":{"bus":"yes","highway":"bus_stop","network":"Transporte Público Urbano Trujillo","public_transport":"platform","ref":"AMN-18","source":"Gerencia de Transporte Metropolitano de Trujillo","id":13546546057},"geometry":{"type":"Point","coordinates":[-79.0159997,-8.0976796]}},{"type":"Feature","properties":{"advertising":"no","bench":"no","bicycle_parking":"no","bin":"no","bus":"yes","departures_board":"no","highway":"bus_stop","level":"0","lit":"yes","name":"Avenida del Ejército","network":"Transporte Público Urbano Trujillo","passenger_information_display:speech_output":"no","pole":"yes","public_transport":"platform","ramp":"no","ref":"AMN-20","shelter":"no","source:ref":"Gerencia de Transporte Metropolitano de Trujillo","tactile_paving":"yes","tactile_writing:braille:es":"no","id":11910518849},"geometry":{"type":"Point","coordinates":[-79.0178601,-8.0961305]}},{"type":"Feature","properties":{"bus":"yes","highway":"bus_stop","network":"Transporte Público Urbano Trujillo","public_transport":"platform","ref":"AMN-30","source":"Gerencia de Transporte Metropolitano de Trujillo","id":13546545247},"geometry":{"type":"Point","coordinates":[-79.0204626,-8.0950773]}},{"type":"Feature","properties":{"bus":"yes","highway":"bus_stop","network":"Transporte Público Urbano Trujillo","public_transport":"platform","ref":"AMN-32","source":"Gerencia de Transporte Metropolitano de Trujillo","id":13546545245},"geometry":{"type":"Point","coordinates":[-79.023311,-8.0940285]}},{"type":"Feature","properties":{"bus":"yes","highway":"bus_stop","network":"Transporte Público Urbano Trujillo","public_transport":"platform","ref":"PRO-446","source":"Gerencia de Transporte Metropolitano de Trujillo","id":13546535082},"geometry":{"type":"Point","coordinates":[-79.0262441,-8.09126]}},{"type":"Feature","properties":{"bus":"yes","highway":"bus_stop","network":"Transporte Público Urbano Trujillo","public_transport":"platform","ref":"PFM-29","source":"Gerencia de Transporte Metropolitano de Trujillo","id":13546545590},"geometry":{"type":"Point","coordinates":[-79.0232741,-8.0845681]}},{"type":"Feature","properties":{"bus":"yes","highway":"bus_stop","network":"Transporte Público Urbano Trujillo","public_transport":"platform","ref":"PFM-64","source":"Gerencia de Transporte Metropolitano de Trujillo","id":13546545568},"geometry":{"type":"Point","coordinates":[-79.0253288,-8.0836505]}},{"type":"Feature","properties":{"bus":"yes","highway":"bus_stop","network":"Transporte Público Urbano Trujillo","public_transport":"platform","ref":"PFM-66","source":"Gerencia de Transporte Metropolitano de Trujillo","id":13546545567},"geometry":{"type":"Point","coordinates":[-79.028078,-8.0838647]}},{"type":"Feature","properties":{"bus":"yes","highway":"bus_stop","network":"Transporte Público Urbano Trujillo","public_transport":"platform","ref":"PFM-68","source":"Gerencia de Transporte Metropolitano de Trujillo","id":13546546302},"geometry":{"type":"Point","coordinates":[-79.0304228,-8.083003]}},{"type":"Feature","properties":{"bus":"yes","highway":"bus_stop","network":"Transporte Público Urbano Trujillo","public_transport":"platform","ref":"PFM-84","source":"Gerencia de Transporte Metropolitano de Trujillo","id":13546546301},"geometry":{"type":"Point","coordinates":[-79.0308157,-8.0797966]}},{"type":"Feature","properties":{"bus":"yes","highway":"bus_stop","network":"Transporte Público Urbano Trujillo","public_transport":"platform","ref":"PFM-86","source":"Gerencia de Transporte Metropolitano de Trujillo","id":13546546300},"geometry":{"type":"Point","coordinates":[-79.0280604,-8.0761374]}},{"type":"Feature","properties":{"bus":"yes","highway":"bus_stop","network":"Transporte Público Urbano Trujillo","public_transport":"platform","ref":"PFM-88","source":"Gerencia de Transporte Metropolitano de Trujillo","id":13546545557},"geometry":{"type":"Point","coordinates":[-79.0275422,-8.0727021]}},{"type":"Feature","properties":{"bus":"yes","highway":"bus_stop","network":"Transporte Público Urbano Trujillo","public_transport":"platform","ref":"PAT-86","source":"Gerencia de Transporte Metropolitano de Trujillo","id":13546545796},"geometry":{"type":"Point","coordinates":[-79.0278217,-8.0697124]}},{"type":"Feature","properties":{"bus":"yes","highway":"bus_stop","network":"Transporte Público Urbano Trujillo","public_transport":"platform","ref":"PAT-149","source":"Gerencia de Transporte Metropolitano de Trujillo","id":13546545836},"geometry":{"type":"Point","coordinates":[-79.0319392,-8.0644078]}}]}