{"type":"FeatureCollection","features":[{"type":"Feature","properties":{"check_date":"2025-12-17","colour":"#ffd966","colour:text":"#000000","fee":"yes","from":"Avenida Prolongación Santa","hash":"15216","interval":"10","name":"Avenida Prolongación Santa → Sector Huangabal","network":"Transporte Público Urbano Trujillo","opening_hours":"Mo-Su 04:15-22:00","operator":"BELLO HORIZONTE S.A.","public_transport:version":"2","ref":"C-31 P","route":"bus","survey:avg_speed:kmh":"30","to":"Sector Huangabal","type":"route","id":19972479},"geometry":{"type":"LineString","coordinates":[[-79.0181548,-8.1011206],[-79.0182983,-8.1012707],[-79.0190038,-8.1020086],[-79.0197291,-8.1027263],[-79.0199461,-8.1029411],[-79.0207602,-8.1037599],[-79.0211839,-8.1041867],[-79.0218373,-8.1048494],[-79.0218968,-8.1049691],[-79.0220672,-8.1051855],[-79.0221262,-8.1053024],[-79.0222571,-8.1056613],[-79.0223023,-8.1056971],[-79.0223395,-8.1057196],[-79.0223866,-8.1057298],[-79.0224401,-8.1057296],[-79.022375,-8.1059846],[-79.0223401,-8.1061357],[-79.0221407,-8.1059376],[-79.0219747,-8.1057621],[-79.0218001,-8.1055776],[-79.0215638,-8.1053088],[-79.0210953,-8.1047758],[-79.0207918,-8.1044306],[-79.0204394,-8.1040297],[-79.019701,-8.103149],[-79.0192946,-8.1025315],[-79.019025,-8.102128],[-79.018954,-8.1020598],[-79.0187438,-8.1018579],[-79.0182168,-8.1013517],[-79.0179018,-8.101666],[-79.0171963,-8.1023702],[-79.0171436,-8.1024228],[-79.0170232,-8.1023071],[-79.0163338,-8.1016447],[-79.0160688,-8.1013876],[-79.0156075,-8.1009467],[-79.0151842,-8.1005402],[-79.0148619,-8.1002355],[-79.0141167,-8.0995142],[-79.0140374,-8.099438],[-79.0135435,-8.0988685],[-79.0131942,-8.0985189],[-79.0131509,-8.0984834],[-79.0122114,-8.0977145],[-79.0119503,-8.097419],[-79.0117647,-8.097109],[-79.0117058,-8.09701],[-79.0114521,-8.0966151],[-79.0110018,-8.096913],[-79.0109237,-8.096984],[-79.0108563,-8.0968553],[-79.0105852,-8.0964457],[-79.0103001,-8.0960019],[-79.009882,-8.0953708],[-79.0096905,-8.0950782],[-79.0090676,-8.094126],[-79.0088262,-8.093757],[-79.0087984,-8.0937145],[-79.0086557,-8.0934963],[-79.0081767,-8.0927642],[-79.0078871,-8.0923216],[-79.0075392,-8.0917899],[-79.0069971,-8.0909613],[-79.0063114,-8.0899131],[-79.0062521,-8.0898224],[-79.0057185,-8.0890069],[-79.0052807,-8.0883376],[-79.0052032,-8.0882192],[-79.0047348,-8.0875032],[-79.0046704,-8.0874018],[-79.0045939,-8.0873061],[-79.0044001,-8.0871429],[-79.0041399,-8.08699],[-79.0038554,-8.0868652],[-79.0035261,-8.0867887],[-79.0032608,-8.086761],[-79.0030093,-8.0867775],[-79.0027528,-8.0868069],[-79.0024763,-8.0868654],[-79.0022288,-8.0869234],[-79.002148,-8.086945],[-79.0010137,-8.0872648],[-78.9992784,-8.0877561],[-78.999141,-8.0877949],[-78.9987199,-8.087913],[-78.9975572,-8.0882191],[-78.9964306,-8.0885377],[-78.9952503,-8.0888539],[-78.9949241,-8.088941],[-78.9946667,-8.0890101],[-78.9945615,-8.0890301],[-78.9944136,-8.0890583],[-78.9942587,-8.0890742],[-78.9941045,-8.0890814],[-78.993898,-8.0890828],[-78.9936613,-8.0890575],[-78.9934614,-8.0890151],[-78.9932421,-8.088954],[-78.9930544,-8.0888889],[-78.9929129,-8.0888305],[-78.9927272,-8.0887462],[-78.9925394,-8.088644],[-78.9923235,-8.0885006],[-78.9921559,-8.0883684],[-78.9920491,-8.0882666],[-78.9917218,-8.0879132],[-78.9915142,-8.0876521],[-78.9914374,-8.0875431],[-78.9912272,-8.087208],[-78.9909415,-8.0867042],[-78.9908288,-8.0865056],[-78.9907312,-8.0863416],[-78.9903179,-8.0856704],[-78.9902131,-8.0855303],[-78.9901033,-8.0853836],[-78.989878,-8.0851951],[-78.9896192,-8.0850397],[-78.9892718,-8.084891],[-78.9888735,-8.0847941],[-78.988557,-8.0847689],[-78.9883505,-8.0847821],[-78.9880997,-8.0848339],[-78.9878477,-8.0849274],[-78.9871341,-8.0851924],[-78.9869583,-8.0852643],[-78.9847989,-8.0861594],[-78.9830236,-8.0868767],[-78.9827916,-8.0869816],[-78.9824893,-8.0871639],[-78.9823064,-8.0872874],[-78.9819103,-8.0876108],[-78.9815928,-8.0878759],[-78.9814251,-8.0880159],[-78.981245,-8.0881355],[-78.9811976,-8.088167],[-78.9810607,-8.0882382],[-78.9808711,-8.0882914],[-78.9806968,-8.0883366],[-78.9804044,-8.0884043],[-78.9785899,-8.0887893],[-78.97826,-8.0888571],[-78.9780401,-8.0889261],[-78.977737,-8.0890376],[-78.9772005,-8.0892793],[-78.9753981,-8.0901556],[-78.974246,-8.0907225],[-78.9738896,-8.0908837],[-78.973525,-8.0910029],[-78.9724865,-8.0913003],[-78.968152,-8.092456],[-78.9680298,-8.0924936],[-78.9679362,-8.0925283],[-78.9678327,-8.0925786],[-78.9677227,-8.0926396],[-78.967684,-8.092674],[-78.9676361,-8.092694],[-78.9675682,-8.0927421],[-78.9674878,-8.0928104],[-78.9674759,-8.0928235],[-78.9674141,-8.0928914],[-78.9672401,-8.0930848],[-78.9671382,-8.0932148],[-78.9670256,-8.0933874],[-78.9669174,-8.0935923],[-78.9664579,-8.0945814],[-78.9663443,-8.0948014],[-78.9662625,-8.0949302],[-78.9661981,-8.0950231],[-78.9660983,-8.0951463],[-78.9659916,-8.0952502],[-78.9658837,-8.0953404],[-78.9657549,-8.0954195],[-78.9656117,-8.0954841],[-78.9655296,-8.0955316],[-78.965466,-8.0955756],[-78.9654431,-8.095606],[-78.9654148,-8.0956693],[-78.96507,-8.0955978],[-78.9645836,-8.0954965],[-78.9643807,-8.0954758],[-78.9642063,-8.0954878],[-78.9640535,-8.0955369],[-78.9639046,-8.0956126],[-78.958024,-8.0989056],[-78.9574141,-8.099249],[-78.9509009,-8.1029162],[-78.950222,-8.103125],[-78.949878,-8.1032],[-78.9495798,-8.1032336],[-78.949277,-8.103222],[-78.94887,-8.103157],[-78.9484345,-8.1029946],[-78.9460205,-8.1019537],[-78.940759,-8.099724],[-78.9398706,-8.099341],[-78.9396917,-8.0992638],[-78.9284276,-8.0944071],[-78.9202322,-8.0908735],[-78.9201306,-8.0908296],[-78.915653,-8.088899],[-78.915052,-8.088673],[-78.9147466,-8.08863],[-78.9144516,-8.088638],[-78.91406,-8.0886486],[-78.9103954,-8.0888545],[-78.903873,-8.089221],[-78.903476,-8.0892355],[-78.9029369,-8.0891771],[-78.9022826,-8.0890363],[-78.9016361,-8.0889228],[-78.895569,-8.087858],[-78.8952288,-8.0877829],[-78.889496,-8.086517],[-78.888209,-8.086163],[-78.887144,-8.0857833],[-78.8856986,-8.0851656],[-78.8845798,-8.0846255],[-78.882308,-8.083295],[-78.8816806,-8.082833],[-78.8785502,-8.0805279],[-78.8784543,-8.0804476],[-78.8765595,-8.0788614],[-78.876138,-8.0784972],[-78.8757849,-8.0782415],[-78.8756266,-8.0781565],[-78.8754603,-8.078106],[-78.875034,-8.07802],[-78.8744938,-8.0779731],[-78.874412,-8.077966],[-78.8741004,-8.0779016],[-78.8738778,-8.0778219],[-78.8736767,-8.0777289],[-78.8723731,-8.0770783],[-78.8722149,-8.0770225],[-78.8719547,-8.0769615],[-78.871775,-8.0769349],[-78.87042,-8.076807],[-78.8701952,-8.076749],[-78.8699994,-8.0766508],[-78.8697338,-8.076433],[-78.8695461,-8.0761807],[-78.8674496,-8.0733735],[-78.8672199,-8.0730802],[-78.8663971,-8.0720297],[-78.864018,-8.068968],[-78.8620809,-8.0664316],[-78.8619044,-8.0662006],[-78.8615718,-8.065776],[-78.861305,-8.0654573],[-78.8612581,-8.0653988],[-78.8611897,-8.0653258],[-78.8609818,-8.0650828],[-78.8608342,-8.0649341],[-78.8606545,-8.0647827],[-78.8605285,-8.0646765],[-78.8603514,-8.0645251],[-78.860153,-8.0643631],[-78.8599491,-8.064225],[-78.8597399,-8.064055],[-78.8595414,-8.0639276],[-78.8593241,-8.0637975],[-78.8591954,-8.0637204],[-78.8586187,-8.0633274],[-78.8580447,-8.0629662],[-78.857916,-8.0628945],[-78.8577685,-8.0627776],[-78.8576371,-8.0627006],[-78.8575217,-8.0626157],[-78.8573769,-8.062528],[-78.8572562,-8.062443],[-78.8570952,-8.062289],[-78.8570121,-8.0621987],[-78.856878,-8.0620367],[-78.8566849,-8.0617765],[-78.8563389,-8.0612905],[-78.8561051,-8.060954],[-78.8557354,-8.060422],[-78.8553035,-8.0596174],[-78.8550514,-8.0590676],[-78.8548905,-8.0587489],[-78.8546357,-8.0582444],[-78.8543648,-8.0576837],[-78.8539302,-8.0568713],[-78.853493,-8.055987],[-78.853386,-8.0557677],[-78.8532879,-8.0555666],[-78.8530746,-8.0551292],[-78.8528506,-8.0546769],[-78.8526669,-8.0543059],[-78.8522941,-8.0535833],[-78.8519669,-8.0528875],[-78.8510174,-8.0510393],[-78.8504809,-8.0499717],[-78.8503629,-8.0497406],[-78.8492149,-8.0474059],[-78.8488019,-8.0467821],[-78.8485658,-8.0464552],[-78.8483713,-8.046208],[-78.8469565,-8.0444102],[-78.8457844,-8.0429577],[-78.8455215,-8.0425912],[-78.8455033,-8.0425546],[-78.845425,-8.0423973],[-78.8449556,-8.0413082],[-78.8444299,-8.0400761],[-78.8442351,-8.0395686],[-78.8435072,-8.0376726],[-78.8434411,-8.0375021],[-78.8426489,-8.0354602],[-78.8413509,-8.0319502],[-78.8405913,-8.0298961],[-78.8404211,-8.0294358],[-78.84038,-8.0293246],[-78.8401766,-8.0287591],[-78.8399908,-8.0282973],[-78.8396934,-8.0274965],[-78.8389851,-8.0255897],[-78.8385022,-8.0242895],[-78.8384458,-8.0240637],[-78.8384244,-8.0239416],[-78.838419,-8.0238034],[-78.8384137,-8.0236494],[-78.8384083,-8.02349],[-78.838411,-8.0233652],[-78.8384056,-8.022911],[-78.838419,-8.0227331],[-78.838411,-8.0223799],[-78.8384056,-8.0221461],[-78.8383573,-8.0218221],[-78.8383198,-8.021607],[-78.8382366,-8.0212112],[-78.8380837,-8.0207677],[-78.8380033,-8.0205101],[-78.837995,-8.02049],[-78.8378853,-8.0202232],[-78.8377672,-8.0199576],[-78.837558,-8.0195194],[-78.8373488,-8.019198],[-78.8371303,-8.0188722],[-78.8371101,-8.0188421],[-78.8368177,-8.0184812],[-78.836595,-8.0182301],[-78.8362882,-8.0179187],[-78.8356675,-8.0173278],[-78.8352594,-8.0169298],[-78.8339216,-8.0156382],[-78.832088,-8.0138678],[-78.8308874,-8.012712],[-78.8307943,-8.0126412],[-78.830301,-8.0121406],[-78.8295329,-8.0114305],[-78.8293169,-8.0112194],[-78.8290581,-8.0108807],[-78.828637,-8.0102154],[-78.8282941,-8.009672],[-78.8282156,-8.0095412],[-78.8277057,-8.0087568],[-78.8275237,-8.0085326],[-78.8273982,-8.0084043],[-78.8272386,-8.0082819],[-78.8271154,-8.0081897],[-78.8263319,-8.007789],[-78.8259466,-8.0075604],[-78.8254759,-8.0072752],[-78.8252996,-8.0070662],[-78.8246529,-8.0058611],[-78.8233769,-8.003384],[-78.8200057,-7.9968389],[-78.8198034,-7.9965197],[-78.8195634,-7.9962744],[-78.8188164,-7.9956884],[-78.8185986,-7.9954975],[-78.8181938,-7.9951106],[-78.8180991,-7.9950083],[-78.8180711,-7.9949609],[-78.8180542,-7.9949134],[-78.8180504,-7.9948241],[-78.818062,-7.9947698],[-78.8180826,-7.9947155],[-78.8182004,-7.9945158],[-78.8182977,-7.99435],[-78.8183339,-7.9942556],[-78.8183581,-7.9941602],[-78.8184265,-7.9928462],[-78.818541,-7.9899577],[-78.8185485,-7.9887138],[-78.8185777,-7.988513],[-78.8186337,-7.9881277],[-78.8187587,-7.9877623],[-78.8188002,-7.9874866],[-78.8188084,-7.9866711],[-78.8187563,-7.9854301],[-78.8187379,-7.9850958],[-78.8187183,-7.9850072],[-78.818715,-7.9849925],[-78.8186926,-7.9848909],[-78.8185681,-7.9846555],[-78.8184972,-7.9845313],[-78.8181465,-7.9839172],[-78.8177256,-7.9831803],[-78.8164761,-7.9809923],[-78.8159544,-7.9800876],[-78.8158661,-7.9798452],[-78.8158783,-7.9795744],[-78.8159912,-7.978941],[-78.8159947,-7.9787134],[-78.815948,-7.9785818],[-78.815834,-7.9784478],[-78.8157433,-7.9783505],[-78.8154494,-7.9780578],[-78.8151292,-7.9777378],[-78.8149932,-7.9776273],[-78.814897,-7.9775453],[-78.8148099,-7.9775221],[-78.8145761,-7.9774695],[-78.8143397,-7.97743],[-78.814256,-7.9774037],[-78.8141879,-7.9773598],[-78.8141314,-7.9772843],[-78.814098,-7.9772076],[-78.8139372,-7.9765865],[-78.8139243,-7.9765377],[-78.8134984,-7.9766487],[-78.8134369,-7.9766656],[-78.8130234,-7.9767776],[-78.8125282,-7.9769058],[-78.8120931,-7.9770115],[-78.8117672,-7.9770959],[-78.8111431,-7.9772162],[-78.8110788,-7.9772212],[-78.8108987,-7.9771668],[-78.8108307,-7.9771471],[-78.8106639,-7.9770972],[-78.8105553,-7.9770592],[-78.8104215,-7.9769976],[-78.8102335,-7.9769137],[-78.8100018,-7.9768114],[-78.8098231,-7.9767248],[-78.8096854,-7.9766763],[-78.809549,-7.9766278],[-78.8093755,-7.9765347],[-78.8092232,-7.976435],[-78.8091345,-7.9763787],[-78.8090617,-7.9763551],[-78.8089783,-7.9763511],[-78.8088551,-7.9763852],[-78.8087307,-7.9764311],[-78.8086552,-7.9764547],[-78.8085691,-7.9764626],[-78.8084328,-7.9764534],[-78.8082659,-7.9764573],[-78.8081441,-7.9764573],[-78.8080329,-7.9764665],[-78.807866,-7.9764875],[-78.807776,-7.9765032],[-78.8077183,-7.9765507],[-78.8076826,-7.9766228],[-78.807668,-7.9766858],[-78.8077077,-7.9767513],[-78.8077792,-7.9768248],[-78.8078348,-7.9769218],[-78.8078574,-7.9769834],[-78.8078494,-7.9770437],[-78.8077964,-7.9770988],[-78.807676,-7.9771591],[-78.8074813,-7.9772404],[-78.80739,-7.9772719],[-78.8072973,-7.9772955],[-78.8072046,-7.9773112],[-78.8070669,-7.9773086],[-78.8069556,-7.9773125],[-78.8068047,-7.9773322],[-78.8066577,-7.9773493],[-78.8064485,-7.9773742],[-78.8063241,-7.9773899],[-78.806185,-7.9773991],[-78.8060884,-7.9773834],[-78.8059599,-7.9773375],[-78.8058514,-7.9772745],[-78.8057547,-7.977226],[-78.8056633,-7.9772063],[-78.8055667,-7.9771945],[-78.8054382,-7.9771906],[-78.805331,-7.9771906],[-78.8052277,-7.9772103],[-78.8051099,-7.9772326],[-78.8050211,-7.9772575],[-78.8049311,-7.9772811],[-78.804849,-7.9772876],[-78.8047603,-7.9772837],[-78.804657,-7.9772588],[-78.8045802,-7.9772483],[-78.8044889,-7.9772483],[-78.8043114,-7.9772614],[-78.8041764,-7.9772837],[-78.8040718,-7.9773152],[-78.8039698,-7.977348],[-78.803897,-7.9773545],[-78.8038202,-7.9773283],[-78.8037103,-7.9772824],[-78.8035819,-7.9772116],[-78.8034587,-7.9771709],[-78.8033435,-7.9771342],[-78.8032508,-7.9771198],[-78.8031065,-7.9771316],[-78.8029675,-7.9771368],[-78.8028112,-7.9771329],[-78.8026497,-7.9771316],[-78.802516,-7.9771355],[-78.802369,-7.9771381],[-78.8021717,-7.9771626],[-78.8020234,-7.9771783],[-78.8018672,-7.9771599],[-78.801658,-7.9771075],[-78.8013879,-7.9770708],[-78.8011416,-7.9770314],[-78.8009694,-7.9769764],[-78.8008021,-7.9769239],[-78.8005902,-7.9768504],[-78.8004181,-7.9767875],[-78.8002672,-7.9767586],[-78.8001003,-7.9767377],[-78.7999255,-7.9767324],[-78.7997984,-7.9767324],[-78.799711,-7.9767586],[-78.7996263,-7.9768399],[-78.7995522,-7.9769239],[-78.7994595,-7.9769894],[-78.7993403,-7.9770392],[-78.799192,-7.9770786],[-78.7990702,-7.9770969],[-78.7989537,-7.9770943],[-78.7987577,-7.9770655],[-78.7985432,-7.9770156],[-78.7983737,-7.9769789],[-78.7981963,-7.976937],[-78.7980083,-7.9769081],[-78.7978414,-7.9768898],[-78.797619,-7.9768898],[-78.7974972,-7.9768714],[-78.7973753,-7.9768504],[-78.7972456,-7.9768032],[-78.7970576,-7.9766931],[-78.7968272,-7.9765514],[-78.7965359,-7.9763679],[-78.7961863,-7.9761659],[-78.7959824,-7.9760374],[-78.795805,-7.9758774],[-78.7956567,-7.9757647],[-78.7954528,-7.9756493],[-78.7952912,-7.975568],[-78.7951615,-7.9754788],[-78.795082,-7.975387],[-78.7950396,-7.9753031],[-78.7949976,-7.9752225],[-78.7949263,-7.9751095],[-78.7948532,-7.9750247],[-78.7947355,-7.9749382],[-78.7945428,-7.9748198],[-78.7944465,-7.9747474],[-78.7943823,-7.9747209],[-78.794336,-7.9747262],[-78.7942843,-7.9747757],[-78.7942343,-7.9748975],[-78.7941808,-7.9749911],[-78.7940738,-7.9750848],[-78.7939454,-7.9751413],[-78.7938509,-7.9751519],[-78.7937046,-7.9751289],[-78.7935638,-7.9751077],[-78.793471,-7.9750971],[-78.7933462,-7.9751077],[-78.7932499,-7.9750953],[-78.7931768,-7.9750653],[-78.7930519,-7.9749682],[-78.7928754,-7.9748145],[-78.7926435,-7.9745991],[-78.7925526,-7.9745337],[-78.7924616,-7.9744595],[-78.7924045,-7.9743924],[-78.7923724,-7.9743235],[-78.7923528,-7.9742441],[-78.7923421,-7.9741646],[-78.7923082,-7.9741169],[-78.7922405,-7.9740763],[-78.7921495,-7.9740674],[-78.7920604,-7.9740727],[-78.7919569,-7.9740516],[-78.7918392,-7.9740127],[-78.7917233,-7.9739738],[-78.7916199,-7.9739544],[-78.7914647,-7.9739473],[-78.7913345,-7.973935],[-78.7911722,-7.9738961],[-78.7909974,-7.9738431],[-78.7908441,-7.9737778],[-78.7907585,-7.9737071],[-78.790639,-7.9736047],[-78.7905445,-7.9735482],[-78.7904553,-7.9735182],[-78.7903322,-7.9735111],[-78.7902431,-7.9734987],[-78.7901396,-7.9734546],[-78.7900451,-7.9733963],[-78.7899524,-7.9733539],[-78.7898543,-7.9733557],[-78.789651,-7.9733875],[-78.7895083,-7.9734087],[-78.7893852,-7.9734122],[-78.7892872,-7.9733928],[-78.7891017,-7.973308],[-78.7889608,-7.9732462],[-78.788836,-7.9731437],[-78.7887076,-7.9730166],[-78.7885809,-7.9728523],[-78.7884721,-7.9726916],[-78.7884008,-7.9725998],[-78.7883402,-7.972568],[-78.7882902,-7.9725556],[-78.7882082,-7.9725662],[-78.7881066,-7.972621],[-78.7880495,-7.9726563],[-78.7879888,-7.9726581],[-78.7879015,-7.9726422],[-78.7878123,-7.9726015],[-78.787732,-7.9725697],[-78.7875448,-7.972515],[-78.7874164,-7.9724673],[-78.7873219,-7.972402],[-78.7872042,-7.9722889],[-78.7871043,-7.9721794],[-78.786942,-7.9720311],[-78.7867547,-7.9718862],[-78.7866424,-7.9717962],[-78.7865657,-7.9717467],[-78.7864409,-7.9716725],[-78.7863196,-7.9715913],[-78.7861609,-7.971473],[-78.7859914,-7.9713334],[-78.7858291,-7.9712222],[-78.7856651,-7.9711074],[-78.7854493,-7.9709926],[-78.7853209,-7.9709343],[-78.7851943,-7.9708477],[-78.7851229,-7.9707753],[-78.7850516,-7.970717],[-78.7849856,-7.9706799],[-78.7848536,-7.9706552],[-78.7847199,-7.9706181],[-78.78462,-7.9705651],[-78.7845397,-7.9704963],[-78.7844541,-7.9704009],[-78.7843293,-7.9702649],[-78.7841884,-7.9701218],[-78.7840992,-7.9700194],[-78.7840172,-7.9698958],[-78.7839102,-7.9697562],[-78.7837319,-7.9695637],[-78.783632,-7.9694242],[-78.7835268,-7.9692988],[-78.7834233,-7.9692052],[-78.7833235,-7.9690992],[-78.7832129,-7.9689509],[-78.783113,-7.9688325],[-78.7829846,-7.9687036],[-78.7828669,-7.9685782],[-78.7827902,-7.9684528],[-78.7827421,-7.9683451],[-78.7826993,-7.9682603],[-78.7826155,-7.9681614],[-78.7824942,-7.9680589],[-78.7823961,-7.967953],[-78.7823016,-7.9678346],[-78.7821803,-7.9676739],[-78.7820911,-7.9675538],[-78.7819836,-7.9674533],[-78.7815584,-7.9670285],[-78.7815,-7.9669703],[-78.7811827,-7.9666754],[-78.7810116,-7.9665225],[-78.7809087,-7.9664217],[-78.7808552,-7.9663228],[-78.7808338,-7.9662592],[-78.7808017,-7.966215],[-78.7807536,-7.9661956],[-78.7806716,-7.9661974],[-78.7805895,-7.9662044],[-78.7805182,-7.9662168],[-78.7804023,-7.966208],[-78.7802703,-7.9661921],[-78.7801526,-7.9661603],[-78.7800081,-7.9661444],[-78.7798262,-7.966132],[-78.7797139,-7.966102],[-78.7795837,-7.9660667],[-78.7794071,-7.9660066],[-78.7793554,-7.9659996],[-78.7792894,-7.9660137],[-78.7791895,-7.9660596],[-78.7791022,-7.9660949],[-78.7789755,-7.9661179],[-78.7788418,-7.9661232],[-78.778667,-7.9661038],[-78.7783192,-7.9660631],[-78.7781338,-7.9660472],[-78.7779929,-7.9660155],[-78.7779073,-7.9659925],[-78.7778538,-7.9660049],[-78.7778199,-7.9660384],[-78.7777735,-7.9661285],[-78.7777218,-7.966215],[-78.7776683,-7.9662486],[-78.7776077,-7.9662574],[-78.7775131,-7.9662345],[-78.7773633,-7.9661726],[-78.7772367,-7.966132],[-78.7771262,-7.9661073],[-78.7770441,-7.9660932],[-78.7769478,-7.9660525],[-78.7768051,-7.9659695],[-78.7766642,-7.9658848],[-78.7765376,-7.9657841],[-78.7764181,-7.965671],[-78.7763343,-7.9655739],[-78.7763022,-7.9654856],[-78.7762666,-7.9653708],[-78.7762345,-7.9652701],[-78.7761667,-7.9651023],[-78.7760811,-7.9649487],[-78.7760229,-7.9648292],[-78.7759765,-7.9647676],[-78.7759411,-7.9647337],[-78.7758581,-7.9646842],[-78.7758007,-7.964637],[-78.7757666,-7.9645693],[-78.7757385,-7.9644641],[-78.7757104,-7.9643807],[-78.7756872,-7.9643371],[-78.7756445,-7.9643117],[-78.7755981,-7.9643021],[-78.7755419,-7.9643021],[-78.7754626,-7.9643226],[-78.7753698,-7.9643504],[-78.7752513,-7.9643674],[-78.7751378,-7.9643734],[-78.775078,-7.9643662],[-78.7750267,-7.9643444],[-78.7749876,-7.9642912],[-78.7749791,-7.9642465],[-78.774984,-7.9641993],[-78.7750169,-7.9641582],[-78.775078,-7.9641292],[-78.7751512,-7.9641014],[-78.7752208,-7.9640506],[-78.7752758,-7.9639889],[-78.775299,-7.9639393],[-78.7752867,-7.9638801],[-78.7752355,-7.9638257],[-78.7751854,-7.9637846],[-78.7751354,-7.9637386],[-78.7750853,-7.9636818],[-78.7750548,-7.9636117],[-78.775023,-7.9635174],[-78.7749913,-7.9633868],[-78.7749058,-7.9631087],[-78.7748387,-7.9628511],[-78.7747837,-7.9626117],[-78.7747093,-7.9622804],[-78.7746702,-7.9620991],[-78.774636,-7.962006],[-78.7745969,-7.9619443],[-78.7745591,-7.9619129],[-78.7745139,-7.9618971],[-78.7744687,-7.9619056],[-78.7744285,-7.9619286],[-78.7744138,-7.9619685],[-78.7744065,-7.9620326],[-78.7744089,-7.9621631],[-78.7744028,-7.9622877],[-78.7743894,-7.9624267],[-78.7743576,-7.9625222],[-78.7743113,-7.9626129],[-78.7742478,-7.9627181],[-78.7742014,-7.9627677],[-78.7741489,-7.9627943],[-78.7740854,-7.9627979],[-78.7740195,-7.962752],[-78.7739865,-7.9627],[-78.7739792,-7.9626456],[-78.7739779,-7.962515],[-78.7739657,-7.9624195],[-78.7739242,-7.9623131],[-78.773873,-7.962226],[-78.7738156,-7.9621535],[-78.7737301,-7.9620628],[-78.7736117,-7.9619552],[-78.7734652,-7.9618246],[-78.7733394,-7.9617037],[-78.7732869,-7.961642],[-78.7732527,-7.9615852],[-78.773232,-7.961515],[-78.7732234,-7.9614473],[-78.7732234,-7.9613458],[-78.7732198,-7.9612321],[-78.7732015,-7.9611354],[-78.7731795,-7.9610592],[-78.7731429,-7.9609891],[-78.7730757,-7.9609044],[-78.7729744,-7.9607823],[-78.7728828,-7.9606723],[-78.7728474,-7.9606324],[-78.7727949,-7.9605804],[-78.7727082,-7.9605211],[-78.772624,-7.9604692],[-78.7725593,-7.9604123],[-78.7725092,-7.9603543],[-78.7724335,-7.960214],[-78.7723297,-7.9600206],[-78.7722528,-7.9598718],[-78.7722138,-7.9597751],[-78.772171,-7.9596965],[-78.772077,-7.9595599],[-78.7719708,-7.9594124],[-78.771933,-7.9593713],[-78.7718927,-7.9593289],[-78.7718487,-7.9592782],[-78.7717951,-7.9591976],[-78.7717803,-7.9591754],[-78.7717197,-7.9590638],[-78.7716721,-7.9589949],[-78.7716208,-7.9589126],[-78.7715818,-7.958828],[-78.7715512,-7.9586877],[-78.7715367,-7.9586169],[-78.7715056,-7.9585331],[-78.7714763,-7.9584373],[-78.7714279,-7.9583005],[-78.7714072,-7.9581825],[-78.7713778,-7.9581073],[-78.7713174,-7.958015],[-78.7712432,-7.9579106],[-78.7711931,-7.9578371],[-78.7711413,-7.9577396],[-78.7710861,-7.9575909],[-78.7710343,-7.9574558],[-78.7710032,-7.9573156],[-78.7709721,-7.9571822],[-78.7709099,-7.9569821],[-78.7708305,-7.956765],[-78.7707753,-7.9566094],[-78.7707252,-7.9564435],[-78.7706751,-7.9563323],[-78.7705991,-7.9561853],[-78.7705232,-7.956028],[-78.7704541,-7.9559322],[-78.7703557,-7.9558279],[-78.7702538,-7.9557304],[-78.7701019,-7.9555885],[-78.7699948,-7.9554808],[-78.7698826,-7.9553508],[-78.769741,-7.9551918],[-78.7695528,-7.9549695],[-78.7693767,-7.9547694],[-78.7692317,-7.9546189],[-78.7691592,-7.9545539],[-78.7690452,-7.9544514],[-78.7689382,-7.9543522],[-78.7688277,-7.9542462],[-78.7687603,-7.9541641],[-78.7686464,-7.954005],[-78.7685324,-7.9538614],[-78.7684651,-7.9537639],[-78.7683874,-7.9536186],[-78.7683408,-7.9535502],[-78.7682665,-7.9534801],[-78.7681336,-7.9533775],[-78.7679954,-7.9532578],[-78.7678763,-7.9531415],[-78.7677433,-7.9530047],[-78.7676328,-7.9528782],[-78.7675327,-7.9527396],[-78.7674671,-7.9526336],[-78.7673635,-7.9524643],[-78.7672996,-7.9523463],[-78.7672271,-7.9522472],[-78.7671459,-7.952148],[-78.7670648,-7.9520659],[-78.7670078,-7.9520146],[-78.7668697,-7.951924],[-78.7667367,-7.9518316],[-78.7666435,-7.9517649],[-78.7665261,-7.9516623],[-78.7664886,-7.9516302],[-78.7664363,-7.9515854],[-78.7663699,-7.9515163],[-78.7663344,-7.9514794],[-78.7662239,-7.9513716],[-78.7661134,-7.9512639],[-78.7660478,-7.9512126],[-78.7659615,-7.9511716],[-78.765813,-7.9511203],[-78.765706,-7.9510929],[-78.7656127,-7.9510724],[-78.7655091,-7.951069],[-78.7654349,-7.9510656],[-78.7653641,-7.9510519],[-78.7653106,-7.9510228],[-78.7652588,-7.9509766],[-78.7652277,-7.9509305],[-78.7651914,-7.9508467],[-78.7651344,-7.9506825],[-78.7651034,-7.950544],[-78.7650792,-7.9503987],[-78.7650637,-7.9502653],[-78.7650291,-7.9501695],[-78.7649652,-7.9500806],[-78.7648945,-7.9499968],[-78.7647978,-7.9499096],[-78.7647373,-7.94986],[-78.7646907,-7.9498053],[-78.7646579,-7.9497471],[-78.7646216,-7.949677],[-78.7645681,-7.9495984],[-78.7645042,-7.9495283],[-78.7644576,-7.949441],[-78.7644317,-7.9493641],[-78.7643799,-7.9492478],[-78.7643506,-7.9491623],[-78.764335,-7.9490392],[-78.7643109,-7.9489366],[-78.7642452,-7.9487707],[-78.7641814,-7.9486237],[-78.7641123,-7.9484663],[-78.7640709,-7.9483723],[-78.7640242,-7.9482457],[-78.7639638,-7.9481089],[-78.7638913,-7.9479739],[-78.7638412,-7.9478627],[-78.7638084,-7.9477772],[-78.7637739,-7.9476883],[-78.7637532,-7.9475857],[-78.7637221,-7.9474403],[-78.7636893,-7.9473052],[-78.7636444,-7.9472043],[-78.7635719,-7.9470693],[-78.7634959,-7.9469615],[-78.7634372,-7.9468829],[-78.763394,-7.9468145],[-78.7633664,-7.9467324],[-78.7633595,-7.94664],[-78.7633543,-7.946493],[-78.7633474,-7.9463613],[-78.7633301,-7.946139],[-78.7633163,-7.9458996],[-78.7633025,-7.9457491],[-78.7632746,-7.94567],[-78.7632229,-7.9455813],[-78.7631686,-7.9455151],[-78.7631232,-7.9454751],[-78.7630514,-7.9454364],[-78.7629227,-7.9453715],[-78.7627802,-7.9452953],[-78.7626541,-7.9452303],[-78.7624927,-7.9451192],[-78.7623515,-7.9450093],[-78.762272,-7.9449418],[-78.7622153,-7.9448631],[-78.7621535,-7.9447807],[-78.76204,-7.9446721],[-78.7617537,-7.9443898],[-78.7616238,-7.9442749],[-78.7614902,-7.9441487],[-78.7614019,-7.9440676],[-78.761354,-7.9440363],[-78.7613048,-7.9440176],[-78.7612291,-7.9440101],[-78.7611459,-7.9440101],[-78.7610677,-7.9440338],[-78.7610122,-7.9440451],[-78.7609479,-7.9440326],[-78.7608975,-7.9440126],[-78.7608432,-7.9439876],[-78.7607966,-7.9439527],[-78.7607436,-7.9439002],[-78.7606768,-7.943834],[-78.7606301,-7.9437978],[-78.7605772,-7.9437753],[-78.7605292,-7.9437641],[-78.7604637,-7.9437728],[-78.760354,-7.9437815],[-78.7602922,-7.9437803],[-78.760243,-7.9437653],[-78.7601976,-7.9437453],[-78.7601244,-7.9437029],[-78.7600059,-7.9436154],[-78.7598798,-7.9435168],[-78.7597852,-7.9434356],[-78.759736,-7.9433819],[-78.759673,-7.9432857],[-78.7596125,-7.9432158],[-78.7595393,-7.9431496],[-78.7594611,-7.9430784],[-78.7593829,-7.9430022],[-78.7593199,-7.942941],[-78.7592619,-7.9428536],[-78.7592039,-7.9427412],[-78.7591648,-7.9426662],[-78.759132,-7.9426163],[-78.7590853,-7.9425651],[-78.7590172,-7.9425051],[-78.7589403,-7.9424102],[-78.758881,-7.9423178],[-78.7588344,-7.9422466],[-78.7587966,-7.9421954],[-78.7587474,-7.9421642],[-78.7587184,-7.9421554],[-78.7586591,-7.9421654],[-78.758567,-7.9421991],[-78.7584485,-7.9422353],[-78.7583855,-7.9422491],[-78.7582795,-7.9422703],[-78.7581547,-7.9422878],[-78.75791,-7.9423178],[-78.7576717,-7.9423353],[-78.757591,-7.9423378],[-78.7575292,-7.9423303],[-78.7574586,-7.9423103],[-78.7573047,-7.9422741],[-78.7571799,-7.9422491],[-78.757074,-7.9422179],[-78.7569756,-7.9421816],[-78.756905,-7.9421404],[-78.756823,-7.9420867],[-78.7567461,-7.9420155],[-78.7566944,-7.9419481],[-78.7566591,-7.9418919],[-78.7566275,-7.9418607],[-78.7565771,-7.9418369],[-78.7565304,-7.9418332],[-78.7564775,-7.9418507],[-78.7563905,-7.9418944],[-78.7563425,-7.9419131],[-78.7563135,-7.9419156],[-78.7562719,-7.9419056],[-78.7562164,-7.9418594],[-78.7561269,-7.941777],[-78.7560449,-7.941692],[-78.7559806,-7.9416046],[-78.7559226,-7.9415347],[-78.7558457,-7.9414747],[-78.755765,-7.9414248],[-78.7556717,-7.9413923],[-78.7555746,-7.9413673],[-78.7554749,-7.9413636],[-78.7553753,-7.9413898],[-78.7552997,-7.941421],[-78.7551962,-7.9414647],[-78.7551534,-7.9414785],[-78.755113,-7.941481],[-78.7550727,-7.9414622],[-78.7550348,-7.9414273],[-78.754997,-7.9413673],[-78.7549188,-7.9412387],[-78.7548797,-7.9411912],[-78.7548406,-7.94116],[-78.7547965,-7.9411425],[-78.7546943,-7.9411438],[-78.7546212,-7.94113],[-78.7544938,-7.9411025],[-78.7543362,-7.9410688],[-78.7542732,-7.9410488],[-78.7542076,-7.9410263],[-78.754118,-7.9410076],[-78.7540285,-7.9409951],[-78.7538583,-7.9409801],[-78.7536868,-7.9409689],[-78.753572,-7.9409564],[-78.753519,-7.9409389],[-78.7534863,-7.9409039],[-78.7534749,-7.9408627],[-78.7534825,-7.9408228],[-78.7535279,-7.9407816],[-78.7536149,-7.9407291],[-78.7537813,-7.9406617],[-78.7540071,-7.9405717],[-78.7541496,-7.9404968],[-78.7542517,-7.9404368],[-78.7543211,-7.9403719],[-78.7543627,-7.9403219],[-78.7543816,-7.9402732],[-78.7543854,-7.9402295],[-78.7543665,-7.940187],[-78.7543211,-7.9401558],[-78.7542631,-7.9401209],[-78.7542177,-7.9400859],[-78.7541849,-7.9400422],[-78.754137,-7.9399335],[-78.7540941,-7.9398024],[-78.7540651,-7.9397224],[-78.7540285,-7.939665],[-78.7539755,-7.9396175],[-78.7538873,-7.9395576],[-78.7538242,-7.9395114],[-78.7537637,-7.9394377],[-78.7536981,-7.9393427],[-78.7536426,-7.9392765],[-78.7535846,-7.9392178],[-78.75349,-7.9391479],[-78.7534068,-7.9390942],[-78.7533122,-7.9390218],[-78.7532139,-7.9389568],[-78.753118,-7.9389069],[-78.7530512,-7.9388544],[-78.7530058,-7.9387932],[-78.752944,-7.938697],[-78.7529024,-7.9386633],[-78.7528242,-7.9386158],[-78.7527599,-7.9385834],[-78.7527145,-7.9385472],[-78.7526552,-7.9384885],[-78.7525808,-7.9384248],[-78.7525039,-7.9383823],[-78.7524043,-7.9383398],[-78.7523551,-7.9383074],[-78.752311,-7.9382424],[-78.7522529,-7.938155],[-78.7521836,-7.9380725],[-78.7521155,-7.9379801],[-78.7520512,-7.9379077],[-78.7519831,-7.9378527],[-78.7519087,-7.9378178],[-78.7518116,-7.9377853],[-78.7517233,-7.9377528],[-78.7515997,-7.9377004],[-78.7514888,-7.9376591],[-78.7513853,-7.9376192],[-78.7512807,-7.9375592],[-78.7511773,-7.937518],[-78.7510852,-7.9375005],[-78.7510171,-7.9375005],[-78.7509616,-7.9375118],[-78.7509225,-7.9375505],[-78.7509162,-7.9376229],[-78.7509339,-7.9377428],[-78.7509717,-7.9378914],[-78.7509831,-7.9379601],[-78.750978,-7.9380101],[-78.7509503,-7.9380463],[-78.7508973,-7.9380725],[-78.7508027,-7.9381025],[-78.7507145,-7.938145],[-78.7506325,-7.9382099],[-78.7505568,-7.9382886],[-78.7504824,-7.9383898],[-78.7504181,-7.9384897],[-78.7503538,-7.9385596],[-78.7502643,-7.9386283],[-78.7501483,-7.9387008],[-78.7500776,-7.938722],[-78.7499957,-7.9387208],[-78.749915,-7.9387008],[-78.749833,-7.9386858],[-78.7497624,-7.938687],[-78.7496829,-7.9387058],[-78.7495846,-7.9387507],[-78.7494761,-7.9388157],[-78.7493752,-7.9388631],[-78.749239,-7.9389156],[-78.7491646,-7.9389518],[-78.7490965,-7.9390143],[-78.7490171,-7.9391154],[-78.7489351,-7.9392316],[-78.7488216,-7.9393965],[-78.7487018,-7.9395413],[-78.7484761,-7.9398049],[-78.7483374,-7.939936],[-78.7482302,-7.9400197],[-78.7481293,-7.9400696],[-78.7479389,-7.9401371],[-78.7478115,-7.9401746],[-78.7477346,-7.9402158],[-78.747693,-7.9402545],[-78.7476287,-7.9403457],[-78.7475454,-7.9404368],[-78.7474824,-7.9404968],[-78.7474269,-7.940528],[-78.7473689,-7.940548],[-78.7473071,-7.9405667],[-78.747205,-7.940578],[-78.7470965,-7.9405955],[-78.7469855,-7.9406267],[-78.7469061,-7.9406691],[-78.7468279,-7.9407453],[-78.7467711,-7.940789],[-78.7467144,-7.9408253],[-78.7466791,-7.9408602],[-78.7466463,-7.9409164],[-78.7466123,-7.9409789],[-78.7465807,-7.9410301],[-78.7465442,-7.9410626],[-78.7464798,-7.9410913],[-78.7464206,-7.9411163],[-78.7463563,-7.9411275],[-78.7462882,-7.9411238],[-78.7462188,-7.9411],[-78.7461419,-7.9410438],[-78.7461179,-7.9409976],[-78.7461331,-7.9409389],[-78.7461621,-7.9409039],[-78.7462239,-7.940869],[-78.7462882,-7.9408278],[-78.7463437,-7.9407703],[-78.746408,-7.9406592],[-78.7464723,-7.9404843],[-78.7464862,-7.9404131],[-78.7464849,-7.9403344],[-78.7464559,-7.9402595],[-78.7464054,-7.9401533],[-78.7463689,-7.9400821],[-78.7463386,-7.9399485],[-78.7462983,-7.9397324],[-78.746273,-7.9395638],[-78.7462402,-7.9393965],[-78.7462049,-7.9392191],[-78.7461999,-7.9391367],[-78.7462037,-7.939043],[-78.7462213,-7.9388656],[-78.7462276,-7.938762],[-78.7462213,-7.9386296],[-78.7462049,-7.938476],[-78.7462075,-7.938381],[-78.7462213,-7.9382474],[-78.7462503,-7.9380838],[-78.746297,-7.9378777],[-78.7463525,-7.9376292],[-78.746408,-7.9374018],[-78.7464622,-7.9371858],[-78.7464798,-7.9370884],[-78.746471,-7.9370172],[-78.7464332,-7.9369422],[-78.74636,-7.9368361],[-78.746273,-7.9367386],[-78.7461633,-7.9366537],[-78.7460713,-7.936595],[-78.7459943,-7.9365638],[-78.7459073,-7.936555],[-78.7457837,-7.9365588],[-78.7456047,-7.9365675],[-78.7454357,-7.9365725],[-78.7452718,-7.9365863],[-78.7451204,-7.936615],[-78.7449779,-7.9366462],[-78.7448619,-7.9366862],[-78.7448039,-7.9366912],[-78.7447572,-7.9366687],[-78.7447371,-7.93663],[-78.7447409,-7.9365913],[-78.7447623,-7.9365475],[-78.7448569,-7.9364714],[-78.7449212,-7.9364052],[-78.7449439,-7.9363602],[-78.7449388,-7.936309],[-78.7449199,-7.9362603],[-78.7448682,-7.9362066],[-78.7448039,-7.9361629],[-78.7447421,-7.9361391],[-78.744611,-7.9361191],[-78.7444533,-7.9360829],[-78.7441986,-7.9360205],[-78.7439893,-7.9359668],[-78.7438152,-7.9359306],[-78.7437279,-7.9359058],[-78.7435923,-7.9358475],[-78.7433819,-7.9357451],[-78.7431411,-7.9356409],[-78.7429021,-7.9355367],[-78.7427595,-7.9354625],[-78.7426418,-7.9354007],[-78.7425365,-7.9353653],[-78.7424171,-7.9353318],[-78.7423029,-7.9353229],[-78.7420853,-7.93533],[-78.741882,-7.9353441],[-78.7416662,-7.9353653],[-78.74152,-7.9353795],[-78.7414112,-7.9354183],[-78.7413006,-7.9354519],[-78.7411954,-7.9354625],[-78.7411259,-7.9354589],[-78.7410528,-7.9354483],[-78.7410028,-7.9354166],[-78.7409975,-7.9353547],[-78.7410189,-7.9352523],[-78.7410296,-7.9351392],[-78.7410028,-7.9350492],[-78.7409511,-7.934922],[-78.7408798,-7.9347807],[-78.7408031,-7.9346623],[-78.7407282,-7.9345776],[-78.7406247,-7.934491],[-78.7404821,-7.9343744],[-78.740236,-7.9341996],[-78.7400576,-7.93409],[-78.7399702,-7.9340494],[-78.7398918,-7.9340247],[-78.7398222,-7.9340194],[-78.7397705,-7.9340088],[-78.7396992,-7.9339611],[-78.7395904,-7.9339028],[-78.7394994,-7.9338622],[-78.739437,-7.9338074],[-78.7392997,-7.9336573],[-78.7391998,-7.933569],[-78.7390874,-7.9334966],[-78.7390161,-7.933433],[-78.7389555,-7.9333535],[-78.7388984,-7.9332528],[-78.7388556,-7.9331751],[-78.7387932,-7.9331027],[-78.7387201,-7.9330497],[-78.7386523,-7.9330161],[-78.7385453,-7.9329896],[-78.7384633,-7.932979],[-78.7383509,-7.9329843],[-78.7382546,-7.933002],[-78.7381262,-7.9330567],[-78.7380192,-7.9331044],[-78.7379033,-7.9331468],[-78.7378337,-7.9331592],[-78.7377749,-7.9331468],[-78.7377428,-7.9331009],[-78.7377321,-7.9330285],[-78.7377053,-7.9329225],[-78.7376714,-7.9327989],[-78.7376393,-7.9326328],[-78.737593,-7.9324244],[-78.7375733,-7.932329],[-78.7375359,-7.9322407],[-78.7374646,-7.9321453],[-78.7373379,-7.9320252],[-78.7371685,-7.9318592],[-78.7369973,-7.9317055],[-78.7368671,-7.9316066],[-78.7366923,-7.9315094],[-78.7365675,-7.9314617],[-78.7364284,-7.9314193],[-78.7362786,-7.931407],[-78.7360931,-7.9313946],[-78.7359023,-7.9313946],[-78.7357721,-7.9314088],[-78.7356883,-7.9313929],[-78.7356223,-7.9313416],[-78.7355866,-7.9312657],[-78.7355813,-7.9311579],[-78.7355706,-7.931029],[-78.735542,-7.9309407],[-78.7354707,-7.9308577],[-78.7353673,-7.9307852],[-78.7352835,-7.9307393],[-78.7351943,-7.9307057],[-78.7348875,-7.9305662],[-78.7346503,-7.9304532],[-78.7342955,-7.9302748],[-78.7341813,-7.93022],[-78.7340297,-7.9301282],[-78.733846,-7.9300328],[-78.7337069,-7.9299621],[-78.7336142,-7.9298915],[-78.7335001,-7.9297908],[-78.7334038,-7.9297166],[-78.7332379,-7.9296071],[-78.7330917,-7.9295223],[-78.7329276,-7.9294534],[-78.7327403,-7.9293404],[-78.7326565,-7.9292997],[-78.7325638,-7.9292609],[-78.7324443,-7.929245],[-78.7323087,-7.9292203],[-78.7322196,-7.9292079],[-78.7321019,-7.9292061],[-78.7319574,-7.9291885],[-78.7317951,-7.9291443],[-78.7315169,-7.9290489],[-78.7313493,-7.9289906],[-78.7311816,-7.928927],[-78.7309819,-7.9288617],[-78.7308678,-7.9288105],[-78.7306966,-7.9287151],[-78.7305307,-7.9286338],[-78.730429,-7.9285791],[-78.730331,-7.928549],[-78.7302043,-7.9285367],[-78.730042,-7.928549],[-78.7299315,-7.9285543],[-78.7298352,-7.9285526],[-78.7297531,-7.9285508],[-78.7296854,-7.9285349],[-78.7295694,-7.9284978],[-78.7294196,-7.9284572],[-78.7292163,-7.9284183],[-78.7290772,-7.9283865],[-78.7289096,-7.9283282],[-78.728824,-7.9282894],[-78.7287669,-7.9282417],[-78.7286777,-7.9281428],[-78.7285886,-7.9280686],[-78.7284316,-7.9279679],[-78.7282979,-7.9278831],[-78.7281481,-7.9278089],[-78.7280304,-7.9277665],[-78.7279091,-7.927703],[-78.727811,-7.9276588],[-78.727704,-7.9276252],[-78.7275756,-7.927597],[-78.7274757,-7.9275899],[-78.7274044,-7.9275846],[-78.7273562,-7.9275669],[-78.727301,-7.9275228],[-78.7272421,-7.9274857],[-78.7271369,-7.9274327],[-78.726996,-7.9273797],[-78.7269122,-7.9273426],[-78.7267927,-7.927279],[-78.726675,-7.9272207],[-78.7266019,-7.9271766],[-78.7265038,-7.9271024],[-78.7264128,-7.9270441],[-78.7263254,-7.9270123],[-78.7262559,-7.9270141],[-78.726197,-7.9270547],[-78.7261703,-7.9271024],[-78.7261667,-7.9271836],[-78.7261863,-7.9272773],[-78.7262077,-7.9273991],[-78.7262381,-7.9274963],[-78.7263094,-7.9275811],[-78.7264378,-7.927733],[-78.7265323,-7.9278619],[-78.7265858,-7.9279856],[-78.7266465,-7.9280986],[-78.7267124,-7.9281834],[-78.7267802,-7.9283176],[-78.7268462,-7.9284784],[-78.7269193,-7.9286638],[-78.726971,-7.9287592],[-78.7270334,-7.9288546]],"nodes":[5483054133,11037871837,5483054137,11037824754,1098590989,1098602712,5476546740,1098592673,2481283985,5534116249,4633930964,10726871715,11037824752,10726871716,11037824751,1098597685,4633930962,316489821,1098606892,11040217058,1098617860,1098627884,1098639136,1098584065,1098628533,1051000213,1098583871,1051000272,5483337198,5475283795,1098586441,1051000142,1098585235,1098614136,5483089272,1088227221,1098613677,1098623852,5483082837,1098646389,4452550920,4452550923,1050964114,5098743745,12433894696,1050964095,1050964119,5481008187,11030836048,5432184395,5079396737,5079385439,5079385438,5089717642,5098830431,1098627633,1098625211,5089580865,5098830432,13204853024,8168008952,5098830433,11030636668,5089580866,5089580867,5089580868,5089580869,5089580885,11030259916,5089580870,5089580863,5089580871,5089580861,5456051640,5456051641,5456051642,5456051643,5457488567,5456051644,5456051645,5482905644,1098597551,5087152251,1098627268,1145579811,1145579843,5087298904,5087298903,5087298902,334656140,5432245209,5482905632,11032885362,5482905638,334656141,334656144,5482905631,5482905637,334656145,5482905630,5482905636,334656147,5482905629,334656148,334656149,1098606452,10735963177,11032885361,334656152,9472286037,334656155,11032445416,5481081511,11032445412,334656157,11032445414,334656158,334656159,334656161,334656162,334656163,334656164,5481081512,334656166,334656167,5481081513,11030882424,5481081514,5481081515,334656168,334656170,334656171,5481081516,11030882420,334656174,11030882421,334655247,5481081518,334655246,5481081517,334655244,334655243,5481081519,334655241,334655239,5481081520,5481083721,334655237,2604535790,334656845,334656844,2604535786,2604535865,11032782362,334656842,2604535845,2604535843,334656843,334656841,334656840,10733327386,4896324727,334656839,11032782363,11032782364,334656838,334656837,11032782366,11032782365,11032782367,334656835,11032782368,334656834,11032782369,334656833,10733327390,10733327389,11032782372,10733327391,334656830,288407576,4706100642,334650492,4706100643,334650493,334658870,10038019324,334650494,334650495,334650496,4706100644,334650497,334650498,334650499,334650903,334650500,13024311279,13024311278,6617865687,4896326821,4896326822,334650501,334650502,8084785668,334650503,334650504,8275013361,334650505,8084785667,334650506,1195996295,6617869786,334650507,11750726866,334650508,334650509,334650510,334650511,334650512,334650513,8660499265,334650514,8629917819,3728277003,334650515,334650516,8084785666,8084785665,334650517,5676153767,334650519,8084785663,8084785664,334650520,334650521,8084785662,8084785661,334650522,334650523,8084785660,334650524,334650525,334650526,334650527,3728276964,1305016248,1305016280,10017487200,1305016370,5642401998,3728276949,1305016390,1305016259,1305016366,1305016277,1305016283,1305016317,1305016228,1305016212,1305016321,1305016316,1305016392,10017482639,1305016320,1305016355,1305016309,1305016324,6203282138,1305016350,1305016222,1305016284,1305016184,1305016237,1305016348,1305016215,1305016326,1305016245,10017503691,1305016180,1305016266,1305016357,6203282148,1305016352,1305016319,1305016346,1305016361,9410477148,9410446591,1305016314,9410446566,1305016394,1305016281,1305016286,8084785659,1305016359,6203282165,1305016279,1305016269,1305016363,9410455602,1305016379,1305016306,1305016318,13529313532,1305016312,1305016303,8084785658,8101108965,8084785657,8101162729,1305016373,8101162716,8101162718,8101162681,1305016376,4323059231,8084785656,8101162720,8101162662,1305016187,1305016247,6203282635,1305016232,1305016399,1305016397,6203282627,2849762575,1305016353,1305016272,1305016275,1305016174,1305016263,1305016351,1305016207,1305016189,13529313640,1305016285,1305016322,1305016401,1305016243,11895806292,1305016225,1305016246,1305016219,1305016240,1305016282,1305016210,13529313592,2849762560,1305016301,1297443050,1297451420,1297451337,1297451422,1297451340,1297451289,1297451424,13529313974,1297451427,1297451353,1297451403,1297451254,1297451408,1297451431,2849760777,1297451407,2849762504,8200657474,13517506095,1297451381,1297451439,1297451272,1297451274,1297451324,1297451325,1297451440,13518376233,1297451277,1297451384,13518376234,13518376229,1297451279,13518376235,13518376236,1297451326,1297451387,13517209254,1297451444,13517180496,1297451396,1297451398,1297451423,13517180380,1297451352,1297451402,13517180382,13517180383,13517180381,1297451406,13517180491,13517180427,13517180487,13517180351,1297451436,1297451371,1297451338,1297451291,1297451401,1297451425,1297451296,1297451351,1297451428,1297451252,1297451354,1297447261,1297451405,1297451429,1297451307,1297451357,2961166251,1297447266,2961166217,13409539804,1297447245,1297447267,13409539813,1297447241,1297447244,1297447239,1297447259,1297447269,1297447249,2961166213,2961166204,2961166193,2961166187,2961166182,2961166173,2961166164,2961166155,2961166148,2961166146,2961166138,2961149322,2961149317,2961149313,2961149312,2961149319,2961149321,2961149325,2961149330,2961149324,2961149327,2961149326,2961149331,2961166133,2961166136,2961166140,2961166145,2961166149,2961166159,2961166165,2961166174,2961166180,2961166186,2961166194,2961166206,2961166223,2961166229,2961166238,2961166240,2961166239,2961166241,2961166245,2961166248,2961166252,2961166256,2961166257,2961166253,2961166246,2961166230,2961166221,2961166216,2961166214,2961166212,2961166211,2961166218,2961166222,2961166226,2961166232,2961166236,2961166235,2961166227,2961166225,2961166224,2961166228,2961166234,2961166242,2961166247,2961166250,2961166244,2961166233,2961166219,2961166209,2961166200,2961166196,2961166198,2961166202,2961166199,2961166197,2961166201,2961166203,2961166208,2961166210,2961166207,2961166195,2961166189,2961166184,2961166178,2961166176,2961166168,2961166162,2961166161,2961166158,2961166157,2961166156,2961166160,2961166166,2961166175,2961166181,2961166185,2961166190,2961166192,2961166191,2961166188,2961166183,2961166179,2961166177,2961166172,2961166171,2961166170,2961166169,2961166167,2961166163,2961166150,2961166141,2961149315,2961149309,2961149306,2961149297,2961149295,2961149291,2961149288,2961149286,2961149285,2961149284,2968904939,2968904935,2968904928,2968904925,2968904923,2968904920,2968904918,2968904919,2968904921,2968904924,2968904927,2968904930,2968904937,2968904938,2968904936,2968904934,2968904932,2968904933,2968904931,2968904929,2968904926,2968904922,2968904917,2968904916,2968904915,2968904914,2968904913,2968904912,2968904911,2968904910,2968904909,2968904907,2968904908,2968904906,2968904905,2968904904,2968904903,2968904902,2968904901,2968904900,2968904899,2968904898,2968904897,2968904896,2968904895,2968904894,2968904893,2968904892,2968904891,2968904888,2968904884,2968904885,2968904886,2968904889,2968904890,2968904887,2968904883,2968904882,2968904881,2968904880,2968904879,2968904878,2968904872,2968904870,2968904868,2968904869,2968904874,2968904876,2968904877,2968904875,2968904873,2968904871,2968904867,2968904866,2968904865,2968904864,2968904863,2968904862,2968904861,2968904860,2968904859,2968904858,2968904857,2968904856,2968904855,2968904854,2968904853,2968904852,2968904851,2968904850,2968904849,2968904848,2968904847,2968904846,2968904845,2968904844,2968904843,2968904842,2968904841,2968904840,2968904839,2968904838,2968904837,2968904836,2968904835,2968904834,2968904833,2968904232,2968904231,2968904230,2968904229,2968904228,2968904227,2968904226,2968904225,2968904224,2968904223,2968904222,2968904221,2968904220,2968904219,2968904218,13529768586,2968904215,2968904213,2968904212,2968904211,2968904210,2968904209,2968904204,2968904199,2968904200,2968904201,2968904205,2968904202,2968904198,2968904196,2968904195,2968904194,2968904187,2968904184,2968904176,2968904174,2968904177,2968904182,2968904186,2968904190,2968904191,2968904188,2968904183,2968904180,2968904178,2968904173,2968904175,2968904179,2968904192,2968904203,2968904207,2968904208,2968904206,2968904197,2968904193,2968904189,2968904185,2968904181,2968904172,2968904171,2968904170,2968904169,2968904168,2968904167,2968904166,2968904165,2968904164,2968904163,2968956606,2968956605,2968956604,2968956603,2968956602,2968956601,2968956600,2968956599,2968956593,2968956591,2968956590,2968956589,2968956592,2968956595,2968956597,2968956598,2968956596,2968956594,2968956588,2968956587,2968956586,2968956585,2968956584,2968956583,2968956582,2968956581,2968956580,2968956579,2968956578,2968956577,2968956576,2968956575,2968956574,2968956573,2968956572,2968956571,2968956570,2968956561,2968956554,2968956550,2968956547,2968956544,2968956542,2968956540,2968956541,2968956543,2968956546,2968956548,2968956552,2968956555,2968956558,2968956560,2968956562,2968956565,2968956567,2968956568,2968956569,2968956566,2968956564,2968956563,2968956559,2968956557,2968956556,2968956553,2968956551,2968956549,2968956545,2968956539,2968956538,2968956537,2968956536,2968956535,2968956534,2968956533,2968956332,2968956331,2968956330,2968956329,2968956328,2968956327,2968956326,2968956325,2968956324,2968956323,2968956322,2968956321,2968956320,2968956319,2968956318,2968956317,2968956316,2968956315,2968956314,2968956313,2968956312,2968956311,2968956310,13532638960,2968956309,2968956308,2968956307,2968956306,2968956305,2968956304,2968956303,2968956302,2968956301,2968956300,2968956299,2968956298,2968956297,2968956296,2968956295,2968956294,2968956293,2968956292,2968956291,2968956290,2968956289,2968956288,2968956287,2968956286,2968956285,2968956284,2968956283,2968956282,2968956281,2968956280,2968956279,2968956278,2968956277,2968956276,2968956275,2968956274,2968956273,2968956272,2968956271,2968956270,2968956269,2968956268,2968956267,2968956266,2968956265,2968956264,2968956263,2968956262,2968956261,2968956260,2968956259,2968956258,2968956257,2968956256,2968956255,2968956254,2968956253,2968956252,2968956251,2968956250,2968956249,2968956248,2968956247,2968956246,2968956245,9225760705,2968956244,9225760706,2968956243,2968956242,2968956241,2968956240,2968956239,2968956238,2968956237,2968956236,2968956235,2968956234,2968956233,2968954832,2968954831,2968954830,2968954829,2968954828,2968954827,2968954826,2968954825,2968954824,2968954823,2968954822,2968954821,2968954820,2968954819,2968954818,2968954817,2968954816,2968954815,2968954814,2968954813,2968954812,2968954811,2968954810,2968954809,2968954808,2968954807,2968954806,2968954805,2968954804,2968954803,2968954802,2968954801,2968954800,2968954799,2968954798,2968954797,2968954796,2968954795,2968954794,2968954793,2968954792,2968954791,2968954790,2968954789,2968954788,2968954787,2968954786,2968954785,2968954784,2969135080,2969135079,2969135078,2969135077,2969135076,2969135075,2969135074,2969135073,2969135072,2969135071,2969135070,2969135069,2969135068,2969135067,2969135066,2969135065,2969135064,2969135063,2969135061,2969135058,2969135056,2969135055,2969135060,2969135062,2969135059,2969135057,2969135054,2969135053,2969135052,2969135051,2969135050,2969135047,2969135044,2969135046,2969135049,2969135048,2969135045,2969135043,2969135042,2969135041,2969135040,2969135039,2969135038,2969135037,2969135036,2969135035,2969135034,2969135033,2969135032,2969135031,2969135030,2969135029,2969135028,2969135027,2969135026,2969135025,2969135021,2969135013,2969135009,2969135006,2969135005,2969135007,2969135010,2969135012,2969135015,2969135016,2969135018,2969135020,2969135023,2969135024,2969135022,2969135019,2969135017,2969135014,2969135011,2969135008,2969135004,2969135003,2969135002,2969135001,2969134996,2969134995,2969134992,2969134991,2969134993,2969134997,2969134999,2969135000,2969134998,2969134994,2969134990,2969134989,2969134988,2969134987,2969134984,2969134980,2969134978,2969134976,2969134974,2969134977,2969134979,2969134983,2969134985,2969134986,2969134982,2969134981,2969134975,2969134973,2969134972,2969134971,2969134969,2969134970,2969134968,2969134964,2969134961,2969134959,2969134956,2969134955,2969134953,2969134952,2969134950,2969134949,2969134948,2969134945,2969134942,2969134938,2969134936,2969134933,2969134931,2969134926,2969134922,2969134919,2969134916,2969134913,2969134912,2969134909,2969134907,2969134905,2969134902,2969134901,2969134898,2969134894,2969134892,2969134890,2969134889,2969134888,2969134886,2969134884,2969134883,2969134880,2969134879,2969134876,2969134875,2969134872,2969134870,2969134868,2969134865,2969134862,2969134860,2969134852,2969134849,2969134846,2969134845,2969134843,2969134841,2969134839,2969134837,2969134835,2969134834,2969134731,2969134729,2969134725,2969134721,2969134719,2969134716,2969134715,2969134714,2969134713,2969134711,2969134710,2969134707,2969134706,2969134704,2969134702,2969134701,2969134703,2969134705,2969134708,2969134712,2969134718,2969134720,2969134722,2969134723,2969134724,2969134727,2969134728,2969134730,2969134833,2969134838,2969134842,2969134844,2969134847,2969134854,2969134857,2969134856,2969134853,2969134850,2969134851,2969134855,2969134858,2969134861,2969134863,2969134866,2969134867,2969134869,2969134873,2969134878,2969134882,2969134885,2969134893,2969134895,2969134897,2969134899,2969134903,2969134906,2969134908,2969134910,2969134915,2969134918,2969134921,2969134923,2969134924,2969134925,2969134927,2969134928,2969134929,2969134932,2969134934,2969134937,2969134939,2969134941,2969134946,2969134951,2969134957,2969134960,2969134962,2969134965,2969134967,2969134966,2969134963,2969134958,2969134954,2969134947,2969134944,2969134943,2969134940,2969134935,2969134930,2969134920,2969134917,2969134914,2969134911,2969134904,2969134900,2969134896,2969134891,2969134887,2969134881,2969134877,2969134874,2969134871,2969134864,2969134859,2969134848,2969134840,2969134836,2969134732,2969134726,2969134717,2969134709,2969134700,2969134699,2969134698,2969134697,2969134696,2969134695,2969134694,2969134690,2969134686,2969134681,2969134679,2969134680,2969134682,2969134683,2969134684,2969134687,2969134689,2969134692,2969134693,2969134691,2969134688,2969134685,2969134678,2969134677,2969134676,2969134675,2969134674,2969134673,2969134672,2969134671,2969134670,2969134669,2969134668,2969134667,2969134666,2969134665,2969134664,2969134663,2969134662,2969134661,2969134660,2969134659,2969134652,2969134650,2969134646,2969134644,2969134645,2969134647,2969134649,2969134651,2969134654,2969134656,2969134658,2969134657,2969134655,2969134653,2969134648,2969134643,2969134642,2969134641,2969134640,2969134639,2969134638,2969134637,2969134636,2969134635,2969134634,2969134633,2969134632,2969134631,2969134630,2969134629,2969134628,2969134627,2969134626,2969134625,2969134624,2969134623,2969134622,2969134621,2969134620,2969134619,2969134618,2969134613,2969134610,2969134608,2969134606,2969134604,2969134605,2969134607,2969134611,2969134614,2969134616,2969134617,2969134615,2969134612,2969134609,2969134603,2969134602,2969134601,2969134600,2969134599,2969134598,2969134597,2969134596,2969134595,2969134594,2969134593,2969134592,2969134591,2969134590,2969134588,2969134587,2969134586,2969134589,2969134585,2969134584,2969134583,2969134582,2969134581,2969134580,2969134579,2969134578,2969134577,2969134576,2969134575,2969134574,2969134573,2969134572,2969134571,2969134567,2969134564,2969134559,2969134555,2969134552,2969134549,2969134542,2969134539,2969134535,2969134533,2969134531,2969134530,2969134527,2969134526,2969134525,2969134523,2969134520,2969134514,2969134511,2969134509,2969134506,2969134504,2969134488,2969134478,2969134475,2969134470,2969134468,2969134469,2969134473,2969134472,2969134471,2969134467,2969134464,2969134461,2969134456,2969134453,2969134445,2969134438,2969134431,2969134420,2969134415,2969134406,2969134401,2969134396,2969134390,2969134387,2969134385,2969134384,2969134383,2969134382,2969134380,2969134378,2969134377,2969134374,2969134373,2969134370,2969134369,2969134367,2969134365,2969134362,2969134361,2969134357,2969134355,2969134356,2969134358,2969134360,2969134363,2969134366,2969134371,2969134375,2969134379,2969134388,2969134400,2969134409,2969134418,2969134426,2969134444,2969134462,2969134482,2969134496,2969134505]},"gtfs":{"agency_id":32,"route_id":71,"services":[{"service_id":"Mo-Su","startTime":"04:15","endTime":"22:00","trip_id":19972479}],"filteredStops":{"nodes":[5483054133,13546545875,13546545873,13546546066,13546546034,13546545874,13546545902,13546545901,13546545900,13546545891,13546535086,13546535084,13546545433,13546545434,13546546212,13546545367,13546546157,13546546160,13546546153,13546545369,13546546150,2969134505],"coordinates":[[-79.0181548,-8.1011206],[-79.0183961,-8.1012946],[-79.0196912,-8.1026522],[-79.0225037,-8.1058026],[-79.0197008,-8.1033285],[-79.0183817,-8.1015623],[-79.017311,-8.1023748],[-79.0155783,-8.1009813],[-79.0117809,-8.0971849],[-79.0091316,-8.09427],[-79.0071829,-8.0912889],[-79.0050238,-8.0880252],[-79.0013315,-8.0871914],[-78.9981133,-8.0881309],[-78.9941117,-8.0891372],[-78.9910364,-8.0869308],[-78.9889824,-8.0849172],[-78.981161,-8.0881891],[-78.9784444,-8.0889783],[-78.9750568,-8.0903817],[-78.9681419,-8.0924901],[-78.7270334,-7.9288546]]},"forcedEndpointStops":[{"stop_id":5483054133,"stop_name":"Avenida Prolongación Santa","position":"first"},{"stop_id":2969134505,"stop_name":"Sin nombre","position":"last"}]}},{"type":"Feature","properties":{"bus":"yes","highway":"bus_stop","network":"Transporte Público Urbano Trujillo","public_transport":"platform","ref":"SAN-269","source":"Gerencia de Transporte Metropolitano de Trujillo","id":13546545875},"geometry":{"type":"Point","coordinates":[-79.0183961,-8.1012946]}},{"type":"Feature","properties":{"bus":"yes","highway":"bus_stop","network":"Transporte Público Urbano Trujillo","public_transport":"platform","ref":"SAN-271","source":"Gerencia de Transporte Metropolitano de Trujillo","id":13546545873},"geometry":{"type":"Point","coordinates":[-79.0196912,-8.1026522]}},{"type":"Feature","properties":{"bus":"yes","highway":"bus_stop","network":"Transporte Público Urbano Trujillo","public_transport":"platform","ref":"AMA-462","source":"Gerencia de Transporte Metropolitano de Trujillo","id":13546546066},"geometry":{"type":"Point","coordinates":[-79.0225037,-8.1058026]}},{"type":"Feature","properties":{"bus":"yes","highway":"bus_stop","network":"Transporte Público Urbano Trujillo","public_transport":"platform","ref":"CAR-532","source":"Gerencia de Transporte Metropolitano de Trujillo","id":13546546034},"geometry":{"type":"Point","coordinates":[-79.0197008,-8.1033285]}},{"type":"Feature","properties":{"bus":"yes","highway":"bus_stop","network":"Transporte Público Urbano Trujillo","public_transport":"platform","ref":"SAN-270","source":"Gerencia de Transporte Metropolitano de Trujillo","id":13546545874},"geometry":{"type":"Point","coordinates":[-79.0183817,-8.1015623]}},{"type":"Feature","properties":{"bus":"yes","highway":"bus_stop","network":"Transporte Público Urbano Trujillo","public_transport":"platform","ref":"PE-242","source":"Gerencia de Transporte Metropolitano de Trujillo","id":13546545902},"geometry":{"type":"Point","coordinates":[-79.017311,-8.1023748]}},{"type":"Feature","properties":{"bus":"yes","highway":"bus_stop","network":"Transporte Público Urbano Trujillo","public_transport":"platform","ref":"PE-243","source":"Gerencia de Transporte Metropolitano de Trujillo","id":13546545901},"geometry":{"type":"Point","coordinates":[-79.0155783,-8.1009813]}},{"type":"Feature","properties":{"bus":"yes","highway":"bus_stop","network":"Transporte Público Urbano Trujillo","public_transport":"platform","ref":"PE-247","source":"Gerencia de Transporte Metropolitano de Trujillo","id":13546545900},"geometry":{"type":"Point","coordinates":[-79.0117809,-8.0971849]}},{"type":"Feature","properties":{"bus":"yes","highway":"bus_stop","network":"Transporte Público Urbano Trujillo","public_transport":"platform","ref":"PLUN-291","source":"Gerencia de Transporte Metropolitano de Trujillo","id":13546545891},"geometry":{"type":"Point","coordinates":[-79.0091316,-8.09427]}},{"type":"Feature","properties":{"bus":"yes","highway":"bus_stop","network":"Transporte Público Urbano Trujillo","public_transport":"platform","ref":"PLUN-292","source":"Gerencia de Transporte Metropolitano de Trujillo","id":13546535086},"geometry":{"type":"Point","coordinates":[-79.0071829,-8.0912889]}},{"type":"Feature","properties":{"bus":"yes","highway":"bus_stop","network":"Transporte Público Urbano Trujillo","public_transport":"platform","ref":"PLUN-295","source":"Gerencia de Transporte Metropolitano de Trujillo","id":13546535084},"geometry":{"type":"Point","coordinates":[-79.0050238,-8.0880252]}},{"type":"Feature","properties":{"bus":"yes","highway":"bus_stop","network":"Transporte Público Urbano Trujillo","public_transport":"platform","ref":"PP-44","source":"Gerencia de Transporte Metropolitano de Trujillo","id":13546545433},"geometry":{"type":"Point","coordinates":[-79.0013315,-8.0871914]}},{"type":"Feature","properties":{"bus":"yes","highway":"bus_stop","network":"Transporte Público Urbano Trujillo","public_transport":"platform","ref":"PP-43","source":"Gerencia de Transporte Metropolitano de Trujillo","id":13546545434},"geometry":{"type":"Point","coordinates":[-78.9981133,-8.0881309]}},{"type":"Feature","properties":{"bus":"yes","highway":"bus_stop","network":"Transporte Público Urbano Trujillo","public_transport":"platform","ref":"PP-42","source":"Gerencia de Transporte Metropolitano de Trujillo","id":13546546212},"geometry":{"type":"Point","coordinates":[-78.9941117,-8.0891372]}},{"type":"Feature","properties":{"bus":"yes","highway":"bus_stop","network":"Transporte Público Urbano Trujillo","public_transport":"platform","ref":"PL-55","source":"Gerencia de Transporte Metropolitano de Trujillo","id":13546545367},"geometry":{"type":"Point","coordinates":[-78.9910364,-8.0869308]}},{"type":"Feature","properties":{"bus":"yes","highway":"bus_stop","network":"Transporte Público Urbano Trujillo","public_transport":"platform","ref":"PL-57","source":"Gerencia de Transporte Metropolitano de Trujillo","id":13546546157},"geometry":{"type":"Point","coordinates":[-78.9889824,-8.0849172]}},{"type":"Feature","properties":{"bus":"yes","highway":"bus_stop","network":"Transporte Público Urbano Trujillo","public_transport":"platform","ref":"PL-51","source":"Gerencia de Transporte Metropolitano de Trujillo","id":13546546160},"geometry":{"type":"Point","coordinates":[-78.981161,-8.0881891]}},{"type":"Feature","properties":{"bus":"yes","highway":"bus_stop","network":"Transporte Público Urbano Trujillo","public_transport":"platform","ref":"PL-60","source":"Gerencia de Transporte Metropolitano de Trujillo","id":13546546153},"geometry":{"type":"Point","coordinates":[-78.9784444,-8.0889783]}},{"type":"Feature","properties":{"bus":"yes","highway":"bus_stop","network":"Transporte Público Urbano Trujillo","public_transport":"platform","ref":"PL-48","source":"Gerencia de Transporte Metropolitano de Trujillo","id":13546545369},"geometry":{"type":"Point","coordinates":[-78.9750568,-8.0903817]}},{"type":"Feature","properties":{"bus":"yes","highway":"bus_stop","network":"Transporte Público Urbano Trujillo","public_transport":"platform","ref":"PL-63","source":"Gerencia de Transporte Metropolitano de Trujillo","id":13546546150},"geometry":{"type":"Point","coordinates":[-78.9681419,-8.0924901]}}]}