{"type":"FeatureCollection","features":[{"type":"Feature","properties":{"check_date":"2025-12-17","colour":"#000099","colour:text":"#FFFFFF","fee":"yes","from":"Avenida José María Eguren","hash":"15049","interval":"4","name":"Avenida José María Eguren → Avenida Circunvalación","network":"Transporte Público Urbano Trujillo","opening_hours":"Mo-Su 05:00-23:00","operator":"CABALLITO DE TOTORA S.A.","public_transport:version":"2","ref":"C-27 B","route":"bus","survey:avg_speed:kmh":"20","to":"Avenida Circunvalación","type":"route","id":19972154},"geometry":{"type":"LineString","coordinates":[[-79.008786,-8.1200654],[-79.0080741,-8.1205963],[-79.0078653,-8.1207467],[-79.0073397,-8.1211207],[-79.0063606,-8.1218508],[-79.0062899,-8.1217428],[-79.0060498,-8.1214006],[-79.005728,-8.1209705],[-79.0056529,-8.1208696],[-79.0054463,-8.1205908],[-79.0054028,-8.1205321],[-79.0051728,-8.1202217],[-79.0050505,-8.1200575],[-79.0048563,-8.1197968],[-79.0047946,-8.1197145],[-79.0046968,-8.1195822],[-79.0041817,-8.1189157],[-79.0040954,-8.1187999],[-79.0040637,-8.1187545],[-79.0038881,-8.1185036],[-79.003778,-8.1183558],[-79.0034771,-8.1179584],[-79.0031813,-8.117553],[-79.0029068,-8.1171836],[-79.0021769,-8.1161999],[-78.9998373,-8.1130537],[-78.9995504,-8.1126677],[-78.9994414,-8.1125352],[-78.9992496,-8.1124985],[-78.998968,-8.1124122],[-78.9988165,-8.1123339],[-78.9982302,-8.1119954],[-78.9980185,-8.1118732],[-78.9973091,-8.1114271],[-78.9970643,-8.1113965],[-78.996731,-8.1113739],[-78.9965607,-8.1113315],[-78.9963958,-8.1112465],[-78.9961275,-8.111196],[-78.9957306,-8.1110726],[-78.9955428,-8.1110221],[-78.9953591,-8.1110141],[-78.9947945,-8.111058],[-78.9945827,-8.1110739],[-78.9945805,-8.1109186],[-78.9945719,-8.1102586],[-78.9945827,-8.1095596],[-78.9945985,-8.1094776],[-78.9944686,-8.1094456],[-78.9944211,-8.1094404],[-78.9939786,-8.1094265],[-78.9939657,-8.1104127],[-78.9933066,-8.1103896],[-78.9926615,-8.1103649],[-78.9920049,-8.1103626],[-78.9913532,-8.1103721],[-78.9913637,-8.109348],[-78.9920075,-8.1093842],[-78.9926749,-8.1093809],[-78.9933209,-8.1094068],[-78.9939786,-8.1094265],[-78.9944211,-8.1094404],[-78.9944686,-8.1094456],[-78.9946535,-8.1094089],[-78.9951217,-8.1094037],[-78.9953068,-8.1093798],[-78.9954945,-8.1093213],[-78.9956975,-8.1092166],[-78.9958084,-8.1091594],[-78.996222,-8.1088501],[-78.9973453,-8.1080309],[-78.9975487,-8.1078826],[-78.9975768,-8.1078621],[-78.9978506,-8.1076624],[-78.9987947,-8.1069739],[-78.9991476,-8.1067119],[-78.9996466,-8.1063526],[-78.9997063,-8.106425],[-79.0004379,-8.1074254],[-79.0006766,-8.1076086],[-79.0008643,-8.1076684],[-79.0013418,-8.1077414],[-79.0023874,-8.1079173],[-79.0026738,-8.1079653],[-79.0033955,-8.1080864],[-79.0035001,-8.1081024],[-79.0032588,-8.1096764],[-79.0030948,-8.1107237],[-79.0030061,-8.111282],[-79.0029418,-8.111678],[-79.0029244,-8.1117859],[-79.0031572,-8.1118231],[-79.0031848,-8.1118274],[-79.0039179,-8.1119443],[-79.0048566,-8.1120876],[-79.0058069,-8.1122367],[-79.0064012,-8.1123326],[-79.0068839,-8.1124116],[-79.0075735,-8.1125162],[-79.0083564,-8.1126349],[-79.008422,-8.1126454],[-79.0088231,-8.1127093],[-79.0090296,-8.1127438],[-79.0100488,-8.1129039],[-79.0104937,-8.1129622],[-79.0113947,-8.1131002],[-79.0122188,-8.1132376],[-79.0123796,-8.1132438],[-79.012525,-8.113224],[-79.0126907,-8.1131738],[-79.0129,-8.1130864],[-79.0133225,-8.1128753],[-79.0139228,-8.1125846],[-79.01403,-8.1125377],[-79.0145815,-8.1122777],[-79.0154053,-8.1118631],[-79.0158607,-8.1115596],[-79.0159234,-8.1115071],[-79.0163712,-8.1111327],[-79.0170069,-8.1105877],[-79.0170644,-8.1105384],[-79.0170825,-8.1105233],[-79.0174444,-8.1102211],[-79.0168949,-8.1095934],[-79.0164607,-8.1090763],[-79.0160606,-8.1086321],[-79.016002,-8.1085671],[-79.0158452,-8.1083849],[-79.0156031,-8.1081061],[-79.0153791,-8.1078466],[-79.0149207,-8.1073163],[-79.014991,-8.1072547],[-79.0165295,-8.105907],[-79.0170378,-8.1054604],[-79.0179339,-8.1046767],[-79.0187525,-8.103969],[-79.0188132,-8.1039165],[-79.0196086,-8.1046776],[-79.0200568,-8.1051059],[-79.0204242,-8.1054574],[-79.0207707,-8.1057879],[-79.0209818,-8.1059892],[-79.0212123,-8.1061998],[-79.0215926,-8.1065525],[-79.0220077,-8.1069277],[-79.0222647,-8.1071579],[-79.0228995,-8.1066112],[-79.0229807,-8.1065413],[-79.023038,-8.106491],[-79.0237973,-8.105839],[-79.0240616,-8.1056717],[-79.0240992,-8.1056475],[-79.0241745,-8.1056073],[-79.0242072,-8.105593],[-79.0252425,-8.1053654],[-79.02545,-8.1053178],[-79.0255188,-8.1053011],[-79.0256205,-8.1052764],[-79.0256809,-8.1052629],[-79.026261,-8.1051479],[-79.0263051,-8.1051465],[-79.0263581,-8.10516],[-79.026487,-8.1052106],[-79.0277113,-8.1057322],[-79.028062,-8.1053839],[-79.0285503,-8.104899],[-79.0292943,-8.1041622],[-79.0293628,-8.1040936],[-79.0301335,-8.1049403],[-79.0301909,-8.1050034],[-79.030238,-8.1050578],[-79.030281,-8.1050187],[-79.0304753,-8.1048415],[-79.0306623,-8.104671],[-79.0307953,-8.1045497],[-79.0308436,-8.1045056],[-79.0312028,-8.1041752],[-79.0312296,-8.1041511],[-79.0314988,-8.1039083],[-79.0315523,-8.1038595],[-79.0316272,-8.1037886],[-79.0319279,-8.1035136],[-79.0321211,-8.1033763],[-79.03227,-8.1032922],[-79.0329206,-8.1029419],[-79.0330027,-8.1029008],[-79.0330448,-8.1029781],[-79.0334047,-8.1036667],[-79.0336554,-8.1041335],[-79.0338867,-8.1045503],[-79.0340721,-8.1048958],[-79.0341355,-8.1050007],[-79.0341565,-8.1050326],[-79.0342258,-8.1051172],[-79.0343081,-8.1051894],[-79.0343997,-8.1052473],[-79.0344981,-8.1052881],[-79.0346003,-8.1053133],[-79.0347052,-8.1053225],[-79.0348477,-8.1053259],[-79.0350511,-8.1052429],[-79.0353172,-8.1051343],[-79.0354138,-8.1048883],[-79.0355034,-8.1047732],[-79.035663,-8.104694],[-79.0360076,-8.1045136],[-79.0360629,-8.1043815],[-79.036751,-8.1040167],[-79.0381993,-8.1032814],[-79.0393375,-8.1026648],[-79.0394866,-8.102584],[-79.0395826,-8.1025517],[-79.0397793,-8.1024854],[-79.041017,-8.1020679],[-79.0411092,-8.1020367],[-79.0415375,-8.1019169],[-79.0421423,-8.10179],[-79.0421767,-8.1018823],[-79.0425162,-8.1018074],[-79.0428889,-8.1017252],[-79.0432935,-8.1016332],[-79.0434727,-8.1015933],[-79.0437537,-8.1015306],[-79.0439517,-8.101492],[-79.0440854,-8.1014659],[-79.0443467,-8.101415],[-79.0444704,-8.1013911],[-79.0445703,-8.1013691],[-79.04496,-8.1012834],[-79.045238,-8.1012223],[-79.045502,-8.1011642],[-79.0464087,-8.1009649],[-79.0472935,-8.1008592],[-79.0480278,-8.1007778],[-79.0484112,-8.1007686],[-79.0491768,-8.1007611],[-79.0492804,-8.1007601],[-79.0494033,-8.1007601],[-79.0500186,-8.1007343],[-79.0502781,-8.1007234],[-79.0504154,-8.1007199],[-79.0512481,-8.1007282],[-79.0521056,-8.1007598],[-79.0528013,-8.1007855],[-79.0529503,-8.1007923],[-79.0530684,-8.1007977],[-79.054022,-8.1008413],[-79.0547632,-8.1008749],[-79.055481,-8.1009075],[-79.0559667,-8.1009364],[-79.0564725,-8.100959],[-79.0571844,-8.1009974],[-79.0573342,-8.1009986],[-79.0576535,-8.1010035],[-79.0583768,-8.1010024],[-79.0592932,-8.1008303],[-79.0596181,-8.1007693],[-79.0598458,-8.1007211],[-79.0601603,-8.1006547],[-79.0603929,-8.1006055],[-79.0607502,-8.1005266],[-79.0611568,-8.1004368],[-79.0620191,-8.1002344],[-79.0621009,-8.1002184],[-79.0622483,-8.1001867],[-79.0623813,-8.100158],[-79.0624506,-8.100143],[-79.0634002,-8.0999443],[-79.0636157,-8.0998975],[-79.0636899,-8.0998814],[-79.0647799,-8.0996516],[-79.0651525,-8.099573],[-79.0664654,-8.099296],[-79.0669694,-8.0991567],[-79.0672098,-8.0990634],[-79.0673878,-8.0989918],[-79.0676129,-8.0988825],[-79.067834,-8.0987579],[-79.0680802,-8.098603],[-79.0683281,-8.09841],[-79.0688715,-8.0979095],[-79.0692977,-8.0974189],[-79.0694793,-8.0972099],[-79.0698626,-8.0967737],[-79.0712388,-8.0952492],[-79.0716351,-8.0948639],[-79.0719782,-8.0945655],[-79.0724515,-8.0942625],[-79.0727527,-8.0941049],[-79.0731284,-8.0939503],[-79.0735132,-8.0938124],[-79.0746052,-8.0935585],[-79.0758694,-8.0933121],[-79.0772934,-8.0929953],[-79.0776421,-8.0929237],[-79.0788602,-8.0926736],[-79.0807177,-8.0923034],[-79.0812028,-8.0922067],[-79.0814024,-8.092167],[-79.0816506,-8.0921098],[-79.08191,-8.0920388],[-79.0821065,-8.0919778],[-79.0827776,-8.0917474],[-79.082991,-8.0916768],[-79.0835798,-8.0914834],[-79.0842839,-8.0912521],[-79.0852673,-8.0909269],[-79.0861151,-8.0906452],[-79.0865425,-8.0905097],[-79.0871777,-8.090301],[-79.0875523,-8.0901779],[-79.0878168,-8.0900904],[-79.08813,-8.0899868],[-79.0885834,-8.0898369],[-79.0892876,-8.0896041],[-79.0896222,-8.0894934],[-79.0902526,-8.0892836],[-79.0906553,-8.0891518],[-79.0910834,-8.0890103],[-79.0918658,-8.0887559],[-79.092358,-8.0885958],[-79.0923899,-8.0885851],[-79.0927029,-8.0884806],[-79.0928472,-8.0884353],[-79.0928602,-8.0884312],[-79.0935126,-8.088209],[-79.093799,-8.0881171],[-79.0941732,-8.087997],[-79.0950784,-8.0877066],[-79.0951681,-8.0876778],[-79.0952422,-8.0876524],[-79.0953414,-8.0876158],[-79.0954966,-8.0875225],[-79.095628,-8.0874183],[-79.0957887,-8.0872528],[-79.0958711,-8.0871694],[-79.0959795,-8.0870617],[-79.0960119,-8.0870031],[-79.096023,-8.0869829],[-79.0960776,-8.0869176],[-79.0961528,-8.0868549],[-79.096239,-8.0868083],[-79.0963329,-8.0867796],[-79.0964306,-8.0867698],[-79.0965284,-8.0867794],[-79.0966105,-8.0868033],[-79.0967617,-8.086896],[-79.0968636,-8.0869297],[-79.0969652,-8.0869623],[-79.0970251,-8.0869738],[-79.0972037,-8.0869733],[-79.0974072,-8.0869372],[-79.0978544,-8.0867978],[-79.0983753,-8.0866543],[-79.0986175,-8.0866209],[-79.0988537,-8.0866018],[-79.0990906,-8.0865989],[-79.0993271,-8.0866122],[-79.0995622,-8.0866415],[-79.0999103,-8.0867048],[-79.100249,-8.0868071],[-79.1005762,-8.0869408],[-79.1008891,-8.0871049],[-79.1011848,-8.0872978],[-79.1014605,-8.0875177],[-79.1017138,-8.0877626],[-79.1026741,-8.0889547],[-79.1034672,-8.0899388],[-79.1036045,-8.0901126],[-79.1044722,-8.0912116],[-79.104823,-8.091668],[-79.1053844,-8.0923645],[-79.107365,-8.0948219],[-79.1085256,-8.0962264],[-79.108694,-8.096436],[-79.1089787,-8.0966564],[-79.1090144,-8.0966841],[-79.1091777,-8.0968053],[-79.1095597,-8.0970099],[-79.1101191,-8.0972028],[-79.1105381,-8.0973061],[-79.1108067,-8.0973427],[-79.111075,-8.0973598],[-79.1112072,-8.0973597],[-79.1114599,-8.0973374],[-79.111729,-8.0972893],[-79.1121831,-8.0971697],[-79.1126529,-8.0969987],[-79.113067,-8.0967762],[-79.1135478,-8.0964048],[-79.1138614,-8.0960641],[-79.1160973,-8.0933303],[-79.1169837,-8.0922465],[-79.1175864,-8.0915096],[-79.1180057,-8.0910028],[-79.119301,-8.0894022],[-79.119491,-8.0891674],[-79.1205084,-8.0879102],[-79.1216711,-8.0864514],[-79.1220081,-8.0860285],[-79.122177,-8.0858166],[-79.1225937,-8.0852375],[-79.1226556,-8.0851694],[-79.1227408,-8.0850313],[-79.1229386,-8.0846676],[-79.1230301,-8.0844458],[-79.1230971,-8.0842161],[-79.1231205,-8.0841014],[-79.1231373,-8.0840034],[-79.1231744,-8.083777],[-79.1232055,-8.0835294],[-79.1232133,-8.0832725],[-79.1232108,-8.0830394],[-79.1231547,-8.0825415],[-79.123074,-8.08221],[-79.12287,-8.0822707],[-79.1223806,-8.0824079],[-79.1215436,-8.0826303],[-79.121068,-8.0827628],[-79.1206027,-8.0829004],[-79.1199036,-8.0830856],[-79.1193729,-8.0832184],[-79.1193832,-8.082917],[-79.1193329,-8.0827441],[-79.1192239,-8.0822512],[-79.1191076,-8.0817871],[-79.1190534,-8.0814342],[-79.1188312,-8.0807031],[-79.1187051,-8.0803127],[-79.1184315,-8.0796143],[-79.1182894,-8.0791788],[-79.1182009,-8.0789451],[-79.1181284,-8.0787592],[-79.1179856,-8.0783071],[-79.1178864,-8.0780415],[-79.1178691,-8.0779585],[-79.1178628,-8.0778767],[-79.1178585,-8.077806],[-79.1178493,-8.0776777],[-79.1178635,-8.0775138],[-79.1178778,-8.0774476],[-79.1178596,-8.0773431],[-79.1178247,-8.0771785],[-79.1177281,-8.0767934],[-79.1176477,-8.0764747],[-79.1175984,-8.0761687],[-79.1175887,-8.0761083],[-79.1175845,-8.0759882],[-79.1175806,-8.0758746],[-79.1175913,-8.0753142],[-79.1176021,-8.0751151],[-79.1176463,-8.0748216],[-79.1177228,-8.0745069],[-79.1178166,-8.0742148],[-79.1179145,-8.0739161],[-79.1180004,-8.0737116],[-79.1180513,-8.0736067],[-79.1181452,-8.0735403],[-79.118219,-8.0734991],[-79.1184121,-8.0734322],[-79.118616,-8.0733923],[-79.1187286,-8.0733737],[-79.1193472,-8.0733842]],"nodes":[10726925963,1195995725,1195996114,1188182150,11860264535,1188181974,1188181926,1188181943,2465880241,1188181954,9528847022,1188181835,9528847019,1188181893,2465880239,6603459279,6603468094,288407583,12081593552,10726925957,2604140252,4924820719,4924821022,9155396560,8449760154,1195995116,288407582,1007782444,5480596581,5480596582,5480596583,9118802812,5480596584,5480596585,5480596580,5480596579,5480596578,5480596577,5480596576,5480596575,5480596574,5480596573,5480596572,5480596571,5676451760,5676451761,11319862329,11319862330,1098631128,8168056292,5478840946,5478840947,1098595232,1098613670,1098602533,1098624664,5478840949,1098635483,1098625383,1098586738,5478840946,8168056292,1098631128,5478840952,4941298997,4941298996,4941298995,8060129021,4941298994,4941298993,11032990347,11032990344,4941298986,4941298987,11860247675,4941298988,4941298992,5478840935,5478840923,5478840921,5478826720,5478840933,5478826719,9155377650,1015292405,1098645984,1098601990,1098624237,1098613912,11033014738,1007782462,11033014736,5086928472,1098596688,1098587158,1098615960,1098604817,1088227417,11033100541,1007816695,11032994356,1007816691,1098638039,1007816657,1007816660,1098605968,1007782464,1007782466,1007782467,1007782468,1007782470,1088227461,316265115,316265120,2604839548,1026646833,1007782473,11033100543,1098608294,11033100545,1026647173,11033100548,1098602637,11023976594,1098601972,11023313868,1098584430,11023313867,11023313865,5086629395,1088227445,1088227188,1026646973,1026646998,1051000172,1088227346,1088227388,1098647854,1098635414,1098584127,11037521002,11037529610,5478475745,5476546741,1050964088,5582931366,8109317247,1098589553,8109317246,2573525831,316264050,12987860959,1088227426,1088227269,1802823281,9829891081,316488509,1802823277,9829891084,316264052,11016646712,11016646713,316264053,2573525826,1098596857,1412626514,1412626563,1098633361,4633875087,4633874462,2557538233,4633874460,5051774255,5051840800,11016648380,1098618144,1098628342,11037884382,4633875115,1028959880,2591037890,1028959871,2591048788,2591048786,316265161,316265078,316265077,1098605290,1098592541,4633926900,316261409,2587893378,2587893377,3386747951,11037837217,2587893387,2587893388,11033319445,2587893389,3386747952,3386747956,3386747938,5069721981,316491304,11033077923,5066923727,5066923726,5066923725,5066923724,11037614257,5066923723,11037614263,11037614264,11037999553,5066923722,5066923721,5066918120,316491308,13540672114,5067077725,5067077726,8100941599,5067077727,8100941596,8100941594,1088227191,2979702863,11028289495,5089760766,11028445005,11028430503,316491309,5090218493,316491310,5090218495,11079442230,3391447001,316491311,13271666475,3392598287,1098609171,11028445007,11037527767,5489001130,11028445010,13181175555,1098592168,11028445012,1098648528,5483559216,7120542347,5098153491,316491313,1098625247,316491314,11030909580,8137307097,11030909569,11030909571,8137307115,11030909573,11030909584,1098591574,10722433730,5089312776,11030860562,316491315,2795345923,11030860563,5089312820,10859499338,4567025855,316491316,5089313431,5089313430,316491317,5089313427,5089313426,5089313425,316491318,316491319,10722411290,316491320,5089692657,1142679919,11030860571,316491321,11030860573,316491322,11030860569,316491323,5089692666,4567025841,3128354993,5089692668,5089692670,5676154268,316491325,5089692675,5089692676,5089692677,316491326,3128355026,3128355025,3128355020,3128355024,5079582195,5079514188,5041338331,5079514190,316490954,5079514193,10722325940,5079582211,3128355192,3128355211,8137271247,5079514204,5079514206,8137261248,1142679906,12756430527,5079514207,5676450286,1142679946,1142680009,10803965457,10803965450,13406753779,2430926039,1098625605,316265974,13442772520,5079514208,316265975,8374705114,316265976,11870132242,3728391021,3728391019,316265744,3728391017,316265735,11870132241,316265736,3728391016,3728391018,316265825,13172500622,5079514210,316265824,316267060,316266954,288407858,12987952211,12987952210,7172752107,316266957,316266958,7172752108,1098594778,316266959,1098584863,316266960,7172752109,316266961,9225788194,1098614754,8449778864,1098588407,316266962,11022987820,316266964,1098624970,316266965,12840922261,1098614358,316266966,316266967,316266968,316266969,9138744279,1098615320,316266971,9138744281,316266972,316266973,316266974,316266975,316266977,316266978,8050625920,10722249356,1142679840,1142679952,11023027750,11023034575,316266979,11028582833,11023042540,316266981,316266984,8218727280,6203518667,316266820,9261031477,5459808681,1098606720,316265602,9261031481,316266821,9261031479,316266823,316265603,1091407127,2961842956,5459808842,5459808832,1091407269,1098599782,1098599202,1091407047,10722280980,1091407250,1098610984,1811987889,1091407122,1098598572,1098603280,1091407113,1098614226,1813344270,1091406993,1098620233,1483788224,12987945698,1091407167,5635774445,1091407137,1091407108,5635774443,1091407143,1091407116,1091407077,1091407034,5471256061,1098585366,11023382043,1091407272,1098608706,1091407247,1091407219,1091407174,1098614894,1091407256,1091407227,1091407196,1091407165,1091407051,1091407020,1091407002,1098648034,1091407281]},"gtfs":{"agency_id":29,"route_id":63,"services":[{"service_id":"Mo-Su","startTime":"05:00","endTime":"23:00","trip_id":19972154}],"filteredStops":{"nodes":[10726925963,13546545998,13546546009,13546545200,13546545186,13546545185,13546545336,13546546132,13546545352,13546546181,13546545176,13546545177,13546535056,13546545168,13546545885,13546545883,13546535066,13546546020,13546535077,13546535099,13546545905,4937067022,11895957225,13546545269,13546545932,13546546055,13546545934,13546545936,13546545501,13546545500,13546545499,13546545497,13546546263,13546546262,13546545517,13546546260,13546545502,13546546247,13546546239,1091407281],"coordinates":[[-79.008786,-8.1200654],[-79.0084667,-8.1203865],[-79.0079055,-8.1208708],[-79.0071771,-8.1213862],[-79.0026396,-8.1169044],[-79.0007192,-8.114326],[-78.9984161,-8.1121228],[-78.9960625,-8.1112312],[-78.9915819,-8.1092964],[-78.9948451,-8.1093621],[-78.9971167,-8.1081747],[-78.9994738,-8.1064536],[-79.0017552,-8.1077729],[-79.0034356,-8.1089675],[-79.0031875,-8.1118196],[-79.0082494,-8.1125886],[-79.0160862,-8.1113059],[-79.0154954,-8.1080185],[-79.0176218,-8.1049147],[-79.0193401,-8.1042749],[-79.0213554,-8.1062447],[-79.0240072,-8.1056158],[-79.0276442,-8.1056576],[-79.0291152,-8.1043057],[-79.0312459,-8.104043],[-79.0333794,-8.1034995],[-79.0488069,-8.1007275],[-79.0510692,-8.1007105],[-79.0649709,-8.099563],[-79.0846485,-8.0910791],[-79.0885843,-8.0897285],[-79.0944031,-8.0878973],[-79.1001045,-8.0867295],[-79.1105261,-8.0972975],[-79.1189116,-8.0898534],[-79.1230144,-8.0838447],[-79.1185439,-8.0799599],[-79.1176492,-8.0766021],[-79.1183684,-8.0734127],[-79.1193472,-8.0733842]]},"forcedEndpointStops":[{"stop_id":10726925963,"stop_name":"Avenida José María Eguren","position":"first"},{"stop_id":1091407281,"stop_name":"Avenida Circunvalación y Avenida Victor Larco Herrera","position":"last"}]}},{"type":"Feature","properties":{"bus":"yes","highway":"bus_stop","network":"Transporte Público Urbano Trujillo","public_transport":"platform","ref":"EGR-250","source":"Gerencia de Transporte Metropolitano de Trujillo","id":13546545998},"geometry":{"type":"Point","coordinates":[-79.0084667,-8.1203865]}},{"type":"Feature","properties":{"bus":"yes","highway":"bus_stop","network":"Transporte Público Urbano Trujillo","public_transport":"platform","ref":"CONT-381","source":"Gerencia de Transporte Metropolitano de Trujillo","id":13546546009},"geometry":{"type":"Point","coordinates":[-79.0079055,-8.1208708]}},{"type":"Feature","properties":{"bus":"yes","highway":"bus_stop","network":"Transporte Público Urbano Trujillo","public_transport":"platform","ref":"EGR-248","source":"Gerencia de Transporte Metropolitano de Trujillo","id":13546545200},"geometry":{"type":"Point","coordinates":[-79.0071771,-8.1213862]}},{"type":"Feature","properties":{"bus":"yes","highway":"bus_stop","network":"Transporte Público Urbano Trujillo","public_transport":"platform","ref":"EV-540","source":"Gerencia de Transporte Metropolitano de Trujillo","id":13546545186},"geometry":{"type":"Point","coordinates":[-79.0026396,-8.1169044]}},{"type":"Feature","properties":{"bus":"yes","highway":"bus_stop","network":"Transporte Público Urbano Trujillo","public_transport":"platform","ref":"EV-541","source":"Gerencia de Transporte Metropolitano de Trujillo","id":13546545185},"geometry":{"type":"Point","coordinates":[-79.0007192,-8.114326]}},{"type":"Feature","properties":{"bus":"yes","highway":"bus_stop","network":"Transporte Público Urbano Trujillo","public_transport":"platform","ref":"PM-126","source":"Gerencia de Transporte Metropolitano de Trujillo","id":13546545336},"geometry":{"type":"Point","coordinates":[-78.9984161,-8.1121228]}},{"type":"Feature","properties":{"bus":"yes","highway":"bus_stop","network":"Transporte Público Urbano Trujillo","public_transport":"platform","ref":"PL-96","source":"Gerencia de Transporte Metropolitano de Trujillo","id":13546546132},"geometry":{"type":"Point","coordinates":[-78.9960625,-8.1112312]}},{"type":"Feature","properties":{"bus":"yes","highway":"bus_stop","network":"Transporte Público Urbano Trujillo","public_transport":"platform","ref":"PL-99","source":"Gerencia de Transporte Metropolitano de Trujillo","id":13546545352},"geometry":{"type":"Point","coordinates":[-78.9915819,-8.1092964]}},{"type":"Feature","properties":{"bus":"yes","highway":"bus_stop","network":"Transporte Público Urbano Trujillo","public_transport":"platform","ref":"PL-102","source":"Gerencia de Transporte Metropolitano de Trujillo","id":13546546181},"geometry":{"type":"Point","coordinates":[-78.9948451,-8.1093621]}},{"type":"Feature","properties":{"bus":"yes","highway":"bus_stop","network":"Transporte Público Urbano Trujillo","public_transport":"platform","ref":"FEVI-230","source":"Gerencia de Transporte Metropolitano de Trujillo","id":13546545176},"geometry":{"type":"Point","coordinates":[-78.9971167,-8.1081747]}},{"type":"Feature","properties":{"bus":"yes","highway":"bus_stop","network":"Transporte Público Urbano Trujillo","public_transport":"platform","ref":"FEVI-229","source":"Gerencia de Transporte Metropolitano de Trujillo","id":13546545177},"geometry":{"type":"Point","coordinates":[-78.9994738,-8.1064536]}},{"type":"Feature","properties":{"bus":"yes","highway":"bus_stop","network":"Transporte Público Urbano Trujillo","public_transport":"platform","ref":"SB-530","source":"Gerencia de Transporte Metropolitano de Trujillo","id":13546535056},"geometry":{"type":"Point","coordinates":[-79.0017552,-8.1077729]}},{"type":"Feature","properties":{"bus":"yes","highway":"bus_stop","network":"Transporte Público Urbano Trujillo","public_transport":"platform","ref":"HOND-318","source":"Gerencia de Transporte Metropolitano de Trujillo","id":13546545168},"geometry":{"type":"Point","coordinates":[-79.0034356,-8.1089675]}},{"type":"Feature","properties":{"bus":"yes","highway":"bus_stop","network":"Transporte Público Urbano Trujillo","public_transport":"platform","ref":"RIP-320","source":"Gerencia de Transporte Metropolitano de Trujillo","id":13546545885},"geometry":{"type":"Point","coordinates":[-79.0031875,-8.1118196]}},{"type":"Feature","properties":{"bus":"yes","highway":"bus_stop","network":"Transporte Público Urbano Trujillo","public_transport":"platform","ref":"RIP-324","source":"Gerencia de Transporte Metropolitano de Trujillo","id":13546545883},"geometry":{"type":"Point","coordinates":[-79.0082494,-8.1125886]}},{"type":"Feature","properties":{"bus":"yes","highway":"bus_stop","network":"Transporte Público Urbano Trujillo","public_transport":"platform","ref":"RIP-330","source":"Gerencia de Transporte Metropolitano de Trujillo","id":13546535066},"geometry":{"type":"Point","coordinates":[-79.0160862,-8.1113059]}},{"type":"Feature","properties":{"bus":"yes","highway":"bus_stop","network":"Transporte Público Urbano Trujillo","public_transport":"platform","ref":"CEV-177","source":"Gerencia de Transporte Metropolitano de Trujillo","id":13546546020},"geometry":{"type":"Point","coordinates":[-79.0154954,-8.1080185]}},{"type":"Feature","properties":{"bus":"yes","highway":"bus_stop","network":"Transporte Público Urbano Trujillo","public_transport":"platform","ref":"PUN-521","source":"Gerencia de Transporte Metropolitano de Trujillo","id":13546535077},"geometry":{"type":"Point","coordinates":[-79.0176218,-8.1049147]}},{"type":"Feature","properties":{"bus":"yes","highway":"bus_stop","network":"Transporte Público Urbano Trujillo","public_transport":"platform","ref":"PE-240","source":"Gerencia de Transporte Metropolitano de Trujillo","id":13546535099},"geometry":{"type":"Point","coordinates":[-79.0193401,-8.1042749]}},{"type":"Feature","properties":{"bus":"yes","highway":"bus_stop","network":"Transporte Público Urbano Trujillo","public_transport":"platform","ref":"PE-238","source":"Gerencia de Transporte Metropolitano de Trujillo","id":13546545905},"geometry":{"type":"Point","coordinates":[-79.0213554,-8.1062447]}},{"type":"Feature","properties":{"advertising":"yes","bench":"yes","bicycle_parking":"no","bin":"no","bus":"yes","departures_board":"no","highway":"bus_stop","level":"0","lit":"yes","name":"Avenida Del Ejército","name:de":"Bus B nach Chan Chan und Huanchaco","name:en":"Bus B to Chan Chan and Huanchaco","network":"Transporte Público Urbano Trujillo","passenger_information_display:speech_output":"no","pole":"yes","public_transport":"platform","ramp":"no","ref":"ESP-12","shelter":"yes","source:ref":"Gerencia de Transporte Metropolitano de Trujillo","tactile_paving":"no","tactile_writing:braille:es":"no","id":4937067022},"geometry":{"type":"Point","coordinates":[-79.0240072,-8.1056158]}},{"type":"Feature","properties":{"advertising":"no","bench":"no","bicycle_parking":"no","bin":"no","bus":"yes","departures_board":"no","highway":"bus_stop","level":"0","lit":"no","name":"Calle Agricultura","network":"Transporte Público Urbano Trujillo","passenger_information_display:speech_output":"no","pole":"yes","public_transport":"platform","ramp":"no","ref":"ESP-14","shelter":"no","source:ref":"Gerencia de Transporte Metropolitano de Trujillo","tactile_paving":"no","tactile_writing:braille:es":"no","id":11895957225},"geometry":{"type":"Point","coordinates":[-79.0276442,-8.1056576]}},{"type":"Feature","properties":{"bus":"yes","highway":"bus_stop","network":"Transporte Público Urbano Trujillo","public_transport":"platform","ref":"AGR-523","source":"Gerencia de Transporte Metropolitano de Trujillo","id":13546545269},"geometry":{"type":"Point","coordinates":[-79.0291152,-8.1043057]}},{"type":"Feature","properties":{"bus":"yes","highway":"bus_stop","network":"Transporte Público Urbano Trujillo","public_transport":"platform","ref":"MAVE-355","source":"Gerencia de Transporte Metropolitano de Trujillo","id":13546545932},"geometry":{"type":"Point","coordinates":[-79.0312459,-8.104043]}},{"type":"Feature","properties":{"bus":"yes","highway":"bus_stop","network":"Transporte Público Urbano Trujillo","public_transport":"platform","ref":"AMN-27","source":"Gerencia de Transporte Metropolitano de Trujillo","id":13546546055},"geometry":{"type":"Point","coordinates":[-79.0333794,-8.1034995]}},{"type":"Feature","properties":{"bus":"yes","highway":"bus_stop","network":"Transporte Público Urbano Trujillo","public_transport":"platform","ref":"MANT-114","source":"Gerencia de Transporte Metropolitano de Trujillo","id":13546545934},"geometry":{"type":"Point","coordinates":[-79.0488069,-8.1007275]}},{"type":"Feature","properties":{"bus":"yes","highway":"bus_stop","network":"Transporte Público Urbano Trujillo","public_transport":"platform","ref":"MANT-110","source":"Gerencia de Transporte Metropolitano de Trujillo","id":13546545936},"geometry":{"type":"Point","coordinates":[-79.0510692,-8.1007105]}},{"type":"Feature","properties":{"bus":"yes","highway":"bus_stop","network":"Transporte Público Urbano Trujillo","public_transport":"platform","ref":"PH-66","source":"Gerencia de Transporte Metropolitano de Trujillo","id":13546545501},"geometry":{"type":"Point","coordinates":[-79.0649709,-8.099563]}},{"type":"Feature","properties":{"bus":"yes","highway":"bus_stop","network":"Transporte Público Urbano Trujillo","public_transport":"platform","ref":"PH-70","source":"Gerencia de Transporte Metropolitano de Trujillo","id":13546545500},"geometry":{"type":"Point","coordinates":[-79.0846485,-8.0910791]}},{"type":"Feature","properties":{"bus":"yes","highway":"bus_stop","network":"Transporte Público Urbano Trujillo","public_transport":"platform","ref":"PH-71","source":"Gerencia de Transporte Metropolitano de Trujillo","id":13546545499},"geometry":{"type":"Point","coordinates":[-79.0885843,-8.0897285]}},{"type":"Feature","properties":{"bus":"yes","highway":"bus_stop","network":"Transporte Público Urbano Trujillo","public_transport":"platform","ref":"PH-82","source":"Gerencia de Transporte Metropolitano de Trujillo","id":13546545497},"geometry":{"type":"Point","coordinates":[-79.0944031,-8.0878973]}},{"type":"Feature","properties":{"bus":"yes","highway":"bus_stop","network":"Transporte Público Urbano Trujillo","public_transport":"platform","ref":"PH-25","source":"Gerencia de Transporte Metropolitano de Trujillo","id":13546546263},"geometry":{"type":"Point","coordinates":[-79.1001045,-8.0867295]}},{"type":"Feature","properties":{"bus":"yes","highway":"bus_stop","network":"Transporte Público Urbano Trujillo","public_transport":"platform","ref":"PH-27","source":"Gerencia de Transporte Metropolitano de Trujillo","id":13546546262},"geometry":{"type":"Point","coordinates":[-79.1105261,-8.0972975]}},{"type":"Feature","properties":{"bus":"yes","highway":"bus_stop","network":"Transporte Público Urbano Trujillo","public_transport":"platform","ref":"PH-29","source":"Gerencia de Transporte Metropolitano de Trujillo","id":13546545517},"geometry":{"type":"Point","coordinates":[-79.1189116,-8.0898534]}},{"type":"Feature","properties":{"bus":"yes","highway":"bus_stop","network":"Transporte Público Urbano Trujillo","public_transport":"platform","ref":"PH-31","source":"Gerencia de Transporte Metropolitano de Trujillo","id":13546546260},"geometry":{"type":"Point","coordinates":[-79.1230144,-8.0838447]}},{"type":"Feature","properties":{"bus":"yes","highway":"bus_stop","network":"Transporte Público Urbano Trujillo","public_transport":"platform","ref":"PH-6","source":"Gerencia de Transporte Metropolitano de Trujillo","id":13546545502},"geometry":{"type":"Point","coordinates":[-79.1185439,-8.0799599]}},{"type":"Feature","properties":{"bus":"yes","highway":"bus_stop","network":"Transporte Público Urbano Trujillo","public_transport":"platform","ref":"PH-7","source":"Gerencia de Transporte Metropolitano de Trujillo","id":13546546247},"geometry":{"type":"Point","coordinates":[-79.1176492,-8.0766021]}},{"type":"Feature","properties":{"bus":"yes","highway":"bus_stop","network":"Transporte Público Urbano Trujillo","public_transport":"platform","ref":"PH-8","source":"Gerencia de Transporte Metropolitano de Trujillo","id":13546546239},"geometry":{"type":"Point","coordinates":[-79.1183684,-8.0734127]}}]}