{"type":"FeatureCollection","features":[{"type":"Feature","properties":{"check_date":"2025-12-17","colour":"#cc0099","colour:text":"#FFFFFF","fee":"yes","from":"Avenida Larco","hash":"13212","interval":"4","name":"Avenida Larco → Calle 01","network":"Transporte Público Urbano Trujillo","opening_hours":"Mo-Su 05:00-23:00","operator":"SANTA CATALINA S.A.","public_transport:version":"2","ref":"C-24 H1, H2","route":"bus","survey:avg_speed:kmh":"20","to":"Calle 01","type":"route","id":19972158},"geometry":{"type":"LineString","coordinates":[[-78.9499629,-8.0713647],[-78.9502789,-8.0713003],[-78.9505409,-8.0712708],[-78.9508507,-8.0712359],[-78.9514287,-8.0711708],[-78.9507099,-8.070475],[-78.950266,-8.0701471],[-78.9506575,-8.069523],[-78.9508909,-8.0693663],[-78.9518296,-8.0689759],[-78.9529404,-8.0683909],[-78.9531533,-8.0682788],[-78.9533413,-8.0681548],[-78.9536388,-8.0679973],[-78.9536871,-8.0678831],[-78.9536682,-8.0675167],[-78.9538067,-8.0675863],[-78.9542104,-8.0677891],[-78.954623,-8.0679961],[-78.9550161,-8.0681858],[-78.9553741,-8.0683595],[-78.9552977,-8.0685178],[-78.9553548,-8.0685454],[-78.9557578,-8.0687417],[-78.9556828,-8.0688819],[-78.9558117,-8.06932],[-78.9557498,-8.0696233],[-78.9554614,-8.0701199],[-78.9549991,-8.0710354],[-78.9546068,-8.0716134],[-78.9547045,-8.07166],[-78.9547298,-8.071672],[-78.9550249,-8.0718126],[-78.9555686,-8.0719283],[-78.9557088,-8.0719991],[-78.955858,-8.072097],[-78.9561418,-8.0724872],[-78.9563382,-8.072682],[-78.9568204,-8.0728182],[-78.9571506,-8.0729985],[-78.9577016,-8.0734532],[-78.9579293,-8.0737164],[-78.9579273,-8.0737502],[-78.9579041,-8.0741411],[-78.9578921,-8.0743423],[-78.9580959,-8.0748563],[-78.9580238,-8.0752266],[-78.9579739,-8.0753503],[-78.9561564,-8.0767314],[-78.9555807,-8.0771688],[-78.9582062,-8.0815525],[-78.9584513,-8.0819511],[-78.9586566,-8.082285],[-78.9588864,-8.0826587],[-78.9590652,-8.0829496],[-78.9592868,-8.0833318],[-78.9594902,-8.0836828],[-78.9595777,-8.0838336],[-78.9597205,-8.08408],[-78.9597877,-8.0841921],[-78.958963,-8.0846898],[-78.9581477,-8.0851818],[-78.9577084,-8.0854469],[-78.9573506,-8.0856629],[-78.9572678,-8.0857128],[-78.9574233,-8.0859894],[-78.9575064,-8.0861374],[-78.957513,-8.0864327],[-78.9575191,-8.0867045],[-78.9575177,-8.0868267],[-78.9555885,-8.0868471],[-78.9554567,-8.086846],[-78.9551192,-8.0868343],[-78.9546481,-8.0868222],[-78.9546478,-8.0876486],[-78.9546008,-8.0877575],[-78.9550383,-8.0879672],[-78.955286,-8.0881392],[-78.9564993,-8.0890016],[-78.9567319,-8.0891669],[-78.9569849,-8.0893467],[-78.9571337,-8.0894525],[-78.9575497,-8.0897482],[-78.9579005,-8.0900028],[-78.9579293,-8.0900221],[-78.9582954,-8.0902569],[-78.9587089,-8.0905101],[-78.9603326,-8.0915909],[-78.9605336,-8.0916685],[-78.9607246,-8.0916802],[-78.9609045,-8.0916913],[-78.9612557,-8.0916716],[-78.961983,-8.0914846],[-78.9629161,-8.0912376],[-78.9631653,-8.0911898],[-78.9634972,-8.0910312],[-78.9636537,-8.0909481],[-78.9640069,-8.0907652],[-78.9642797,-8.0906483],[-78.9644254,-8.0907177],[-78.9645163,-8.0909122],[-78.9647265,-8.0913619],[-78.9651036,-8.0922162],[-78.9651602,-8.0922968],[-78.965277,-8.092409],[-78.9653932,-8.0924928],[-78.9655637,-8.0925526],[-78.9657336,-8.0925982],[-78.965861,-8.0926122],[-78.9660238,-8.0926157],[-78.9672008,-8.0925616],[-78.9672569,-8.0925549],[-78.9673063,-8.0925421],[-78.9673588,-8.0925217],[-78.9674121,-8.0924962],[-78.9674675,-8.0924598],[-78.9674985,-8.0924245],[-78.9675386,-8.0923999],[-78.9675844,-8.0923883],[-78.9676315,-8.0923907],[-78.9676758,-8.0924069],[-78.9677939,-8.0924207],[-78.9678922,-8.0924207],[-78.968009,-8.0924079],[-78.9681207,-8.0923834],[-78.9733658,-8.0909713],[-78.9735746,-8.0909153],[-78.9737551,-8.0908557],[-78.9738932,-8.0908066],[-78.9745879,-8.090474],[-78.9776695,-8.0889986],[-78.9779314,-8.0888935],[-78.9780977,-8.0888339],[-78.9782357,-8.0887989],[-78.9804159,-8.0883223],[-78.9807132,-8.0882557],[-78.9810565,-8.0881576],[-78.9812028,-8.0880774],[-78.9813785,-8.0879607],[-78.9815497,-8.0878192],[-78.9822626,-8.0872299],[-78.9824671,-8.0870805],[-78.9827219,-8.0869345],[-78.9834863,-8.0866012],[-78.9847676,-8.086089],[-78.9873487,-8.0850291],[-78.9878181,-8.0848485],[-78.9880675,-8.0847689],[-78.9883357,-8.0847197],[-78.9885369,-8.0846998],[-78.9887702,-8.0847091],[-78.9891176,-8.0847782],[-78.9893819,-8.0848486],[-78.9895467,-8.0849216],[-78.9898659,-8.0850928],[-78.9901435,-8.0853186],[-78.9902846,-8.0854864],[-78.9903232,-8.0855323],[-78.9906049,-8.0859758],[-78.9908045,-8.0863009],[-78.9910233,-8.0866636],[-78.9912835,-8.0871097],[-78.9915042,-8.0874784],[-78.9916896,-8.087726],[-78.9918646,-8.0879371],[-78.992106,-8.0882033],[-78.992219,-8.0883116],[-78.9921559,-8.0883684],[-78.9919353,-8.0885875],[-78.9918816,-8.0886659],[-78.9918655,-8.0887296],[-78.9918776,-8.0888186],[-78.9919348,-8.0890365],[-78.9920318,-8.0893085],[-78.9921217,-8.0894785],[-78.9926835,-8.0904172],[-78.9930911,-8.0901786],[-78.9934158,-8.0900281],[-78.9938879,-8.0898701],[-78.9940482,-8.0903775],[-78.9941717,-8.0907694],[-78.9942979,-8.0911681],[-78.9948008,-8.0910088],[-78.995166,-8.0921884],[-78.9955196,-8.0920784],[-78.9958117,-8.0919858],[-78.9959142,-8.0919537],[-78.9961815,-8.0927873],[-78.9963812,-8.0934428],[-78.9967582,-8.0935232],[-78.9972281,-8.0936216],[-78.9975323,-8.0936764],[-78.9978995,-8.0937287],[-78.9981207,-8.0937365],[-78.9989781,-8.0932867],[-78.9993371,-8.0931144],[-78.9994516,-8.0930598],[-78.9999652,-8.0928028],[-79.0001307,-8.0927233],[-79.0008423,-8.0923817],[-79.0013159,-8.09217],[-79.0018886,-8.0919214],[-79.0029976,-8.0913986],[-79.0030759,-8.0913591],[-79.0030695,-8.0912672],[-79.0030904,-8.0911774],[-79.0031369,-8.0910976],[-79.0031832,-8.0910509],[-79.0032384,-8.0910148],[-79.0033,-8.0909909],[-79.0033652,-8.0909803],[-79.0034313,-8.0909834],[-79.0034953,-8.0910001],[-79.0035543,-8.0910296],[-79.0036058,-8.0910707],[-79.0036476,-8.0911216],[-79.0036764,-8.0911769],[-79.0036936,-8.0912369],[-79.0036964,-8.0913275],[-79.0036728,-8.0914151],[-79.0036246,-8.0914923],[-79.0035561,-8.0915525],[-79.003473,-8.0915906],[-79.003501,-8.0916764],[-79.0035577,-8.0918725],[-79.003851,-8.092879],[-79.004028,-8.093377],[-79.0040908,-8.0935535],[-79.0041066,-8.0935979],[-79.0041263,-8.0936545],[-79.0042375,-8.0940319],[-79.0042561,-8.09412],[-79.0043419,-8.0943141],[-79.0045379,-8.0946706],[-79.0047055,-8.0949788],[-79.0049896,-8.0953752],[-79.0054266,-8.0959397],[-79.0056093,-8.0961646],[-79.0058064,-8.0964033],[-79.0058311,-8.0964324],[-79.0063125,-8.0969863],[-79.0064317,-8.0971235],[-79.0066152,-8.0973443],[-79.0068738,-8.0976456],[-79.0071993,-8.0980367],[-79.0075678,-8.0984727],[-79.0076517,-8.098572],[-79.0083944,-8.0994314],[-79.0085442,-8.0996016],[-79.0085839,-8.0996537],[-79.0087484,-8.0998647],[-79.008991,-8.1001416],[-79.0090087,-8.100162],[-79.0093621,-8.1005765],[-79.009639,-8.1009069],[-79.0098723,-8.1011854],[-79.0101736,-8.1015449],[-79.0105971,-8.1020404],[-79.0109292,-8.1024628],[-79.0109417,-8.1024792],[-79.0110017,-8.1025539],[-79.0111039,-8.1026761],[-79.0112152,-8.1028092],[-79.0113601,-8.1029817],[-79.0115535,-8.1032119],[-79.0118411,-8.103533],[-79.0118948,-8.1036013],[-79.0120631,-8.1038034],[-79.0124206,-8.1042061],[-79.0126988,-8.104542],[-79.0129951,-8.104902],[-79.0132728,-8.1052311],[-79.0135652,-8.1055796],[-79.0137636,-8.1058156],[-79.0138448,-8.1059122],[-79.0138809,-8.1059559],[-79.01394,-8.1060244],[-79.0142599,-8.1064042],[-79.0145402,-8.1067307],[-79.0148137,-8.1070485],[-79.014991,-8.1072547],[-79.0154531,-8.1077802],[-79.0156808,-8.1080392],[-79.0159249,-8.1083147],[-79.0161436,-8.1085639],[-79.016527,-8.1090194],[-79.0167482,-8.1092704],[-79.0169713,-8.1095239],[-79.017527,-8.1101528],[-79.0175961,-8.110231],[-79.0181193,-8.1108247],[-79.0184411,-8.1111921],[-79.0184793,-8.111232],[-79.0188562,-8.1116538],[-79.0189475,-8.1117417],[-79.0192891,-8.1121245],[-79.0198924,-8.1128508],[-79.0202343,-8.1132738],[-79.0204853,-8.1135947],[-79.020867,-8.1140536],[-79.0216223,-8.1147748],[-79.022024,-8.1151865],[-79.0224448,-8.115615],[-79.0231409,-8.1163229],[-79.0241907,-8.1173689],[-79.0248674,-8.1179957],[-79.0249217,-8.1181009],[-79.0250373,-8.118209],[-79.025167,-8.1183311],[-79.0253204,-8.1184754],[-79.0253383,-8.1184941],[-79.0256705,-8.118841],[-79.0264393,-8.118158],[-79.0268801,-8.1177663],[-79.0269813,-8.1176761],[-79.0277331,-8.1170082],[-79.0280834,-8.1166989],[-79.0281235,-8.1166446],[-79.0281427,-8.1165955],[-79.0281521,-8.1165508],[-79.0281562,-8.1165123],[-79.02816,-8.1164691],[-79.0281671,-8.116382],[-79.0284496,-8.1164078],[-79.0286734,-8.1164296],[-79.0294592,-8.1164785],[-79.0295444,-8.1164761],[-79.0295863,-8.116469],[-79.0296324,-8.1164554],[-79.0300521,-8.1162717],[-79.030372,-8.1161366],[-79.03074,-8.1159634],[-79.0311823,-8.1157365],[-79.0312323,-8.1156916],[-79.0320139,-8.114641],[-79.0325502,-8.1139414],[-79.0326492,-8.1137822],[-79.0326675,-8.1136908],[-79.0327087,-8.1131413],[-79.0327818,-8.1121138],[-79.0327886,-8.1120193],[-79.0328627,-8.1109906],[-79.0328631,-8.1108787],[-79.0328511,-8.1107776],[-79.0329285,-8.110726],[-79.033009,-8.1106621],[-79.0333188,-8.1104161],[-79.0341395,-8.1097572],[-79.0341543,-8.1097459],[-79.0349028,-8.1091485],[-79.0356337,-8.1085868],[-79.0363954,-8.1081945],[-79.03681,-8.107981],[-79.0364071,-8.1069687],[-79.0360915,-8.1062055],[-79.0360539,-8.1061816],[-79.0360018,-8.1061764],[-79.0359121,-8.1061977],[-79.0357432,-8.1062661],[-79.0350196,-8.1065542],[-79.0348029,-8.1066426],[-79.0346315,-8.1062338],[-79.034577,-8.106088],[-79.0344286,-8.1057476],[-79.034357,-8.1056272],[-79.0341,-8.1051369],[-79.0340465,-8.105045],[-79.033676,-8.1043483],[-79.0335809,-8.1041736],[-79.0334656,-8.1039459],[-79.0333407,-8.1037136],[-79.0329633,-8.1030211],[-79.0329206,-8.1029419],[-79.0326754,-8.1025013],[-79.0324278,-8.1020374],[-79.0321927,-8.1015974],[-79.0317091,-8.1007061],[-79.0314777,-8.1002665],[-79.031425,-8.1001656],[-79.0308665,-8.0991133],[-79.0307106,-8.098829],[-79.0306201,-8.0986784],[-79.0305104,-8.0985187],[-79.0304014,-8.0983933],[-79.030271,-8.0982557],[-79.0300961,-8.0980704],[-79.0298471,-8.0978147],[-79.0296784,-8.0976483],[-79.0295785,-8.097544],[-79.0291714,-8.0971323],[-79.0284389,-8.0963801],[-79.0283912,-8.0963312],[-79.0280193,-8.0959598],[-79.0279495,-8.0958874],[-79.0276496,-8.0955764],[-79.0272346,-8.0951598],[-79.0271742,-8.0950979],[-79.0267646,-8.0946714],[-79.0265733,-8.0944824],[-79.0264045,-8.0943396],[-79.026238,-8.0942225],[-79.0260569,-8.094126],[-79.0258446,-8.0940214],[-79.0257092,-8.0939681],[-79.0256622,-8.0939496],[-79.0254615,-8.0938911],[-79.0253775,-8.0938696],[-79.0252328,-8.0938391],[-79.024988,-8.0938078],[-79.0247998,-8.0938029],[-79.0245151,-8.093819],[-79.0242466,-8.0938619],[-79.023813,-8.0939771],[-79.0237513,-8.0940021],[-79.0237016,-8.0940184],[-79.0236604,-8.0940345],[-79.0235398,-8.09408],[-79.0229058,-8.0943332],[-79.0227625,-8.0943898],[-79.0223813,-8.0945352],[-79.0219235,-8.0947098],[-79.0218324,-8.0947445],[-79.0215922,-8.0948361],[-79.0200364,-8.0954295],[-79.0194035,-8.0956695],[-79.0192985,-8.0957094],[-79.0182224,-8.0961166],[-79.0180192,-8.0962058],[-79.0178722,-8.096317],[-79.0171876,-8.0968985],[-79.0169978,-8.0970621],[-79.0163588,-8.0975939],[-79.0162881,-8.0976544],[-79.0157025,-8.0981272],[-79.0141641,-8.0994701],[-79.0141167,-8.0995142],[-79.0131871,-8.1002921],[-79.013144,-8.100329],[-79.013052,-8.1002262],[-79.012708,-8.0997242],[-79.0125634,-8.099501],[-79.0119773,-8.0986303],[-79.0117573,-8.098278],[-79.0116143,-8.0980528],[-79.0112979,-8.0975713],[-79.0109237,-8.096984],[-79.0108563,-8.0968553],[-79.0105852,-8.0964457],[-79.0103001,-8.0960019],[-79.009882,-8.0953708],[-79.0096905,-8.0950782],[-79.0090676,-8.094126],[-79.0088262,-8.093757],[-79.0087984,-8.0937145],[-79.0086557,-8.0934963],[-79.0081767,-8.0927642],[-79.0078871,-8.0923216],[-79.0075392,-8.0917899],[-79.0069971,-8.0909613],[-79.0063114,-8.0899131],[-79.0062521,-8.0898224],[-79.0057185,-8.0890069],[-79.0052807,-8.0883376],[-79.0052032,-8.0882192],[-79.0047348,-8.0875032],[-79.0046704,-8.0874018],[-79.0045939,-8.0873061],[-79.0044001,-8.0871429],[-79.0041399,-8.08699],[-79.0038554,-8.0868652],[-79.0035261,-8.0867887],[-79.0032608,-8.086761],[-79.0030093,-8.0867775],[-79.0027528,-8.0868069],[-79.0024763,-8.0868654],[-79.0022288,-8.0869234],[-79.002148,-8.086945],[-79.0010137,-8.0872648],[-78.9992784,-8.0877561],[-78.999141,-8.0877949],[-78.9987199,-8.087913],[-78.9975572,-8.0882191],[-78.9964306,-8.0885377],[-78.9952503,-8.0888539],[-78.9949241,-8.088941],[-78.9946667,-8.0890101],[-78.9945615,-8.0890301],[-78.9944136,-8.0890583],[-78.9942587,-8.0890742],[-78.9941045,-8.0890814],[-78.993898,-8.0890828],[-78.9936613,-8.0890575],[-78.9934614,-8.0890151],[-78.9932421,-8.088954],[-78.9930544,-8.0888889],[-78.9929129,-8.0888305],[-78.9927272,-8.0887462],[-78.9925394,-8.088644],[-78.9923235,-8.0885006],[-78.9921559,-8.0883684],[-78.9920491,-8.0882666],[-78.9917218,-8.0879132],[-78.9915142,-8.0876521],[-78.9914374,-8.0875431],[-78.9912272,-8.087208],[-78.9909415,-8.0867042],[-78.9908288,-8.0865056],[-78.9907312,-8.0863416],[-78.9903179,-8.0856704],[-78.9902131,-8.0855303],[-78.9901033,-8.0853836],[-78.989878,-8.0851951],[-78.9896192,-8.0850397],[-78.9892718,-8.084891],[-78.9888735,-8.0847941],[-78.988557,-8.0847689],[-78.9883505,-8.0847821],[-78.9880997,-8.0848339],[-78.9878477,-8.0849274],[-78.9871341,-8.0851924],[-78.9869583,-8.0852643],[-78.9847989,-8.0861594],[-78.9830236,-8.0868767],[-78.9827916,-8.0869816],[-78.9824893,-8.0871639],[-78.9823064,-8.0872874],[-78.9819103,-8.0876108],[-78.9815928,-8.0878759],[-78.9814251,-8.0880159],[-78.981245,-8.0881355],[-78.9811976,-8.088167],[-78.9810607,-8.0882382],[-78.9808711,-8.0882914],[-78.9806968,-8.0883366],[-78.9804044,-8.0884043],[-78.9785899,-8.0887893],[-78.97826,-8.0888571],[-78.9780401,-8.0889261],[-78.977737,-8.0890376],[-78.9772005,-8.0892793],[-78.9753981,-8.0901556],[-78.974246,-8.0907225],[-78.9738896,-8.0908837],[-78.973525,-8.0910029],[-78.9724865,-8.0913003],[-78.968152,-8.092456],[-78.9680298,-8.0924936],[-78.9679362,-8.0925283],[-78.9678327,-8.0925786],[-78.9677227,-8.0926396],[-78.967684,-8.092674],[-78.9676361,-8.092694],[-78.9675868,-8.0926976],[-78.9675388,-8.0926858],[-78.9674968,-8.0926598],[-78.967476,-8.092638],[-78.9674239,-8.0926538],[-78.9673595,-8.092673],[-78.9672884,-8.0926856],[-78.9672091,-8.0926934],[-78.9664219,-8.0927338],[-78.9655807,-8.0927379],[-78.9654699,-8.0927163],[-78.9653707,-8.0926754],[-78.9652717,-8.0926182],[-78.9652047,-8.0925675],[-78.9650876,-8.092422],[-78.9649986,-8.0922795],[-78.9643855,-8.090984],[-78.964285,-8.090764],[-78.9642797,-8.0906483],[-78.9640069,-8.0907652],[-78.9636537,-8.0909481],[-78.9634972,-8.0910312],[-78.9631653,-8.0911898],[-78.9629161,-8.0912376],[-78.961983,-8.0914846],[-78.9612557,-8.0916716],[-78.9609045,-8.0916913],[-78.9607246,-8.0916802],[-78.9605336,-8.0916685],[-78.9603326,-8.0915909],[-78.9602962,-8.0917152],[-78.9593855,-8.0915669],[-78.9587539,-8.0914544],[-78.9587139,-8.0914504],[-78.9581096,-8.0913899],[-78.9577859,-8.0913823],[-78.9570617,-8.0913647],[-78.9570782,-8.0910255],[-78.9566566,-8.0910155],[-78.9566998,-8.0899554],[-78.9567319,-8.0891669],[-78.9564993,-8.0890016],[-78.955286,-8.0881392],[-78.9550383,-8.0879672],[-78.9546008,-8.0877575],[-78.9546478,-8.0876486],[-78.9546481,-8.0868222],[-78.9546477,-8.0867007],[-78.9551125,-8.0867114],[-78.9554602,-8.086716],[-78.9555941,-8.0867169],[-78.9575191,-8.0867045],[-78.957513,-8.0864327],[-78.9575064,-8.0861374],[-78.9574233,-8.0859894],[-78.9572678,-8.0857128],[-78.9572041,-8.0856007],[-78.9572861,-8.085551],[-78.9576401,-8.0853361],[-78.9580818,-8.0850681],[-78.9588994,-8.0845846],[-78.9597205,-8.08408],[-78.9595777,-8.0838336],[-78.9594902,-8.0836828],[-78.9592868,-8.0833318],[-78.9590652,-8.0829496],[-78.9588864,-8.0826587],[-78.9586566,-8.082285],[-78.9584513,-8.0819511],[-78.9582062,-8.0815525],[-78.9555807,-8.0771688],[-78.9561564,-8.0767314],[-78.9579739,-8.0753503],[-78.9580238,-8.0752266],[-78.9580959,-8.0748563],[-78.9578921,-8.0743423],[-78.9579041,-8.0741411],[-78.9579273,-8.0737502],[-78.9579293,-8.0737164],[-78.9577016,-8.0734532],[-78.9571506,-8.0729985],[-78.9568204,-8.0728182],[-78.9563382,-8.072682],[-78.9561418,-8.0724872],[-78.955858,-8.072097],[-78.9557088,-8.0719991],[-78.9555686,-8.0719283],[-78.9550249,-8.0718126],[-78.9547298,-8.071672],[-78.9547045,-8.07166],[-78.9546068,-8.0716134],[-78.9549991,-8.0710354],[-78.9554614,-8.0701199],[-78.9557498,-8.0696233],[-78.9558117,-8.06932],[-78.9556828,-8.0688819],[-78.9557578,-8.0687417],[-78.9553548,-8.0685454],[-78.9552977,-8.0685178],[-78.9553741,-8.0683595],[-78.9550161,-8.0681858],[-78.954623,-8.0679961],[-78.9542104,-8.0677891],[-78.9538067,-8.0675863],[-78.9536682,-8.0675167],[-78.9536871,-8.0678831],[-78.9536388,-8.0679973],[-78.9533413,-8.0681548],[-78.9531533,-8.0682788],[-78.9529404,-8.0683909],[-78.9518296,-8.0689759],[-78.9508909,-8.0693663],[-78.9506575,-8.069523],[-78.950266,-8.0701471],[-78.9500002,-8.0705045],[-78.9497238,-8.0708762],[-78.949574,-8.0710776],[-78.9493786,-8.0713655],[-78.9495411,-8.0716601],[-78.949926,-8.071611]],"nodes":[4743986172,4743986170,5491451779,4743986169,4743986168,4743986163,4743986162,4743997012,4743997011,4743997010,13120335341,4743995011,3749740719,4743995010,4743995009,3749735408,4743995007,4743995008,3749740714,3749740720,3749735407,4743995014,4743995015,4743995017,3749740932,3749740934,3749740935,3749740936,3749740937,3749740938,8629918718,13024311389,4743523328,4743523329,4743523330,4743523331,4743523332,4743523333,4743523334,4743523335,4743523336,4743523337,13024311388,4744026967,4743523338,4743523339,4743523340,4743523341,9410628926,1195995736,1189509299,1195995269,4743914321,4743911545,1195995818,4743923349,4743923356,4743911553,1189494645,1189494651,10733332688,10733332691,10733332689,2604535934,1723600979,11103027590,1189526059,8156274586,1188353012,1195995943,1188353010,11023851013,1195995324,1195994893,1195995382,1195995123,334657472,334657474,1195995815,1195995424,10733368327,1195995620,1195995075,1195996062,1438763584,1195995347,1195996284,1169450380,334657477,6489471020,334657478,334657479,1169450379,1169450415,334657480,1169450412,1169450407,1169450404,334656957,3728290623,11037547132,3728290624,2604535891,2604535889,2604535888,2604535887,2604535886,2604535885,2604535884,2604535882,2604535880,11032782360,2604535878,11032782361,2604535877,11030882419,2604535830,2604535828,2604535857,2604535855,2604535853,2604535863,2604535817,2604535815,2604535813,2604535811,2604535809,2604535807,2604535806,8244994758,2604535805,2604535804,2604535803,2604535802,2604535800,2604535797,2604535794,4743566854,334655929,9619324840,334655933,334655934,334655935,5481083722,5481083723,5481083724,334655936,5481083725,334655938,334655939,334655940,334655941,1098612349,334655942,334655943,334655944,11032445415,334655945,5481083726,11032445413,1098638551,334655946,334655947,11032885359,11032885360,5480680745,5087571040,1098606452,5480659633,5480659632,5480659631,5480659630,11030198495,5480659634,5480659635,5480659588,11030295008,5480659587,5480659606,5480659591,5480659593,5480659643,1098602907,5480659617,5480659578,1098648543,5087571033,5480659650,5087571035,5087571022,1098603966,1098596150,1098586593,1098610776,1098625862,5087556589,1098626298,1098616122,5087556581,1098604966,1098632857,1098650079,12601295647,1098637619,1098596615,1098604691,1026647917,2885683476,1098615782,2885683477,1098609876,2885683478,2885683475,1098621172,2885683479,1098630971,5069527347,1098605566,1098643285,1098586594,1098596159,2885683481,2885683474,12601295649,1026647937,1026647939,11032867285,11032867281,1098622328,11030377675,11030377676,1026647943,11030395412,11030395409,10735933685,1098621018,1026647947,11030395406,11030269404,1098609580,5089132050,1098598955,5088905641,5088905655,1026647950,2399656830,1098607239,5087053971,11023976598,5475283789,11037375459,11023671194,5480877998,1098620805,5087163891,1026647961,1026647964,5087163889,11023381284,7118056428,11037375456,316265105,316265134,11032996038,11032996039,1026647433,11023381286,1026647328,11023313850,11023313852,1026647709,11023313854,11023313856,5086629392,11023313858,1026647291,11023313860,1098635308,11023313862,5086629394,1088227188,1098590745,11023313864,11023313866,1098623436,5676152374,9830187850,11023976595,1098639667,1144498432,1098595546,11023976593,5432160617,1088227460,1015347803,1098645978,1088227401,2466662083,1088227447,1050928494,1088227351,1088227443,1088227238,1088227437,1088227226,316256329,1627006909,1627006911,11892812604,1098635029,5476546768,1627006951,1098647086,1627006896,1627006892,320114914,1627006871,1627006865,1627006861,1627006857,1627006841,1098598360,1098591261,2694543105,1098647241,316264102,1554840454,5101540451,316264103,316488686,11037703693,316264105,320114897,7123096673,320114902,316264107,316264108,4633792028,1098600919,4633792030,1098623402,316264109,7123110593,316264083,316489562,4636371397,1098613323,1098627784,5676450287,1088384560,316489561,5455887068,316489560,11033319454,1098584966,3743507195,3743507194,2587893403,4633926908,4633926911,2587893404,1098599301,3386747943,2587893364,11016702906,1088384617,4633926906,1098648906,1098598947,1098596851,11016689399,316265162,316265161,1098639689,1098613262,1098646064,5483354326,316265160,316265159,1098595844,316265158,10733716081,316265157,7123146903,7123116080,1098586053,5071955852,320114964,316265154,1051035628,11037834989,5483102528,1098595124,11032459642,1051035706,1051036038,1051035752,1051035698,5145238220,316265152,7123146901,316265151,7123146898,11032795708,316265150,7123146896,11032795709,316265149,4706097931,5071955848,316265147,316265146,1051035881,11794036741,9218464455,11108034819,9218464466,11032795711,11016646725,1088227440,316265144,2481251264,11032940509,1051036093,316265142,320114989,1051000321,316265139,11028523289,5079131744,1098588381,1098629654,1098619287,1051000288,4452550922,4452550920,11033509208,1051000208,11910518850,8764355700,11120020174,5475283792,12433929462,12042960501,5456051621,5079385439,5079385438,5089717642,5098830431,1098627633,1098625211,5089580865,5098830432,13204853024,8168008952,5098830433,11030636668,5089580866,5089580867,5089580868,5089580869,5089580885,11030259916,5089580870,5089580863,5089580871,5089580861,5456051640,5456051641,5456051642,5456051643,5457488567,5456051644,5456051645,5482905644,1098597551,5087152251,1098627268,1145579811,1145579843,5087298904,5087298903,5087298902,334656140,5432245209,5482905632,11032885362,5482905638,334656141,334656144,5482905631,5482905637,334656145,5482905630,5482905636,334656147,5482905629,334656148,334656149,1098606452,10735963177,11032885361,334656152,9472286037,334656155,11032445416,5481081511,11032445412,334656157,11032445414,334656158,334656159,334656161,334656162,334656163,334656164,5481081512,334656166,334656167,5481081513,11030882424,5481081514,5481081515,334656168,334656170,334656171,5481081516,11030882420,334656174,11030882421,334655247,5481081518,334655246,5481081517,334655244,334655243,5481081519,334655241,334655239,5481081520,5481083721,334655237,2604535790,334656845,334656844,2604535786,2604535865,11032782362,334656842,2604535845,2604535843,334656843,2604535861,2604535859,2604535841,3728291227,11032782357,11032782359,11032782358,334656965,334656964,334656961,2604535819,334656960,2604535822,334656959,2604535824,334656958,1438763595,11032938089,334656957,1169450404,1169450407,1169450412,334657480,1169450415,1169450379,334657479,334657478,6489471020,334657477,1169450380,1438763551,1438763562,1438763570,8272570686,1438763529,1195995556,1195995636,1195996224,1195996426,1195996192,1195995424,1195995815,334657474,334657472,1195995123,1195995382,1195994893,1195995971,1195995570,1189494659,1189494658,1188353012,8156274586,1189526059,11103027590,1723600979,1189509290,2604535932,10733332690,1189509240,1189509266,1189494645,4743911553,4743923356,4743923349,1195995818,4743911545,4743914321,1195995269,1189509299,1195995736,9410628926,4743523341,4743523340,4743523339,4743523338,4744026967,13024311388,4743523337,4743523336,4743523335,4743523334,4743523333,4743523332,4743523331,4743523330,4743523329,4743523328,13024311389,8629918718,3749740938,3749740937,3749740936,3749740935,3749740934,3749740932,4743995017,4743995015,4743995014,3749735407,3749740720,3749740714,4743995008,4743995007,3749735408,4743995009,4743995010,3749740719,4743995011,13120335341,4743997010,4743997011,4743997012,4743986162,4743986164,4743986166,4743986167,4743986171,4743979965,4743979964]},"gtfs":{"agency_id":25,"route_id":51,"services":[{"service_id":"Mo-Su","startTime":"05:00","endTime":"23:00","trip_id":19972158}],"filteredStops":{"nodes":[4743986172,13546545357,13546546145,13546546146,13546545358,13546545360,13546546175,13546546177,13546546173,13546546144,13546545376,13546546131,13546546152,13546546171,13546546155,13546546158,13546545375,13546545211,13546535036,13546535053,13546545896,13546535095,13546545212,13546546015,13546545215,13546546014,13546546023,13546546021,13546546019,13546546016,13546545962,13546545963,13546545965,13546545989,13546545187,13546545188,13546545189,13546535096,13546545881,11910518834,13546545249,13546545250,13546545253,13546545243,13546545244,13546545246,13546545248,13546545254,13546545255,13546545234,13546535087,13546545893,13546545891,13546535086,13546535084,13546545433,13546545434,13546546212,13546545367,13546546157,13546546160,13546546153,13546545369,13546546150,13546546130,13546545371,13546546167,13546546176,13546546163,13546545374,13546546161,13546546170,13546546148,13546545361,13546545359,13546546142,13546546143,4743979964],"coordinates":[[-78.9499629,-8.0713647],[-78.9527083,-8.0684744],[-78.9531234,-8.0682407],[-78.9550941,-8.0681962],[-78.9548792,-8.0712887],[-78.9574229,-8.0731556],[-78.9577498,-8.0854975],[-78.9552859,-8.0868472],[-78.9556018,-8.0883177],[-78.9632755,-8.0910913],[-78.9650079,-8.0918744],[-78.9672482,-8.0924662],[-78.9782674,-8.0887469],[-78.9810106,-8.0881079],[-78.9846859,-8.0860585],[-78.9890264,-8.0846371],[-78.9912397,-8.0867526],[-78.9936901,-8.0899209],[-78.9945504,-8.0910439],[-78.9949152,-8.0912862],[-78.9968987,-8.0935049],[-79.0005089,-8.0925014],[-79.0038956,-8.0925258],[-79.0055367,-8.0959599],[-79.0082032,-8.0991114],[-79.0104063,-8.1017614],[-79.0126094,-8.1043873],[-79.0145716,-8.1067384],[-79.0156336,-8.1079156],[-79.0181023,-8.1106886],[-79.0201808,-8.1130933],[-79.0220161,-8.1150471],[-79.0241273,-8.1172192],[-79.0288381,-8.1164168],[-79.0313061,-8.1154722],[-79.0326995,-8.1129586],[-79.032793,-8.1111575],[-79.0354155,-8.1087252],[-79.0367121,-8.107821],[-79.0360898,-8.1062889],[-79.033823,-8.1047949],[-79.0327339,-8.1027413],[-79.0289518,-8.0969484],[-79.0269907,-8.0950012],[-79.0240527,-8.0939629],[-79.020912,-8.0951663],[-79.019672,-8.0956286],[-79.0175856,-8.0966327],[-79.0149849,-8.0989034],[-79.0130855,-8.1005],[-79.0128853,-8.1000516],[-79.011152,-8.0974314],[-79.0091316,-8.09427],[-79.0071829,-8.0912889],[-79.0050238,-8.0880252],[-79.0013315,-8.0871914],[-78.9981133,-8.0881309],[-78.9941117,-8.0891372],[-78.9910364,-8.0869308],[-78.9889824,-8.0849172],[-78.981161,-8.0881891],[-78.9784444,-8.0889783],[-78.9750568,-8.0903817],[-78.9681419,-8.0924901],[-78.9672582,-8.0927534],[-78.9647742,-8.0918651],[-78.9631954,-8.091179],[-78.9613551,-8.0916573],[-78.9611012,-8.0916888],[-78.9566525,-8.0895382],[-78.9554197,-8.0882486],[-78.9578491,-8.0851706],[-78.9581667,-8.0815584],[-78.9573763,-8.0732395],[-78.9548467,-8.0711808],[-78.95041,-8.0699765],[-78.9503335,-8.0700442],[-78.949926,-8.071611]]}}},{"type":"Feature","properties":{"bus":"yes","highway":"bus_stop","network":"Transporte Público Urbano Trujillo","public_transport":"platform","ref":"PL-78","source":"Gerencia de Transporte Metropolitano de Trujillo","id":13546545357},"geometry":{"type":"Point","coordinates":[-78.9527083,-8.0684744]}},{"type":"Feature","properties":{"bus":"yes","highway":"bus_stop","network":"Transporte Público Urbano Trujillo","public_transport":"platform","ref":"PL-79","source":"Gerencia de Transporte Metropolitano de Trujillo","id":13546546145},"geometry":{"type":"Point","coordinates":[-78.9531234,-8.0682407]}},{"type":"Feature","properties":{"bus":"yes","highway":"bus_stop","network":"Transporte Público Urbano Trujillo","public_transport":"platform","ref":"PL-76","source":"Gerencia de Transporte Metropolitano de Trujillo","id":13546546146},"geometry":{"type":"Point","coordinates":[-78.9550941,-8.0681962]}},{"type":"Feature","properties":{"bus":"yes","highway":"bus_stop","network":"Transporte Público Urbano Trujillo","public_transport":"platform","ref":"PL-75","source":"Gerencia de Transporte Metropolitano de Trujillo","id":13546545358},"geometry":{"type":"Point","coordinates":[-78.9548792,-8.0712887]}},{"type":"Feature","properties":{"bus":"yes","highway":"bus_stop","network":"Transporte Público Urbano Trujillo","public_transport":"platform","ref":"PL-73","source":"Gerencia de Transporte Metropolitano de Trujillo","id":13546545360},"geometry":{"type":"Point","coordinates":[-78.9574229,-8.0731556]}},{"type":"Feature","properties":{"bus":"yes","highway":"bus_stop","network":"Transporte Público Urbano Trujillo","public_transport":"platform","ref":"PL-19","source":"Gerencia de Transporte Metropolitano de Trujillo","id":13546546175},"geometry":{"type":"Point","coordinates":[-78.9577498,-8.0854975]}},{"type":"Feature","properties":{"bus":"yes","highway":"bus_stop","network":"Transporte Público Urbano Trujillo","public_transport":"platform","ref":"PL-14","source":"Gerencia de Transporte Metropolitano de Trujillo","id":13546546177},"geometry":{"type":"Point","coordinates":[-78.9552859,-8.0868472]}},{"type":"Feature","properties":{"bus":"yes","highway":"bus_stop","network":"Transporte Público Urbano Trujillo","public_transport":"platform","ref":"PL-23","source":"Gerencia de Transporte Metropolitano de Trujillo","id":13546546173},"geometry":{"type":"Point","coordinates":[-78.9556018,-8.0883177]}},{"type":"Feature","properties":{"bus":"yes","highway":"bus_stop","network":"Transporte Público Urbano Trujillo","public_transport":"platform","ref":"PL-8","source":"Gerencia de Transporte Metropolitano de Trujillo","id":13546546144},"geometry":{"type":"Point","coordinates":[-78.9632755,-8.0910913]}},{"type":"Feature","properties":{"bus":"yes","highway":"bus_stop","network":"Transporte Público Urbano Trujillo","public_transport":"platform","ref":"PL-26","source":"Gerencia de Transporte Metropolitano de Trujillo","id":13546545376},"geometry":{"type":"Point","coordinates":[-78.9650079,-8.0918744]}},{"type":"Feature","properties":{"bus":"yes","highway":"bus_stop","network":"Transporte Público Urbano Trujillo","public_transport":"platform","ref":"PL-Existente","source":"Gerencia de Transporte Metropolitano de Trujillo","id":13546546131},"geometry":{"type":"Point","coordinates":[-78.9672482,-8.0924662]}},{"type":"Feature","properties":{"bus":"yes","highway":"bus_stop","network":"Transporte Público Urbano Trujillo","public_transport":"platform","ref":"PL-61","source":"Gerencia de Transporte Metropolitano de Trujillo","id":13546546152},"geometry":{"type":"Point","coordinates":[-78.9782674,-8.0887469]}},{"type":"Feature","properties":{"bus":"yes","highway":"bus_stop","network":"Transporte Público Urbano Trujillo","public_transport":"platform","ref":"PL-25","source":"Gerencia de Transporte Metropolitano de Trujillo","id":13546546171},"geometry":{"type":"Point","coordinates":[-78.9810106,-8.0881079]}},{"type":"Feature","properties":{"bus":"yes","highway":"bus_stop","network":"Transporte Público Urbano Trujillo","public_transport":"platform","ref":"PL-59","source":"Gerencia de Transporte Metropolitano de Trujillo","id":13546546155},"geometry":{"type":"Point","coordinates":[-78.9846859,-8.0860585]}},{"type":"Feature","properties":{"bus":"yes","highway":"bus_stop","network":"Transporte Público Urbano Trujillo","public_transport":"platform","ref":"PL-56","source":"Gerencia de Transporte Metropolitano de Trujillo","id":13546546158},"geometry":{"type":"Point","coordinates":[-78.9890264,-8.0846371]}},{"type":"Feature","properties":{"bus":"yes","highway":"bus_stop","network":"Transporte Público Urbano Trujillo","public_transport":"platform","ref":"PL-27","source":"Gerencia de Transporte Metropolitano de Trujillo","id":13546545375},"geometry":{"type":"Point","coordinates":[-78.9912397,-8.0867526]}},{"type":"Feature","properties":{"bus":"yes","highway":"bus_stop","network":"Transporte Público Urbano Trujillo","public_transport":"platform","ref":"CHCH-526","source":"Gerencia de Transporte Metropolitano de Trujillo","id":13546545211},"geometry":{"type":"Point","coordinates":[-78.9936901,-8.0899209]}},{"type":"Feature","properties":{"bus":"yes","highway":"bus_stop","network":"Transporte Público Urbano Trujillo","public_transport":"platform","ref":"YP-506","source":"Gerencia de Transporte Metropolitano de Trujillo","id":13546535036},"geometry":{"type":"Point","coordinates":[-78.9945504,-8.0910439]}},{"type":"Feature","properties":{"bus":"yes","highway":"bus_stop","network":"Transporte Público Urbano Trujillo","public_transport":"platform","ref":"SS-507","source":"Gerencia de Transporte Metropolitano de Trujillo","id":13546535053},"geometry":{"type":"Point","coordinates":[-78.9949152,-8.0912862]}},{"type":"Feature","properties":{"bus":"yes","highway":"bus_stop","network":"Transporte Público Urbano Trujillo","public_transport":"platform","ref":"PESQT-406","source":"Gerencia de Transporte Metropolitano de Trujillo","id":13546545896},"geometry":{"type":"Point","coordinates":[-78.9968987,-8.0935049]}},{"type":"Feature","properties":{"bus":"yes","highway":"bus_stop","network":"Transporte Público Urbano Trujillo","public_transport":"platform","ref":"PESQT-404","source":"Gerencia de Transporte Metropolitano de Trujillo","id":13546535095},"geometry":{"type":"Point","coordinates":[-79.0005089,-8.0925014]}},{"type":"Feature","properties":{"bus":"yes","highway":"bus_stop","network":"Transporte Público Urbano Trujillo","public_transport":"platform","ref":"CEV-191","source":"Gerencia de Transporte Metropolitano de Trujillo","id":13546545212},"geometry":{"type":"Point","coordinates":[-79.0038956,-8.0925258]}},{"type":"Feature","properties":{"bus":"yes","highway":"bus_stop","network":"Transporte Público Urbano Trujillo","public_transport":"platform","ref":"CEV-184","source":"Gerencia de Transporte Metropolitano de Trujillo","id":13546546015},"geometry":{"type":"Point","coordinates":[-79.0055367,-8.0959599]}},{"type":"Feature","properties":{"bus":"yes","highway":"bus_stop","network":"Transporte Público Urbano Trujillo","public_transport":"platform","ref":"CEV-185","source":"Gerencia de Transporte Metropolitano de Trujillo","id":13546545215},"geometry":{"type":"Point","coordinates":[-79.0082032,-8.0991114]}},{"type":"Feature","properties":{"bus":"yes","highway":"bus_stop","network":"Transporte Público Urbano Trujillo","public_transport":"platform","ref":"CEV-186","source":"Gerencia de Transporte Metropolitano de Trujillo","id":13546546014},"geometry":{"type":"Point","coordinates":[-79.0104063,-8.1017614]}},{"type":"Feature","properties":{"bus":"yes","highway":"bus_stop","network":"Transporte Público Urbano Trujillo","public_transport":"platform","ref":"CEV-174","source":"Gerencia de Transporte Metropolitano de Trujillo","id":13546546023},"geometry":{"type":"Point","coordinates":[-79.0126094,-8.1043873]}},{"type":"Feature","properties":{"bus":"yes","highway":"bus_stop","network":"Transporte Público Urbano Trujillo","public_transport":"platform","ref":"CEV-176","source":"Gerencia de Transporte Metropolitano de Trujillo","id":13546546021},"geometry":{"type":"Point","coordinates":[-79.0145716,-8.1067384]}},{"type":"Feature","properties":{"bus":"yes","highway":"bus_stop","network":"Transporte Público Urbano Trujillo","public_transport":"platform","ref":"CEV-178","source":"Gerencia de Transporte Metropolitano de Trujillo","id":13546546019},"geometry":{"type":"Point","coordinates":[-79.0156336,-8.1079156]}},{"type":"Feature","properties":{"bus":"yes","highway":"bus_stop","network":"Transporte Público Urbano Trujillo","public_transport":"platform","ref":"CEV-183","source":"Gerencia de Transporte Metropolitano de Trujillo","id":13546546016},"geometry":{"type":"Point","coordinates":[-79.0181023,-8.1106886]}},{"type":"Feature","properties":{"bus":"yes","highway":"bus_stop","network":"Transporte Público Urbano Trujillo","public_transport":"platform","ref":"IN-171","source":"Gerencia de Transporte Metropolitano de Trujillo","id":13546545962},"geometry":{"type":"Point","coordinates":[-79.0201808,-8.1130933]}},{"type":"Feature","properties":{"bus":"yes","highway":"bus_stop","network":"Transporte Público Urbano Trujillo","public_transport":"platform","ref":"IN-170","source":"Gerencia de Transporte Metropolitano de Trujillo","id":13546545963},"geometry":{"type":"Point","coordinates":[-79.0220161,-8.1150471]}},{"type":"Feature","properties":{"bus":"yes","highway":"bus_stop","network":"Transporte Público Urbano Trujillo","public_transport":"platform","ref":"IN-168","source":"Gerencia de Transporte Metropolitano de Trujillo","id":13546545965},"geometry":{"type":"Point","coordinates":[-79.0241273,-8.1172192]}},{"type":"Feature","properties":{"bus":"yes","highway":"bus_stop","network":"Transporte Público Urbano Trujillo","public_transport":"platform","ref":"ESP-6","source":"Gerencia de Transporte Metropolitano de Trujillo","id":13546545989},"geometry":{"type":"Point","coordinates":[-79.0288381,-8.1164168]}},{"type":"Feature","properties":{"bus":"yes","highway":"bus_stop","network":"Transporte Público Urbano Trujillo","public_transport":"platform","ref":"ESP-3","source":"Gerencia de Transporte Metropolitano de Trujillo","id":13546545187},"geometry":{"type":"Point","coordinates":[-79.0313061,-8.1154722]}},{"type":"Feature","properties":{"bus":"yes","highway":"bus_stop","network":"Transporte Público Urbano Trujillo","public_transport":"platform","ref":"ESP-2","source":"Gerencia de Transporte Metropolitano de Trujillo","id":13546545188},"geometry":{"type":"Point","coordinates":[-79.0326995,-8.1129586]}},{"type":"Feature","properties":{"bus":"yes","highway":"bus_stop","network":"Transporte Público Urbano Trujillo","public_transport":"platform","ref":"ESP-1","source":"Gerencia de Transporte Metropolitano de Trujillo","id":13546545189},"geometry":{"type":"Point","coordinates":[-79.032793,-8.1111575]}},{"type":"Feature","properties":{"bus":"yes","highway":"bus_stop","network":"Transporte Público Urbano Trujillo","public_transport":"platform","ref":"PEMU-341","source":"Gerencia de Transporte Metropolitano de Trujillo","id":13546535096},"geometry":{"type":"Point","coordinates":[-79.0354155,-8.1087252]}},{"type":"Feature","properties":{"bus":"yes","highway":"bus_stop","network":"Transporte Público Urbano Trujillo","public_transport":"platform","ref":"ROM-371","source":"Gerencia de Transporte Metropolitano de Trujillo","id":13546545881},"geometry":{"type":"Point","coordinates":[-79.0367121,-8.107821]}},{"type":"Feature","properties":{"advertising":"no","bench":"no","bicycle_parking":"no","bin":"no","bus":"yes","departures_board":"no","highway":"bus_stop","level":"0","lit":"yes","name":"Calle Salaverry","network":"Transporte Público Urbano Trujillo","passenger_information_display:speech_output":"no","pole":"yes","public_transport":"platform","ramp":"no","ref":"ROM-369","shelter":"no","source:ref":"Gerencia de Transporte Metropolitano de Trujillo","tactile_paving":"no","tactile_writing:braille:es":"no","id":11910518834},"geometry":{"type":"Point","coordinates":[-79.0360898,-8.1062889]}},{"type":"Feature","properties":{"bus":"yes","highway":"bus_stop","network":"Transporte Público Urbano Trujillo","public_transport":"platform","ref":"AMN-28","source":"Gerencia de Transporte Metropolitano de Trujillo","id":13546545249},"geometry":{"type":"Point","coordinates":[-79.033823,-8.1047949]}},{"type":"Feature","properties":{"bus":"yes","highway":"bus_stop","network":"Transporte Público Urbano Trujillo","public_transport":"platform","ref":"AMN-26","source":"Gerencia de Transporte Metropolitano de Trujillo","id":13546545250},"geometry":{"type":"Point","coordinates":[-79.0327339,-8.1027413]}},{"type":"Feature","properties":{"bus":"yes","highway":"bus_stop","network":"Transporte Público Urbano Trujillo","public_transport":"platform","ref":"AMN-21","source":"Gerencia de Transporte Metropolitano de Trujillo","id":13546545253},"geometry":{"type":"Point","coordinates":[-79.0289518,-8.0969484]}},{"type":"Feature","properties":{"bus":"yes","highway":"bus_stop","network":"Transporte Público Urbano Trujillo","public_transport":"platform","ref":"AMN-35","source":"Gerencia de Transporte Metropolitano de Trujillo","id":13546545243},"geometry":{"type":"Point","coordinates":[-79.0269907,-8.0950012]}},{"type":"Feature","properties":{"bus":"yes","highway":"bus_stop","network":"Transporte Público Urbano Trujillo","public_transport":"platform","ref":"AMN-33","source":"Gerencia de Transporte Metropolitano de Trujillo","id":13546545244},"geometry":{"type":"Point","coordinates":[-79.0240527,-8.0939629]}},{"type":"Feature","properties":{"bus":"yes","highway":"bus_stop","network":"Transporte Público Urbano Trujillo","public_transport":"platform","ref":"AMN-31","source":"Gerencia de Transporte Metropolitano de Trujillo","id":13546545246},"geometry":{"type":"Point","coordinates":[-79.020912,-8.0951663]}},{"type":"Feature","properties":{"bus":"yes","highway":"bus_stop","network":"Transporte Público Urbano Trujillo","public_transport":"platform","ref":"AMN-29","source":"Gerencia de Transporte Metropolitano de Trujillo","id":13546545248},"geometry":{"type":"Point","coordinates":[-79.019672,-8.0956286]}},{"type":"Feature","properties":{"bus":"yes","highway":"bus_stop","network":"Transporte Público Urbano Trujillo","public_transport":"platform","ref":"AMN-19","source":"Gerencia de Transporte Metropolitano de Trujillo","id":13546545254},"geometry":{"type":"Point","coordinates":[-79.0175856,-8.0966327]}},{"type":"Feature","properties":{"bus":"yes","highway":"bus_stop","network":"Transporte Público Urbano Trujillo","public_transport":"platform","ref":"AMN-17","source":"Gerencia de Transporte Metropolitano de Trujillo","id":13546545255},"geometry":{"type":"Point","coordinates":[-79.0149849,-8.0989034]}},{"type":"Feature","properties":{"bus":"yes","highway":"bus_stop","network":"Transporte Público Urbano Trujillo","public_transport":"platform","ref":"AMS-59","source":"Gerencia de Transporte Metropolitano de Trujillo","id":13546545234},"geometry":{"type":"Point","coordinates":[-79.0130855,-8.1005]}},{"type":"Feature","properties":{"bus":"yes","highway":"bus_stop","network":"Transporte Público Urbano Trujillo","public_transport":"platform","ref":"PLUN-287","source":"Gerencia de Transporte Metropolitano de Trujillo","id":13546535087},"geometry":{"type":"Point","coordinates":[-79.0128853,-8.1000516]}},{"type":"Feature","properties":{"bus":"yes","highway":"bus_stop","network":"Transporte Público Urbano Trujillo","public_transport":"platform","ref":"PLUN-289","source":"Gerencia de Transporte Metropolitano de Trujillo","id":13546545893},"geometry":{"type":"Point","coordinates":[-79.011152,-8.0974314]}},{"type":"Feature","properties":{"bus":"yes","highway":"bus_stop","network":"Transporte Público Urbano Trujillo","public_transport":"platform","ref":"PLUN-291","source":"Gerencia de Transporte Metropolitano de Trujillo","id":13546545891},"geometry":{"type":"Point","coordinates":[-79.0091316,-8.09427]}},{"type":"Feature","properties":{"bus":"yes","highway":"bus_stop","network":"Transporte Público Urbano Trujillo","public_transport":"platform","ref":"PLUN-292","source":"Gerencia de Transporte Metropolitano de Trujillo","id":13546535086},"geometry":{"type":"Point","coordinates":[-79.0071829,-8.0912889]}},{"type":"Feature","properties":{"bus":"yes","highway":"bus_stop","network":"Transporte Público Urbano Trujillo","public_transport":"platform","ref":"PLUN-295","source":"Gerencia de Transporte Metropolitano de Trujillo","id":13546535084},"geometry":{"type":"Point","coordinates":[-79.0050238,-8.0880252]}},{"type":"Feature","properties":{"bus":"yes","highway":"bus_stop","network":"Transporte Público Urbano Trujillo","public_transport":"platform","ref":"PP-44","source":"Gerencia de Transporte Metropolitano de Trujillo","id":13546545433},"geometry":{"type":"Point","coordinates":[-79.0013315,-8.0871914]}},{"type":"Feature","properties":{"bus":"yes","highway":"bus_stop","network":"Transporte Público Urbano Trujillo","public_transport":"platform","ref":"PP-43","source":"Gerencia de Transporte Metropolitano de Trujillo","id":13546545434},"geometry":{"type":"Point","coordinates":[-78.9981133,-8.0881309]}},{"type":"Feature","properties":{"bus":"yes","highway":"bus_stop","network":"Transporte Público Urbano Trujillo","public_transport":"platform","ref":"PP-42","source":"Gerencia de Transporte Metropolitano de Trujillo","id":13546546212},"geometry":{"type":"Point","coordinates":[-78.9941117,-8.0891372]}},{"type":"Feature","properties":{"bus":"yes","highway":"bus_stop","network":"Transporte Público Urbano Trujillo","public_transport":"platform","ref":"PL-55","source":"Gerencia de Transporte Metropolitano de Trujillo","id":13546545367},"geometry":{"type":"Point","coordinates":[-78.9910364,-8.0869308]}},{"type":"Feature","properties":{"bus":"yes","highway":"bus_stop","network":"Transporte Público Urbano Trujillo","public_transport":"platform","ref":"PL-57","source":"Gerencia de Transporte Metropolitano de Trujillo","id":13546546157},"geometry":{"type":"Point","coordinates":[-78.9889824,-8.0849172]}},{"type":"Feature","properties":{"bus":"yes","highway":"bus_stop","network":"Transporte Público Urbano Trujillo","public_transport":"platform","ref":"PL-51","source":"Gerencia de Transporte Metropolitano de Trujillo","id":13546546160},"geometry":{"type":"Point","coordinates":[-78.981161,-8.0881891]}},{"type":"Feature","properties":{"bus":"yes","highway":"bus_stop","network":"Transporte Público Urbano Trujillo","public_transport":"platform","ref":"PL-60","source":"Gerencia de Transporte Metropolitano de Trujillo","id":13546546153},"geometry":{"type":"Point","coordinates":[-78.9784444,-8.0889783]}},{"type":"Feature","properties":{"bus":"yes","highway":"bus_stop","network":"Transporte Público Urbano Trujillo","public_transport":"platform","ref":"PL-48","source":"Gerencia de Transporte Metropolitano de Trujillo","id":13546545369},"geometry":{"type":"Point","coordinates":[-78.9750568,-8.0903817]}},{"type":"Feature","properties":{"bus":"yes","highway":"bus_stop","network":"Transporte Público Urbano Trujillo","public_transport":"platform","ref":"PL-63","source":"Gerencia de Transporte Metropolitano de Trujillo","id":13546546150},"geometry":{"type":"Point","coordinates":[-78.9681419,-8.0924901]}},{"type":"Feature","properties":{"bus":"yes","highway":"bus_stop","network":"Transporte Público Urbano Trujillo","public_transport":"platform","ref":"PL-Existente","source":"Gerencia de Transporte Metropolitano de Trujillo","id":13546546130},"geometry":{"type":"Point","coordinates":[-78.9672582,-8.0927534]}},{"type":"Feature","properties":{"bus":"yes","highway":"bus_stop","network":"Transporte Público Urbano Trujillo","public_transport":"platform","ref":"PL-42","source":"Gerencia de Transporte Metropolitano de Trujillo","id":13546545371},"geometry":{"type":"Point","coordinates":[-78.9647742,-8.0918651]}},{"type":"Feature","properties":{"bus":"yes","highway":"bus_stop","network":"Transporte Público Urbano Trujillo","public_transport":"platform","ref":"PL-39","source":"Gerencia de Transporte Metropolitano de Trujillo","id":13546546167},"geometry":{"type":"Point","coordinates":[-78.9631954,-8.091179]}},{"type":"Feature","properties":{"bus":"yes","highway":"bus_stop","network":"Transporte Público Urbano Trujillo","public_transport":"platform","ref":"PL-16","source":"Gerencia de Transporte Metropolitano de Trujillo","id":13546546176},"geometry":{"type":"Point","coordinates":[-78.9613551,-8.0916573]}},{"type":"Feature","properties":{"bus":"yes","highway":"bus_stop","network":"Transporte Público Urbano Trujillo","public_transport":"platform","ref":"PL-46","source":"Gerencia de Transporte Metropolitano de Trujillo","id":13546546163},"geometry":{"type":"Point","coordinates":[-78.9611012,-8.0916888]}},{"type":"Feature","properties":{"bus":"yes","highway":"bus_stop","network":"Transporte Público Urbano Trujillo","public_transport":"platform","ref":"PL-28","source":"Gerencia de Transporte Metropolitano de Trujillo","id":13546545374},"geometry":{"type":"Point","coordinates":[-78.9566525,-8.0895382]}},{"type":"Feature","properties":{"bus":"yes","highway":"bus_stop","network":"Transporte Público Urbano Trujillo","public_transport":"platform","ref":"PL-50","source":"Gerencia de Transporte Metropolitano de Trujillo","id":13546546161},"geometry":{"type":"Point","coordinates":[-78.9554197,-8.0882486]}},{"type":"Feature","properties":{"bus":"yes","highway":"bus_stop","network":"Transporte Público Urbano Trujillo","public_transport":"platform","ref":"PL-31","source":"Gerencia de Transporte Metropolitano de Trujillo","id":13546546170},"geometry":{"type":"Point","coordinates":[-78.9578491,-8.0851706]}},{"type":"Feature","properties":{"bus":"yes","highway":"bus_stop","network":"Transporte Público Urbano Trujillo","public_transport":"platform","ref":"PL-67","source":"Gerencia de Transporte Metropolitano de Trujillo","id":13546546148},"geometry":{"type":"Point","coordinates":[-78.9581667,-8.0815584]}},{"type":"Feature","properties":{"bus":"yes","highway":"bus_stop","network":"Transporte Público Urbano Trujillo","public_transport":"platform","ref":"PL-72","source":"Gerencia de Transporte Metropolitano de Trujillo","id":13546545361},"geometry":{"type":"Point","coordinates":[-78.9573763,-8.0732395]}},{"type":"Feature","properties":{"bus":"yes","highway":"bus_stop","network":"Transporte Público Urbano Trujillo","public_transport":"platform","ref":"PL-74","source":"Gerencia de Transporte Metropolitano de Trujillo","id":13546545359},"geometry":{"type":"Point","coordinates":[-78.9548467,-8.0711808]}},{"type":"Feature","properties":{"bus":"yes","highway":"bus_stop","network":"Transporte Público Urbano Trujillo","public_transport":"platform","ref":"PL-81","source":"Gerencia de Transporte Metropolitano de Trujillo","id":13546546142},"geometry":{"type":"Point","coordinates":[-78.95041,-8.0699765]}},{"type":"Feature","properties":{"bus":"yes","highway":"bus_stop","network":"Transporte Público Urbano Trujillo","public_transport":"platform","ref":"PL-80","source":"Gerencia de Transporte Metropolitano de Trujillo","id":13546546143},"geometry":{"type":"Point","coordinates":[-78.9503335,-8.0700442]}}]}