{"type":"FeatureCollection","features":[{"type":"Feature","properties":{"check_date":"2025-12-17","colour":"#3399FF","colour:text":"#FFFFFF","fee":"yes","from":"Avenida San José","hash":"11203","interval":"3","name":"Avenida San José → Barrio 1B","network":"Transporte Público Urbano Trujillo","opening_hours":"Mo-Su 05:00-23:00","operator":"MIRAMAR S.A.","public_transport:version":"2","ref":"C-40 W","route":"bus","survey:avg_speed:kmh":"20","to":"Barrio 1B","type":"route","id":19972466},"geometry":{"type":"LineString","coordinates":[[-78.9922665,-8.1785825],[-78.9919907,-8.1788042],[-78.9916117,-8.1790864],[-78.9907132,-8.1797815],[-78.990355,-8.180064],[-78.9897943,-8.1805062],[-78.9888464,-8.1812183],[-78.988799,-8.1812563],[-78.9885951,-8.1814099],[-78.9885244,-8.1814631],[-78.9885068,-8.1814764],[-78.9880825,-8.1817961],[-78.9879627,-8.1818864],[-78.9878563,-8.1819666],[-78.987617,-8.1821469],[-78.9870026,-8.1826455],[-78.9869702,-8.1826699],[-78.9866084,-8.1829459],[-78.9862423,-8.1832184],[-78.9859392,-8.1834463],[-78.9857628,-8.1835796],[-78.985485,-8.1837888],[-78.985171,-8.1840256],[-78.9847937,-8.18431],[-78.9843743,-8.1846261],[-78.9843343,-8.1846574],[-78.9838579,-8.1850302],[-78.9835014,-8.1853006],[-78.9834386,-8.185348],[-78.9829607,-8.1857181],[-78.9826129,-8.1859877],[-78.9822138,-8.186295],[-78.9817461,-8.1866551],[-78.9812228,-8.1870434],[-78.9806506,-8.187476],[-78.9801192,-8.1877912],[-78.9798622,-8.1879349],[-78.9795096,-8.1881322],[-78.978971,-8.188437],[-78.9785373,-8.1887161],[-78.9780993,-8.1890591],[-78.9775431,-8.1895161],[-78.9749294,-8.1917863],[-78.9745703,-8.1921076],[-78.9744616,-8.1919868],[-78.9744379,-8.1918985],[-78.9743869,-8.191922],[-78.9743426,-8.1919432],[-78.9742059,-8.1920321],[-78.9740771,-8.1921357],[-78.9738625,-8.1923189],[-78.9736439,-8.1925021],[-78.9733878,-8.1927171],[-78.9732456,-8.1928565],[-78.9728795,-8.1931923],[-78.9725871,-8.1934366],[-78.9721593,-8.1938268],[-78.9714485,-8.1944467],[-78.9713809,-8.1945098],[-78.9711709,-8.1947056],[-78.9711244,-8.1947472],[-78.9710985,-8.1946704],[-78.9711857,-8.1945901],[-78.9712903,-8.1944998],[-78.9717758,-8.1940896],[-78.9721178,-8.1937764],[-78.9724664,-8.1934565],[-78.9725965,-8.1933516],[-78.9727803,-8.1932069],[-78.9728969,-8.1931007],[-78.9731853,-8.1928206],[-78.973361,-8.1926521],[-78.9736815,-8.1923879],[-78.9739189,-8.1921875],[-78.9741106,-8.1920056],[-78.974167,-8.1919352],[-78.9741978,-8.1918755],[-78.9742528,-8.1918158],[-78.9743212,-8.1917733],[-78.9744189,-8.1917214],[-78.9744317,-8.1918502],[-78.9744379,-8.1918985],[-78.9744616,-8.1919868],[-78.9747918,-8.1916994],[-78.9762604,-8.1903875],[-78.977104,-8.1896527],[-78.9777131,-8.1891252],[-78.9778718,-8.188994],[-78.9780334,-8.1888662],[-78.9782326,-8.1887162],[-78.9784364,-8.1885722],[-78.9786512,-8.18843],[-78.9788703,-8.1882944],[-78.9796762,-8.1878089],[-78.9800135,-8.1876112],[-78.9811366,-8.1869344],[-78.9816807,-8.1865642],[-78.9820996,-8.1862562],[-78.9829607,-8.1857181],[-78.9834386,-8.185348],[-78.9835014,-8.1853006],[-78.9838579,-8.1850302],[-78.9843343,-8.1846574],[-78.9843743,-8.1846261],[-78.9847937,-8.18431],[-78.985171,-8.1840256],[-78.985485,-8.1837888],[-78.9857628,-8.1835796],[-78.9859392,-8.1834463],[-78.9862423,-8.1832184],[-78.9866084,-8.1829459],[-78.9869702,-8.1826699],[-78.9870026,-8.1826455],[-78.987617,-8.1821469],[-78.9878563,-8.1819666],[-78.9879627,-8.1818864],[-78.9880825,-8.1817961],[-78.9885068,-8.1814764],[-78.9885244,-8.1814631],[-78.9885951,-8.1814099],[-78.988799,-8.1812563],[-78.9888464,-8.1812183],[-78.9897943,-8.1805062],[-78.990355,-8.180064],[-78.9907132,-8.1797815],[-78.9916117,-8.1790864],[-78.9919907,-8.1788042],[-78.9922665,-8.1785825],[-78.9924933,-8.1784063],[-78.9927992,-8.178175],[-78.9934479,-8.1776787],[-78.9940742,-8.1771959],[-78.9943582,-8.176977],[-78.9946323,-8.1767704],[-78.9953105,-8.1762594],[-78.9963904,-8.1754456],[-78.9965864,-8.1752987],[-78.9966637,-8.1752397],[-78.9967693,-8.1751326],[-78.9969085,-8.1750045],[-78.9972067,-8.1747751],[-78.9979997,-8.1741648],[-78.9984757,-8.1737985],[-78.9990962,-8.173321],[-78.9993264,-8.1731438],[-79.0024901,-8.1707091],[-79.0030864,-8.1702502],[-79.0039627,-8.1695759],[-79.0041493,-8.1694343],[-79.0061704,-8.1679089],[-79.006278,-8.1678277],[-79.0064677,-8.1676807],[-79.0072499,-8.1670763],[-79.0073793,-8.1669657],[-79.0076653,-8.1667215],[-79.0080397,-8.1663864],[-79.0084095,-8.1660218],[-79.0086972,-8.1657325],[-79.0088769,-8.1655373],[-79.0090205,-8.1653658],[-79.0094798,-8.1647185],[-79.0098548,-8.1640944],[-79.0101509,-8.1635773],[-79.0101919,-8.1635028],[-79.0102845,-8.1633341],[-79.0105712,-8.1628345],[-79.010879,-8.1623107],[-79.010925,-8.1622311],[-79.0111362,-8.1618604],[-79.0113964,-8.1613999],[-79.0115156,-8.1611902],[-79.0116554,-8.1609444],[-79.0117958,-8.1606966],[-79.0118954,-8.1604781],[-79.0119452,-8.1603371],[-79.0120221,-8.1600782],[-79.0120416,-8.1599615],[-79.0120672,-8.1598126],[-79.0120694,-8.1597513],[-79.0120915,-8.1591505],[-79.0120993,-8.1589398],[-79.0121476,-8.1579277],[-79.0121708,-8.157253],[-79.0122017,-8.1565004],[-79.0122484,-8.15513],[-79.0122754,-8.1543463],[-79.0122833,-8.1541153],[-79.0122746,-8.1539983],[-79.0122597,-8.1538993],[-79.0122367,-8.1537965],[-79.0121951,-8.1536643],[-79.0120601,-8.153278],[-79.01173,-8.152331],[-79.0116444,-8.1520797],[-79.0113438,-8.151192],[-79.0113118,-8.1510902],[-79.0112959,-8.1509934],[-79.011282,-8.1508986],[-79.0112745,-8.1507858],[-79.0112745,-8.1506574],[-79.0116041,-8.149193],[-79.0119253,-8.1476957],[-79.012092,-8.1469544],[-79.0126687,-8.1442104],[-79.012829,-8.1434806],[-79.0130075,-8.1426205],[-79.0130735,-8.1422899],[-79.01318,-8.1418282],[-79.0132921,-8.1415022],[-79.0133839,-8.1413095],[-79.0135221,-8.1410579],[-79.0136466,-8.1408771],[-79.0143929,-8.139793],[-79.0149323,-8.1390096],[-79.0153827,-8.1383654],[-79.0155019,-8.1382013],[-79.0155591,-8.1381267],[-79.0159313,-8.1376406],[-79.0160188,-8.137531],[-79.0160976,-8.1374322],[-79.0161099,-8.1374163],[-79.017034,-8.1362438],[-79.0171069,-8.136148],[-79.0176511,-8.1354601],[-79.0185059,-8.1343871],[-79.0185428,-8.1343409],[-79.0189848,-8.1337876],[-79.0203644,-8.1320606],[-79.0204851,-8.131888],[-79.020587,-8.1317207],[-79.0206429,-8.1315981],[-79.0206794,-8.131505],[-79.0207113,-8.1314102],[-79.0207389,-8.1313033],[-79.020749,-8.1312481],[-79.0207563,-8.1311925],[-79.0207616,-8.1311126],[-79.0207631,-8.1310298],[-79.0207199,-8.1309912],[-79.0206822,-8.1309473],[-79.0206506,-8.130899],[-79.0206289,-8.1308547],[-79.0206072,-8.1307892],[-79.0205961,-8.1307211],[-79.0205959,-8.1306522],[-79.0206066,-8.1305841],[-79.020628,-8.1305185],[-79.0206595,-8.130457],[-79.0206986,-8.1304032],[-79.0207455,-8.1303558],[-79.0207977,-8.1303169],[-79.0208551,-8.1302859],[-79.0209164,-8.1302637],[-79.0209805,-8.1302506],[-79.0210201,-8.1302196],[-79.0210566,-8.1301849],[-79.0210895,-8.130147],[-79.0211257,-8.1300949],[-79.0211516,-8.1300458],[-79.0211676,-8.130004],[-79.0212505,-8.1297668],[-79.02146,-8.1290409],[-79.0214866,-8.128956],[-79.0215762,-8.1286687],[-79.0216643,-8.1283869],[-79.0217822,-8.1280016],[-79.0225886,-8.1253608],[-79.0227545,-8.1247975],[-79.0228404,-8.1245386],[-79.0228833,-8.1243785],[-79.0228885,-8.1243003],[-79.0228724,-8.1242275],[-79.0228344,-8.1241327],[-79.022741,-8.1240583],[-79.0226643,-8.1239672],[-79.0226056,-8.1238588],[-79.0225705,-8.1237408],[-79.0225606,-8.1236181],[-79.0225722,-8.123515],[-79.0226016,-8.1234153],[-79.022648,-8.1233223],[-79.0226302,-8.1232373],[-79.0226174,-8.1231959],[-79.0225965,-8.1231517],[-79.0225738,-8.1231178],[-79.0217142,-8.1223186],[-79.0216371,-8.1222102],[-79.0213509,-8.121947],[-79.0210135,-8.1216482],[-79.0209833,-8.1216215],[-79.0208992,-8.1215398],[-79.0201851,-8.1208454],[-79.0198441,-8.1205092],[-79.01926,-8.1199234],[-79.0191778,-8.1198423],[-79.018871,-8.1194931],[-79.0185844,-8.1191612],[-79.0183603,-8.1189003],[-79.0182148,-8.1187268],[-79.0176554,-8.1180688],[-79.0176132,-8.1180192],[-79.0171913,-8.117523],[-79.016788,-8.1170486],[-79.0164702,-8.116631],[-79.0160971,-8.1161408],[-79.0158589,-8.1158277],[-79.0154267,-8.1152432],[-79.0151665,-8.1148914],[-79.0151129,-8.1148203],[-79.0151912,-8.114755],[-79.0157298,-8.1143352],[-79.0160137,-8.1141165],[-79.0161797,-8.1139905],[-79.0170272,-8.1132558],[-79.017265,-8.113042],[-79.0173228,-8.1129927],[-79.0176897,-8.1126797],[-79.0181131,-8.1123072],[-79.0184084,-8.112046],[-79.0187806,-8.1117241],[-79.0188562,-8.1116538],[-79.0193959,-8.11122],[-79.0197555,-8.1109252],[-79.0198305,-8.110849],[-79.0198844,-8.1107637],[-79.0199456,-8.1105807],[-79.0199847,-8.1103381],[-79.0200585,-8.1101081],[-79.0201281,-8.1100263],[-79.0207451,-8.1094218],[-79.0210417,-8.1091478],[-79.0211058,-8.1090887],[-79.0211581,-8.1090505],[-79.0211988,-8.109029],[-79.0212839,-8.1089991],[-79.0213392,-8.1089943],[-79.0215044,-8.1089834],[-79.021697,-8.1081627],[-79.0219293,-8.1075274],[-79.022106,-8.107286],[-79.0221302,-8.1072668],[-79.0222321,-8.107186],[-79.0222647,-8.1071579],[-79.0228995,-8.1066112],[-79.0229807,-8.1065413],[-79.023038,-8.106491],[-79.0237973,-8.105839],[-79.0240616,-8.1056717],[-79.0240992,-8.1056475],[-79.0241745,-8.1056073],[-79.0242072,-8.105593],[-79.0252425,-8.1053654],[-79.0252809,-8.1053259],[-79.0253116,-8.1052803],[-79.0253337,-8.10523],[-79.0253491,-8.1051517],[-79.0253438,-8.1050722],[-79.0253274,-8.1050522],[-79.0247505,-8.1043546],[-79.0243689,-8.1038931],[-79.0242897,-8.1037973],[-79.0238307,-8.10322],[-79.0238783,-8.1031198],[-79.0242894,-8.1027038],[-79.0251957,-8.1017866],[-79.0258126,-8.1011814],[-79.0259237,-8.1010813],[-79.0263309,-8.1006822],[-79.0258151,-8.1001566],[-79.0252084,-8.0995189],[-79.0248145,-8.0991107],[-79.0246744,-8.0989655],[-79.0243768,-8.098657],[-79.0239917,-8.0982664],[-79.0239204,-8.0981929],[-79.0233787,-8.0976275],[-79.0232006,-8.097462],[-79.0227666,-8.0970207],[-79.022639,-8.0968224],[-79.0225822,-8.0967082],[-79.0222371,-8.0958498],[-79.0220053,-8.0952282],[-79.0218971,-8.0949256],[-79.0218324,-8.0947445],[-79.0217962,-8.0946526],[-79.0218858,-8.0946132],[-79.0223491,-8.0944305],[-79.0228166,-8.0942553],[-79.0228682,-8.094236],[-79.0230846,-8.0941549],[-79.023781,-8.0938842],[-79.024227,-8.093749],[-79.0245066,-8.093704],[-79.0247945,-8.0936876],[-79.0247749,-8.0932552],[-79.0248587,-8.0931106],[-79.025149,-8.093161],[-79.0254246,-8.0931895],[-79.025623,-8.0932185],[-79.0256938,-8.0932357],[-79.0261139,-8.0933274],[-79.0262013,-8.0933386],[-79.0264714,-8.0933572],[-79.026792,-8.0933636],[-79.0268821,-8.0933654],[-79.026985,-8.0933643],[-79.0274989,-8.0933589],[-79.0272875,-8.0924019],[-79.0271703,-8.0919212],[-79.0269979,-8.0912142],[-79.0267693,-8.0902831],[-79.0264734,-8.0890576],[-79.0264899,-8.0889535],[-79.0265659,-8.088357],[-79.0266408,-8.0877699],[-79.026702,-8.0873193],[-79.0267101,-8.0872533],[-79.0267933,-8.0865715],[-79.0268773,-8.0859143],[-79.0269346,-8.0854653],[-79.0269445,-8.0853878],[-79.0269747,-8.0851246],[-79.027063,-8.0844582],[-79.0271266,-8.0838189],[-79.0272024,-8.0831823],[-79.0272867,-8.0824578],[-79.0273748,-8.0817189],[-79.0274893,-8.0810048],[-79.0276213,-8.0802892],[-79.027721,-8.0796161],[-79.0278125,-8.0789474],[-79.0278883,-8.0783708],[-79.0279145,-8.0782042],[-79.0283767,-8.0781625],[-79.0290402,-8.0780404],[-79.0300257,-8.0780583],[-79.030048,-8.0774887],[-79.0300756,-8.0767838],[-79.0300864,-8.0765089],[-79.0301025,-8.076098],[-79.0300973,-8.0758615],[-79.0300766,-8.075326],[-79.0299564,-8.0748599],[-79.0298309,-8.0744759],[-79.0296653,-8.0740095],[-79.0294811,-8.073469],[-79.0294799,-8.0730244],[-79.0294788,-8.072593],[-79.0294787,-8.0725567],[-79.0294784,-8.0724309],[-79.0294807,-8.0723712],[-79.029491,-8.07186],[-79.0295422,-8.0712532],[-79.0296099,-8.0707711],[-79.0297523,-8.0698671],[-79.0302314,-8.0699883],[-79.0307004,-8.0700548],[-79.0311485,-8.0701371],[-79.0314602,-8.0701986],[-79.0318523,-8.0702282],[-79.0323184,-8.0702486],[-79.0327793,-8.0702452],[-79.0327939,-8.0694022],[-79.0328713,-8.0693165],[-79.0328807,-8.0684289],[-79.0328859,-8.0679323],[-79.0328883,-8.0678495],[-79.032943,-8.0664206],[-79.0329683,-8.0649501],[-79.0329738,-8.0638287],[-79.0326961,-8.0637892],[-79.0327719,-8.0633752],[-79.0326969,-8.0629845],[-79.0323436,-8.062902],[-79.0321708,-8.0628599],[-79.0321898,-8.0625811],[-79.0321523,-8.0624244],[-79.0321044,-8.0623628],[-79.0320182,-8.0622518]],"nodes":[13387696948,5072494779,1098620524,1098599090,7949542625,1098596124,1098635332,5081940964,3209507927,5081940965,11030181016,11030181023,5390455603,3208428724,3208428727,1098591560,5390456273,3208428721,1098598518,1098608419,3208428719,3209507708,1098620163,3208428717,1098629607,5390456224,3208428714,1098641190,11028373370,5081663292,1098620771,12077203799,1098630146,5081663288,288409726,3209521697,11028360475,5081663289,3728277856,5081663290,5081663291,3728277857,3209524436,5081663262,5081663260,7903947686,7903947711,7903947712,7903947713,7903947714,7903947715,7903947716,7903947717,7903947718,7903947719,7903947720,7903947721,7903947722,7903947689,7903947723,7903947692,7903947710,7903947709,7903947708,7903947707,7903948004,7903947706,7903947705,7903947704,7903947703,7903947702,7903947701,7903947700,7903947699,7903947698,7903947697,7903947696,7903947695,7903947688,7903947687,5081663259,7903947686,5081663260,5081663267,8268696456,5081663300,10934934313,10934934312,5081663299,10934934315,5081663298,10934934314,5081663297,5081663311,5081663296,5081663295,5081663294,5081663293,5081663292,11028373370,1098641190,3208428714,5390456224,1098629607,3208428717,1098620163,3209507708,3208428719,1098608419,1098598518,3208428721,5390456273,1098591560,3208428727,3208428724,5390455603,11030181023,11030181016,5081940965,3209507927,5081940964,1098635332,1098596124,7949542625,1098599090,1098620524,5072494779,13387696948,1098609292,5072494780,1098598884,5072494781,1098635985,5072494782,1098625711,316492404,1145579870,288406663,316257656,316264701,12077636348,11030073495,11030073488,11319862294,5037301938,8660514759,8660514760,3728277779,5072494783,13172466845,1093015489,5072494746,5072432985,8763928785,316264700,5072432983,316264699,316264698,316264697,5072432980,4858052141,4858052143,5072494725,13137604191,5072444250,1145579813,5072494785,5072494722,4858049420,4858050022,5072494659,4858049418,5072494657,316264696,1145579854,4858049416,316264694,11030326607,7113004005,11104988597,5072494723,5082686317,1145579825,1145579831,5082686315,13137419532,316264693,5072509547,316264692,1145579886,5072509545,5082686313,5467941865,5072509548,316264691,5072509549,5072509553,316264690,5072509551,316264689,1098604811,11028564810,11028473002,4858049408,334650026,334650028,5082686287,11028472995,316264686,11028617402,316264685,11028617397,11028625413,1098603712,5082686319,5473927283,11028573864,5082686318,11028573855,5082689982,5473927261,5082686320,5473927270,5082686256,5082686254,5082156673,5082689990,316264930,2549352845,316264929,8624588281,10823604381,2549352846,10823604379,10823604378,10823604380,10823604377,2549352825,316254532,10823604369,8624588278,5082434461,316254533,10823604370,1538275888,10823604371,316254534,320113110,316254535,5082434453,2549352808,10823604372,2549352804,316254536,10823604362,10823604361,2549352850,10823604360,10823604363,10823604359,1098640722,5082689991,11114421896,11114421898,1098619862,1098591271,1098586330,1050893960,1538275857,316254967,3670684015,3670684014,316254426,316254427,1098644892,3670684727,316254428,1098632617,316254429,6195970422,316265440,3670684737,5082434193,316265439,3670684740,3670684741,3670684736,1098612747,13084463942,1098623435,13084463951,320114999,1098606836,1098594518,1538242472,1098645087,316265127,1098645687,11033205297,11102649340,11102649332,11102649335,1015347837,320114994,1098629210,1015292420,11037619757,1088227229,316265123,316265118,1098640177,5070217725,1098628893,1098619098,1098607771,5088965891,1098598150,1015347765,1026647179,1088227261,1088227460,1098598192,1015347766,2482977903,1015347768,1015347770,1015347771,1015347773,1015347774,1015347776,1015347777,2589631597,11037375452,1015347778,1015347779,5101476426,1287009849,1051000299,1287009779,1287009840,11037529613,2573525833,5582931366,8109317247,1098589553,8109317246,2573525831,316264050,12987860959,1088227426,1088227269,1802823281,5079220649,5079220648,9829891063,5079220650,2573525827,11016646714,5037697942,5079310738,9218464776,2481283834,1802823261,1098622265,1098632727,1098621882,1098632100,1088227374,5073680417,1098637426,11037482651,1098599704,2481314530,1088227340,1088227291,1098587164,1098587039,1098643723,1028951771,1051036017,1028951754,2481251246,11032940511,2481251264,2481251300,2481251299,1088227390,5483089724,11032795715,11032795712,1098604016,5071955846,316265092,1268310331,1268310382,1098635227,10733716085,10733716086,9727770474,1098596796,1098587369,1098644599,5483080326,11032383236,1098596951,11032383233,5089356949,5483053653,5483053656,5432138655,5483053673,5483037408,5483033913,5483033914,5456218883,10735691977,5483033915,5483033916,1098583882,8723520858,8723520859,1098627498,5483033917,5483033918,5483033919,1098589041,5456201439,5456201438,5456201437,5456201436,1098639976,1098628710,1098618701,1098598707,5483392766,1098625463,5483391120,1098625398,4437242771,3290788668,1098605575,1098596962,1098587943,1098609117,5432216553,5483391632,1098620131,12898734157,1098608387,4442749840,12898734171,1098642177,1098624124,1098601888,5456236184,1098640433,5483422314,1098595868,12067143571,1098586095,5456236183,1098602747,10735400712,1098648165,10956626957,10735401690,2339886041,2339886105,2339884503,3112071201,5483458622,5483458621,5483457820,3135885804,5483457819,5483457818,5483457817,8100761923,5483457816]},"gtfs":{"agency_id":31,"route_id":68,"services":[{"service_id":"Mo-Su","startTime":"05:00","endTime":"23:00","trip_id":19972466}],"filteredStops":{"nodes":[13387696948,13546546089,13546545303,13546545284,13546546075,13546546082,13546546083,13546546126,13546545296,13546545297,13546546086,13546546106,13546545333,13546546110,13546546111,13546546090,13546546103,13546545325,13546545332,13546546109,13546545298,13546545338,5082686253,13546546120,13546545143,13546545942,13546545940,11910518853,13546545239,13546545237,13546546051,13546545954,13546545991,13546545988,5099494790,4937067022,13546545112,13546545877,13546535060,13546545245,13546545268,13546545580,13546545579,13546545578,13546545577,13546545576,13546545555,13546545554,13546545842,13546545840,5483457816],"coordinates":[[-78.9922665,-8.1785825],[-78.9921884,-8.178774],[-78.9894656,-8.1809281],[-78.9838078,-8.1852327],[-78.9795803,-8.1882321],[-78.9741267,-8.1921699],[-78.9712951,-8.1946849],[-78.9810193,-8.186894],[-78.9831312,-8.1853963],[-78.9893114,-8.1807516],[-78.9921911,-8.1785533],[-78.9966442,-8.1750777],[-78.9988574,-8.1734734],[-79.0060541,-8.1678853],[-79.0087473,-8.1655834],[-79.0116043,-8.1608797],[-79.0121467,-8.1564809],[-79.0118688,-8.1528574],[-79.0116854,-8.1487098],[-79.0125973,-8.1442256],[-79.0142003,-8.1399451],[-79.0164493,-8.1369074],[-79.0190363,-8.1336578],[-79.0204793,-8.1317103],[-79.0213849,-8.1292768],[-79.0221161,-8.1268947],[-79.0228417,-8.1243768],[-79.0213577,-8.1220046],[-79.0194521,-8.1202261],[-79.017404,-8.1178747],[-79.0152931,-8.1151359],[-79.0199348,-8.1099981],[-79.0210214,-8.1091442],[-79.0216367,-8.1082618],[-79.0220781,-8.1072731],[-79.0240072,-8.1056158],[-79.0250005,-8.1046834],[-79.0244177,-8.0987275],[-79.0224672,-8.096475],[-79.023311,-8.0940285],[-79.026927,-8.0909589],[-79.0265223,-8.088695],[-79.0267987,-8.0863649],[-79.0270852,-8.0841867],[-79.0273156,-8.0821844],[-79.027623,-8.0799614],[-79.0300411,-8.0756145],[-79.0294648,-8.0728057],[-79.029646,-8.0701273],[-79.0328693,-8.0669381],[-79.0320182,-8.0622518]]},"forcedEndpointStops":[{"stop_id":13387696948,"stop_name":"Panamericana Norte","position":"first"},{"stop_id":5483457816,"stop_name":"Sin nombre","position":"last"}]}},{"type":"Feature","properties":{"bus":"yes","highway":"bus_stop","network":"Transporte Público Urbano Trujillo","public_transport":"platform","ref":"PM-91","source":"Gerencia de Transporte Metropolitano de Trujillo","id":13546546089},"geometry":{"type":"Point","coordinates":[-78.9921884,-8.178774]}},{"type":"Feature","properties":{"bus":"yes","highway":"bus_stop","network":"Transporte Público Urbano Trujillo","public_transport":"platform","ref":"PM-92","source":"Gerencia de Transporte Metropolitano de Trujillo","id":13546545303},"geometry":{"type":"Point","coordinates":[-78.9894656,-8.1809281]}},{"type":"Feature","properties":{"bus":"yes","highway":"bus_stop","network":"Transporte Público Urbano Trujillo","public_transport":"platform","ref":"PS-4","source":"Gerencia de Transporte Metropolitano de Trujillo","id":13546545284},"geometry":{"type":"Point","coordinates":[-78.9838078,-8.1852327]}},{"type":"Feature","properties":{"bus":"yes","highway":"bus_stop","network":"Transporte Público Urbano Trujillo","public_transport":"platform","ref":"PS-64","source":"Gerencia de Transporte Metropolitano de Trujillo","id":13546546075},"geometry":{"type":"Point","coordinates":[-78.9795803,-8.1882321]}},{"type":"Feature","properties":{"bus":"yes","highway":"bus_stop","network":"Transporte Público Urbano Trujillo","public_transport":"platform","ref":"PS-29","source":"Gerencia de Transporte Metropolitano de Trujillo","id":13546546082},"geometry":{"type":"Point","coordinates":[-78.9741267,-8.1921699]}},{"type":"Feature","properties":{"bus":"yes","highway":"bus_stop","network":"Transporte Público Urbano Trujillo","public_transport":"platform","ref":"PS-28","source":"Gerencia de Transporte Metropolitano de Trujillo","id":13546546083},"geometry":{"type":"Point","coordinates":[-78.9712951,-8.1946849]}},{"type":"Feature","properties":{"bus":"yes","highway":"bus_stop","network":"Transporte Público Urbano Trujillo","public_transport":"platform","ref":"PM-100","source":"Gerencia de Transporte Metropolitano de Trujillo","id":13546546126},"geometry":{"type":"Point","coordinates":[-78.9810193,-8.186894]}},{"type":"Feature","properties":{"bus":"yes","highway":"bus_stop","network":"Transporte Público Urbano Trujillo","public_transport":"platform","ref":"PM-SC6","source":"Gerencia de Transporte Metropolitano de Trujillo","id":13546545296},"geometry":{"type":"Point","coordinates":[-78.9831312,-8.1853963]}},{"type":"Feature","properties":{"bus":"yes","highway":"bus_stop","network":"Transporte Público Urbano Trujillo","public_transport":"platform","ref":"PM-SC4","source":"Gerencia de Transporte Metropolitano de Trujillo","id":13546545297},"geometry":{"type":"Point","coordinates":[-78.9893114,-8.1807516]}},{"type":"Feature","properties":{"bus":"yes","highway":"bus_stop","network":"Transporte Público Urbano Trujillo","public_transport":"platform","ref":"PM-SC3","source":"Gerencia de Transporte Metropolitano de Trujillo","id":13546546086},"geometry":{"type":"Point","coordinates":[-78.9921911,-8.1785533]}},{"type":"Feature","properties":{"bus":"yes","highway":"bus_stop","network":"Transporte Público Urbano Trujillo","public_transport":"platform","ref":"PM-36","source":"Gerencia de Transporte Metropolitano de Trujillo","id":13546546106},"geometry":{"type":"Point","coordinates":[-78.9966442,-8.1750777]}},{"type":"Feature","properties":{"bus":"yes","highway":"bus_stop","network":"Transporte Público Urbano Trujillo","public_transport":"platform","ref":"PM-26","source":"Gerencia de Transporte Metropolitano de Trujillo","id":13546545333},"geometry":{"type":"Point","coordinates":[-78.9988574,-8.1734734]}},{"type":"Feature","properties":{"bus":"yes","highway":"bus_stop","network":"Transporte Público Urbano Trujillo","public_transport":"platform","ref":"PM-24","source":"Gerencia de Transporte Metropolitano de Trujillo","id":13546546110},"geometry":{"type":"Point","coordinates":[-79.0060541,-8.1678853]}},{"type":"Feature","properties":{"bus":"yes","highway":"bus_stop","network":"Transporte Público Urbano Trujillo","public_transport":"platform","ref":"PM-23","source":"Gerencia de Transporte Metropolitano de Trujillo","id":13546546111},"geometry":{"type":"Point","coordinates":[-79.0087473,-8.1655834]}},{"type":"Feature","properties":{"bus":"yes","highway":"bus_stop","network":"Transporte Público Urbano Trujillo","public_transport":"platform","ref":"PM-9","source":"Gerencia de Transporte Metropolitano de Trujillo","id":13546546090},"geometry":{"type":"Point","coordinates":[-79.0116043,-8.1608797]}},{"type":"Feature","properties":{"bus":"yes","highway":"bus_stop","network":"Transporte Público Urbano Trujillo","public_transport":"platform","ref":"PM-41","source":"Gerencia de Transporte Metropolitano de Trujillo","id":13546546103},"geometry":{"type":"Point","coordinates":[-79.0121467,-8.1564809]}},{"type":"Feature","properties":{"bus":"yes","highway":"bus_stop","network":"Transporte Público Urbano Trujillo","public_transport":"platform","ref":"PM-40","source":"Gerencia de Transporte Metropolitano de Trujillo","id":13546545325},"geometry":{"type":"Point","coordinates":[-79.0118688,-8.1528574]}},{"type":"Feature","properties":{"bus":"yes","highway":"bus_stop","network":"Transporte Público Urbano Trujillo","public_transport":"platform","ref":"PM-28","source":"Gerencia de Transporte Metropolitano de Trujillo","id":13546545332},"geometry":{"type":"Point","coordinates":[-79.0116854,-8.1487098]}},{"type":"Feature","properties":{"bus":"yes","highway":"bus_stop","network":"Transporte Público Urbano Trujillo","public_transport":"platform","ref":"PM-27","source":"Gerencia de Transporte Metropolitano de Trujillo","id":13546546109},"geometry":{"type":"Point","coordinates":[-79.0125973,-8.1442256]}},{"type":"Feature","properties":{"bus":"yes","highway":"bus_stop","network":"Transporte Público Urbano Trujillo","public_transport":"platform","ref":"PM-SC-01","source":"Gerencia de Transporte Metropolitano de Trujillo","id":13546545298},"geometry":{"type":"Point","coordinates":[-79.0142003,-8.1399451]}},{"type":"Feature","properties":{"bus":"yes","highway":"bus_stop","network":"Transporte Público Urbano Trujillo","public_transport":"platform","ref":"PM-122","source":"Gerencia de Transporte Metropolitano de Trujillo","id":13546545338},"geometry":{"type":"Point","coordinates":[-79.0164493,-8.1369074]}},{"type":"Feature","properties":{"advertising":"no","bench":"yes","bicycle_parking":"no","bin":"no","bus":"yes","departures_board":"no","highway":"bus_stop","level":"0","lit":"no","name":"Panamericana Norte","network":"Transporte Público Urbano Trujillo","passenger_information_display:speech_output":"no","public_transport":"platform","ramp":"no","ref":"PM-121","shelter":"yes","source":"Reconocimiento terrestre cartográfico realizado por Kaart en 2017","tactile_paving":"no","tactile_writing:braille:es":"no","id":5082686253},"geometry":{"type":"Point","coordinates":[-79.0190363,-8.1336578]}},{"type":"Feature","properties":{"bus":"yes","highway":"bus_stop","network":"Transporte Público Urbano Trujillo","public_transport":"platform","ref":"PM-120","source":"Gerencia de Transporte Metropolitano de Trujillo","id":13546546120},"geometry":{"type":"Point","coordinates":[-79.0204793,-8.1317103]}},{"type":"Feature","properties":{"bus":"yes","highway":"bus_stop","network":"Transporte Público Urbano Trujillo","public_transport":"platform","ref":"LAM-416","source":"Gerencia de Transporte Metropolitano de Trujillo","id":13546545143},"geometry":{"type":"Point","coordinates":[-79.0213849,-8.1292768]}},{"type":"Feature","properties":{"bus":"yes","highway":"bus_stop","network":"Transporte Público Urbano Trujillo","public_transport":"platform","ref":"LAM-412","source":"Gerencia de Transporte Metropolitano de Trujillo","id":13546545942},"geometry":{"type":"Point","coordinates":[-79.0221161,-8.1268947]}},{"type":"Feature","properties":{"bus":"yes","highway":"bus_stop","network":"Transporte Público Urbano Trujillo","public_transport":"platform","ref":"LAM-414","source":"Gerencia de Transporte Metropolitano de Trujillo","id":13546545940},"geometry":{"type":"Point","coordinates":[-79.0228417,-8.1243768]}},{"type":"Feature","properties":{"advertising":"no","bench":"no","bicycle_parking":"no","bin":"no","bus":"yes","departures_board":"no","highway":"bus_stop","level":"0","lit":"yes","name":"Calle Calcuchimac","network":"Transporte Público Urbano Trujillo","passenger_information_display:speech_output":"no","pole":"yes","public_transport":"platform","ramp":"yes","ref":"AMS-52","shelter":"no","source:ref":"Gerencia de Transporte Metropolitano de Trujillo","tactile_paving":"no","tactile_writing:braille:es":"no","id":11910518853},"geometry":{"type":"Point","coordinates":[-79.0213577,-8.1220046]}},{"type":"Feature","properties":{"bus":"yes","highway":"bus_stop","network":"Transporte Público Urbano Trujillo","public_transport":"platform","ref":"AMS-54","source":"Gerencia de Transporte Metropolitano de Trujillo","id":13546545239},"geometry":{"type":"Point","coordinates":[-79.0194521,-8.1202261]}},{"type":"Feature","properties":{"bus":"yes","highway":"bus_stop","network":"Transporte Público Urbano Trujillo","public_transport":"platform","ref":"AMS-56","source":"Gerencia de Transporte Metropolitano de Trujillo","id":13546545237},"geometry":{"type":"Point","coordinates":[-79.017404,-8.1178747]}},{"type":"Feature","properties":{"bus":"yes","highway":"bus_stop","network":"Transporte Público Urbano Trujillo","public_transport":"platform","ref":"AMS-41","source":"Gerencia de Transporte Metropolitano de Trujillo","id":13546546051},"geometry":{"type":"Point","coordinates":[-79.0152931,-8.1151359]}},{"type":"Feature","properties":{"bus":"yes","highway":"bus_stop","network":"Transporte Público Urbano Trujillo","public_transport":"platform","ref":"JOSA-520","source":"Gerencia de Transporte Metropolitano de Trujillo","id":13546545954},"geometry":{"type":"Point","coordinates":[-79.0199348,-8.1099981]}},{"type":"Feature","properties":{"bus":"yes","highway":"bus_stop","network":"Transporte Público Urbano Trujillo","public_transport":"platform","ref":"EGR-266","source":"Gerencia de Transporte Metropolitano de Trujillo","id":13546545991},"geometry":{"type":"Point","coordinates":[-79.0210214,-8.1091442]}},{"type":"Feature","properties":{"bus":"yes","highway":"bus_stop","network":"Transporte Público Urbano Trujillo","public_transport":"platform","ref":"ESP-8","source":"Gerencia de Transporte Metropolitano de Trujillo","id":13546545988},"geometry":{"type":"Point","coordinates":[-79.0216367,-8.1082618]}},{"type":"Feature","properties":{"advertising":"yes","bench":"yes","bicycle_parking":"no","bin":"no","bus":"yes","departures_board":"no","highway":"bus_stop","level":"0","lit":"yes","name":"Avenida Perú","network":"Transporte Público Urbano Trujillo","passenger_information_display:speech_output":"no","pole":"yes","public_transport":"platform","ramp":"no","ref":"ESP-10","shelter":"yes","source":"Reconocimiento terrestre cartográfico realizado por Kaart en 2017","tactile_paving":"no","tactile_writing:braille:es":"no","id":5099494790},"geometry":{"type":"Point","coordinates":[-79.0220781,-8.1072731]}},{"type":"Feature","properties":{"advertising":"yes","bench":"yes","bicycle_parking":"no","bin":"no","bus":"yes","departures_board":"no","highway":"bus_stop","level":"0","lit":"yes","name":"Avenida Del Ejército","name:de":"Bus B nach Chan Chan und Huanchaco","name:en":"Bus B to Chan Chan and Huanchaco","network":"Transporte Público Urbano Trujillo","passenger_information_display:speech_output":"no","pole":"yes","public_transport":"platform","ramp":"no","ref":"ESP-12","shelter":"yes","source:ref":"Gerencia de Transporte Metropolitano de Trujillo","tactile_paving":"no","tactile_writing:braille:es":"no","id":4937067022},"geometry":{"type":"Point","coordinates":[-79.0240072,-8.1056158]}},{"type":"Feature","properties":{"bus":"yes","highway":"bus_stop","network":"Transporte Público Urbano Trujillo","public_transport":"platform","ref":"MRFT-166","source":"Gerencia de Transporte Metropolitano de Trujillo","id":13546545112},"geometry":{"type":"Point","coordinates":[-79.0250005,-8.1046834]}},{"type":"Feature","properties":{"bus":"yes","highway":"bus_stop","network":"Transporte Público Urbano Trujillo","public_transport":"platform","ref":"SALVLA-302","source":"Gerencia de Transporte Metropolitano de Trujillo","id":13546545877},"geometry":{"type":"Point","coordinates":[-79.0244177,-8.0987275]}},{"type":"Feature","properties":{"bus":"yes","highway":"bus_stop","network":"Transporte Público Urbano Trujillo","public_transport":"platform","ref":"SALVLA-304","source":"Gerencia de Transporte Metropolitano de Trujillo","id":13546535060},"geometry":{"type":"Point","coordinates":[-79.0224672,-8.096475]}},{"type":"Feature","properties":{"bus":"yes","highway":"bus_stop","network":"Transporte Público Urbano Trujillo","public_transport":"platform","ref":"AMN-32","source":"Gerencia de Transporte Metropolitano de Trujillo","id":13546545245},"geometry":{"type":"Point","coordinates":[-79.023311,-8.0940285]}},{"type":"Feature","properties":{"bus":"yes","highway":"bus_stop","network":"Transporte Público Urbano Trujillo","public_transport":"platform","ref":"AK-455","source":"Gerencia de Transporte Metropolitano de Trujillo","id":13546545268},"geometry":{"type":"Point","coordinates":[-79.026927,-8.0909589]}},{"type":"Feature","properties":{"bus":"yes","highway":"bus_stop","network":"Transporte Público Urbano Trujillo","public_transport":"platform","ref":"PFM-39","source":"Gerencia de Transporte Metropolitano de Trujillo","id":13546545580},"geometry":{"type":"Point","coordinates":[-79.0265223,-8.088695]}},{"type":"Feature","properties":{"bus":"yes","highway":"bus_stop","network":"Transporte Público Urbano Trujillo","public_transport":"platform","ref":"PFM-41","source":"Gerencia de Transporte Metropolitano de Trujillo","id":13546545579},"geometry":{"type":"Point","coordinates":[-79.0267987,-8.0863649]}},{"type":"Feature","properties":{"bus":"yes","highway":"bus_stop","network":"Transporte Público Urbano Trujillo","public_transport":"platform","ref":"PFM-42","source":"Gerencia de Transporte Metropolitano de Trujillo","id":13546545578},"geometry":{"type":"Point","coordinates":[-79.0270852,-8.0841867]}},{"type":"Feature","properties":{"bus":"yes","highway":"bus_stop","network":"Transporte Público Urbano Trujillo","public_transport":"platform","ref":"PFM-43","source":"Gerencia de Transporte Metropolitano de Trujillo","id":13546545577},"geometry":{"type":"Point","coordinates":[-79.0273156,-8.0821844]}},{"type":"Feature","properties":{"bus":"yes","highway":"bus_stop","network":"Transporte Público Urbano Trujillo","public_transport":"platform","ref":"PFM-44","source":"Gerencia de Transporte Metropolitano de Trujillo","id":13546545576},"geometry":{"type":"Point","coordinates":[-79.027623,-8.0799614]}},{"type":"Feature","properties":{"bus":"yes","highway":"bus_stop","network":"Transporte Público Urbano Trujillo","public_transport":"platform","ref":"PFM-92","source":"Gerencia de Transporte Metropolitano de Trujillo","id":13546545555},"geometry":{"type":"Point","coordinates":[-79.0300411,-8.0756145]}},{"type":"Feature","properties":{"bus":"yes","highway":"bus_stop","network":"Transporte Público Urbano Trujillo","public_transport":"platform","ref":"PFM-94","source":"Gerencia de Transporte Metropolitano de Trujillo","id":13546545554},"geometry":{"type":"Point","coordinates":[-79.0294648,-8.0728057]}},{"type":"Feature","properties":{"bus":"yes","highway":"bus_stop","network":"Transporte Público Urbano Trujillo","public_transport":"platform","ref":"PAT-135","source":"Gerencia de Transporte Metropolitano de Trujillo","id":13546545842},"geometry":{"type":"Point","coordinates":[-79.029646,-8.0701273]}},{"type":"Feature","properties":{"bus":"yes","highway":"bus_stop","network":"Transporte Público Urbano Trujillo","public_transport":"platform","ref":"PAT-140","source":"Gerencia de Transporte Metropolitano de Trujillo","id":13546545840},"geometry":{"type":"Point","coordinates":[-79.0328693,-8.0669381]}}]}