{"type":"FeatureCollection","features":[{"type":"Feature","properties":{"check_date":"2025-12-17","colour":"#000099","colour:text":"#FFFFFF","fee":"yes","from":"Avenida Circunvalación","hash":"5738","interval":"4","name":"Avenida Circunvalación → Avenida José María Eguren","network":"Transporte Público Urbano Trujillo","opening_hours":"Mo-Su 05:00-23:00","operator":"CABALLITO DE TOTORA S.A.","public_transport:version":"2","ref":"C-27 B","route":"bus","survey:avg_speed:kmh":"20","to":"Avenida José María Eguren","type":"route","id":19972130},"geometry":{"type":"LineString","coordinates":[[-79.1193472,-8.0733842],[-79.1192402,-8.0737109],[-79.1191316,-8.0743005],[-79.1190022,-8.075068],[-79.1189908,-8.0752976],[-79.1189861,-8.0755354],[-79.1190154,-8.0757872],[-79.1190551,-8.076079],[-79.1191367,-8.0767282],[-79.1191569,-8.0767872],[-79.1191951,-8.076862],[-79.1196184,-8.0775321],[-79.1197713,-8.0777355],[-79.1198974,-8.0779373],[-79.1201066,-8.0782201],[-79.1202403,-8.0783663],[-79.1203417,-8.0784772],[-79.1208399,-8.0788983],[-79.1212588,-8.0793861],[-79.1221281,-8.0805668],[-79.1224665,-8.0809776],[-79.1225116,-8.0810314],[-79.1226291,-8.0812114],[-79.122688,-8.0812675],[-79.1227476,-8.081356],[-79.1228487,-8.0815331],[-79.1230056,-8.0818368],[-79.1230983,-8.0820566],[-79.1231528,-8.082186],[-79.1232259,-8.082527],[-79.1232769,-8.0830311],[-79.1232817,-8.0832778],[-79.1232739,-8.083546],[-79.1232468,-8.0837863],[-79.1232131,-8.0840127],[-79.1231967,-8.0841084],[-79.1231731,-8.0842249],[-79.1231214,-8.0844541],[-79.1230371,-8.0846795],[-79.1229311,-8.0848946],[-79.1228323,-8.085076],[-79.1227559,-8.0851999],[-79.1227055,-8.0852817],[-79.1223123,-8.0858054],[-79.122084,-8.0860903],[-79.1217488,-8.0865029],[-79.1211468,-8.0872407],[-79.1205734,-8.0879434],[-79.1195487,-8.0892087],[-79.1193545,-8.0894485],[-79.1192093,-8.0896278],[-79.118994,-8.0898936],[-79.1180044,-8.0911155],[-79.1176418,-8.0915482],[-79.1173764,-8.0918733],[-79.1139161,-8.0961116],[-79.1135979,-8.0964571],[-79.1131099,-8.0968345],[-79.1126855,-8.0970633],[-79.1122043,-8.0972388],[-79.111742,-8.0973602],[-79.1114505,-8.0974051],[-79.1112144,-8.0974237],[-79.1110796,-8.0974246],[-79.1108054,-8.0974078],[-79.1105287,-8.0973775],[-79.1100689,-8.0972721],[-79.1095297,-8.0970757],[-79.1091382,-8.096866],[-79.1089631,-8.0967585],[-79.1086434,-8.0964884],[-79.1085927,-8.0964516],[-79.1084988,-8.0963523],[-79.1084353,-8.0962742],[-79.1083991,-8.0962296],[-79.1080706,-8.0958115],[-79.1076827,-8.0953309],[-79.1073084,-8.0948671],[-79.1060813,-8.0933446],[-79.1055498,-8.0926852],[-79.1053269,-8.0924086],[-79.1050745,-8.0920954],[-79.104766,-8.0917126],[-79.1046549,-8.0915699],[-79.104413,-8.0912592],[-79.103389,-8.0900011],[-79.1016626,-8.0878118],[-79.1013322,-8.0874904],[-79.1010298,-8.0872646],[-79.1006695,-8.0870542],[-79.1003838,-8.0869248],[-79.1000893,-8.0868218],[-79.0998357,-8.0867555],[-79.0995536,-8.0867056],[-79.0992162,-8.0866721],[-79.0990218,-8.0866665],[-79.0988211,-8.0866711],[-79.098398,-8.0867157],[-79.0978698,-8.0868588],[-79.0975445,-8.0869736],[-79.097352,-8.0870672],[-79.0971696,-8.0872147],[-79.0970618,-8.0873182],[-79.0970113,-8.0873668],[-79.0968664,-8.0874869],[-79.0967991,-8.0875826],[-79.0967387,-8.0876403],[-79.0966693,-8.087687],[-79.0965928,-8.0877214],[-79.0965116,-8.0877424],[-79.096428,-8.0877495],[-79.0963443,-8.0877425],[-79.0962631,-8.0877215],[-79.0961892,-8.0876886],[-79.0961249,-8.0876406],[-79.096027,-8.0876201],[-79.0958966,-8.087601],[-79.0957517,-8.087603],[-79.0956134,-8.08763],[-79.0954817,-8.0876696],[-79.0952703,-8.0877416],[-79.0951931,-8.0877653],[-79.0935344,-8.0882704],[-79.0928688,-8.0885041],[-79.0928566,-8.0885083],[-79.0927291,-8.0885519],[-79.092358,-8.0886713],[-79.0921857,-8.088729],[-79.091761,-8.0888712],[-79.0911145,-8.0890876],[-79.0909959,-8.0891266],[-79.0906787,-8.0892308],[-79.0905793,-8.0892635],[-79.0899724,-8.089463],[-79.089877,-8.0894944],[-79.0896467,-8.0895701],[-79.0893202,-8.0896773],[-79.0886055,-8.0899142],[-79.0883407,-8.0899993],[-79.0881509,-8.0900617],[-79.0878424,-8.0901631],[-79.0875731,-8.0902516],[-79.0872013,-8.0903725],[-79.086564,-8.0905805],[-79.0852898,-8.0909965],[-79.0843068,-8.0913152],[-79.0836019,-8.0915453],[-79.0830125,-8.0917351],[-79.0826372,-8.0918572],[-79.0821193,-8.0920429],[-79.0819293,-8.0920975],[-79.0816959,-8.0921635],[-79.0815178,-8.0922107],[-79.0811987,-8.092283],[-79.0788696,-8.0927391],[-79.0776584,-8.0929879],[-79.0759121,-8.0933703],[-79.0758211,-8.0933912],[-79.0756274,-8.0934352],[-79.074618,-8.0936316],[-79.0735358,-8.0938833],[-79.0731579,-8.0940154],[-79.0727884,-8.0941674],[-79.0724929,-8.094315],[-79.0720135,-8.0946223],[-79.0716768,-8.094915],[-79.0712852,-8.0953024],[-79.0695464,-8.0972747],[-79.069358,-8.0974713],[-79.0689179,-8.097966],[-79.0683759,-8.0984749],[-79.0681705,-8.0986401],[-79.068066,-8.0987205],[-79.0679538,-8.0987933],[-79.0678417,-8.0988621],[-79.0677205,-8.0989322],[-79.0674239,-8.0990689],[-79.0669602,-8.0992447],[-79.0664623,-8.0993825],[-79.0651914,-8.0996676],[-79.0637256,-8.0999968],[-79.0636457,-8.1000146],[-79.0634189,-8.1000651],[-79.0624767,-8.1002542],[-79.0621464,-8.1003205],[-79.0619992,-8.1003454],[-79.0611706,-8.100508],[-79.0604102,-8.1006738],[-79.0596369,-8.1008519],[-79.0593082,-8.1009136],[-79.0590247,-8.1009667],[-79.0583972,-8.1010715],[-79.0576599,-8.1010661],[-79.0573634,-8.1010644],[-79.0570315,-8.1010528],[-79.0564653,-8.1010271],[-79.0559612,-8.1010059],[-79.0558023,-8.100996],[-79.0554769,-8.1009772],[-79.054763,-8.1009459],[-79.0540237,-8.1009134],[-79.0537311,-8.1009033],[-79.0532525,-8.1008868],[-79.0529489,-8.1008763],[-79.0521027,-8.1008526],[-79.0517247,-8.100842],[-79.0512521,-8.1008287],[-79.0503593,-8.1008178],[-79.0502604,-8.1008257],[-79.0498062,-8.1008733],[-79.0493216,-8.1008776],[-79.0491776,-8.100879],[-79.0484092,-8.1008863],[-79.0481827,-8.1008879],[-79.048041,-8.100888],[-79.047306,-8.10097],[-79.0464375,-8.1010669],[-79.0455221,-8.1012535],[-79.0452564,-8.1013077],[-79.0451927,-8.1013215],[-79.0451142,-8.1013367],[-79.0449748,-8.1013651],[-79.044493,-8.1014696],[-79.0443739,-8.1014935],[-79.0437825,-8.1016247],[-79.0433215,-8.101727],[-79.0429163,-8.1018169],[-79.0422055,-8.1019746],[-79.0417087,-8.10206],[-79.0415762,-8.1020864],[-79.0413616,-8.1021367],[-79.0411635,-8.1021871],[-79.041065,-8.1022187],[-79.0406388,-8.1023554],[-79.0395627,-8.1027305],[-79.0394122,-8.102805],[-79.0388679,-8.1030928],[-79.0382654,-8.1034053],[-79.0379433,-8.10357],[-79.037563,-8.1037699],[-79.0369493,-8.1040795],[-79.0369787,-8.1041495],[-79.0368396,-8.1042254],[-79.0367014,-8.1043007],[-79.0363244,-8.1045064],[-79.0358117,-8.104786],[-79.0357479,-8.1048306],[-79.0356973,-8.1048961],[-79.0356934,-8.104972],[-79.0357223,-8.1050351],[-79.0357485,-8.1050922],[-79.0358273,-8.1052641],[-79.036067,-8.1057871],[-79.0360628,-8.1059386],[-79.0360093,-8.1060806],[-79.0359121,-8.1061977],[-79.0357432,-8.1062661],[-79.0350196,-8.1065542],[-79.0348029,-8.1066426],[-79.0346315,-8.1062338],[-79.034577,-8.106088],[-79.0344286,-8.1057476],[-79.034357,-8.1056272],[-79.0341,-8.1051369],[-79.0340465,-8.105045],[-79.033676,-8.1043483],[-79.0335809,-8.1041736],[-79.0334656,-8.1039459],[-79.0333407,-8.1037136],[-79.0329633,-8.1030211],[-79.0323119,-8.1033797],[-79.032176,-8.1034608],[-79.0319955,-8.103592],[-79.0316917,-8.1038627],[-79.0315993,-8.1039479],[-79.0315043,-8.1040276],[-79.0314491,-8.1040796],[-79.0312897,-8.1042196],[-79.0308953,-8.1045661],[-79.0307102,-8.1047298],[-79.0305189,-8.104899],[-79.0304199,-8.1049865],[-79.0303488,-8.1050494],[-79.0302807,-8.1051096],[-79.0302018,-8.1051818],[-79.0295367,-8.105815],[-79.0294939,-8.1058546],[-79.0294266,-8.1059207],[-79.029162,-8.1061833],[-79.0291237,-8.1062215],[-79.029054,-8.1062911],[-79.0290012,-8.1063452],[-79.0289329,-8.1062946],[-79.0288178,-8.1062442],[-79.0276528,-8.105793],[-79.0264143,-8.1052797],[-79.0263452,-8.1052471],[-79.0262985,-8.1052333],[-79.0262549,-8.1052344],[-79.0256988,-8.1053386],[-79.0256573,-8.1053476],[-79.0255672,-8.1053672],[-79.0254923,-8.1053842],[-79.0244593,-8.1056188],[-79.0242681,-8.1056608],[-79.0242517,-8.1056661],[-79.0241535,-8.1056985],[-79.0240833,-8.1057291],[-79.0238088,-8.1059019],[-79.023085,-8.1065401],[-79.0230394,-8.1065805],[-79.0229463,-8.1066613],[-79.0223178,-8.1072057],[-79.0220124,-8.1079131],[-79.0218524,-8.1083296],[-79.021697,-8.1081627],[-79.0215197,-8.1080217],[-79.0213541,-8.1078899],[-79.0210565,-8.1076964],[-79.0206048,-8.1074225],[-79.020075,-8.1070556],[-79.019535,-8.1066875],[-79.0191446,-8.1063858],[-79.0189687,-8.106101],[-79.0186571,-8.1054854],[-79.0181457,-8.105855],[-79.0168537,-8.1065475],[-79.0154531,-8.1077802],[-79.0156808,-8.1080392],[-79.0159249,-8.1083147],[-79.0161436,-8.1085639],[-79.016527,-8.1090194],[-79.0167482,-8.1092704],[-79.0169713,-8.1095239],[-79.017527,-8.1101528],[-79.0175961,-8.110231],[-79.0175129,-8.1102993],[-79.0171499,-8.110605],[-79.0171354,-8.1106172],[-79.0170778,-8.1106631],[-79.0168213,-8.1108674],[-79.0164305,-8.1111985],[-79.015975,-8.1115769],[-79.0159135,-8.111628],[-79.0154546,-8.1119399],[-79.0146258,-8.1123722],[-79.0142575,-8.1125514],[-79.0140803,-8.1126394],[-79.0139744,-8.1126865],[-79.0138109,-8.1127642],[-79.0133708,-8.1129735],[-79.012948,-8.113184],[-79.0127528,-8.113273],[-79.0125303,-8.1133304],[-79.0123662,-8.1133465],[-79.0122026,-8.1133414],[-79.0113726,-8.1132136],[-79.0104756,-8.1130823],[-79.0100301,-8.11302],[-79.009009,-8.112864],[-79.0088043,-8.1128295],[-79.0084043,-8.1127661],[-79.0075623,-8.1126325],[-79.0068653,-8.1125219],[-79.0067934,-8.1125104],[-79.0064277,-8.1124518],[-79.0063837,-8.1124447],[-79.0057812,-8.1123453],[-79.0048332,-8.1122009],[-79.0038996,-8.1120517],[-79.0031639,-8.1119362],[-79.0029057,-8.1118957],[-79.0028053,-8.1118784],[-79.0028216,-8.111772],[-79.0029878,-8.1107047],[-79.0031594,-8.1096611],[-79.0033955,-8.1080864],[-79.0026738,-8.1079653],[-79.0023874,-8.1079173],[-79.0013418,-8.1077414],[-79.0008643,-8.1076684],[-79.0006766,-8.1076086],[-79.0004379,-8.1074254],[-78.9997063,-8.106425],[-78.9988552,-8.1070477],[-78.9979075,-8.1077433],[-78.997631,-8.1079405],[-78.9975942,-8.1079674],[-78.9973178,-8.108169],[-78.9962853,-8.1089226],[-78.99597,-8.1091434],[-78.9957528,-8.1092848],[-78.9955536,-8.1093975],[-78.9954335,-8.1094461],[-78.9953462,-8.109474],[-78.9951592,-8.1094901],[-78.9946931,-8.1094871],[-78.9945985,-8.1094776],[-78.9944686,-8.1094456],[-78.9944211,-8.1094404],[-78.9939786,-8.1094265],[-78.9933209,-8.1094068],[-78.9926749,-8.1093809],[-78.9920075,-8.1093842],[-78.9913637,-8.109348],[-78.9913532,-8.1103721],[-78.9920049,-8.1103626],[-78.9926615,-8.1103649],[-78.9933066,-8.1103896],[-78.9939657,-8.1104127],[-78.9939786,-8.1094265],[-78.9944211,-8.1094404],[-78.9944686,-8.1094456],[-78.9946535,-8.1094089],[-78.9945985,-8.1094776],[-78.9945827,-8.1095596],[-78.9945719,-8.1102586],[-78.9945805,-8.1109186],[-78.9945827,-8.1110739],[-78.9947945,-8.111058],[-78.9953591,-8.1110141],[-78.9955428,-8.1110221],[-78.9957306,-8.1110726],[-78.9961275,-8.111196],[-78.9963958,-8.1112465],[-78.9965607,-8.1113315],[-78.996731,-8.1113739],[-78.9970643,-8.1113965],[-78.9973091,-8.1114271],[-78.9980185,-8.1118732],[-78.9982302,-8.1119954],[-78.9988165,-8.1123339],[-78.998968,-8.1124122],[-78.9992496,-8.1124985],[-78.9994414,-8.1125352],[-78.9995504,-8.1126677],[-78.9998373,-8.1130537],[-79.0021769,-8.1161999],[-79.0029068,-8.1171836],[-79.0031813,-8.117553],[-79.0034771,-8.1179584],[-79.003778,-8.1183558],[-79.0038881,-8.1185036],[-79.0040637,-8.1187545],[-79.0040954,-8.1187999],[-79.0039784,-8.1189311],[-79.0036045,-8.1191291],[-79.0032188,-8.1193452],[-79.0027678,-8.1195731],[-79.0035145,-8.1205986],[-79.0041251,-8.1214026],[-79.0043209,-8.1216856],[-79.0043757,-8.1217653],[-79.0047496,-8.1215002],[-79.0051361,-8.1211974],[-79.0056529,-8.1208696],[-79.005728,-8.1209705],[-79.0060498,-8.1214006],[-79.0062899,-8.1217428],[-79.007748,-8.1206869],[-79.007954,-8.1205417],[-79.0087154,-8.1199714]],"nodes":[1091407281,1098591819,316266847,4933258142,316266846,4933258141,1098614355,1098602823,1098595622,12988031604,316266845,1098641599,1098629854,1091407009,1098648731,4802397148,3833021922,316266843,1098643567,316265605,1098630392,9261031508,1813344271,9261031487,9261031489,9261031490,1815033062,9261031460,1815033063,1815033064,1815033065,9261031480,1815033066,9261031482,1815033067,1815033068,9261031484,9261031478,1815033069,1815033070,6203518668,9261031461,316267010,316267012,11023042541,6489470903,8109293939,316267013,11023034574,11023027751,8109293970,8109293951,1098595027,1098633367,8109293989,316267014,316267016,316267017,316267018,316267019,316267021,9138744282,9138744278,1142679915,9138744280,316267023,316267024,316267025,316267027,1145579841,316267028,10722225982,1142679945,13614474937,1142679885,6610699438,7952881480,316267029,8137012826,8137012850,11022987819,8137012871,316267030,8137004312,1142679829,1142680056,316267031,7172752110,316267032,1142680250,5491524687,1142680108,316267035,7118225077,316267036,12987952209,7172752106,316267037,316267038,316265810,6383817242,316265811,13172500621,316265812,316265739,3728397526,3728397528,1142680069,8374743717,3728397529,8374705116,316265740,3728397530,316265741,3728397527,316265969,5079514209,316265970,316265972,5491524688,10722340795,316265973,1098638810,1098600734,5676451456,3128364220,1098627674,10818868959,12756462125,5079514205,9099786519,5079514203,9099779916,12062325458,10818868949,5079514199,5079514194,10722318766,3728397532,10722325939,5079514192,316491272,5079514191,10722318767,5079582194,10722318768,10722318769,8137256503,5041338330,316491273,5089692672,5089692673,5089692674,316491274,5089692671,5089692669,4567025842,288407787,7120519755,5089692667,316491276,11030860568,316491277,11030860572,316491278,11030860570,1142680066,320113091,10722411291,316491280,316491281,5089313424,5089313429,5089313423,5089313428,5089313422,316491282,5089313421,316491283,5089312815,5089312819,11030860564,5041293253,316491284,5089427594,3110215526,11030909585,10722433729,11030909583,11030909581,11030909582,316491285,316491286,1142680007,7120542372,7120542348,10723920895,7120542350,1142679969,11028445013,1142680016,13181175557,13181175556,11028445009,11037527768,13181175554,11028445008,2979717598,7120542344,2979717599,316491288,11079442231,5090218496,3392600109,316491289,5090218494,316491290,11028430504,11028445006,13684177157,7115341984,5089760767,1088227230,2760772634,1098595788,1693595358,1693595362,1098599033,1098592849,11037604011,11037604010,1098636459,11037999554,1098626018,316491293,1098625617,5069337056,1098615175,3386747932,3743507184,1142680044,3386747931,10724078675,5478680206,5478680205,3743507186,3743507187,316491296,11033319452,3743507188,8763957262,2587893399,2587893400,2587893401,2587893402,2587893403,4633926908,4633926911,2587893404,1098599301,3386747943,2587893364,11016702906,1088384617,4633926906,1098648906,1098598947,1098596851,11016689399,316265162,1098644803,1028959874,1028959886,1098631315,1098610269,4633875114,5051774261,11037884383,1098635948,5051840801,5051774256,4633875085,4633874459,2557538236,2557538234,4633875092,1098598866,4633875094,4633875109,4633875096,316264055,316264086,1088227246,4633875101,316488274,316264088,11016646711,11016646710,316264089,9829891083,13368738226,316488510,9829891082,4452540641,316264090,495108772,12987860958,316264091,2573525832,5373812628,8109317254,8109317248,2573525834,1098584465,316488730,1051000299,11919733880,1554844722,1051000241,1051000351,11037703291,11037703290,1051000135,1051000232,1051000260,5081662057,5079968875,1098590745,11023313864,11023313866,1098623436,5676152374,9830187850,11023976595,1098639667,1144498432,1007782483,11033100547,1026647175,11033100546,1098590644,1007782485,11033100544,11033100549,1007782486,1007782487,11033195478,1088227326,1088227369,11033227506,1088227416,1007782488,1007782489,2604132090,1007782490,1007782491,1098638242,1098583810,1098599772,1007816531,1098599696,11032994357,11033100542,1088227465,11032994358,9155335600,1098626146,1098636662,1098622215,1098632625,5086928473,1098602819,1007782493,1007782460,1098649823,1098626691,1015292405,9155377650,5478826719,5478840933,5478826720,5478840921,5478840923,5478840935,5478840934,1098595338,1098640534,11032990340,11032990337,1098584914,5478840954,1098599098,1098610077,5478840953,2604198848,1098621303,11319862326,11319862330,1098631128,8168056292,5478840946,1098586738,1098625383,1098635483,5478840949,1098624664,1098602533,1098613670,1098595232,5478840947,5478840946,8168056292,1098631128,5478840952,11319862330,11319862329,5676451761,5676451760,5480596571,5480596572,5480596573,5480596574,5480596575,5480596576,5480596577,5480596578,5480596579,5480596580,5480596585,5480596584,9118802812,5480596583,5480596582,5480596581,1007782444,288407582,1195995116,8449760154,9155396560,4924821022,4924820719,2604140252,10726925957,12081593552,288407583,10726871368,10726925958,10726871373,10726871374,2465880248,9528847033,9528847036,2465880249,2482940393,2482940430,2465880241,1188181943,1188181926,1188181974,1195994983,1195996139,10726927275]},"gtfs":{"agency_id":29,"route_id":62,"services":[{"service_id":"Mo-Su","startTime":"05:00","endTime":"23:00","trip_id":19972130}],"filteredStops":{"nodes":[1091407281,13546546235,13546545551,13546546292,13546545545,12121155280,13546545535,13546546274,13546546267,13546545498,13546546238,13546545509,13546545508,13546545507,13546545506,13546545505,13546545504,13546546254,13546545136,13546545935,13546545137,13546545937,13546545139,13546545140,13546545249,13546545132,13546545931,13546545930,11895957224,11895968651,11895953681,13546545943,13546545146,13546545161,13546546019,13546545882,13546535067,13546535068,13546535069,13546545884,13546535070,13546545886,13546545169,13546535055,13546545179,13546545178,13546546182,13546545382,13546545383,13546546179,13546545184,13546545183,13546546121,13546545199,10726927275],"coordinates":[[-79.1193472,-8.0733842],[-79.1190308,-8.0756212],[-79.1204921,-8.0785593],[-79.1227161,-8.0812312],[-79.1222005,-8.085996],[-79.1195454,-8.089278],[-79.1179093,-8.0913396],[-79.1106729,-8.0975252],[-79.1000869,-8.0868799],[-79.0944991,-8.0880754],[-79.0916476,-8.0889465],[-79.0846524,-8.0912967],[-79.0803176,-8.0925669],[-79.0765552,-8.0932446],[-79.0687276,-8.0982767],[-79.0648293,-8.0998802],[-79.061646,-8.1004971],[-79.0574763,-8.1011311],[-79.0551083,-8.1009718],[-79.0490789,-8.1009183],[-79.0458694,-8.1012105],[-79.0431964,-8.101794],[-79.0398576,-8.1026767],[-79.0373475,-8.1039363],[-79.0338552,-8.1047816],[-79.0324897,-8.1033246],[-79.0305764,-8.1049039],[-79.0293759,-8.106031],[-79.0277112,-8.105858],[-79.0245107,-8.1056463],[-79.0226351,-8.1069826],[-79.0212238,-8.1078393],[-79.0187919,-8.10581],[-79.0171105,-8.1064379],[-79.0156326,-8.1079139],[-79.0170607,-8.110739],[-79.0149878,-8.1123146],[-79.0131415,-8.1131272],[-79.0107178,-8.1131813],[-79.0081107,-8.1127836],[-79.0055578,-8.1123406],[-79.0031758,-8.1119923],[-79.0032359,-8.1089912],[-79.0017927,-8.1078838],[-78.9994893,-8.1066696],[-78.9972496,-8.108362],[-78.9948321,-8.1095524],[-78.9915765,-8.1094242],[-78.9930865,-8.1103474],[-78.9958627,-8.1110742],[-79.0007224,-8.1141886],[-79.0026197,-8.1166789],[-79.00351,-8.1192248],[-79.007429,-8.1208532],[-79.0087154,-8.1199714]]},"forcedEndpointStops":[{"stop_id":1091407281,"stop_name":"Avenida Circunvalación y Avenida Víctor Larco Herrera","position":"first"},{"stop_id":10726927275,"stop_name":"Avenida José María Eguren","position":"last"}]}},{"type":"Feature","properties":{"bus":"yes","highway":"bus_stop","name":"PH-9","network":"Transporte Público Urbano Trujillo","public_transport":"platform","ref":"PH-9","source":"Gerencia de Transporte Metropolitano de Trujillo","id":13546546235},"geometry":{"type":"Point","coordinates":[-79.1190308,-8.0756212]}},{"type":"Feature","properties":{"bus":"yes","highway":"bus_stop","name":"PH-10","network":"Transporte Público Urbano Trujillo","public_transport":"platform","ref":"PH-10","source":"Gerencia de Transporte Metropolitano de Trujillo","id":13546545551},"geometry":{"type":"Point","coordinates":[-79.1204921,-8.0785593]}},{"type":"Feature","properties":{"bus":"yes","highway":"bus_stop","name":"PH-11","network":"Transporte Público Urbano Trujillo","public_transport":"platform","ref":"PH-11","source":"Gerencia de Transporte Metropolitano de Trujillo","id":13546546292},"geometry":{"type":"Point","coordinates":[-79.1227161,-8.0812312]}},{"type":"Feature","properties":{"bus":"yes","highway":"bus_stop","name":"PH-12","network":"Transporte Público Urbano Trujillo","public_transport":"platform","ref":"PH-12","source":"Gerencia de Transporte Metropolitano de Trujillo","id":13546545545},"geometry":{"type":"Point","coordinates":[-79.1222005,-8.085996]}},{"type":"Feature","properties":{"advertising":"no","bench":"yes","bicycle_parking":"no","bin":"no","bus":"yes","departures_board":"no","highway":"bus_stop","level":"0","lit":"no","name":"PH-13 Avenida La Rivera","network":"Transporte Público Urbano Trujillo","passenger_information_display:speech_output":"no","pole":"no","public_transport":"platform","ramp":"no","ref":"PH-13","shelter":"yes","source:ref":"Gerencia de Transporte Metropolitano de Trujillo","tactile_paving":"no","tactile_writing:braille:es":"no","id":12121155280},"geometry":{"type":"Point","coordinates":[-79.1195454,-8.089278]}},{"type":"Feature","properties":{"bus":"yes","highway":"bus_stop","name":"PH-14","network":"Transporte Público Urbano Trujillo","public_transport":"platform","ref":"PH-14","source":"Gerencia de Transporte Metropolitano de Trujillo","id":13546545535},"geometry":{"type":"Point","coordinates":[-79.1179093,-8.0913396]}},{"type":"Feature","properties":{"bus":"yes","highway":"bus_stop","name":"PH-15","network":"Transporte Público Urbano Trujillo","public_transport":"platform","ref":"PH-15","source":"Gerencia de Transporte Metropolitano de Trujillo","id":13546546274},"geometry":{"type":"Point","coordinates":[-79.1106729,-8.0975252]}},{"type":"Feature","properties":{"bus":"yes","highway":"bus_stop","name":"PH-17","network":"Transporte Público Urbano Trujillo","public_transport":"platform","ref":"PH-17","source":"Gerencia de Transporte Metropolitano de Trujillo","id":13546546267},"geometry":{"type":"Point","coordinates":[-79.1000869,-8.0868799]}},{"type":"Feature","properties":{"bus":"yes","highway":"bus_stop","name":"PH-80","network":"Transporte Público Urbano Trujillo","public_transport":"platform","ref":"PH-80","source":"Gerencia de Transporte Metropolitano de Trujillo","id":13546545498},"geometry":{"type":"Point","coordinates":[-79.0944991,-8.0880754]}},{"type":"Feature","properties":{"bus":"yes","highway":"bus_stop","name":"PH-81","network":"Transporte Público Urbano Trujillo","public_transport":"platform","ref":"PH-81","source":"Gerencia de Transporte Metropolitano de Trujillo","id":13546546238},"geometry":{"type":"Point","coordinates":[-79.0916476,-8.0889465]}},{"type":"Feature","properties":{"bus":"yes","highway":"bus_stop","name":"PH-48","network":"Transporte Público Urbano Trujillo","public_transport":"platform","ref":"PH-48","source":"Gerencia de Transporte Metropolitano de Trujillo","id":13546545509},"geometry":{"type":"Point","coordinates":[-79.0846524,-8.0912967]}},{"type":"Feature","properties":{"bus":"yes","highway":"bus_stop","name":"PH-49","network":"Transporte Público Urbano Trujillo","public_transport":"platform","ref":"PH-49","source":"Gerencia de Transporte Metropolitano de Trujillo","id":13546545508},"geometry":{"type":"Point","coordinates":[-79.0803176,-8.0925669]}},{"type":"Feature","properties":{"bus":"yes","highway":"bus_stop","name":"PH-50","network":"Transporte Público Urbano Trujillo","public_transport":"platform","ref":"PH-50","source":"Gerencia de Transporte Metropolitano de Trujillo","id":13546545507},"geometry":{"type":"Point","coordinates":[-79.0765552,-8.0932446]}},{"type":"Feature","properties":{"bus":"yes","highway":"bus_stop","name":"PH-52","network":"Transporte Público Urbano Trujillo","public_transport":"platform","ref":"PH-52","source":"Gerencia de Transporte Metropolitano de Trujillo","id":13546545506},"geometry":{"type":"Point","coordinates":[-79.0687276,-8.0982767]}},{"type":"Feature","properties":{"bus":"yes","highway":"bus_stop","name":"PH-53","network":"Transporte Público Urbano Trujillo","public_transport":"platform","ref":"PH-53","source":"Gerencia de Transporte Metropolitano de Trujillo","id":13546545505},"geometry":{"type":"Point","coordinates":[-79.0648293,-8.0998802]}},{"type":"Feature","properties":{"bus":"yes","highway":"bus_stop","name":"PH-54","network":"Transporte Público Urbano Trujillo","public_transport":"platform","ref":"PH-54","source":"Gerencia de Transporte Metropolitano de Trujillo","id":13546545504},"geometry":{"type":"Point","coordinates":[-79.061646,-8.1004971]}},{"type":"Feature","properties":{"bus":"yes","highway":"bus_stop","name":"PH-55","network":"Transporte Público Urbano Trujillo","public_transport":"platform","ref":"PH-55","source":"Gerencia de Transporte Metropolitano de Trujillo","id":13546546254},"geometry":{"type":"Point","coordinates":[-79.0574763,-8.1011311]}},{"type":"Feature","properties":{"bus":"yes","highway":"bus_stop","name":"MANT-113","network":"Transporte Público Urbano Trujillo","public_transport":"platform","ref":"MANT-113","source":"Gerencia de Transporte Metropolitano de Trujillo","id":13546545136},"geometry":{"type":"Point","coordinates":[-79.0551083,-8.1009718]}},{"type":"Feature","properties":{"bus":"yes","highway":"bus_stop","name":"MANT-111","network":"Transporte Público Urbano Trujillo","public_transport":"platform","ref":"MANT-111","source":"Gerencia de Transporte Metropolitano de Trujillo","id":13546545935},"geometry":{"type":"Point","coordinates":[-79.0490789,-8.1009183]}},{"type":"Feature","properties":{"bus":"yes","highway":"bus_stop","name":"MANT-105","network":"Transporte Público Urbano Trujillo","public_transport":"platform","ref":"MANT-105","source":"Gerencia de Transporte Metropolitano de Trujillo","id":13546545137},"geometry":{"type":"Point","coordinates":[-79.0458694,-8.1012105]}},{"type":"Feature","properties":{"bus":"yes","highway":"bus_stop","name":"MANT-108","network":"Transporte Público Urbano Trujillo","public_transport":"platform","ref":"MANT-108","source":"Gerencia de Transporte Metropolitano de Trujillo","id":13546545937},"geometry":{"type":"Point","coordinates":[-79.0431964,-8.101794]}},{"type":"Feature","properties":{"bus":"yes","highway":"bus_stop","name":"MANT-101","network":"Transporte Público Urbano Trujillo","public_transport":"platform","ref":"MANT-101","source":"Gerencia de Transporte Metropolitano de Trujillo","id":13546545139},"geometry":{"type":"Point","coordinates":[-79.0398576,-8.1026767]}},{"type":"Feature","properties":{"bus":"yes","highway":"bus_stop","name":"MANT-100","network":"Transporte Público Urbano Trujillo","public_transport":"platform","ref":"MANT-100","source":"Gerencia de Transporte Metropolitano de Trujillo","id":13546545140},"geometry":{"type":"Point","coordinates":[-79.0373475,-8.1039363]}},{"type":"Feature","properties":{"bus":"yes","highway":"bus_stop","name":"AMN-28","network":"Transporte Público Urbano Trujillo","public_transport":"platform","ref":"AMN-28","source":"Gerencia de Transporte Metropolitano de Trujillo","id":13546545249},"geometry":{"type":"Point","coordinates":[-79.0338552,-8.1047816]}},{"type":"Feature","properties":{"bus":"yes","highway":"bus_stop","name":"MAVE-354","network":"Transporte Público Urbano Trujillo","public_transport":"platform","ref":"MAVE-354","source":"Gerencia de Transporte Metropolitano de Trujillo","id":13546545132},"geometry":{"type":"Point","coordinates":[-79.0324897,-8.1033246]}},{"type":"Feature","properties":{"bus":"yes","highway":"bus_stop","name":"MAVE-356","network":"Transporte Público Urbano Trujillo","public_transport":"platform","ref":"MAVE-356","source":"Gerencia de Transporte Metropolitano de Trujillo","id":13546545931},"geometry":{"type":"Point","coordinates":[-79.0305764,-8.1049039]}},{"type":"Feature","properties":{"bus":"yes","highway":"bus_stop","name":"MAVE-357","network":"Transporte Público Urbano Trujillo","public_transport":"platform","ref":"MAVE-357","source":"Gerencia de Transporte Metropolitano de Trujillo","id":13546545930},"geometry":{"type":"Point","coordinates":[-79.0293759,-8.106031]}},{"type":"Feature","properties":{"advertising":"no","bench":"no","bicycle_parking":"no","bin":"no","bus":"yes","departures_board":"no","highway":"bus_stop","level":"0","lit":"yes","name":"ESP-15 Jirón Estete","network":"Transporte Público Urbano Trujillo","passenger_information_display:speech_output":"no","pole":"yes","public_transport":"platform","ramp":"no","ref":"ESP-15","shelter":"no","source:ref":"Gerencia de Transporte Metropolitano de Trujillo","tactile_paving":"no","tactile_writing:braille:es":"no","id":11895957224},"geometry":{"type":"Point","coordinates":[-79.0277112,-8.105858]}},{"type":"Feature","properties":{"advertising":"no","bench":"no","bicycle_parking":"no","bin":"no","bus":"yes","departures_board":"no","highway":"bus_stop","level":"0","lit":"no","name":"ESP-13 Avenida del Ejército","network":"Transporte Público Urbano Trujillo","passenger_information_display:speech_output":"no","pole":"yes","public_transport":"platform","ramp":"no","ref":"ESP-13","shelter":"no","source:ref":"Gerencia de Transporte Metropolitano de Trujillo","tactile_paving":"no","tactile_writing:braille:es":"no","id":11895968651},"geometry":{"type":"Point","coordinates":[-79.0245107,-8.1056463]}},{"type":"Feature","properties":{"advertising":"no","bench":"no","bicycle_parking":"no","bin":"no","bus":"yes","departures_board":"no","highway":"bus_stop","level":"0","lit":"yes","name":"ESP-11 Avenida Perú","network":"Transporte Público Urbano Trujillo","passenger_information_display:speech_output":"no","pole":"yes","public_transport":"platform","ramp":"no","ref":"ESP-11","shelter":"no","source:ref":"Gerencia de Transporte Metropolitano de Trujillo","tactile_paving":"no","tactile_writing:braille:es":"no","id":11895953681},"geometry":{"type":"Point","coordinates":[-79.0226351,-8.1069826]}},{"type":"Feature","properties":{"bus":"yes","highway":"bus_stop","name":"JUN-283","network":"Transporte Público Urbano Trujillo","public_transport":"platform","ref":"JUN-283","source":"Gerencia de Transporte Metropolitano de Trujillo","id":13546545943},"geometry":{"type":"Point","coordinates":[-79.0212238,-8.1078393]}},{"type":"Feature","properties":{"bus":"yes","highway":"bus_stop","name":"JUN-284","network":"Transporte Público Urbano Trujillo","public_transport":"platform","ref":"JUN-284","source":"Gerencia de Transporte Metropolitano de Trujillo","id":13546545146},"geometry":{"type":"Point","coordinates":[-79.0187919,-8.10581]}},{"type":"Feature","properties":{"bus":"yes","highway":"bus_stop","name":"HUALL-511","network":"Transporte Público Urbano Trujillo","public_transport":"platform","ref":"HUALL-511","source":"Gerencia de Transporte Metropolitano de Trujillo","id":13546545161},"geometry":{"type":"Point","coordinates":[-79.0171105,-8.1064379]}},{"type":"Feature","properties":{"bus":"yes","highway":"bus_stop","name":"CEV-178","network":"Transporte Público Urbano Trujillo","public_transport":"platform","ref":"CEV-178","source":"Gerencia de Transporte Metropolitano de Trujillo","id":13546546019},"geometry":{"type":"Point","coordinates":[-79.0156326,-8.1079139]}},{"type":"Feature","properties":{"bus":"yes","highway":"bus_stop","name":"RIP-331","network":"Transporte Público Urbano Trujillo","public_transport":"platform","ref":"RIP-331","source":"Gerencia de Transporte Metropolitano de Trujillo","id":13546545882},"geometry":{"type":"Point","coordinates":[-79.0170607,-8.110739]}},{"type":"Feature","properties":{"bus":"yes","highway":"bus_stop","name":"RIP-329","network":"Transporte Público Urbano Trujillo","public_transport":"platform","ref":"RIP-329","source":"Gerencia de Transporte Metropolitano de Trujillo","id":13546535067},"geometry":{"type":"Point","coordinates":[-79.0149878,-8.1123146]}},{"type":"Feature","properties":{"bus":"yes","highway":"bus_stop","name":"RIP-327","network":"Transporte Público Urbano Trujillo","public_transport":"platform","ref":"RIP-327","source":"Gerencia de Transporte Metropolitano de Trujillo","id":13546535068},"geometry":{"type":"Point","coordinates":[-79.0131415,-8.1131272]}},{"type":"Feature","properties":{"bus":"yes","highway":"bus_stop","name":"RIP-325","network":"Transporte Público Urbano Trujillo","public_transport":"platform","ref":"RIP-325","source":"Gerencia de Transporte Metropolitano de Trujillo","id":13546535069},"geometry":{"type":"Point","coordinates":[-79.0107178,-8.1131813]}},{"type":"Feature","properties":{"bus":"yes","highway":"bus_stop","name":"RIP-323","network":"Transporte Público Urbano Trujillo","public_transport":"platform","ref":"RIP-323","source":"Gerencia de Transporte Metropolitano de Trujillo","id":13546545884},"geometry":{"type":"Point","coordinates":[-79.0081107,-8.1127836]}},{"type":"Feature","properties":{"bus":"yes","highway":"bus_stop","name":"RIP-322","network":"Transporte Público Urbano Trujillo","public_transport":"platform","ref":"RIP-322","source":"Gerencia de Transporte Metropolitano de Trujillo","id":13546535070},"geometry":{"type":"Point","coordinates":[-79.0055578,-8.1123406]}},{"type":"Feature","properties":{"bus":"yes","highway":"bus_stop","name":"RIP-319","network":"Transporte Público Urbano Trujillo","public_transport":"platform","ref":"RIP-319","source":"Gerencia de Transporte Metropolitano de Trujillo","id":13546545886},"geometry":{"type":"Point","coordinates":[-79.0031758,-8.1119923]}},{"type":"Feature","properties":{"bus":"yes","highway":"bus_stop","name":"HOND-317","network":"Transporte Público Urbano Trujillo","public_transport":"platform","ref":"HOND-317","source":"Gerencia de Transporte Metropolitano de Trujillo","id":13546545169},"geometry":{"type":"Point","coordinates":[-79.0032359,-8.1089912]}},{"type":"Feature","properties":{"bus":"yes","highway":"bus_stop","name":"SB-531","network":"Transporte Público Urbano Trujillo","public_transport":"platform","ref":"SB-531","source":"Gerencia de Transporte Metropolitano de Trujillo","id":13546535055},"geometry":{"type":"Point","coordinates":[-79.0017927,-8.1078838]}},{"type":"Feature","properties":{"bus":"yes","highway":"bus_stop","name":"FEVI-227","network":"Transporte Público Urbano Trujillo","public_transport":"platform","ref":"FEVI-227","source":"Gerencia de Transporte Metropolitano de Trujillo","id":13546545179},"geometry":{"type":"Point","coordinates":[-78.9994893,-8.1066696]}},{"type":"Feature","properties":{"bus":"yes","highway":"bus_stop","name":"FEVI-228","network":"Transporte Público Urbano Trujillo","public_transport":"platform","ref":"FEVI-228","source":"Gerencia de Transporte Metropolitano de Trujillo","id":13546545178},"geometry":{"type":"Point","coordinates":[-78.9972496,-8.108362]}},{"type":"Feature","properties":{"bus":"yes","highway":"bus_stop","name":"PL-101","network":"Transporte Público Urbano Trujillo","public_transport":"platform","ref":"PL-101","source":"Gerencia de Transporte Metropolitano de Trujillo","id":13546546182},"geometry":{"type":"Point","coordinates":[-78.9948321,-8.1095524]}},{"type":"Feature","properties":{"bus":"yes","highway":"bus_stop","name":"PL-104","network":"Transporte Público Urbano Trujillo","public_transport":"platform","ref":"PL-104","source":"Gerencia de Transporte Metropolitano de Trujillo","id":13546545382},"geometry":{"type":"Point","coordinates":[-78.9915765,-8.1094242]}},{"type":"Feature","properties":{"bus":"yes","highway":"bus_stop","name":"PL-100","network":"Transporte Público Urbano Trujillo","public_transport":"platform","ref":"PL-100","source":"Gerencia de Transporte Metropolitano de Trujillo","id":13546545383},"geometry":{"type":"Point","coordinates":[-78.9930865,-8.1103474]}},{"type":"Feature","properties":{"bus":"yes","highway":"bus_stop","name":"PL-107","network":"Transporte Público Urbano Trujillo","public_transport":"platform","ref":"PL-107","source":"Gerencia de Transporte Metropolitano de Trujillo","id":13546546179},"geometry":{"type":"Point","coordinates":[-78.9958627,-8.1110742]}},{"type":"Feature","properties":{"bus":"yes","highway":"bus_stop","name":"EV-544","network":"Transporte Público Urbano Trujillo","public_transport":"platform","ref":"EV-544","source":"Gerencia de Transporte Metropolitano de Trujillo","id":13546545184},"geometry":{"type":"Point","coordinates":[-79.0007224,-8.1141886]}},{"type":"Feature","properties":{"bus":"yes","highway":"bus_stop","name":"EV-546","network":"Transporte Público Urbano Trujillo","public_transport":"platform","ref":"EV-546","source":"Gerencia de Transporte Metropolitano de Trujillo","id":13546545183},"geometry":{"type":"Point","coordinates":[-79.0026197,-8.1166789]}},{"type":"Feature","properties":{"bus":"yes","highway":"bus_stop","name":"PM-117","network":"Transporte Público Urbano Trujillo","public_transport":"platform","ref":"PM-117","source":"Gerencia de Transporte Metropolitano de Trujillo","id":13546546121},"geometry":{"type":"Point","coordinates":[-79.00351,-8.1192248]}},{"type":"Feature","properties":{"bus":"yes","highway":"bus_stop","name":"EGR-249","network":"Transporte Público Urbano Trujillo","public_transport":"platform","ref":"EGR-249","source":"Gerencia de Transporte Metropolitano de Trujillo","id":13546545199},"geometry":{"type":"Point","coordinates":[-79.007429,-8.1208532]}}]}