{"type":"FeatureCollection","features":[{"type":"Feature","properties":{"colour":"#cc0099","colour:text":"#FFFFFF","fee":"yes","from":"Calle José Joaquín Inclán","hash":"14428","interval":"3","name":"Calle José Joaquín Inclán → Calle Venezuela","network":"Transporte Público Urbano Trujillo","opening_hours":"Mo-Su 05:00-23:00","operator":"SANTA CATALINA S.A.","public_transport:version":"2","ref":"C-23 S1","route":"bus","survey:avg_speed:kmh":"20","to":"Calle Venezuela","type":"route","id":19970891},"geometry":{"type":"LineString","coordinates":[[-79.0143501,-8.1216315],[-79.0146273,-8.1220591],[-79.014894,-8.1224534],[-79.0151905,-8.1228],[-79.0154642,-8.1231943],[-79.0156844,-8.1235115],[-79.0159671,-8.1236139],[-79.0164709,-8.1237963],[-79.0173807,-8.1241258],[-79.0178288,-8.1242881],[-79.0178498,-8.1242956],[-79.0178839,-8.1243077],[-79.0179117,-8.1243176],[-79.0178417,-8.1245215],[-79.0177374,-8.1247921],[-79.0180298,-8.1248976],[-79.0180831,-8.1249201],[-79.0181328,-8.1249447],[-79.0181857,-8.1249732],[-79.0182308,-8.1250005],[-79.0182856,-8.125035],[-79.0183334,-8.125068],[-79.0183795,-8.125103],[-79.0184208,-8.12514],[-79.0189252,-8.1256872],[-79.0190899,-8.1258651],[-79.0194297,-8.1262299],[-79.0197781,-8.1266004],[-79.0201185,-8.1269478],[-79.0204605,-8.1273187],[-79.0210887,-8.1280253],[-79.0209381,-8.1285379],[-79.02078,-8.1290486],[-79.0206266,-8.1295393],[-79.0207007,-8.129579],[-79.0207465,-8.129601],[-79.0207935,-8.12962],[-79.0212505,-8.1297668],[-79.02146,-8.1290409],[-79.0214866,-8.128956],[-79.0215762,-8.1286687],[-79.0216643,-8.1283869],[-79.0217822,-8.1280016],[-79.0225886,-8.1253608],[-79.0227545,-8.1247975],[-79.0228404,-8.1245386],[-79.0228833,-8.1243785],[-79.0228885,-8.1243003],[-79.0228724,-8.1242275],[-79.0228344,-8.1241327],[-79.022741,-8.1240583],[-79.0226643,-8.1239672],[-79.0226056,-8.1238588],[-79.0225705,-8.1237408],[-79.0225606,-8.1236181],[-79.0225722,-8.123515],[-79.0226016,-8.1234153],[-79.022648,-8.1233223],[-79.0226952,-8.1232558],[-79.0227511,-8.1231964],[-79.0228587,-8.1231167],[-79.0229815,-8.1230626],[-79.0230917,-8.123039],[-79.0232045,-8.123036],[-79.0233225,-8.1230557],[-79.0234343,-8.123098],[-79.0235355,-8.1231613],[-79.0236356,-8.1232592],[-79.02371,-8.1233774],[-79.0237547,-8.1235095],[-79.0237673,-8.1236482],[-79.0237545,-8.123736],[-79.0237472,-8.123786],[-79.0237661,-8.1238549],[-79.0237841,-8.1238946],[-79.0238139,-8.1239298],[-79.0238764,-8.1239826],[-79.0243998,-8.1243532],[-79.0244692,-8.1244023],[-79.0254499,-8.125075],[-79.0256342,-8.1251722],[-79.0263585,-8.125555],[-79.0267907,-8.1257306],[-79.0272936,-8.1259085],[-79.028355,-8.1262453],[-79.0288238,-8.1263573],[-79.0293562,-8.1264569],[-79.0298906,-8.1265298],[-79.0299698,-8.1265405],[-79.0302821,-8.1265783],[-79.030328,-8.1265827],[-79.0304145,-8.126594],[-79.030474,-8.1265955],[-79.0304716,-8.126662],[-79.0304694,-8.1267061],[-79.0304667,-8.1267397],[-79.0304592,-8.1268054],[-79.0303989,-8.1271361],[-79.0303928,-8.1273282],[-79.0304113,-8.1275021],[-79.0304737,-8.1276857],[-79.0305468,-8.1278437],[-79.0306916,-8.1280481],[-79.0308525,-8.1282441],[-79.0309519,-8.1283639],[-79.0309782,-8.1283958],[-79.0312791,-8.1287731],[-79.0313045,-8.128805],[-79.0315132,-8.1290667],[-79.0321102,-8.1298153],[-79.0322513,-8.1299826],[-79.0323963,-8.1301383],[-79.0325235,-8.1302865],[-79.0328796,-8.1306839],[-79.0334289,-8.1313301],[-79.0336689,-8.1316089],[-79.0339647,-8.1313313],[-79.0342337,-8.1310881],[-79.034414,-8.1309357],[-79.0344969,-8.1308601],[-79.0353328,-8.1301051],[-79.0354839,-8.1300048],[-79.0356814,-8.1298953],[-79.0358967,-8.1298269],[-79.0361719,-8.1297274],[-79.0370515,-8.1294068],[-79.0376576,-8.1291483],[-79.03872,-8.128765],[-79.039681,-8.12843],[-79.0405023,-8.128185],[-79.0406675,-8.1280749],[-79.0412871,-8.1275212],[-79.0411571,-8.1273651],[-79.0408527,-8.1269999],[-79.0406005,-8.1267029],[-79.04034,-8.126396],[-79.0402687,-8.1263121],[-79.0397268,-8.1257245],[-79.0396476,-8.1256378],[-79.0392838,-8.125195],[-79.0392518,-8.125156],[-79.0390328,-8.1249634],[-79.0387624,-8.1248285],[-79.0386906,-8.1248101],[-79.0386372,-8.124784],[-79.0385443,-8.1247013],[-79.0385036,-8.1246335],[-79.0384612,-8.1245627],[-79.0384399,-8.1245074],[-79.0384294,-8.124443],[-79.0384302,-8.1244166],[-79.0384371,-8.1243765],[-79.0383884,-8.12432],[-79.0383535,-8.124236],[-79.038293,-8.1241156],[-79.038183,-8.1239362],[-79.0381149,-8.1238509],[-79.0376521,-8.1233291],[-79.0372964,-8.1229251],[-79.0368139,-8.1223566],[-79.0367968,-8.1223364],[-79.0366234,-8.1221325],[-79.0361306,-8.1215527],[-79.035685,-8.1210235],[-79.0350343,-8.120264],[-79.0349892,-8.1202102],[-79.0349431,-8.1201592],[-79.0344483,-8.1195604],[-79.0343773,-8.1194805],[-79.0343463,-8.1194462],[-79.0337059,-8.1187],[-79.0331122,-8.1180358],[-79.0330675,-8.1179858],[-79.0330194,-8.117932],[-79.0325932,-8.1174231],[-79.0318193,-8.1165235],[-79.0317573,-8.1164515],[-79.0317389,-8.1164288],[-79.0312708,-8.1158862],[-79.0312147,-8.1157976],[-79.0311823,-8.1157365],[-79.0312323,-8.1156916],[-79.0320139,-8.114641],[-79.0325502,-8.1139414],[-79.0326492,-8.1137822],[-79.0326675,-8.1136908],[-79.0327087,-8.1131413],[-79.0327818,-8.1121138],[-79.0327886,-8.1120193],[-79.0328627,-8.1109906],[-79.0328631,-8.1108787],[-79.0328511,-8.1107776],[-79.0329285,-8.110726],[-79.033009,-8.1106621],[-79.0333188,-8.1104161],[-79.0341395,-8.1097572],[-79.0341543,-8.1097459],[-79.0349028,-8.1091485],[-79.0356337,-8.1085868],[-79.0351945,-8.1075256],[-79.0348029,-8.1066426],[-79.0346315,-8.1062338],[-79.034577,-8.106088],[-79.0344286,-8.1057476],[-79.034357,-8.1056272],[-79.0341,-8.1051369],[-79.0340465,-8.105045],[-79.033676,-8.1043483],[-79.0335809,-8.1041736],[-79.0334656,-8.1039459],[-79.0333407,-8.1037136],[-79.0329633,-8.1030211],[-79.0323119,-8.1033797],[-79.032176,-8.1034608],[-79.0319955,-8.103592],[-79.0316917,-8.1038627],[-79.0315993,-8.1039479],[-79.0315043,-8.1040276],[-79.0314491,-8.1040796],[-79.0312897,-8.1042196],[-79.0308953,-8.1045661],[-79.0307102,-8.1047298],[-79.0305189,-8.104899],[-79.0304199,-8.1049865],[-79.0303488,-8.1050494],[-79.0302807,-8.1051096],[-79.0302018,-8.1051818],[-79.0295367,-8.105815],[-79.0294939,-8.1058546],[-79.0294266,-8.1059207],[-79.029162,-8.1061833],[-79.0291237,-8.1062215],[-79.029054,-8.1062911],[-79.0290012,-8.1063452],[-79.0289329,-8.1062946],[-79.0288178,-8.1062442],[-79.0276528,-8.105793],[-79.0264143,-8.1052797],[-79.0263452,-8.1052471],[-79.0262985,-8.1052333],[-79.0262549,-8.1052344],[-79.0256988,-8.1053386],[-79.0256573,-8.1053476],[-79.0255672,-8.1053672],[-79.0254923,-8.1053842],[-79.0244593,-8.1056188],[-79.0242681,-8.1056608],[-79.0242517,-8.1056661],[-79.0241535,-8.1056985],[-79.0240833,-8.1057291],[-79.0238088,-8.1059019],[-79.023085,-8.1065401],[-79.0230394,-8.1065805],[-79.0229463,-8.1066613],[-79.0223178,-8.1072057],[-79.0221654,-8.1073392],[-79.0220033,-8.1075577],[-79.0219509,-8.1076849],[-79.0218056,-8.1081084],[-79.0217624,-8.1081477],[-79.021697,-8.1081627],[-79.0215197,-8.1080217],[-79.0213541,-8.1078899],[-79.0210565,-8.1076964],[-79.0206048,-8.1074225],[-79.020075,-8.1070556],[-79.019535,-8.1066875],[-79.0191446,-8.1063858],[-79.0189687,-8.106101],[-79.0186571,-8.1054854],[-79.0181868,-8.1049595],[-79.0179339,-8.1046767],[-79.0175513,-8.1042796],[-79.0171367,-8.1038621],[-79.0170064,-8.1037322],[-79.0161906,-8.1030469],[-79.015459,-8.10233],[-79.0144606,-8.1013795],[-79.0142302,-8.1011803],[-79.0140435,-8.1010399],[-79.0133908,-8.1005491],[-79.013144,-8.100329],[-79.013052,-8.1002262],[-79.012708,-8.0997242],[-79.0125634,-8.099501],[-79.0119773,-8.0986303],[-79.0117573,-8.098278],[-79.0116143,-8.0980528],[-79.0112979,-8.0975713],[-79.0109237,-8.096984],[-79.0108563,-8.0968553],[-79.0105852,-8.0964457],[-79.0103001,-8.0960019],[-79.009882,-8.0953708],[-79.0096905,-8.0950782],[-79.0090676,-8.094126],[-79.0088262,-8.093757],[-79.0087984,-8.0937145],[-79.0086557,-8.0934963],[-79.0081767,-8.0927642],[-79.0078871,-8.0923216],[-79.0076933,-8.0920254],[-79.0075392,-8.0917899],[-79.0069971,-8.0909613],[-79.0063114,-8.0899131],[-79.0062521,-8.0898224],[-79.0057185,-8.0890069],[-79.0052807,-8.0883376],[-79.0052032,-8.0882192],[-79.0047348,-8.0875032],[-79.0046704,-8.0874018],[-79.0045939,-8.0873061],[-79.0044001,-8.0871429],[-79.0041399,-8.08699],[-79.0038554,-8.0868652],[-79.0035261,-8.0867887],[-79.0032608,-8.086761],[-79.0030093,-8.0867775],[-79.0027528,-8.0868069],[-79.0024763,-8.0868654],[-79.0022288,-8.0869234],[-79.002148,-8.086945],[-79.0010137,-8.0872648],[-78.9992784,-8.0877561],[-78.999141,-8.0877949],[-78.9987199,-8.087913],[-78.9975572,-8.0882191],[-78.9964306,-8.0885377],[-78.9952503,-8.0888539],[-78.9949241,-8.088941],[-78.9946667,-8.0890101],[-78.9945615,-8.0890301],[-78.9944136,-8.0890583],[-78.9942587,-8.0890742],[-78.9941045,-8.0890814],[-78.993898,-8.0890828],[-78.9936613,-8.0890575],[-78.9934614,-8.0890151],[-78.9932421,-8.088954],[-78.9930544,-8.0888889],[-78.9929129,-8.0888305],[-78.9927272,-8.0887462],[-78.9925394,-8.088644],[-78.9923235,-8.0885006],[-78.9921559,-8.0883684],[-78.9920491,-8.0882666],[-78.9917218,-8.0879132],[-78.9915142,-8.0876521],[-78.9914374,-8.0875431],[-78.9912272,-8.087208],[-78.9909415,-8.0867042],[-78.9908288,-8.0865056],[-78.9907312,-8.0863416],[-78.9903179,-8.0856704],[-78.9902131,-8.0855303],[-78.9901033,-8.0853836],[-78.989878,-8.0851951],[-78.9896192,-8.0850397],[-78.9892718,-8.084891],[-78.9888735,-8.0847941],[-78.988557,-8.0847689],[-78.9883505,-8.0847821],[-78.9880997,-8.0848339],[-78.9878477,-8.0849274],[-78.9871341,-8.0851924],[-78.9869583,-8.0852643],[-78.9847989,-8.0861594],[-78.9830236,-8.0868767],[-78.9827916,-8.0869816],[-78.9824893,-8.0871639],[-78.9823064,-8.0872874],[-78.9819103,-8.0876108],[-78.9815928,-8.0878759],[-78.9814251,-8.0880159],[-78.981245,-8.0881355],[-78.9811976,-8.088167],[-78.9810607,-8.0882382],[-78.9808711,-8.0882914],[-78.9806968,-8.0883366],[-78.9804044,-8.0884043],[-78.9785899,-8.0887893],[-78.97826,-8.0888571],[-78.9780401,-8.0889261],[-78.977737,-8.0890376],[-78.9772005,-8.0892793],[-78.9753981,-8.0901556],[-78.974246,-8.0907225],[-78.9738896,-8.0908837],[-78.973525,-8.0910029],[-78.9724865,-8.0913003],[-78.968152,-8.092456],[-78.9680298,-8.0924936],[-78.9679362,-8.0925283],[-78.9678327,-8.0925786],[-78.9677227,-8.0926396],[-78.967684,-8.092674],[-78.9676361,-8.092694],[-78.9675868,-8.0926976],[-78.9675388,-8.0926858],[-78.9674968,-8.0926598],[-78.967476,-8.092638],[-78.9674239,-8.0926538],[-78.9673595,-8.092673],[-78.9672884,-8.0926856],[-78.9672091,-8.0926934],[-78.9664219,-8.0927338],[-78.9655807,-8.0927379],[-78.9654699,-8.0927163],[-78.9653707,-8.0926754],[-78.9652717,-8.0926182],[-78.9652047,-8.0925675],[-78.9650876,-8.092422],[-78.9649986,-8.0922795],[-78.9643855,-8.090984],[-78.964285,-8.090764],[-78.9642797,-8.0906483],[-78.9637786,-8.089603],[-78.9637052,-8.0894481],[-78.9633723,-8.0887199],[-78.9632866,-8.0885369],[-78.9632489,-8.0884565],[-78.9631202,-8.0881883],[-78.9629815,-8.0879214],[-78.9625956,-8.0874654],[-78.9623945,-8.087305],[-78.9623381,-8.08726],[-78.9622093,-8.0871706],[-78.962008,-8.087081],[-78.9618177,-8.0869835],[-78.9615339,-8.0868824],[-78.9613934,-8.0868531],[-78.9611376,-8.0867997],[-78.9608491,-8.0868333],[-78.9598925,-8.0868237],[-78.9598988,-8.0871502],[-78.9599042,-8.087429],[-78.9598895,-8.0879703],[-78.9594174,-8.0879513],[-78.9586078,-8.0879309],[-78.9586061,-8.0878181],[-78.9586087,-8.0874257],[-78.9586078,-8.0873546],[-78.9586097,-8.0871502],[-78.9586103,-8.0868202],[-78.9575177,-8.0868267],[-78.9575191,-8.0867045],[-78.957513,-8.0864327],[-78.9575064,-8.0861374],[-78.9574233,-8.0859894],[-78.9572678,-8.0857128],[-78.9563406,-8.0862875],[-78.9555941,-8.0867169],[-78.9555885,-8.0868471],[-78.9554567,-8.086846],[-78.9554602,-8.086716],[-78.9552009,-8.0862846],[-78.955001,-8.0859253],[-78.9549047,-8.0857521],[-78.9548346,-8.0855406],[-78.9556009,-8.0850436],[-78.9553751,-8.084668],[-78.9552061,-8.0843869],[-78.955007,-8.0840556],[-78.9547388,-8.0834977],[-78.9545257,-8.0830574],[-78.9543201,-8.0826325],[-78.9541127,-8.0822038],[-78.9537846,-8.081526],[-78.9535835,-8.0811349],[-78.9528275,-8.0814225],[-78.9524336,-8.0815831],[-78.9516177,-8.0819159],[-78.9514288,-8.0815046],[-78.9512678,-8.0811262],[-78.9510846,-8.0807232],[-78.9519533,-8.0803833],[-78.9529819,-8.0799767]],"nodes":[5455991412,1098649972,5476448458,5476448456,5476448454,5455991401,5476448452,5476448447,5476404853,1098637577,12230812951,12230812979,1098616594,1538242482,1098647143,5086531539,7285755499,7285755501,7285755498,7285755503,7285755497,7285755502,7285755500,1098630170,5473860079,5086531525,5473860080,5473860083,5473860093,5473860087,5473860092,5473860085,5473860090,5473860091,7285755512,7285755510,1098632344,1098640722,5082689991,11114421896,11114421898,1098619862,1098591271,1098586330,1050893960,1538275857,316254967,3670684015,3670684014,316254426,316254427,1098644892,3670684727,316254428,1098632617,316254429,6195970422,316265440,316261151,12566648306,316261163,316254431,2591061029,288406889,2591061030,3670684743,316254433,316254504,316254434,2591061031,2591061032,13513627511,316254505,3670684008,12566648338,3670684007,12566648341,12433537360,3670684001,3670684003,3670684002,1098599784,2892557353,316256470,316256471,2892557352,2482796388,8234359405,5455991385,13086967423,320114882,12216693900,320114879,12216693885,13089000222,320114890,13086967439,316265268,316265269,316265270,316265271,316265272,316265273,5473953077,5473953080,1098604257,11086134223,11086134225,11086134105,1873564622,10726427314,3015067510,10726443462,1098636653,11033492886,526591144,1145579873,1142679955,5072421060,1142680003,526591154,3015067508,3015067507,3015067509,1098623394,526591158,5474112610,526591168,526591169,526591170,5474101527,526591151,11033509217,1098627599,11033509218,11033509219,5476370290,1098597373,1098612452,11033509222,316263114,316263115,316254461,3728336247,316254462,3728336246,2602828278,3728336244,316254463,3728336243,3728336241,3728336240,11033416910,316265330,10806829451,316265331,5067166130,1554831518,1098619034,1024375867,11033416915,11033416917,5458600705,1015366159,13086752740,1098585190,13086752738,13086752747,1098620092,13086752746,1088227436,4453868026,13388848286,316265332,316490236,13388848296,1088227342,13388848297,316265333,316264036,320114897,7123096673,320114902,316264107,316264108,4633792028,1098600919,4633792030,1098623402,316264109,7123110593,316264083,316489562,4636371397,1098613323,1098627784,5676450287,1088384560,316489561,1098636646,2587893404,1098599301,3386747943,2587893364,11016702906,1088384617,4633926906,1098648906,1098598947,1098596851,11016689399,316265162,1098644803,1028959874,1028959886,1098631315,1098610269,4633875114,5051774261,11037884383,1098635948,5051840801,5051774256,4633875085,4633874459,2557538236,2557538234,4633875092,1098598866,4633875094,4633875109,4633875096,316264055,316264086,1088227246,4633875101,316488274,316264088,11016646711,11016646710,316264089,9829891083,13368738226,316488510,9829891082,4452540641,316264090,495108772,12987860958,316264091,2573525832,5373812628,8109317254,8109317248,2573525834,2573525835,2573525836,316264048,2589631591,2589631593,1051000299,11919733880,1554844722,1051000241,1051000351,11037703291,11037703290,1051000135,1051000232,1051000260,10734016099,1051000172,1098637336,1051000317,1026647121,1098649746,1051000197,5079519218,1026647363,1051000322,1098585486,1051000208,11910518850,8764355700,11120020174,5475283792,12433929462,12042960501,5456051621,5079385439,5079385438,5089717642,5098830431,1098627633,1098625211,5089580865,5098830432,13204853024,8168008952,5098830433,11030636668,13596045286,5089580866,5089580867,5089580868,5089580869,5089580885,11030259916,5089580870,5089580863,5089580871,5089580861,5456051640,5456051641,5456051642,5456051643,5457488567,5456051644,5456051645,5482905644,1098597551,5087152251,1098627268,1145579811,1145579843,5087298904,5087298903,5087298902,334656140,5432245209,5482905632,11032885362,5482905638,334656141,334656144,5482905631,5482905637,334656145,5482905630,5482905636,334656147,5482905629,334656148,334656149,1098606452,10735963177,11032885361,334656152,9472286037,334656155,11032445416,5481081511,11032445412,334656157,11032445414,334656158,334656159,334656161,334656162,334656163,334656164,5481081512,334656166,334656167,5481081513,11030882424,5481081514,5481081515,334656168,334656170,334656171,5481081516,11030882420,334656174,11030882421,334655247,5481081518,334655246,5481081517,334655244,334655243,5481081519,334655241,334655239,5481081520,5481083721,334655237,2604535790,334656845,334656844,2604535786,2604535865,11032782362,334656842,2604535845,2604535843,334656843,2604535861,2604535859,2604535841,3728291227,11032782357,11032782359,11032782358,334656965,334656964,334656961,2604535819,334656960,2604535822,334656959,2604535824,334656958,1438763595,11032938089,334656957,1195995296,1169450406,1169126540,13097396613,1169126529,1169126560,334658243,334658242,11033146886,1169126562,334658240,1169126601,334658239,2604535918,10733277188,334658238,1195995184,1195996281,1195995037,1169126500,2604535895,8200848305,2604535897,1188353038,1169126578,1188353036,1169126543,1195996247,1195995943,1188353012,8156274586,1189526059,11103027590,1723600979,1723600980,1189494658,1188353010,11023851013,1189494659,8200836854,13478097033,1195995083,1195995175,1195996425,2748436541,5491451772,1189509250,1189509297,5491451768,5491451765,5491451762,5491451752,5491451760,5491451754,5491451758,5491451759,5491451739,5491451747,5491451745,5491451744,2604535925]},"gtfs":{"agency_id":25,"route_id":49,"services":[{"service_id":"Mo-Su","startTime":"05:00","endTime":"23:00","trip_id":19970891}],"filteredStops":{"nodes":[5455991412,13546545154,13546545153,13546545865,13546545866,13546535041,13546545920,13546545143,13546545942,13546545940,13546545242,13546545908,11910359970,13546545862,13546535038,13546545863,13546545187,13546545188,13546545189,13546535096,13546545111,13546545249,13546545132,13546545931,13546545930,11895957224,11895968651,11895953681,13546545943,13546545146,13546545145,13546545144,13546545234,13546535087,13546545893,13546545891,13546535086,13546535084,13546545433,13546545434,13546546212,13546545367,13546546157,13546546156,13546546160,13546546153,13546545369,13546545365,13546546150,13546546130,13546545371,13546545379,13546546168,13546546165,13546546159,2604535925],"coordinates":[[-79.0143501,-8.1216315],[-79.0148852,-8.1224318],[-79.0162783,-8.1236828],[-79.0188965,-8.1255707],[-79.0199047,-8.1266899],[-79.0210377,-8.1278301],[-79.0207637,-8.1292985],[-79.0213473,-8.1292701],[-79.0220732,-8.1268894],[-79.0228404,-8.1243728],[-79.0246528,-8.1244858],[-79.0304442,-8.1271661],[-79.0397792,-8.1258395],[-79.0373461,-8.1230159],[-79.0346467,-8.1199451],[-79.0318094,-8.1166638],[-79.0313214,-8.1154747],[-79.0326768,-8.1129583],[-79.0328035,-8.1111601],[-79.0354076,-8.1087135],[-79.0348635,-8.1069554],[-79.0338552,-8.1047816],[-79.0324897,-8.1033246],[-79.0305764,-8.1049039],[-79.0293759,-8.106031],[-79.0277112,-8.105858],[-79.0245107,-8.1056463],[-79.0226351,-8.1069826],[-79.0212238,-8.1078393],[-79.0187919,-8.10581],[-79.0172476,-8.1040335],[-79.015181,-8.1021076],[-79.0130573,-8.1004721],[-79.0128853,-8.1000516],[-79.011152,-8.0974314],[-79.0091203,-8.0942798],[-79.0071674,-8.0912973],[-79.0050238,-8.0880252],[-79.0013355,-8.08721],[-78.9981106,-8.088107],[-78.9941117,-8.0891226],[-78.9910364,-8.0869308],[-78.9889878,-8.0848721],[-78.9848485,-8.0862668],[-78.9811784,-8.088221],[-78.9784095,-8.0888933],[-78.9750568,-8.0903817],[-78.9720443,-8.0914508],[-78.9681419,-8.0924901],[-78.9672582,-8.0927348],[-78.9647742,-8.0918651],[-78.9640547,-8.0903123],[-78.963126,-8.0883313],[-78.9610242,-8.0868486],[-78.955531,-8.0849631],[-78.9529819,-8.0799767]]},"forcedEndpointStops":[{"stop_id":5455991412,"stop_name":"Calle Fernando de Montesinos y José Joaquín Inclan","position":"first"},{"stop_id":2604535925,"stop_name":"Sin nombre","position":"last"}]}},{"type":"Feature","properties":{"bus":"yes","highway":"bus_stop","name":"JOIN-466","network":"Transporte Público Urbano Trujillo","public_transport":"platform","ref":"JOIN-466","source":"Gerencia de Transporte Metropolitano de Trujillo","id":13546545154},"geometry":{"type":"Point","coordinates":[-79.0148852,-8.1224318]}},{"type":"Feature","properties":{"bus":"yes","highway":"bus_stop","name":"JOIN-467","network":"Transporte Público Urbano Trujillo","public_transport":"platform","ref":"JOIN-467","source":"Gerencia de Transporte Metropolitano de Trujillo","id":13546545153},"geometry":{"type":"Point","coordinates":[-79.0162783,-8.1236828]}},{"type":"Feature","properties":{"bus":"yes","highway":"bus_stop","name":"VF-480","network":"Transporte Público Urbano Trujillo","public_transport":"platform","ref":"VF-480","source":"Gerencia de Transporte Metropolitano de Trujillo","id":13546545865},"geometry":{"type":"Point","coordinates":[-79.0188965,-8.1255707]}},{"type":"Feature","properties":{"bus":"yes","highway":"bus_stop","name":"VF-479","network":"Transporte Público Urbano Trujillo","public_transport":"platform","ref":"VF-479","source":"Gerencia de Transporte Metropolitano de Trujillo","id":13546545866},"geometry":{"type":"Point","coordinates":[-79.0199047,-8.1266899]}},{"type":"Feature","properties":{"bus":"yes","highway":"bus_stop","name":"VF-478","network":"Transporte Público Urbano Trujillo","public_transport":"platform","ref":"VF-478","source":"Gerencia de Transporte Metropolitano de Trujillo","id":13546535041},"geometry":{"type":"Point","coordinates":[-79.0210377,-8.1278301]}},{"type":"Feature","properties":{"bus":"yes","highway":"bus_stop","name":"MR-536","network":"Transporte Público Urbano Trujillo","public_transport":"platform","ref":"MR-536","source":"Gerencia de Transporte Metropolitano de Trujillo","id":13546545920},"geometry":{"type":"Point","coordinates":[-79.0207637,-8.1292985]}},{"type":"Feature","properties":{"bus":"yes","highway":"bus_stop","name":"LAM-416","network":"Transporte Público Urbano Trujillo","public_transport":"platform","ref":"LAM-416","source":"Gerencia de Transporte Metropolitano de Trujillo","id":13546545143},"geometry":{"type":"Point","coordinates":[-79.0213473,-8.1292701]}},{"type":"Feature","properties":{"bus":"yes","highway":"bus_stop","name":"LAM-412","network":"Transporte Público Urbano Trujillo","public_transport":"platform","ref":"LAM-412","source":"Gerencia de Transporte Metropolitano de Trujillo","id":13546545942},"geometry":{"type":"Point","coordinates":[-79.0220732,-8.1268894]}},{"type":"Feature","properties":{"bus":"yes","highway":"bus_stop","name":"LAM-414","network":"Transporte Público Urbano Trujillo","public_transport":"platform","ref":"LAM-414","source":"Gerencia de Transporte Metropolitano de Trujillo","id":13546545940},"geometry":{"type":"Point","coordinates":[-79.0228404,-8.1243728]}},{"type":"Feature","properties":{"bus":"yes","highway":"bus_stop","name":"AMS-37","network":"Transporte Público Urbano Trujillo","public_transport":"platform","ref":"AMS-37","source":"Gerencia de Transporte Metropolitano de Trujillo","id":13546545242},"geometry":{"type":"Point","coordinates":[-79.0246528,-8.1244858]}},{"type":"Feature","properties":{"bus":"yes","highway":"bus_stop","name":"PCVT-193","network":"Transporte Público Urbano Trujillo","public_transport":"platform","ref":"PCVT-193","source":"Gerencia de Transporte Metropolitano de Trujillo","id":13546545908},"geometry":{"type":"Point","coordinates":[-79.0304442,-8.1271661]}},{"type":"Feature","properties":{"advertising":"yes","bench":"yes","bicycle_parking":"no","bin":"no","bus":"yes","departures_board":"no","highway":"bus_stop","level":"0","lit":"yes","name":"VLHT-98 Avenida los Colibries","network":"Transporte Público Urbano Trujillo","passenger_information_display:speech_output":"no","pole":"yes","public_transport":"platform","ramp":"no","ref":"VLHT-98","shelter":"yes","source:ref":"Gerencia de Transporte Metropolitano de Trujillo","tactile_paving":"no","tactile_writing:braille:es":"no","id":11910359970},"geometry":{"type":"Point","coordinates":[-79.0397792,-8.1258395]}},{"type":"Feature","properties":{"bus":"yes","highway":"bus_stop","name":"VLHT-96","network":"Transporte Público Urbano Trujillo","public_transport":"platform","ref":"VLHT-96","source":"Gerencia de Transporte Metropolitano de Trujillo","id":13546545862},"geometry":{"type":"Point","coordinates":[-79.0373461,-8.1230159]}},{"type":"Feature","properties":{"bus":"yes","highway":"bus_stop","name":"VLHT-94","network":"Transporte Público Urbano Trujillo","public_transport":"platform","ref":"VLHT-94","source":"Gerencia de Transporte Metropolitano de Trujillo","id":13546535038},"geometry":{"type":"Point","coordinates":[-79.0346467,-8.1199451]}},{"type":"Feature","properties":{"bus":"yes","highway":"bus_stop","name":"VLHT-91","network":"Transporte Público Urbano Trujillo","public_transport":"platform","ref":"VLHT-91","source":"Gerencia de Transporte Metropolitano de Trujillo","id":13546545863},"geometry":{"type":"Point","coordinates":[-79.0318094,-8.1166638]}},{"type":"Feature","properties":{"bus":"yes","highway":"bus_stop","name":"ESP-3","network":"Transporte Público Urbano Trujillo","public_transport":"platform","ref":"ESP-3","source":"Gerencia de Transporte Metropolitano de Trujillo","id":13546545187},"geometry":{"type":"Point","coordinates":[-79.0313214,-8.1154747]}},{"type":"Feature","properties":{"bus":"yes","highway":"bus_stop","name":"ESP-2","network":"Transporte Público Urbano Trujillo","public_transport":"platform","ref":"ESP-2","source":"Gerencia de Transporte Metropolitano de Trujillo","id":13546545188},"geometry":{"type":"Point","coordinates":[-79.0326768,-8.1129583]}},{"type":"Feature","properties":{"bus":"yes","highway":"bus_stop","name":"ESP-1","network":"Transporte Público Urbano Trujillo","public_transport":"platform","ref":"ESP-1","source":"Gerencia de Transporte Metropolitano de Trujillo","id":13546545189},"geometry":{"type":"Point","coordinates":[-79.0328035,-8.1111601]}},{"type":"Feature","properties":{"bus":"yes","highway":"bus_stop","name":"PEMU-341","network":"Transporte Público Urbano Trujillo","public_transport":"platform","ref":"PEMU-341","source":"Gerencia de Transporte Metropolitano de Trujillo","id":13546535096},"geometry":{"type":"Point","coordinates":[-79.0354076,-8.1087135]}},{"type":"Feature","properties":{"bus":"yes","highway":"bus_stop","name":"NA-527","network":"Transporte Público Urbano Trujillo","public_transport":"platform","ref":"NA-527","source":"Gerencia de Transporte Metropolitano de Trujillo","id":13546545111},"geometry":{"type":"Point","coordinates":[-79.0348635,-8.1069554]}},{"type":"Feature","properties":{"bus":"yes","highway":"bus_stop","name":"AMN-28","network":"Transporte Público Urbano Trujillo","public_transport":"platform","ref":"AMN-28","source":"Gerencia de Transporte Metropolitano de Trujillo","id":13546545249},"geometry":{"type":"Point","coordinates":[-79.0338552,-8.1047816]}},{"type":"Feature","properties":{"bus":"yes","highway":"bus_stop","name":"MAVE-354","network":"Transporte Público Urbano Trujillo","public_transport":"platform","ref":"MAVE-354","source":"Gerencia de Transporte Metropolitano de Trujillo","id":13546545132},"geometry":{"type":"Point","coordinates":[-79.0324897,-8.1033246]}},{"type":"Feature","properties":{"bus":"yes","highway":"bus_stop","name":"MAVE-356","network":"Transporte Público Urbano Trujillo","public_transport":"platform","ref":"MAVE-356","source":"Gerencia de Transporte Metropolitano de Trujillo","id":13546545931},"geometry":{"type":"Point","coordinates":[-79.0305764,-8.1049039]}},{"type":"Feature","properties":{"bus":"yes","highway":"bus_stop","name":"MAVE-357","network":"Transporte Público Urbano Trujillo","public_transport":"platform","ref":"MAVE-357","source":"Gerencia de Transporte Metropolitano de Trujillo","id":13546545930},"geometry":{"type":"Point","coordinates":[-79.0293759,-8.106031]}},{"type":"Feature","properties":{"advertising":"no","bench":"no","bicycle_parking":"no","bin":"no","bus":"yes","departures_board":"no","highway":"bus_stop","level":"0","lit":"yes","name":"ESP-15 Jirón Estete","network":"Transporte Público Urbano Trujillo","passenger_information_display:speech_output":"no","pole":"yes","public_transport":"platform","ramp":"no","ref":"ESP-15","shelter":"no","source:ref":"Gerencia de Transporte Metropolitano de Trujillo","tactile_paving":"no","tactile_writing:braille:es":"no","id":11895957224},"geometry":{"type":"Point","coordinates":[-79.0277112,-8.105858]}},{"type":"Feature","properties":{"advertising":"no","bench":"no","bicycle_parking":"no","bin":"no","bus":"yes","departures_board":"no","highway":"bus_stop","level":"0","lit":"no","name":"ESP-13 Avenida del Ejército","network":"Transporte Público Urbano Trujillo","passenger_information_display:speech_output":"no","pole":"yes","public_transport":"platform","ramp":"no","ref":"ESP-13","shelter":"no","source:ref":"Gerencia de Transporte Metropolitano de Trujillo","tactile_paving":"no","tactile_writing:braille:es":"no","id":11895968651},"geometry":{"type":"Point","coordinates":[-79.0245107,-8.1056463]}},{"type":"Feature","properties":{"advertising":"no","bench":"no","bicycle_parking":"no","bin":"no","bus":"yes","departures_board":"no","highway":"bus_stop","level":"0","lit":"yes","name":"ESP-11 Avenida Perú","network":"Transporte Público Urbano Trujillo","passenger_information_display:speech_output":"no","pole":"yes","public_transport":"platform","ramp":"no","ref":"ESP-11","shelter":"no","source:ref":"Gerencia de Transporte Metropolitano de Trujillo","tactile_paving":"no","tactile_writing:braille:es":"no","id":11895953681},"geometry":{"type":"Point","coordinates":[-79.0226351,-8.1069826]}},{"type":"Feature","properties":{"bus":"yes","highway":"bus_stop","name":"JUN-283","network":"Transporte Público Urbano Trujillo","public_transport":"platform","ref":"JUN-283","source":"Gerencia de Transporte Metropolitano de Trujillo","id":13546545943},"geometry":{"type":"Point","coordinates":[-79.0212238,-8.1078393]}},{"type":"Feature","properties":{"bus":"yes","highway":"bus_stop","name":"JUN-284","network":"Transporte Público Urbano Trujillo","public_transport":"platform","ref":"JUN-284","source":"Gerencia de Transporte Metropolitano de Trujillo","id":13546545146},"geometry":{"type":"Point","coordinates":[-79.0187919,-8.10581]}},{"type":"Feature","properties":{"bus":"yes","highway":"bus_stop","name":"JUN-285","network":"Transporte Público Urbano Trujillo","public_transport":"platform","ref":"JUN-285","source":"Gerencia de Transporte Metropolitano de Trujillo","id":13546545145},"geometry":{"type":"Point","coordinates":[-79.0172476,-8.1040335]}},{"type":"Feature","properties":{"bus":"yes","highway":"bus_stop","name":"JUN-286","network":"Transporte Público Urbano Trujillo","public_transport":"platform","ref":"JUN-286","source":"Gerencia de Transporte Metropolitano de Trujillo","id":13546545144},"geometry":{"type":"Point","coordinates":[-79.015181,-8.1021076]}},{"type":"Feature","properties":{"bus":"yes","highway":"bus_stop","name":"AMS-59","network":"Transporte Público Urbano Trujillo","public_transport":"platform","ref":"AMS-59","source":"Gerencia de Transporte Metropolitano de Trujillo","id":13546545234},"geometry":{"type":"Point","coordinates":[-79.0130573,-8.1004721]}},{"type":"Feature","properties":{"bus":"yes","highway":"bus_stop","name":"PLUN-287","network":"Transporte Público Urbano Trujillo","public_transport":"platform","ref":"PLUN-287","source":"Gerencia de Transporte Metropolitano de Trujillo","id":13546535087},"geometry":{"type":"Point","coordinates":[-79.0128853,-8.1000516]}},{"type":"Feature","properties":{"bus":"yes","highway":"bus_stop","name":"PLUN-289","network":"Transporte Público Urbano Trujillo","public_transport":"platform","ref":"PLUN-289","source":"Gerencia de Transporte Metropolitano de Trujillo","id":13546545893},"geometry":{"type":"Point","coordinates":[-79.011152,-8.0974314]}},{"type":"Feature","properties":{"bus":"yes","highway":"bus_stop","name":"PLUN-291","network":"Transporte Público Urbano Trujillo","public_transport":"platform","ref":"PLUN-291","source":"Gerencia de Transporte Metropolitano de Trujillo","id":13546545891},"geometry":{"type":"Point","coordinates":[-79.0091203,-8.0942798]}},{"type":"Feature","properties":{"bus":"yes","highway":"bus_stop","name":"PLUN-292","network":"Transporte Público Urbano Trujillo","public_transport":"platform","ref":"PLUN-292","source":"Gerencia de Transporte Metropolitano de Trujillo","id":13546535086},"geometry":{"type":"Point","coordinates":[-79.0071674,-8.0912973]}},{"type":"Feature","properties":{"bus":"yes","highway":"bus_stop","name":"PLUN-295","network":"Transporte Público Urbano Trujillo","public_transport":"platform","ref":"PLUN-295","source":"Gerencia de Transporte Metropolitano de Trujillo","id":13546535084},"geometry":{"type":"Point","coordinates":[-79.0050238,-8.0880252]}},{"type":"Feature","properties":{"bus":"yes","highway":"bus_stop","name":"PP-44","network":"Transporte Público Urbano Trujillo","public_transport":"platform","ref":"PP-44","source":"Gerencia de Transporte Metropolitano de Trujillo","id":13546545433},"geometry":{"type":"Point","coordinates":[-79.0013355,-8.08721]}},{"type":"Feature","properties":{"bus":"yes","highway":"bus_stop","name":"PP-43","network":"Transporte Público Urbano Trujillo","public_transport":"platform","ref":"PP-43","source":"Gerencia de Transporte Metropolitano de Trujillo","id":13546545434},"geometry":{"type":"Point","coordinates":[-78.9981106,-8.088107]}},{"type":"Feature","properties":{"bus":"yes","highway":"bus_stop","name":"PP-42","network":"Transporte Público Urbano Trujillo","public_transport":"platform","ref":"PP-42","source":"Gerencia de Transporte Metropolitano de Trujillo","id":13546546212},"geometry":{"type":"Point","coordinates":[-78.9941117,-8.0891226]}},{"type":"Feature","properties":{"bus":"yes","highway":"bus_stop","name":"PL-55","network":"Transporte Público Urbano Trujillo","public_transport":"platform","ref":"PL-55","source":"Gerencia de Transporte Metropolitano de Trujillo","id":13546545367},"geometry":{"type":"Point","coordinates":[-78.9910364,-8.0869308]}},{"type":"Feature","properties":{"bus":"yes","highway":"bus_stop","name":"PL-57","network":"Transporte Público Urbano Trujillo","public_transport":"platform","ref":"PL-57","source":"Gerencia de Transporte Metropolitano de Trujillo","id":13546546157},"geometry":{"type":"Point","coordinates":[-78.9889878,-8.0848721]}},{"type":"Feature","properties":{"bus":"yes","highway":"bus_stop","name":"PL-58","network":"Transporte Público Urbano Trujillo","public_transport":"platform","ref":"PL-58","source":"Gerencia de Transporte Metropolitano de Trujillo","id":13546546156},"geometry":{"type":"Point","coordinates":[-78.9848485,-8.0862668]}},{"type":"Feature","properties":{"bus":"yes","highway":"bus_stop","name":"PL-51","network":"Transporte Público Urbano Trujillo","public_transport":"platform","ref":"PL-51","source":"Gerencia de Transporte Metropolitano de Trujillo","id":13546546160},"geometry":{"type":"Point","coordinates":[-78.9811784,-8.088221]}},{"type":"Feature","properties":{"bus":"yes","highway":"bus_stop","name":"PL-60","network":"Transporte Público Urbano Trujillo","public_transport":"platform","ref":"PL-60","source":"Gerencia de Transporte Metropolitano de Trujillo","id":13546546153},"geometry":{"type":"Point","coordinates":[-78.9784095,-8.0888933]}},{"type":"Feature","properties":{"bus":"yes","highway":"bus_stop","name":"PL-48","network":"Transporte Público Urbano Trujillo","public_transport":"platform","ref":"PL-48","source":"Gerencia de Transporte Metropolitano de Trujillo","id":13546545369},"geometry":{"type":"Point","coordinates":[-78.9750568,-8.0903817]}},{"type":"Feature","properties":{"bus":"yes","highway":"bus_stop","name":"PL-65","network":"Transporte Público Urbano Trujillo","public_transport":"platform","ref":"PL-65","source":"Gerencia de Transporte Metropolitano de Trujillo","id":13546545365},"geometry":{"type":"Point","coordinates":[-78.9720443,-8.0914508]}},{"type":"Feature","properties":{"bus":"yes","highway":"bus_stop","name":"PL-63","network":"Transporte Público Urbano Trujillo","public_transport":"platform","ref":"PL-63","source":"Gerencia de Transporte Metropolitano de Trujillo","id":13546546150},"geometry":{"type":"Point","coordinates":[-78.9681419,-8.0924901]}},{"type":"Feature","properties":{"bus":"yes","highway":"bus_stop","name":"PL-Existente","network":"Transporte Público Urbano Trujillo","public_transport":"platform","ref":"PL-Existente","source":"Gerencia de Transporte Metropolitano de Trujillo","id":13546546130},"geometry":{"type":"Point","coordinates":[-78.9672582,-8.0927348]}},{"type":"Feature","properties":{"bus":"yes","highway":"bus_stop","name":"PL-42","network":"Transporte Público Urbano Trujillo","public_transport":"platform","ref":"PL-42","source":"Gerencia de Transporte Metropolitano de Trujillo","id":13546545371},"geometry":{"type":"Point","coordinates":[-78.9647742,-8.0918651]}},{"type":"Feature","properties":{"bus":"yes","highway":"bus_stop","name":"PL-15","network":"Transporte Público Urbano Trujillo","public_transport":"platform","ref":"PL-15","source":"Gerencia de Transporte Metropolitano de Trujillo","id":13546545379},"geometry":{"type":"Point","coordinates":[-78.9640547,-8.0903123]}},{"type":"Feature","properties":{"bus":"yes","highway":"bus_stop","name":"PL-38","network":"Transporte Público Urbano Trujillo","public_transport":"platform","ref":"PL-38","source":"Gerencia de Transporte Metropolitano de Trujillo","id":13546546168},"geometry":{"type":"Point","coordinates":[-78.963126,-8.0883313]}},{"type":"Feature","properties":{"bus":"yes","highway":"bus_stop","name":"PL-43","network":"Transporte Público Urbano Trujillo","public_transport":"platform","ref":"PL-43","source":"Gerencia de Transporte Metropolitano de Trujillo","id":13546546165},"geometry":{"type":"Point","coordinates":[-78.9610242,-8.0868486]}},{"type":"Feature","properties":{"bus":"yes","highway":"bus_stop","name":"PL-53","network":"Transporte Público Urbano Trujillo","public_transport":"platform","ref":"PL-53","source":"Gerencia de Transporte Metropolitano de Trujillo","id":13546546159},"geometry":{"type":"Point","coordinates":[-78.955531,-8.0849631]}}]}