{"type":"FeatureCollection","features":[{"type":"Feature","properties":{"check_date":"2025-12-18","colour":"#ffff33","colour:text":"#000000","fee":"yes","from":"Ciudad de Dios","hash":"14939","interval":"3","name":"Ciudad de Dios → Sector Santa María Alta","network":"Transporte Público Urbano Trujillo","opening_hours":"Mo-Su 05:00-23:00","operator":"EL CORTIJO S.A.","public_transport:version":"2","ref":"M-15 C2","route":"bus","survey:avg_speed:kmh":"20","to":"Sector Santa María Alta","type":"route","id":19971999},"geometry":{"type":"LineString","coordinates":[[-78.9911182,-8.0638086],[-78.9908765,-8.0638451],[-78.9912175,-8.0647058],[-78.9913703,-8.0651831],[-78.9915194,-8.0656173],[-78.9916676,-8.0660429],[-78.9918371,-8.0665297],[-78.9922639,-8.0676172],[-78.9927251,-8.0687239],[-78.9932034,-8.0697235],[-78.9935225,-8.0706843],[-78.9935766,-8.0708197],[-78.9939764,-8.071799],[-78.9943514,-8.072764],[-78.9947456,-8.0737386],[-78.9951836,-8.0748658],[-78.9955606,-8.0758316],[-78.9957908,-8.0764076],[-78.9960053,-8.0769488],[-78.9962109,-8.0774848],[-78.9971974,-8.0770893],[-78.9981403,-8.0767183],[-78.9981982,-8.0768367],[-78.9986015,-8.0774482],[-78.9988301,-8.0777841],[-78.9990759,-8.0778787],[-78.9995042,-8.0780774],[-78.9996135,-8.0781277],[-78.999815,-8.0787437],[-79.0000087,-8.0793966],[-79.0001912,-8.0799984],[-79.0005364,-8.0811283],[-79.0008815,-8.0822634],[-79.000796,-8.082285],[-78.9997847,-8.0825537],[-79.0000507,-8.0836445],[-79.0003533,-8.0847957],[-79.0006628,-8.0859528],[-79.0009617,-8.0871009],[-79.0010137,-8.0872648],[-78.9992784,-8.0877561],[-78.999384,-8.0881505],[-78.9995863,-8.088788],[-78.999774,-8.0891359],[-79.000018,-8.0894959],[-79.0002179,-8.089744],[-79.0003601,-8.0898928],[-79.0005505,-8.0900414],[-79.0006953,-8.090141],[-79.0008777,-8.0902193],[-79.0018534,-8.0905262],[-79.0022512,-8.0906511],[-79.0024761,-8.0907528],[-79.0030753,-8.0910673],[-79.0031369,-8.0910976],[-79.0031832,-8.0910509],[-79.0032384,-8.0910148],[-79.0033,-8.0909909],[-79.0033652,-8.0909803],[-79.0034313,-8.0909834],[-79.0034953,-8.0910001],[-79.0035543,-8.0910296],[-79.0036058,-8.0910707],[-79.0036476,-8.0911216],[-79.0036764,-8.0911769],[-79.0036936,-8.0912369],[-79.0036964,-8.0913275],[-79.0036728,-8.0914151],[-79.0036246,-8.0914923],[-79.0035561,-8.0915525],[-79.003473,-8.0915906],[-79.003501,-8.0916764],[-79.0035577,-8.0918725],[-79.003851,-8.092879],[-79.004028,-8.093377],[-79.0040908,-8.0935535],[-79.0041066,-8.0935979],[-79.0041263,-8.0936545],[-79.0042375,-8.0940319],[-79.0042561,-8.09412],[-79.0043419,-8.0943141],[-79.0045379,-8.0946706],[-79.0047055,-8.0949788],[-79.0049896,-8.0953752],[-79.0054266,-8.0959397],[-79.0056093,-8.0961646],[-79.0058064,-8.0964033],[-79.0058311,-8.0964324],[-79.0063125,-8.0969863],[-79.0064317,-8.0971235],[-79.0066152,-8.0973443],[-79.0068738,-8.0976456],[-79.0071993,-8.0980367],[-79.0075678,-8.0984727],[-79.0076517,-8.098572],[-79.0083944,-8.0994314],[-79.0085442,-8.0996016],[-79.0085839,-8.0996537],[-79.0087484,-8.0998647],[-79.008991,-8.1001416],[-79.0090087,-8.100162],[-79.0093621,-8.1005765],[-79.009639,-8.1009069],[-79.0098723,-8.1011854],[-79.0101736,-8.1015449],[-79.0105971,-8.1020404],[-79.0109292,-8.1024628],[-79.0109417,-8.1024792],[-79.0110017,-8.1025539],[-79.0111039,-8.1026761],[-79.0112152,-8.1028092],[-79.0113601,-8.1029817],[-79.0115535,-8.1032119],[-79.0118411,-8.103533],[-79.0118948,-8.1036013],[-79.0120631,-8.1038034],[-79.0124206,-8.1042061],[-79.0126988,-8.104542],[-79.0129951,-8.104902],[-79.0132728,-8.1052311],[-79.0135652,-8.1055796],[-79.0137636,-8.1058156],[-79.0138448,-8.1059122],[-79.0138809,-8.1059559],[-79.01394,-8.1060244],[-79.0142599,-8.1064042],[-79.0145402,-8.1067307],[-79.0148137,-8.1070485],[-79.014991,-8.1072547],[-79.0154531,-8.1077802],[-79.0156808,-8.1080392],[-79.0159249,-8.1083147],[-79.0161436,-8.1085639],[-79.016527,-8.1090194],[-79.0167482,-8.1092704],[-79.0169713,-8.1095239],[-79.017527,-8.1101528],[-79.0175961,-8.110231],[-79.0181193,-8.1108247],[-79.0184411,-8.1111921],[-79.0184793,-8.111232],[-79.0188562,-8.1116538],[-79.0189475,-8.1117417],[-79.0192891,-8.1121245],[-79.0198924,-8.1128508],[-79.0202343,-8.1132738],[-79.0204853,-8.1135947],[-79.020867,-8.1140536],[-79.0216223,-8.1147748],[-79.022024,-8.1151865],[-79.0224448,-8.115615],[-79.0231409,-8.1163229],[-79.0241907,-8.1173689],[-79.0248674,-8.1179957],[-79.0249217,-8.1181009],[-79.0250373,-8.118209],[-79.025167,-8.1183311],[-79.0253204,-8.1184754],[-79.0253383,-8.1184941],[-79.0256705,-8.118841],[-79.0264393,-8.118158],[-79.0268801,-8.1177663],[-79.0269813,-8.1176761],[-79.0277331,-8.1170082],[-79.0280834,-8.1166989],[-79.0281235,-8.1166446],[-79.0281427,-8.1165955],[-79.0281521,-8.1165508],[-79.0281562,-8.1165123],[-79.02816,-8.1164691],[-79.0281671,-8.116382],[-79.0284496,-8.1164078],[-79.0286734,-8.1164296],[-79.0294592,-8.1164785],[-79.0295444,-8.1164761],[-79.0295863,-8.116469],[-79.0296324,-8.1164554],[-79.0300521,-8.1162717],[-79.030372,-8.1161366],[-79.03074,-8.1159634],[-79.0311823,-8.1157365],[-79.0312323,-8.1156916],[-79.0320139,-8.114641],[-79.0325502,-8.1139414],[-79.0326492,-8.1137822],[-79.0326675,-8.1136908],[-79.0327087,-8.1131413],[-79.0327818,-8.1121138],[-79.0327886,-8.1120193],[-79.0328627,-8.1109906],[-79.0328631,-8.1108787],[-79.0328511,-8.1107776],[-79.0329285,-8.110726],[-79.033009,-8.1106621],[-79.0333188,-8.1104161],[-79.0341395,-8.1097572],[-79.0341543,-8.1097459],[-79.0349028,-8.1091485],[-79.0356337,-8.1085868],[-79.0363954,-8.1081945],[-79.03681,-8.107981],[-79.0369485,-8.1079294],[-79.037382,-8.1077677],[-79.0376027,-8.1076851],[-79.0376957,-8.1076505],[-79.0377772,-8.1076202],[-79.0382913,-8.1074289],[-79.0378705,-8.1063941],[-79.0376889,-8.1059593],[-79.0371733,-8.1046072],[-79.0369787,-8.1041495],[-79.0369493,-8.1040795],[-79.0369314,-8.1040345],[-79.0379182,-8.1035043],[-79.0382349,-8.1033466],[-79.0393827,-8.1027516],[-79.0395335,-8.1026743],[-79.0398143,-8.1025775],[-79.0406237,-8.1022958],[-79.0410434,-8.1021507],[-79.0411374,-8.1021182],[-79.0415588,-8.1020103],[-79.0416924,-8.1019843],[-79.0421767,-8.1018823],[-79.0425162,-8.1018074],[-79.0428889,-8.1017252],[-79.0432935,-8.1016332],[-79.0434727,-8.1015933],[-79.0437537,-8.1015306],[-79.0439517,-8.101492],[-79.0440854,-8.1014659],[-79.0443467,-8.101415],[-79.0444704,-8.1013911],[-79.0445703,-8.1013691],[-79.04496,-8.1012834],[-79.045238,-8.1012223],[-79.045502,-8.1011642],[-79.0464087,-8.1009649],[-79.0472935,-8.1008592],[-79.0480278,-8.1007778],[-79.0484112,-8.1007686],[-79.0491768,-8.1007611],[-79.0492804,-8.1007601],[-79.0494033,-8.1007601],[-79.0500186,-8.1007343],[-79.0502781,-8.1007234],[-79.0504154,-8.1007199],[-79.0512481,-8.1007282],[-79.0521056,-8.1007598],[-79.0528013,-8.1007855],[-79.0529503,-8.1007923],[-79.0530684,-8.1007977],[-79.054022,-8.1008413],[-79.0547632,-8.1008749],[-79.055481,-8.1009075],[-79.0559667,-8.1009364],[-79.0564725,-8.100959],[-79.0571844,-8.1009974],[-79.0569694,-8.1003487],[-79.0566275,-8.0993758],[-79.0554366,-8.0960024],[-79.0553802,-8.0958012],[-79.0553561,-8.0955118],[-79.0553538,-8.0953513],[-79.0553346,-8.0952833],[-79.0553081,-8.0951895],[-79.0547618,-8.0932707],[-79.0546775,-8.0929744],[-79.0546494,-8.0929282],[-79.0545393,-8.0927474],[-79.0544415,-8.0924619],[-79.0541817,-8.0916393],[-79.0541732,-8.0916122],[-79.0539483,-8.0910896],[-79.0538308,-8.0908026],[-79.0537886,-8.0907707],[-79.0537335,-8.0907785],[-79.0533622,-8.0908985],[-79.0526056,-8.0909162],[-79.0525051,-8.090916],[-79.0525041,-8.0908855],[-79.0525014,-8.0908052],[-79.0525005,-8.0907779],[-79.0525968,-8.0907744],[-79.0529472,-8.0907616],[-79.0533744,-8.09073],[-79.0538604,-8.0906093],[-79.0538308,-8.0903548],[-79.0536097,-8.0894869],[-79.0535498,-8.0892693],[-79.0532089,-8.0880381],[-79.0529292,-8.0870569],[-79.0529217,-8.0870344],[-79.0528521,-8.0867755],[-79.0528379,-8.0867249],[-79.0527986,-8.0865663],[-79.052694,-8.0861845],[-79.0524524,-8.0852776],[-79.0522934,-8.0847162],[-79.0521514,-8.0842347],[-79.0521582,-8.0842009],[-79.0521736,-8.0841913],[-79.0522355,-8.0841567],[-79.0528647,-8.0840442],[-79.0530728,-8.0840258],[-79.0532846,-8.0839594],[-79.0531231,-8.0833747],[-79.0530251,-8.0829893],[-79.0531231,-8.0833747],[-79.0532846,-8.0839594],[-79.0530728,-8.0840258],[-79.0528647,-8.0840442],[-79.0522355,-8.0841567],[-79.0523509,-8.0845695],[-79.0524383,-8.084882],[-79.0525369,-8.0852526],[-79.0527919,-8.0861473],[-79.0528936,-8.0865431],[-79.0532965,-8.0880094],[-79.0536306,-8.0892462],[-79.053691,-8.0894626],[-79.0539222,-8.0903212],[-79.0539588,-8.0906104],[-79.0538604,-8.0906093],[-79.0533744,-8.09073],[-79.0529472,-8.0907616],[-79.0525968,-8.0907744],[-79.0525005,-8.0907779],[-79.0525014,-8.0908052],[-79.0525041,-8.0908855],[-79.0525051,-8.090916],[-79.0526056,-8.0909162],[-79.0533622,-8.0908985],[-79.0537335,-8.0907785],[-79.0537886,-8.0907707],[-79.0538308,-8.0908026],[-79.0539483,-8.0910896],[-79.0541732,-8.0916122],[-79.0541817,-8.0916393],[-79.0544415,-8.0924619],[-79.0545393,-8.0927474],[-79.0546494,-8.0929282],[-79.0546775,-8.0929744],[-79.0547618,-8.0932707],[-79.0553081,-8.0951895],[-79.0553346,-8.0952833],[-79.0553538,-8.0953513],[-79.0553561,-8.0955118],[-79.0553802,-8.0958012],[-79.0554366,-8.0960024],[-79.0566275,-8.0993758],[-79.0569694,-8.1003487],[-79.0571844,-8.1009974],[-79.0570315,-8.1010528],[-79.0564653,-8.1010271],[-79.0559612,-8.1010059],[-79.0558023,-8.100996],[-79.0554769,-8.1009772],[-79.054763,-8.1009459],[-79.0540237,-8.1009134],[-79.0537311,-8.1009033],[-79.0532525,-8.1008868],[-79.0529489,-8.1008763],[-79.0521027,-8.1008526],[-79.0517247,-8.100842],[-79.0512521,-8.1008287],[-79.0503593,-8.1008178],[-79.0502604,-8.1008257],[-79.0498062,-8.1008733],[-79.0493216,-8.1008776],[-79.0491776,-8.100879],[-79.0484092,-8.1008863],[-79.0481827,-8.1008879],[-79.048041,-8.100888],[-79.047306,-8.10097],[-79.0464375,-8.1010669],[-79.0455221,-8.1012535],[-79.0452564,-8.1013077],[-79.0451142,-8.1013367],[-79.0449748,-8.1013651],[-79.044493,-8.1014696],[-79.0443739,-8.1014935],[-79.0437825,-8.1016247],[-79.0433215,-8.101727],[-79.0429163,-8.1018169],[-79.0422055,-8.1019746],[-79.0417087,-8.10206],[-79.0415762,-8.1020864],[-79.0413616,-8.1021367],[-79.0411635,-8.1021871],[-79.041065,-8.1022187],[-79.0406388,-8.1023554],[-79.0395627,-8.1027305],[-79.0394122,-8.102805],[-79.0388679,-8.1030928],[-79.0382654,-8.1034053],[-79.0379433,-8.10357],[-79.037563,-8.1037699],[-79.0369493,-8.1040795],[-79.0369787,-8.1041495],[-79.0368396,-8.1042254],[-79.0367014,-8.1043007],[-79.0363244,-8.1045064],[-79.0358117,-8.104786],[-79.0357479,-8.1048306],[-79.0356973,-8.1048961],[-79.0356934,-8.104972],[-79.0357223,-8.1050351],[-79.0357485,-8.1050922],[-79.0358273,-8.1052641],[-79.036067,-8.1057871],[-79.0362184,-8.1061526],[-79.0362525,-8.1062342],[-79.0365364,-8.1069179],[-79.0369485,-8.1079294],[-79.0372699,-8.1087139],[-79.037388,-8.108956],[-79.0375097,-8.1091387],[-79.0380939,-8.1098517],[-79.0381839,-8.1099631],[-79.0380882,-8.1100254],[-79.0376847,-8.1103207],[-79.036251,-8.1113451],[-79.0359712,-8.1115469],[-79.0359243,-8.1115837],[-79.035893,-8.1116049],[-79.0357964,-8.1116733],[-79.0357345,-8.111719],[-79.0356706,-8.1117669],[-79.0351109,-8.1121722],[-79.0345397,-8.1125864],[-79.0344451,-8.112655],[-79.0333154,-8.1136337],[-79.0328758,-8.1139825],[-79.0322537,-8.1144598],[-79.0320623,-8.114698],[-79.0312739,-8.1157431],[-79.0312147,-8.1157976],[-79.0307673,-8.1160244],[-79.0303971,-8.1161899],[-79.0302848,-8.116242],[-79.0299547,-8.1165072],[-79.0294209,-8.1169632],[-79.0286772,-8.1175894],[-79.0284193,-8.1178066],[-79.0282271,-8.1179685],[-79.0276199,-8.1184798],[-79.0275116,-8.118571],[-79.0262945,-8.1195754],[-79.026243,-8.1194835],[-79.0258057,-8.1189917],[-79.0256705,-8.118841],[-79.0253383,-8.1184941],[-79.0253204,-8.1184754],[-79.025167,-8.1183311],[-79.0250373,-8.118209],[-79.0249217,-8.1181009],[-79.0248441,-8.1180764],[-79.024142,-8.1174222],[-79.0230896,-8.1163724],[-79.0224025,-8.1156582],[-79.0219789,-8.1152309],[-79.0215809,-8.1148344],[-79.0213678,-8.1146176],[-79.0208073,-8.114097],[-79.0204401,-8.1136315],[-79.0201765,-8.1133091],[-79.0198386,-8.1128836],[-79.0192152,-8.1121631],[-79.0188813,-8.1118006],[-79.0187806,-8.1117241],[-79.0183624,-8.1112666],[-79.0180336,-8.1109069],[-79.0175129,-8.1102993],[-79.0174444,-8.1102211],[-79.0168949,-8.1095934],[-79.0164607,-8.1090763],[-79.0160606,-8.1086321],[-79.016002,-8.1085671],[-79.0158452,-8.1083849],[-79.0156031,-8.1081061],[-79.0153791,-8.1078466],[-79.0149207,-8.1073163],[-79.014742,-8.1071073],[-79.0144699,-8.1067831],[-79.0141982,-8.1064576],[-79.0138765,-8.1060794],[-79.0137806,-8.1059652],[-79.0136982,-8.1058694],[-79.0134976,-8.1056346],[-79.0132032,-8.1052914],[-79.0129236,-8.1049601],[-79.0126232,-8.1046043],[-79.0123322,-8.1042823],[-79.0122927,-8.1042322],[-79.0119901,-8.1038686],[-79.0118179,-8.1036636],[-79.011702,-8.103526],[-79.0112556,-8.1030038],[-79.0111726,-8.1029044],[-79.0110643,-8.1027749],[-79.0109298,-8.1026138],[-79.0108637,-8.1025337],[-79.0105134,-8.1021316],[-79.0100805,-8.1016148],[-79.0099966,-8.1015149],[-79.0097798,-8.1012538],[-79.0095466,-8.1009729],[-79.009278,-8.1006493],[-79.0089313,-8.1002317],[-79.008914,-8.1002109],[-79.0086681,-8.0999308],[-79.0084436,-8.0996751],[-79.008434,-8.0996632],[-79.0082817,-8.0994854],[-79.0075549,-8.0986333],[-79.0074679,-8.0985344],[-79.007063,-8.0980601],[-79.0067798,-8.097717],[-79.0065294,-8.0974193],[-79.0062319,-8.0970584],[-79.0057526,-8.0964965],[-79.0050954,-8.0957116],[-79.0048863,-8.0954618],[-79.0045496,-8.0950979],[-79.0042997,-8.0947882],[-79.0040934,-8.094524],[-79.0039314,-8.0943752],[-79.0039073,-8.0942981],[-79.0037003,-8.0940375],[-79.0036568,-8.093981],[-79.0036044,-8.0939199],[-79.0035858,-8.0938977],[-79.0019693,-8.0920154],[-79.0018886,-8.0919214],[-79.0014002,-8.0913524],[-79.0008035,-8.0906573],[-79.0003926,-8.0901787],[-79.0001227,-8.0898622],[-78.999898,-8.0895863],[-78.9996421,-8.0892074],[-78.9994803,-8.0888691],[-78.9992658,-8.0881905],[-78.999141,-8.0877949],[-78.9990933,-8.0876504],[-78.9992391,-8.0876095],[-78.9998223,-8.0874373],[-79.0009617,-8.0871009],[-79.0006628,-8.0859528],[-79.0003533,-8.0847957],[-79.0000507,-8.0836445],[-78.9997847,-8.0825537],[-79.000796,-8.082285],[-79.0004539,-8.0811491],[-79.0001276,-8.0800174],[-79.0000074,-8.0796357],[-78.999888,-8.0793515],[-78.9997754,-8.0791192],[-78.9995953,-8.078832],[-78.9989947,-8.0780156],[-78.9989791,-8.077994],[-78.9988301,-8.0777841],[-78.9985139,-8.0776261],[-78.9981547,-8.077479],[-78.9980829,-8.0774461],[-78.9980056,-8.0774403],[-78.9974491,-8.0776474],[-78.996434,-8.0780434],[-78.9963212,-8.0779728],[-78.996115,-8.0775213],[-78.9958987,-8.0769949],[-78.9956868,-8.0764545],[-78.9954623,-8.0758776],[-78.9950834,-8.0749074],[-78.9946476,-8.0737815],[-78.9942537,-8.0728054],[-78.9938625,-8.0718402],[-78.9934656,-8.0708653],[-78.9934118,-8.0707307],[-78.9930328,-8.0697928],[-78.9926236,-8.0687717],[-78.9921724,-8.0676546],[-78.9917536,-8.0665561],[-78.9915858,-8.0660711],[-78.991435,-8.0656441],[-78.9912913,-8.0652085],[-78.9911353,-8.0647369],[-78.9907883,-8.0638775],[-78.9908765,-8.0638451],[-78.9911182,-8.0638086]],"nodes":[1098625858,11033282973,4744104352,11033330158,1098625214,1098614663,1098586557,1098604660,1098596580,1098587001,1098644031,5472130025,1098596862,1098589255,1098646007,1098597855,1098606627,1098597413,1098646407,5472562481,1098593134,5456051648,5472562480,5086307011,5472562479,13381672035,1098605491,11027852594,5432246032,5432246031,1098645032,1098632773,1098622291,5087152246,5432246022,1098614050,5432245218,5432246025,1145579814,1098627268,1145579811,1026647877,1026647881,1026647885,1098599405,1026647889,5482905627,5467619029,1026647905,1026647909,1026647913,1026647915,11030377679,12601295648,1026647917,2885683476,1098615782,2885683477,1098609876,2885683478,2885683475,1098621172,2885683479,1098630971,5069527347,1098605566,1098643285,1098586594,1098596159,2885683481,2885683474,12601295649,1026647937,1026647939,11032867285,11032867281,1098622328,11030377675,11030377676,1026647943,11030395412,11030395409,10735933685,1098621018,1026647947,11030395406,11030269404,1098609580,5089132050,1098598955,5088905641,5088905655,1026647950,2399656830,1098607239,5087053971,11023976598,5475283789,11037375459,11023671194,5480877998,1098620805,5087163891,1026647961,1026647964,5087163889,11023381284,7118056428,11037375456,316265105,316265134,11032996038,11032996039,1026647433,11023381286,1026647328,11023313850,11023313852,1026647709,11023313854,11023313856,5086629392,11023313858,1026647291,11023313860,1098635308,11023313862,5086629394,1088227188,1098590745,11023313864,11023313866,1098623436,5676152374,9830187850,11023976595,1098639667,1144498432,1098595546,11023976593,5432160617,1088227460,1015347803,1098645978,1088227401,2466662083,1088227447,1050928494,1088227351,1088227443,1088227238,1088227437,1088227226,316256329,1627006909,1627006911,11892812604,1098635029,5476546768,1627006951,1098647086,1627006896,1627006892,320114914,1627006871,1627006865,1627006861,1627006857,1627006841,1098598360,1098591261,2694543105,1098647241,316264102,1554840454,5101540451,316264103,316488686,11037703693,316264105,320114897,7123096673,320114902,316264107,316264108,4633792028,1098600919,4633792030,1098623402,316264109,7123110593,316264083,316489562,4636371397,1098613323,1098627784,5676450287,1088384560,316489561,5455887068,316489560,1098619763,1098619466,1098607926,5455887058,5455890468,1098618204,1098622268,1098632743,1098626207,3386747931,1142680044,4452558515,1098603959,1142679850,316491306,320113100,11037614265,5069439506,11037999552,316491307,1098649150,5067068198,316491308,13540672114,5067077725,5067077726,8100941599,5067077727,8100941596,8100941594,1088227191,2979702863,11028289495,5089760766,11028445005,11028430503,316491309,5090218493,316491310,5090218495,11079442230,3391447001,316491311,13271666475,3392598287,1098609171,11028445007,11037527767,5489001130,11028445010,13181175555,1098592168,11028445012,1098648528,5483559216,7120542347,5098153491,5098153490,5098153483,5098153489,5098153488,5098153487,3128372033,7593769682,7593769681,12070707682,5098153486,12072495347,5098153485,5488997028,7120543153,5682927009,10859597995,11028255032,10246595772,11028255033,7873314502,13379844183,1693582318,13469457872,13469457873,1873564567,13379844182,2956751693,1693564453,5070367761,5070367764,5489001139,5070367760,5070367767,13395844567,13395844568,13395844570,5070367765,8237227723,3142662994,3306120221,9244456568,3142662993,4913639090,4913639092,3142662991,3306120216,3142662986,3306120215,3142662990,10723951686,3142662990,3306120215,3142662986,3306120216,3142662991,13528906358,12479853306,3306120220,3142662964,8237227718,10723937821,10723937820,8237221116,8237221114,8237221112,5070367761,1693564453,2956751693,13379844182,1873564567,13469457873,13469457872,1693582318,13379844183,7873314502,11028255033,10246595772,11028255032,10859597995,5682927009,7120543153,5488997028,5098153485,12072495347,5098153486,12070707682,7593769681,7593769682,3128372033,5098153487,5098153488,5098153489,5098153483,5098153490,5098153491,7120542372,7120542348,10723920895,7120542350,1142679969,11028445013,1142680016,13181175557,13181175556,11028445009,11037527768,13181175554,11028445008,2979717598,7120542344,2979717599,316491288,11079442231,5090218496,3392600109,316491289,5090218494,316491290,11028430504,11028445006,7115341984,5089760767,1088227230,2760772634,1098595788,1693595358,1693595362,1098599033,1098592849,11037604011,11037604010,1098636459,11037999554,1098626018,316491293,1098625617,5069337056,1098615175,3386747932,3743507184,1142680044,3386747931,10724078675,5478680206,5478680205,3743507186,3743507187,316491296,11033319452,3743507188,8763957262,2587893399,2587893400,5051964665,8763957234,5478761331,1098619763,2481376233,11037999556,2481376232,1873564603,1098612382,1098632446,1098588348,4633846734,4691590030,3802902827,3802902831,4633846700,1098637302,4633846701,1098626618,1098606361,1098597256,5455951601,1098611635,5067465333,320114899,316265319,316264036,316264037,1554840447,1628563878,316256200,5072149530,1098598714,1098608890,5476546746,1627006920,1098635606,316260176,316260175,5476546769,1627006951,5476546768,1098635029,11892812604,1627006911,1627006909,316260128,1088227275,1088227478,1088227293,1088227185,1088227399,1015347876,1050928471,1088227193,1145579819,1015292444,1144498438,1026647781,1088227261,11023976592,1098613755,1007782483,1098602637,11023976594,1098601972,11023313868,1098584430,11023313867,11023313865,5086629395,1088227445,3569346209,11023313863,1098613888,11023313861,11023313859,5086629393,11023313857,11023313855,1026647788,11023313853,11023313851,1026647512,1098632843,11023381285,11032994349,11032994346,316265133,1088227363,1098591604,11023381283,5482905646,5482905645,1098598553,1098647683,5087163892,1098643555,11037375458,11023671193,11037375460,11023976597,1098589923,5087053972,1026647809,1098633721,5481133290,1098610101,5088905642,5089132051,1026647819,11032459662,1026647822,1026647825,11030395407,11030395408,1026647827,11030377673,11030377667,1098586874,11032867290,11032867286,1026647835,1098650079,1098627321,1026647840,5467619028,5482905628,10735970446,1026647844,1026647848,1026647853,1145579843,1026647856,1026647875,1098583790,1145579814,5432246025,5432245218,1098614050,5432246022,5087152246,5087152245,5087152243,5432246029,5432246028,5432246027,5432246026,5480717112,13381672036,5472562479,5086307012,5457466312,5432246030,4744105221,1098599114,1098617669,4744108531,5472562482,4744108529,4744108528,4744108527,4744108526,4744108525,4744108524,4744108523,10733820003,4744108522,4744108521,4744108520,4744108519,4744108518,4744108832,4744108831,4744108830,4744108829,4744156930,11033282973,1098625858]},"gtfs":{"agency_id":3,"route_id":55,"services":[{"service_id":"Mo-Su","startTime":"05:00","endTime":"23:00","trip_id":19971999}],"filteredStops":{"nodes":[1098625858,13546545429,13546545428,13546545427,13546545426,13546545425,13546546203,13546545430,13546546012,13546545213,13546545212,13546546015,13546545215,13546546014,13546546023,13546546021,13546546019,13546546016,13546545962,13546545963,13546545965,13546545989,13546545187,13546545188,13546545189,13546535096,13546545899,13546535065,13546545938,13546545934,13546545936,13546545207,13546546268,13546546237,13546545496,13546546236,13546545524,13546545525,13546545136,13546545935,13546545137,13546545937,13546545139,13546545140,11910518835,13546545961,13546545158,13546545990,13546545148,13546545944,13546545945,13546546004,13546545966,13546545964,13546546024,13546545217,13546546020,13546546022,13546545218,13546546017,13546545216,13546546018,13546545214,13546546013,13546545431,13546546214,13546545481,13546545440,13546545444,13546545432,13546545412,13546545413,1098625858],"coordinates":[[-78.9911182,-8.0638086],[-78.991788,-8.0662863],[-78.9928678,-8.068958],[-78.9941149,-8.0721004],[-78.9950369,-8.0744037],[-78.9961574,-8.0772027],[-79.0000633,-8.0794839],[-79.0001983,-8.0840205],[-78.9997599,-8.0890569],[-79.0027888,-8.0908633],[-79.0038339,-8.0925497],[-79.005526,-8.0959705],[-79.0081884,-8.0991247],[-79.0104063,-8.1017614],[-79.0126193,-8.1043831],[-79.0145843,-8.1067231],[-79.0156326,-8.1079139],[-79.0180771,-8.1107095],[-79.0201607,-8.1131106],[-79.0219756,-8.1150777],[-79.0241112,-8.1172325],[-79.0288378,-8.1164007],[-79.0313214,-8.1154747],[-79.0326768,-8.1129583],[-79.0328035,-8.1111601],[-79.0354076,-8.1087135],[-79.0370376,-8.1078566],[-79.0372314,-8.1048656],[-79.0412932,-8.1020398],[-79.0488069,-8.1007275],[-79.0510692,-8.1007105],[-79.0556131,-8.0965993],[-79.0545901,-8.0928578],[-79.0526884,-8.0907488],[-79.0526454,-8.0855391],[-79.0538717,-8.0898841],[-79.0556056,-8.0963821],[-79.0568686,-8.0999365],[-79.0551083,-8.1009718],[-79.0490789,-8.1009183],[-79.0458694,-8.1012105],[-79.0431964,-8.101794],[-79.0398576,-8.1026767],[-79.0373475,-8.1039363],[-79.0362453,-8.1061083],[-79.0364177,-8.111273],[-79.0342033,-8.1129228],[-79.0304266,-8.1162183],[-79.02883,-8.1175161],[-79.0277518,-8.1184219],[-79.0264409,-8.1195518],[-79.0260687,-8.1193456],[-79.0242407,-8.1175637],[-79.0220819,-8.1153907],[-79.0196878,-8.1127712],[-79.0176203,-8.1105024],[-79.0154804,-8.1080378],[-79.0138854,-8.1061501],[-79.0120998,-8.1040441],[-79.0104204,-8.1021046],[-79.0080925,-8.0993433],[-79.0054888,-8.0962483],[-79.0026628,-8.0929774],[-78.9996426,-8.0893785],[-79.0001625,-8.0842065],[-78.9998968,-8.0794856],[-78.9969846,-8.077835],[-78.994871,-8.0744531],[-78.9939223,-8.0720672],[-78.9927085,-8.0690162],[-78.9916576,-8.066324],[-78.9908436,-8.0641839],[-78.9911182,-8.0638086]]},"forcedEndpointStops":[{"stop_id":1098625858,"stop_name":"Calle Luis Alberto Sanchez","position":"first"},{"stop_id":1098625858,"stop_name":"Calle Luis Alberto Sanchez","position":"last"}]}},{"type":"Feature","properties":{"bus":"yes","highway":"bus_stop","name":"PP-52","network":"Transporte Público Urbano Trujillo","public_transport":"platform","ref":"PP-52","source":"Gerencia de Transporte Metropolitano de Trujillo","id":13546545429},"geometry":{"type":"Point","coordinates":[-78.991788,-8.0662863]}},{"type":"Feature","properties":{"bus":"yes","highway":"bus_stop","name":"PP-53","network":"Transporte Público Urbano Trujillo","public_transport":"platform","ref":"PP-53","source":"Gerencia de Transporte Metropolitano de Trujillo","id":13546545428},"geometry":{"type":"Point","coordinates":[-78.9928678,-8.068958]}},{"type":"Feature","properties":{"bus":"yes","highway":"bus_stop","name":"PP-54","network":"Transporte Público Urbano Trujillo","public_transport":"platform","ref":"PP-54","source":"Gerencia de Transporte Metropolitano de Trujillo","id":13546545427},"geometry":{"type":"Point","coordinates":[-78.9941149,-8.0721004]}},{"type":"Feature","properties":{"bus":"yes","highway":"bus_stop","name":"PP-55","network":"Transporte Público Urbano Trujillo","public_transport":"platform","ref":"PP-55","source":"Gerencia de Transporte Metropolitano de Trujillo","id":13546545426},"geometry":{"type":"Point","coordinates":[-78.9950369,-8.0744037]}},{"type":"Feature","properties":{"bus":"yes","highway":"bus_stop","name":"PP-56","network":"Transporte Público Urbano Trujillo","public_transport":"platform","ref":"PP-56","source":"Gerencia de Transporte Metropolitano de Trujillo","id":13546545425},"geometry":{"type":"Point","coordinates":[-78.9961574,-8.0772027]}},{"type":"Feature","properties":{"bus":"yes","highway":"bus_stop","name":"PP-90","network":"Transporte Público Urbano Trujillo","public_transport":"platform","ref":"PP-90","source":"Gerencia de Transporte Metropolitano de Trujillo","id":13546546203},"geometry":{"type":"Point","coordinates":[-79.0000633,-8.0794839]}},{"type":"Feature","properties":{"bus":"yes","highway":"bus_stop","name":"PP-51","network":"Transporte Público Urbano Trujillo","public_transport":"platform","ref":"PP-51","source":"Gerencia de Transporte Metropolitano de Trujillo","id":13546545430},"geometry":{"type":"Point","coordinates":[-79.0001983,-8.0840205]}},{"type":"Feature","properties":{"bus":"yes","highway":"bus_stop","name":"CEV-189","network":"Transporte Público Urbano Trujillo","public_transport":"platform","ref":"CEV-189","source":"Gerencia de Transporte Metropolitano de Trujillo","id":13546546012},"geometry":{"type":"Point","coordinates":[-78.9997599,-8.0890569]}},{"type":"Feature","properties":{"bus":"yes","highway":"bus_stop","name":"CEV-190","network":"Transporte Público Urbano Trujillo","public_transport":"platform","ref":"CEV-190","source":"Gerencia de Transporte Metropolitano de Trujillo","id":13546545213},"geometry":{"type":"Point","coordinates":[-79.0027888,-8.0908633]}},{"type":"Feature","properties":{"bus":"yes","highway":"bus_stop","name":"CEV-191","network":"Transporte Público Urbano Trujillo","public_transport":"platform","ref":"CEV-191","source":"Gerencia de Transporte Metropolitano de Trujillo","id":13546545212},"geometry":{"type":"Point","coordinates":[-79.0038339,-8.0925497]}},{"type":"Feature","properties":{"bus":"yes","highway":"bus_stop","name":"CEV-184","network":"Transporte Público Urbano Trujillo","public_transport":"platform","ref":"CEV-184","source":"Gerencia de Transporte Metropolitano de Trujillo","id":13546546015},"geometry":{"type":"Point","coordinates":[-79.005526,-8.0959705]}},{"type":"Feature","properties":{"bus":"yes","highway":"bus_stop","name":"CEV-185","network":"Transporte Público Urbano Trujillo","public_transport":"platform","ref":"CEV-185","source":"Gerencia de Transporte Metropolitano de Trujillo","id":13546545215},"geometry":{"type":"Point","coordinates":[-79.0081884,-8.0991247]}},{"type":"Feature","properties":{"bus":"yes","highway":"bus_stop","name":"CEV-186","network":"Transporte Público Urbano Trujillo","public_transport":"platform","ref":"CEV-186","source":"Gerencia de Transporte Metropolitano de Trujillo","id":13546546014},"geometry":{"type":"Point","coordinates":[-79.0104063,-8.1017614]}},{"type":"Feature","properties":{"bus":"yes","highway":"bus_stop","name":"CEV-174","network":"Transporte Público Urbano Trujillo","public_transport":"platform","ref":"CEV-174","source":"Gerencia de Transporte Metropolitano de Trujillo","id":13546546023},"geometry":{"type":"Point","coordinates":[-79.0126193,-8.1043831]}},{"type":"Feature","properties":{"bus":"yes","highway":"bus_stop","name":"CEV-176","network":"Transporte Público Urbano Trujillo","public_transport":"platform","ref":"CEV-176","source":"Gerencia de Transporte Metropolitano de Trujillo","id":13546546021},"geometry":{"type":"Point","coordinates":[-79.0145843,-8.1067231]}},{"type":"Feature","properties":{"bus":"yes","highway":"bus_stop","name":"CEV-178","network":"Transporte Público Urbano Trujillo","public_transport":"platform","ref":"CEV-178","source":"Gerencia de Transporte Metropolitano de Trujillo","id":13546546019},"geometry":{"type":"Point","coordinates":[-79.0156326,-8.1079139]}},{"type":"Feature","properties":{"bus":"yes","highway":"bus_stop","name":"CEV-183","network":"Transporte Público Urbano Trujillo","public_transport":"platform","ref":"CEV-183","source":"Gerencia de Transporte Metropolitano de Trujillo","id":13546546016},"geometry":{"type":"Point","coordinates":[-79.0180771,-8.1107095]}},{"type":"Feature","properties":{"bus":"yes","highway":"bus_stop","name":"IN-171","network":"Transporte Público Urbano Trujillo","public_transport":"platform","ref":"IN-171","source":"Gerencia de Transporte Metropolitano de Trujillo","id":13546545962},"geometry":{"type":"Point","coordinates":[-79.0201607,-8.1131106]}},{"type":"Feature","properties":{"bus":"yes","highway":"bus_stop","name":"IN-170","network":"Transporte Público Urbano Trujillo","public_transport":"platform","ref":"IN-170","source":"Gerencia de Transporte Metropolitano de Trujillo","id":13546545963},"geometry":{"type":"Point","coordinates":[-79.0219756,-8.1150777]}},{"type":"Feature","properties":{"bus":"yes","highway":"bus_stop","name":"IN-168","network":"Transporte Público Urbano Trujillo","public_transport":"platform","ref":"IN-168","source":"Gerencia de Transporte Metropolitano de Trujillo","id":13546545965},"geometry":{"type":"Point","coordinates":[-79.0241112,-8.1172325]}},{"type":"Feature","properties":{"bus":"yes","highway":"bus_stop","name":"ESP-6","network":"Transporte Público Urbano Trujillo","public_transport":"platform","ref":"ESP-6","source":"Gerencia de Transporte Metropolitano de Trujillo","id":13546545989},"geometry":{"type":"Point","coordinates":[-79.0288378,-8.1164007]}},{"type":"Feature","properties":{"bus":"yes","highway":"bus_stop","name":"ESP-3","network":"Transporte Público Urbano Trujillo","public_transport":"platform","ref":"ESP-3","source":"Gerencia de Transporte Metropolitano de Trujillo","id":13546545187},"geometry":{"type":"Point","coordinates":[-79.0313214,-8.1154747]}},{"type":"Feature","properties":{"bus":"yes","highway":"bus_stop","name":"ESP-2","network":"Transporte Público Urbano Trujillo","public_transport":"platform","ref":"ESP-2","source":"Gerencia de Transporte Metropolitano de Trujillo","id":13546545188},"geometry":{"type":"Point","coordinates":[-79.0326768,-8.1129583]}},{"type":"Feature","properties":{"bus":"yes","highway":"bus_stop","name":"ESP-1","network":"Transporte Público Urbano Trujillo","public_transport":"platform","ref":"ESP-1","source":"Gerencia de Transporte Metropolitano de Trujillo","id":13546545189},"geometry":{"type":"Point","coordinates":[-79.0328035,-8.1111601]}},{"type":"Feature","properties":{"bus":"yes","highway":"bus_stop","name":"PEMU-341","network":"Transporte Público Urbano Trujillo","public_transport":"platform","ref":"PEMU-341","source":"Gerencia de Transporte Metropolitano de Trujillo","id":13546535096},"geometry":{"type":"Point","coordinates":[-79.0354076,-8.1087135]}},{"type":"Feature","properties":{"bus":"yes","highway":"bus_stop","name":"PEMU-342","network":"Transporte Público Urbano Trujillo","public_transport":"platform","ref":"PEMU-342","source":"Gerencia de Transporte Metropolitano de Trujillo","id":13546545899},"geometry":{"type":"Point","coordinates":[-79.0370376,-8.1078566]}},{"type":"Feature","properties":{"bus":"yes","highway":"bus_stop","name":"RJ-515","network":"Transporte Público Urbano Trujillo","public_transport":"platform","ref":"RJ-515","source":"Gerencia de Transporte Metropolitano de Trujillo","id":13546535065},"geometry":{"type":"Point","coordinates":[-79.0372314,-8.1048656]}},{"type":"Feature","properties":{"bus":"yes","highway":"bus_stop","name":"MANT-107","network":"Transporte Público Urbano Trujillo","public_transport":"platform","ref":"MANT-107","source":"Gerencia de Transporte Metropolitano de Trujillo","id":13546545938},"geometry":{"type":"Point","coordinates":[-79.0412932,-8.1020398]}},{"type":"Feature","properties":{"bus":"yes","highway":"bus_stop","name":"MANT-114","network":"Transporte Público Urbano Trujillo","public_transport":"platform","ref":"MANT-114","source":"Gerencia de Transporte Metropolitano de Trujillo","id":13546545934},"geometry":{"type":"Point","coordinates":[-79.0488069,-8.1007275]}},{"type":"Feature","properties":{"bus":"yes","highway":"bus_stop","name":"MANT-110","network":"Transporte Público Urbano Trujillo","public_transport":"platform","ref":"MANT-110","source":"Gerencia de Transporte Metropolitano de Trujillo","id":13546545936},"geometry":{"type":"Point","coordinates":[-79.0510692,-8.1007105]}},{"type":"Feature","properties":{"bus":"yes","highway":"bus_stop","name":"CORT-457","network":"Transporte Público Urbano Trujillo","public_transport":"platform","ref":"CORT-457","source":"Gerencia de Transporte Metropolitano de Trujillo","id":13546545207},"geometry":{"type":"Point","coordinates":[-79.0556131,-8.0965993]}},{"type":"Feature","properties":{"bus":"yes","highway":"bus_stop","name":"PH-167","network":"Transporte Público Urbano Trujillo","public_transport":"platform","ref":"PH-167","source":"Gerencia de Transporte Metropolitano de Trujillo","id":13546546268},"geometry":{"type":"Point","coordinates":[-79.0545901,-8.0928578]}},{"type":"Feature","properties":{"bus":"yes","highway":"bus_stop","name":"PH-83","network":"Transporte Público Urbano Trujillo","public_transport":"platform","ref":"PH-83","source":"Gerencia de Transporte Metropolitano de Trujillo","id":13546546237},"geometry":{"type":"Point","coordinates":[-79.0526884,-8.0907488]}},{"type":"Feature","properties":{"bus":"yes","highway":"bus_stop","name":"PH-88","network":"Transporte Público Urbano Trujillo","public_transport":"platform","ref":"PH-88","source":"Gerencia de Transporte Metropolitano de Trujillo","id":13546545496},"geometry":{"type":"Point","coordinates":[-79.0526454,-8.0855391]}},{"type":"Feature","properties":{"bus":"yes","highway":"bus_stop","name":"PH-87","network":"Transporte Público Urbano Trujillo","public_transport":"platform","ref":"PH-87","source":"Gerencia de Transporte Metropolitano de Trujillo","id":13546546236},"geometry":{"type":"Point","coordinates":[-79.0538717,-8.0898841]}},{"type":"Feature","properties":{"bus":"yes","highway":"bus_stop","name":"PH-166","network":"Transporte Público Urbano Trujillo","public_transport":"platform","ref":"PH-166","source":"Gerencia de Transporte Metropolitano de Trujillo","id":13546545524},"geometry":{"type":"Point","coordinates":[-79.0556056,-8.0963821]}},{"type":"Feature","properties":{"bus":"yes","highway":"bus_stop","name":"PH-164","network":"Transporte Público Urbano Trujillo","public_transport":"platform","ref":"PH-164","source":"Gerencia de Transporte Metropolitano de Trujillo","id":13546545525},"geometry":{"type":"Point","coordinates":[-79.0568686,-8.0999365]}},{"type":"Feature","properties":{"bus":"yes","highway":"bus_stop","name":"MANT-113","network":"Transporte Público Urbano Trujillo","public_transport":"platform","ref":"MANT-113","source":"Gerencia de Transporte Metropolitano de Trujillo","id":13546545136},"geometry":{"type":"Point","coordinates":[-79.0551083,-8.1009718]}},{"type":"Feature","properties":{"bus":"yes","highway":"bus_stop","name":"MANT-111","network":"Transporte Público Urbano Trujillo","public_transport":"platform","ref":"MANT-111","source":"Gerencia de Transporte Metropolitano de Trujillo","id":13546545935},"geometry":{"type":"Point","coordinates":[-79.0490789,-8.1009183]}},{"type":"Feature","properties":{"bus":"yes","highway":"bus_stop","name":"MANT-105","network":"Transporte Público Urbano Trujillo","public_transport":"platform","ref":"MANT-105","source":"Gerencia de Transporte Metropolitano de Trujillo","id":13546545137},"geometry":{"type":"Point","coordinates":[-79.0458694,-8.1012105]}},{"type":"Feature","properties":{"bus":"yes","highway":"bus_stop","name":"MANT-108","network":"Transporte Público Urbano Trujillo","public_transport":"platform","ref":"MANT-108","source":"Gerencia de Transporte Metropolitano de Trujillo","id":13546545937},"geometry":{"type":"Point","coordinates":[-79.0431964,-8.101794]}},{"type":"Feature","properties":{"bus":"yes","highway":"bus_stop","name":"MANT-101","network":"Transporte Público Urbano Trujillo","public_transport":"platform","ref":"MANT-101","source":"Gerencia de Transporte Metropolitano de Trujillo","id":13546545139},"geometry":{"type":"Point","coordinates":[-79.0398576,-8.1026767]}},{"type":"Feature","properties":{"bus":"yes","highway":"bus_stop","name":"MANT-100","network":"Transporte Público Urbano Trujillo","public_transport":"platform","ref":"MANT-100","source":"Gerencia de Transporte Metropolitano de Trujillo","id":13546545140},"geometry":{"type":"Point","coordinates":[-79.0373475,-8.1039363]}},{"type":"Feature","properties":{"advertising":"no","bench":"no","bicycle_parking":"no","bin":"no","bus":"yes","departures_board":"no","highway":"bus_stop","level":"0","lit":"yes","name":"ROM-370 Calle Santiago de Chile","network":"Transporte Público Urbano Trujillo","passenger_information_display:speech_output":"no","pole":"yes","public_transport":"platform","ramp":"no","ref":"ROM-370","shelter":"no","source:ref":"Gerencia de Transporte Metropolitano de Trujillo","tactile_paving":"no","tactile_writing:braille:es":"no","id":11910518835},"geometry":{"type":"Point","coordinates":[-79.0362453,-8.1061083]}},{"type":"Feature","properties":{"bus":"yes","highway":"bus_stop","name":"JEN-141","network":"Transporte Público Urbano Trujillo","public_transport":"platform","ref":"JEN-141","source":"Gerencia de Transporte Metropolitano de Trujillo","id":13546545961},"geometry":{"type":"Point","coordinates":[-79.0364177,-8.111273]}},{"type":"Feature","properties":{"bus":"yes","highway":"bus_stop","name":"JEN-140","network":"Transporte Público Urbano Trujillo","public_transport":"platform","ref":"JEN-140","source":"Gerencia de Transporte Metropolitano de Trujillo","id":13546545158},"geometry":{"type":"Point","coordinates":[-79.0342033,-8.1129228]}},{"type":"Feature","properties":{"bus":"yes","highway":"bus_stop","name":"ESP-4","network":"Transporte Público Urbano Trujillo","public_transport":"platform","ref":"ESP-4","source":"Gerencia de Transporte Metropolitano de Trujillo","id":13546545990},"geometry":{"type":"Point","coordinates":[-79.0304266,-8.1162183]}},{"type":"Feature","properties":{"bus":"yes","highway":"bus_stop","name":"JUL-436","network":"Transporte Público Urbano Trujillo","public_transport":"platform","ref":"JUL-436","source":"Gerencia de Transporte Metropolitano de Trujillo","id":13546545148},"geometry":{"type":"Point","coordinates":[-79.02883,-8.1175161]}},{"type":"Feature","properties":{"bus":"yes","highway":"bus_stop","name":"JUL-440","network":"Transporte Público Urbano Trujillo","public_transport":"platform","ref":"JUL-440","source":"Gerencia de Transporte Metropolitano de Trujillo","id":13546545944},"geometry":{"type":"Point","coordinates":[-79.0277518,-8.1184219]}},{"type":"Feature","properties":{"bus":"yes","highway":"bus_stop","name":"JUL-435","network":"Transporte Público Urbano Trujillo","public_transport":"platform","ref":"JUL-435","source":"Gerencia de Transporte Metropolitano de Trujillo","id":13546545945},"geometry":{"type":"Point","coordinates":[-79.0264409,-8.1195518]}},{"type":"Feature","properties":{"bus":"yes","highway":"bus_stop","name":"COSR-337","network":"Transporte Público Urbano Trujillo","public_transport":"platform","ref":"COSR-337","source":"Gerencia de Transporte Metropolitano de Trujillo","id":13546546004},"geometry":{"type":"Point","coordinates":[-79.0260687,-8.1193456]}},{"type":"Feature","properties":{"bus":"yes","highway":"bus_stop","name":"IN-167","network":"Transporte Público Urbano Trujillo","public_transport":"platform","ref":"IN-167","source":"Gerencia de Transporte Metropolitano de Trujillo","id":13546545966},"geometry":{"type":"Point","coordinates":[-79.0242407,-8.1175637]}},{"type":"Feature","properties":{"bus":"yes","highway":"bus_stop","name":"IN-169","network":"Transporte Público Urbano Trujillo","public_transport":"platform","ref":"IN-169","source":"Gerencia de Transporte Metropolitano de Trujillo","id":13546545964},"geometry":{"type":"Point","coordinates":[-79.0220819,-8.1153907]}},{"type":"Feature","properties":{"bus":"yes","highway":"bus_stop","name":"CEV-172","network":"Transporte Público Urbano Trujillo","public_transport":"platform","ref":"CEV-172","source":"Gerencia de Transporte Metropolitano de Trujillo","id":13546546024},"geometry":{"type":"Point","coordinates":[-79.0196878,-8.1127712]}},{"type":"Feature","properties":{"bus":"yes","highway":"bus_stop","name":"CEV-179","network":"Transporte Público Urbano Trujillo","public_transport":"platform","ref":"CEV-179","source":"Gerencia de Transporte Metropolitano de Trujillo","id":13546545217},"geometry":{"type":"Point","coordinates":[-79.0176203,-8.1105024]}},{"type":"Feature","properties":{"bus":"yes","highway":"bus_stop","name":"CEV-177","network":"Transporte Público Urbano Trujillo","public_transport":"platform","ref":"CEV-177","source":"Gerencia de Transporte Metropolitano de Trujillo","id":13546546020},"geometry":{"type":"Point","coordinates":[-79.0154804,-8.1080378]}},{"type":"Feature","properties":{"bus":"yes","highway":"bus_stop","name":"CEV-175","network":"Transporte Público Urbano Trujillo","public_transport":"platform","ref":"CEV-175","source":"Gerencia de Transporte Metropolitano de Trujillo","id":13546546022},"geometry":{"type":"Point","coordinates":[-79.0138854,-8.1061501]}},{"type":"Feature","properties":{"bus":"yes","highway":"bus_stop","name":"CEV-173","network":"Transporte Público Urbano Trujillo","public_transport":"platform","ref":"CEV-173","source":"Gerencia de Transporte Metropolitano de Trujillo","id":13546545218},"geometry":{"type":"Point","coordinates":[-79.0120998,-8.1040441]}},{"type":"Feature","properties":{"bus":"yes","highway":"bus_stop","name":"CEV-182","network":"Transporte Público Urbano Trujillo","public_transport":"platform","ref":"CEV-182","source":"Gerencia de Transporte Metropolitano de Trujillo","id":13546546017},"geometry":{"type":"Point","coordinates":[-79.0104204,-8.1021046]}},{"type":"Feature","properties":{"bus":"yes","highway":"bus_stop","name":"CEV-181","network":"Transporte Público Urbano Trujillo","public_transport":"platform","ref":"CEV-181","source":"Gerencia de Transporte Metropolitano de Trujillo","id":13546545216},"geometry":{"type":"Point","coordinates":[-79.0080925,-8.0993433]}},{"type":"Feature","properties":{"bus":"yes","highway":"bus_stop","name":"CEV-180","network":"Transporte Público Urbano Trujillo","public_transport":"platform","ref":"CEV-180","source":"Gerencia de Transporte Metropolitano de Trujillo","id":13546546018},"geometry":{"type":"Point","coordinates":[-79.0054888,-8.0962483]}},{"type":"Feature","properties":{"bus":"yes","highway":"bus_stop","name":"CEV-188","network":"Transporte Público Urbano Trujillo","public_transport":"platform","ref":"CEV-188","source":"Gerencia de Transporte Metropolitano de Trujillo","id":13546545214},"geometry":{"type":"Point","coordinates":[-79.0026628,-8.0929774]}},{"type":"Feature","properties":{"bus":"yes","highway":"bus_stop","name":"CEV-187","network":"Transporte Público Urbano Trujillo","public_transport":"platform","ref":"CEV-187","source":"Gerencia de Transporte Metropolitano de Trujillo","id":13546546013},"geometry":{"type":"Point","coordinates":[-78.9996426,-8.0893785]}},{"type":"Feature","properties":{"bus":"yes","highway":"bus_stop","name":"PP-50","network":"Transporte Público Urbano Trujillo","public_transport":"platform","ref":"PP-50","source":"Gerencia de Transporte Metropolitano de Trujillo","id":13546545431},"geometry":{"type":"Point","coordinates":[-79.0001625,-8.0842065]}},{"type":"Feature","properties":{"bus":"yes","highway":"bus_stop","name":"PP-39","network":"Transporte Público Urbano Trujillo","public_transport":"platform","ref":"PP-39","source":"Gerencia de Transporte Metropolitano de Trujillo","id":13546546214},"geometry":{"type":"Point","coordinates":[-78.9998968,-8.0794856]}},{"type":"Feature","properties":{"bus":"yes","highway":"bus_stop","name":"PP-112","network":"Transporte Público Urbano Trujillo","public_transport":"platform","ref":"PP-112","source":"Gerencia de Transporte Metropolitano de Trujillo","id":13546545481},"geometry":{"type":"Point","coordinates":[-78.9969846,-8.077835]}},{"type":"Feature","properties":{"bus":"yes","highway":"bus_stop","name":"PP-32","network":"Transporte Público Urbano Trujillo","public_transport":"platform","ref":"PP-32","source":"Gerencia de Transporte Metropolitano de Trujillo","id":13546545440},"geometry":{"type":"Point","coordinates":[-78.994871,-8.0744531]}},{"type":"Feature","properties":{"bus":"yes","highway":"bus_stop","name":"PP-2","network":"Transporte Público Urbano Trujillo","public_transport":"platform","ref":"PP-2","source":"Gerencia de Transporte Metropolitano de Trujillo","id":13546545444},"geometry":{"type":"Point","coordinates":[-78.9939223,-8.0720672]}},{"type":"Feature","properties":{"bus":"yes","highway":"bus_stop","name":"PP-5","network":"Transporte Público Urbano Trujillo","public_transport":"platform","ref":"PP-5","source":"Gerencia de Transporte Metropolitano de Trujillo","id":13546545432},"geometry":{"type":"Point","coordinates":[-78.9927085,-8.0690162]}},{"type":"Feature","properties":{"bus":"yes","highway":"bus_stop","name":"PP-9","network":"Transporte Público Urbano Trujillo","public_transport":"platform","ref":"PP-9","source":"Gerencia de Transporte Metropolitano de Trujillo","id":13546545412},"geometry":{"type":"Point","coordinates":[-78.9916576,-8.066324]}},{"type":"Feature","properties":{"bus":"yes","highway":"bus_stop","name":"PP-80","network":"Transporte Público Urbano Trujillo","public_transport":"platform","ref":"PP-80","source":"Gerencia de Transporte Metropolitano de Trujillo","id":13546545413},"geometry":{"type":"Point","coordinates":[-78.9908436,-8.0641839]}}]}