{"type":"FeatureCollection","features":[{"type":"Feature","properties":{"check_date":"2025-12-17","colour":"#0000FF","colour:text":"#FFFFFF","fee":"yes","from":"Avenida Julian Arce","hash":"11618","interval":"5","name":"Avenida Julian Arce → Óvalo Grau","network":"Transporte Público Urbano Trujillo","opening_hours":"Mo-Su 05:00-23:00","operator":"EL AGUILA S.A.","public_transport:version":"2","ref":"C-26 U","route":"bus","survey:avg_speed:kmh":"20","to":"Óvalo Grau","type":"route","id":19972095},"geometry":{"type":"LineString","coordinates":[[-78.9629815,-8.0879214],[-78.9625956,-8.0874654],[-78.9623945,-8.087305],[-78.9623381,-8.08726],[-78.9622093,-8.0871706],[-78.962008,-8.087081],[-78.9618177,-8.0869835],[-78.9615339,-8.0868824],[-78.9613934,-8.0868531],[-78.9611376,-8.0867997],[-78.9608491,-8.0868333],[-78.9598925,-8.0868237],[-78.9586103,-8.0868202],[-78.9575177,-8.0868267],[-78.9575191,-8.0867045],[-78.957513,-8.0864327],[-78.9575064,-8.0861374],[-78.9574233,-8.0859894],[-78.9572678,-8.0857128],[-78.9563406,-8.0862875],[-78.9555941,-8.0867169],[-78.9555885,-8.0868471],[-78.9554567,-8.086846],[-78.9551192,-8.0868343],[-78.9551157,-8.0877921],[-78.9550383,-8.0879672],[-78.955286,-8.0881392],[-78.9564993,-8.0890016],[-78.9567319,-8.0891669],[-78.9569849,-8.0893467],[-78.9571337,-8.0894525],[-78.9575497,-8.0897482],[-78.9579005,-8.0900028],[-78.9579293,-8.0900221],[-78.9582954,-8.0902569],[-78.9587089,-8.0905101],[-78.9603326,-8.0915909],[-78.9605336,-8.0916685],[-78.9607246,-8.0916802],[-78.9609045,-8.0916913],[-78.9612557,-8.0916716],[-78.961983,-8.0914846],[-78.9629161,-8.0912376],[-78.9631653,-8.0911898],[-78.9634972,-8.0910312],[-78.9636537,-8.0909481],[-78.9640069,-8.0907652],[-78.9642797,-8.0906483],[-78.9644254,-8.0907177],[-78.9645163,-8.0909122],[-78.9647265,-8.0913619],[-78.9651036,-8.0922162],[-78.9651602,-8.0922968],[-78.965277,-8.092409],[-78.9653932,-8.0924928],[-78.9655637,-8.0925526],[-78.9657336,-8.0925982],[-78.965861,-8.0926122],[-78.9660238,-8.0926157],[-78.9672008,-8.0925616],[-78.9672569,-8.0925549],[-78.9673063,-8.0925421],[-78.9673588,-8.0925217],[-78.9674121,-8.0924962],[-78.9674675,-8.0924598],[-78.9674985,-8.0924245],[-78.9675386,-8.0923999],[-78.9675844,-8.0923883],[-78.9676315,-8.0923907],[-78.9676758,-8.0924069],[-78.9677939,-8.0924207],[-78.9678922,-8.0924207],[-78.968009,-8.0924079],[-78.9681207,-8.0923834],[-78.9733658,-8.0909713],[-78.9735746,-8.0909153],[-78.9737551,-8.0908557],[-78.9738932,-8.0908066],[-78.9745879,-8.090474],[-78.9776695,-8.0889986],[-78.9779314,-8.0888935],[-78.9780977,-8.0888339],[-78.9782357,-8.0887989],[-78.9804159,-8.0883223],[-78.9807132,-8.0882557],[-78.9810565,-8.0881576],[-78.9812028,-8.0880774],[-78.9813785,-8.0879607],[-78.9815497,-8.0878192],[-78.9822626,-8.0872299],[-78.9824671,-8.0870805],[-78.9827219,-8.0869345],[-78.9834863,-8.0866012],[-78.9847676,-8.086089],[-78.9873487,-8.0850291],[-78.9878181,-8.0848485],[-78.9880675,-8.0847689],[-78.9883357,-8.0847197],[-78.9885369,-8.0846998],[-78.9887702,-8.0847091],[-78.9891176,-8.0847782],[-78.9893819,-8.0848486],[-78.9895467,-8.0849216],[-78.9898659,-8.0850928],[-78.9901435,-8.0853186],[-78.9902846,-8.0854864],[-78.9903232,-8.0855323],[-78.9906049,-8.0859758],[-78.9908045,-8.0863009],[-78.9910233,-8.0866636],[-78.9912835,-8.0871097],[-78.9915042,-8.0874784],[-78.9916896,-8.087726],[-78.9918646,-8.0879371],[-78.992106,-8.0882033],[-78.992219,-8.0883116],[-78.9923819,-8.0884388],[-78.9926165,-8.0885862],[-78.9929116,-8.0887402],[-78.9930712,-8.0888026],[-78.9932805,-8.0888859],[-78.9934829,-8.08895],[-78.9936665,-8.0889809],[-78.9938718,-8.0890005],[-78.9940944,-8.0889952],[-78.9942567,-8.088983],[-78.9944002,-8.088962],[-78.9945435,-8.0889391],[-78.9946609,-8.0889142],[-78.9949016,-8.0888554],[-78.9952211,-8.0887716],[-78.9956569,-8.0886425],[-78.996391,-8.0884293],[-78.9975157,-8.0881054],[-78.9986707,-8.0877765],[-78.9990933,-8.0876504],[-78.9992391,-8.0876095],[-78.9998223,-8.0874373],[-79.0009617,-8.0871009],[-79.0020954,-8.0867809],[-79.0021728,-8.0867575],[-79.0024043,-8.0866961],[-79.0027346,-8.086628],[-79.003007,-8.0865978],[-79.003272,-8.086572],[-79.0045424,-8.0864663],[-79.0046355,-8.0867259],[-79.0047007,-8.0869899],[-79.0047671,-8.0872114],[-79.004859,-8.0874391],[-79.0049374,-8.0875602],[-79.005316,-8.0881447],[-79.0058285,-8.088936],[-79.0063648,-8.0897641],[-79.0064195,-8.0898485],[-79.0067069,-8.0902923],[-79.0070201,-8.0907759],[-79.0070959,-8.0908929],[-79.0076416,-8.0917354],[-79.0082697,-8.0927053],[-79.0089143,-8.0937007],[-79.0091549,-8.0940722],[-79.0097722,-8.0950253],[-79.0099589,-8.0953135],[-79.0103791,-8.0959542],[-79.0109315,-8.0968047],[-79.0113972,-8.0964901],[-79.0115014,-8.0964198],[-79.0115653,-8.0965728],[-79.0118678,-8.0970426],[-79.0120905,-8.0974103],[-79.0123036,-8.0976514],[-79.012603,-8.0978991],[-79.0132545,-8.0984541],[-79.0136101,-8.0988172],[-79.0140853,-8.0993954],[-79.0141641,-8.0994701],[-79.014577,-8.0998631],[-79.0149133,-8.1001876],[-79.0156588,-8.1008993],[-79.0163864,-8.1015956],[-79.0171963,-8.1023702],[-79.017826,-8.1029724],[-79.0183526,-8.1034762],[-79.0188132,-8.1039165],[-79.0196086,-8.1046776],[-79.0200568,-8.1051059],[-79.0204242,-8.1054574],[-79.0207707,-8.1057879],[-79.0209818,-8.1059892],[-79.0212123,-8.1061998],[-79.0215926,-8.1065525],[-79.0220077,-8.1069277],[-79.0222647,-8.1071579],[-79.0228995,-8.1066112],[-79.0229807,-8.1065413],[-79.023038,-8.106491],[-79.0237973,-8.105839],[-79.0240616,-8.1056717],[-79.0240992,-8.1056475],[-79.0241745,-8.1056073],[-79.0242072,-8.105593],[-79.0252425,-8.1053654],[-79.02545,-8.1053178],[-79.0255188,-8.1053011],[-79.0256205,-8.1052764],[-79.0256809,-8.1052629],[-79.026261,-8.1051479],[-79.0263051,-8.1051465],[-79.0263581,-8.10516],[-79.026487,-8.1052106],[-79.0277113,-8.1057322],[-79.028062,-8.1053839],[-79.0285503,-8.104899],[-79.0292943,-8.1041622],[-79.0293628,-8.1040936],[-79.0301335,-8.1049403],[-79.0301909,-8.1050034],[-79.030238,-8.1050578],[-79.030281,-8.1050187],[-79.0304753,-8.1048415],[-79.0306623,-8.104671],[-79.0307953,-8.1045497],[-79.0308436,-8.1045056],[-79.0312028,-8.1041752],[-79.0312296,-8.1041511],[-79.0314988,-8.1039083],[-79.0315523,-8.1038595],[-79.0316272,-8.1037886],[-79.0319279,-8.1035136],[-79.0321211,-8.1033763],[-79.03227,-8.1032922],[-79.0329206,-8.1029419],[-79.0330027,-8.1029008],[-79.0330448,-8.1029781],[-79.0334047,-8.1036667],[-79.0336554,-8.1041335],[-79.0338867,-8.1045503],[-79.0340721,-8.1048958],[-79.0341355,-8.1050007],[-79.0341565,-8.1050326],[-79.0342258,-8.1051172],[-79.0343081,-8.1051894],[-79.0343997,-8.1052473],[-79.0344981,-8.1052881],[-79.0346003,-8.1053133],[-79.0347052,-8.1053225],[-79.0348477,-8.1053259],[-79.0350511,-8.1052429],[-79.0353172,-8.1051343],[-79.0354601,-8.105076],[-79.0355755,-8.1050771],[-79.035605,-8.1050916],[-79.0356791,-8.1051455],[-79.0357223,-8.1051829],[-79.0358273,-8.1052641],[-79.036067,-8.1057871],[-79.0362184,-8.1061526],[-79.0362525,-8.1062342],[-79.0365364,-8.1069179],[-79.0369485,-8.1079294],[-79.0372699,-8.1087139],[-79.037388,-8.108956],[-79.0375097,-8.1091387],[-79.0380939,-8.1098517],[-79.0381839,-8.1099631],[-79.0380882,-8.1100254],[-79.0376847,-8.1103207],[-79.036251,-8.1113451],[-79.0359712,-8.1115469],[-79.0359243,-8.1115837],[-79.035893,-8.1116049],[-79.0357964,-8.1116733],[-79.0357345,-8.111719],[-79.0356706,-8.1117669],[-79.0351109,-8.1121722],[-79.0345397,-8.1125864],[-79.0344451,-8.112655],[-79.0333154,-8.1136337],[-79.0328758,-8.1139825],[-79.0322537,-8.1144598],[-79.0320623,-8.114698],[-79.0312739,-8.1157431],[-79.0313277,-8.1158423],[-79.0317993,-8.1163754],[-79.0318203,-8.1164025],[-79.0318814,-8.1164742],[-79.0330129,-8.1177891],[-79.0330785,-8.1178687],[-79.0330194,-8.117932],[-79.0329686,-8.1179781],[-79.0328002,-8.1181308],[-79.0327801,-8.1181603],[-79.0327767,-8.1182024],[-79.0328045,-8.1183974],[-79.0328335,-8.1185405],[-79.0330906,-8.1192449],[-79.0335299,-8.1202521],[-79.033868,-8.1210477],[-79.0338969,-8.1211157],[-79.0343073,-8.1220678],[-79.0345479,-8.1226898],[-79.0349761,-8.1237656],[-79.0352374,-8.1244374],[-79.0357152,-8.1256383],[-79.0357596,-8.1257514],[-79.0357007,-8.1257726],[-79.0356366,-8.1258005],[-79.0347785,-8.1261254],[-79.0343005,-8.1262837],[-79.0339226,-8.126386],[-79.0336986,-8.1264482],[-79.0331612,-8.1265934],[-79.0326043,-8.1266954],[-79.0325305,-8.1267089],[-79.0324376,-8.1267209],[-79.0320876,-8.1267651],[-79.0317662,-8.1267836],[-79.0316522,-8.1267885],[-79.0314342,-8.1267881],[-79.0313567,-8.126788],[-79.0312896,-8.1267849],[-79.0309179,-8.126768],[-79.0307428,-8.1267543],[-79.0305879,-8.1267476],[-79.0304667,-8.1267397],[-79.0304075,-8.1267326],[-79.0303135,-8.1267253],[-79.0302526,-8.1267171],[-79.0299185,-8.1266745],[-79.0295335,-8.1266304],[-79.0293173,-8.1266056],[-79.0288559,-8.1265113],[-79.0282974,-8.1263971],[-79.0272399,-8.1260503],[-79.0262905,-8.1257014],[-79.0261484,-8.1256251],[-79.0259428,-8.1255147],[-79.0253822,-8.1252137],[-79.0244836,-8.1246723],[-79.0237336,-8.1241795],[-79.0236823,-8.1241458],[-79.023635,-8.1241261],[-79.0235902,-8.1241222],[-79.0234928,-8.1241332],[-79.0233923,-8.1241853],[-79.0232745,-8.1242196],[-79.0231521,-8.1242295],[-79.0230407,-8.1242171],[-79.0229336,-8.1241844],[-79.0228344,-8.1241327],[-79.022741,-8.1240583],[-79.0226643,-8.1239672],[-79.0226056,-8.1238588],[-79.0225705,-8.1237408],[-79.0225606,-8.1236181],[-79.0225722,-8.123515],[-79.0226016,-8.1234153],[-79.022648,-8.1233223],[-79.0226952,-8.1232558],[-79.0227511,-8.1231964],[-79.0228587,-8.1231167],[-79.0229815,-8.1230626]],"nodes":[334658243,334658242,11033146886,1169126562,334658240,1169126601,334658239,2604535918,10733277188,334658238,1195995184,1195996281,1195996247,1195995943,1188353012,8156274586,1189526059,11103027590,1723600979,1723600980,1189494658,1188353010,11023851013,1195995324,1195995783,334657472,334657474,1195995815,1195995424,10733368327,1195995620,1195995075,1195996062,1438763584,1195995347,1195996284,1169450380,334657477,6489471020,334657478,334657479,1169450379,1169450415,334657480,1169450412,1169450407,1169450404,334656957,3728290623,11037547132,3728290624,2604535891,2604535889,2604535888,2604535887,2604535886,2604535885,2604535884,2604535882,2604535880,11032782360,2604535878,11032782361,2604535877,11030882419,2604535830,2604535828,2604535857,2604535855,2604535853,2604535863,2604535817,2604535815,2604535813,2604535811,2604535809,2604535807,2604535806,8244994758,2604535805,2604535804,2604535803,2604535802,2604535800,2604535797,2604535794,4743566854,334655929,9619324840,334655933,334655934,334655935,5481083722,5481083723,5481083724,334655936,5481083725,334655938,334655939,334655940,334655941,1098612349,334655942,334655943,334655944,11032445415,334655945,5481083726,11032445413,1098638551,334655946,334655947,11032885359,11032885360,5480680745,5087571040,334655949,334655950,5482905633,334655951,11030198493,334655953,11030198494,334655954,5482905634,11030259919,334655955,11030198492,1098622460,9472286859,8738664013,5467610694,1098617278,1098606088,1098597176,1026647856,1026647875,1098583790,1145579814,5087152250,1098589414,11030197124,5457488571,11030197123,5457488569,7668139444,5457488572,5457486692,11028255419,5089580862,1098584049,1098644084,5089580884,1145579872,1098594803,1098594884,11028542916,1098593161,1098614707,1098645592,1098598814,1098587565,5079385441,11030663215,5098830430,5079385440,1050964097,1050964121,5432184396,5098743754,1050964104,1050964086,5098743746,1050964101,1050964085,4452550921,4452550922,1098601537,1051000245,1098620120,1088227476,1098585235,1098641105,1098641400,1088227388,1098647854,1098635414,1098584127,11037521002,11037529610,5478475745,5476546741,1050964088,5582931366,8109317247,1098589553,8109317246,2573525831,316264050,12987860959,1088227426,1088227269,1802823281,9829891081,316488509,1802823277,9829891084,316264052,11016646712,11016646713,316264053,2573525826,1098596857,1412626514,1412626563,1098633361,4633875087,4633874462,2557538233,4633874460,5051774255,5051840800,11016648380,1098618144,1098628342,11037884382,4633875115,1028959880,2591037890,1028959871,2591048788,2591048786,316265161,316265078,316265077,1098605290,1098592541,4633926900,316261409,2587893378,2587893377,3386747951,11037837217,2587893387,2587893388,11033319445,2587893389,3386747952,3386747956,3386747938,5051905636,11033319453,11033319451,3386747937,11033319450,2587893399,2587893400,5051964665,8763957234,5478761331,1098619763,2481376233,11037999556,2481376232,1873564603,1098612382,1098632446,1098588348,4633846734,4691590030,3802902827,3802902831,4633846700,1098637302,4633846701,1098626618,1098606361,1098597256,5455951601,1098611635,5067465333,320114899,316265319,316265320,13388848298,1088227292,13388848295,4453868027,1098595964,316265332,13388848285,11037623967,1098625474,316490268,10726577987,316490269,1088227450,5478404932,11037749310,5476546734,1088227415,1098614594,1024375879,5478671939,316490371,316490370,12216751843,316490365,5473932885,316254439,8137323600,10765341359,11030822023,11086134235,1098638293,11086134237,316254442,7115416191,7115416192,11086134234,1098612800,11086134232,11030606604,316254443,13086967420,320114890,12216751801,320114884,13086967422,288409665,6119482459,1098650103,13086967411,288409296,1098611390,1098622334,12909185080,12909185072,3293558514,1098587311,12566648340,316254501,12566648337,3670684009,3670684004,316254506,2591061034,288406679,12566648334,3670684011,316254426,316254427,1098644892,3670684727,316254428,1098632617,316254429,6195970422,316265440,316261151,12566648306,316261163,316254431]},"gtfs":{"agency_id":28,"route_id":61,"services":[{"service_id":"Mo-Su","startTime":"05:00","endTime":"23:00","trip_id":19972095}],"filteredStops":{"nodes":[334658243,13546546165,13546546177,13546546173,13546546144,13546545376,13546546131,13546546152,13546546171,13546546155,13546546158,13546545375,13546546216,13546545441,13546545442,13546535085,13546545892,13546545975,13546535097,13546535098,13546545902,13546535099,13546545905,4937067022,11895957225,13546545269,13546545932,13546546055,11910518835,13546545899,13546545961,13546545158,5099440457,13546535040,13546545164,13546545165,13546545167,13546546053,11910359975,13546546046,316254431],"coordinates":[[-78.9629815,-8.0879214],[-78.9610242,-8.0868486],[-78.9552859,-8.0868764],[-78.9556018,-8.0883177],[-78.9632755,-8.0910913],[-78.9650079,-8.0918744],[-78.9672482,-8.0924662],[-78.9782674,-8.0887469],[-78.9810106,-8.0881079],[-78.9846859,-8.0860585],[-78.9890264,-8.0846371],[-78.9912397,-8.0867526],[-78.9940735,-8.088993],[-78.9980693,-8.0879275],[-79.0013652,-8.0869607],[-79.0073701,-8.0912816],[-79.0093784,-8.09436],[-79.0112737,-8.0965565],[-79.0123873,-8.097709],[-79.0153155,-8.1005072],[-79.017311,-8.1023748],[-79.0193401,-8.1042749],[-79.0213554,-8.1062447],[-79.0240072,-8.1056158],[-79.0276442,-8.1056576],[-79.0291152,-8.1043057],[-79.0312459,-8.104043],[-79.0333794,-8.1034995],[-79.0362453,-8.1061083],[-79.0370376,-8.1078566],[-79.0364068,-8.1112557],[-79.0342059,-8.1129254],[-79.0322849,-8.1145182],[-79.0323048,-8.1168802],[-79.0334941,-8.1200729],[-79.0346739,-8.1229207],[-79.0356127,-8.1253041],[-79.0343534,-8.1263244],[-79.0311438,-8.12682],[-79.0288382,-8.126564],[-79.0229815,-8.1230626]]},"forcedEndpointStops":[{"stop_id":334658243,"stop_name":"Avenida Julian Arce","position":"first"},{"stop_id":316254431,"stop_name":"Avenida América Sur y Plaza Miguel Grau","position":"last"}]}},{"type":"Feature","properties":{"bus":"yes","highway":"bus_stop","network":"Transporte Público Urbano Trujillo","public_transport":"platform","ref":"PL-43","source":"Gerencia de Transporte Metropolitano de Trujillo","id":13546546165},"geometry":{"type":"Point","coordinates":[-78.9610242,-8.0868486]}},{"type":"Feature","properties":{"bus":"yes","highway":"bus_stop","network":"Transporte Público Urbano Trujillo","public_transport":"platform","ref":"PL-14","source":"Gerencia de Transporte Metropolitano de Trujillo","id":13546546177},"geometry":{"type":"Point","coordinates":[-78.9552859,-8.0868764]}},{"type":"Feature","properties":{"bus":"yes","highway":"bus_stop","network":"Transporte Público Urbano Trujillo","public_transport":"platform","ref":"PL-23","source":"Gerencia de Transporte Metropolitano de Trujillo","id":13546546173},"geometry":{"type":"Point","coordinates":[-78.9556018,-8.0883177]}},{"type":"Feature","properties":{"bus":"yes","highway":"bus_stop","network":"Transporte Público Urbano Trujillo","public_transport":"platform","ref":"PL-8","source":"Gerencia de Transporte Metropolitano de Trujillo","id":13546546144},"geometry":{"type":"Point","coordinates":[-78.9632755,-8.0910913]}},{"type":"Feature","properties":{"bus":"yes","highway":"bus_stop","network":"Transporte Público Urbano Trujillo","public_transport":"platform","ref":"PL-26","source":"Gerencia de Transporte Metropolitano de Trujillo","id":13546545376},"geometry":{"type":"Point","coordinates":[-78.9650079,-8.0918744]}},{"type":"Feature","properties":{"bus":"yes","highway":"bus_stop","network":"Transporte Público Urbano Trujillo","public_transport":"platform","ref":"PL-Existente","source":"Gerencia de Transporte Metropolitano de Trujillo","id":13546546131},"geometry":{"type":"Point","coordinates":[-78.9672482,-8.0924662]}},{"type":"Feature","properties":{"bus":"yes","highway":"bus_stop","network":"Transporte Público Urbano Trujillo","public_transport":"platform","ref":"PL-61","source":"Gerencia de Transporte Metropolitano de Trujillo","id":13546546152},"geometry":{"type":"Point","coordinates":[-78.9782674,-8.0887469]}},{"type":"Feature","properties":{"bus":"yes","highway":"bus_stop","network":"Transporte Público Urbano Trujillo","public_transport":"platform","ref":"PL-25","source":"Gerencia de Transporte Metropolitano de Trujillo","id":13546546171},"geometry":{"type":"Point","coordinates":[-78.9810106,-8.0881079]}},{"type":"Feature","properties":{"bus":"yes","highway":"bus_stop","network":"Transporte Público Urbano Trujillo","public_transport":"platform","ref":"PL-59","source":"Gerencia de Transporte Metropolitano de Trujillo","id":13546546155},"geometry":{"type":"Point","coordinates":[-78.9846859,-8.0860585]}},{"type":"Feature","properties":{"bus":"yes","highway":"bus_stop","network":"Transporte Público Urbano Trujillo","public_transport":"platform","ref":"PL-56","source":"Gerencia de Transporte Metropolitano de Trujillo","id":13546546158},"geometry":{"type":"Point","coordinates":[-78.9890264,-8.0846371]}},{"type":"Feature","properties":{"bus":"yes","highway":"bus_stop","network":"Transporte Público Urbano Trujillo","public_transport":"platform","ref":"PL-27","source":"Gerencia de Transporte Metropolitano de Trujillo","id":13546545375},"geometry":{"type":"Point","coordinates":[-78.9912397,-8.0867526]}},{"type":"Feature","properties":{"bus":"yes","highway":"bus_stop","network":"Transporte Público Urbano Trujillo","public_transport":"platform","ref":"PP-27","source":"Gerencia de Transporte Metropolitano de Trujillo","id":13546546216},"geometry":{"type":"Point","coordinates":[-78.9940735,-8.088993]}},{"type":"Feature","properties":{"bus":"yes","highway":"bus_stop","network":"Transporte Público Urbano Trujillo","public_transport":"platform","ref":"PP-26","source":"Gerencia de Transporte Metropolitano de Trujillo","id":13546545441},"geometry":{"type":"Point","coordinates":[-78.9980693,-8.0879275]}},{"type":"Feature","properties":{"bus":"yes","highway":"bus_stop","network":"Transporte Público Urbano Trujillo","public_transport":"platform","ref":"PP-25","source":"Gerencia de Transporte Metropolitano de Trujillo","id":13546545442},"geometry":{"type":"Point","coordinates":[-79.0013652,-8.0869607]}},{"type":"Feature","properties":{"bus":"yes","highway":"bus_stop","network":"Transporte Público Urbano Trujillo","public_transport":"platform","ref":"PLUN-293","source":"Gerencia de Transporte Metropolitano de Trujillo","id":13546535085},"geometry":{"type":"Point","coordinates":[-79.0073701,-8.0912816]}},{"type":"Feature","properties":{"bus":"yes","highway":"bus_stop","network":"Transporte Público Urbano Trujillo","public_transport":"platform","ref":"PLUN-290","source":"Gerencia de Transporte Metropolitano de Trujillo","id":13546545892},"geometry":{"type":"Point","coordinates":[-79.0093784,-8.09436]}},{"type":"Feature","properties":{"bus":"yes","highway":"bus_stop","network":"Transporte Público Urbano Trujillo","public_transport":"platform","ref":"FEVI-225","source":"Gerencia de Transporte Metropolitano de Trujillo","id":13546545975},"geometry":{"type":"Point","coordinates":[-79.0112737,-8.0965565]}},{"type":"Feature","properties":{"bus":"yes","highway":"bus_stop","network":"Transporte Público Urbano Trujillo","public_transport":"platform","ref":"PE-246","source":"Gerencia de Transporte Metropolitano de Trujillo","id":13546535097},"geometry":{"type":"Point","coordinates":[-79.0123873,-8.097709]}},{"type":"Feature","properties":{"bus":"yes","highway":"bus_stop","network":"Transporte Público Urbano Trujillo","public_transport":"platform","ref":"PE-244","source":"Gerencia de Transporte Metropolitano de Trujillo","id":13546535098},"geometry":{"type":"Point","coordinates":[-79.0153155,-8.1005072]}},{"type":"Feature","properties":{"bus":"yes","highway":"bus_stop","network":"Transporte Público Urbano Trujillo","public_transport":"platform","ref":"PE-242","source":"Gerencia de Transporte Metropolitano de Trujillo","id":13546545902},"geometry":{"type":"Point","coordinates":[-79.017311,-8.1023748]}},{"type":"Feature","properties":{"bus":"yes","highway":"bus_stop","network":"Transporte Público Urbano Trujillo","public_transport":"platform","ref":"PE-240","source":"Gerencia de Transporte Metropolitano de Trujillo","id":13546535099},"geometry":{"type":"Point","coordinates":[-79.0193401,-8.1042749]}},{"type":"Feature","properties":{"bus":"yes","highway":"bus_stop","network":"Transporte Público Urbano Trujillo","public_transport":"platform","ref":"PE-238","source":"Gerencia de Transporte Metropolitano de Trujillo","id":13546545905},"geometry":{"type":"Point","coordinates":[-79.0213554,-8.1062447]}},{"type":"Feature","properties":{"advertising":"yes","bench":"yes","bicycle_parking":"no","bin":"no","bus":"yes","departures_board":"no","highway":"bus_stop","level":"0","lit":"yes","name":"Avenida Del Ejército","name:de":"Bus B nach Chan Chan und Huanchaco","name:en":"Bus B to Chan Chan and Huanchaco","network":"Transporte Público Urbano Trujillo","passenger_information_display:speech_output":"no","pole":"yes","public_transport":"platform","ramp":"no","ref":"ESP-12","shelter":"yes","source:ref":"Gerencia de Transporte Metropolitano de Trujillo","tactile_paving":"no","tactile_writing:braille:es":"no","id":4937067022},"geometry":{"type":"Point","coordinates":[-79.0240072,-8.1056158]}},{"type":"Feature","properties":{"advertising":"no","bench":"no","bicycle_parking":"no","bin":"no","bus":"yes","departures_board":"no","highway":"bus_stop","level":"0","lit":"no","name":"Calle Agricultura","network":"Transporte Público Urbano Trujillo","passenger_information_display:speech_output":"no","pole":"yes","public_transport":"platform","ramp":"no","ref":"ESP-14","shelter":"no","source:ref":"Gerencia de Transporte Metropolitano de Trujillo","tactile_paving":"no","tactile_writing:braille:es":"no","id":11895957225},"geometry":{"type":"Point","coordinates":[-79.0276442,-8.1056576]}},{"type":"Feature","properties":{"bus":"yes","highway":"bus_stop","network":"Transporte Público Urbano Trujillo","public_transport":"platform","ref":"AGR-523","source":"Gerencia de Transporte Metropolitano de Trujillo","id":13546545269},"geometry":{"type":"Point","coordinates":[-79.0291152,-8.1043057]}},{"type":"Feature","properties":{"bus":"yes","highway":"bus_stop","network":"Transporte Público Urbano Trujillo","public_transport":"platform","ref":"MAVE-355","source":"Gerencia de Transporte Metropolitano de Trujillo","id":13546545932},"geometry":{"type":"Point","coordinates":[-79.0312459,-8.104043]}},{"type":"Feature","properties":{"bus":"yes","highway":"bus_stop","network":"Transporte Público Urbano Trujillo","public_transport":"platform","ref":"AMN-27","source":"Gerencia de Transporte Metropolitano de Trujillo","id":13546546055},"geometry":{"type":"Point","coordinates":[-79.0333794,-8.1034995]}},{"type":"Feature","properties":{"advertising":"no","bench":"no","bicycle_parking":"no","bin":"no","bus":"yes","departures_board":"no","highway":"bus_stop","level":"0","lit":"yes","name":"Calle Santiago de Chile","network":"Transporte Público Urbano Trujillo","passenger_information_display:speech_output":"no","pole":"yes","public_transport":"platform","ramp":"no","ref":"ROM-370","shelter":"no","source:ref":"Gerencia de Transporte Metropolitano de Trujillo","tactile_paving":"no","tactile_writing:braille:es":"no","id":11910518835},"geometry":{"type":"Point","coordinates":[-79.0362453,-8.1061083]}},{"type":"Feature","properties":{"bus":"yes","highway":"bus_stop","network":"Transporte Público Urbano Trujillo","public_transport":"platform","ref":"PEMU-342","source":"Gerencia de Transporte Metropolitano de Trujillo","id":13546545899},"geometry":{"type":"Point","coordinates":[-79.0370376,-8.1078566]}},{"type":"Feature","properties":{"bus":"yes","highway":"bus_stop","network":"Transporte Público Urbano Trujillo","public_transport":"platform","ref":"JEN-141","source":"Gerencia de Transporte Metropolitano de Trujillo","id":13546545961},"geometry":{"type":"Point","coordinates":[-79.0364068,-8.1112557]}},{"type":"Feature","properties":{"bus":"yes","highway":"bus_stop","network":"Transporte Público Urbano Trujillo","public_transport":"platform","ref":"JEN-140","source":"Gerencia de Transporte Metropolitano de Trujillo","id":13546545158},"geometry":{"type":"Point","coordinates":[-79.0342059,-8.1129254]}},{"type":"Feature","properties":{"advertising":"yes","bench":"yes","bicycle_parking":"yes","bin":"no","bus":"yes","departures_board":"no","highway":"bus_stop","level":"0","lit":"yes","name":"Jirón Independencia","network":"Transporte Público Urbano Trujillo","passenger_information_display:speech_output":"no","pole":"yes","public_transport":"platform","ramp":"no","ref":"ESP-5","shelter":"yes","source":"Reconocimiento terrestre cartográfico realizado por Kaart en 2017","tactile_paving":"no","tactile_writing:braille:es":"no","id":5099440457},"geometry":{"type":"Point","coordinates":[-79.0322849,-8.1145182]}},{"type":"Feature","properties":{"bus":"yes","highway":"bus_stop","network":"Transporte Público Urbano Trujillo","public_transport":"platform","ref":"VLHT-92","source":"Gerencia de Transporte Metropolitano de Trujillo","id":13546535040},"geometry":{"type":"Point","coordinates":[-79.0323048,-8.1168802]}},{"type":"Feature","properties":{"bus":"yes","highway":"bus_stop","network":"Transporte Público Urbano Trujillo","public_transport":"platform","ref":"HSJ-235","source":"Gerencia de Transporte Metropolitano de Trujillo","id":13546545164},"geometry":{"type":"Point","coordinates":[-79.0334941,-8.1200729]}},{"type":"Feature","properties":{"bus":"yes","highway":"bus_stop","network":"Transporte Público Urbano Trujillo","public_transport":"platform","ref":"HSJ-233","source":"Gerencia de Transporte Metropolitano de Trujillo","id":13546545165},"geometry":{"type":"Point","coordinates":[-79.0346739,-8.1229207]}},{"type":"Feature","properties":{"bus":"yes","highway":"bus_stop","network":"Transporte Público Urbano Trujillo","public_transport":"platform","ref":"HSJ-231","source":"Gerencia de Transporte Metropolitano de Trujillo","id":13546545167},"geometry":{"type":"Point","coordinates":[-79.0356127,-8.1253041]}},{"type":"Feature","properties":{"bus":"yes","highway":"bus_stop","network":"Transporte Público Urbano Trujillo","public_transport":"platform","ref":"AMS-39","source":"Gerencia de Transporte Metropolitano de Trujillo","id":13546546053},"geometry":{"type":"Point","coordinates":[-79.0343534,-8.1263244]}},{"type":"Feature","properties":{"advertising":"yes","bench":"yes","bicycle_parking":"no","bin":"no","bus":"yes","departures_board":"no","highway":"bus_stop","level":"0","lit":"yes","name":"Prolongación Cesar Vallejo","network":"Transporte Público Urbano Trujillo","passenger_information_display:speech_output":"no","pole":"yes","public_transport":"platform","ramp":"no","ref":"AMS-49","shelter":"yes","source:ref":"Gerencia de Transporte Metropolitano de Trujillo","tactile_paving":"no","tactile_writing:braille:es":"no","id":11910359975},"geometry":{"type":"Point","coordinates":[-79.0311438,-8.12682]}},{"type":"Feature","properties":{"bus":"yes","highway":"bus_stop","network":"Transporte Público Urbano Trujillo","public_transport":"platform","ref":"AMS-51","source":"Gerencia de Transporte Metropolitano de Trujillo","id":13546546046},"geometry":{"type":"Point","coordinates":[-79.0288382,-8.126564]}}]}