{"type":"FeatureCollection","features":[{"type":"Feature","properties":{"check_date":"2025-12-22","colour":"#cfe2f3","colour:text":"#000000","fee":"yes","from":"Calle Miguiel Graú","hash":"14217","interval":"4","name":"Calle Miguiel Graú → Avenida 12 de Noviembre","network":"Transporte Público Urbano Trujillo","opening_hours":"Mo-Su 05:00-23:00","operator":"LOS DIAMANTES S.R.L.","public_transport:version":"2","ref":"C-45 C","route":"bus","survey:avg_speed:kmh":"20","to":"Avenida 12 de Noviembre","type":"route","id":19990157},"geometry":{"type":"LineString","coordinates":[[-79.0226286,-8.0633489],[-79.0231265,-8.063426],[-79.0235875,-8.0635152],[-79.0240166,-8.0635981],[-79.0244709,-8.0636859],[-79.026047,-8.0639993],[-79.026525,-8.0640975],[-79.0266069,-8.0636686],[-79.0265298,-8.0633308],[-79.0260238,-8.0625657],[-79.0253438,-8.0615205],[-79.0245471,-8.0602155],[-79.0239711,-8.0593236],[-79.0235285,-8.0586409],[-79.0231062,-8.0579567],[-79.0227499,-8.0574224],[-79.0227309,-8.0571424],[-79.0217903,-8.057622],[-79.0205972,-8.0583067],[-79.0201858,-8.0585314],[-79.0185753,-8.0593353],[-79.0182483,-8.0595036],[-79.0183565,-8.0598511],[-79.0183863,-8.0599878],[-79.0183386,-8.0603026],[-79.0183072,-8.0605047],[-79.0182156,-8.0610471],[-79.0181237,-8.0614951],[-79.0180376,-8.0619101],[-79.0179335,-8.0624611],[-79.0176612,-8.0637037],[-79.0182113,-8.0638081],[-79.0189527,-8.063949],[-79.0193603,-8.0640264],[-79.0198616,-8.0641216],[-79.0202652,-8.0641982],[-79.0207167,-8.064284],[-79.0211782,-8.0643716],[-79.0220584,-8.0645291],[-79.0221729,-8.0645495],[-79.0223462,-8.0645888],[-79.0224247,-8.0646066],[-79.0223671,-8.0649908],[-79.0221961,-8.0659995],[-79.0219964,-8.0669789],[-79.0219056,-8.067424],[-79.0217344,-8.0683459],[-79.0214852,-8.0696882],[-79.0213467,-8.0704509],[-79.02125,-8.0709834],[-79.0211687,-8.0714309],[-79.0210873,-8.0718788],[-79.021074,-8.0719523],[-79.0209868,-8.0724323],[-79.0208379,-8.073252],[-79.0207424,-8.0737935],[-79.0207174,-8.0739076],[-79.0206161,-8.074463],[-79.0205437,-8.074892],[-79.0203979,-8.0758034],[-79.020301,-8.0764091],[-79.0202443,-8.0765398],[-79.0201244,-8.0772793],[-79.0200182,-8.077948],[-79.0198995,-8.0786366],[-79.0197843,-8.0793743],[-79.0196763,-8.0800665],[-79.0195586,-8.0807567],[-79.0194151,-8.0814089],[-79.0193563,-8.0816392],[-79.0193377,-8.0817123],[-79.0193233,-8.081766],[-79.0192603,-8.082017],[-79.0191053,-8.0826176],[-79.018903,-8.0834016],[-79.018737,-8.0841143],[-79.0185468,-8.0847586],[-79.01835,-8.085399],[-79.0180687,-8.086036],[-79.0188488,-8.0861544],[-79.0196337,-8.0862709],[-79.0203137,-8.0863755],[-79.0209574,-8.0864763],[-79.0216038,-8.0865842],[-79.0223561,-8.0866973],[-79.0230494,-8.0868036],[-79.0237869,-8.0869208],[-79.0237778,-8.0869892],[-79.0237267,-8.0873718],[-79.0236251,-8.0880427],[-79.0235456,-8.0890432],[-79.0235535,-8.0890815],[-79.0235793,-8.0891102],[-79.0237905,-8.0889832],[-79.0239032,-8.0889274],[-79.0240601,-8.0888717],[-79.0242921,-8.0888086],[-79.0244718,-8.0887668],[-79.0246019,-8.0887562],[-79.024681,-8.0887628],[-79.0249965,-8.0888284],[-79.0252282,-8.0888398],[-79.0254374,-8.0888279],[-79.0256641,-8.0888411],[-79.025839,-8.0888632],[-79.0259175,-8.0888783],[-79.0262125,-8.08895],[-79.026348,-8.0889607],[-79.0264899,-8.0889535],[-79.0264734,-8.0890576],[-79.0267693,-8.0902831],[-79.0269979,-8.0912142],[-79.0271703,-8.0919212],[-79.0272875,-8.0924019],[-79.0274989,-8.0933589],[-79.0275317,-8.0934992],[-79.0277506,-8.0937168],[-79.0280451,-8.0940095],[-79.0284259,-8.094388],[-79.0289511,-8.0949222],[-79.0292904,-8.0945916],[-79.0295023,-8.0944004],[-79.029717,-8.094268],[-79.0299341,-8.0941614],[-79.0300722,-8.0941121],[-79.0301648,-8.0940791],[-79.0303729,-8.0940321],[-79.030551,-8.0940074],[-79.0307028,-8.0939958],[-79.0308031,-8.0939915],[-79.0311116,-8.0940181],[-79.0313798,-8.0940924],[-79.031572,-8.094174],[-79.0317306,-8.0942542],[-79.0319127,-8.0943918],[-79.0321321,-8.094589],[-79.0323706,-8.0948246],[-79.0327829,-8.0944246],[-79.0332354,-8.0939857],[-79.0337462,-8.09349],[-79.0343712,-8.0928849],[-79.0349734,-8.092302],[-79.0350896,-8.0921869],[-79.0352091,-8.0922947],[-79.0355755,-8.0926145],[-79.0357356,-8.0927594],[-79.0359514,-8.0929547],[-79.0364223,-8.093389],[-79.0365101,-8.0934628],[-79.0366411,-8.0935525],[-79.0370216,-8.0937837],[-79.0373802,-8.0939537],[-79.0377449,-8.0941265],[-79.0381164,-8.0943025],[-79.0384601,-8.0944635],[-79.0388546,-8.0946394],[-79.038903,-8.09466],[-79.0389757,-8.0946951],[-79.039028,-8.0946591],[-79.0390882,-8.0946386],[-79.0391677,-8.0946368],[-79.0392206,-8.0946512],[-79.0392686,-8.0946774],[-79.0393059,-8.0947106],[-79.0393352,-8.0947509],[-79.0393547,-8.0947951],[-79.0393644,-8.0948423],[-79.0393639,-8.0948905],[-79.0394856,-8.0949496],[-79.0397577,-8.0950822],[-79.0402661,-8.09533],[-79.0404974,-8.0954599],[-79.0405707,-8.0955133],[-79.0407189,-8.0956211],[-79.0408171,-8.0956926],[-79.041656,-8.0963566],[-79.0422404,-8.0968086],[-79.0428649,-8.0972682],[-79.0429571,-8.097354],[-79.0431159,-8.0975302],[-79.0431917,-8.0976733],[-79.0434176,-8.0983373],[-79.0436018,-8.0988582],[-79.0437293,-8.0992145],[-79.0440857,-8.100214],[-79.0444008,-8.1011494],[-79.0444508,-8.1013229],[-79.0444704,-8.1013911],[-79.044493,-8.1014696],[-79.0445525,-8.101676],[-79.0446351,-8.101963],[-79.0446621,-8.102015],[-79.0446949,-8.1020672],[-79.0448948,-8.1023224],[-79.0450417,-8.1024999],[-79.0452409,-8.1027291],[-79.0453278,-8.102839],[-79.0453812,-8.1028979],[-79.045836,-8.1034254],[-79.045881,-8.1034888],[-79.0459368,-8.1036034],[-79.0459669,-8.1036712],[-79.0460417,-8.1038547],[-79.0460945,-8.1040175],[-79.0461815,-8.1043458],[-79.0462047,-8.1044253],[-79.0466389,-8.1059922],[-79.0467778,-8.1064608],[-79.0468303,-8.1066609],[-79.0468582,-8.1067675],[-79.0468984,-8.1069206],[-79.0471469,-8.1078677],[-79.0472167,-8.1081297],[-79.0473476,-8.1085924],[-79.0475833,-8.1094805],[-79.0476581,-8.109755],[-79.0479263,-8.110744],[-79.0480383,-8.111169],[-79.0480893,-8.1114771],[-79.0481081,-8.1117585],[-79.0481,-8.1120108],[-79.0480571,-8.1123533],[-79.04799,-8.1125817],[-79.0478854,-8.1128818],[-79.0477638,-8.1131407],[-79.0477406,-8.1131901],[-79.0475628,-8.1134644],[-79.0473872,-8.1136672],[-79.0472382,-8.1138189],[-79.0468541,-8.1141713],[-79.0465377,-8.1144407],[-79.0464465,-8.1145124],[-79.0461124,-8.114802],[-79.0452789,-8.1154979],[-79.0451925,-8.1155693],[-79.0442091,-8.1164455],[-79.0441158,-8.1165216],[-79.0434447,-8.117078],[-79.0433833,-8.1171266],[-79.043344,-8.1171623],[-79.0427751,-8.1176361],[-79.0425606,-8.117824],[-79.0417421,-8.1185147],[-79.0412898,-8.1188964],[-79.0407018,-8.1193515],[-79.0407417,-8.119449],[-79.04075,-8.1195538],[-79.0407259,-8.1196562],[-79.0406717,-8.1197466],[-79.0406227,-8.1197948],[-79.0405651,-8.1198324],[-79.0404945,-8.1198598],[-79.0404196,-8.1198714],[-79.0403382,-8.1198656],[-79.0402604,-8.1198411],[-79.0401905,-8.1197994],[-79.0401213,-8.1197281],[-79.0400755,-8.1196403],[-79.0400607,-8.1195678],[-79.0400667,-8.1194449],[-79.0401045,-8.1193534],[-79.0400451,-8.1192498],[-79.0399962,-8.1191645],[-79.0394671,-8.118544],[-79.0390551,-8.1180608],[-79.0388246,-8.1177906],[-79.0387845,-8.1177436],[-79.0387142,-8.1176612],[-79.038664,-8.1176023],[-79.0380841,-8.1169223],[-79.0371954,-8.1158801],[-79.0370094,-8.115662],[-79.0362922,-8.114821],[-79.0355158,-8.1139106],[-79.0351644,-8.1134985],[-79.0348092,-8.1130819],[-79.0344451,-8.112655],[-79.0333154,-8.1136337],[-79.0328758,-8.1139825],[-79.0322537,-8.1144598],[-79.0320623,-8.114698],[-79.0312739,-8.1157431],[-79.0312147,-8.1157976],[-79.0307673,-8.1160244],[-79.0303971,-8.1161899],[-79.0302848,-8.116242],[-79.0299547,-8.1165072],[-79.0294209,-8.1169632],[-79.0286772,-8.1175894],[-79.0284193,-8.1178066],[-79.0282271,-8.1179685],[-79.0276199,-8.1184798],[-79.0275116,-8.118571],[-79.0262945,-8.1195754],[-79.02675,-8.1200995],[-79.0269758,-8.1203911],[-79.0271493,-8.1205805],[-79.0274505,-8.1209684],[-79.0279792,-8.1216187],[-79.0280282,-8.1216881],[-79.0287122,-8.1225294],[-79.0292329,-8.1231862],[-79.029476,-8.1234899],[-79.0298135,-8.1240896],[-79.0299158,-8.1242754],[-79.0300479,-8.1245431],[-79.0302664,-8.1251244],[-79.0303297,-8.1253556],[-79.0303401,-8.1254206],[-79.0303961,-8.1256544],[-79.0304149,-8.1257712],[-79.030435,-8.1259199],[-79.030459,-8.1262506],[-79.0304712,-8.1265307],[-79.030474,-8.1265955],[-79.0304716,-8.126662],[-79.0304694,-8.1267061],[-79.0304667,-8.1267397],[-79.0304075,-8.1267326],[-79.0303135,-8.1267253],[-79.0302526,-8.1267171],[-79.0299185,-8.1266745],[-79.0295335,-8.1266304],[-79.0293173,-8.1266056],[-79.0288559,-8.1265113],[-79.0282974,-8.1263971],[-79.0272399,-8.1260503],[-79.0262905,-8.1257014],[-79.0261484,-8.1256251],[-79.0259428,-8.1255147],[-79.0253822,-8.1252137],[-79.0244836,-8.1246723],[-79.0237336,-8.1241795],[-79.0236823,-8.1241458],[-79.023635,-8.1241261],[-79.0235902,-8.1241222],[-79.0234928,-8.1241332],[-79.0233923,-8.1241853],[-79.0232745,-8.1242196],[-79.0231521,-8.1242295],[-79.023082,-8.1242635],[-79.023045,-8.1242882],[-79.0230112,-8.1243193],[-79.0229785,-8.1243793],[-79.0229195,-8.1245652],[-79.0226623,-8.1253829],[-79.0222692,-8.1267041],[-79.0220871,-8.1272967],[-79.0218655,-8.1280297],[-79.0212867,-8.1298934],[-79.0212723,-8.1299489],[-79.0212642,-8.1300055],[-79.0212625,-8.1300627],[-79.0212679,-8.1301243],[-79.0213053,-8.1303402],[-79.0213494,-8.1303783],[-79.0213842,-8.130417],[-79.0214141,-8.1304594],[-79.0214387,-8.1305051],[-79.0214577,-8.1305533],[-79.0214647,-8.1305771],[-79.0214772,-8.130648],[-79.0214777,-8.1307199],[-79.0214664,-8.1307909],[-79.0214433,-8.1308591],[-79.0214093,-8.1309226],[-79.0213652,-8.1309797],[-79.0213177,-8.1310245],[-79.021264,-8.1310619],[-79.0212053,-8.1310909],[-79.0210708,-8.1311222],[-79.0210125,-8.1311715],[-79.0209749,-8.1312045],[-79.0209266,-8.1312549],[-79.0208884,-8.1313054],[-79.0207975,-8.131497],[-79.0207864,-8.1315377],[-79.0207511,-8.1316238],[-79.0207113,-8.1317079],[-79.0206671,-8.1317899],[-79.0205986,-8.1319001],[-79.0205222,-8.132005],[-79.0194523,-8.1333313],[-79.0187523,-8.1342167],[-79.0186121,-8.1343941],[-79.0180815,-8.1350606],[-79.0179176,-8.1352665],[-79.0173036,-8.1360377],[-79.0171761,-8.1362049],[-79.0171016,-8.136293],[-79.0169674,-8.1364645],[-79.0163391,-8.1372669],[-79.0161674,-8.1374876],[-79.0160661,-8.1376141],[-79.0155706,-8.1382502],[-79.0154632,-8.1384016],[-79.0151836,-8.1387958],[-79.0150009,-8.1390533],[-79.0149821,-8.1390809],[-79.0147317,-8.1394498],[-79.0135822,-8.1411429],[-79.0134014,-8.1415257],[-79.0132938,-8.1418475],[-79.0131959,-8.1422462],[-79.0131093,-8.1426467],[-79.0129272,-8.1435057],[-79.0127819,-8.1441729],[-79.0126284,-8.1448595],[-79.0123919,-8.1459628],[-79.012279,-8.1464454],[-79.0121372,-8.147051],[-79.0120335,-8.147518],[-79.0119063,-8.148091],[-79.0116728,-8.149184],[-79.0114955,-8.1499763],[-79.0113427,-8.1506588],[-79.0113386,-8.15078],[-79.0113452,-8.1508754],[-79.0113592,-8.1509784],[-79.0113796,-8.1510699],[-79.0114056,-8.1511766],[-79.011708,-8.1520558],[-79.011793,-8.1523071],[-79.0122514,-8.1536406],[-79.0122809,-8.1537236],[-79.0122974,-8.1537796],[-79.01232,-8.1538758],[-79.0123373,-8.1539892],[-79.0123453,-8.1541122],[-79.0123313,-8.1545308],[-79.0123112,-8.1551323],[-79.0122827,-8.1559828],[-79.0122654,-8.1565009],[-79.0122385,-8.1572499],[-79.0122184,-8.1577202],[-79.0121927,-8.1583215],[-79.0121668,-8.1589278],[-79.0121352,-8.159759],[-79.012122,-8.1598802],[-79.01208,-8.1601021],[-79.0120092,-8.1603565],[-79.011958,-8.1604939],[-79.0118512,-8.1607334],[-79.0117197,-8.1609753],[-79.0114519,-8.1614389],[-79.0112044,-8.1618797],[-79.0109832,-8.1622575],[-79.010938,-8.1623397],[-79.0106804,-8.1631374],[-79.0105413,-8.1635782],[-79.0102605,-8.1644945],[-79.0102101,-8.1646594],[-79.0101362,-8.1649203],[-79.0100867,-8.1650951],[-79.010031,-8.165466],[-79.0099999,-8.1658028],[-79.0100074,-8.1658849],[-79.0100509,-8.1663604],[-79.010242,-8.1671169],[-79.0103325,-8.1674754],[-79.0104151,-8.1678257],[-79.0105396,-8.1683534],[-79.0106358,-8.1687615],[-79.0106733,-8.1689204],[-79.010099,-8.1690747],[-79.0096048,-8.1692051],[-79.0090164,-8.1693597],[-79.0086784,-8.1694484],[-79.0081967,-8.1695751],[-79.0072408,-8.1698271],[-79.0072047,-8.1698368],[-79.0070439,-8.1698871],[-79.0071594,-8.170442],[-79.007818,-8.1702926],[-79.0078485,-8.1702822],[-79.0083341,-8.1701587],[-79.0088223,-8.17005],[-79.0091795,-8.1699619],[-79.0093182,-8.1699286],[-79.0096212,-8.1710092],[-79.0100918,-8.1708965],[-79.0110905,-8.1706578],[-79.0111103,-8.1707396],[-79.0112111,-8.1711486],[-79.0114503,-8.1721192],[-79.0114579,-8.17215],[-79.0119697,-8.1742066],[-79.0121583,-8.1750055],[-79.0123151,-8.1756721],[-79.0124103,-8.1760464],[-79.0125479,-8.17669],[-79.0125668,-8.1767685],[-79.0129694,-8.1766226],[-79.0131698,-8.1765517],[-79.013295,-8.1768643],[-79.0135113,-8.1774725],[-79.013611,-8.1776355],[-79.0139019,-8.1781111],[-79.0148067,-8.1775089],[-79.0157351,-8.1768924],[-79.0162556,-8.1765462],[-79.0165084,-8.176916],[-79.0165942,-8.1770414],[-79.0169221,-8.1775209],[-79.0163932,-8.177892],[-79.0154467,-8.1784601],[-79.014545,-8.1790921],[-79.0138516,-8.17959],[-79.013696,-8.1796644],[-79.0136303,-8.1796897],[-79.01357,-8.1796936],[-79.0133232,-8.1796617],[-79.0129267,-8.1796003],[-79.0129077,-8.1797399],[-79.0127197,-8.1803308],[-79.0125961,-8.1805981],[-79.0124247,-8.1809706],[-79.0122817,-8.1812913],[-79.0120121,-8.1818894],[-79.0116872,-8.1826129],[-79.0116522,-8.182691],[-79.0111543,-8.1837173],[-79.0108639,-8.1843159],[-79.0106048,-8.1848501],[-79.010598,-8.184864],[-79.0098857,-8.1844873],[-79.0098162,-8.1844923],[-79.0097067,-8.1845312],[-79.0089716,-8.1855377],[-79.0081444,-8.1866637],[-79.0077263,-8.1871061],[-79.0066337,-8.1882523],[-79.0056057,-8.1893408],[-79.0052171,-8.1897523],[-79.0046158,-8.190389]],"nodes":[11812523500,5483476443,5483476444,5483508451,5483508447,5488971793,2339884512,2589604583,2589604584,2589604585,2589604586,3273043453,3112071212,3271162580,3135885820,2339886603,2589604615,2589604621,3133267708,3271162584,1098647414,2503344304,1098634782,4438560879,1098646830,1098584990,1098640674,1098635161,1098646687,1098629349,1098631256,1098590457,1098584544,5483476456,1098628627,5483476448,1098606320,5483458676,11030430157,1098617908,11030430155,1098616557,1098627958,1098650255,1098600281,1098617107,1098650784,1098594336,1098625504,1098635649,1098592604,5082107590,1098648956,1098609606,1098598963,4442749828,1098621033,1098620935,1098642625,1098633701,10733782354,5082176742,1098597011,1098614980,1098589187,1098598130,1098591238,1098647797,5456241643,11027891721,4454080659,5456241641,8167925079,5456218870,5456218869,5456218874,1098595562,1098595956,1098603595,1098613708,1098623890,5483037369,1098593452,5483037363,5456093616,5456095923,1098609497,10735691980,5456218881,5456218884,5456218885,10735697401,5483037374,5483037566,5483037567,5483037568,1098614154,5483037569,5483037570,5483037571,5483079115,5483037572,5483037573,5483037574,5676154295,5483037575,5483037576,5483037577,5483033913,5483037408,5483053673,5432138655,5483053656,5483053653,5089356949,5089356954,10991119016,10991119020,9218480464,5483080330,5432137617,5432137618,11032459635,5432137619,11037482643,5432137620,11032459638,5432138621,11037482648,5432138622,5432138623,5432138624,11032459640,10732171716,5432138626,5432138627,1098597771,11032811715,11032811714,1098629914,11037627715,1088227477,1088227284,1287009874,1144498434,11037627717,11037596773,1088227368,11037596770,1088227438,1088227197,11037596766,11037596768,1144498440,1088227273,1088227344,11037596757,1088227411,12599105496,1098618634,1098628697,1088227187,1098584705,1098595235,5069488049,1098601542,4245990446,360997548,12599105498,5089509043,360997596,360997550,11028289501,11028289496,1098599534,1088227189,1098622053,1088227362,1088227299,1088227217,1088227389,1098632382,1088227252,1098608444,13379185876,11028289493,11028289491,2979702863,1088227230,7115341977,2979738068,11033515780,2979738069,11037604013,11079442300,4454033345,2979738072,11079468213,2979738073,2979738074,11038034978,6011067518,4454033340,11037604021,3392616027,3392616024,2979702874,5052261187,1272612875,1098614072,5052261194,4300591433,11030580727,1098590610,5066876363,5066801057,1098591388,1098597756,1098607130,1098618008,2760772674,1098628113,1098639305,1098618834,7115393639,1098628772,1098640062,1098584627,3569519101,1098595196,11030580729,11030580731,3569519109,1098597318,2335459066,1098606484,2610202760,11030733095,1098617575,11030733092,1098627540,1098619648,11040218413,1098599985,316256694,2602828452,316256695,2602828444,316256696,2610169701,1098605087,2610169702,316256698,1142679910,2610169703,316256699,316256700,2610169704,1098650539,2610169705,316256701,13084941046,316256780,1015366129,1015366163,13084941051,11037474039,1098622036,13084941050,1098643894,5066749588,1098621516,1024375972,11090514812,1024375803,1098608227,1098597256,5455951601,1098611635,5067465333,320114899,316265319,316264036,316264037,1554840447,1628563878,316256200,5072149530,1098598714,1098608890,5476546746,1627006920,1098635606,316260176,1098634502,316260177,11037678904,1098643105,1873564618,1098598795,1024375759,316265260,316265261,316265262,2606512423,1098631512,316265263,13086967433,316265264,2892557349,316265265,1098595664,316265266,13086967445,320114879,12216693885,13089000222,320114890,12216751801,320114884,13086967422,288409665,6119482459,1098650103,13086967411,288409296,1098611390,1098622334,12909185080,12909185072,3293558514,1098587311,12566648340,316254501,12566648337,3670684009,3670684004,316254506,2591061034,288406679,5082247199,3670684010,5082247198,1538275853,1098608862,1098595960,5082247194,8100642057,1098598363,2549352851,10823604366,10823604365,2549352854,10823604364,316254524,10823604374,2549352816,316254525,2549352818,11028561165,316254526,2549352856,10823604375,316254527,10823604376,1538275889,316254528,1538275891,2549352836,316254529,316254530,13009465935,10823604357,2549352838,2549352840,316264863,316264704,10823604356,10823604355,2549352843,10823604354,316264705,8449742276,8449742280,5082156672,11028575137,11028575132,5082689983,11030808101,5082689921,5082689972,5082689975,5082689981,11028575124,5473862021,11028573872,11028573865,1098614918,13137387912,13137387905,316264706,316264707,11028472994,316264708,334650027,334650025,11028586368,1098587150,316264709,11028473001,4858049410,11028564819,11028564811,1145579839,11027997986,316264710,316264711,1098596883,5072509552,5072509550,316264712,1098616428,11028564822,5072509544,5082155984,1098637392,316264713,5072509546,316264714,10925437394,10925437391,10925437398,1098593589,1098598063,11030326618,11030326613,5072494786,7113004004,316264715,4858049417,1098618587,316264718,5072494656,4858049419,4858050023,4858050021,5072444258,1098628657,5467971255,5072444248,5467997270,5072444271,7112997209,1098606775,1098627246,5390643529,5465534818,5390643528,5465526566,5390643527,5465526574,5465526616,5465526614,5465526575,1098614317,1098601934,1098590283,1098597978,1098607434,1098612550,8101486266,1098622612,1098638853,12068808669,5465526567,1098584886,1098640476,5465519404,5465519405,5465519406,1098589478,5465519407,1098600926,5465519410,5465533569,1098631105,8743812280,2465844381,11030614821,1098627115,11030614825,1098594974,8660499811,1098608101,1098598333,5072432999,5465509967,1098635127,1098624331,1098584964,1098614935,1098603549,1098640625,1098591868,1098615286,1098625721,1098646662,5390646246,5390646245,5390646241,5390646244,5390646243,5390646242,5390643533,5390643532,5390643526,5390643531,5467953027,5390642396,5390642388,5390643530,8732276408,8656969951,12216934384,1098594318,8656898677,11030648716,11030648715,1098617235,5282388385,1098617886,1098612874,1098622686,5282388383,5282388367]},"gtfs":{"agency_id":22,"route_id":85,"services":[{"service_id":"Mo-Su","startTime":"05:00","endTime":"23:00","trip_id":19990157}],"filteredStops":{"nodes":[11812523500,13546545802,13546545855,13546545845,13546546408,13546545853,13546546412,13546545856,13546546379,13546545589,13546545601,13546545588,13546545591,13546545592,13546545593,13546545267,13546545869,13546535046,13546545910,13546545911,13546546059,13546545256,13546545265,13546545263,13546546064,11910645397,13546546062,13546545259,13546545258,13546545952,13546545151,13546545953,13546545158,13546545990,13546545148,13546545944,13546545945,13546546005,13546546007,13546546046,13546545939,13546545941,13546545142,13546546119,13546545337,13546546097,13546545313,13546545351,13546546115,13546546102,13546546114,13546545335,13546546116,13546546113,13546545323,13546545308,13546546127,13546546124,13546545320,13546545339,13546545321,13546546091,13546545305,5282388367],"coordinates":[[-79.0226286,-8.0633489],[-79.0255284,-8.0618797],[-79.0231314,-8.0581946],[-79.0194134,-8.0589759],[-79.0184666,-8.0600562],[-79.0180002,-8.0622327],[-79.018885,-8.0639135],[-79.0215366,-8.0644231],[-79.0223502,-8.0653046],[-79.0209539,-8.0728582],[-79.0203885,-8.0761344],[-79.0197903,-8.0796005],[-79.01886,-8.0837451],[-79.0199551,-8.0863014],[-79.0226753,-8.086695],[-79.0269248,-8.0908062],[-79.0314311,-8.0940701],[-79.0328858,-8.0942573],[-79.0359382,-8.0928878],[-79.0382244,-8.0942997],[-79.0428225,-8.0972133],[-79.0439761,-8.0998763],[-79.0455975,-8.1030991],[-79.0467436,-8.1062038],[-79.0477464,-8.1098969],[-79.0479049,-8.1129273],[-79.0464656,-8.1145511],[-79.043084,-8.1174487],[-79.0411518,-8.1190529],[-79.038966,-8.1180256],[-79.0368154,-8.1155031],[-79.0350377,-8.113532],[-79.0342033,-8.1129228],[-79.0304266,-8.1162183],[-79.02883,-8.1175161],[-79.0277518,-8.1184219],[-79.0264409,-8.1195518],[-79.0265009,-8.1197406],[-79.0303058,-8.1250935],[-79.0288355,-8.1265481],[-79.0229051,-8.1247369],[-79.0223485,-8.1265893],[-79.021512,-8.1293113],[-79.0207385,-8.1317398],[-79.0143937,-8.1400217],[-79.0127875,-8.1443587],[-79.0118185,-8.1486882],[-79.0120374,-8.1528521],[-79.0123277,-8.1560432],[-79.0118584,-8.1608151],[-79.0100422,-8.1657736],[-79.0113746,-8.1715419],[-79.0120394,-8.1742805],[-79.0128484,-8.1766198],[-79.0153848,-8.1770864],[-79.0160564,-8.1781298],[-79.0146422,-8.179071],[-79.0134117,-8.1797118],[-79.0128595,-8.1800686],[-79.0118523,-8.1823127],[-79.0103151,-8.1847173],[-79.007885,-8.1870141],[-79.0062284,-8.1887912],[-79.0046158,-8.190389]]},"forcedEndpointStops":[{"stop_id":11812523500,"stop_name":"Prolongación Avenida 12 de Noviembre y Avenida Dinamarca","position":"first"},{"stop_id":5282388367,"stop_name":"Avenida Independencia y Calle Loreto","position":"last"}]}},{"type":"Feature","properties":{"bus":"yes","highway":"bus_stop","name":"PAT-74","network":"Transporte Público Urbano Trujillo","public_transport":"platform","ref":"PAT-74","source":"Gerencia de Transporte Metropolitano de Trujillo","id":13546545802},"geometry":{"type":"Point","coordinates":[-79.0255284,-8.0618797]}},{"type":"Feature","properties":{"bus":"yes","highway":"bus_stop","name":"PAT-106","network":"Transporte Público Urbano Trujillo","public_transport":"platform","ref":"PAT-106","source":"Gerencia de Transporte Metropolitano de Trujillo","id":13546545855},"geometry":{"type":"Point","coordinates":[-79.0231314,-8.0581946]}},{"type":"Feature","properties":{"bus":"yes","highway":"bus_stop","name":"PAT-126","network":"Transporte Público Urbano Trujillo","public_transport":"platform","ref":"PAT-126","source":"Gerencia de Transporte Metropolitano de Trujillo","id":13546545845},"geometry":{"type":"Point","coordinates":[-79.0194134,-8.0589759]}},{"type":"Feature","properties":{"bus":"yes","highway":"bus_stop","name":"PAT-125","network":"Transporte Público Urbano Trujillo","public_transport":"platform","ref":"PAT-125","source":"Gerencia de Transporte Metropolitano de Trujillo","id":13546546408},"geometry":{"type":"Point","coordinates":[-79.0184666,-8.0600562]}},{"type":"Feature","properties":{"bus":"yes","highway":"bus_stop","name":"PAT-108","network":"Transporte Público Urbano Trujillo","public_transport":"platform","ref":"PAT-108","source":"Gerencia de Transporte Metropolitano de Trujillo","id":13546545853},"geometry":{"type":"Point","coordinates":[-79.0180002,-8.0622327]}},{"type":"Feature","properties":{"bus":"yes","highway":"bus_stop","name":"PAT-102","network":"Transporte Público Urbano Trujillo","public_transport":"platform","ref":"PAT-102","source":"Gerencia de Transporte Metropolitano de Trujillo","id":13546546412},"geometry":{"type":"Point","coordinates":[-79.018885,-8.0639135]}},{"type":"Feature","properties":{"bus":"yes","highway":"bus_stop","name":"PAT-104","network":"Transporte Público Urbano Trujillo","public_transport":"platform","ref":"PAT-104","source":"Gerencia de Transporte Metropolitano de Trujillo","id":13546545856},"geometry":{"type":"Point","coordinates":[-79.0215366,-8.0644231]}},{"type":"Feature","properties":{"bus":"yes","highway":"bus_stop","name":"PAT-94","network":"Transporte Público Urbano Trujillo","public_transport":"platform","ref":"PAT-94","source":"Gerencia de Transporte Metropolitano de Trujillo","id":13546546379},"geometry":{"type":"Point","coordinates":[-79.0223502,-8.0653046]}},{"type":"Feature","properties":{"bus":"yes","highway":"bus_stop","name":"PFM-3","network":"Transporte Público Urbano Trujillo","public_transport":"platform","ref":"PFM-3","source":"Gerencia de Transporte Metropolitano de Trujillo","id":13546545589},"geometry":{"type":"Point","coordinates":[-79.0209539,-8.0728582]}},{"type":"Feature","properties":{"bus":"yes","highway":"bus_stop","name":"PFM-16","network":"Transporte Público Urbano Trujillo","public_transport":"platform","ref":"PFM-16","source":"Gerencia de Transporte Metropolitano de Trujillo","id":13546545601},"geometry":{"type":"Point","coordinates":[-79.0203885,-8.0761344]}},{"type":"Feature","properties":{"bus":"yes","highway":"bus_stop","name":"PFM-30","network":"Transporte Público Urbano Trujillo","public_transport":"platform","ref":"PFM-30","source":"Gerencia de Transporte Metropolitano de Trujillo","id":13546545588},"geometry":{"type":"Point","coordinates":[-79.0197903,-8.0796005]}},{"type":"Feature","properties":{"bus":"yes","highway":"bus_stop","name":"PFM-28","network":"Transporte Público Urbano Trujillo","public_transport":"platform","ref":"PFM-28","source":"Gerencia de Transporte Metropolitano de Trujillo","id":13546545591},"geometry":{"type":"Point","coordinates":[-79.01886,-8.0837451]}},{"type":"Feature","properties":{"bus":"yes","highway":"bus_stop","name":"PFM-27","network":"Transporte Público Urbano Trujillo","public_transport":"platform","ref":"PFM-27","source":"Gerencia de Transporte Metropolitano de Trujillo","id":13546545592},"geometry":{"type":"Point","coordinates":[-79.0199551,-8.0863014]}},{"type":"Feature","properties":{"bus":"yes","highway":"bus_stop","name":"PFM-26","network":"Transporte Público Urbano Trujillo","public_transport":"platform","ref":"PFM-26","source":"Gerencia de Transporte Metropolitano de Trujillo","id":13546545593},"geometry":{"type":"Point","coordinates":[-79.0226753,-8.086695]}},{"type":"Feature","properties":{"bus":"yes","highway":"bus_stop","name":"AK-456","network":"Transporte Público Urbano Trujillo","public_transport":"platform","ref":"AK-456","source":"Gerencia de Transporte Metropolitano de Trujillo","id":13546545267},"geometry":{"type":"Point","coordinates":[-79.0269248,-8.0908062]}},{"type":"Feature","properties":{"bus":"yes","highway":"bus_stop","name":"TEVA-340","network":"Transporte Público Urbano Trujillo","public_transport":"platform","ref":"TEVA-340","source":"Gerencia de Transporte Metropolitano de Trujillo","id":13546545869},"geometry":{"type":"Point","coordinates":[-79.0314311,-8.0940701]}},{"type":"Feature","properties":{"bus":"yes","highway":"bus_stop","name":"TUPAT-122","network":"Transporte Público Urbano Trujillo","public_transport":"platform","ref":"TUPAT-122","source":"Gerencia de Transporte Metropolitano de Trujillo","id":13546535046},"geometry":{"type":"Point","coordinates":[-79.0328858,-8.0942573]}},{"type":"Feature","properties":{"bus":"yes","highway":"bus_stop","name":"PACALS-90","network":"Transporte Público Urbano Trujillo","public_transport":"platform","ref":"PACALS-90","source":"Gerencia de Transporte Metropolitano de Trujillo","id":13546545910},"geometry":{"type":"Point","coordinates":[-79.0359382,-8.0928878]}},{"type":"Feature","properties":{"bus":"yes","highway":"bus_stop","name":"PACALS-89","network":"Transporte Público Urbano Trujillo","public_transport":"platform","ref":"PACALS-89","source":"Gerencia de Transporte Metropolitano de Trujillo","id":13546545911},"geometry":{"type":"Point","coordinates":[-79.0382244,-8.0942997]}},{"type":"Feature","properties":{"bus":"yes","highway":"bus_stop","name":"AMEO-84","network":"Transporte Público Urbano Trujillo","public_transport":"platform","ref":"AMEO-84","source":"Gerencia de Transporte Metropolitano de Trujillo","id":13546546059},"geometry":{"type":"Point","coordinates":[-79.0428225,-8.0972133]}},{"type":"Feature","properties":{"bus":"yes","highway":"bus_stop","name":"AMEO-86","network":"Transporte Público Urbano Trujillo","public_transport":"platform","ref":"AMEO-86","source":"Gerencia de Transporte Metropolitano de Trujillo","id":13546545256},"geometry":{"type":"Point","coordinates":[-79.0439761,-8.0998763]}},{"type":"Feature","properties":{"bus":"yes","highway":"bus_stop","name":"AMEO-68","network":"Transporte Público Urbano Trujillo","public_transport":"platform","ref":"AMEO-68","source":"Gerencia de Transporte Metropolitano de Trujillo","id":13546545265},"geometry":{"type":"Point","coordinates":[-79.0455975,-8.1030991]}},{"type":"Feature","properties":{"bus":"yes","highway":"bus_stop","name":"AMEO-70","network":"Transporte Público Urbano Trujillo","public_transport":"platform","ref":"AMEO-70","source":"Gerencia de Transporte Metropolitano de Trujillo","id":13546545263},"geometry":{"type":"Point","coordinates":[-79.0467436,-8.1062038]}},{"type":"Feature","properties":{"bus":"yes","highway":"bus_stop","name":"AMEO-71","network":"Transporte Público Urbano Trujillo","public_transport":"platform","ref":"AMEO-71","source":"Gerencia de Transporte Metropolitano de Trujillo","id":13546546064},"geometry":{"type":"Point","coordinates":[-79.0477464,-8.1098969]}},{"type":"Feature","properties":{"advertising":"no","bench":"yes","bicycle_parking":"no","bin":"no","bus":"yes","departures_board":"no","highway":"bus_stop","level":"0","lit":"yes","name":"AMEO-74 Calle 26","network":"Transporte Público Urbano Trujillo","passenger_information_display:speech_output":"no","pole":"yes","public_transport":"platform","ramp":"no","ref":"AMEO-74","shelter":"no","source:ref":"Gerencia de Transporte Metropolitano de Trujillo","tactile_paving":"no","tactile_writing:braille:es":"no","id":11910645397},"geometry":{"type":"Point","coordinates":[-79.0479049,-8.1129273]}},{"type":"Feature","properties":{"bus":"yes","highway":"bus_stop","name":"AMEO-75","network":"Transporte Público Urbano Trujillo","public_transport":"platform","ref":"AMEO-75","source":"Gerencia de Transporte Metropolitano de Trujillo","id":13546546062},"geometry":{"type":"Point","coordinates":[-79.0464656,-8.1145511]}},{"type":"Feature","properties":{"bus":"yes","highway":"bus_stop","name":"AMEO-79","network":"Transporte Público Urbano Trujillo","public_transport":"platform","ref":"AMEO-79","source":"Gerencia de Transporte Metropolitano de Trujillo","id":13546545259},"geometry":{"type":"Point","coordinates":[-79.043084,-8.1174487]}},{"type":"Feature","properties":{"bus":"yes","highway":"bus_stop","name":"AMEO-80","network":"Transporte Público Urbano Trujillo","public_transport":"platform","ref":"AMEO-80","source":"Gerencia de Transporte Metropolitano de Trujillo","id":13546545258},"geometry":{"type":"Point","coordinates":[-79.0411518,-8.1190529]}},{"type":"Feature","properties":{"bus":"yes","highway":"bus_stop","name":"JPT-130","network":"Transporte Público Urbano Trujillo","public_transport":"platform","ref":"JPT-130","source":"Gerencia de Transporte Metropolitano de Trujillo","id":13546545952},"geometry":{"type":"Point","coordinates":[-79.038966,-8.1180256]}},{"type":"Feature","properties":{"bus":"yes","highway":"bus_stop","name":"JPT-128","network":"Transporte Público Urbano Trujillo","public_transport":"platform","ref":"JPT-128","source":"Gerencia de Transporte Metropolitano de Trujillo","id":13546545151},"geometry":{"type":"Point","coordinates":[-79.0368154,-8.1155031]}},{"type":"Feature","properties":{"bus":"yes","highway":"bus_stop","name":"JPT-129","network":"Transporte Público Urbano Trujillo","public_transport":"platform","ref":"JPT-129","source":"Gerencia de Transporte Metropolitano de Trujillo","id":13546545953},"geometry":{"type":"Point","coordinates":[-79.0350377,-8.113532]}},{"type":"Feature","properties":{"bus":"yes","highway":"bus_stop","name":"JEN-140","network":"Transporte Público Urbano Trujillo","public_transport":"platform","ref":"JEN-140","source":"Gerencia de Transporte Metropolitano de Trujillo","id":13546545158},"geometry":{"type":"Point","coordinates":[-79.0342033,-8.1129228]}},{"type":"Feature","properties":{"bus":"yes","highway":"bus_stop","name":"ESP-4","network":"Transporte Público Urbano Trujillo","public_transport":"platform","ref":"ESP-4","source":"Gerencia de Transporte Metropolitano de Trujillo","id":13546545990},"geometry":{"type":"Point","coordinates":[-79.0304266,-8.1162183]}},{"type":"Feature","properties":{"bus":"yes","highway":"bus_stop","name":"JUL-436","network":"Transporte Público Urbano Trujillo","public_transport":"platform","ref":"JUL-436","source":"Gerencia de Transporte Metropolitano de Trujillo","id":13546545148},"geometry":{"type":"Point","coordinates":[-79.02883,-8.1175161]}},{"type":"Feature","properties":{"bus":"yes","highway":"bus_stop","name":"JUL-440","network":"Transporte Público Urbano Trujillo","public_transport":"platform","ref":"JUL-440","source":"Gerencia de Transporte Metropolitano de Trujillo","id":13546545944},"geometry":{"type":"Point","coordinates":[-79.0277518,-8.1184219]}},{"type":"Feature","properties":{"bus":"yes","highway":"bus_stop","name":"JUL-435","network":"Transporte Público Urbano Trujillo","public_transport":"platform","ref":"JUL-435","source":"Gerencia de Transporte Metropolitano de Trujillo","id":13546545945},"geometry":{"type":"Point","coordinates":[-79.0264409,-8.1195518]}},{"type":"Feature","properties":{"bus":"yes","highway":"bus_stop","name":"COSR-336","network":"Transporte Público Urbano Trujillo","public_transport":"platform","ref":"COSR-336","source":"Gerencia de Transporte Metropolitano de Trujillo","id":13546546005},"geometry":{"type":"Point","coordinates":[-79.0265009,-8.1197406]}},{"type":"Feature","properties":{"bus":"yes","highway":"bus_stop","name":"COSR-333","network":"Transporte Público Urbano Trujillo","public_transport":"platform","ref":"COSR-333","source":"Gerencia de Transporte Metropolitano de Trujillo","id":13546546007},"geometry":{"type":"Point","coordinates":[-79.0303058,-8.1250935]}},{"type":"Feature","properties":{"bus":"yes","highway":"bus_stop","name":"AMS-51","network":"Transporte Público Urbano Trujillo","public_transport":"platform","ref":"AMS-51","source":"Gerencia de Transporte Metropolitano de Trujillo","id":13546546046},"geometry":{"type":"Point","coordinates":[-79.0288355,-8.1265481]}},{"type":"Feature","properties":{"bus":"yes","highway":"bus_stop","name":"LAM-415","network":"Transporte Público Urbano Trujillo","public_transport":"platform","ref":"LAM-415","source":"Gerencia de Transporte Metropolitano de Trujillo","id":13546545939},"geometry":{"type":"Point","coordinates":[-79.0229051,-8.1247369]}},{"type":"Feature","properties":{"bus":"yes","highway":"bus_stop","name":"LAM-413","network":"Transporte Público Urbano Trujillo","public_transport":"platform","ref":"LAM-413","source":"Gerencia de Transporte Metropolitano de Trujillo","id":13546545941},"geometry":{"type":"Point","coordinates":[-79.0223485,-8.1265893]}},{"type":"Feature","properties":{"bus":"yes","highway":"bus_stop","name":"LAM-417","network":"Transporte Público Urbano Trujillo","public_transport":"platform","ref":"LAM-417","source":"Gerencia de Transporte Metropolitano de Trujillo","id":13546545142},"geometry":{"type":"Point","coordinates":[-79.021512,-8.1293113]}},{"type":"Feature","properties":{"bus":"yes","highway":"bus_stop","name":"PM-124","network":"Transporte Público Urbano Trujillo","public_transport":"platform","ref":"PM-124","source":"Gerencia de Transporte Metropolitano de Trujillo","id":13546546119},"geometry":{"type":"Point","coordinates":[-79.0207385,-8.1317398]}},{"type":"Feature","properties":{"bus":"yes","highway":"bus_stop","name":"PM-125","network":"Transporte Público Urbano Trujillo","public_transport":"platform","ref":"PM-125","source":"Gerencia de Transporte Metropolitano de Trujillo","id":13546545337},"geometry":{"type":"Point","coordinates":[-79.0143937,-8.1400217]}},{"type":"Feature","properties":{"bus":"yes","highway":"bus_stop","name":"PM-70","network":"Transporte Público Urbano Trujillo","public_transport":"platform","ref":"PM-70","source":"Gerencia de Transporte Metropolitano de Trujillo","id":13546546097},"geometry":{"type":"Point","coordinates":[-79.0127875,-8.1443587]}},{"type":"Feature","properties":{"bus":"yes","highway":"bus_stop","name":"PM-69","network":"Transporte Público Urbano Trujillo","public_transport":"platform","ref":"PM-69","source":"Gerencia de Transporte Metropolitano de Trujillo","id":13546545313},"geometry":{"type":"Point","coordinates":[-79.0118185,-8.1486882]}},{"type":"Feature","properties":{"bus":"yes","highway":"bus_stop","name":"PM-1","network":"Transporte Público Urbano Trujillo","public_transport":"platform","ref":"PM-1","source":"Gerencia de Transporte Metropolitano de Trujillo","id":13546545351},"geometry":{"type":"Point","coordinates":[-79.0120374,-8.1528521]}},{"type":"Feature","properties":{"bus":"yes","highway":"bus_stop","name":"PM-2","network":"Transporte Público Urbano Trujillo","public_transport":"platform","ref":"PM-2","source":"Gerencia de Transporte Metropolitano de Trujillo","id":13546546115},"geometry":{"type":"Point","coordinates":[-79.0123277,-8.1560432]}},{"type":"Feature","properties":{"bus":"yes","highway":"bus_stop","name":"PM-42","network":"Transporte Público Urbano Trujillo","public_transport":"platform","ref":"PM-42","source":"Gerencia de Transporte Metropolitano de Trujillo","id":13546546102},"geometry":{"type":"Point","coordinates":[-79.0118584,-8.1608151]}},{"type":"Feature","properties":{"bus":"yes","highway":"bus_stop","name":"PM-20","network":"Transporte Público Urbano Trujillo","public_transport":"platform","ref":"PM-20","source":"Gerencia de Transporte Metropolitano de Trujillo","id":13546546114},"geometry":{"type":"Point","coordinates":[-79.0100422,-8.1657736]}},{"type":"Feature","properties":{"bus":"yes","highway":"bus_stop","name":"PM-18","network":"Transporte Público Urbano Trujillo","public_transport":"platform","ref":"PM-18","source":"Gerencia de Transporte Metropolitano de Trujillo","id":13546545335},"geometry":{"type":"Point","coordinates":[-79.0113746,-8.1715419]}},{"type":"Feature","properties":{"bus":"yes","highway":"bus_stop","name":"PM-19","network":"Transporte Público Urbano Trujillo","public_transport":"platform","ref":"PM-19","source":"Gerencia de Transporte Metropolitano de Trujillo","id":13546546116},"geometry":{"type":"Point","coordinates":[-79.0120394,-8.1742805]}},{"type":"Feature","properties":{"bus":"yes","highway":"bus_stop","name":"PM-21","network":"Transporte Público Urbano Trujillo","public_transport":"platform","ref":"PM-21","source":"Gerencia de Transporte Metropolitano de Trujillo","id":13546546113},"geometry":{"type":"Point","coordinates":[-79.0128484,-8.1766198]}},{"type":"Feature","properties":{"bus":"yes","highway":"bus_stop","name":"PM-46","network":"Transporte Público Urbano Trujillo","public_transport":"platform","ref":"PM-46","source":"Gerencia de Transporte Metropolitano de Trujillo","id":13546545323},"geometry":{"type":"Point","coordinates":[-79.0153848,-8.1770864]}},{"type":"Feature","properties":{"bus":"yes","highway":"bus_stop","name":"PM-8","network":"Transporte Público Urbano Trujillo","public_transport":"platform","ref":"PM-8","source":"Gerencia de Transporte Metropolitano de Trujillo","id":13546545308},"geometry":{"type":"Point","coordinates":[-79.0160564,-8.1781298]}},{"type":"Feature","properties":{"bus":"yes","highway":"bus_stop","name":"PM-10","network":"Transporte Público Urbano Trujillo","public_transport":"platform","ref":"PM-10","source":"Gerencia de Transporte Metropolitano de Trujillo","id":13546546127},"geometry":{"type":"Point","coordinates":[-79.0146422,-8.179071]}},{"type":"Feature","properties":{"bus":"yes","highway":"bus_stop","name":"PM-11","network":"Transporte Público Urbano Trujillo","public_transport":"platform","ref":"PM-11","source":"Gerencia de Transporte Metropolitano de Trujillo","id":13546546124},"geometry":{"type":"Point","coordinates":[-79.0134117,-8.1797118]}},{"type":"Feature","properties":{"bus":"yes","highway":"bus_stop","name":"PM-5","network":"Transporte Público Urbano Trujillo","public_transport":"platform","ref":"PM-5","source":"Gerencia de Transporte Metropolitano de Trujillo","id":13546545320},"geometry":{"type":"Point","coordinates":[-79.0128595,-8.1800686]}},{"type":"Feature","properties":{"bus":"yes","highway":"bus_stop","name":"PM-12","network":"Transporte Público Urbano Trujillo","public_transport":"platform","ref":"PM-12","source":"Gerencia de Transporte Metropolitano de Trujillo","id":13546545339},"geometry":{"type":"Point","coordinates":[-79.0118523,-8.1823127]}},{"type":"Feature","properties":{"bus":"yes","highway":"bus_stop","name":"PM-48","network":"Transporte Público Urbano Trujillo","public_transport":"platform","ref":"PM-48","source":"Gerencia de Transporte Metropolitano de Trujillo","id":13546545321},"geometry":{"type":"Point","coordinates":[-79.0103151,-8.1847173]}},{"type":"Feature","properties":{"bus":"yes","highway":"bus_stop","name":"PM-85","network":"Transporte Público Urbano Trujillo","public_transport":"platform","ref":"PM-85","source":"Gerencia de Transporte Metropolitano de Trujillo","id":13546546091},"geometry":{"type":"Point","coordinates":[-79.007885,-8.1870141]}},{"type":"Feature","properties":{"bus":"yes","highway":"bus_stop","name":"PM-88","network":"Transporte Público Urbano Trujillo","public_transport":"platform","ref":"PM-88","source":"Gerencia de Transporte Metropolitano de Trujillo","id":13546545305},"geometry":{"type":"Point","coordinates":[-79.0062284,-8.1887912]}}]}