{"type":"FeatureCollection","features":[{"type":"Feature","properties":{"colour":"#9933CC","fee":"yes","from":"Plaza de Armas","hash":"5804","interval":"5","name":"Plaza de Armas → La Esperanza","network":"Transporte Público Urbano Trujillo","opening_hours":"Mo-Su 05:00-23:00","operator":"PRUEBAS EXPRESS S.A.","public_transport:version":"2","ref":"TR-01 A","route":"bus","survey:avg_speed:kmh":"20","to":"La Esperanza","type":"route","id":20603178},"geometry":{"type":"LineString","coordinates":[[-79.0290974,-8.1113505],[-79.0294341,-8.1117387],[-79.0295158,-8.1118082],[-79.029566,-8.1118519],[-79.0303277,-8.1127066],[-79.0311903,-8.1120094],[-79.0313923,-8.11186],[-79.0322383,-8.1112368],[-79.0328511,-8.1107776],[-79.0327862,-8.1107045],[-79.0318627,-8.1095401],[-79.0315158,-8.1091362],[-79.0308848,-8.1084412],[-79.0309392,-8.1083788],[-79.0312695,-8.1079884],[-79.0317317,-8.107468],[-79.03194,-8.1072334],[-79.0320197,-8.1071419],[-79.0320919,-8.1070581],[-79.032555,-8.1065145],[-79.0327304,-8.1063196],[-79.0328738,-8.1061524],[-79.0329379,-8.1061073],[-79.0330316,-8.1060599],[-79.0332619,-8.1059344],[-79.0340729,-8.1055038],[-79.0342754,-8.1053474],[-79.0343763,-8.1052353],[-79.0344785,-8.1050725],[-79.0345573,-8.1049286],[-79.035029,-8.1038912],[-79.0352355,-8.1034226],[-79.0352592,-8.1033253],[-79.0352569,-8.1032604],[-79.0352585,-8.1031926],[-79.0355236,-8.1026195],[-79.0360744,-8.1014288],[-79.0361202,-8.1013298],[-79.0363835,-8.1007516],[-79.0371152,-8.0991447],[-79.0376151,-8.098047],[-79.0383127,-8.096515],[-79.0387846,-8.0954784],[-79.038894,-8.095238],[-79.0389838,-8.0950405],[-79.0391677,-8.0946368],[-79.0392308,-8.094498],[-79.0396733,-8.0935268],[-79.0400886,-8.0926148],[-79.0405347,-8.0916352],[-79.0405882,-8.0915177],[-79.0407211,-8.0912259],[-79.0409105,-8.0908099],[-79.0411424,-8.0903006],[-79.041175,-8.0902291],[-79.0412139,-8.0901387],[-79.0418823,-8.0886758],[-79.0419031,-8.08863],[-79.0422611,-8.0878438],[-79.0422798,-8.0878027],[-79.042786,-8.0866852],[-79.0428309,-8.0865862],[-79.0432663,-8.085626],[-79.0434154,-8.0853025],[-79.0436078,-8.0848543],[-79.0438792,-8.0842651],[-79.0444934,-8.082889],[-79.0450149,-8.0817465],[-79.0452395,-8.0812522],[-79.0452555,-8.0812139],[-79.0453486,-8.0810077],[-79.04537,-8.0809604],[-79.0455695,-8.0805199],[-79.0455838,-8.0804875],[-79.0460909,-8.0793389],[-79.0463929,-8.0786945],[-79.0464798,-8.0785009],[-79.0469264,-8.0774729],[-79.0471244,-8.07707],[-79.0471847,-8.0769365],[-79.0476977,-8.075801],[-79.0479125,-8.0753368],[-79.0482508,-8.0746003],[-79.0483231,-8.0744428],[-79.0480053,-8.0742704],[-79.0478967,-8.0742114],[-79.0474652,-8.0739797],[-79.0468533,-8.0736421],[-79.0466549,-8.0735326],[-79.0459967,-8.0731237],[-79.045375,-8.072761],[-79.0447392,-8.0724013],[-79.0441873,-8.0720892],[-79.0436485,-8.0718062],[-79.0435772,-8.0717151],[-79.0435542,-8.0716856],[-79.0435269,-8.0713593],[-79.0431249,-8.0706947],[-79.0432352,-8.0706211],[-79.0435442,-8.070415],[-79.04356,-8.0704045],[-79.0437973,-8.0702223],[-79.0440096,-8.0699419],[-79.044239,-8.0694872],[-79.0444146,-8.0690828],[-79.0439699,-8.0687828],[-79.0431056,-8.0682475],[-79.0424812,-8.0678605],[-79.0415403,-8.0672846],[-79.040725,-8.0667856],[-79.0402598,-8.0664821],[-79.0397566,-8.0661884],[-79.0392945,-8.0658902],[-79.0388551,-8.0656054],[-79.0383712,-8.0653227],[-79.0381181,-8.0652009],[-79.0378802,-8.0650803],[-79.0383595,-8.0641985],[-79.0384663,-8.0638697],[-79.0389145,-8.0631134],[-79.0395463,-8.0620706],[-79.0401345,-8.0610945],[-79.0400139,-8.0610289],[-79.0401259,-8.0608556],[-79.0402477,-8.0606711],[-79.0404807,-8.0602903],[-79.0398638,-8.0599481]],"nodes":[13776095615,2689739883,316259703,13403754789,316489564,316488516,11037871835,316488544,316264083,5052328915,320114946,1144498422,320114967,3387098458,1098644408,5085070738,11073669295,3387098460,11073669260,11037805364,4633926927,3387098461,3386747958,3728336230,3386747959,3386747957,2587893410,11037837218,2587893409,11037837219,3386747960,3386747961,3743507183,3743507182,3743507181,10723909504,1286991507,1873564596,1098636126,320113103,1873564588,1873564584,11037737310,12599107405,1098634854,1098628697,12599107415,10723937588,10723917704,1873564579,1873564578,1098604386,11028490533,11028490531,1098596715,5089708237,1873564562,9750462203,9750462200,1286991544,11028490525,10723917703,1873564560,1873564557,11028490521,1286991475,1873564556,1286991531,13380030107,5089454641,5079937571,4593388343,4593388345,11028577305,5489281686,1098607526,1873564548,1286991495,1873564547,1098640680,1098595377,1098597546,5079937577,1286991540,1098587116,1098628188,1098646690,4427162240,1098598783,1098646777,1098590604,5456199617,1098594865,5073582811,12455553638,1098639206,1098585096,1098636165,11028507084,5489262309,1098646318,1098601300,1098623726,1098595190,5456139605,1098635727,5489245455,5456304228,12058540538,2589604506,2589604509,3133269330,3265948194,2589604507,3135856511,3135856507,3135856520,3265943104,3265943101,3135856519,3265943094,3135856518,8129747720,4438549673,5489426813,4438549674,2589604469]},"gtfs":{"agency_id":37,"route_id":86,"services":[{"service_id":"Mo-Su","startTime":"05:00","endTime":"23:00","trip_id":20603178}],"filteredStops":{"nodes":[13776095615,13546545916,13546545103,11910518838,13546545104,13546545914,13546545101,13546545102,13546546328,13546546327,13546546356,13546546347,2589604469],"coordinates":[[-79.0290974,-8.1113505],[-79.0352097,-8.1030767],[-79.037391,-8.0984552],[-79.0381108,-8.0968833],[-79.0385055,-8.0959838],[-79.0406773,-8.0912399],[-79.0415494,-8.0893164],[-79.0426742,-8.0868535],[-79.04398,-8.0839501],[-79.0450993,-8.0814723],[-79.0463248,-8.0788273],[-79.0433433,-8.0705225],[-79.0398638,-8.0599481]]},"forcedEndpointStops":[{"stop_id":13776095615,"stop_name":"Jirón Independencia","position":"first"},{"stop_id":2589604469,"stop_name":"Calle Prolongación Republica de Bolivia","position":"last"}]}},{"type":"Feature","properties":{"bus":"yes","highway":"bus_stop","name":"NPT-196","network":"Transporte Público Urbano Trujillo","public_transport":"platform","ref":"NPT-196","source":"Gerencia de Transporte Metropolitano de Trujillo","id":13546545916},"geometry":{"type":"Point","coordinates":[-79.0352097,-8.1030767]}},{"type":"Feature","properties":{"bus":"yes","highway":"bus_stop","name":"NPT-207","network":"Transporte Público Urbano Trujillo","public_transport":"platform","ref":"NPT-207","source":"Gerencia de Transporte Metropolitano de Trujillo","id":13546545103},"geometry":{"type":"Point","coordinates":[-79.037391,-8.0984552]}},{"type":"Feature","properties":{"advertising":"no","bench":"no","bicycle_parking":"no","bin":"no","bus":"yes","departures_board":"no","highway":"bus_stop","level":"0","lit":"no","name":"Pasaje E. Dunker La Valle","passenger_information_display:speech_output":"no","pole":"yes","public_transport":"platform","ramp":"no","shelter":"no","tactile_paving":"no","tactile_writing:braille:es":"no","id":11910518838},"geometry":{"type":"Point","coordinates":[-79.0381108,-8.0968833]}},{"type":"Feature","properties":{"bus":"yes","highway":"bus_stop","name":"NPT-206","network":"Transporte Público Urbano Trujillo","public_transport":"platform","ref":"NPT-206","source":"Gerencia de Transporte Metropolitano de Trujillo","id":13546545104},"geometry":{"type":"Point","coordinates":[-79.0385055,-8.0959838]}},{"type":"Feature","properties":{"bus":"yes","highway":"bus_stop","name":"NPT-205","network":"Transporte Público Urbano Trujillo","public_transport":"platform","ref":"NPT-205","source":"Gerencia de Transporte Metropolitano de Trujillo","id":13546545914},"geometry":{"type":"Point","coordinates":[-79.0406773,-8.0912399]}},{"type":"Feature","properties":{"bus":"yes","highway":"bus_stop","name":"NPT-209","network":"Transporte Público Urbano Trujillo","public_transport":"platform","ref":"NPT-209","source":"Gerencia de Transporte Metropolitano de Trujillo","id":13546545101},"geometry":{"type":"Point","coordinates":[-79.0415494,-8.0893164]}},{"type":"Feature","properties":{"bus":"yes","highway":"bus_stop","name":"NPT-208","network":"Transporte Público Urbano Trujillo","public_transport":"platform","ref":"NPT-208","source":"Gerencia de Transporte Metropolitano de Trujillo","id":13546545102},"geometry":{"type":"Point","coordinates":[-79.0426742,-8.0868535]}},{"type":"Feature","properties":{"bus":"yes","highway":"bus_stop","name":"PE-304","network":"Transporte Público Urbano Trujillo","public_transport":"platform","ref":"PE-304","source":"Gerencia de Transporte Metropolitano de Trujillo","id":13546546328},"geometry":{"type":"Point","coordinates":[-79.04398,-8.0839501]}},{"type":"Feature","properties":{"bus":"yes","highway":"bus_stop","name":"PE-305","network":"Transporte Público Urbano Trujillo","public_transport":"platform","ref":"PE-305","source":"Gerencia de Transporte Metropolitano de Trujillo","id":13546546327},"geometry":{"type":"Point","coordinates":[-79.0450993,-8.0814723]}},{"type":"Feature","properties":{"bus":"yes","highway":"bus_stop","name":"PE-225","network":"Transporte Público Urbano Trujillo","public_transport":"platform","ref":"PE-225","source":"Gerencia de Transporte Metropolitano de Trujillo","id":13546546356},"geometry":{"type":"Point","coordinates":[-79.0463248,-8.0788273]}},{"type":"Feature","properties":{"bus":"yes","highway":"bus_stop","name":"PE-242","network":"Transporte Público Urbano Trujillo","public_transport":"platform","ref":"PE-242","source":"Gerencia de Transporte Metropolitano de Trujillo","id":13546546347},"geometry":{"type":"Point","coordinates":[-79.0433433,-8.0705225]}}]}